{"2569490":{"location":[48.4605238,-123.4448363],"ct":"CA","tp":"CR","ts":"2023-01-02T01:46:36Z","tX":160,"tY":353,"tags":{"internet_access":"wlan","internet_access:fee":"yes","name":"Fort Victoria RV Park","website":"https://fortvictoria.ca/"}},"2742794":{"location":[48.4618222,-123.7384668],"ct":"CA","tp":"CS","ts":"2017-02-20T05:53:24Z","tX":160,"tY":353,"tags":{"capacity":"67","caravans":"yes","internet_access":"no","name":"Spring Salmon Place Campground","operator":"T’Sou-ke Nation","sanitary_dump_station":"no","seasonal":"yes","smoking":"no","tents":"yes"}},"47599122":{"location":[48.4660854,-123.5483128],"ct":"CA","tp":"CS","ts":"2019-05-24T23:56:01Z","tX":160,"tY":353,"tags":{"name":"Goldstream Group Campsite - Prospector (Upper) Site"}},"156900831":{"location":[48.6739589,-123.4263792],"ct":"CA","tp":"CS","ts":"2024-07-02T20:09:49Z","tX":160,"tY":353,"tags":{"name":"SMONEĆTEN (McDonald) Campground","website":"https://parks.canada.ca/pn-np/bc/gulf/activ/camping/campinglavantpays-frontcountrycamping"}},"164113984":{"location":[48.462195,-123.5634727],"ct":"CA","tp":"CS","ts":"2012-11-05T03:04:47Z","tX":160,"tY":353,"tags":{"name":"Goldstream Campground"}},"189157243":{"location":[48.4642046,-123.5464588],"ct":"CA","tp":"CS","ts":"2020-12-04T07:04:48Z","tX":160,"tY":353,"tags":{"name":"Goldstream Group Campsite - Goldminer (Lower) Site"}},"192169742":{"location":[48.6064052,-123.5290614],"ct":"CA","tp":"CS","ts":"2023-01-02T01:45:23Z","tX":160,"tY":353,"tags":{"capacity":"53","email":"k2cowichan@shaw.ca","fee":"yes","internet_access":"no","name":"Bamberton Provincial Park Campground","operator":"K2 Cowichan Park Services Ltd.","phone":"+1-877-559-2115","website":"https://www.env.gov.bc.ca/bcparks/explore/parkpgs/bamberton/"}},"623624967":{"location":[48.5445698,-123.568089],"ct":"CA","tp":"CR","ts":"2023-01-02T01:34:55Z","tX":160,"tY":353,"tags":{"addr:housenumber":"230","addr:street":"Okotoks Drive","name":"Cedar Springs Ranch","phone":"+1-250-478-3332","website":"https://cedarspringsranch.com/"}},"646732377":{"location":[48.5623958,-123.5637107],"ct":"CA","tp":"CS","ts":"2020-02-12T21:57:51Z","tX":160,"tY":353,"tags":{}},"1702244908":{"location":[48.6625177,-123.5537149],"ct":"CA","tp":"CR","ts":"2012-05-14T01:05:15Z","tX":160,"tY":353,"tags":{}},"1702246955":{"location":[48.6619791,-123.5539617],"ct":"CA","tp":"CS","ts":"2012-05-14T01:05:15Z","tX":160,"tY":353,"tags":{}},"1997886634":{"location":[48.4625404,-123.5603068],"ct":"CA","tp":"SD","ts":"2017-02-13T22:26:51Z","tX":160,"tY":353,"tags":{"charge":"$5","fee":"yes","sanitary_dump_station:round_drain":"yes"}},"11249187363":{"location":[48.6683638,-123.6009728],"ct":"CA","tp":"CS","ts":"2024-04-22T06:00:50Z","tX":160,"tY":353,"tags":{"access":"customers","addr:city":"Cobble Hill","addr:housenumber":"3120","addr:postcode":"V0R 1L6","addr:province":"BC","addr:street":"Cameron-Taggart Road","caravans":"yes","fee":"yes","name":"Sol Sante Club","nudism":"customary","operator":"Sol Sante Club","static_caravans":"yes","tents":"yes"}}}