{"562746014":{"location":[46.998239,-123.5900549],"ct":"US","tp":"CS","ts":"2018-02-20T14:00:14Z","tX":160,"tY":360,"tags":{}},"576107805":{"location":[47.020824,-123.691066],"ct":"US","tp":"CS","ts":"2021-03-25T05:44:18Z","tX":160,"tY":360,"tags":{"addr:city":"Montesano","addr:housenumber":"530","addr:postcode":"98563","addr:state":"WA","addr:street":"Geissler Road","name":"Winochee Wildwood Park","website":"https://www.wwpark.org/"}},"580756649":{"location":[46.9763475,-123.6031129],"ct":"US","tp":"CR","ts":"2018-04-17T07:19:05Z","tX":160,"tY":360,"tags":{"name":"Monte Square RV Park","website":"http://www.montesquarerv.com/"}},"2450009875":{"location":[46.9472376,-123.6439941],"ct":"US","tp":"CR","ts":"2013-09-07T23:32:04Z","tX":160,"tY":360,"tags":{"name":"Friend's Landing Campground"}},"2452123272":{"location":[46.8911592,-123.7143532],"ct":"US","tp":"CR","ts":"2015-11-19T15:56:47Z","tX":160,"tY":360,"tags":{"name":"Artic Park RV Park"}},"11033540659":{"location":[46.9986089,-123.5898565],"ct":"US","tp":"CS","ts":"2024-04-20T18:07:45Z","tX":160,"tY":360,"tags":{"addr:city":"Montesano","addr:housenumber":"1812","addr:state":"WA","addr:street":"N. Lake Sylvia Road","capacity:persons":"35","caravans":"yes","fee":"yes","name":"LAKE SYLVIA STATE PARK CAMPGROUND","operator":"LAKE SYLVIA STATE PARK","tents":"yes"}},"11033540660":{"location":[46.998572,-123.5896132],"ct":"US","tp":"CS","ts":"2023-07-08T01:15:14Z","tX":160,"tY":360,"tags":{"fee":"yes","name":"Hiker Biker Campsites","tents":"yes"}}}