{"970236982":{"location":[45.2660137,-123.5806076],"ct":"US","tp":"CS","ts":"2022-02-03T23:33:34Z","tX":160,"tY":367,"tags":{"FIXME":"Individual Camp Pitch locations may be inaccurate.","access":"customers","addr:state":"OR","addr:street":"Nestucca River Road","fee":"yes","fixme":"Individual Camp","name":"Alder Glen Recreation Site","payment:cash":"yes"}},"1027538799":{"location":[45.2910765,-123.4933243],"ct":"US","tp":"CS","ts":"2022-02-03T23:29:31Z","tX":160,"tY":367,"tags":{"access":"yes","capacity:caravans":"37","charge":"10 USD","fee":"yes","name":"Fan Creek Campground","operator":"U.S. Bureau of Land Management","payment:cash":"yes"}},"1027538800":{"location":[45.3164897,-123.4785843],"ct":"US","tp":"CS","ts":"2022-02-03T23:29:31Z","tX":160,"tY":367,"tags":{"access":"yes","charge":"10 USD","fee":"yes","name":"Dovre Campground","operator":"U.S. Bureau of Land Management","payment:cash":"yes"}},"1027539632":{"location":[45.2824176,-123.5405586],"ct":"US","tp":"CS","ts":"2022-02-03T23:33:34Z","tX":160,"tY":367,"tags":{"access":"yes","charge":"10 USD","fee":"yes","name":"Elk Bend Campground","payment:cash":"yes"}},"3389579285":{"location":[45.2395146,-123.6057434],"ct":"US","tp":"CS","ts":"2019-02-15T00:55:09Z","tX":160,"tY":367,"tags":{"name":"Rocky Bend Campground","operator":"United States Forest Service","website":"https://www.fs.usda.gov/recarea/siuslaw/recarea/?recid=42687"}},"6418647350":{"location":[45.2022155,-123.7223967],"ct":"US","tp":"CS","ts":"2021-05-25T05:07:48Z","tX":160,"tY":367,"tags":{"name":"South Lake Dispersed Camping"}},"10312479863":{"location":[45.2508024,-123.5055676],"ct":"US","tp":"CS","ts":"2023-01-07T06:00:07Z","tX":160,"tY":367,"tags":{"addr:city":"Willamina","addr:housenumber":"6000","addr:postcode":"97396","addr:state":"OR","addr:street":"Bald Mountain Road","name":"Camp Cooper (BSA Cascade Pacific Council)","operator":"Cascade Pacific Council"}}}