{"228951568":{"location":[37.5708538,126.7614243],"ct":"KR","tp":"CS","ts":"2017-11-17T19:31:16Z","tX":872,"tY":396,"tags":{"name":"경인아라뱃길 오토캠프장","name:en":"Gyeongin Ara Waterway Autocamp site","name:ja":"京仁アラベッキル オートキャンプ場"}},"472865364":{"location":[37.4550952,126.7502398],"ct":"KR","tp":"CS","ts":"2018-09-12T09:16:36Z","tX":872,"tY":396,"tags":{"name":"인천대공원 너나들이 캠핑장","name:en":"Incheon Grand Park Neonadeuri Campground"}},"474325902":{"location":[37.5698627,126.87225],"ct":"KR","tp":"CS","ts":"2018-05-19T20:41:12Z","tX":872,"tY":396,"tags":{"name":"난지캠핑장","name:ja":"蘭芝キャンピング場","operator":"Nanji Camping Site"}},"653702366":{"location":[37.6637588,126.7381934],"ct":"KR","tp":"CS","ts":"2020-02-12T21:59:22Z","tX":872,"tY":396,"tags":{}},"654735995":{"location":[37.6853638,126.7509845],"ct":"KR","tp":"CS","ts":"2020-02-12T21:53:57Z","tX":872,"tY":396,"tags":{}},"889215794":{"location":[37.5701052,126.6587258],"ct":"KR","tp":"CS","ts":"2020-12-31T06:34:37Z","tX":872,"tY":396,"tags":{"access":"customers","addr:city":"인천광역시 서구","addr:housenumber":"500","addr:street":"정서진로","capacity":"151","charge":"23,000 KRW","fee":"yes","name":"수도권매립지 캠핑장","operator":"(주)워터웨이플러스","payment:credit_cards":"yes","phone":"032-569-7847"}},"901190949":{"location":[37.5089215,126.7466121],"ct":"KR","tp":"CS","ts":"2021-01-28T13:15:18Z","tX":872,"tY":396,"tags":{"access":"no","fee":"no","name":"야인시대 캠핑장 (폐쇄)"}},"922329541":{"location":[37.5046464,126.8728377],"ct":"KR","tp":"CS","ts":"2021-03-26T03:35:35Z","tX":872,"tY":396,"tags":{}},"1134533856":{"location":[37.702903,126.6531987],"ct":"KR","tp":"CS","ts":"2023-01-23T15:36:27Z","tX":872,"tY":396,"tags":{"name":"김포한강오토캠핑장"}},"1155675949":{"location":[37.6898199,126.5805321],"ct":"KR","tp":"CS","ts":"2023-10-03T10:39:53Z","tX":872,"tY":396,"tags":{"name":"솔내음캠핑장"}},"1195611824":{"location":[37.6136826,126.5665923],"ct":"KR","tp":"CS","ts":"2023-08-07T13:56:17Z","tX":872,"tY":396,"tags":{"name":"김포로그벨리청소년수련원"}},"1200603052":{"location":[37.6420231,126.6000121],"ct":"KR","tp":"CS","ts":"2023-08-20T14:16:00Z","tX":872,"tY":396,"tags":{"name":"범바위캠핑정원"}},"1271032961":{"location":[37.5377265,126.6166386],"ct":"KR","tp":"CS","ts":"2024-04-09T00:20:30Z","tX":872,"tY":396,"tags":{"access":"customers","addr:city":"Seo-gu","addr:district":"Cheongna","addr:province":"Incheon","addr:street":"로봇랜드로","charge":"35000 won","fee":"yes","name":"청라해변공원캠핑장","reservation":"yes","tents":"yes"}},"1330175172":{"location":[37.4789844,126.8312791],"ct":"KR","tp":"CS","ts":"2024-11-02T14:28:30Z","tX":872,"tY":396,"tags":{"access":"yes","addr:city":"서울특별시","addr:district":"구로구","addr:housenumber":"149","addr:postcode":"08368","addr:street":"연동로12길","name":"천왕산 가족 캠핑장"}},"1330175173":{"location":[37.4790799,126.8315117],"ct":"KR","tp":"CS","ts":"2024-11-02T14:28:30Z","tX":872,"tY":396,"tags":{"access":"yes","addr:city":"서울특별시","addr:district":"구로구","addr:housenumber":"149","addr:postcode":"08368","addr:street":"연동로12길","name":"천왕산 가족 캠핑장"}},"1333386563":{"location":[37.4597596,126.8595895],"ct":"KR","tp":"CS","ts":"2024-11-13T03:28:16Z","tX":872,"tY":396,"tags":{"name":"도덕산캠핑장","operator":"광명시"}},"3042620913":{"location":[37.4601462,126.8591519],"ct":"KR","tp":"CS","ts":"2014-08-26T02:19:27Z","tX":872,"tY":396,"tags":{"name":"도덕산캠핑장","operator":"광명시"}},"3042639588":{"location":[37.5747284,126.8717258],"ct":"KR","tp":"CS","ts":"2018-04-20T14:35:53Z","tX":872,"tY":396,"tags":{"name":"노을캠핑장","name:en":"Noeul camping","name:ja":"ノウルキャンプ場","operator":"서울시"}},"4833042308":{"location":[37.5083602,126.745825],"ct":"KR","tp":"CS","ts":"2018-01-14T09:01:46Z","tX":872,"tY":396,"tags":{"name":"야인시대캠핑장"}},"5253837222":{"location":[37.4599321,126.7172738],"ct":"KR","tp":"CS","ts":"2017-11-29T11:45:19Z","tX":872,"tY":396,"tags":{"name:th":"แรนแคมปิ้ง"}},"8120864873":{"location":[37.5698149,126.6570974],"ct":"KR","tp":"CS","ts":"2020-12-28T12:41:50Z","tX":872,"tY":396,"tags":{"access":"customers","addr:city":"인천광역시 서구","addr:housenumber":"500","addr:street":"정서진로","capacity":"151","charge":"23,000 KRW","fee":"yes","name":"수도권매립지 캠핑장","operator":"(주)워터웨이플러스","payment:credit_cards":"yes","phone":"032-569-7847"}},"5249830423":{"location":[37.4600378,126.7173157],"ct":"KR","tp":"CR","ts":"2017-11-27T05:47:39Z","tX":872,"tY":396,"tags":{}}}