{"375034171":{"location":[33.3007948,126.5830991],"ct":"KR","tp":"CS","ts":"2018-12-25T04:01:27Z","tX":872,"tY":411,"tags":{"name":"돈내코야영장","name:en":"Donneko Camp Ground","name:ko":"돈내코야영장"}},"572528371":{"location":[33.4065359,126.8222547],"ct":"KR","tp":"CS","ts":"2018-12-25T04:07:34Z","tX":872,"tY":411,"tags":{"name":"모구리야영장","name:en":"Moguri Camping Site","name:ko":"모구리야영장"}},"592000933":{"location":[33.3053109,126.5824662],"ct":"KR","tp":"CS","ts":"2018-12-25T04:08:20Z","tX":872,"tY":411,"tags":{"name":"상효수목원캠핑장","name:en":"Sanghyo Abroretum Camping Ground","name:ko":"상효수목원캠핑장"}},"3788557244":{"location":[33.3825839,126.7359701],"ct":"KR","tp":"CS","ts":"2018-12-25T03:43:40Z","tX":872,"tY":411,"tags":{"name":"조랑말체험공원 캠핑장","name:ko":"조랑말체험공원 캠핑장"}},"4952239423":{"location":[33.3256395,126.8399219],"ct":"KR","tp":"CS","ts":"2018-12-25T03:45:05Z","tX":872,"tY":411,"tags":{"name":"표선야영장","name:en":"Pyoseon Camping Site","name:ko":"표선야영장"}},"10026084617":{"location":[33.2905425,126.7240639],"ct":"KR","tp":"CS","ts":"2022-09-15T03:54:18Z","tX":872,"tY":411,"tags":{"name":"솔바람풍경소리펜션"}}}