{"681376174":{"location":[38.5296479,-28.5273724],"ct":"PT","tp":"CS","ts":"2024-08-06T16:12:45Z","tX":430,"tY":393,"tags":{"caravans":"no","drinking_water":"yes","name":"Parque de Campismo da Madalena","operator":"CÃ¢mara Municipal da Madalena","power_supply":"yes","shower":"yes","tents":"yes","toilets":"yes"}},"1007843318":{"location":[38.5189109,-28.7249203],"ct":"PT","tp":"CS","ts":"2021-11-30T23:20:12Z","tX":430,"tY":393,"tags":{"name":"Zona de Campismo do Porto de Castelo Branco","operator":"Junta de Freguesia de Castelo Branco","source:name":"https://www.discoverfaial.com/empresas/onde-ficar/"}},"6647013995":{"location":[38.5328568,-28.6760867],"ct":"PT","tp":"CS","ts":"2019-07-25T14:48:17Z","tX":430,"tY":393,"tags":{"addr:city":"Feteira","addr:country":"PT","addr:housenumber":"61","addr:street":"Rua da Granja","camp_site":"deluxe","email":"info@azulsingular.pt","fee":"yes","name":"Azul Singular","opening_hours":"24/7","phone":"+351 960 069 890","website":"https://azulsingular.pt"}}}