{"68696770":{"location":[51.0525904,2.4199111],"ct":"FR","tp":"CS","ts":"2024-04-04T12:07:49Z","tX":518,"tY":342,"tags":{"cabins":"yes","caravans":"yes","contact:city":"Dunkerque","contact:email":"contact@campingdelalicorne.com","contact:housenumber":"1005","contact:phone":"+33 3 28 69 26 68","contact:postcode":"59240","contact:street":"Boulevard de l'Europe","contact:website":"https://www.campingdelalicorne.com","internet_access":"wlan","internet_access:fee":"yes","motorhome":"yes","name":"Camping de la Licorne","opening_hours":"Jul-Aug Mo-Su 09:00-20:00; Apr-Jun,Sep-Oct 09:00-12:00,14:00-18:00; Apr-Jun,Sep-Oct Sa 09:00-12:00,14:00-20:00","source":"ortho littorale 2000","stars":"3","tents":"yes"}},"73063746":{"location":[51.058973,2.4412555],"ct":"FR","tp":"CS","ts":"2023-04-18T19:46:15Z","tX":518,"tY":342,"tags":{"addr:city":"Leffrinckoucke","addr:postcode":"59495","addr:street":"Rue Jean-Baptiste Charcot","cabins":"yes","caravans":"no","fee":"yes","name":"Camping Mer et Vacances","operator":"Nature & Vacances","permanent_camping":"yes","phone":"+33 3 28 20 17 32","stars":"2","tents":"no","website":"https://www.camping-mer-et-vacances.com"}},"80998562":{"location":[50.9653394,2.4363525],"ct":"FR","tp":"CR","ts":"2024-10-26T21:17:26Z","tX":518,"tY":342,"tags":{"capacity":"49","caravan_site":"motorhome_stopover","caravan_site:type":"village","fee":"no","name":"Camping-car Bergues","opening_hours":"Apr-Oct","power_supply":"no","sanitary_dump_station":"no","surface":"asphalt","water_point":"no","website":"http://www.bergues.fr/fr/information/101131/camping-car"}},"168116528":{"location":[50.9724492,2.431706],"ct":"FR","tp":"CS","ts":"2021-07-19T21:52:05Z","tX":518,"tY":342,"tags":{"addr:city":"Bergues","addr:postcode":"59380","addr:street":"Avenue Vauban","caravans":"yes","email":"contact@campingvauban.fr","name":"Camping Vauban","phone":"+33 3 28 68 65 25","static_caravans":"yes","tents":"yes","toilets":"yes","washing_machine":"yes","website":"https://www.campingvauban.fr/"}},"208487045":{"location":[50.9886288,2.1227336],"ct":"FR","tp":"CR","ts":"2024-09-14T13:40:03Z","tX":518,"tY":342,"tags":{"caravan_site":"motorhome_stopover","caravan_site:type":"town","charge":"7 EUR","charge:conditional":"3.50 EUR @ (Oct-Mar)","fee":"yes","motorhome":"designated","name":"Stationnement des camping-cars Gravelines","opening_hours":"24/7","payment:cb":"yes","sanitary_dump_station":"yes","seasonal":"no","vehicle":"no","water_point":"yes","water_point:charge":"2 EUR/100 liter","water_point:fee":"yes","website":"https://www.ville-gravelines.fr/gravelines-pratique/se-deplacer/stationnement-des-camping-cars"}},"290142874":{"location":[51.0126061,2.4484359],"ct":"FR","tp":"CS","ts":"2022-09-07T19:30:03Z","tX":518,"tY":342,"tags":{"email":"camping.brasseriedupontacochon@orange.fr","name":"Camping du Pont à Cochons","phone":"+33 3 28 26 03 04","source":"cadastre-dgi-fr source : Direction Générale des Impôts - Cadastre. Mise à jour : 2014","stars":"3","static_caravans":"yes","swimming_pool":"yes","website":"http://www.campingdupontacochons.fr"}},"290154340":{"location":[50.9889074,2.4571264],"ct":"FR","tp":"CS","ts":"2021-07-19T21:52:05Z","tX":518,"tY":342,"tags":{"caravans":"yes","email":"contact@camping-hameaudesneiges.fr","name":"Camping du Hameau des Neiges","phone":"+33 3 28 68 50 45","source":"cadastre-dgi-fr source : Direction Générale des Impôts - Cadastre. Mise à jour : 2014","stars":"3","static_caravans":"yes","tents":"yes","website":"https://camping-hameaudesneiges.fr/"}},"303507725":{"location":[51.0080647,2.1198951],"ct":"FR","tp":"CS","ts":"2025-05-21T21:32:40Z","tX":518,"tY":342,"tags":{"addr:city":"Gravelines","addr:postcode":"59820","addr:street":"Rue Victor Hugo","cabins":"yes","caravans":"yes","dog":"leashed","drinking_water":"yes","fee":"yes","internet_access":"wlan","name":"Camping des Dunes","operator":"S.A.R.L Vauban Plein Air","permanent_camping":"yes","phone":"+33 3 28 23 09 80","power_supply":"yes","reservation":"required","shower":"yes","stars":"4","static_caravans":"yes","tents":"yes","toilets":"yes","website":"https://www.camping-des-dunes.com","wheelchair":"yes"}},"729367562":{"location":[51.0030177,2.4078231],"ct":"FR","tp":"CS","ts":"2021-07-19T21:52:05Z","tX":518,"tY":342,"tags":{"addr:postcode":"59380","addr:street":"Rue Principale","caravans":"yes","name":"Camping du Bois des forts","phone":"+33 3 28 61 04 41","stars":"3","static_caravans":"yes","tents":"yes","website":"https://campingduboisdesforts.fr/"}},"1269033110":{"location":[51.0519084,2.4224442],"ct":"FR","tp":"CR","ts":"2024-04-04T12:07:49Z","tX":518,"tY":342,"tags":{"capacity":"6","caravan_site":"motorhome_stopover","caravan_site:type":"parking_lot","caravans":"no","fee":"no","motorhome":"yes","name":"Parking Collège Gaspard-Malo","tents":"no","website":"https://www.dunkerque-tourisme.fr/preparer-son-sejour/pratique/transports/se-deplacer-en-ville/camping-car/"}},"1323515962":{"location":[50.9697891,2.131979],"ct":"FR","tp":"CR","ts":"2024-10-12T23:38:56Z","tX":518,"tY":342,"tags":{"caravan_site":"motorhome_stopover","caravan_site:type":"river;sports_centre","fee":"no","name":"Aire Parc des Rives de l’Aa -Gravelines","sport":"rowing","website":"https://www.dunkirk-tourism.com/prepare-your-stay/camper-vans-welcome-in-dunkirk/"}},"3141719582":{"location":[50.9933961,2.1319873],"ct":"FR","tp":"SD","ts":"2024-10-12T23:38:56Z","tX":518,"tY":342,"tags":{"fee":"no","sanitary_dump_station:accepted":"black_water;grey_water;tank_chemicals","water_point":"yes","water_point:charge":"2 EUR/100 liter","water_point:fee":"yes","website":"https://www.ville-gravelines.fr/gravelines-pratique/se-deplacer/stationnement-des-camping-cars"}},"7233923885":{"location":[51.044954,2.3824216],"ct":"FR","tp":"CR","ts":"2024-09-10T01:02:29Z","tX":518,"tY":342,"tags":{"capacity":"30","caravan_site":"motorhome_stopover","fee":"yes","name":"Dunkerque - Rue des chantiers de France","opening_hours":"24/7","sanitary_dump_station":"yes","water_point":"yes","website":"https://www.dunkerque-tourisme.fr/preparer-son-sejour/pratique/transports/se-deplacer-en-ville/camping-car/"}}}