{"61566268":{"location":[50.8349203,2.2091878],"ct":"FR","tp":"CS","ts":"2021-03-02T20:50:37Z","tX":518,"tY":343,"tags":{"name":"Camping Le Val Joly","stars":"2"}},"295147481":{"location":[50.8843794,2.4311048],"ct":"FR","tp":"PK","ts":"2024-07-15T18:56:45Z","tX":518,"tY":343,"tags":{"motorcar":"no","motorhome":"yes","parking":"surface"}},"320426056":{"location":[50.9288806,2.3677216],"ct":"FR","tp":"CS","ts":"2025-04-02T11:23:34Z","tX":518,"tY":343,"tags":{"addr:city":"Pitgam","addr:housenumber":"18","addr:postcode":"59284","addr:street":"Route du Nieppe","caravans":"yes","name":"La détente","source":"cadastre-dgi-fr source : Direction Générale des Impôts - Cadastre. Mise à jour : 2015","tents":"yes"}},"320690482":{"location":[50.9388204,2.3132253],"ct":"FR","tp":"CS","ts":"2025-04-02T11:24:06Z","tX":518,"tY":343,"tags":{"addr:city":"Pitgam","addr:housenumber":"2","addr:postcode":"59284","addr:street":"Cappel Straete","caravans":"yes","fee":"yes","name":"Camping le ptit bonheur","source":"cadastre-dgi-fr source : Direction Générale des Impôts - Cadastre. Mise à jour : 2015","static_caravans":"yes","tents":"yes","website":"https://www.campingleptitbonheur.fr"}},"324952730":{"location":[50.8724316,2.2285112],"ct":"FR","tp":"CS","ts":"2024-11-28T08:04:34Z","tX":518,"tY":343,"tags":{"access":"customers","addr:city":"Cappelle-Brouck","addr:housenumber":"1935","addr:postcode":"59630","addr:street":"Rue de la Colme","capacity":"49","capacity:persons":"29","caravans":"yes","description":"Camping naturiste dans un cadre de verdure et de calme, à proximité du Canal de la Colme","fee":"yes","internet_access":"wlan","name":"La Colme Nature","nudism":"yes","phone":"+33 9 56 28 91 73","stars":"1","tents":"yes","website":"https://www.lacolmenature.fr"}},"327553065":{"location":[50.9166591,2.266726],"ct":"FR","tp":"CS","ts":"2019-07-30T11:01:05Z","tX":518,"tY":343,"tags":{"addr:housenumber":"45 bis","name":"Camping de la Colme","name:nl":"Loberge","source":"cadastre-dgi-fr source : Direction Générale des Impôts - Cadastre. Mise à jour : 2015","stars":"2"}},"330029686":{"location":[50.8324389,2.2663841],"ct":"FR","tp":"CS","ts":"2021-11-17T07:01:35Z","tX":518,"tY":343,"tags":{"name":"La Cabarette","stars":"2"}},"331193975":{"location":[50.8321789,2.3179558],"ct":"FR","tp":"CS","ts":"2023-03-05T13:33:14Z","tX":518,"tY":343,"tags":{"capacity":"40","internet_access":"wlan","name":"Camping de l'Yser","phone":"+33 3 28 62 40 19"}},"331301315":{"location":[50.8346223,2.2916989],"ct":"FR","tp":"CS","ts":"2019-04-11T21:42:33Z","tX":518,"tY":343,"tags":{"name":"Le Moulin","stars":"1"}},"331722017":{"location":[50.8542847,2.3038036],"ct":"FR","tp":"CS","ts":"2024-03-24T18:34:52Z","tX":518,"tY":343,"tags":{"capacity":"36","caravans":"yes","internet_access":"wlan","name":"Les Cent Fleurs","stars":"2"}},"332100919":{"location":[50.8611719,2.329287],"ct":"FR","tp":"CS","ts":"2023-03-05T13:43:22Z","tX":518,"tY":343,"tags":{"capacity":"44","name":"Camping Saint-Antoine","phone":"+33 616945982","stars":"2","tents":"yes","website":"http://campingbollezeele.free.fr/"}},"332232538":{"location":[50.8919536,2.4001074],"ct":"FR","tp":"CS","ts":"2022-04-10T19:47:46Z","tX":518,"tY":343,"tags":{"addr:housenumber":"6bis","addr:street":"Voie Romaine","cabins":"yes","caravans":"no","description":"3 emplacements camping car, pas d'emplacement caravane ou tente.","name":"Le Groene Veld","stars":"3","tents":"no","website":"https://www.campinglegroeneveld.com"}},"333123112":{"location":[50.8957434,2.4358823],"ct":"FR","tp":"CS","ts":"2023-07-12T13:07:34Z","tX":518,"tY":343,"tags":{"cabins":"yes","caravans":"yes","name":"Camping et Gîtes des Roses","phone":"+33 3 28 62 90 09","stars":"3","tents":"yes","website":"https://campingdesroses.fr/"}},"339327429":{"location":[50.8478576,2.3550682],"ct":"FR","tp":"CS","ts":"2023-03-05T13:47:19Z","tX":518,"tY":343,"tags":{"internet_access":"wlan","name":"Camping de Hofland","phone":"+33 686367794","stars":"2","website":"https://www.campingdelhofland.com/"}},"345344215":{"location":[50.8019707,2.3397461],"ct":"FR","tp":"CS","ts":"2021-10-31T09:48:32Z","tX":518,"tY":343,"tags":{"addr:city":"Buysscheure","addr:country":"FR","addr:housenumber":"529","addr:postcode":"59285","addr:street":"Langhemast Straete","name":"Camping La Chaumière","stars":"3"}},"356628188":{"location":[50.7934636,2.432307],"ct":"FR","tp":"CS","ts":"2022-06-09T12:29:56Z","tX":518,"tY":343,"tags":{"name":"Val de Cassel","payment:cash":"yes","payment:cheque":"yes","payment:credit_cards":"no","payment:debit_cards":"no","phone":"+33 3 28 48 45 82","stars":"2","static_caravans":"yes","website":"https://www.camping-cassel.com/"}},"465455323":{"location":[50.7712885,2.3010388],"ct":"FR","tp":"CS","ts":"2023-10-26T06:40:16Z","tX":518,"tY":343,"tags":{"addr:city":"Clairmarais","addr:country":"FR","addr:housenumber":"1","addr:postcode":"62500","addr:street":"Rue du Romelaëre","landuse":"recreation_ground","name":"Camping le Clairmarais","phone":"+33 3 21 38 34 80","website":"https://www.camping-clairmarais.com/"}},"470675244":{"location":[50.7957605,2.177154],"ct":"FR","tp":"CS","ts":"2023-02-08T15:47:58Z","tX":518,"tY":343,"tags":{"capacity":"45","name":"Camping Les Peupliers","stars":"2"}},"470675246":{"location":[50.7937191,2.1788811],"ct":"FR","tp":"CS","ts":"2023-02-08T15:43:19Z","tX":518,"tY":343,"tags":{"capacity":"52","name":"Camping La Roseraire","stars":"2","website":"https://www.laroseraiepeuplierscampings.fr/"}},"738353220":{"location":[50.8197038,2.1757627],"ct":"FR","tp":"CS","ts":"2024-03-16T18:50:49Z","tX":518,"tY":343,"tags":{"capacity":"199","fee":"yes","internet_access":"wlan","maxtents":"110","name":"Château du Gandspette","phone":"+33 321934393","stars":"4","website":"https://www.chateau-gandspette.com/"}},"748868253":{"location":[50.81785,2.1438135],"ct":"FR","tp":"CS","ts":"2019-11-22T22:07:51Z","tX":518,"tY":343,"tags":{"name":"Le Mont","phone":"+33321932276"}},"764003705":{"location":[50.7741055,2.2354236],"ct":"FR","tp":"CS","ts":"2020-01-16T21:00:26Z","tX":518,"tY":343,"tags":{"name":"Camping Le Grand Large","stars":"2","website":"https://lecamping-grandlarge.com/"}},"837811432":{"location":[50.9245504,2.2902471],"ct":"FR","tp":"CS","ts":"2020-08-17T09:45:37Z","tX":518,"tY":343,"tags":{"name":"Camping La Rose des Vents","source":"data.gouv.fr:DATAtourisme - 05/2020","wheelchair":"no"}},"837813046":{"location":[50.9163379,2.2430335],"ct":"FR","tp":"CS","ts":"2020-08-17T09:50:23Z","tX":518,"tY":343,"tags":{"name":"Camping Les Prairies de la Colme","source":"data.gouv.fr:DATAtourisme - 05/2020","wheelchair":"yes"}},"837907987":{"location":[50.8567953,2.2190793],"ct":"FR","tp":"CS","ts":"2020-08-17T15:21:53Z","tX":518,"tY":343,"tags":{"caravans":"yes","name":"Camping du Colvert","source":"data.gouv.fr:DATAtourisme - 05/2020","tents":"yes","website":"http://campingducolvert.fr","wheelchair":"yes"}},"837910699":{"location":[50.8717288,2.1480564],"ct":"FR","tp":"CS","ts":"2023-03-05T13:20:58Z","tX":518,"tY":343,"tags":{"capacity":"108","name":"Domaine La Grise Pierre","phone":"+33 321857064","source":"data.gouv.fr:DATAtourisme - 05/2020","stars":"2","tents":"yes","website":"https://www.domaine-de-la-grise-pierre.fr"}},"837911545":{"location":[50.8759675,2.1125739],"ct":"FR","tp":"CS","ts":"2023-03-05T12:51:27Z","tX":518,"tY":343,"tags":{"capacity":"31","name":"Camping Le Coralto","phone":"+33 3 21 82 66 43","stars":"1"}},"912947433":{"location":[50.8405842,2.2032476],"ct":"FR","tp":"CS","ts":"2023-10-26T06:32:26Z","tX":518,"tY":343,"tags":{"capacity":"162","name":"Camping du Ranch Car","phone":"+33 6 13 04 52 22","website":"https://www.ranchcar.com/"}},"926280526":{"location":[50.808735,2.1970984],"ct":"FR","tp":"CS","ts":"2023-02-08T16:17:36Z","tX":518,"tY":343,"tags":{"name":"Camping Les Roseaux","phone":"+33 321930999"}},"926280843":{"location":[50.7982899,2.1734141],"ct":"FR","tp":"CS","ts":"2023-02-08T15:54:28Z","tX":518,"tY":343,"tags":{"capacity":"117","name":"Camping les Saules","phone":"+33 321381983","stars":"1"}},"1010042270":{"location":[50.8128301,2.1976157],"ct":"FR","tp":"CS","ts":"2021-12-08T08:35:51Z","tX":518,"tY":343,"tags":{"email":"campinglescharmilles@laposte.net","name":"Camping Les Charmilles","opening_hours":"Mo-Su 10:00-12:00,15:00-18:00","phone":"+33 3 21 39 06 46","stars":"2","website":"https://www.camping-les-charmilles-houlle.fr"}},"1010050266":{"location":[50.7901808,2.1735499],"ct":"FR","tp":"CS","ts":"2023-02-08T15:54:28Z","tX":518,"tY":343,"tags":{"capacity":"112","name":"Camping Le Vert Manoir","phone":"+33 321958361","stars":"2","website":"https://www.tourisme-saintomer.com/annuaire/le-vert-manoir/"}},"1017100022":{"location":[50.798867,2.1803511],"ct":"FR","tp":"CS","ts":"2024-11-04T08:17:58Z","tX":518,"tY":343,"tags":{"access":"customers","capacity":"100","leisure":"swimming_pool","name":"Camping Le Rivage","stars":"3"}},"1017110192":{"location":[50.7989865,2.2030465],"ct":"FR","tp":"CS","ts":"2024-06-28T20:18:34Z","tX":518,"tY":343,"tags":{"name":"Résidence Les Ormes"}},"1264738911":{"location":[50.8074435,2.137704],"ct":"FR","tp":"CS","ts":"2024-03-21T09:08:14Z","tX":518,"tY":343,"tags":{"name":"Clos de la Meullemotte"}},"1285667924":{"location":[50.757004,2.2590167],"ct":"FR","tp":"CR","ts":"2024-06-23T10:28:51Z","tX":518,"tY":343,"tags":{"bbq":"no","capacity":"20","caravan_site":"motorhome_stopover","caravan_site:type":"town","caravans":"no","charge":"14.30 EUR","charge:conditional":"12.30 EUR @ (Oct-Apr)","dog":"leashed","fee":"yes","internet_access":"wlan","name":"Aire Camping-car Park Saint-Omer","network":"CAMPING-CAR PARK","opening_hours":"24/7","power_supply":"yes","power_supply:capacity":"18","power_supply:maxcurrent":"6","sanitary_dump_station":"yes","tents":"no","trailer":"no","water_point":"yes","website":"https://www.campingcarpark.com/fr_FR/sejour/aire-etape-camping-car/hauts-de-france/62-pas-de-calais/saint-omer"}},"1297345425":{"location":[50.9224895,2.3804055],"ct":"FR","tp":"CS","ts":"2024-06-29T12:14:55Z","tX":518,"tY":343,"tags":{"contact:phone":"+33 3 28 62 13 96","name":"Parc Résidentiel de Loisirs le Vert Village","website":"https://www.levertvillage.com/"}},"1314547187":{"location":[50.8313344,2.2085001],"ct":"FR","tp":"CR","ts":"2024-09-10T04:40:52Z","tX":518,"tY":343,"tags":{"capacity":"10","caravan_site":"motorhome_stopover","caravan_site:type":"river","fee":"no","internet_access":"no","name":"Aire camping-cars de Watten","power_supply":"no","sanitary_dump_station":"yes","water_point":"yes","water_point:charge":"6 EUR","water_point:fee":"yes","website":"https://www.watten.fr/tourisme/aire-de-service-pour-camping-cars/"}},"1323511841":{"location":[50.7459743,2.3029605],"ct":"FR","tp":"CS","ts":"2024-10-12T22:59:31Z","tX":518,"tY":343,"tags":{"addr:city":"Arques","addr:housenumber":"29A","addr:postcode":"62510","addr:street":"Rue Michelet","dog":"yes","email":"camping@ville-arques.fr","internet_access":"wlan","internet_access:fee":"no","name":"Camping Municipal Beauséjour","operator":"Ville Arques","power_supply":"yes","stars":"4","website":"https://camping-arques.fr/"}},"3553951093":{"location":[50.7468949,2.3012561],"ct":"FR","tp":"CR","ts":"2024-10-12T22:59:31Z","tX":518,"tY":343,"tags":{"caravan_site":"motorhome_stopover","caravan_site:type":"camp_site","name":"Camping Municipal Beauséjour"}},"5697335593":{"location":[50.8054257,2.2166741],"ct":"FR","tp":"CS","ts":"2023-02-08T16:06:03Z","tX":518,"tY":343,"tags":{"capacity":"110","internet_access":"wlan","maxtents":"4","name":"Camping du Rivage","stars":"2","website":"https://camping-durivage.fr/"}},"5085852227":{"location":[50.8312499,2.2086718],"ct":"FR","tp":"SD","ts":"2017-09-07T11:45:28Z","tX":518,"tY":343,"tags":{"access":"yes"}},"12055985575":{"location":[50.8842078,2.4311878],"ct":"FR","tp":"SD","ts":"2024-07-15T18:56:45Z","tX":518,"tY":343,"tags":{"operator":"Euro-Relais"}},"12235559076":{"location":[50.7455166,2.3046371],"ct":"FR","tp":"SD","ts":"2024-10-08T15:19:27Z","tX":518,"tY":343,"tags":{"access":"yes","fee":"yes","operator":"Camping Municipal Beauséjour","sanitary_dump_station:chemical_toilet":"yes","sanitary_dump_station:grey_water":"yes","water_point":"yes"}}}