{"38576884":{"location":[50.3125458,2.158425],"ct":"FR","tp":"CS","ts":"2023-01-09T14:01:26Z","tX":518,"tY":345,"tags":{"email":"contact@camping3tilleuls.com","name":"Camping des Trois Tilleuls","phone":"+33 3 21 47 94 15","stars":"3","website":"https://www.camping3tilleuls.com/"}},"246318306":{"location":[50.4768916,2.2312261],"ct":"FR","tp":"CS","ts":"2024-10-26T20:56:43Z","tX":518,"tY":345,"tags":{"email":"campingduchateau@wanadoo.fr","fax":"+33 3 21 03 26 72","fee":"yes","internet_access":"wlan","name":"Camping du Château","opening_hours":"Apr-Sep","operator":"Martine Boutin","phone":"+33321046123","stars":"2","static_caravans":"yes","tents":"yes","website":"https://camping-du-chateau.com/","wheelchair":"yes"}},"248693050":{"location":[50.4509339,2.2539483],"ct":"FR","tp":"CS","ts":"2023-01-09T14:22:58Z","tX":518,"tY":345,"tags":{"name":"Les Prés de la Ternoise","phone":"+333 21 41 63 51","stars":"3"}},"248984405":{"location":[50.4038519,2.3080912],"ct":"FR","tp":"CS","ts":"2024-05-15T14:49:08Z","tX":518,"tY":345,"tags":{"capacity:persons":"20","name":"Camping de la Scierie","phone":"+336 87 40 11 50","stars":"1","website":"https://www.campingpechehernicourt.com/"}},"512353888":{"location":[50.4540101,2.2213964],"ct":"FR","tp":"CS","ts":"2024-05-15T14:53:18Z","tX":518,"tY":345,"tags":{"capacity":"76","capacity:tents":"9","caravans":"yes","contact:facebook":"https://www.facebook.com/Camping-la-verte-colline-2402815619948819","contact:website":"https://www.campinglavertecolline.com/","internet_access":"wlan","name":"Camping La Verte Colline","stars":"3","static_caravans":"yes","tents":"yes"}},"542963392":{"location":[50.4026754,2.1235994],"ct":"FR","tp":"CS","ts":"2024-05-26T18:25:29Z","tX":518,"tY":345,"tags":{"capacity":"115","name":"Camping municipal des étangs","phone":"+33 6 41 20 17 24","stars":"2","website":"https://www.facebook.com/campingdesetangs.rollancourt/"}},"545328928":{"location":[50.4207126,2.1594064],"ct":"FR","tp":"CS","ts":"2024-06-02T08:05:29Z","tX":518,"tY":345,"tags":{"capacity":"105","name":"Camping Le Pré St-Gilles - Les Etangs","stars":"3","website":"https://www.leprestgilles.fr/"}},"613158703":{"location":[50.4808197,2.1288964],"ct":"FR","tp":"CS","ts":"2024-05-17T06:35:22Z","tX":518,"tY":345,"tags":{"caravans":"no","name":"À Petits Pas","phone":"+33 3 21 41 70 07","reservation":"required","static_caravans":"no","tents":"yes","website":"https://apetitspas.net/gites-et-anes/leco-lieu-de-ruisseauville/"}},"1070368712":{"location":[50.3581719,2.1479356],"ct":"FR","tp":"CS","ts":"2024-05-28T07:48:28Z","tX":518,"tY":345,"tags":{"addr:city":"Willeman","addr:housenumber":"6","addr:postcode":"62770","addr:street":"Rue de Valières","capacity":"20","name":"Camping des Avesnes","stars":"2"}},"4114147100":{"location":[50.4997775,2.177626],"ct":"FR","tp":"CS","ts":"2017-10-17T14:10:50Z","tX":518,"tY":345,"tags":{"name":"Aire Naturelle de Camping Le Chalet","phone":"+33 3 21 41 64 87","website":"http://www.campingchaletverchin.cabanova.fr/"}}}