{"343272039":{"location":[49.224066,2.4273201],"ct":"FR","tp":"CS","ts":"2023-05-07T21:23:21Z","tX":518,"tY":350,"tags":{"cabins":"yes","capacity:pitches":"160","caravans":"yes","email":"campix@orange.fr","name":"Campix","opening_hours":"Mar 1 - Nov 30","phone":"+33 3 44 56 08 48","shower":"yes","stars":"1","tents":"yes","toilets":"yes","website":"https://campingcampix.com/"}},"478708667":{"location":[49.2007395,2.4064295],"ct":"FR","tp":"CS","ts":"2020-08-23T21:35:12Z","tX":518,"tY":350,"tags":{"addr:city":"Gouvieux","addr:housenumber":"10","addr:postcode":"60270","addr:street":"Avenue de Toutevoie","email":"lemontcesar@orange.fr","name":"Camping le Mont Cesar","phone":"+33 3 44 57 02 05","website":"https://www.lemontcesar.com/"}},"556342963":{"location":[49.2106464,2.4266336],"ct":"FR","tp":"CS","ts":"2023-07-14T12:16:22Z","tX":518,"tY":350,"tags":{"cabins":"yes","caravans":"yes","email":"contact@camping-lepredesmoines.com","name":"Le Pré des Moines","opening_hours":"week 01-53; Dec 16-Jan 06 off","phone":"+33 3 44 56 60 48","shower":"yes","tents":"yes","toilets":"yes","website":"https://www.camping-lepredesmoines.com/"}},"559258885":{"location":[49.2885099,2.3516065],"ct":"FR","tp":"CS","ts":"2023-05-07T21:58:56Z","tX":518,"tY":350,"tags":{"capacity:pitches":"156","caravans":"yes","name":"Parc Naturel de Week-End","phone":"+33 3 44 26 42 25","shower":"yes","stars":"3","start_date":"1971","tents":"yes","toilets":"yes","website":"http://parcnatureldeweekend.com/"}},"559258887":{"location":[49.2621017,2.3625514],"ct":"FR","tp":"CS","ts":"2023-04-23T18:28:34Z","tX":518,"tY":350,"tags":{"cabins":"yes","caravans":"yes","email":"contact@camping-lesaubepines.com","name":"Camping les Aubépines","opening_hours":"Mar 31 - Oct 9; Oct 20 - Nov 5","operator":"Flower Campings","phone":"+33 3 22 27 01 34","shower":"yes","stars":"4","tents":"yes","toilets":"yes","website":"https://www.camping-lesaubepines.com/"}},"992330760":{"location":[49.2107884,2.4030661],"ct":"FR","tp":"CS","ts":"2023-04-23T11:31:09Z","tX":518,"tY":350,"tags":{"caravans":"yes","name":"Camping de l'Abbatiale","opening_hours":"Jan 10 - Nov 30","phone":"+33 3 44 56 38 76","shower":"yes","stars":"2","static_caravans":"yes","tents":"yes","toilets":"yes","website":"https://www.camping-abbatiale.com/"}},"1081617499":{"location":[49.3793456,2.4205534],"ct":"FR","tp":"CR","ts":"2024-06-17T20:27:12Z","tX":518,"tY":350,"tags":{"capacity":"8","capacity:caravans":"8","caravan_site":"motorhome_stopover","caravan_site:type":"community_centre","fee":"no","name":"Aire de camping-car de Clermont","operator":"Communauté de communes du Pays du Clermontois","surface":"gravel","website":"https://www.aireparkreservation.com/aires-camping-cars/hauts-de-france/oise/clermont"}},"1240606516":{"location":[49.3421284,2.4313135],"ct":"FR","tp":"CR","ts":"2024-06-17T20:46:57Z","tX":518,"tY":350,"tags":{"caravan_site":"motorhome_stopover","caravan_site:type":"caravan_shop","name":"Aire Libertium Wattellier Rantigny","surface":"asphalt"}},"11988948877":{"location":[49.342072,2.4315029],"ct":"FR","tp":"SD","ts":"2024-06-17T20:46:37Z","tX":518,"tY":350,"tags":{}}}