{"153936934":{"location":[48.9750249,2.2336998],"ct":"FR","tp":"CS","ts":"2024-09-27T21:54:52Z","tX":518,"tY":351,"tags":{"access":"customers","addr:city":"Franconville","addr:housenumber":"1","addr:postcode":"95130","addr:street":"Sentier des Bois de Monts Frais","backcountry":"no","description":"Créé en 1931, le Club naturiste familial AIR & SOLEIL est l’un des plus anciens clubs naturistes de France.\n\nAir et Soleil est l’association naturiste que vous cherchez pour vivre nu en famille, entre amis.\n\nDébutant(e) ou déjà adepte, notre association e","fee":"yes","name":"Club Naturiste Air et Soleil","nudism":"yes","operator":"OVH SAS","payment:cash":"yes","payment:cheque":"yes","phone":"+33 7 82 20 71 82","shower":"yes","source":"cadastre-dgi-fr source : Direction Générale des Impôts - Cadastre. Mise à jour : 2012","sport":"multi","toilets":"yes","website":"https://www.airetsoleil95.com"}},"173481606":{"location":[48.9398998,2.1469184],"ct":"FR","tp":"CS","ts":"2019-03-07T09:13:00Z","tX":518,"tY":351,"tags":{"addr:city":"Maisons-Laffitte","addr:housenumber":"1","addr:postcode":"78500","addr:street":"Rue Johnson","name":"Camping International de Maisons-Laffitte","phone":"+33 1 39 12 21 91","source":"Bing;survey","website":"https://www.sandaya.fr/camping/france/paris/maisons-laffitte/"}},"337162476":{"location":[49.1285441,2.1861617],"ct":"FR","tp":"CS","ts":"2018-09-28T19:21:41Z","tX":518,"tY":351,"tags":{"name":"Parc de Séjour de l'Étang","stars":"4"}},"343025649":{"location":[49.1284085,2.2347575],"ct":"FR","tp":"CS","ts":"2019-10-27T14:57:15Z","tX":518,"tY":351,"tags":{"contact:email":"freulon692@gmail.com","contact:phone":"+33 1 75 46 95 24","name":"Camping des Trois Sources"}},"401920389":{"location":[49.1418049,2.1878125],"ct":"FR","tp":"CS","ts":"2019-07-16T12:26:36Z","tX":518,"tY":351,"tags":{"alt_name":"Camping Val de Nesles","capacity":"219","caravans":"yes","contact:email":"levaldenesles@gmail.com","contact:phone":"+33 1 34 70 63 24","contact:website":"https://www.valparis.com/","drinking_water":"yes","name":"Camping ValParis","stars":"2","tents":"yes"}},"729366941":{"location":[49.0652384,2.1687899],"ct":"FR","tp":"CS","ts":"2019-09-28T17:26:03Z","tX":518,"tY":351,"tags":{"addr:city":"Auvers-sur-Oise","addr:country":"FR","addr:postcode":"95430","addr:street":"Chemin de Bellerive","caravans":"yes","name":"Camping GCU de Auvers-sur-Oise","operator":"Groupement des Campeurs Universitaires","phone":"+33 1 34 48 05 22","stars":"2","tents":"yes","website":"https://www.gcu.asso.fr"}},"919784206":{"location":[49.1401513,2.3883275],"ct":"FR","tp":"CS","ts":"2024-06-29T13:22:53Z","tX":518,"tY":351,"tags":{"access":"private","addr:city":"Asnières-sur-Oise","addr:postcode":"95270","addr:street":"Route des Princes","caravans":"yes","drinking_water":"yes","fee":"yes","name":"Les Princes","payment:cash":"yes","payment:credit_cards":"yes","payment:debit_cards":"yes","payment:mastercard":"yes","payment:visa":"yes","phone":"+33 1 30 35 40 92","tents":"yes","website":"https://lesprinces.fr/"}},"6727590585":{"location":[49.136245,2.3715784],"ct":"FR","tp":"CS","ts":"2019-08-21T05:51:35Z","tX":518,"tY":351,"tags":{"name":"Le Parc des Grands Clos","name:en":"Camping"}}}