{"26859057":{"location":[48.5430352,2.1378939],"ct":"FR","tp":"CS","ts":"2012-08-08T15:43:00Z","tX":518,"tY":353,"tags":{"name":"Roches"}},"153194328":{"location":[48.5447092,2.1441514],"ct":"FR","tp":"CS","ts":"2024-07-29T16:06:22Z","tX":518,"tY":353,"tags":{"access":"customers","addr:city":"Saint-Chéron","addr:postcode":"91530","addr:street":"Route de la Petite Beauce","bar":"yes","caravans":"yes","description":"Village camping naturiste familial de 47ha situé au cœur d'un espace boisé classé sur les hauteurs de Saint-Chéron, en Essonne.\nC'est un lieu calme et reposant aux portes de Paris.","email":"camping@heliomonde.fr","fee":"yes","internet_access":"terminal","internet_access:fee":"no","name":"Heliomonde","nudism":"yes","phone":"+33 1 64 56 61 37","sanitary_dump_station":"customers","stars":"3","static_caravans":"yes","swimming_pool":"indoor","tents":"yes","website":"https://www.heliomonde.fr/","wheelchair":"limited"}},"155180328":{"location":[48.5018261,2.1912117],"ct":"FR","tp":"CS","ts":"2019-03-05T05:22:54Z","tX":518,"tY":353,"tags":{"internet_access":"wlan","name":"Les Hespérides","nudism":"yes","phone":"+33 1 60 80 32 49","source":"cadastre-dgi-fr source : Direction Générale des Impôts - Cadastre. Mise à jour : 2012","website":"https://leshesperides.org/"}},"155573874":{"location":[48.5889997,2.109844],"ct":"FR","tp":"CS","ts":"2023-11-01T23:11:25Z","tX":518,"tY":353,"tags":{"fax":"+33164589272","internet_access":"wlan","name":"Parc de la Fontaine","phone":"+33164589272","source":"cadastre-dgi-fr source : Direction Générale des Impôts - Cadastre. Mise à jour : 2012","stars":"3","website":"https://www.parc-fontaine.fr/"}},"172298439":{"location":[48.6546314,2.3042847],"ct":"FR","tp":"CS","ts":"2023-06-29T19:57:27Z","tX":518,"tY":353,"tags":{"caravans":"yes","drinking_water":"yes","name":"Camping Le Beau Village De Paris","power_supply":"yes","shower":"yes","tents":"yes","toilets":"yes"}},"193876097":{"location":[48.4710064,2.3004039],"ct":"FR","tp":"CS","ts":"2013-07-09T20:12:53Z","tX":518,"tY":353,"tags":{"addr:city":"Boissy-le-Cutté","addr:country":"FR","addr:postcode":"91590","addr:street":"Rue de la Libération","email":"campinglabouliniere@gmail.com","internet_access":"wlan","name":"Camping La Boulinière","office":"camping","opening_hours":"Mo-Su 10:00-12:00,17:00-19:00; Dec-Jan off","phone":"+33 1 64 57 65 23","smoking":"dedicated","stars":"1","wheelchair":"yes"}},"909679821":{"location":[48.6031384,2.2111494],"ct":"FR","tp":"CS","ts":"2021-02-22T16:18:12Z","tX":518,"tY":353,"tags":{}},"1001507534":{"location":[48.5114818,2.2728868],"ct":"FR","tp":"CS","ts":"2021-11-11T17:00:31Z","tX":518,"tY":353,"tags":{"cabins":"only","email":"lcdt091@gmail.com","fixme":"Contours a préciser","name":"Les cabanes de la tour","opening_hours":"\"sur réservation uniquement\"","phone":"+336 18 39 47 03","reservation":"required","tents":"no","website":"lescabanesdelatour.fr/contacts/"}},"1306522013":{"location":[48.5426893,2.1332824],"ct":"FR","tp":"CS","ts":"2024-08-09T08:59:12Z","tX":518,"tY":353,"tags":{"name":"Parc des Roches","operator":"Marvilla Parks"}},"5406794771":{"location":[48.493852,2.4091152],"ct":"FR","tp":"CS","ts":"2023-11-05T00:01:08Z","tX":518,"tY":353,"tags":{"addr:city":"Mondeville","addr:country":"FR","addr:housenumber":"35","addr:postcode":"91590","addr:street":"Rue de Ballancourt","capacity":"190","contact:facebook":"www.facebook.com/stephane.volfer.79","email":"lenidvert91@orange.fr","name":"Le nid vert","opening_hours":"Mar 15-Nov 15","phone":"+33 1 64 98 31 44","stars":"3","website":"https://www.camping-lenidvert.fr"}},"9064411746":{"location":[48.6359674,2.1455345],"ct":"FR","tp":"SD","ts":"2021-09-05T18:00:08Z","tX":518,"tY":353,"tags":{"fee":"yes","sanitary_dump_station:basin":"yes","sanitary_dump_station:pump-out":"yes"}},"10048719263":{"location":[48.5938631,2.442286],"ct":"FR","tp":"SD","ts":"2022-09-24T08:45:05Z","tX":518,"tY":353,"tags":{"operator":"Flot Bleu","power_supply":"yes","sanitary_dump_station:chemical_toilet":"yes","sanitary_dump_station:grey_water":"yes","water_point":"yes"}}}