{"112243867":{"location":[48.2558779,2.4340016],"ct":"FR","tp":"CS","ts":"2019-03-05T05:22:12Z","tX":518,"tY":354,"tags":{"internet_access":"no","name":"Île de Boulancourt","stars":"3","website":"https://www.camping-iledeboulancourt.com/"}},"1284862260":{"location":[48.4096641,2.1439207],"ct":"FR","tp":"CR","ts":"2024-07-02T10:47:47Z","tX":518,"tY":354,"tags":{"capacity":"35","caravan_site":"motorhome_stopover","caravan_site:type":"camp_site","caravans":"yes","charge":"32.80 EUR","charge:conditional":"17.80 EUR @ (Aug,Sep,Apr,May), 17.80 EUR @ (Jul 01-13), 15.80 EUR @ (Oct,Nov,Dec)","dog":"leashed","fee":"yes","internet_access":"no","maxlength":"9","name":"Aire Camping Car Le Vauvert","network":"CAMPING-CAR PARK","power_supply:capacity":"35","power_supply:maxcurrent":"6","sanitary_dump_station":"customers","tents":"no","trailer":"no","water_point":"yes","website":"https://www.campingcarpark.com/fr_FR/sejour/aire-etape-camping-car/ile-de-france/91-essonne/le-vauvert"}},"1286994408":{"location":[48.442701,2.321889],"ct":"FR","tp":"CS","ts":"2024-07-30T11:58:19Z","tX":518,"tY":354,"tags":{"addr:city":"D'Huison-Longueville","addr:postcode":"91590","addr:street":"Chemin de Monlimon","brand":"FFN","contact:email":"contact@csessonne.org","description":"Offrez-vous une pause 100% nue à une heure de Paris au cœur du parc régional du Gâtinais au milieu d’une nature préservée. Notre camping naturiste familial, situé à 50 km au sud de Paris, dans une forêt de 7 hectares, est équipé d’une piscine de deux bass","email":"contact@csessonne.org","name":"Club du Soleil de l'Essonne","nudism":"yes","old_name":"Les Bois de Valence","phone":"+33685315592","website":"https://csessonne.org/","wheelchair":"yes","wheelchair:description":"Un emplacement dédié, un sanitaire dédié (douche et WC), lieux communs accessibles même si sol irrégulier."}},"4811664546":{"location":[48.4268021,2.3787596],"ct":"FR","tp":"CS","ts":"2019-03-05T05:22:54Z","tX":518,"tY":354,"tags":{"addr:city":"Courdimanche-sur-Essonne","addr:postcode":"91720","addr:street":"Impasse de la Varenne","email":"campingbelesbat@orange.fr","fee":"yes","internet_access":"yes","internet_access:fee":"yes","name":"Le Cattiaux camping","phone":"+33 1 64 99 39 52","website":"https://www.camping-belesbat.com/"}}}