{"234752248":{"location":[47.5435972,2.1894093],"ct":"FR","tp":"CS","ts":"2022-06-07T17:06:47Z","tX":518,"tY":357,"tags":{"name":"Domaine des Alicourts","phone":"+33 2 54 88 63 34","stars":"5","website":"https://www.lesalicourts.com/"}},"517885396":{"location":[47.682796,2.1355414],"ct":"FR","tp":"CS","ts":"2024-04-12T07:56:36Z","tX":518,"tY":357,"tags":{"access":"customers","addr:city":"Sennely","addr:housenumber":"41","addr:postcode":"45240","addr:street":"Rue de Villechaume","capacity:tents":"40","caravans":"yes","name":"Camping de Villechaume","opening_hours":"Mar 15 - Oct 31","tents":"yes","website":"https://www.sennely.fr/tourisme/camping/"}},"3095180178":{"location":[47.5687214,2.4407212],"ct":"FR","tp":"CS","ts":"2019-10-16T13:21:31Z","tX":518,"tY":357,"tags":{"name":"Les Petits Près","operator":"Municipalité","phone":"+33 2 48 81 50 60","website":"https://argentsursauldre.pagesperso-orange.fr/hebergement.htm"}},"3095205681":{"location":[47.5709876,2.4077961],"ct":"FR","tp":"CS","ts":"2019-09-20T14:47:56Z","tX":518,"tY":357,"tags":{"caravans":"no","name":"Domaine d'Inyan","phone":"+33 6 43 59 18 91","tents":"yes"}},"11930184837":{"location":[47.7144015,2.2076887],"ct":"FR","tp":"CR","ts":"2024-05-24T09:13:26Z","tX":518,"tY":357,"tags":{"capacity":"2","caravan_site":"motorhome_stopover","caravan_site:type":"village;lake","fee":"no","name":"Aire Rue Bagatelle - Vannes-sur-Cosson","opening_hours":"24/7","sanitary_dump_station":"yes","water_point":"yes","website":"https://www.valdeloire-france.com/aire-camping-car/aire-de-services-rue-de-bagatelle/"}},"11930222883":{"location":[47.6843985,2.3439696],"ct":"FR","tp":"CR","ts":"2024-05-24T09:28:01Z","tX":518,"tY":357,"tags":{"capacity":"6","caravan_site":"motorhome_stopover","caravan_site:type":"lake","charge":"10.50 EUR","fee":"yes","name":"Aire Naturelle de Camping Villemurlin","power_supply":"yes","tents":"yes","website":"https://villemurlin.fr/laire-naturelle-de-camping"}}}