{"286800152":{"location":[47.4834993,2.4583135],"ct":"FR","tp":"CS","ts":"2019-10-16T13:21:31Z","tX":518,"tY":358,"tags":{"addr:city":"Aubigny-sur-Nère","addr:postcode":"18700","addr:street":"Rue du Camping","name":"Les Etangs","operator":"Flower-Camping","phone":"+33 2 48 58 02 37","stars":"3","website":"https://www.camping-aubigny.com"}},"286938260":{"location":[47.4821297,2.4501368],"ct":"FR","tp":"CR","ts":"2024-10-11T17:55:24Z","tX":518,"tY":358,"tags":{"access":"yes","addr:city":"Aubigny-sur-Nère","addr:postcode":"18700","addr:street":"D7","capacity":"10","caravan_site":"motorhome_stopover","caravan_site:type":"village;lake","description":"Aire de camping-car","fee":"no","maxstay":"no","motorhome":"designated","name":"Aubigny-sur-Nère aire de camping-car","operator":"Ville de Aubigny-sur-Nère","power_supply":"no","sanitary_dump_station":"yes","sanitary_dump_station:chemical_toilet":"yes","sanitary_dump_station:grey_water":"yes","sanitary_dump_station:round_drain":"yes","supervised":"no","water_point":"yes"}},"288198803":{"location":[47.4927672,2.4374459],"ct":"FR","tp":"CR","ts":"2024-10-17T15:56:13Z","tX":518,"tY":358,"tags":{"access":"yes","addr:city":"Aubigny-sur-Nère","addr:postcode":"18700","addr:street":"Allée du Pré Qui Danse","capacity":"20","caravan_site":"motorhome_stopover","caravan_site:type":"village","fee":"no","maxstay":"no","name":"Aubigny-sur-Nère","operator":"Ville de Aubigny-sur-Nère","power_supply":"no","sanitary_dump_station":"yes","sanitary_dump_station:chemical_toilet":"yes","sanitary_dump_station:grey_water":"yes","sanitary_dump_station:round_drain":"yes","seasonal":"n","supervised":"no","surface":"asphalt","water_point":"yes","website":"https://www.aubigny-sologne.com/aires-camping-cars/aire-de-service-parking-du-pre-qui-danse/"}},"633596204":{"location":[47.3537261,2.1858514],"ct":"FR","tp":"CS","ts":"2023-06-17T20:26:30Z","tX":518,"tY":358,"tags":{"name":"Camping municipal des Pins","operator":"Municipalité","phone":"+33 2 48 51 81 80","source":"cadastre-dgi-fr source : Direction Générale des Impôts - Cadastre. Mise à jour : 2009","stars":"2","website":"http://www.nancay-sologne.fr/commissions/commission-animation/"}},"633600500":{"location":[47.314297,2.264353],"ct":"FR","tp":"CR","ts":"2024-09-17T13:43:00Z","tX":518,"tY":358,"tags":{"bbq":"no","capacity":"16","caravan_site":"motorhome_stopover","caravan_site:type":"lake","caravans":"no","charge":"13.88 EUR","charge:conditional":"11.88 EUR @ (Oct-Apr)","dog":"leashed","fee":"yes","internet_access":"wlan","maxlength":"9","name":"Aire Neuvy-sur-Barangeon","network":"CAMPING-CAR PARK","old_name":"La Noue","opening_hours":"24/7","power_supply":"yes","power_supply:capacity":"8","power_supply:maxcurrent":"6","sanitary_dump_station":"yes","tents":"no","toilets:conditional":"no @ (Oct-Apr)","trailer":"no","water_point":"yes"}},"645652398":{"location":[47.4460995,2.3032357],"ct":"FR","tp":"CR","ts":"2024-10-21T22:01:26Z","tX":518,"tY":358,"tags":{"capacity":"35","caravan_site":"motorhome_stopover","construction":"caravan_site","fee":"yes","fixme":"CAMPING-CAR PARK takes over.","name":"Le Bout du Pont","network":"CAMPING-CAR PARK","phone":"+33 2 48 58 04 30","website":"https://campingmenetreol.wixsite.com/accueil","website_2":"https://www.campingcarpark.com/en_GB/stay/camping/centre-val-de-loire/18-cher/menetreol-sur-sauldre"}},"777517401":{"location":[47.4280353,2.3781896],"ct":"FR","tp":"CS","ts":"2020-03-01T16:43:44Z","tX":518,"tY":358,"tags":{"name":"L'Arrachis","operator":"Municipalité","phone":"+33 2 48 58 06 82","stars":"2","website":"https://www.ennordres.fr/tourisme-et-loisir.html"}},"783155294":{"location":[47.4886326,2.3210797],"ct":"FR","tp":"CS","ts":"2024-07-27T08:30:01Z","tX":518,"tY":358,"tags":{"addr:city":"Sainte-Montaine","addr:postcode":"18700","fee":"yes","name":"Camping de Sainte-Montaine","operator":"Mairie de Sainte Montaine","payment:cash":"yes","phone":"+33 2 48 58 05 16","website":"https://www.saintemontaine.fr/camping-sainte-montaine-cher_fr.html"}},"836862273":{"location":[47.3595814,2.4410274],"ct":"FR","tp":"CS","ts":"2020-12-24T15:36:58Z","tX":518,"tY":358,"tags":{"name":"Le Paradis Nature","phone":"+33 6 70 29 52 00","stars":"2","website":"https://www.camping-paradis-nature.com/"}},"1293622897":{"location":[47.3088746,2.2700207],"ct":"FR","tp":"CS","ts":"2024-06-19T10:31:37Z","tX":518,"tY":358,"tags":{"backcountry":"yes"}},"8431796260":{"location":[47.4822155,2.4502853],"ct":"FR","tp":"SD","ts":"2021-11-20T14:40:26Z","tX":518,"tY":358,"tags":{"description":"Station de vidange pour Camping-car.","fee":"no","operator":"Ville de Aubigny-sur-Nère","sanitary_dump_station:chemical_toilet":"yes","sanitary_dump_station:grey_water":"yes","sanitary_dump_station:round_drain":"yes","water_point":"yes"}},"8431819016":{"location":[47.4914865,2.4383274],"ct":"FR","tp":"SD","ts":"2021-11-20T14:40:26Z","tX":518,"tY":358,"tags":{"description":"Station de vidange pour Camping-car.","fee":"no","operator":"Ville de Aubigny-sur-Nère","sanitary_dump_station:chemical_toilet":"yes","sanitary_dump_station:grey_water":"yes","sanitary_dump_station:round_drain":"yes","water_point":"yes"}}}