{"44707677":{"location":[44.9345721,2.4561396],"ct":"FR","tp":"CS","ts":"2024-05-17T18:41:11Z","tX":518,"tY":368,"tags":{"addr:city":"Aurillac","addr:housenumber":"16","addr:postcode":"15000","addr:street":"Rue du Gué Bouliaga","caravans":"yes","email":"campingombrade@caba.fr","motorhome":"yes","name":"Camping de l'Ombrade (Camping municipal)","operator":"Communauté d'Agglomération du Bassin d'Aurillac","phone":"+33 4 71 48 28 87","shower":"yes","source":"cadastre-dgi-fr source : Direction Générale des Impôts - Cadastre;mise à jour : 2009","stars":"3","tents":"yes","toilets":"yes","website":"https://camping.caba.fr/fr/description-ombrade/"}},"168226133":{"location":[44.8988346,2.4608128],"ct":"FR","tp":"CS","ts":"2023-08-12T20:40:00Z","tX":518,"tY":368,"tags":{"addr:city":"Arpajon-sur-Cère","addr:postcode":"15130","addr:street":"Rue Félix Ramond","capacity:motorhome":"10","capacity:pitches":"87","caravans":"yes","drinking_water":"yes","email":"campingcere@caba.fr","motorhome":"7","name":"Camping de la Cère","operator":"Communauté d'Agglomération du Bassin d'Aurillac","phone":"+33 4 71 64 55 07","power_supply":"yes","shower":"7","stars":"3","tents":"yes","toilets":"yes","website":"https://camping.caba.fr/fr/camping-de-la-cere/"}},"170583616":{"location":[44.9354829,2.2286259],"ct":"FR","tp":"CS","ts":"2021-04-01T14:55:19Z","tX":518,"tY":368,"tags":{"internet_access":"wlan","name":"Domaine du Lac","wheelchair":"yes"}},"170583637":{"location":[44.9363843,2.2309826],"ct":"FR","tp":"CS","ts":"2021-04-01T14:55:19Z","tX":518,"tY":368,"tags":{"internet_access":"wlan","name":"Camping des Rives du Lac"}},"170585374":{"location":[44.9379445,2.2150019],"ct":"FR","tp":"CS","ts":"2017-10-21T00:51:19Z","tX":518,"tY":368,"tags":{"email":"reservations@legaroustel.com","fax":"+33 4 71 46 09 10","name":"Le Garoustel","operator":"Toutes Saisons Vacances","phone":"+33 4 70 05 99 60","website":"http://www.legaroustel.com/garoustel/index2.php"}},"244693173":{"location":[44.962565,2.196998],"ct":"FR","tp":"CS","ts":"2018-11-07T10:18:59Z","tX":518,"tY":368,"tags":{"name":"Camping municipal","phone":"+33 4 71 46 02 84","wheelchair":"yes"}},"285069978":{"location":[44.9267248,2.2176183],"ct":"FR","tp":"CS","ts":"2014-05-29T16:44:29Z","tX":518,"tY":368,"tags":{"name":"Camping Le Moulès"}},"832252328":{"location":[44.9052102,2.2550766],"ct":"FR","tp":"CS","ts":"2020-07-30T14:02:07Z","tX":518,"tY":368,"tags":{"caravans":"yes","name":"Camping du Viaduc","source":"data.gouv.fr:DATAtourisme - 05/2020","stars":"3","tents":"yes","website":"https://www.camping-cantal.com"}},"833243193":{"location":[44.8899836,2.2380245],"ct":"FR","tp":"CS","ts":"2021-06-17T13:14:48Z","tX":518,"tY":368,"tags":{"name":"Camping de la Ferme de Viescamp","phone":"+33471622514","source":"data.gouv.fr:DATAtourisme - 05/2020","stars":"3","website":"https://www.viescampers.com"}},"848824573":{"location":[45.0789959,2.2304181],"ct":"FR","tp":"CS","ts":"2010-08-07T17:41:24Z","tX":518,"tY":368,"tags":{"name":"Camping de Longairoux"}},"848825272":{"location":[45.0800275,2.2274723],"ct":"FR","tp":"CS","ts":"2010-08-07T17:41:50Z","tX":518,"tY":368,"tags":{"name":"Les Alizés"}},"1116102196":{"location":[44.9588059,2.3428556],"ct":"FR","tp":"CR","ts":"2024-10-18T16:39:07Z","tX":518,"tY":368,"tags":{"addr:city":"Crandelles","caravan_site":"motorhome_stopover","caravan_site:type":"village;lake","fee":"no","name":"Aire du lac des Genévrières","opening_hours":"Apr-Oct","sanitary_dump_station":"yes","sanitary_dump_station:chemical_toilet":"yes","sanitary_dump_station:grey_water":"yes","water_point":"yes","water_point:fee":"yes","website":"https://www.crandelles.fr/fr/aire-camping-car/"}},"1161063650":{"location":[44.9915367,2.418985],"ct":"FR","tp":"CS","ts":"2023-04-10T12:28:01Z","tX":518,"tY":368,"tags":{"capacity:pitches":"40","caravans":"yes","email":"campingmoulin@caba.fr","motorhome":"yes","name":"Camping du Moulin","operator":"Communauté d'Agglomération du Bassin d'Aurillac","phone":"+33 4 71 46 69 85","shower":"yes","stars":"2","tents":"yes","toilets":"yes","website":"https://camping.caba.fr/fr/camping-du-moulin/"}},"1219078720":{"location":[44.9328021,2.2314211],"ct":"FR","tp":"CR","ts":"2024-07-02T11:27:10Z","tX":518,"tY":368,"tags":{"bbq":"no","capacity":"26","caravan_site":"motorhome_stopover","caravan_site:type":"village","caravans":"no","charge":"13.66 EUR","charge:conditional":"11.66 @ (Nov-Apr)","dog":"leashed","fee":"yes","internet_access":"wlan","maxlength":"none","name":"Aire CAMPING-CAR PARK de Saint-Gérons, Plage d'Espinet","network":"CAMPING-CAR PARK","opening_hours":"24/7","operator":"CAMPING-CAR Park","power_supply":"yes","power_supply:maxcurrent":"6","sanitary_dump_station":"yes","seasonal":"no","tents":"no","trailer":"no","water_point":"yes","website":"https://www.campingcarpark.com/fr_FR/sejour/aire-etape-camping-car/auvergne-rhone-alpes/15-cantal/st-gerons"}},"1284208593":{"location":[44.9361993,2.4577075],"ct":"FR","tp":"CR","ts":"2024-05-17T18:41:11Z","tX":518,"tY":368,"tags":{"addr:city":"Aurillac","addr:housenumber":"16","addr:postcode":"15000","addr:street":"Rue du Gué Bouliaga","bbq":"no","capacity":"7","caravan_site":"motorhome_stopover","caravan_site:type":"village","caravans":"no","charge":"16.32 EUR","charge:conditional":"14.32@(Nov-Mar)","description":"market in village on We,Sa","dog":"leashed","email":"campingombrade@caba.fr","fee":"yes","internet_access":"wlan","maxlength":"9","motorhome":"yes","name":"Aire CAMPING-CAR PARK d'Aurillac","network":"CAMPING-CAR PARK","operator":"CAMPING-CAR PARK","phone":"+33 4 71 48 28 87","power_supply":"yes","power_supply:maxcurrent":"6","sanitary_dump_station":"yes","shower":"yes","source":"cadastre-dgi-fr source : Direction Générale des Impôts - Cadastre;mise à jour : 2009","stars":"3","tents":"no","toilets":"yes","trailer":"no","water_point":"yes","website":"https://www.campingcarpark.com/en_GB/stay/stopover-site-motorhome/auvergne-rhone-alpes/15-cantal/aurillac"}},"1308905496":{"location":[44.9215276,2.2635669],"ct":"FR","tp":"CR","ts":"2024-08-19T21:14:16Z","tX":518,"tY":368,"tags":{"capacity":"5","caravan_site":"motorhome_stopover","caravan_site:type":"village;lake","fee":"no","maxstay":"24 hours","name":"Aire de camping-car Lacapelle-Viescamp","sanitary_dump_station":"yes","water_point":"yes","water_point:fee":"yes"}},"1315450950":{"location":[45.053742,2.4269915],"ct":"FR","tp":"CR","ts":"2024-10-17T13:40:21Z","tX":518,"tY":368,"tags":{"capacity":"5","caravan_site":"motorhome_stopover","caravan_site:type":"village","caravans":"no","dog":"yes","fee":"no","name":"Accuil Camping-Cars Saint-Cernin","opening_hours":"Apr-Oct","sanitary_dump_station":"yes","sanitary_dump_station:chemical_toilet":"yes","sanitary_dump_station:grey_water":"yes","seasonal":"yes","tents":"no","water_point":"yes","water_point:fee":"no","website":"https://www.auvergne-destination.com/fiches/accueil-camping-cars-saint-cernin/"}},"1324672484":{"location":[44.8505153,2.2316848],"ct":"FR","tp":"CS","ts":"2020-10-22T11:17:29Z","tX":518,"tY":368,"tags":{"name":"Camping Les Bouleaux"}},"1723311472":{"location":[44.9029587,2.2031194],"ct":"FR","tp":"CS","ts":"2014-02-12T23:46:10Z","tX":518,"tY":368,"tags":{"name":"Ferme du Feyt"}},"1817276342":{"location":[44.913188,2.24641],"ct":"FR","tp":"CS","ts":"2012-07-08T07:47:13Z","tX":518,"tY":368,"tags":{"name":"Camping du Puech des Ouilhes"}},"1827358753":{"location":[44.8539939,2.3096727],"ct":"FR","tp":"CS","ts":"2023-10-11T21:16:21Z","tX":518,"tY":368,"tags":{"addr:city":"Saintt Mamet la Salvetat","addr:postcode":"15220","addr:street":"Rue du Camping","caravans":"yes","fee":"yes","name":"Camping municipal St-Mamet-la-Salvetat","operator":"Commune de St-Mamet-la-Salvetat","payment:cash":"yes","payment:cheque":"yes","payment:notes":"yes","phone":"+33 4 71 64 75 21","shower":"yes","stars":"3","static_caravans":"yes","website":"https://stmamet-lasalvetat.com/index.php/tourisme/camping"}},"10015430497":{"location":[45.071896,2.2590391],"ct":"FR","tp":"CS","ts":"2023-10-28T17:23:55Z","tX":518,"tY":368,"tags":{"addr:city":"Saint-Martin-Cantalès","addr:housenumber":"10","addr:postcode":"15140","addr:street":"Route du Pont du Rouffet","capacity:caravans":"30","fee":"yes","name":"Camping Pont du Rouffet","website":"http://www.campingpontdurouffet.nl"}},"11446099301":{"location":[44.9671435,2.1908256],"ct":"FR","tp":"CR","ts":"2023-12-23T12:08:30Z","tX":518,"tY":368,"tags":{"caravan_site":"parking_lot","caravan_site:type":"village","fee":"no","name":"Parking du Foirail","website":"https://www.bergerac.fr/decouvrir-bergerac/tourisme/"}},"7671668537":{"location":[45.0601898,2.2338805],"ct":"FR","tp":"SD","ts":"2024-02-17T15:48:17Z","tX":518,"tY":368,"tags":{"drinking_water":"yes","fee":"yes"}},"11447544898":{"location":[45.053148,2.4262874],"ct":"FR","tp":"SD","ts":"2023-12-23T23:26:55Z","tX":518,"tY":368,"tags":{"access":"yes","motorhome":"designated","opening_hours":"Apr-Oct","sanitary_dump_station:chemical_toilet":"yes","sanitary_dump_station:grey_water":"yes","seasonal":"yes","water_point":"yes"}},"11670114594":{"location":[44.8571256,2.3097695],"ct":"FR","tp":"SD","ts":"2024-02-27T20:43:21Z","tX":518,"tY":368,"tags":{}},"12118643292":{"location":[44.9295739,2.4495877],"ct":"FR","tp":"SD","ts":"2024-08-18T16:20:34Z","tX":518,"tY":368,"tags":{"access":"yes","fee":"no","sanitary_dump_station:chemical_toilet":"yes","sanitary_dump_station:grey_water":"yes"}},"12121112960":{"location":[44.9214891,2.2634941],"ct":"FR","tp":"SD","ts":"2024-08-19T21:13:42Z","tX":518,"tY":368,"tags":{"access":"yes","fee":"no","sanitary_dump_station:chemical_toilet":"yes","sanitary_dump_station:grey_water":"yes"}},"12121130396":{"location":[44.9587181,2.3419212],"ct":"FR","tp":"SD","ts":"2024-08-19T21:22:32Z","tX":518,"tY":368,"tags":{"access":"yes","fee":"no","sanitary_dump_station:chemical_toilet":"yes","sanitary_dump_station:grey_water":"yes"}},"12171020945":{"location":[44.9565164,2.4177422],"ct":"FR","tp":"SD","ts":"2024-09-12T01:38:08Z","tX":518,"tY":368,"tags":{}},"12171056438":{"location":[44.8839238,2.3466806],"ct":"FR","tp":"SD","ts":"2024-09-12T02:08:26Z","tX":518,"tY":368,"tags":{"water_point":"yes"}}}