{"115085822":{"location":[44.5917956,2.2059051],"ct":"FR","tp":"CR","ts":"2024-10-22T10:16:20Z","tX":518,"tY":369,"tags":{"capacity":"8","caravan_site":"motorhome_stopover","caravan_site:type":"river","email":"mairie.boisse.penchot@orange.fr","fee":"no","name":"Aire camping-car Boisse-Penchot","phone":"+33 5 65644953","picnic_area":"yes","playground":"yes","power_supply":"yes","sanitary_dump_station":"yes","toilets":"yes","water_point":"yes","website":"https://www.tourisme-aveyron.com/fr/diffusio/activites/aire-de-camping-car-boisse-penchot_TFO024424881772"}},"115615217":{"location":[44.6095919,2.2365869],"ct":"FR","tp":"CS","ts":"2023-11-10T11:49:31Z","tX":518,"tY":369,"tags":{"addr:city":"Flagnac","addr:postcode":"12300","name":"Camping le Port de Lacombe","operator":"oiseaulyre","phone":"+33 565631980","website":"https://www.campingleportdelacombe.fr/","wheelchair":"yes"}},"193464668":{"location":[44.6290772,2.32036],"ct":"FR","tp":"CS","ts":"2023-06-12T16:49:23Z","tX":518,"tY":369,"tags":{"addr:city":"Saint-Parthem","addr:country":"FR","addr:postcode":"12300","fee":"yes","name":"Camping Pittoresque","old_name":"Camping La Plaine","phone":"+33 5 65 64 05 24","power_supply":"yes","shower":"yes","source":"cadastre-dgi-fr source : Direction Générale des Impôts - Cadastre. Mise à jour : 2012","tents":"yes","toilets":"yes","website":"https://camping-laplaine.com/"}},"258610016":{"location":[44.6427534,2.3670445],"ct":"FR","tp":"CS","ts":"2022-01-11T16:41:43Z","tX":518,"tY":369,"tags":{"contact:website":"http://www.campingcoursavy.com/","name":"Camping Coursavy"}},"293066509":{"location":[44.5995478,2.391647],"ct":"FR","tp":"CS","ts":"2023-06-23T11:21:27Z","tX":518,"tY":369,"tags":{"contact:website":"https://www.le-temps-dune-pause.fr/","name":"Le temps d'une pause","old_name":"Beau Rivage","source":"survey 2023","stars":"3"}},"361941129":{"location":[44.7791258,2.2538957],"ct":"FR","tp":"CS","ts":"2019-09-05T08:34:29Z","tX":518,"tY":369,"tags":{"name":"Camping municipal de Boisset","operator":"Mairie"}},"362662806":{"location":[44.7806841,2.3535932],"ct":"FR","tp":"CS","ts":"2018-09-17T13:09:56Z","tX":518,"tY":369,"tags":{"caravans":"yes","internet_access":"no","name":"Camping municipal","sanitary_dump_station":"yes","tents":"yes","wheelchair":"yes"}},"626650191":{"location":[44.7061784,2.2079134],"ct":"FR","tp":"CR","ts":"2024-07-31T09:54:29Z","tX":518,"tY":369,"tags":{"addr:city":"Maurs","addr:housenumber":"21","addr:postcode":"15600","addr:street":"Avenue du Stade","bbq":"no","capacity":"37","caravan_site":"motorhome_stopover","caravan_site:type":"camp_site","caravans":"yes","caravans:conditional":"no @ (Sep 16-Jun 14)","charge":"15.44 EUR","charge:conditional":"12.44 EUR @ (Sep 16-Apr 30)","dog":"leashed","email":"camping@ville-maurs.fr","fee":"yes","maxlength":"none","name":"Camping muncipal Le Vert de Maurs","network":"CAMPING-CAR PARK","operator":"CAMPING CAR-PARK","owner":"Commune de Maurs","phone":"+33 4 71 49 00 32","power_supply":"yes","power_supply:capacity":"56","power_supply:fee":"no","power_supply:maxcurrent":"6","sanitary_dump_station":"yes","tents":"yes","tents:conditional":"no @ (Sep 16-Jun 14)","toilets":"yes","toilets:conditional":"no @ (Sep 16-Jun 14)","trailer":"yes","website":"https://www.campingcarpark.com/en_GB/stay/camping/auvergne-rhone-alpes/15-cantal/maurs-la-jolie","wheelchair":"yes"}},"715544647":{"location":[44.6644929,2.1599847],"ct":"FR","tp":"CS","ts":"2021-11-17T05:23:07Z","tX":518,"tY":369,"tags":{"contact:facebook":"https://www.facebook.com/Camping-Les-berges-Du-C%C3%A9l%C3%A9-1571300923131100/","email":"lesbergesducele@gmail.com","name":"Les berges du Célé","opening_hours":"Apr-Oct","phone":"+33 5 65 34 94 31;+33 6 35 23 56 95","stars":"2","website":"https://www.lesbergesducele.com/site/"}},"904381140":{"location":[44.6259254,2.3132556],"ct":"FR","tp":"CR","ts":"2023-12-24T01:43:32Z","tX":518,"tY":369,"tags":{"access":"yes","addr:city":"Saint-Parthem","addr:postcode":"12300","addr:street":"La Soulairie","capacity":"4","caravan_site":"motorhome_stopover","caravan_site:type":"village","fee":"no","name":"Aire Terra Olt","operator":"Ville de Saint-Parthem","power_supply":"no","sanitary_dump_station:chemical_toilet":"yes","sanitary_dump_station:grey_water":"yes","sanitary_dump_station:round_drain":"yes","seasonal":"no","water_point":"yes"}},"904382539":{"location":[44.6443742,2.4177808],"ct":"FR","tp":"CR","ts":"2023-12-24T01:18:41Z","tX":518,"tY":369,"tags":{"access":"yes","addr:city":"Vieillevie","addr:postcode":"15120","addr:street":"D141","capacity":"5","caravan_site":"motorhome_stopover","description":"Aire de camping-car","fee":"no","name":"Aire de camping cars de Vieillevie","operator":"Ville de Vieillevie","power_supply":"yes","sanitary_dump_station:chemical_toilet":"yes","sanitary_dump_station:grey_water":"yes","sanitary_dump_station:round_drain":"yes","seasonal":"yes","services:charge":"2 EUR","toilets":"no","water_point":"yes","website":"https://chataigneraie-cantal.com/ou-dormir/aire-de-camping-cars-de-vieillevie/"}},"1004441971":{"location":[44.6718808,2.1097586],"ct":"FR","tp":"CS","ts":"2021-11-19T17:51:59Z","tX":518,"tY":369,"tags":{}},"1711039859":{"location":[44.7101442,2.3589046],"ct":"FR","tp":"CS","ts":"2012-04-11T06:23:04Z","tX":518,"tY":369,"tags":{"name":"Municipal"}},"1752572461":{"location":[44.6819985,2.2606913],"ct":"FR","tp":"CS","ts":"2024-07-11T00:26:31Z","tX":518,"tY":369,"tags":{"addr:city":"Saint-Constant-Fournoulès","addr:housenumber":"1","addr:place":"Chaules","addr:postcode":"15600","check_date":"2024-07-10","contact:email":"camping@moulin-de-chaules.com","contact:facebook":"https://www.facebook.com/CampingMoulinDeChaules","contact:instagram":"https://www.instagram.com/campingmoulindechaules/","currency:XBT":"yes","internet_access":"wlan","name":"Moulin de chaules","opening_hours":"\"by appointment\"","payment:lightning":"yes","payment:lightning_contactless":"yes","payment:onchain":"no","phone":"+33 4 71 49 11 02","website":"https://moulin-de-chaules.com/fr/"}},"3887768672":{"location":[44.6137847,2.25503],"ct":"FR","tp":"SD","ts":"2015-12-11T15:42:14Z","tX":518,"tY":369,"tags":{"name":"Port de Lacombe Flagnac","source":"survey 2015; bing 2015"}},"4417333030":{"location":[44.7145977,2.1879105],"ct":"FR","tp":"CS","ts":"2016-09-25T09:13:32Z","tX":518,"tY":369,"tags":{"name":"Village de Vacance la Chateigneraie"}},"12117611091":{"location":[44.6377742,2.279247],"ct":"FR","tp":"CR","ts":"2024-08-18T00:31:02Z","tX":518,"tY":369,"tags":{"capacity":"5","caravan_site":"motorhome_stopover","caravan_site:type":"farm_shop","fee":"no","name":"Les Trois Marcassins","phone":"+33 05 65 64 05 48","product":"meat","seasonal":"no","water_point":"yes","website":"https://www.tourisme-aveyron.com/fr/diffusio/activites/aire-de-camping-car-les-trois-marcassins-st-parthem_TFO062942628484"}},"12171164357":{"location":[44.6282504,2.1982554],"ct":"FR","tp":"CR","ts":"2024-09-12T05:06:15Z","tX":518,"tY":369,"tags":{"capacity":"8","caravan_site":"motorhome_stopover","caravan_site:type":"countryside","caravans":"no","fee":"no","name":"Aire pour camping-cars de Montmurat","picnic_area":"yes","power_supply":"no","sanitary_dump_station":"yes","tents":"no","water_point":"yes"}},"6306693914":{"location":[44.714414,2.1959352],"ct":"FR","tp":"SD","ts":"2019-02-27T19:44:33Z","tX":518,"tY":369,"tags":{}},"6452700976":{"location":[44.7379135,2.2974837],"ct":"FR","tp":"SD","ts":"2019-05-06T17:40:37Z","tX":518,"tY":369,"tags":{"drinking_water":"yes"}},"6773960308":{"location":[44.7788802,2.2534378],"ct":"FR","tp":"SD","ts":"2019-09-05T08:34:29Z","tX":518,"tY":369,"tags":{}},"8399062789":{"location":[44.6260714,2.3132092],"ct":"FR","tp":"SD","ts":"2023-12-24T01:43:32Z","tX":518,"tY":369,"tags":{"access":"customers","description":"Station de vidange pour Camping-car","fee":"no","name":"Aire de vidange Terra Olt","operator":"Ville de Saint-Parthem","sanitary_dump_station:chemical_toilet":"yes","sanitary_dump_station:grey_water":"yes","sanitary_dump_station:round_drain":"yes","water_point":"yes"}},"8399075724":{"location":[44.6443173,2.4176563],"ct":"FR","tp":"SD","ts":"2021-11-20T14:40:26Z","tX":518,"tY":369,"tags":{"description":"Station de vidange pour Camping-car","fee":"no","operator":"Ville de Vieillevie","sanitary_dump_station:chemical_toilet":"yes","sanitary_dump_station:grey_water":"yes","sanitary_dump_station:round_drain":"yes","water_point":"yes"}},"12117070118":{"location":[44.5920973,2.2057018],"ct":"FR","tp":"SD","ts":"2024-08-17T15:32:29Z","tX":518,"tY":369,"tags":{"access":"yes"}}}