{"382867448":{"location":[44.0153807,2.1344256],"ct":"FR","tp":"CS","ts":"2024-01-19T17:13:43Z","tX":518,"tY":372,"tags":{"name":"Du Lac Sainte-Marie","website":"https://hostel-capdecouverte.fr/camping/"}},"459022590":{"location":[43.9272187,2.1409982],"ct":"FR","tp":"CR","ts":"2024-10-11T14:42:19Z","tX":518,"tY":372,"tags":{"access":"no","capacity":"9","caravan":"designated","caravan_site":"motorhome_stopover","caravan_site:type":"town","caravans":"no","fee":"no","maxstay":"48 hours","motorhome":"designated","name":"Parking Bondidou - Albi","opening_hours":"24/7","supervised":"no","tents":"no","website":"https://www.mairie-albi.fr/fr/taxonomy/term/104"}},"641591694":{"location":[43.9337776,2.1649946],"ct":"FR","tp":"CS","ts":"2024-07-08T16:25:04Z","tX":518,"tY":372,"tags":{"access":"yes","addr:city":"Albi","addr:housenumber":"31","addr:postcode":"81000","addr:street":"Allée de la Piscine","capacity:caravans":"33","caravans":"yes","dog":"yes","drinking_water":"yes","name":"Camping Albirondack Park Lodge et Spa","operator":"Famille Balario","phone":"+33 5 63 60 37 06","shower":"yes","static_caravans":"yes","tents":"yes","toilets":"yes","website":"https://www.albirondack.fr/"}},"740523745":{"location":[43.8871388,2.4590696],"ct":"FR","tp":"SD","ts":"2019-10-30T20:57:58Z","tX":518,"tY":372,"tags":{"access":"yes","fee":"no","opening_hours":"24/7","operator":"Mairie d'Alban","sanitary_dump_station:round_drain":"yes"}},"833238575":{"location":[44.0874092,2.4424021],"ct":"FR","tp":"CS","ts":"2020-10-26T10:06:10Z","tX":518,"tY":372,"tags":{"name":"Camping municipal de Lédergues","source":"data.gouv.fr:DATAtourisme - 05/2020"}},"863747533":{"location":[43.9188195,2.1685522],"ct":"FR","tp":"CR","ts":"2024-10-11T14:42:19Z","tX":518,"tY":372,"tags":{"bus":"designated","capacity":"18","caravan_site":"motorhome_stopover","caravan_site:type":"town","check_date":"2022-09-23","fee":"no","internet_access":"no","name":"Aire Milliassole - Albi","opening_hours":"24/7","power_supply":"no","sanitary_dump_station":"yes","surface":"asphalt","toilets":"yes","wheelchair":"yes"}},"948046056":{"location":[43.8594066,2.2485554],"ct":"FR","tp":"CS","ts":"2024-12-21T01:12:05Z","tX":518,"tY":372,"tags":{"addr:city":"Fréjairolles","addr:housenumber":"387","addr:postcode":"81990","addr:street":"Route de Réalmont","email":"domainedugrandchene81@orange.fr","events_venue":"yes","fee":"yes","name":"Domaine du Grand Chêne","phone":"+33 5 63 53 03 55","tents":"yes","website":"https://camping-restaurant-albi.com/"}},"1281803257":{"location":[43.8937528,2.454802],"ct":"FR","tp":"CR","ts":"2024-05-18T12:32:56Z","tX":518,"tY":372,"tags":{"bbq":"no","capacity":"24","caravan_site":"motorhome_stopover","caravan_site:type":"countryside","caravans":"yes","caravans:conditional":"no @ (Nov-Apr)","charge":"15.38 EUR","charge:conditional":"13.28 EUR @ (Oct-Apr)","dog":"leashed","fee":"yes","internet_access":"wlan","internet_access:fee":"no","maxlength":"none","name":"Aire Camping-car Park Alban, Vallée du Tarn","network":"CAMPING-CAR PARK","power_supply":"yes","power_supply:capacity":"32","power_supply:fee":"no","power_supply:maxcurrent":"6","sanitary_dump_station":"yes","shower":"yes","shower:conditional":"no @ (Nov-Apr)","tents":"yes","tents:conditional":"no @ (Nov-Apr)","toilets":"yes","toilets:conditional":"no @ (Nov-Apr)","trailer":"yes","water_point":"yes","website":"http://www.alban.ccmav.fr/commune-alban/hebergements/","website:booking":"https://www.campingcarpark.com/fr_FR/sejour/camping/occitanie/81-tarn/alban"}},"1323201533":{"location":[43.9332191,2.1361475],"ct":"FR","tp":"CR","ts":"2024-10-11T14:42:19Z","tX":518,"tY":372,"tags":{"capacity":"30","caravan_site":"motorhome_stopover","caravan_site:type":"town","caravans":"no","drinking_water":"no","fee":"no","maxstay":"48 hours","name":"Aire de Camping-Cars Pratgrausals","power_supply":"no","sanitary_dump_station":"yes","tents":"no","toilets":"no","website":"https://www.mairie-albi.fr/fr/aire-de-camping-car-de-pratgraussal"}},"1352699694":{"location":[43.9415887,2.3834926],"ct":"FR","tp":"CS","ts":"2024-06-28T19:02:41Z","tX":518,"tY":372,"tags":{"caravans":"yes","check_date:opening_hours":"2024-06-28","diet:vegetarian":"yes","drinking_water":"yes","indoor_seating":"no","leisure":"swimming-pool","name":"La mise à l'eau","opening_hours:signed":"no","outdoor_seating":"yes","payment:credit_cards":"yes","payment:debit_cards":"yes","phone":"+33563795829","power_supply":"yes","shower":"yes","tents":"yes","toilets":"yes"}},"6828780185":{"location":[43.8743014,2.4160938],"ct":"FR","tp":"CS","ts":"2023-11-11T05:05:39Z","tX":518,"tY":372,"tags":{"addr:postcode":"81250","addr:street":"Lieu-dit La Bourrelié","name":"Ferme Pédagogique Au Fer à Cheval","website":"https://auferacheval.com/"}},"7538491323":{"location":[44.0237871,2.399311],"ct":"FR","tp":"CS","ts":"2020-05-19T17:45:06Z","tX":518,"tY":372,"tags":{"name":"Camping"}},"8046903279":{"location":[43.919067,2.1688284],"ct":"FR","tp":"SD","ts":"2024-10-11T14:42:19Z","tX":518,"tY":372,"tags":{"access":"yes"}},"8399455227":{"location":[44.0123236,2.2335712],"ct":"FR","tp":"SD","ts":"2021-11-20T14:40:26Z","tX":518,"tY":372,"tags":{"description":"Station de vidange pour Camping-car","fee":"no","operator":"Ville de Valderiès","sanitary_dump_station:chemical_toilet":"yes","sanitary_dump_station:grey_water":"yes","sanitary_dump_station:round_drain":"yes","water_point":"yes"}},"12244329482":{"location":[43.9335426,2.13624],"ct":"FR","tp":"SD","ts":"2024-10-11T14:42:19Z","tX":518,"tY":372,"tags":{}}}