{"82514163":{"location":[42.7290924,2.4407969],"ct":"FR","tp":"CS","ts":"2018-07-20T06:42:58Z","tX":518,"tY":377,"tags":{"name":"Camping la Source"}},"180421277":{"location":[42.5753967,2.3437352],"ct":"FR","tp":"CS","ts":"2021-02-20T23:06:43Z","tX":518,"tY":377,"tags":{"addr:city":"Villefranche de Conflent","addr:postcode":"66360","addr:street":"Route de Serdinya","capacity":"75","caravans":"yes","contact:email":"accueil@camping-lastourg.com","contact:phone":"+33614859910","fee":"yes","internet_access":"wlan","internet_access:fee":"no","name":"Lastourg","opening_hours":"Apr-Oct","power_supply":"yes","shower":"yes","toilets":"yes","website":"http://www.camping-lastourg.com/"}},"184397875":{"location":[42.6508166,2.3891142],"ct":"FR","tp":"CS","ts":"2020-10-31T12:43:09Z","tX":518,"tY":377,"tags":{"name":"Camping de Molitg"}},"190396355":{"location":[42.5652755,2.3883408],"ct":"FR","tp":"CS","ts":"2022-12-29T00:57:22Z","tX":518,"tY":377,"tags":{"name":"Las Closes","name:ca":"Les Closes"}},"194662376":{"location":[42.5620474,2.3587643],"ct":"FR","tp":"CS","ts":"2012-12-05T17:56:22Z","tX":518,"tY":377,"tags":{"name":"Le Rotja"}},"255587113":{"location":[42.8110601,2.3750984],"ct":"FR","tp":"CS","ts":"2023-04-15T21:12:30Z","tX":518,"tY":377,"tags":{"name":"Camping municipal"}},"267683563":{"location":[42.621041,2.4230315],"ct":"FR","tp":"CS","ts":"2022-10-17T08:41:03Z","tX":518,"tY":377,"tags":{"alt_name":"Camping municipal","name":"Camping Plaine Saint-Martin"}},"302097486":{"location":[42.565721,2.4193598],"ct":"FR","tp":"CS","ts":"2020-10-05T19:37:06Z","tX":518,"tY":377,"tags":{"caravans":"yes","contact:email":"contact@campinglessauterelles.com","contact:phone":"+33 4 68 05 63 72","contact:website":"https://www.campinglessauterelles.com","name":"Les Sauterelles","official_name":"Camping Les Sauterelles","phone":"+33 4 68 05 63 72","sanitary_dump_station":"yes","source":"data.gouv.fr:DATAtourisme - 05/2020","tents":"yes","wheelchair":"yes"}},"500712090":{"location":[42.7886061,2.3875133],"ct":"FR","tp":"CS","ts":"2019-03-20T05:42:26Z","tX":518,"tY":377,"tags":{"name":"Camping des Randonneurs Fenouillet","phone":"+33 4 68 59 05 50","website":"https://www.campingdesrandonneurs.com/index.htm"}},"502083795":{"location":[42.808273,2.2539246],"ct":"FR","tp":"CS","ts":"2017-06-20T12:55:02Z","tX":518,"tY":377,"tags":{"name":"La Crémade","website":"http://www.campinglacremade.com/"}},"580428560":{"location":[42.8098437,2.3087707],"ct":"FR","tp":"CR","ts":"2024-10-01T13:23:30Z","tX":518,"tY":377,"tags":{"addr:street":"Avenue du Languedoc","capacity":"8","caravan_site":"motorhome_stopover","caravan_site:type":"countryside","caravans":"no","fee":"no","name":"La Devèze","operator":"Ville de Puilaurens","sanitary_dump_station":"yes","sanitary_dump_station:chemical_toilet":"yes","sanitary_dump_station:grey_water":"yes","seasonal":"no","tents":"no","water_point":"yes","website":"https://www.audetourisme.com/fr/fiche/puilaurens/aire-de-services-pour-camping-cars-la-deveze_TFOACCAMLAR0110001P/"}},"609223136":{"location":[42.8033844,2.4003767],"ct":"FR","tp":"CS","ts":"2023-05-19T21:30:04Z","tX":518,"tY":377,"tags":{"alt_name":"Camping Castel Fizel","email":"contact@castel-fizel.fr","leisure":"resort","name":"Domaine de Castel Fizel","phone":"+33 4 68 59 93 96","resort":"kids_camp","website":"http://www.castel-fizel.fr/"}},"627843730":{"location":[42.5552847,2.3775363],"ct":"FR","tp":"CS","ts":"2023-04-30T08:28:15Z","tX":518,"tY":377,"tags":{"cabins":"yes","caravans":"yes","name":"L'Eau Vive","opening_hours":"Apr 1 - Oct 31","phone":"+33 4 68 05 54 14","shower":"yes","stars":"3","tents":"yes","toilets":"yes","website":"https://leauvive-camping.com"}},"630747182":{"location":[42.5564512,2.3849304],"ct":"FR","tp":"CS","ts":"2023-04-30T08:28:15Z","tX":518,"tY":377,"tags":{"cabins":"yes","caravans":"yes","email":"contact@camping-del-bosc.com","name":"Camping Del Bosc","opening_hours":"Apr 15 - Sep 30","phone":"+33 4 68 05 54 54","shower":"yes","stars":"3","tents":"yes","toilets":"yes","website":"https://www.camping-del-bosc.com"}},"1657306667":{"location":[42.6031277,2.3982632],"ct":"FR","tp":"CS","ts":"2024-08-07T10:38:06Z","tX":518,"tY":377,"tags":{"addr:street":"18 Rue Bellevue 66500 RIA-SIRACH","name":"Camping Bellevue","phone":"06 82 11 85 67","website":"https://www.campingbellevue-66.fr/"}},"4225646328":{"location":[42.7369387,2.1985898],"ct":"FR","tp":"CS","ts":"2023-05-08T19:59:50Z","tX":518,"tY":377,"tags":{"caravans":"yes","contact:facebook":"https://www.facebook.com/Camping-Madres-Pyr%C3%A9n%C3%A9es-Roquefort-de-Sault-110559584537958","email":"camping-roquefort.de.sault@orange.fr","name":"Madres Pyrénées","opening_hours":"Jun 01-Sep 30","operator":"Commune de Roquefort de Sault","phone":"+33 4 68 20 63 14","shower":"yes","tents":"yes","toilets":"yes","website":"http://www.roquefortdesault.fr/tourisme/hebergement/camping-madres-pyrenees.html"}},"8068450421":{"location":[42.628898,2.273903],"ct":"FR","tp":"CS","ts":"2022-12-02T21:41:05Z","tX":518,"tY":377,"tags":{"name":"El Manau","phone":"+33 4 68 96 50 36","website":"http://www.elmanau.com/"}},"8280482946":{"location":[42.8098349,2.3088073],"ct":"FR","tp":"SD","ts":"2021-01-01T09:15:15Z","tX":518,"tY":377,"tags":{"access":"yes","fee":"no","operator":"Ville de Puilaurens","water_point":"yes"}},"8305863057":{"location":[42.5565822,2.3842181],"ct":"FR","tp":"SD","ts":"2021-01-09T14:10:05Z","tX":518,"tY":377,"tags":{"access":"yes","description":"Vidange eaux grises dans l'evacuation des eaux de lavage des voitures","fee":"no","operator":"Intermarché","sanitary_dump_station:basin":"yes","water_point":"yes"}}}