{"8059639":{"location":[42.2621915,2.3701476],"ct":"ES","tp":"CS","ts":"2023-11-02T21:23:49Z","tX":518,"tY":379,"tags":{"email":"reserves@elsroures.com","name":"els Roures","name:ca":"els Roures","phone":"+34 972 74 70 00","website":"https://www.elsroures.com/"}},"8392927":{"location":[42.22792,2.1371617],"ct":"ES","tp":"CS","ts":"2024-07-28T12:26:05Z","tX":518,"tY":379,"tags":{"email":"info@campingpirinenc.com","name":"Càmping Pirinenc","name:ca":"Càmping Pirinenc","phone":"+34 972 712 023","website":"https://campingpirinenc.com/"}},"14224221":{"location":[42.2351671,2.1180248],"ct":"ES","tp":"CS","ts":"2023-11-02T21:23:50Z","tX":518,"tY":379,"tags":{"email":"info@campingmoliserradell.com","name":"Molí Serradell","name:ca":"Molí Serradell","phone":"+34 972 730 927","website":"https://www.campingmoliserradell.com/"}},"14230078":{"location":[42.2200857,2.1737945],"ct":"ES","tp":"CS","ts":"2022-11-26T07:13:24Z","tX":518,"tY":379,"tags":{"addr:city":"Ripoll","addr:postcode":"17500","email":"info@campingripolles.es","name":"Càmping Ripollès","name:ca":"Càmping Ripollès","phone":"+34 608 62 44 85","website":"http://www.campingripolles.es/"}},"14384787":{"location":[42.2894659,2.3649379],"ct":"ES","tp":"CS","ts":"2023-09-21T20:26:55Z","tX":518,"tY":379,"tags":{"addr:city":"Camprodon","email":"info@valldecamprodon.net","fax":"+34 972 13 06 32","internet_access":"wlan","name":"Càmping Vall de Camprodon","name:ca":"Càmping Vall de Camprodon","phone":"+34 972 74 05 07","website":"https://www.valldecamprodon.net/"}},"14399348":{"location":[42.1224346,2.3181142],"ct":"ES","tp":"CS","ts":"2022-11-26T09:30:51Z","tX":518,"tY":379,"tags":{"name":"Càmping de Vidrà","name:ca":"Càmping de Vidrà","website":"https://www.campingvidra.com/"}},"322198743":{"location":[42.1820604,2.1961473],"ct":"ES","tp":"CS","ts":"2024-06-30T13:24:21Z","tX":518,"tY":379,"tags":{"name":"Càmping Solana del Ter","name:ca":"Càmping Solana del Ter","phone":"+49 972 701062","website":"https://www.solanadelter.com/"}},"426329103":{"location":[42.2489069,2.3337771],"ct":"ES","tp":"CS","ts":"2016-06-22T19:06:14Z","tX":518,"tY":379,"tags":{"backcountry":"no","caravans":"yes","fee":"yes","name":"Camping Abadesses","openfire":"no","phone":"+34630143606","tents":"yes","website":"http://www.campingabadesses.com"}},"514478881":{"location":[42.2404725,2.4240017],"ct":"ES","tp":"CS","ts":"2020-04-14T15:02:13Z","tX":518,"tY":379,"tags":{"name":"Camping Vall de Bianya"}},"688129910":{"location":[42.0500854,2.2503794],"ct":"ES","tp":"CR","ts":"2019-05-06T10:48:02Z","tX":518,"tY":379,"tags":{"internet_access":"no","sanitary_dump_station":"yes"}},"966547205":{"location":[42.0786028,2.3043506],"ct":"ES","tp":"CS","ts":"2023-11-06T05:47:54Z","tX":518,"tY":379,"tags":{"access":"private","addr:city":"Sant Pere de Torelló","capacity":"50","charge":"5 EUR","fee":"yes","group_only":"yes","name":"Terreny d'acampada El Serrat","name:ca":"Terreny d'acampada El Serrat","website":"https://campaments.cat/terreny/el-serrat-1"}},"966547206":{"location":[42.0810636,2.3584094],"ct":"ES","tp":"CS","ts":"2023-11-06T05:47:41Z","tX":518,"tY":379,"tags":{"access":"private","addr:city":"Sant Pere de Torelló","capacity":"40","charge":"4.50 EUR","fee":"yes","group_only":"yes","name":"Terreny d'acampada Rectoria de la Vola","name:ca":"Terreny d'acampada Rectoria de la Vola","operator":"Campaments.cat","website":"https://campaments.cat/terreny/rectoria-de-la-vola"}},"966547207":{"location":[42.0911222,2.3482028],"ct":"ES","tp":"CS","ts":"2023-11-06T05:47:46Z","tX":518,"tY":379,"tags":{"access":"private","capacity":"40","charge":"2.90 EUR","fee":"yes","group_only":"yes","name":"Terreny d'acampada Llombregueres de Baix","operator":"Campaments.cat","website":"https://campaments.cat/terreny/llombregueres-de-baix"}},"967802376":{"location":[42.1655586,2.1502679],"ct":"ES","tp":"CS","ts":"2023-11-06T05:47:56Z","tX":518,"tY":379,"tags":{"access":"private","addr:city":"Les Llosses","capacity":"100","charge":"4 EUR","fee":"yes","group_only":"yes","name":"Terreny d'acampada La Planassa","name:ca":"Terreny d'acampada La Planassa","website":"https://campaments.cat/terreny/la-planassa"}},"967802382":{"location":[42.1858455,2.3791809],"ct":"ES","tp":"CS","ts":"2023-11-06T05:47:57Z","tX":518,"tY":379,"tags":{"access":"private","addr:city":"Riudaura","capacity":"50","charge":"2.60 EUR","fee":"yes","group_only":"yes","name":"Terreny d'acampada El Cai","name:ca":"Terreny d'acampada El Cai","website":"https://campaments.cat/terreny/el-cai"}},"967802383":{"location":[42.1908637,2.3802813],"ct":"ES","tp":"CS","ts":"2023-11-02T21:24:01Z","tX":518,"tY":379,"tags":{"access":"private","addr:city":"Riudaura","capacity":"20","charge":"2.60 EUR","fee":"yes","group_only":"yes","name":"Terreny d'acampada","name:ca":"Terreny d'acampada","website":"https://campaments.cat/terreny/lhorta-de-la-plana"}},"1104503870":{"location":[42.0668466,2.2845129],"ct":"ES","tp":"CR","ts":"2022-10-16T19:45:54Z","tX":518,"tY":379,"tags":{"addr:city":"Sant Pere de Torelló","addr:street":"Carrer de Pompeu Fabra","capacity:caravans":"10","name":"Area Caravanas","sanitary_dump_station":"yes"}},"1219707933":{"location":[42.2356663,2.2843791],"ct":"ES","tp":"CR","ts":"2024-05-21T06:37:19Z","tX":518,"tY":379,"tags":{"addr:street":"Passeig de l'Estació","fee":"no","name":"Àrea d'autocaravanes de Sant Joan de les Abadesses","nohousenumber":"yes","operator":"MUNICIPAL","power_supply":"no","sanitary_dump_station":"yes","seasonal":"no","surface":"grass_paver","water_point":"yes","water_point:conditional":"no @ (Nov-Apr)","website":"https://www.santjoandelesabadesses.cat/index.php/autocaravanes/item/area-d-autocaravanes"}},"1304402680":{"location":[42.1206263,2.4504831],"ct":"ES","tp":"CR","ts":"2024-07-29T08:29:28Z","tX":518,"tY":379,"tags":{"fee":"no","name":"Àrea d'autocaravanes Vall d'en Bas","operator":"Alberg de la Vall d'en Bas","permanent_camping":"no","power_supply":"yes","sanitary_dump_station":"yes","toilets":"no"}},"4380826068":{"location":[42.2027343,2.1937161],"ct":"ES","tp":"CR","ts":"2021-07-28T21:23:00Z","tX":518,"tY":379,"tags":{"addr:street":"Carretera Sant Joan","description":"NO SERVICES","fee":"no","name":"AC PUBLIC RIPOLL","operator":"MUNICIPAL"}},"8777082420":{"location":[42.0425486,2.4048707],"ct":"ES","tp":"CR","ts":"2023-07-31T10:58:05Z","tX":518,"tY":379,"tags":{"fee":"5 euro/day","name":"Àrea autocaravanes"}},"9121138141":{"location":[42.1934198,2.1956321],"ct":"ES","tp":"CR","ts":"2021-09-24T20:14:31Z","tX":518,"tY":379,"tags":{}},"10107604719":{"location":[42.0670335,2.2846732],"ct":"ES","tp":"CR","ts":"2022-10-17T04:54:53Z","tX":518,"tY":379,"tags":{"addr:street":"Carrer de Pompeu Fabra","name":"Area de Caravanas","name:en":"Camping Cars"}},"9121140174":{"location":[42.1933132,2.1956636],"ct":"ES","tp":"SD","ts":"2021-09-24T20:33:46Z","tX":518,"tY":379,"tags":{"fee":"no","sanitary_dump_station:chemical_toilet":"no","sanitary_dump_station:grey_water":"yes","water_point":"yes"}},"10130478564":{"location":[42.1206856,2.4506183],"ct":"ES","tp":"SD","ts":"2022-12-14T18:45:34Z","tX":518,"tY":379,"tags":{"access":"yes","description":"6 places per autocaravanes","fee":"yes","operator":"Alberg de la Vall d'en Bas","power_supply":"yes","water_point":"yes"}},"11301860219":{"location":[42.2354643,2.2841571],"ct":"ES","tp":"SD","ts":"2023-10-31T08:44:02Z","tX":518,"tY":379,"tags":{}},"11403618370":{"location":[42.1206333,2.4507083],"ct":"ES","tp":"SD","ts":"2023-12-08T17:31:07Z","tX":518,"tY":379,"tags":{}}}