{"8671141":{"location":[41.8653974,2.2968405],"ct":"ES","tp":"CS","ts":"2023-11-10T09:33:16Z","tX":518,"tY":380,"tags":{"name":"Camping La Vall","website":"https://www.campinglavall.com/"}},"18103544":{"location":[41.901189,2.2883226],"ct":"ES","tp":"CS","ts":"2024-09-30T07:10:07Z","tX":518,"tY":380,"tags":{"addr:city":"Santa Eugènia de Berga","addr:postcode":"08507","addr:street":"Carrer del Reguer","name":"Camping Santa Eugenia Park","phone":"+34 938 85 32 56","website":"www.campingsantaeugeniapark.cat"}},"316149284":{"location":[41.9346958,2.240172],"ct":"ES","tp":"CR","ts":"2023-04-08T22:55:59Z","tX":518,"tY":380,"tags":{"addr:city":"Vic","addr:postcode":"08500","addr:street":"Carrer de la Fura","area":"yes","capacity":"10","description":"Must not place any chairs or awnings outside.","drinking_water":"yes","email":"turisme@vic.cat","fee":"no","maxstay":"48 hours","motorhome":"yes","name":"àrea d'autocaravanes de Vic","name:ca":"àrea d'autocaravanes de Vic","name:en":"motorhome area in Vic","name:es":"área de autocaravanas de Vic","operator":"Ajuntament de vic","phone":"+34 93 886 20 91","power_supply":"cee_17_blue","sanitary_dump_station":"yes","surface":"ground","tents":"no","toilets":"no","waste_disposal":"yes","water_point":"yes","website":"https://www.victurisme.cat/fitxa.php?idm=3&pagina=3&sub=1&codi=41","website:ca":"https://www.victurisme.cat/fitxa.php?idm=1&pagina=3&sub=1&codi=41","website:en":"https://www.victurisme.cat/fitxa.php?idm=3&pagina=3&sub=1&codi=41","website:es":"https://www.victurisme.cat/fitxa.php?idm=2&pagina=3&sub=1&codi=41"}},"317892011":{"location":[41.9569046,2.2475751],"ct":"ES","tp":"CR","ts":"2019-07-04T23:37:05Z","tX":518,"tY":380,"tags":{"addr:city":"Gurb","addr:housenumber":"1","addr:postcode":"08503","addr:street":"Carrer del Blat","contact:phone":"+34938832927","contact:website":"http://www.autosuministros.com/","motorhome":"yes","opening_hours":"24/7","sanitary_dump_station":"yes"}},"337351724":{"location":[41.8064378,2.2106461],"ct":"ES","tp":"CS","ts":"2024-07-31T00:25:06Z","tX":518,"tY":380,"tags":{"barrier":"fence","name":"Càmping Puigsagordi","name:ca":"Càmping Puigsagordi"}},"360075385":{"location":[41.8451935,2.3876808],"ct":"ES","tp":"CR","ts":"2022-12-29T08:20:27Z","tX":518,"tY":380,"tags":{"addr:street":"Carrer del Montseny","fee":"yes","internet_access":"wlan","name":"AC PUBLIC VILADRAU","operator":"MUNICIPAL","sanitary_dump_station":"yes"}},"723045200":{"location":[41.7914869,2.2277369],"ct":"ES","tp":"CR","ts":"2019-09-09T06:46:22Z","tX":518,"tY":380,"tags":{"lit":"yes","toilets":"no"}},"742232076":{"location":[41.9345712,2.4085805],"ct":"ES","tp":"CS","ts":"2024-06-30T13:24:43Z","tX":518,"tY":380,"tags":{"addr:city":"Malafogassa","cabins":"yes","caravans":"yes","name":"Camping Parc El Pont","power_supply":"yes","sanitary_dump_station":"yes","tents":"yes","website":"https://www.campingelpont.net/"}},"830071793":{"location":[42.0175743,2.2454675],"ct":"ES","tp":"CR","ts":"2020-07-25T17:18:56Z","tX":518,"tY":380,"tags":{"capacity":"7","power_supply":"yes","sanitary_dump_station":"yes"}},"848836376":{"location":[41.8606547,2.4257095],"ct":"ES","tp":"CS","ts":"2020-09-18T10:37:37Z","tX":518,"tY":380,"tags":{"name":"Càmpins la Balma"}},"966487529":{"location":[41.96575,2.4028221],"ct":"ES","tp":"CS","ts":"2023-11-10T09:33:05Z","tX":518,"tY":380,"tags":{"access":"private","addr:city":"Vilanova de Sau","capacity":"100","charge":"2.80 EUR","fee":"yes","group_only":"yes","name":"Terreny d'acampada Ballsau","operator":"Campaments.cat","website":"https://campaments.cat/terreny/ballsau"}},"966547204":{"location":[42.0295361,2.1634877],"ct":"ES","tp":"CS","ts":"2023-11-06T05:47:59Z","tX":518,"tY":380,"tags":{"access":"private","addr:city":"Sobremunt","capacity":"80","charge":"3 EUR","fee":"yes","group_only":"yes","name":"Terreny d'acampada El Muntaner","name:ca":"Terreny d'acampada El Muntaner","operator":"Campaments.cat","website":"https://campaments.cat/terreny/el-muntaner"}},"979665612":{"location":[41.7888589,2.4133523],"ct":"ES","tp":"CS","ts":"2023-03-31T21:09:21Z","tX":518,"tY":380,"tags":{"name":"Càmping Les Illes","name:ca":"Càmping Les Illes"}},"1282442746":{"location":[41.9946524,2.4157928],"ct":"ES","tp":"CR","ts":"2024-05-13T12:09:16Z","tX":518,"tY":380,"tags":{"capacity":"15","charge":"15 EUR","drinking_water":"yes","fee":"yes","image":"https://i.imgur.com/B2tzBww.jpg","image:0":"https://i.imgur.com/xU9GiEZ.jpg","internet_access":"no","name":"Àrea d'autocaravanes de Tavertet","permanent_camping":"no","power_supply":"yes","sanitary_dump_station":"yes","toilets":"yes"}},"3506189299":{"location":[41.934361,2.2397988],"ct":"ES","tp":"SD","ts":"2016-12-23T16:42:08Z","tX":518,"tY":380,"tags":{"fee":"no","sanitary_dump_station:accepted":"black_water;grey_water;tank_chemicals","water_point":"yes"}},"3636729025":{"location":[41.9117159,2.3845145],"ct":"ES","tp":"CS","ts":"2023-03-31T19:08:46Z","tX":518,"tY":380,"tags":{"name":"Càmping Molí de Bojons","name:ca":"Càmping Molí de Bojons"}},"4570220472":{"location":[41.8596297,2.2296002],"ct":"ES","tp":"CR","ts":"2022-11-06T00:41:58Z","tX":518,"tY":380,"tags":{"camp_type":"informal","fee":"no","impromptu":"yes","name":"Parc Roqueta","name:ca":"Parc Roqueta"}},"4570367286":{"location":[41.8684867,2.4163492],"ct":"ES","tp":"CR","ts":"2017-06-24T20:30:47Z","tX":518,"tY":380,"tags":{"camp_type":"informal","impromptu":"yes"}},"5759549497":{"location":[41.9974816,2.2768431],"ct":"ES","tp":"CR","ts":"2018-07-13T23:18:52Z","tX":518,"tY":380,"tags":{"addr:city":"Manlleu","addr:postcode":"08560","fee":"no","internet_access":"no","operator":"Ajuntament de Manlleu","power_supply":"no","sanitary_dump_station":"yes"}},"5820506711":{"location":[41.9497645,2.3878039],"ct":"ES","tp":"CR","ts":"2018-08-09T13:32:27Z","tX":518,"tY":380,"tags":{"fee":"no","power_supply":"yes"}},"6406327587":{"location":[41.9216238,2.3218345],"ct":"ES","tp":"CR","ts":"2019-05-03T14:29:46Z","tX":518,"tY":380,"tags":{"addr:street":"Avinguda de Sant Jordi","name":"Parc de les Set Fonts","name:ca":"Parc de les Set Fonts","power_supply":"yes"}},"8929178757":{"location":[41.9766982,2.4095045],"ct":"ES","tp":"CR","ts":"2022-11-10T01:52:10Z","tX":518,"tY":380,"tags":{"name":"Mas la Riba","name:ca":"Mas la Riba"}},"4570455772":{"location":[41.9568244,2.2476479],"ct":"ES","tp":"SD","ts":"2016-12-24T14:40:08Z","tX":518,"tY":380,"tags":{"fee":"no"}},"4743360744":{"location":[41.8451915,2.3880943],"ct":"ES","tp":"SD","ts":"2017-03-19T15:53:36Z","tX":518,"tY":380,"tags":{}},"5501173139":{"location":[41.7915829,2.2273647],"ct":"ES","tp":"SD","ts":"2018-03-24T12:49:49Z","tX":518,"tY":380,"tags":{}},"5820506710":{"location":[41.9498891,2.3876387],"ct":"ES","tp":"SD","ts":"2018-08-09T13:32:27Z","tX":518,"tY":380,"tags":{}}}