{"13157892":{"location":[41.7650795,2.2629936],"ct":"ES","tp":"CS","ts":"2021-09-02T11:58:27Z","tX":518,"tY":381,"tags":{"name":"Camping l'Avenco"}},"13727872":{"location":[41.6697422,2.28643],"ct":"ES","tp":"CR","ts":"2024-10-15T20:37:39Z","tX":518,"tY":381,"tags":{"capacity":"11","fee":"no","maxstay":"48h","name":"Àrea autocaravanes La Garriga","power_supply":"no","sanitary_dump_station:chemical_toilet":"yes","sanitary_dump_station:grey_water":"yes","surface":"compacted","wikimedia_commons":"File:La Garriga MH syopover.jpg"}},"14613171":{"location":[41.5217298,2.2922388],"ct":"ES","tp":"CS","ts":"2024-08-02T06:52:05Z","tX":518,"tY":381,"tags":{"addr:milestone":"km. 7","addr:postcode":"08188","addr:street":"Carretera de Granollers al Masnou","email":"info@campingelvedado.com","fax":"+34 935729621","internet_access":"wlan","name":"El Vedado","name:ca":"El Vedado","name:en":"El Vedado","name:es":"El Vedado","name:pl":"El Vedado","opening_hours":"Mo-Su 08:00-00:00","phone":"+34935729026","website":"https://www.campingelvedado.com/"}},"110666143":{"location":[41.5609637,2.4430955],"ct":"ES","tp":"CS","ts":"2023-01-12T15:34:00Z","tX":518,"tY":381,"tags":{"area":"yes","name":"Touring Club Maresme"}},"179491037":{"location":[41.6444267,2.1552901],"ct":"ES","tp":"CS","ts":"2019-08-28T08:38:32Z","tX":518,"tY":381,"tags":{"email":"info@elpasqualet.com","name":"Camping Pasqualet","phone":"+34 93 865 46 95","website":"https://www.elpasqualet.com/"}},"497338458":{"location":[41.7581123,2.4299601],"ct":"ES","tp":"CS","ts":"2019-09-11T09:11:45Z","tX":518,"tY":381,"tags":{"contact:email":"fontmartina@fontmartina.com","contact:phone":"+34938475163","contact:website":"http://www.fontmartina.cat","name":"Camping de Fontmartina","operator":"Seny, activitats de Lleure (Diputació de Barcelona)"}},"665872190":{"location":[41.5129564,2.4003037],"ct":"ES","tp":"CR","ts":"2024-05-24T10:20:10Z","tX":518,"tY":381,"tags":{"addr:city":"Cabrera de Mar","addr:postcode":"08349","addr:street":"Carrer del Montnegre","caravan_site":"deluxe","charge":"20 EUR","email":"info@areacamperbarcelonabeach.com","fee":"yes","name":"Area Camper Barcelona Beach","nohousenumber":"yes","payment:cash":"yes","phone":"+34 938 31 41 61","power_supply":"no","sanitary_dump_station":"yes","website":"https://www.areacamperbarcelonabeach.com"}},"677516572":{"location":[41.7220662,2.1705996],"ct":"ES","tp":"CS","ts":"2023-11-08T11:42:32Z","tX":518,"tY":381,"tags":{"name":"Càmping L'Illa","name:ca":"Càmping L'Illa","phone":"+34 93 866 25 26","website":"https://www.campinglilla.com/"}},"845371667":{"location":[41.6528532,2.2368137],"ct":"ES","tp":"CS","ts":"2020-09-08T11:50:48Z","tX":518,"tY":381,"tags":{"access":"customers","fee":"yes","name":"Camping l'Esplanada"}},"848300212":{"location":[41.5985402,2.2784765],"ct":"ES","tp":"CR","ts":"2024-11-10T22:46:27Z","tX":518,"tY":381,"tags":{"capacity":"13","caravans":"no","description":"1.5 to town center with many stores and cafes","dog":"yes","dog:description":"2 dog parks very close by","fee":"no","internet_access":"no","maxstay":"5 days","name":"Granollers","name:ca":"Granollers","panoramax":"92adad6e-c12a-4e4c-b377-1d9e5b8dd1d4","permanent_camping":"no","power_supply":"no","sanitary_dump_station":"yes","sanitary_dump_station:chemical_toilet":"yes","sanitary_dump_station:grey_water":"yes","shower":"no","tents":"no","toilets":"no","water_point":"yes","website":"https://www.granollers.cat/mobilitat/%C3%A0rea-daparcament-autocaravanes","wikimedia_commons":"File:Granollers RV stopover.jpg"}},"966487522":{"location":[41.5243162,2.3095046],"ct":"ES","tp":"CS","ts":"2023-11-07T12:35:11Z","tX":518,"tY":381,"tags":{"access":"private","addr:city":"Vallromanes","capacity":"150","charge":"3 EUR","fee":"yes","group_only":"yes","name":"Terreny d'acampada Can Maura","name:ca":"Terreny d'acampada Can Maura","operator":"Campaments.cat","website":"https://campaments.cat/terreny/can-maura"}},"966487523":{"location":[41.6764938,2.3428149],"ct":"ES","tp":"CS","ts":"2023-11-08T11:42:40Z","tX":518,"tY":381,"tags":{"access":"private","capacity":"400","charge":"5 EUR","fee":"yes","group_only":"yes","name":"Terreny d'acampada Can Puigoriol Xic","operator":"Campaments.cat","website":"https://campaments.cat/terreny/finca-can-puigoriol-xic"}},"1016857628":{"location":[41.7531785,2.437143],"ct":"ES","tp":"CS","ts":"2025-03-18T11:10:55Z","tX":518,"tY":381,"tags":{"name":"Camping Riera de Ciuret"}},"1131180679":{"location":[41.5620754,2.4442544],"ct":"ES","tp":"CS","ts":"2023-01-12T15:34:00Z","tX":518,"tY":381,"tags":{"addr:street":"Camí de Can Morot","name":"Touring Club Maresme"}},"6793953985":{"location":[41.5248933,2.2586256],"ct":"ES","tp":"CS","ts":"2023-05-17T16:44:33Z","tX":518,"tY":381,"tags":{"name":"Terreny d'acampada Can Girona","name:ca":"Terreny d'acampada Can Girona"}},"7619950997":{"location":[41.7703647,2.3907397],"ct":"ES","tp":"CS","ts":"2020-06-14T15:08:48Z","tX":518,"tY":381,"tags":{"name":"Camping Masia Can Cervera"}},"7894928927":{"location":[41.759252,2.388435],"ct":"ES","tp":"CS","ts":"2020-09-10T20:01:14Z","tX":518,"tY":381,"tags":{"access":"customers","addr:city":"Montseny","addr:postcode":"08469","addr:street":"Camí de les Piscines","cabins":"yes","caravans":"yes","name":"Les Piscines de Montseny","website":"https://www.piscinesmontseny.com/"}},"4705253094":{"location":[41.5339452,2.1537827],"ct":"ES","tp":"CR","ts":"2019-09-16T18:04:59Z","tX":518,"tY":381,"tags":{"addr:city":"Santa Perpètua de Mogoda","addr:street":"Ctra. Sabadell","name":"Caravanas Santiga","nohousenumber":"yes"}},"7750235474":{"location":[41.7438144,2.2657008],"ct":"ES","tp":"CR","ts":"2020-07-26T12:23:19Z","tX":518,"tY":381,"tags":{"power_supply":"no","sanitary_dump_station":"no","toilets":"no"}},"8661610197":{"location":[41.6919508,2.3546248],"ct":"ES","tp":"CR","ts":"2023-11-21T00:33:01Z","tX":518,"tY":381,"tags":{"maxstay":"72 hours","name":"Aparcament d'autocaravanes de Cànoves","name:ca":"Aparcament d'autocaravanes de Cànoves"}},"4569288120":{"location":[41.6476352,2.4239165],"ct":"ES","tp":"SD","ts":"2016-12-23T19:53:01Z","tX":518,"tY":381,"tags":{"fee":"no"}},"4569288121":{"location":[41.6469885,2.4258251],"ct":"ES","tp":"SD","ts":"2016-12-23T19:53:01Z","tX":518,"tY":381,"tags":{"fee":"no"}},"4659826722":{"location":[41.5266302,2.166278],"ct":"ES","tp":"SD","ts":"2017-07-25T06:41:21Z","tX":518,"tY":381,"tags":{"fee":"no"}},"5012485235":{"location":[41.5983489,2.2782836],"ct":"ES","tp":"SD","ts":"2024-11-10T22:46:27Z","tX":518,"tY":381,"tags":{"access":"yes","fee":"no","motorhome":"designated","panoramax":"4e6d09f0-9cab-4430-bc20-68083c9699df","power_supply":"no","sanitary_dump_station:chemical_toilet":"yes","sanitary_dump_station:grey_water":"yes","water_point":"yes","wikimedia_commons":"File:Granollers dumping station.jpg"}},"8540728609":{"location":[41.6433587,2.1578667],"ct":"ES","tp":"SD","ts":"2021-03-20T12:27:31Z","tX":518,"tY":381,"tags":{"access":"yes","sanitary_dump_station:basin":"yes"}},"11528489413":{"location":[41.6697102,2.2860883],"ct":"ES","tp":"SD","ts":"2024-03-03T19:56:31Z","tX":518,"tY":381,"tags":{"access":"yes","fee":"no","motorhome":"designated","sanitary_dump_station:chemical_toilet":"yes","sanitary_dump_station:grey_water":"yes","wikimedia_commons":"File:La Garriga Sanitary dump station.jpg"}}}