{"14702039":{"location":[50.3071722,87.6072295],"ct":"RU","tp":"CS","ts":"2022-10-16T17:28:23Z","tX":761,"tY":345,"tags":{"barrier":"fence","name":"Алтай Кижи","phone":"+79137568677"}},"228333325":{"location":[50.3016183,87.6607935],"ct":"RU","tp":"CS","ts":"2022-07-17T18:11:59Z","tX":761,"tY":345,"tags":{"name":"Чуйская долина","phone":"+7-913-696-1313"}},"429361592":{"location":[50.2949959,87.6648393],"ct":"RU","tp":"CS","ts":"2022-07-17T18:09:48Z","tX":761,"tY":345,"tags":{"addr:housenumber":"796 км, 2","addr:street":"«Чуйский тракт»","leisure":"resort","name":"Красный лис","opening_hours":"24/7","phone":"8-913-066-53-35","resort":"tourist_camp","website":"https://listravel.nethouse.ru/"}},"886468147":{"location":[50.3070817,87.6061553],"ct":"RU","tp":"CS","ts":"2020-12-19T15:08:58Z","tX":761,"tY":345,"tags":{"barrier":"fence"}},"886468150":{"location":[50.3078255,87.6060372],"ct":"RU","tp":"CS","ts":"2020-12-19T15:08:58Z","tX":761,"tY":345,"tags":{"barrier":"fence"}},"886468165":{"location":[50.3076881,87.6078712],"ct":"RU","tp":"CS","ts":"2022-07-17T19:23:31Z","tX":761,"tY":345,"tags":{"barrier":"fence","cabins":"yes","camp_site":"deluxe","capacity":"24","contact:email":"ethnodom@mail.ru","contact:instagram":"https://www.instagram.com/ethnodom_yurta/","contact:phone":"+79136998888","contact:website":"http://etno-dom.ru","internet_access":"wlan","name":"Этнодом \"Юрта\"","name:en":"Yurt guesthouse","opening_hours":"24/7","operator":"Армангуль Карыбаева","wifi":"yes"}},"886468200":{"location":[50.3065718,87.6079037],"ct":"RU","tp":"CS","ts":"2020-12-19T15:08:58Z","tX":761,"tY":345,"tags":{"barrier":"fence"}},"886468204":{"location":[50.3073502,87.6095098],"ct":"RU","tp":"CS","ts":"2022-10-16T17:28:23Z","tX":761,"tY":345,"tags":{"name":"Караван","phone":"8-913-693-70-77"}},"886468221":{"location":[50.3071142,87.6110582],"ct":"RU","tp":"CS","ts":"2022-10-16T17:28:23Z","tX":761,"tY":345,"tags":{"barrier":"fence","name":"Чистый Кайф","phone":"+79136946706"}},"916347698":{"location":[50.3165008,87.6048457],"ct":"RU","tp":"CS","ts":"2021-03-12T16:47:21Z","tX":761,"tY":345,"tags":{"barrier":"fence","cabins":"yes"}},"916347705":{"location":[50.3353472,87.6412433],"ct":"RU","tp":"CS","ts":"2021-03-12T16:47:21Z","tX":761,"tY":345,"tags":{"barrier":"fence","cabins":"yes","name":"Беркут"}},"916347707":{"location":[50.3327316,87.6384571],"ct":"RU","tp":"CS","ts":"2021-03-12T16:47:21Z","tX":761,"tY":345,"tags":{"barrier":"fence","cabins":"yes"}},"916347711":{"location":[50.3331232,87.6381198],"ct":"RU","tp":"CS","ts":"2021-03-12T16:47:21Z","tX":761,"tY":345,"tags":{"barrier":"fence","cabins":"yes"}},"916347712":{"location":[50.3330196,87.6376806],"ct":"RU","tp":"CS","ts":"2021-03-12T16:47:21Z","tX":761,"tY":345,"tags":{"barrier":"fence","cabins":"yes"}},"916347731":{"location":[50.3324776,87.6364944],"ct":"RU","tp":"CS","ts":"2021-03-12T16:47:21Z","tX":761,"tY":345,"tags":{"barrier":"fence","cabins":"yes"}},"916347763":{"location":[50.3322768,87.6357192],"ct":"RU","tp":"CS","ts":"2021-03-12T16:47:21Z","tX":761,"tY":345,"tags":{"barrier":"fence","cabins":"yes"}},"1059437097":{"location":[50.3166802,87.553022],"ct":"RU","tp":"CS","ts":"2022-05-12T04:13:09Z","tX":761,"tY":345,"tags":{"barrier":"fence","cabins":"yes","camp_site":"serviced","contact:phone":"+79139982931","name":"Аркада","tents":"yes"}},"1059437118":{"location":[50.3163972,87.5563674],"ct":"RU","tp":"CS","ts":"2022-05-12T04:13:09Z","tX":761,"tY":345,"tags":{"barrier":"fence","cabins":"yes","camp_site":"serviced","contact:phone":"+79139931134","name":"Хуторок","tents":"yes"}},"1059437128":{"location":[50.3160113,87.5582493],"ct":"RU","tp":"CS","ts":"2022-08-10T10:14:26Z","tX":761,"tY":345,"tags":{"backcountry":"no","barrier":"fence","cabins":"yes","camp_site":"deluxe","contact:phone":"+79039567268","contact:website":"https://xn---04-5cdbx3bbut.xn--p1ai/","fee":"yes","impromptu":"no","name":"Как дома","opening_hours":"24/7","tents":"yes"}},"1079281189":{"location":[50.2898456,87.6730241],"ct":"RU","tp":"CS","ts":"2022-07-17T18:09:48Z","tX":761,"tY":345,"tags":{"name":"Мёны","opening_hours":"24/7"}},"1079281193":{"location":[50.297835,87.6655957],"ct":"RU","tp":"CS","ts":"2022-07-17T18:09:48Z","tX":761,"tY":345,"tags":{"name":"Altai Geyser Lake","phone":"8-913-994-5234"}},"1079281194":{"location":[50.2982642,87.6651451],"ct":"RU","tp":"CS","ts":"2022-07-17T18:09:48Z","tX":761,"tY":345,"tags":{"name":"Алтай Лодж","phone":"8-913-696-9297"}},"1079281202":{"location":[50.2967967,87.6646717],"ct":"RU","tp":"CS","ts":"2023-11-16T07:49:13Z","tX":761,"tY":345,"tags":{"addr:street":"796км","email":"zlato.altay@mail.ru","name":"Златогорье","name:en":"Golden Mountains","opening_hours":"24/7","phone":"+7 (913) 991-29-63","website":"https://zlato-altay.ru/"}},"1079281204":{"location":[50.2937441,87.672029],"ct":"RU","tp":"CS","ts":"2022-07-17T18:09:48Z","tX":761,"tY":345,"tags":{"name":"Гейзерное озеро Green Kolobok","phone":"8-913-999-76-66"}},"1079281219":{"location":[50.2912934,87.6710413],"ct":"RU","tp":"CS","ts":"2022-07-17T18:09:48Z","tX":761,"tY":345,"tags":{"addr:housenumber":"796км, 3","addr:street":"«Чуйский тракт»","name":"Маленький рай","opening_hours":"24/7","phone":"+7-913-994-67-37"}},"1079281868":{"location":[50.3045973,87.6546242],"ct":"RU","tp":"CS","ts":"2022-07-17T18:14:22Z","tX":761,"tY":345,"tags":{"name":"Атмосфера 794 км","phone":"8-913-698-52-09"}},"1079293912":{"location":[50.3057955,87.6028333],"ct":"RU","tp":"CS","ts":"2022-07-17T19:23:31Z","tX":761,"tY":345,"tags":{"barrier":"fence"}},"1079293913":{"location":[50.3051223,87.6022956],"ct":"RU","tp":"CS","ts":"2022-07-17T19:23:31Z","tX":761,"tY":345,"tags":{"barrier":"fence","name":"Лесная Сказка","phone":"+79635129192"}},"1079293914":{"location":[50.3050786,87.6027234],"ct":"RU","tp":"CS","ts":"2022-07-17T19:23:31Z","tX":761,"tY":345,"tags":{"barrier":"fence","phone":"+79139920007"}},"1079293915":{"location":[50.3050821,87.6032545],"ct":"RU","tp":"CS","ts":"2022-07-17T19:23:31Z","tX":761,"tY":345,"tags":{"barrier":"fence"}},"1079293916":{"location":[50.3050461,87.6039559],"ct":"RU","tp":"CS","ts":"2022-07-17T19:23:31Z","tX":761,"tY":345,"tags":{"barrier":"fence","name":"Золотая Середина","phone":"+79833259935"}},"1079293917":{"location":[50.3061819,87.6030332],"ct":"RU","tp":"CS","ts":"2022-07-17T19:23:31Z","tX":761,"tY":345,"tags":{"barrier":"fence","name":"Хан Алтай","phone":"8-913-692-6553"}},"1079293920":{"location":[50.3078196,87.6042751],"ct":"RU","tp":"CS","ts":"2022-07-17T19:23:31Z","tX":761,"tY":345,"tags":{"barrier":"fence","name":"Альтаир","phone":"+79134221555"}},"1079293926":{"location":[50.3048756,87.6062404],"ct":"RU","tp":"CS","ts":"2022-07-17T19:23:31Z","tX":761,"tY":345,"tags":{"barrier":"fence","name":"Подгорная","phone":"+79130267090"}},"1079293927":{"location":[50.3050118,87.6050461],"ct":"RU","tp":"CS","ts":"2022-07-17T19:23:31Z","tX":761,"tY":345,"tags":{"barrier":"fence","name":"Иркит","phone":"+79136937884"}},"1079293928":{"location":[50.3061896,87.6053936],"ct":"RU","tp":"CS","ts":"2022-07-17T19:23:31Z","tX":761,"tY":345,"tags":{"barrier":"fence","name":"Айучак","phone":"8-913-990-81-23"}},"1079293929":{"location":[50.3074624,87.6059233],"ct":"RU","tp":"CS","ts":"2022-07-17T19:23:31Z","tX":761,"tY":345,"tags":{"barrier":"fence","name":"Теленгит","phone":"+79136965104"}},"1079293930":{"location":[50.3073861,87.6067977],"ct":"RU","tp":"CS","ts":"2022-07-17T19:23:31Z","tX":761,"tY":345,"tags":{"barrier":"fence","name":"Астра","phone":"+79130859922"}},"1079293936":{"location":[50.3073318,87.6077612],"ct":"RU","tp":"CS","ts":"2022-07-17T19:23:31Z","tX":761,"tY":345,"tags":{"barrier":"fence","name":"СредиГор","phone":"+79609495767"}},"1079293937":{"location":[50.3054829,87.6065509],"ct":"RU","tp":"CS","ts":"2022-07-17T19:23:31Z","tX":761,"tY":345,"tags":{"addr:housenumber":"40","barrier":"fence","name":"Шам Алтай","opening_hours":"24/7","phone":"8-913-996-42-72","website":"https://www.turistka.ru"}},"1079293938":{"location":[50.3061836,87.6073395],"ct":"RU","tp":"CS","ts":"2022-07-17T19:23:31Z","tX":761,"tY":345,"tags":{"barrier":"fence","name":"Арман Тревел Алтай","phone":"+79136900784"}},"1079293939":{"location":[50.3054118,87.6075097],"ct":"RU","tp":"CS","ts":"2022-07-17T19:23:31Z","tX":761,"tY":345,"tags":{"barrier":"fence","name":"Барнхаус Акташ","phone":"+79831328156"}},"1079293940":{"location":[50.3052551,87.6081388],"ct":"RU","tp":"CS","ts":"2022-07-17T19:23:31Z","tX":761,"tY":345,"tags":{"barrier":"fence","name":"Горняк Акташ","phone":"+79609681341"}},"1079293941":{"location":[50.3059112,87.6106291],"ct":"RU","tp":"CS","ts":"2022-07-17T19:23:31Z","tX":761,"tY":345,"tags":{"barrier":"fence","name":"Altay Turna","phone":"+79835840544"}},"1079293946":{"location":[50.3073117,87.6106977],"ct":"RU","tp":"CS","ts":"2022-10-16T17:28:23Z","tX":761,"tY":345,"tags":{"barrier":"fence","name":"Аура Алтая","phone":"+7-913-994-80-01"}},"1079293947":{"location":[50.3060773,87.6086524],"ct":"RU","tp":"CS","ts":"2022-07-17T19:23:31Z","tX":761,"tY":345,"tags":{"barrier":"fence","name":"Майман","phone":"8-913-996-32-90"}},"1079293948":{"location":[50.3056919,87.6115975],"ct":"RU","tp":"CS","ts":"2022-07-17T19:23:31Z","tX":761,"tY":345,"tags":{"name":"Атмосфера Алтая","phone":"8-983-583-1995"}},"1079293950":{"location":[50.3062864,87.6114687],"ct":"RU","tp":"CS","ts":"2022-07-17T19:23:31Z","tX":761,"tY":345,"tags":{"barrier":"fence","name":"MЁNKA","phone":"+79835825707"}},"1079293953":{"location":[50.3068945,87.6133892],"ct":"RU","tp":"CS","ts":"2022-07-17T19:23:31Z","tX":761,"tY":345,"tags":{"barrier":"fence","name":"Лучи Алтая","phone":"+7-913-6973715"}},"1079293954":{"location":[50.3072508,87.6135018],"ct":"RU","tp":"CS","ts":"2022-07-17T19:23:31Z","tX":761,"tY":345,"tags":{"barrier":"fence","name":"Алтынай","phone":"+7-906-9091865"}},"1079293956":{"location":[50.3019469,87.6239115],"ct":"RU","tp":"CS","ts":"2022-07-17T19:23:31Z","tX":761,"tY":345,"tags":{"name":"AltayRest","phone":"8-913-999-10-13"}},"1080192887":{"location":[50.3078088,87.6020413],"ct":"RU","tp":"CS","ts":"2022-07-24T20:11:15Z","tX":761,"tY":345,"tags":{"barrier":"fence","name":"Алтай Вояж","phone":"+7-983-582-34-94"}},"1080192889":{"location":[50.3073921,87.6018071],"ct":"RU","tp":"CS","ts":"2022-07-24T20:11:15Z","tX":761,"tY":345,"tags":{"barrier":"fence","name":"Ак Барс","phone":"+79835837870"}},"1081004239":{"location":[50.3067206,87.5939995],"ct":"RU","tp":"CS","ts":"2022-07-24T20:11:15Z","tX":761,"tY":345,"tags":{"barrier":"fence","name":"Зеленый Мох","phone":"+79139965999"}},"1081004241":{"location":[50.3062744,87.5982159],"ct":"RU","tp":"CS","ts":"2022-07-24T20:11:15Z","tX":761,"tY":345,"tags":{"barrier":"fence","name":"Орех и Ко","phone":"8-913-692-11-73"}},"1081006043":{"location":[50.3087864,87.5924389],"ct":"RU","tp":"CS","ts":"2024-12-29T18:46:59Z","tX":761,"tY":345,"tags":{"barrier":"fence","name":"Ирбис","phone":"+7-903-919-03-83"}},"1081006045":{"location":[50.3068568,87.5928515],"ct":"RU","tp":"CS","ts":"2022-07-24T20:21:41Z","tX":761,"tY":345,"tags":{"barrier":"fence","name":"Вояж","phone":"+79835823494"}},"1085276184":{"location":[50.3090197,87.5917865],"ct":"RU","tp":"CS","ts":"2022-08-10T08:16:36Z","tX":761,"tY":345,"tags":{"barrier":"fence","name":"АлтайЭкоКедр","phone":"+7-913-996-85-55"}},"1085276185":{"location":[50.308909,87.5899879],"ct":"RU","tp":"CS","ts":"2022-08-10T08:16:36Z","tX":761,"tY":345,"tags":{"barrier":"fence","name":"Ак-Кая","phone":"+7-925-599-35-29"}},"1085276186":{"location":[50.3092429,87.5893835],"ct":"RU","tp":"CS","ts":"2022-08-10T08:16:36Z","tX":761,"tY":345,"tags":{"barrier":"fence","name":"Василек","phone":"+7-913-990-37-77"}},"1085276187":{"location":[50.3093279,87.5888751],"ct":"RU","tp":"CS","ts":"2024-12-29T18:46:59Z","tX":761,"tY":345,"tags":{"barrier":"fence","name":"Алтай-Акташ","phone":"+7-923-660-84-44"}},"1085276189":{"location":[50.3077543,87.5882912],"ct":"RU","tp":"CS","ts":"2022-08-10T08:16:36Z","tX":761,"tY":345,"tags":{"addr:housenumber":"12","addr:postcode":"649743","addr:street":"Садовая улица","barrier":"fence","email":"turbaza.alxan@mail.ru","name":"АлХан","phone":"+79136953973","website":"https://turbaza-alxan.business.site/"}},"1085276190":{"location":[50.3072472,87.5901446],"ct":"RU","tp":"CS","ts":"2022-08-10T08:16:36Z","tX":761,"tY":345,"tags":{"barrier":"fence","name":"Клевер","phone":"+7-983-355-06-11"}},"1085276194":{"location":[50.3078639,87.5858719],"ct":"RU","tp":"CS","ts":"2022-08-10T08:16:36Z","tX":761,"tY":345,"tags":{"barrier":"fence","name":"Серебряна","phone":"+7-983-326-00-44"}},"1085276195":{"location":[50.3077119,87.5865675],"ct":"RU","tp":"CS","ts":"2022-08-10T08:52:21Z","tX":761,"tY":345,"tags":{"barrier":"fence","name":"Найман","phone":"+7-983-345-84-13"}},"1085276196":{"location":[50.3093521,87.5824794],"ct":"RU","tp":"CS","ts":"2022-08-10T08:16:36Z","tX":761,"tY":345,"tags":{"addr:housenumber":"3","addr:street":"Лесная улица","barrier":"fence","name":"Лисья нора","phone":"89137477811","website":"https://instagram.com/foxyburrow_aktash"}},"1085276198":{"location":[50.308984,87.58176],"ct":"RU","tp":"CS","ts":"2022-08-10T08:16:36Z","tX":761,"tY":345,"tags":{"barrier":"fence","name":"Нур-Ай","phone":"+7-913-992-51-22"}},"1085276200":{"location":[50.3094661,87.579991],"ct":"RU","tp":"CS","ts":"2022-08-10T08:16:36Z","tX":761,"tY":345,"tags":{"barrier":"fence","name":"Лесной дворик","phone":"+7-909-505-87-64"}},"1085276201":{"location":[50.309829,87.580514],"ct":"RU","tp":"CS","ts":"2022-08-10T08:16:36Z","tX":761,"tY":345,"tags":{"barrier":"fence","name":"Феникс","phone":"+7-961-234-16-01"}},"1085276202":{"location":[50.309967,87.5792632],"ct":"RU","tp":"CS","ts":"2022-08-10T08:16:36Z","tX":761,"tY":345,"tags":{"barrier":"fence","name":"Aktash village","phone":"+7-913-693-68-19"}},"1085282418":{"location":[50.3074153,87.5865756],"ct":"RU","tp":"CS","ts":"2022-08-10T08:52:21Z","tX":761,"tY":345,"tags":{"barrier":"fence","name":"Аура","phone":"+7-960-950-44-22"}},"1085282419":{"location":[50.3083872,87.583601],"ct":"RU","tp":"CS","ts":"2022-08-10T08:52:21Z","tX":761,"tY":345,"tags":{"barrier":"fence","name":"Белый Камень","phone":"8-913-993-53-65"}},"1085282420":{"location":[50.3110665,87.5758055],"ct":"RU","tp":"CS","ts":"2022-08-10T08:52:21Z","tX":761,"tY":345,"tags":{"name":"Зелёный колобок","phone":"+7-913-999-76-66"}},"1085282421":{"location":[50.3135103,87.5815949],"ct":"RU","tp":"CS","ts":"2022-08-10T08:52:21Z","tX":761,"tY":345,"tags":{"barrier":"fence","name":"Еловый Бор","phone":"+7-960-967-54-50"}},"1085302255":{"location":[50.3154212,87.5970363],"ct":"RU","tp":"CS","ts":"2022-08-10T10:14:26Z","tX":761,"tY":345,"tags":{"barrier":"fence","name":"Зеленый лес","phone":"+7-906-939-58-92"}},"1085302256":{"location":[50.3127413,87.6082296],"ct":"RU","tp":"CS","ts":"2022-08-10T10:14:26Z","tX":761,"tY":345,"tags":{"barrier":"fence","name":"Тёплый стан","phone":"+7-913-693-87-28"}},"1085302257":{"location":[50.3174706,87.5432905],"ct":"RU","tp":"CS","ts":"2022-08-10T10:14:26Z","tX":761,"tY":345,"tags":{"barrier":"fence","name":"Старт","phone":"+7-913-991-68-88"}},"1085302258":{"location":[50.3172281,87.542086],"ct":"RU","tp":"CS","ts":"2022-08-10T10:14:26Z","tX":761,"tY":345,"tags":{"barrier":"fence","name":"Тополек","phone":"+7-913-992-78-13"}},"1096289726":{"location":[50.2934194,87.6692495],"ct":"RU","tp":"CS","ts":"2022-09-20T12:00:55Z","tX":761,"tY":345,"tags":{"name":"Ак-Туу","phone":"8-913-695-66-27"}},"5800307253":{"location":[50.2993179,87.6832064],"ct":"RU","tp":"CS","ts":"2018-11-13T13:16:24Z","tX":761,"tY":345,"tags":{}},"7792341885":{"location":[50.4976339,87.6528266],"ct":"RU","tp":"CS","ts":"2020-08-06T19:22:32Z","tX":761,"tY":345,"tags":{}},"7793131086":{"location":[50.5110177,87.6763241],"ct":"RU","tp":"CS","ts":"2020-08-07T04:54:57Z","tX":761,"tY":345,"tags":{}},"10950134405":{"location":[50.3133246,87.5722607],"ct":"RU","tp":"CS","ts":"2023-10-03T11:23:56Z","tX":761,"tY":345,"tags":{}},"10982026005":{"location":[50.3065666,87.6062395],"ct":"RU","tp":"CS","ts":"2023-06-17T07:08:26Z","tX":761,"tY":345,"tags":{"addr:housenumber":"31","addr:street":"Садовая улица","contact:vk":"aktash_hotel","name":"Горный орёл","opening_hours":"24/7","phone":"+7 913 992 33 44;+7 38846 23312","website":"https://wq-tour.ru/hotel-aktash/"}},"11075066805":{"location":[50.3321091,87.6339168],"ct":"RU","tp":"CS","ts":"2024-08-29T05:11:15Z","tX":761,"tY":345,"tags":{"addr:housenumber":"76В","addr:street":"Ленинская улица","internet_access":"wlan","name":"Лебёдка","name:en":"Русский","opening_hours":"24/7","phone":"89136921819, 89136975265"}}}