{"1013700657":{"location":[49.2039944,-65.8082517],"ct":"CA","tp":"CS","ts":"2021-12-20T13:28:47Z","tX":324,"tY":350,"tags":{"addr:housenumber":"103","addr:street":"Route Pierre-Godefroei-Coulombe Ouest","name":"Camping Mont St-Pierre","source":"NRCan-CanVec-7.0"}},"1038274867":{"location":[49.2155594,-66.069],"ct":"CA","tp":"CR","ts":"2022-03-08T14:47:54Z","tX":324,"tY":350,"tags":{"name":"HÃ©bergement & Camping Marsoui"}},"1092344468":{"location":[49.2237255,-65.7941506],"ct":"CA","tp":"CS","ts":"2022-09-06T12:23:42Z","tX":324,"tY":350,"tags":{"capacity:caravans":"30","source":"NRCan-CanVec-7.0"}},"9352469684":{"location":[49.2053126,-65.8054881],"ct":"CA","tp":"SD","ts":"2021-12-20T11:21:17Z","tX":324,"tY":350,"tags":{}},"12414390001":{"location":[49.1945002,-65.9024476],"ct":"CA","tp":"CS","ts":"2024-12-21T06:04:19Z","tX":324,"tY":350,"tags":{"addr:housenumber":"130","addr:postcode":"G0E1Z0","addr:street":"Route Castonguay","internet_access":"wlan","name":"Coop RAC","opening_hours":"24/7","website":"https://raccity.org/"}}}