{"325754501":{"location":[-26.6961352,-66.0410916],"ct":"AR","tp":"CS","ts":"2024-09-05T01:31:27Z","tX":324,"tY":590,"tags":{"addr:city":"Santa María","addr:street":"Domingo Faustino Sarmiento","name":"Camping Municipal","operator":"Municipio Santa María"}},"493368007":{"location":[-26.5892573,-65.9200984],"ct":"AR","tp":"CS","ts":"2017-05-14T01:54:14Z","tX":324,"tY":590,"tags":{"internet_access":"wlan","internet_access:fee":"no","name":"Los Algarrobos"}},"542409095":{"location":[-26.6298511,-66.051792],"ct":"AR","tp":"CS","ts":"2018-06-26T13:19:23Z","tX":324,"tY":590,"tags":{}},"636088799":{"location":[-26.6763617,-66.0460935],"ct":"AR","tp":"CS","ts":"2024-08-03T19:47:02Z","tX":324,"tY":590,"tags":{"access":"yes","addr:city":"Santa Maria Catamarca","addr:postcode":"4139","addr:street":"El Puesto km1","capacity":"100","caravans":"yes","drinking_water":"yes","fee":"yes","internet_access":"wlan","name":"Camping EL SOL","operator":"campingelsol","power_supply":"yes","shower":"yes","tents":"yes","toilets":"yes"}},"3592746656":{"location":[-26.6763868,-66.0468621],"ct":"AR","tp":"CS","ts":"2018-10-19T18:32:31Z","tX":324,"tY":590,"tags":{"access":"yes","addr:city":"Santa Maria Catamarca","addr:postcode":"4139","addr:street":"K1 Camino al Puesto","capacity":"100","email":"elsolserviciosturisticos@gmail.com","fee":"yes","internet_access":"wlan","internet_access:fee":"yes","internet_access:ssid":"Campingelsol","name":"Hostel Camping El Sol","operator":"CampingEL SOL","payment:cash":"yes","payment:credit_cards":"yes","payment:debit_cards":"yes","payment:mastercard":"yes","payment:visa":"yes","phone":"3816653415"}},"4423003289":{"location":[-26.5957608,-65.9190367],"ct":"AR","tp":"CS","ts":"2025-02-28T19:59:53Z","tX":324,"tY":590,"tags":{"name":"Camping Amaicha del Valle","name:es":"Camping Amaicha del Valle"}},"5142909021":{"location":[-26.5898492,-65.9193188],"ct":"AR","tp":"CS","ts":"2017-10-02T11:07:33Z","tX":324,"tY":590,"tags":{"internet_access":"wlan","name":"Camping LOS ALGARROBOS","name:es":"Camping LOS ALGARROBOS","opening_hours":"24/7"}},"5602994623":{"location":[-26.5966239,-65.9201051],"ct":"AR","tp":"CS","ts":"2018-05-07T21:09:48Z","tX":324,"tY":590,"tags":{"internet_access":"wlan","name":"La Salamanca"}},"7259953189":{"location":[-26.697656,-66.0406693],"ct":"AR","tp":"CS","ts":"2023-11-02T01:57:26Z","tX":324,"tY":590,"tags":{"name":"Camping"}},"7935885684":{"location":[-26.6229248,-65.8280115],"ct":"AR","tp":"CS","ts":"2020-09-24T00:28:40Z","tX":324,"tY":590,"tags":{"name":"Camping Chaupiñan"}}}