{"355291972":{"location":[68.7382873,27.479399],"ct":"FI","tp":"CS","ts":"2023-11-20T03:56:42Z","tX":590,"tY":239,"tags":{"access":"yes","addr:city":"Ivalo","addr:country":"FI","addr:housenumber":"141","addr:postcode":"99801","addr:street":"Ukonjärventie","bbq":"yes","cabins":"yes","caravans":"yes","drinking_water":"yes","email":"nuttu@ukolo.fi","fax":"+358 16 667 516","fee":"yes","internet_access":"wlan","internet_access:fee":"no","kitchen":"yes","name":"Ukonjärven Lomakylä","name:en":"Ukonjärvi Holiday Village","name:fi":"Ukonjärven Lomakylä","phone":"+358 16 667 501","power_supply":"yes","reservation":"yes","sanitary_dump_station":"yes","sauna":"yes","shower":"yes","tents":"yes","toilets":"yes","website":"https://ukolo.fi/"}},"1316722135":{"location":[68.7397962,27.4864681],"ct":"FI","tp":"CS","ts":"2024-09-19T15:36:29Z","tX":590,"tY":239,"tags":{"access":"customers","addr:city":"Ivalo","addr:housenumber":"201","addr:postcode":"99801","addr:street":"Ukonjärventie","addr:unit":"B","capacity:persons":"26","caravans":"yes","email":"ukontupa@ivalonhelluntaisrk.fi","fee":"yes","name":"Ukontupa","operator":"Ivalon helluntaiseurakunta","phone":"040 5275028","smoking":"no","website":"https://ivalonhelluntaisrk.fi/tupa/"}},"9193145288":{"location":[68.6939754,27.5710429],"ct":"FI","tp":"CS","ts":"2021-10-22T12:36:51Z","tX":590,"tY":239,"tags":{"access":"private","capacity":"1","fee":"yes","operator":"Naali Tours"}}}