{"26859340":{"location":[42.3955569,27.7036152],"ct":"BG","tp":"CS","ts":"2016-09-05T19:53:46Z","tX":590,"tY":378,"tags":{"created_by":"Potlatch 0.9c","name":"Каваци","name:bg":"Каваци","name:en":"Kavatsi"}},"250333203":{"location":[42.4074978,27.6730943],"ct":"BG","tp":"CS","ts":"2024-09-14T20:22:02Z","tX":590,"tY":378,"tags":{"addr:city":"Созопол","name":"Златна рибка","name:bg":"Златна рибка","name:ru":"Золотая рыбка","website":"https://zlatna-ribka.com/"}},"651658905":{"location":[42.4156081,27.6506694],"ct":"BG","tp":"CS","ts":"2023-10-16T02:42:55Z","tX":590,"tY":378,"tags":{"name":"Къмпинг градина","name:bg":"Градина","name:en":"Gradina","website":"https://campinggradina.com/"}},"1315586995":{"location":[42.4084659,27.674112],"ct":"BG","tp":"CR","ts":"2024-09-14T20:24:05Z","tX":590,"tY":378,"tags":{"addr:city":"Созопол"}},"1315587350":{"location":[42.4083647,27.6673642],"ct":"BG","tp":"CS","ts":"2024-09-14T20:28:23Z","tX":590,"tY":378,"tags":{"name":"Къмпинг „Герен“","name:bg":"Къмпинг „Герен“"}},"1315587407":{"location":[42.4077698,27.6681976],"ct":"BG","tp":"CS","ts":"2024-09-14T20:29:08Z","tX":590,"tY":378,"tags":{"addr:city":"Созопол","name":"Къмпинг „Царски плаж“","name:bg":"Къмпинг „Царски плаж“"}},"2568118941":{"location":[42.4436472,27.6186343],"ct":"BG","tp":"CS","ts":"2013-12-06T15:43:11Z","tX":590,"tY":378,"tags":{}},"4306207991":{"location":[42.4128514,27.6906127],"ct":"BG","tp":"CS","ts":"2023-07-22T17:59:46Z","tX":590,"tY":378,"tags":{"name":"Nelly"}},"6358870459":{"location":[42.4078,27.6639],"ct":"BG","tp":"CS","ts":"2019-03-24T18:29:35Z","tX":590,"tY":378,"tags":{"name":"Офшор камп Созопол"}},"8404173718":{"location":[42.4138883,27.6537625],"ct":"BG","tp":"CR","ts":"2024-04-09T12:02:41Z","tX":590,"tY":378,"tags":{"name:ru":"Кемпинг Гора"}},"10602174734":{"location":[42.4387009,27.5287917],"ct":"BG","tp":"CR","ts":"2023-02-02T19:48:09Z","tX":590,"tY":378,"tags":{"capacity":"2","power_supply":"yes","water_point":"yes"}}}