{"5720087324":{"location":[36.2380885,27.6690228],"ct":"GR","tp":"CS","ts":"2024-04-09T12:03:28Z","tX":590,"tY":401,"tags":{"name:en":"Edgaria","name:ru":"Эдгария"}},"5720192521":{"location":[36.2380784,27.6690261],"ct":"GR","tp":"CS","ts":"2023-08-22T02:05:10Z","tX":590,"tY":401,"tags":{"name:en":"Edgarios","name:ru":"Edgarios"}},"11180658239":{"location":[36.1497317,27.7454793],"ct":"GR","tp":"CS","ts":"2023-09-10T09:07:45Z","tX":590,"tY":401,"tags":{"name:en":"Large area flat good for camp"}},"11180658345":{"location":[36.1293556,27.7301481],"ct":"GR","tp":"CS","ts":"2023-09-10T09:07:34Z","tX":590,"tY":401,"tags":{"name:en":"Place for tents in the forest"}},"11180659139":{"location":[36.1507803,27.7354783],"ct":"GR","tp":"CS","ts":"2023-09-10T09:07:32Z","tX":590,"tY":401,"tags":{"name:en":"Place for tents"}},"11180659140":{"location":[36.1534813,27.7499895],"ct":"GR","tp":"CS","ts":"2023-09-10T09:07:44Z","tX":590,"tY":401,"tags":{"name:en":"Akramitis base camp"}},"11180659251":{"location":[36.1538997,27.7541901],"ct":"GR","tp":"CS","ts":"2023-09-10T09:07:43Z","tX":590,"tY":401,"tags":{"name:en":"Akramitis base camp"}},"11180659252":{"location":[36.1587157,27.7627564],"ct":"GR","tp":"CS","ts":"2023-09-10T09:07:44Z","tX":590,"tY":401,"tags":{"name:en":"Place for sleep or camp in the watch tower"}},"11204194838":{"location":[36.0843342,27.7687638],"ct":"GR","tp":"CS","ts":"2025-04-18T19:54:55Z","tX":590,"tY":401,"tags":{"description":"Place for tents and campervan"}}}