{"3537448":{"location":[-33.0210761,-60.8638823],"ct":"AR","tp":"CS","ts":"2024-10-05T14:15:49Z","tX":338,"tY":611,"tags":{"landuse":"recreation_ground","name":"Polideportivo de la Asociación Italiana de Ayuda Mutua"}},"379447044":{"location":[-32.8509241,-61.1649114],"ct":"AR","tp":"CS","ts":"2024-04-09T13:20:02Z","tX":338,"tY":611,"tags":{"addr:city":"Carcarañá","addr:country":"AR","addr:housenumber":"032","addr:postcode":"S2138","addr:state":"Santa Fe","addr:street":"Avenida Argentina","name":"Ponte di Ferro","official_name":"Villa Recreativa Ponte di Ferro","operator":"Sociedad Italiana"}},"414728203":{"location":[-32.9184496,-60.8378554],"ct":"AR","tp":"CS","ts":"2025-05-18T15:18:55Z","tX":338,"tY":611,"tags":{"access":"customers","backcountry":"yes","bbq":"yes","cabins":"no","camp_site":"standard","caravans":"no","contact:website":"https://adoratricesrosario.edu.ar/","drinking_water":"no","fee":"yes","leisure":"sports_centre","lit":"no","name":"Campo de Deportes Fátima","nudism":"no","operator":"Instituto Inmaculado Corazón de María Adoratrices","operator:type":"religious","picnic_table":"yes","power_supply":"no","shower":"no","sport":"multi","swimming_pool":"yes","toilets":"yes","wheelchair":"yes"}},"1026792062":{"location":[-32.9014249,-60.9209765],"ct":"AR","tp":"CS","ts":"2024-08-31T15:50:04Z","tX":338,"tY":611,"tags":{"barrier":"fence","contact:instagram":"sitramroldan","group_only":"yes","name":"Sitram Roldán","nudism":"no","official_name":"Sindicato de Trabajadores Municipales de Roldán","operator":"Municipalidad de Roldán","wheelchair":"yes"}},"1093943100":{"location":[-33.0199188,-60.8366659],"ct":"AR","tp":"CS","ts":"2022-09-12T18:57:56Z","tX":338,"tY":611,"tags":{"access":"permit","addr:street":"Ruta Nacional 33 Ruta del Desierto Doctor Adolfo Alsina","alt_name":"Camping Empleados de Comercio","bbq":"yes","contact:phone":"+54 341 635-2878","contact:website":"https://www.aecrosario.org.ar/","fee":"yes","name":"Camping Santa Rosa","opening_hours":"Tu-Su 10:00-18:00","reservation":"required","short_name":"Camping ATRAR"}},"1149544551":{"location":[-32.8518043,-61.1703328],"ct":"AR","tp":"CS","ts":"2023-02-26T01:05:24Z","tX":338,"tY":611,"tags":{"fishing":"yes","name":"Club de Pescadores"}},"1311484405":{"location":[-32.9117294,-60.8610402],"ct":"AR","tp":"CS","ts":"2024-09-28T21:34:39Z","tX":338,"tY":611,"tags":{"addr:city":"Funes","addr:housenumber":"1836","addr:postcode":"S2132","addr:street":"Juan Gregorio de Las Heras","alt_name":"Sindicato de Anses","barrier":"wall","capacity:persons":"50","caravans":"no","contact:website":"https://apops.org.ar/","drinking_water":"no","full_name":"Asociación del Personal de los Organismos de Previsión Social","group_only":"yes","name":"Centro Recreativo APOPS","short_name":"APOPS","source:url":"https://apops.org.ar/centros-recreativos/nombre-funes-santa-fe/","tents":"yes","wheelchair":"yes"}},"3647758220":{"location":[-32.852803,-61.169545],"ct":"AR","tp":"CS","ts":"2023-02-26T01:05:24Z","tX":338,"tY":611,"tags":{"abandoned":"yes","backcountry":"yes","caravans":"yes","name":"Balneario Pileta Palandri (abandonado)","tents":"yes","wheelchair":"no"}}}