{"1839060990":{"location":[50.5918765,100.1776729],"ct":"MN","tp":"CS","ts":"2017-08-23T15:26:16Z","tX":796,"tY":344,"tags":{"name":"Ger Camp"}},"2395755126":{"location":[50.592738,100.1821739],"ct":"MN","tp":"CS","ts":"2017-08-23T15:26:16Z","tX":796,"tY":344,"tags":{"name":"Ger Camp"}},"2395755128":{"location":[50.5730076,100.1597955],"ct":"MN","tp":"CS","ts":"2013-07-25T02:40:59Z","tX":796,"tY":344,"tags":{}},"2395755133":{"location":[50.6202174,100.1936128],"ct":"MN","tp":"CS","ts":"2013-07-25T02:40:59Z","tX":796,"tY":344,"tags":{}},"2395755242":{"location":[50.5829684,100.165396],"ct":"MN","tp":"CS","ts":"2013-07-25T02:41:02Z","tX":796,"tY":344,"tags":{}},"2395755261":{"location":[50.629851,100.1937887],"ct":"MN","tp":"CS","ts":"2015-06-02T04:30:48Z","tX":796,"tY":344,"tags":{}},"4741204923":{"location":[50.6217286,100.1917019],"ct":"MN","tp":"CS","ts":"2017-03-18T09:37:11Z","tX":796,"tY":344,"tags":{"name":"batbayar","name:mn":"batbayar"}},"5054026105":{"location":[50.5935141,100.185232],"ct":"MN","tp":"CS","ts":"2017-08-23T15:26:15Z","tX":796,"tY":344,"tags":{"name":"Ger Camp"}},"5439838427":{"location":[50.5829762,100.1654281],"ct":"MN","tp":"CS","ts":"2018-02-27T11:53:53Z","tX":796,"tY":344,"tags":{"addr:street":"жанхайн даваа","name":"Ар царам амралт","name:en":"Ar tsaram tour camp","opening_hours":"24/7","phone":"88025745"}},"5439838428":{"location":[50.5819515,100.1647947],"ct":"MN","tp":"CS","ts":"2022-05-20T00:42:05Z","tX":796,"tY":344,"tags":{"addr:street":"Janhain davaa","name":"Ар царам амралт","name:en":"Ar tsaram tour camp","opening_hours":"24/7","phone":"88025745","website":"https://fb.com/artsaram"}},"5733063921":{"location":[50.5794078,100.1615047],"ct":"MN","tp":"CS","ts":"2018-07-02T04:22:53Z","tX":796,"tY":344,"tags":{"name:en":"Ger Camp"}},"5733064121":{"location":[50.5891204,100.1713922],"ct":"MN","tp":"CS","ts":"2018-07-02T04:22:53Z","tX":796,"tY":344,"tags":{"name:en":"Ger Camp"}},"5733064521":{"location":[50.5873773,100.1699385],"ct":"MN","tp":"CS","ts":"2018-07-02T04:22:55Z","tX":796,"tY":344,"tags":{"name:en":"Ger Camp"}},"5742440121":{"location":[50.5768775,100.1526956],"ct":"MN","tp":"CS","ts":"2018-07-06T02:03:03Z","tX":796,"tY":344,"tags":{"name":"жанхай","name:en":"janhai"}},"5748840421":{"location":[50.5266269,100.1410792],"ct":"MN","tp":"CS","ts":"2018-07-09T08:44:51Z","tX":796,"tY":344,"tags":{"name":"сүүж уул","name:en":"suuj uul"}},"6580859388":{"location":[50.5505444,100.1573722],"ct":"MN","tp":"CS","ts":"2019-07-01T03:21:42Z","tX":796,"tY":344,"tags":{"name:en":"Free camping spot"}}}