{"4059873526":{"location":[5.450704,100.1835502],"ct":"MY","tp":"CS","ts":"2024-06-17T02:19:34Z","tX":796,"tY":496,"tags":{"name":"Pantai Kerchut","name:en":"Kerchut Beach","name:ms":"Pantai Kerchut","name:zh":"可拉春海滩","name:zh-Hans":"可拉春海滩","name:zh-Hant":"可拉春海灘","wheelchair":"no"}},"4297996497":{"location":[5.4415615,100.180707],"ct":"MY","tp":"CS","ts":"2024-06-17T02:19:34Z","tX":796,"tY":496,"tags":{"name":"Teluk Kampi","name:en":"Kampi Bay","name:ms":"Teluk Kampi","name:zh":"甘比湾","name:zh-Hans":"甘比湾","name:zh-Hant":"甘比灣","wheelchair":"no"}},"4955300421":{"location":[5.4717739,100.1860521],"ct":"MY","tp":"CS","ts":"2023-03-03T10:14:02Z","tX":796,"tY":496,"tags":{"name":"Lazy Boys","name:en":"Lazy Boys"}},"6139075086":{"location":[5.4702108,100.1910114],"ct":"MY","tp":"CS","ts":"2024-06-17T23:02:39Z","tX":796,"tY":496,"tags":{"name":"Lazyboys - Rent Tent","name:en":"Lazyboys - Rent Tent"}},"6291085388":{"location":[5.4710987,100.1869495],"ct":"MY","tp":"CS","ts":"2024-06-17T23:02:39Z","tX":796,"tY":496,"tags":{"name":"Tiger Monkey","name:en":"Tiger Monkey"}}}