{"75481778":{"location":[51.6517815,-120.0623088],"ct":"CA","tp":"CR","ts":"2020-12-17T22:58:54Z","tX":170,"tY":339,"tags":{"addr:city":"Clearwater","addr:housenumber":"361","addr:postcode":"V0E 1N0","addr:street":"Ridge Drive","fee":"yes","internet_access":"wlan","internet_access:fee":"no","name":"Dutch Lake Resort & RV Park","phone":"+1-250-674-3351","phone:tollfree":"+1-888-884-4424","power_supply":"yes","website":"http://www.dutchlake.com/"}},"168087332":{"location":[51.7859097,-120.2294399],"ct":"CA","tp":"CS","ts":"2012-06-19T03:36:27Z","tX":170,"tY":339,"tags":{"name":"Moira Lake South Recreation Site","ref:FFID":"REC1513","source":"DataBC - Recreation Polygon"}},"168087350":{"location":[51.7585633,-120.07334],"ct":"CA","tp":"CS","ts":"2012-06-19T03:36:38Z","tX":170,"tY":339,"tags":{"name":"Sock Lake Recreation Site","ref:FFID":"REC4568","source":"DataBC - Recreation Polygon"}},"419053600":{"location":[51.6212424,-120.0871335],"ct":"CA","tp":"CS","ts":"2023-10-25T15:15:30Z","tX":170,"tY":339,"tags":{"capacity":"69","email":"Wellsgraypark@gmail.com","fee":"yes","internet_access":"no","name":"North Thompson River Campground","operator":"Blackwell Park Operations Ltd.","phone":"+1-250-587-2090","website":"https://www.env.gov.bc.ca/bcparks/explore/parkpgs/n_thm_rv/"}},"1835762610":{"location":[51.8185243,-120.034679],"ct":"CA","tp":"CS","ts":"2012-07-23T20:16:34Z","tX":170,"tY":339,"tags":{"name":"Trophy Mountain Buffalo Ranch"}},"2713133977":{"location":[51.6488468,-120.0526257],"ct":"CA","tp":"CR","ts":"2019-09-03T02:19:28Z","tX":170,"tY":339,"tags":{"addr:city":"Clearwater","addr:housenumber":"333","addr:postcode":"V0E 1N2","addr:street":"Roy Road","internet_access":"wlan","internet_access:fee":"no","name":"Dutch Lake Motel and RV Campground","source":"GPS"}},"3385463697":{"location":[51.7556302,-119.9240065],"ct":"CA","tp":"CS","ts":"2015-03-06T04:21:34Z","tX":170,"tY":339,"tags":{}},"3387140928":{"location":[51.6330666,-120.1695896],"ct":"CA","tp":"CS","ts":"2015-03-07T06:17:50Z","tX":170,"tY":339,"tags":{}},"3387140934":{"location":[51.7307994,-120.2257463],"ct":"CA","tp":"CS","ts":"2015-03-07T06:17:51Z","tX":170,"tY":339,"tags":{}},"3651398051":{"location":[51.6529098,-120.0410202],"ct":"CA","tp":"CS","ts":"2023-10-25T15:16:18Z","tX":170,"tY":339,"tags":{"addr:city":"Clearwater","addr:housenumber":"373","addr:postcode":"V0E 1N1","addr:street":"Clearwater Valley Road","name":"Clearwater Valley Resort","operator":"KOA","website":"https://clearwatervalley.com/"}},"5015802622":{"location":[51.790453,-119.91872],"ct":"CA","tp":"CS","ts":"2017-08-05T05:47:22Z","tX":170,"tY":339,"tags":{"name":"Sheila Lake Wilderness Campsite","name:en":"Sheila Lake Wilderness Campsite"}}}