{"1599271978":{"location":[49.3916506,-120.2065725],"ct":"CA","tp":"CS","ts":"2012-01-20T22:03:52Z","tX":170,"tY":349,"tags":{"source":"NRCan-CanVec-8.0"}},"3385463576":{"location":[49.3837519,-120.1924337],"ct":"CA","tp":"CS","ts":"2020-06-20T03:51:43Z","tX":170,"tY":349,"tags":{"name":"Old Hedley Road West"}},"3391831261":{"location":[49.5460051,-119.9731877],"ct":"CA","tp":"CS","ts":"2015-03-09T23:29:35Z","tX":170,"tY":349,"tags":{}},"10161980646":{"location":[49.3960338,-119.9648441],"ct":"CA","tp":"CS","ts":"2022-11-06T12:45:00Z","tX":170,"tY":349,"tags":{}},"12799012087":{"location":[49.3965762,-120.2137679],"ct":"CA","tp":"CS","ts":"2025-04-30T02:32:47Z","tX":170,"tY":349,"tags":{"access":"yes","addr:city":"Princeton","addr:housenumber":"2670","addr:postcode":"V0X1K0","addr:province":"BC","addr:street":"Crowsnest Highway","caravans":"yes","email":"outpostcamp@outlook.com","facebook":"https://www.facebook.com/profile.php?id=61561128722491","fee":"yes","name":"OutPost Camping","phone":"+1-778-878-0858","tents":"yes","website":"https://www.outpost-camping.com/"}}}