{"302760017":{"location":[49.3661051,-120.1274547],"ct":"CA","tp":"CS","ts":"2021-01-11T18:15:15Z","tX":170,"tY":350,"tags":{"access":"customers","addr:city":"Hedley","addr:housenumber":"6165","addr:postcode":"V0X 1K0","addr:province":"BC","addr:street":"Crowsnest Highway","name":"Riverhaven RV Park"}},"682181004":{"location":[49.2530254,-120.0129185],"ct":"CA","tp":"CR","ts":"2019-07-17T15:26:39Z","tX":170,"tY":350,"tags":{"addr:city":"Keremeos","addr:housenumber":"4354","addr:postcode":"V0X 1N1","addr:street":"Crowsnest Highway","name":"Riverside RV Park Resort"}},"682181412":{"location":[49.2397269,-119.9984014],"ct":"CA","tp":"CR","ts":"2021-02-11T01:01:59Z","tX":170,"tY":350,"tags":{"addr:city":"Keremeos","addr:housenumber":"4155","addr:postcode":"V0X 1N1","addr:street":"Crowsnest Highway","name":"Suncatchers RV Park Cooperative"}},"819296072":{"location":[49.2113062,-119.9841042],"ct":"CA","tp":"CS","ts":"2020-06-28T18:09:16Z","tX":170,"tY":350,"tags":{"addr:city":"Keremeos","addr:housenumber":"1400","addr:street":"Ashnola Road","name":"Snaʕsnulax̌tn Campground (Pow-wow Grounds)","opening_hours":"May-Sep","operator":"Lower Similkameen Indian Band","phone":"+1-250-499-1217","website":"https://ashnolacampground.wordpress.com/"}},"884566464":{"location":[49.3710083,-120.136538],"ct":"CA","tp":"CS","ts":"2022-05-15T22:19:41Z","tX":170,"tY":350,"tags":{"capacity":"27","fee":"yes","name":"Stemwinder Provincial Park Campground","operator":"BC Parks","website":"https://www.env.gov.bc.ca/bcparks/explore/parkpgs/stemwinder/","wheelchair":"yes"}},"1110710436":{"location":[49.1688499,-120.0019065],"ct":"CA","tp":"CS","ts":"2025-06-05T23:21:24Z","tX":170,"tY":350,"tags":{"name":"Tunnel - Recreation Site","website":"https://www.sitesandtrailsbc.ca/search/search-result.aspx?site=REC1614&type=Site"}},"1110710438":{"location":[49.1549208,-120.0114452],"ct":"CA","tp":"CS","ts":"2025-06-05T23:21:24Z","tX":170,"tY":350,"tags":{"name":"Horseshoe Canyon - Recreation Site","website":"https://www.sitesandtrailsbc.ca/search/search-result.aspx?site=REC1940&type=Site"}},"1110710439":{"location":[49.2999861,-120.0289982],"ct":"CA","tp":"CS","ts":"2022-11-06T10:23:10Z","tX":170,"tY":350,"tags":{"name":"Rustic Camping"}},"1110710440":{"location":[49.3740339,-120.1452134],"ct":"CA","tp":"CS","ts":"2024-06-29T23:04:33Z","tX":170,"tY":350,"tags":{"capacity":"16","fee":"yes","name":"Pickard Creek Campground","operator":"Recreation Sites and Trails BC","website":"https://www.sitesandtrailsbc.ca/search/search-result.aspx?site=REC1635&type=Site","wheelchair":"limited"}},"3385463567":{"location":[49.1960404,-120.0537558],"ct":"CA","tp":"CS","ts":"2024-10-10T07:45:55Z","tX":170,"tY":350,"tags":{"access":"yes","alt_name":"Crater Mountain Lake","backcountry":"yes","drinking_water":"no","fee":"no","name":"Red Bridge Lake","operator":"Recreation Sites and Trails BC","tents":"yes","toilets":"no"}},"3391831249":{"location":[49.1825106,-120.0031299],"ct":"CA","tp":"CS","ts":"2025-06-05T23:21:24Z","tX":170,"tY":350,"tags":{"website":"https://www.sitesandtrailsbc.ca/search/search-result.aspx?site=REC1613&type=Site"}},"3697631200":{"location":[49.3667282,-120.128435],"ct":"CA","tp":"CS","ts":"2019-09-13T13:38:31Z","tX":170,"tY":350,"tags":{"addr:city":"Hedley","addr:housenumber":"6169","addr:street":"Crowsnest Highway","name":"Gold Mountain RV Park and Cabins","phone":"+1-250-292-8188"}}}