{"427558506":{"location":[48.4766973,-120.1801734],"ct":"US","tp":"CR","ts":"2024-07-07T16:28:49Z","tX":170,"tY":353,"tags":{"drinking_water":"yes","fee":"yes","name":"Pine Near RV park","power_supply":"yes"}},"1079686553":{"location":[48.6116698,-120.1655093],"ct":"US","tp":"CS","ts":"2022-07-19T07:24:57Z","tX":170,"tY":353,"tags":{"alt_name":"Chewuch River South Campground","caravans":"yes","name":"Bobcat Campground","operator":"Washington Department of Fish and Wildlife","sanitary_dump_station":"no","tents":"yes"}},"1079686554":{"location":[48.6293773,-120.1587857],"ct":"US","tp":"CS","ts":"2022-07-19T07:24:57Z","tX":170,"tY":353,"tags":{"alt_name":"Chewuch River North Campground","caravans":"yes","name":"Upper Bobcat Campground","operator":"Washington Department of Fish and Wildlife","sanitary_dump_station":"no","tents":"yes"}},"1079686555":{"location":[48.5746733,-120.171398],"ct":"US","tp":"CS","ts":"2022-07-19T07:24:57Z","tX":170,"tY":353,"tags":{"caravans":"yes","name":"Boulder Creek Campground","operator":"Washington Department of Fish and Wildlife","sanitary_dump_station":"no","tents":"yes"}},"1090349812":{"location":[48.4940549,-120.1652728],"ct":"US","tp":"CR","ts":"2023-05-29T02:50:53Z","tX":170,"tY":353,"tags":{"addr:city":"Winthrop","addr:housenumber":"677","addr:postcode":"98862","addr:state":"WA","addr:street":"Bear Creek Road","name":"Silverline Resort","phone":"+1-509-996-2448"}},"1188520210":{"location":[48.463181,-120.1705827],"ct":"US","tp":"CR","ts":"2023-07-09T21:11:21Z","tX":170,"tY":353,"tags":{"addr:city":"Winthrop","addr:housenumber":"1114","addr:postcode":"98862","addr:street":"State Route 20","brand":"KOA","brand:wikidata":"Q16988635","name":"KOA Holiday","short_name":"KOA"}},"3204336172":{"location":[48.6059753,-120.2025569],"ct":"US","tp":"CS","ts":"2022-07-19T07:24:57Z","tX":170,"tY":353,"tags":{"access":"no","description":"Closed due to wildfire damage","fee":"yes","name":"Buck Lake Campground","operator":"US Forest Service","website":"https://www.fs.usda.gov/recarea/okawen/recarea/?recid=59123"}},"3204336174":{"location":[48.5788938,-120.1754972],"ct":"US","tp":"CS","ts":"2020-03-27T21:18:49Z","tX":170,"tY":353,"tags":{"name":"Memorial Campground"}},"7333423800":{"location":[48.4755308,-120.0966704],"ct":"US","tp":"CS","ts":"2020-03-26T22:27:51Z","tX":170,"tY":353,"tags":{"caravans":"yes","name":"Cougar Lake Campground","operator":"Washington Department of Fish and Wildlife","sanitary_dump_station":"no","tents":"yes"}},"7333423869":{"location":[48.4882571,-120.1159421],"ct":"US","tp":"CS","ts":"2022-07-19T07:24:57Z","tX":170,"tY":353,"tags":{"caravans":"yes","name":"Lower Bear Creek Campground","operator":"Washington Department of Fish and Wildlife","sanitary_dump_station":"no","tents":"yes"}},"7333423871":{"location":[48.4897957,-120.1163685],"ct":"US","tp":"CS","ts":"2022-07-19T07:24:57Z","tX":170,"tY":353,"tags":{"caravans":"yes","name":"Upper Bear Creek Campground","operator":"Washington Department of Fish and Wildlife","sanitary_dump_station":"no","tents":"yes"}},"7340489136":{"location":[48.5421753,-120.1456904],"ct":"US","tp":"CS","ts":"2020-03-28T14:24:13Z","tX":170,"tY":353,"tags":{"caravans":"yes","name":"Ramsey Creek Campground","operator":"Washington Department of Fish and Wildlife","sanitary_dump_station":"no","tents":"yes"}},"9896421716":{"location":[48.6781291,-120.1314372],"ct":"US","tp":"CS","ts":"2022-07-19T00:31:31Z","tX":170,"tY":353,"tags":{"name":"Chewuch Campground","website":"https://www.fs.usda.gov/recarea/okawen/recarea/?recid=59145"}},"10103111550":{"location":[48.6152396,-120.1960623],"ct":"US","tp":"CS","ts":"2022-10-15T12:49:01Z","tX":170,"tY":353,"tags":{"name":"Flat Campground","operator":"Forest Service"}},"10103111551":{"location":[48.6325966,-120.2218357],"ct":"US","tp":"CS","ts":"2022-10-15T12:49:01Z","tX":170,"tY":353,"tags":{"name":"Nice Campground","operator":"Forest Service"}},"11923687288":{"location":[48.4926917,-120.1521851],"ct":"US","tp":"SD","ts":"2024-05-21T22:32:10Z","tX":170,"tY":353,"tags":{"charge":"5","fee":"yes","payment:cash":"yes","payment:cheque":"yes","water_point":"yes"}}}