{"542185637":{"location":[47.8461374,-120.0266874],"ct":"US","tp":"CR","ts":"2025-06-17T21:52:34Z","tX":170,"tY":356,"tags":{"name":"Lakeshore RV Park"}},"704643358":{"location":[47.8055949,-119.9737749],"ct":"US","tp":"CS","ts":"2024-03-29T02:42:19Z","tX":170,"tY":356,"tags":{"access":"customers","addr:city":"Orondo","addr:housenumber":"23459","addr:postcode":"98843","addr:state":"WA","addr:street":"SR97","capacity":"46","fee":"yes","name":"Beebe Bridge Park Campground","operator":"Chelan County Public Utility District","payment:contactless":"yes","payment:credit_cards":"yes"}},"774729124":{"location":[47.879746,-120.1339014],"ct":"US","tp":"CR","ts":"2024-03-29T02:42:19Z","tX":170,"tY":356,"tags":{"addr:city":"Manson","addr:housenumber":"1938","addr:postcode":"98831","addr:state":"WA","addr:street":"State Route 150"}},"774729138":{"location":[47.9129408,-120.1542061],"ct":"US","tp":"CS","ts":"2024-03-29T02:42:19Z","tX":170,"tY":356,"tags":{"addr:city":"Manson","addr:housenumber":"153","addr:postcode":"98831","addr:state":"WA","addr:street":"East Wapato Lake Road","name":"Wapato Lake Campground"}},"1315833713":{"location":[47.8515007,-120.0460361],"ct":"US","tp":"CR","ts":"2024-09-16T02:59:41Z","tX":170,"tY":356,"tags":{}},"6617409986":{"location":[47.807002,-119.9724633],"ct":"US","tp":"SD","ts":"2019-07-15T18:54:35Z","tX":170,"tY":356,"tags":{}},"11139741594":{"location":[47.8736725,-120.1993472],"ct":"US","tp":"SD","ts":"2023-08-23T19:09:33Z","tX":170,"tY":356,"tags":{}},"12922228523":{"location":[47.8454965,-120.0243634],"ct":"US","tp":"SD","ts":"2025-06-17T21:52:34Z","tX":170,"tY":356,"tags":{}}}