{"934854428":{"location":[39.9030411,-120.1739235],"ct":"US","tp":"CS","ts":"2021-04-24T22:37:36Z","tX":170,"tY":388,"tags":{"name":"Big Cove"}},"1314076631":{"location":[39.669174,-119.9999823],"ct":"US","tp":"CR","ts":"2024-12-12T15:11:17Z","tX":170,"tY":388,"tags":{"addr:city":"Reno","addr:housenumber":"19575","addr:postcode":"89508","addr:state":"NV","addr:street":"US Highway 395 Frontage Road North","email":"rvresort@bordertowncasinorv.com","internet_access":"wlan","internet_access:fee":"customers","name":"Bordertown RV Resort","phone":"+17756770169","power_supply":"yes","sanitary_dump_station":"yes"}},"3080729869":{"location":[39.898702,-120.185245],"ct":"US","tp":"CS","ts":"2014-09-16T19:36:10Z","tX":170,"tY":388,"tags":{"name":"Frenchman lake campground","source":"knowledge"}},"4391442213":{"location":[39.8900737,-120.2089026],"ct":"US","tp":"CS","ts":"2016-09-08T07:56:09Z","tX":170,"tY":388,"tags":{"name":"Cottonwood Springs"}},"4391442223":{"location":[39.8963256,-120.1784488],"ct":"US","tp":"CS","ts":"2016-09-08T07:56:10Z","tX":170,"tY":388,"tags":{"name":"Spring Creek"}},"9416369591":{"location":[39.8656425,-120.166512],"ct":"US","tp":"CS","ts":"2022-01-13T20:53:07Z","tX":170,"tY":388,"tags":{"name":"Chilcoot Campground","operator":"USFS PNF Beckwourth RD"}}}