{"14375719":{"location":[39.5142137,-119.9628992],"ct":"US","tp":"CR","ts":"2023-03-03T22:53:49Z","tX":170,"tY":389,"tags":{"addr:city":"Verdi","addr:housenumber":"2100","addr:postcode":"89439","addr:state":"NV","addr:street":"Boomtown Garson Road","branch":"Reno","brand":"KOA","brand:wikidata":"Q16988635","capacity:caravans":"203","email":"reno@koa.com","emergency:phone":"+1-775-345-8709","fax":"+1-775-345-2451","fee":"yes","internet_access":"wlan","internet_access:fee":"no","internet_access:ssid":"KOA-Wifi","name":"Reno KOA Journey At Boomtown","operator":"KOA","phone":"+1-775-345-2444","power_supply":"yes","sanitary_dump_station":"yes","short_name":"KOA","tents":"no"}},"332569235":{"location":[39.5888712,-120.0736605],"ct":"US","tp":"CS","ts":"2019-02-17T05:33:22Z","tX":170,"tY":389,"tags":{"name":"Lookout Campground","operator":"United States Forest Service","source":"www.fs.usda.gov","uuid":"sonora_20130605","website":"https://www.fs.usda.gov/recarea/htnf/recarea/?recid=65264"}},"563402768":{"location":[39.5005804,-120.0013058],"ct":"US","tp":"CR","ts":"2018-02-22T16:56:50Z","tX":170,"tY":389,"tags":{"name":"Gold Ranch RV Resort"}},"638041180":{"location":[39.4159786,-120.1700582],"ct":"US","tp":"CR","ts":"2018-10-26T00:25:48Z","tX":170,"tY":389,"tags":{"access":"private","name":"Tahoe Timber Trails"}},"657719801":{"location":[39.3827699,-120.0838481],"ct":"US","tp":"CR","ts":"2018-12-24T20:43:13Z","tX":170,"tY":389,"tags":{"name":"Truckee River RV Park"}},"838410070":{"location":[39.4199863,-120.086942],"ct":"US","tp":"CS","ts":"2022-05-18T04:48:51Z","tX":170,"tY":389,"tags":{"name":"Boca Rest"}},"838410071":{"location":[39.4278026,-120.0752878],"ct":"US","tp":"CS","ts":"2020-08-19T03:24:16Z","tX":170,"tY":389,"tags":{"name":"Boca Springs"}},"845224660":{"location":[39.5616741,-120.0584221],"ct":"US","tp":"CS","ts":"2020-09-08T02:33:43Z","tX":170,"tY":389,"tags":{"name":"Dog Valley Campground"}},"849981949":{"location":[39.3835073,-120.1714692],"ct":"US","tp":"CS","ts":"2020-09-22T03:10:46Z","tX":170,"tY":389,"tags":{"name":"Lakeside Campground","operator":"USFS Tahoe National Forest"}},"849981963":{"location":[39.3778045,-120.1613009],"ct":"US","tp":"CS","ts":"2022-07-04T11:06:55Z","tX":170,"tY":389,"tags":{"name":"Prosser Family Campground","operator":"USFS Tahoe National Forest"}},"849988677":{"location":[39.4660252,-120.125201],"ct":"US","tp":"CS","ts":"2020-09-22T04:00:40Z","tX":170,"tY":389,"tags":{"name":"Logger Campground"}},"849988692":{"location":[39.4701831,-120.1172322],"ct":"US","tp":"CS","ts":"2020-09-22T04:00:40Z","tX":170,"tY":389,"tags":{"name":"Emigrant Campground","operator":"USFS Tahoe National Forest"}},"1080442966":{"location":[39.5153288,-119.9641078],"ct":"US","tp":"SD","ts":"2022-11-20T06:30:46Z","tX":170,"tY":389,"tags":{"access":"yes","addr:city":"Verdi","addr:housenumber":"2100","addr:postcode":"89439","addr:state":"NV","addr:street":"Boomtown Garson Road","charge":"$10","fee":"yes","opening_hours":"May-Sep Tu-Su 08:00-20:00; Oct-Apr 08:00-18:00","operator":"Reno KOA Journey","sanitary_dump_station:gravity":"yes","sanitary_dump_station:suction":"no","water_point":"no"}},"1115646906":{"location":[39.5153183,-119.9639841],"ct":"US","tp":"SD","ts":"2022-11-20T06:30:46Z","tX":170,"tY":389,"tags":{"access":"yes","addr:city":"Verdi","addr:housenumber":"2100","addr:postcode":"89439","addr:state":"NV","addr:street":"Boomtown Garson Road","charge":"$10","fee":"yes","opening_hours":"May-Sep Tu-Su 08:00-20:00; Oct-Apr 08:00-18:00","operator":"Reno KOA Journey","sanitary_dump_station:gravity":"yes","sanitary_dump_station:suction":"no","water_point":"no"}},"1143182089":{"location":[39.3944158,-120.1044823],"ct":"US","tp":"CS","ts":"2023-02-10T16:21:28Z","tX":170,"tY":389,"tags":{"name":"Campground","name:en":"Boca Campground","name:fr":"Camping Boca"}},"4283514625":{"location":[39.4380696,-120.0894102],"ct":"US","tp":"CS","ts":"2016-07-05T02:45:22Z","tX":170,"tY":389,"tags":{}},"7342208337":{"location":[39.5797356,-120.0575874],"ct":"US","tp":"CS","ts":"2020-03-29T03:19:02Z","tX":170,"tY":389,"tags":{}},"9865655872":{"location":[39.3776422,-120.1565477],"ct":"US","tp":"CS","ts":"2022-07-04T11:06:55Z","tX":170,"tY":389,"tags":{"name":"Prosser Group Campground"}}}