{"1344144":{"location":[53.3502232,6.3691246],"ct":"NL","tp":"CS","ts":"2023-05-30T17:10:37Z","tX":530,"tY":331,"tags":{"addr:city":"Zuurdijk","addr:housenumber":"2","addr:postcode":"9965TN","addr:street":"Leenstertillen","capacity":"15","caravans":"yes","contact:email":"leenstertillen@gmail.com","fee":"yes","internet_access":"no","name":"Camping de Leenstertillen","phone":"+31 6 57601866","shower":"yes","tents":"yes","toilets":"yes","website":"https://www.leenstertillen.com"}},"91864608":{"location":[53.3987262,6.4516656],"ct":"NL","tp":"CS","ts":"2023-05-30T12:19:41Z","tX":530,"tY":331,"tags":{"email":"info@campingboetntoen.nl","name":"Camping Boet'n Toen","phone":"+31 6 57022690","source":"3dShapes","website":"https://www.campingboetntoen.nl/"}},"91864851":{"location":[53.4036215,6.4298116],"ct":"NL","tp":"CS","ts":"2023-05-30T12:19:41Z","tX":530,"tY":331,"tags":{"addr:city":"Pieterburen","addr:housenumber":"63","addr:postcode":"9968AP","addr:street":"Wierhuisterweg","cabins":"yes","caravans":"yes","email":"kleindeikum@gmail.com","name":"Klein Deikum","phone":"+31 6 10977436","tents":"yes","website":"https://www.kleindeikum.nl"}},"91880871":{"location":[53.3616332,6.4180755],"ct":"NL","tp":"CR","ts":"2023-05-21T16:26:32Z","tX":530,"tY":331,"tags":{"capacity":"17","name":"Camperplaats Wehe-den-Hoorn","power_supply":"yes"}},"144910405":{"location":[53.3857512,6.5386974],"ct":"NL","tp":"CS","ts":"2023-06-13T05:55:12Z","tX":530,"tY":331,"tags":{"cabins":"yes","caravans":"yes","contact:email":"info@campingdebreede.nl","contact:mobile":"+31 6 27224600","contact:phone":"+31 595 424 642","internet_access":"wlan","internet_access:fee":"no","name":"Camping de Breede","opening_hours":"Mo-Fr 09:00-21:00; Sa 09:30-21:00; Su, PH 10:30-21:00","shower":"yes","tents":"yes","toilets":"yes","website":"https://www.campingdebreede.nl/"}},"158465738":{"location":[53.3985447,6.4867377],"ct":"NL","tp":"CS","ts":"2023-05-30T17:10:32Z","tX":530,"tY":331,"tags":{"email":"admin@campingmaereheerd.nl","name":"Camping Maereheerd","phone":"+31 595 528 493;+31 6 23102501","website":"https://www.campingmaereheerd.nl"}},"158466242":{"location":[53.3988133,6.6737909],"ct":"NL","tp":"CS","ts":"2023-08-25T19:04:07Z","tX":530,"tY":331,"tags":{"cabins":"yes","caravans":"yes","email":"campingmaarlandhoeve@hetnet.nl","landcover":"grass","motorhome":"yes","name":"Camping Maarlandhoeve","phone":"+31 595 433 473","shower":"yes","tents":"yes","toilets":"yes","website":"https://www.campingmaarlandhoeve.nl"}},"159369096":{"location":[53.3377222,6.5842714],"ct":"NL","tp":"CS","ts":"2023-08-20T16:03:30Z","tX":530,"tY":331,"tags":{"cabins":"yes","caravans":"yes","fee":"yes","motorhome":"yes","name":"Onderdendam","operator":"Stichting Recreatiehaven Onderdendam","phone":"+31 50 304 9187;+31 6 30868874","power_supply":"yes","sanitary_dump_station":"yes","tents":"yes","website":"https://jachthavenonderdendam.nl/"}},"225034773":{"location":[53.3941408,6.3726151],"ct":"NL","tp":"CS","ts":"2024-06-24T06:11:08Z","tX":530,"tY":331,"tags":{"addr:city":"Kloosterburen","addr:housenumber":"33","addr:postcode":"9977PE","addr:street":"Hogeweg","capacity:pitches":"10","caravans":"yes","email":"info@biediek.nl","name":"Bie Diek","phone":"+31 595 572 837","shower":"yes","tents":"yes","toilets":"yes","website":"https://www.biediek.nl/"}},"302197460":{"location":[53.3635087,6.4242844],"ct":"NL","tp":"CS","ts":"2022-05-25T16:18:01Z","tX":530,"tY":331,"tags":{"email":"info@wilgenheerd.nl","internet_access":"yes","internet_access:fee":"no","name":"Landgoed Wilgenheerd","phone":"+31 6 24519354","website":"https://wilgenheerd.nl/"}},"465870925":{"location":[53.3859866,6.4025413],"ct":"NL","tp":"CS","ts":"2023-08-16T21:07:51Z","tX":530,"tY":331,"tags":{"addr:city":"Kloosterburen","addr:housenumber":"32","addr:postcode":"9977RZ","addr:street":"Haven","cabins":"yes","caravans":"yes","email":"info@evennaardehorizon.nl","fee":"yes","internet_access":"yes","internet_access:fee":"no","name":"De Horizon","phone":"+31 6 53288866","shower":"yes","tents":"yes","toilets":"yes","website":"https://dehorizonmolenrij.nl/"}},"489436699":{"location":[53.4322191,6.5843647],"ct":"NL","tp":"CR","ts":"2024-05-18T10:03:25Z","tX":530,"tY":331,"tags":{"capacity:caravans":"6","charge":"12€","description":"fee about 12,00€","dog":"leashed","drinking_water":"no","fee":"yes","name":"'t Zielhoes Noordpolderzijl","payment:app":"easy2pay","power_supply":"yes","sanitary_dump_station":"no","shower":"no","toilets":"no","waste_disposal":"yes","website":"https://www.campercontact.com/nl/nederland/groningen/usquert/53420/t-zielhoes-noordpolderzijl"}},"765718991":{"location":[53.3851539,6.5596842],"ct":"NL","tp":"CS","ts":"2022-05-26T17:47:31Z","tX":530,"tY":331,"tags":{"contact:mobile":"+31 6 51618782","email":"welkom@campzuiderhorn.nl","landuse":"grass","name":"Camping Zuiderhorn","source":"3dShapes","website":"http://www.campzuiderhorn.nl/"}},"1075215039":{"location":[53.4321821,6.5842259],"ct":"NL","tp":"CS","ts":"2022-07-01T21:52:09Z","tX":530,"tY":331,"tags":{}},"1705759616":{"location":[53.3567305,6.3307481],"ct":"NL","tp":"CS","ts":"2023-04-27T09:13:08Z","tX":530,"tY":331,"tags":{"caravans":"yes","email":"watergeuzenulrum@gmail.com","motorhome":"yes","name":"Mini-camping De Watergeuzen","phone":"+31 595 402 081","shower":"yes","tents":"yes","toilets":"yes"}},"2811645864":{"location":[53.3586579,6.4576331],"ct":"NL","tp":"CS","ts":"2021-11-01T13:11:48Z","tX":530,"tY":331,"tags":{"access":"private","addr:city":"Eenrum","addr:housenumber":"7","addr:postcode":"9967PR","addr:street":"Hunse","description":"Dit kampeerterrein is alleen toegankelijk voor leden van de NTKC","dog":"leashed","internet_access":"no","name":"NTKC 't Aagt","operator":"Nederlandse Toeristen Kampeer Club","power_supply":"yes","source":"BAG","source:date":"2014-03-24","website":"https://www.kampeerclub.nl/terrein/kampeerterrein-t-aagt"}},"4147444572":{"location":[53.362871,6.4515883],"ct":"NL","tp":"CS","ts":"2023-07-08T11:23:00Z","tX":530,"tY":331,"tags":{"email":"kanocampingdedobbe@live.nl","name":"Kanocamping de Dobbe","phone":"+31 6 36509616"}},"6567776733":{"location":[53.3648108,6.4971763],"ct":"NL","tp":"CS","ts":"2019-06-24T13:13:19Z","tX":530,"tY":331,"tags":{"name":"De Maar","website":"https://campingdemaar.nl/contact/"}},"11577102132":{"location":[53.3317011,6.5103154],"ct":"NL","tp":"CS","ts":"2024-08-17T08:02:50Z","tX":530,"tY":331,"tags":{"addr:city":"Winsum","addr:housenumber":"6","addr:postcode":"9951CG","addr:street":"Winsumerdiep","caravans":"yes","drinking_water":"yes","name":"Marenland Recreatie","power_supply":"yes","sanitary_dump_station":"yes","shower":"yes","tents":"yes","toilets":"yes","website":"https://www.marenland.nl"}},"9162787594":{"location":[53.3509726,6.6480928],"ct":"NL","tp":"CR","ts":"2021-10-10T16:18:10Z","tX":530,"tY":331,"tags":{"name":"Borg Ewsum"}}}