{"1351480":{"location":[53.2088545,6.4107636],"ct":"NL","tp":"CS","ts":"2023-05-30T12:19:51Z","tX":530,"tY":332,"tags":{"addr:city":"Lettelbert","addr:housenumber":"7","addr:postcode":"9827TA","addr:street":"Lettelberterdijk","caravans":"yes","contact:email":"info@aanhetdiepje.nl","contact:phone":"+31 594 697 293","contact:website":"http://aanhetdiepje.nl/","name":"Aan het Diepje (Luxe kamperen)","operator":"Gerdine Kooijman en Hans Ravensbergen","tents":"yes"}},"38135148":{"location":[53.1753648,6.4185629],"ct":"NL","tp":"CS","ts":"2023-05-30T17:41:59Z","tX":530,"tY":332,"tags":{"addr:city":"Nietap","addr:housenumber":"13","addr:postcode":"9312TC","addr:street":"Meerweg","contact:email":"info@cnossenleekstermeer.nl","contact:phone":"+31 594 512 073","contact:website":"https://www.cnossenleekstermeer.nl/camping-in-drenthe","name":"Natuurkampeerterrein de Jarden"}},"38135149":{"location":[53.1767008,6.4198239],"ct":"NL","tp":"CS","ts":"2023-05-30T12:16:11Z","tX":530,"tY":332,"tags":{"addr:city":"Nietap","addr:housenumber":"13","addr:postcode":"9312TC","addr:street":"Meerweg","cabins":"yes","caravans":"yes","contact:email":"info@cnossenleekstermeer.nl","contact:phone":"+31 594 512 073","contact:website":"https://www.cnossenleekstermeer.nl","name":"Cnossen Leekstermeer","tents":"yes"}},"41729168":{"location":[53.2019647,6.5361664],"ct":"NL","tp":"CS","ts":"2021-04-05T09:23:26Z","tX":530,"tY":332,"tags":{"addr:city":"Groningen","addr:housenumber":"6","addr:postcode":"9727KH","addr:street":"Campinglaan","contact:email":"info@campingstadspark.nl","internet_access":"wlan","name":"Camping Stadspark","phone":"+31 50 525 1624","website":"https://campingstadspark.nl"}},"91952742":{"location":[53.3160827,6.469657],"ct":"NL","tp":"CS","ts":"2023-07-17T18:00:54Z","tX":530,"tY":332,"tags":{"cabins":"yes","caravans":"yes","email":"camping@aduarderzijl.com","mobile":"+31 6 44414755","name":"Camping & Jachthaven Aduarderzijl","phone":"+31 594 621 836","shower":"yes","tents":"yes","toilets":"yes","website":"https://www.aduarderzijl.com/"}},"92381998":{"location":[53.2825808,6.6242546],"ct":"NL","tp":"CS","ts":"2023-07-01T20:19:48Z","tX":530,"tY":332,"tags":{"addr:city":"Bedum","addr:housenumber":"26","addr:postcode":"9781TT","addr:street":"Ellerhuizen","email":"info@derodekapschuur.nl","name":"Natuurkampeerterrein De Rode Kapschuur","old_name":"Natuurkampeerterrein 2Bunders","opening_hours":"Apr 7 - Oct 1","phone":"+31 6 28876462","website":"https://www.derodekapschuur.nl/"}},"92739428":{"location":[53.2006548,6.4311248],"ct":"NL","tp":"CS","ts":"2024-06-07T09:55:31Z","tX":530,"tY":332,"tags":{"name":"Boerenbed","url":"https://www.boerenbed.nl/botterheerd-groningen-groningen"}},"92739779":{"location":[53.1720827,6.3820187],"ct":"NL","tp":"CS","ts":"2022-02-25T17:51:18Z","tX":530,"tY":332,"tags":{"source":"3dShapes"}},"92741185":{"location":[53.1884104,6.4165105],"ct":"NL","tp":"CS","ts":"2024-06-07T09:51:13Z","tX":530,"tY":332,"tags":{"addr:city":"Lettelbert","addr:housenumber":"190-I","addr:street":"Hoofdstraat","description":"Alleen voor Leden van het Nivon en houders van de Natuurkampeerkaart (ter plekke te koop). van 1 april t/m herfstvakantie","fee":"yes","name":"Natuurkampeerterrein Lettelbert","operator":"Nivon","phone":"+31 6 22054714","source":"3dShapes","url":"https://nivon.nl/accommodaties/lettelbert/"}},"94010596":{"location":[53.1453254,6.485106],"ct":"NL","tp":"CS","ts":"2023-05-30T12:16:14Z","tX":530,"tY":332,"tags":{"addr:city":"Peize","addr:country":"NL","addr:housenumber":"32","addr:postcode":"9321HL","addr:street":"Oude Velddijk","email":"campinghoppenhof@home.nl","name":"Camping De Hoppenhof","phone":"+31 50 503 3368","website":"https://www.campinghoppenhof.nl/"}},"94704232":{"location":[53.2045689,6.6443561],"ct":"NL","tp":"CS","ts":"2023-05-30T17:10:31Z","tX":530,"tY":332,"tags":{"addr:city":"Groningen","addr:housenumber":"54","addr:postcode":"9723EN","addr:street":"Engelberterweg","contact:email":"info@natuurbadengelbert.nl","contact:phone":"+31 50 541 6259","contact:website":"https://www.natuurbadengelbert.nl","name":"Camping Engelbert"}},"96541876":{"location":[53.1240437,6.4270951],"ct":"NL","tp":"CS","ts":"2023-08-19T18:25:24Z","tX":530,"tY":332,"tags":{"addr:city":"Roden","addr:housenumber":"19","addr:postcode":"9301JM","addr:street":"Norgerweg","cabins":"yes","caravans":"yes","contact:email":"camping@dorado.nl","contact:phone":"+31 50 501 9261","contact:website":"https://www.dorado.nl","name":"Dorado","shower":"cold","tents":"yes","toilets":"yes"}},"96541967":{"location":[53.1536727,6.4123544],"ct":"NL","tp":"CS","ts":"2023-05-30T12:16:15Z","tX":530,"tY":332,"tags":{"addr:city":"Nietap","addr:housenumber":"116","addr:postcode":"9312TB","addr:street":"J.P. Santeeweg","caravans":"yes","email":"info@svrcampingdeholbargen.nl","landuse":"grass","name":"Camping de Holbargen","phone":"+31 594 512 450","tents":"yes","website":"https://www.svrcampingdeholbargen.nl"}},"96545453":{"location":[53.1537139,6.3997917],"ct":"NL","tp":"CS","ts":"2021-08-08T11:20:28Z","tX":530,"tY":332,"tags":{"access":"private","addr:city":"Nietap","addr:housenumber":"5A","addr:postcode":"9312VD","addr:street":"Vagevuurselaan","caravans":"yes","email":"ommelanden@hotmail.com","name":"Camping Ommelanden","tents":"yes","website":"https://www.campingommelanden.nl"}},"96554030":{"location":[53.1328602,6.4342648],"ct":"NL","tp":"CS","ts":"2023-05-30T12:16:14Z","tX":530,"tY":332,"tags":{"addr:city":"Roden","addr:housenumber":"2a","addr:postcode":"9301JM","addr:street":"Norgerweg","email":"dijk.30@home.nl","name":"Camping Ot en Sien","phone":"+31 50 501 7943","source":"3dShapes","website":"https://www.freewebs.com/camping-ot-en-sien/"}},"180202059":{"location":[53.3283395,6.4248403],"ct":"NL","tp":"CS","ts":"2023-05-30T12:19:44Z","tX":530,"tY":332,"tags":{"email":"info@campingreitdiep.nl","name":"Camping Reitdiep","phone":"+31 6 50970903","website":"https://campingreitdiep.nl/"}},"290253725":{"location":[53.159379,6.5645058],"ct":"NL","tp":"PK","ts":"2025-01-15T17:43:40Z","tX":530,"tY":332,"tags":{"motorhome":"yes"}},"290322124":{"location":[53.1914754,6.645643],"ct":"NL","tp":"CS","ts":"2023-05-30T17:10:34Z","tX":530,"tY":332,"tags":{"addr:city":"Westerbroek","addr:housenumber":"1","addr:postcode":"9608TA","addr:street":"Woortmansdijk","contact:email":"info@campinggroningeninternationaal.nl","contact:phone":"+31 50 404 1433","contact:website":"https://www.campinggroningen.nl","name":"Camping Groningen Internationaal"}},"361454461":{"location":[53.1706766,6.3831739],"ct":"NL","tp":"CS","ts":"2025-01-14T14:09:07Z","tX":530,"tY":332,"tags":{"addr:city":"Leek","addr:housenumber":"19","addr:postcode":"9351PG","addr:street":"Midwolderweg","contact:phone":"+31 594 512 059","contact:website":"https://www.landgoedcampingnienoord.nl","name":"Landgoedcamping Nienoord","note":"observation d.d. 2024-01-14: campsite is for sale, infosource: https://vandeloosdrecht.nl/recreatie/aanbod/210197-landgoedcamping-en-pannenkoekenburcht-nienoord/ could only be ‘as is’-sale or sale with new owner development plans…","toilets:wheelchair":"yes","wheelchair":"yes"}},"579831273":{"location":[53.2401501,6.5977502],"ct":"NL","tp":"CR","ts":"2025-01-25T13:35:16Z","tX":530,"tY":332,"tags":{"capacity":"15","caravan_site":"motorhome_stopover","caravan_site:type":"city","fee":"no","maxlength":"none","maxstay":"72 hours","name":"Kardinge","power_supply":"no","sanitary_dump_station":"no","water_point":"yes","water_point:fee":"no","website":"https://www.visitgroningen.nl/nl/locaties/361423365/parking-kardinge","wheelchair":"yes"}},"640571573":{"location":[53.1637662,6.5784189],"ct":"NL","tp":"CR","ts":"2025-01-17T23:46:57Z","tX":530,"tY":332,"tags":{"capacity":"6","caravan_site":"motorhome_stopover","caravan_site:type":"lake","fee":"no","maxstay":"72 hours","name":"Camperplaats De Lijte"}},"776295552":{"location":[53.3126857,6.3523603],"ct":"NL","tp":"CS","ts":"2023-05-30T17:10:36Z","tX":530,"tY":332,"tags":{"caravans":"yes","contact:email":"info@dewaterwolf.nl","contact:phone":"+31 6 53835091;+31 6 33759345","contact:website":"https://www.dewaterwolf.nl","name":"Camping De Waterwolf","tents":"yes"}},"916325194":{"location":[53.3270145,6.4260736],"ct":"NL","tp":"CS","ts":"2023-11-10T14:42:23Z","tX":530,"tY":332,"tags":{"name":"Overdaips","website":"https://overdaips.nl/"}},"969141201":{"location":[53.2234293,6.3707402],"ct":"NL","tp":"CS","ts":"2022-11-04T10:19:56Z","tX":530,"tY":332,"tags":{"addr:city":"Niekerk","addr:housenumber":"3","addr:postcode":"9822TJ","addr:street":"Maarsdijk","contact:phone":"+31 594 504 661","contact:website":"http://www.maarsdijk.nl/","name":"De Maarsdijk"}},"985752938":{"location":[53.1943014,6.4486023],"ct":"NL","tp":"CS","ts":"2023-08-25T18:15:31Z","tX":530,"tY":332,"tags":{"addr:city":"Matsloot","addr:housenumber":"1","addr:postcode":"9749TJ","addr:street":"Matsloot","caravans":"yes","name":"Camping Pool","phone":"+31 598 620 031","tents":"yes","website":"https://www.campingpool.nl"}},"1078038423":{"location":[53.1261077,6.3368996],"ct":"NL","tp":"CS","ts":"2022-07-16T08:08:04Z","tX":530,"tY":332,"tags":{"addr:city":"Zevenhuizen","addr:housenumber":"15","addr:postcode":"9354VA","addr:street":"Veldstreek","caravans":"yes","contact:website":"https://develdstreek.nl/minicamping","name":"De Veldstreek","tents":"yes"}},"1095155656":{"location":[53.323277,6.5343989],"ct":"NL","tp":"CS","ts":"2022-09-16T12:52:11Z","tX":530,"tY":332,"tags":{"access":"customers","capacity:caravans":"3","fee":"yes","name":"Veld E","operator":"Scouting Vinchem"}},"1095155657":{"location":[53.3230474,6.5340491],"ct":"NL","tp":"CS","ts":"2022-09-16T12:52:11Z","tX":530,"tY":332,"tags":{"access":"customers","capacity:caravans":"5","fee":"yes","name":"Veld D","operator":"Scouting Vinchem"}},"1095155658":{"location":[53.323076,6.5346595],"ct":"NL","tp":"CS","ts":"2022-09-16T12:52:11Z","tX":530,"tY":332,"tags":{"access":"customers","capacity:caravans":"4","fee":"yes","name":"Veld F","operator":"Scouting Vinchem"}},"1207561698":{"location":[53.284138,6.4169774],"ct":"NL","tp":"CS","ts":"2023-09-13T19:20:01Z","tX":530,"tY":332,"tags":{"cabins":"yes","capacity:cabins":"3","capacity:pitches":"15","caravans":"yes","email":"info@hayemaheerd.nl","mobile":"+31 6 41261230","name":"Hayema Heerd","phone":"+31 50 403 0930","shower":"yes","tents":"yes","toilets":"yes","website":"https://hayemaheerd.nl/kamperen"}},"1352326777":{"location":[53.2186434,6.5161807],"ct":"NL","tp":"CR","ts":"2025-01-18T13:53:28Z","tX":530,"tY":332,"tags":{"capacity:caravans":"2","caravan_site":"motorhome_stopover","caravan_site:type":"events_venue","drinking_water":"yes","fee":"yes","name":"Tuinindestad","power_supply":"yes","sanitary_dump_station":"no","shower":"yes","toilets":"yes","water_point":"no","wikimedia_commons":"File:Tuinindestad RV stopover Westpark.jpg"}},"1354180114":{"location":[53.2156422,6.5961773],"ct":"NL","tp":"CR","ts":"2025-01-25T13:43:41Z","tX":530,"tY":332,"tags":{"capacity":"15","caravan_site":"motorhome_stopover","caravan_site:type":"ship_yard","charge":"20 EUR","dog":"yes","fee":"yes","laundry_service":"yes","name":"Camperlocatie No Limit Ships","power_supply":"yes","surface":"asphalt","water_point":"yes"}},"1355953706":{"location":[53.1493931,6.6431937],"ct":"NL","tp":"CS","ts":"2025-02-01T15:06:40Z","tX":530,"tY":332,"tags":{"name":"De Kleine Wereld","website":"https://www.campingdekleinewereld.nl"}},"1602257911":{"location":[53.2128311,6.6633385],"ct":"NL","tp":"CS","ts":"2017-01-20T17:49:00Z","tX":530,"tY":332,"tags":{"name":"Break Out Grunopark","wheelchair":"yes"}},"2019653168":{"location":[53.157299,6.460027],"ct":"NL","tp":"CS","ts":"2022-11-04T11:12:59Z","tX":530,"tY":332,"tags":{"addr:city":"Foxwolde","addr:housenumber":"21","addr:postcode":"9314TB","addr:street":"Roderwolderweg","contact:phone":"+31 50 503 2192","name":"Scheepstra"}},"2938038417":{"location":[53.159547,6.5644023],"ct":"NL","tp":"CR","ts":"2024-01-02T18:44:35Z","tX":530,"tY":332,"tags":{"caravan_site":"unofficial"}},"7117466449":{"location":[53.2193829,6.5162791],"ct":"NL","tp":"CS","ts":"2020-01-08T16:50:11Z","tX":530,"tY":332,"tags":{"name":"TentindeTuin","website":"https://detuinindestad.nl/de-camping/"}},"6193195985":{"location":[53.2158035,6.5960717],"ct":"NL","tp":"CR","ts":"2019-12-14T13:42:56Z","tX":530,"tY":332,"tags":{"capacity":"15","name":"Camperlocatie No Limit Ships","power_supply":"yes","sanitary_dump_station":"customers","website":"https://www.campercontact.com/nl/nederland/groningen/groningen/20657/camperlocatie-no-limit-ships"}},"11341527589":{"location":[53.2186525,6.5161889],"ct":"NL","tp":"CR","ts":"2024-01-10T17:51:20Z","tX":530,"tY":332,"tags":{"capacity:caravans":"2","drinking_water":"yes","fee":"yes","name":"Tuinindestad","power_supply":"yes","sanitary_dump_station":"no","shower":"yes","toilets":"yes","water_point":"no","wikimedia_commons":"File:Tuinindestad RV stopover Westpark.jpg"}}}