{"30949767":{"location":[53.0839542,6.6393911],"ct":"NL","tp":"CS","ts":"2022-06-06T06:48:44Z","tX":530,"tY":333,"tags":{"addr:city":"Tynaarlo","addr:housenumber":"37","addr:postcode":"9482TV","addr:street":"Zuidlaarderweg","email":"info@campingveenmeer.nl","name":"Veenmeer","note":"chalet and camp are integrated, extent is different on their own map and satelite imagery","phone":"+31 592 543 625","website":"https://www.campingveenmeer.nl"}},"56123433":{"location":[52.937345,6.3447486],"ct":"NL","tp":"CS","ts":"2020-01-03T12:50:44Z","tX":530,"tY":333,"tags":{"addr:city":"Appelscha","addr:housenumber":"1","addr:postcode":"8426GK","addr:street":"De Roggeberg","name":"de Roggeberg","operator":"RCN","url":"http://www.rcn.nl/centra/deroggeberg/index.aspx"}},"56123436":{"location":[52.9363871,6.3358625],"ct":"NL","tp":"CS","ts":"2024-02-18T03:03:31Z","tX":530,"tY":333,"tags":{"name":"de Roggeberg","operator":"RCN","toilets:wheelchair":"yes","wheelchair":"yes"}},"82304567":{"location":[53.1023007,6.3302114],"ct":"NL","tp":"CS","ts":"2023-05-30T12:19:41Z","tX":530,"tY":333,"tags":{"addr:city":"Zevenhuizen","addr:housenumber":"1","addr:postcode":"9354VN","addr:street":"Bremerweg","contact:phone":"+31 594 631 410","name":"Camping Aan de Bosrand"}},"82359533":{"location":[53.0803675,6.335185],"ct":"NL","tp":"CS","ts":"2023-08-22T19:45:39Z","tX":530,"tY":333,"tags":{"addr:city":"Een-West","addr:housenumber":"1","addr:postcode":"9343TA","addr:street":"Hoofdweg","caravans":"yes","contact:email":"info@camperplaats-deankerplaats.nl","motorhome":"yes","name":"De Ankerplaats","phone":"+31 6 31740744;+31 6 46037441","shower":"yes","tents":"yes","toilets":"yes","website":"https://www.camperplaats-deankerplaats.nl"}},"87903965":{"location":[53.003687,6.3294769],"ct":"NL","tp":"CS","ts":"2023-05-30T12:17:26Z","tX":530,"tY":333,"tags":{"addr:city":"Fochteloo","addr:housenumber":"26","addr:postcode":"8428HM","addr:street":"Noordeinde","contact:email":"info@campingnoordeinde.nl","contact:phone":"+31 516 588 466;+31 6 31763033","contact:website":"http://www.campingnoordeinde.nl/","name":"Camping Noordeinde","operator":"Sietske Chardon","source":"3dShapes"}},"87925987":{"location":[52.9549282,6.3370621],"ct":"NL","tp":"CR","ts":"2023-05-30T18:16:09Z","tX":530,"tY":333,"tags":{"fee":"yes","name":"Camperplaats Appelscha","power_supply":"yes","website":"https://www.camperplaats-appelscha.nl"}},"87926027":{"location":[52.9504454,6.329728],"ct":"NL","tp":"CS","ts":"2024-09-01T23:19:52Z","tX":530,"tY":333,"tags":{"alcohol":"no","backcountry":"yes","caravans":"yes","contact:website":"https://www.anarchistischecamping.nl","dog":"yes","group_only":"no","image":"https://i.imgur.com/wmAvFaJ.jpeg","internet_access":"wlan","internet_access:fee":"no","internet_access:ssid":"Acamping_guest","landuse":"grass","name":"kampeerterrein ‘Tot Vrijheidsbezinning’","nobrand":"yes","nudism":"no","opening_hours":"24/7","reservation":"no","sanitary_dump_station":"no","source":"3dShapes","swimming_pool":"no","tents":"yes","wheelchair":"no"}},"96571781":{"location":[53.1103385,6.6017356],"ct":"NL","tp":"CS","ts":"2023-05-30T12:16:15Z","tX":530,"tY":333,"tags":{"brand":"SVR","cabins":"yes","capacity:cabins":"2","capacity:pitches":"50","caravans":"yes","email":"svr@campinggrimme.nl","name":"SVR Camping de Lindehoeve","phone":"+31 6 22450096;+31 6 50272925","shower":"yes","tents":"yes","toilets":"yes","website":"http://www.delindehoeve.com"}},"96574676":{"location":[53.1184614,6.6514695],"ct":"NL","tp":"CS","ts":"2023-10-08T12:03:39Z","tX":530,"tY":333,"tags":{"cabins":"yes","capacity:pitches":"11","caravans":"yes","contact:website":"https://dehondsrug.nivon.nl/verhuur/#Kamperen","email":"hondsrug@nivon.nl","name":"De Hondsrug","operator":"NIVON","phone":"+31 88 099 0980","shower":"yes","tents":"yes","toilets":"yes"}},"97058529":{"location":[53.1005856,6.3684794],"ct":"NL","tp":"CS","ts":"2024-08-20T12:54:06Z","tX":530,"tY":333,"tags":{"cabins":"yes","capacity:pitches":"13","caravans":"yes","dog":"yes","email":"evensterk@hotmail.com","name":"Evensterk","phone":"+31 592 656 736","shower":"yes","tents":"yes","toilets":"yes","website":"https://www.evensterk.nl/"}},"97063799":{"location":[53.0670425,6.4557694],"ct":"NL","tp":"CS","ts":"2023-10-29T16:04:56Z","tX":530,"tY":333,"tags":{"addr:city":"Norg","addr:housenumber":"5","addr:postcode":"9331HA","addr:street":"Eenerstraat","camper":"yes","caravans":"yes","contact:email":"info@campingnorg.nl","contact:phone":"+31 592 613 378","contact:website":"https://www.campingnorg.nl/","name":"Camping Het Centrum Norg","tents":"yes"}},"97077317":{"location":[53.0725594,6.6450804],"ct":"NL","tp":"CS","ts":"2021-09-25T14:58:40Z","tX":530,"tY":333,"tags":{"addr:city":"Zeegse","addr:housenumber":"6","addr:postcode":"9483TA","addr:street":"Zeegsersteeg","cabins":"yes","caravans":"yes","email":"info@campingdegroenevalk.nl","name":"De Groene Valk","phone":"+31 6 46655730","tents":"yes","website":"https://www.campingdegroenevalk.nl"}},"97077625":{"location":[53.070816,6.6203375],"ct":"NL","tp":"CS","ts":"2023-05-30T12:16:15Z","tX":530,"tY":333,"tags":{"addr:city":"Tynaarlo","addr:housenumber":"4","addr:postcode":"9482VD","addr:street":"Loopstukkenweg","contact:email":"info@mctgroeneveld.nl","contact:phone":"+31 592 543 199","contact:website":"http://www.mctgroeneveld.nl/","name":"Minicamping 't Groene Veld"}},"98123013":{"location":[53.0359206,6.6088867],"ct":"NL","tp":"CS","ts":"2023-05-30T12:16:15Z","tX":530,"tY":333,"tags":{"addr:city":"Taarlo","addr:housenumber":"13","addr:postcode":"9485TD","addr:street":"Jagerstraat","caravans":"yes","email":"info@appelosfarm.nl","name":"Appelo’s Farm","phone":"+31 592 231 275","tents":"yes","website":"https://www.appelosfarm.nl"}},"98414885":{"location":[52.9656563,6.3536898],"ct":"NL","tp":"CS","ts":"2023-05-30T12:17:27Z","tX":530,"tY":333,"tags":{"addr:city":"Appelscha","addr:housenumber":"5","addr:postcode":"8426HA","addr:street":"Willemstad","contact:email":"H.Drenth9@kpnplanet.nl","contact:phone":"+31 516 431 993","contact:website":"http://www.t-huubje.nl/","name":"Camping 't Huubje","source":"3dShapes"}},"98419812":{"location":[52.9353769,6.488276],"ct":"NL","tp":"CS","ts":"2022-10-20T15:49:51Z","tX":530,"tY":333,"tags":{"addr:city":"Smilde","addr:housenumber":"27","addr:postcode":"9422VA","addr:street":"Suermondsweg","contact:email":"leendert.harm@online.nl","contact:phone":"+31 6 21287643","contact:website":"http://veenhoeve.masmi.nl/","name":"Mini-camping De Veenhoeve (alleen tijdens TT-evenementen)"}},"98579695":{"location":[52.9813329,6.5188567],"ct":"NL","tp":"CS","ts":"2024-04-30T21:53:31Z","tX":530,"tY":333,"tags":{"addr:city":"Assen","addr:housenumber":"9","addr:postcode":"9405VJ","addr:street":"Witterhaar","contact:email":"sseinen@home.nl","contact:phone":"+31 592 350 024","contact:website":"http://www.campingseinen.nl/","name":"Familie Camping Seinen","source":"3dShapes","wheelchair":"limited"}},"98581749":{"location":[52.9385361,6.5121625],"ct":"NL","tp":"CS","ts":"2023-05-30T17:42:00Z","tX":530,"tY":333,"tags":{"addr:city":"Hooghalen","addr:housenumber":"26","addr:postcode":"9414VH","addr:street":"Laaghalerveen","contact:email":"info@hetdrentskwartiertje.nl","contact:fax":"+31 593 592 038","contact:phone":"+31 6 51066141","contact:website":"https://www.hetdrentskwartiertje.nl","name":"Camping Het Drents kwartiertje","source":"3dShapes"}},"98581947":{"location":[52.9816771,6.5144399],"ct":"NL","tp":"CS","ts":"2024-05-03T05:38:54Z","tX":530,"tY":333,"tags":{"addr:city":"Assen","addr:housenumber":"12","addr:postcode":"9405VG","addr:street":"Witterzomer","contact:email":"info@campingdeommekeer.com","contact:phone":"+31 592 350 887","contact:website":"https://campingdeommekeer.com","name":"Camping De Ommekeer","source":"3dShapes","wheelchair":"limited"}},"98582508":{"location":[52.9567635,6.5511126],"ct":"NL","tp":"CS","ts":"2023-05-30T12:16:15Z","tX":530,"tY":333,"tags":{"addr:city":"Assen","addr:housenumber":"26","addr:postcode":"9405TD","addr:street":"Graswijk","contact:email":"info@camping-graswijk.nl","contact:phone":"+31 592 409 276;+31 6 27177799;+31 6 85745179","contact:website":"https://www.camping-graswijk.nl/","name":"Camping Graswijk"}},"98582725":{"location":[52.9790397,6.5208477],"ct":"NL","tp":"CS","ts":"2023-05-30T17:42:00Z","tX":530,"tY":333,"tags":{"addr:city":"Assen","addr:housenumber":"15","addr:postcode":"9405VJ","addr:street":"Witterhaar","contact:email":"pask@planet.nl","contact:phone":"+31 592 354 243","contact:website":"https://www.camping-buitenpret.nl","name":"Camping Buitenpret","source":"3dShapes"}},"98589500":{"location":[52.9411972,6.6046824],"ct":"NL","tp":"CS","ts":"2023-05-30T12:16:16Z","tX":530,"tY":333,"tags":{"addr:city":"Amen","addr:housenumber":"61","addr:postcode":"9446PB","addr:street":"Amen","caravans":"yes","email":"camping@hetamerveld.eu","landuse":"grass","name":"Boerderijcamping Het Amerveld","phone":"+31 592 389 274","source":"3dShapes","tents":"yes","website":"https://www.hetamerveld.nl/"}},"99986340":{"location":[52.9402762,6.6555604],"ct":"NL","tp":"CR","ts":"2024-06-21T11:43:44Z","tX":530,"tY":333,"tags":{"addr:city":"Grolloo","addr:housenumber":"7","addr:postcode":"9444XG","addr:street":"Vredenheimseweg","capacity:caravans":"33","contact:phone":"+31 639866088","internet_access":"wlan","internet_access:fee":"no","name":"Camperpark Hof van Grolloo","power_supply":"yes","sanitary_dump_station":"yes","tents":"yes","toilets":"yes"}},"108555275":{"location":[52.9207423,6.5594435],"ct":"NL","tp":"CS","ts":"2023-05-30T12:16:16Z","tX":530,"tY":333,"tags":{"addr:city":"Hooghalen","addr:housenumber":"5","addr:postcode":"9414TG","addr:street":"Oosthalen","brand":"SVR;ANWB","brand:wikidata":"Q2646455","caravans":"yes","email":"info@campingtikvah.nl","name":"Camping Tikvah","phone":"+31 593 592 097","tents":"yes","website":"https://www.campingtikvah.nl"}},"118337215":{"location":[53.053236,6.4456508],"ct":"NL","tp":"CS","ts":"2023-05-30T12:16:18Z","tX":530,"tY":333,"tags":{"addr:city":"Westervelde","addr:housenumber":"3","addr:postcode":"9337PA","addr:street":"Hoofdweg","email":"jebrandsma@wanadoo.nl","name":"Camping Boschlust","phone":"+31 592 615 859","source":"3dShapes+survey+Bing","website":"http://www.camping-boschlust.nl/"}},"139841662":{"location":[53.1086092,6.5299934],"ct":"NL","tp":"CS","ts":"2023-05-30T12:16:19Z","tX":530,"tY":333,"tags":{"access":"private","addr:city":"Bunne","addr:housenumber":"11","addr:postcode":"9496PG","addr:street":"Noordstukkendrift","barrier":"fence","caravans":"yes","contact:email":"info@lichtbondnoord.nl","contact:phone":"+31 592 559 394","contact:website":"https://www.lichtbondnoord.nl","name":"Naturistencamping De Mierenhoop","nudism":"yes","tents":"yes"}},"161639819":{"location":[52.9116053,6.3881073],"ct":"NL","tp":"CS","ts":"2024-01-21T13:18:24Z","tX":530,"tY":333,"tags":{"addr:city":"Hoogersmilde","addr:housenumber":"2","addr:postcode":"9423TC","addr:street":"Jannes Brugginkweg","email":"drentse-weelde@hubvakantieparken.nl","name":"Vakantiepark Drentse Weelde","operator":"HUB Vakantieparken","phone":"+31 85 114 0000","website":"https://www.drentse-weelde.nl/"}},"168710589":{"location":[53.1091048,6.6765647],"ct":"NL","tp":"CS","ts":"2023-05-30T17:42:02Z","tX":530,"tY":333,"tags":{"addr:city":"Midlaren","addr:housenumber":"50","addr:postcode":"9475TM","addr:street":"Esweg","contact:phone":"+31 50 409 2969","contact:website":"https://www.campingdeappelhof.nl","name":"Minicamping De Appelhof","source":"3dShapes"}},"179846349":{"location":[53.0760479,6.3912568],"ct":"NL","tp":"CS","ts":"2023-05-30T12:16:20Z","tX":530,"tY":333,"tags":{"addr:city":"Een","addr:housenumber":"19","addr:postcode":"9342PB","addr:street":"Hoofdstraat","contact:email":"info@eshoeve.com","contact:phone":"+31 592 656 429","contact:website":"http://www.eshoeve.com/","name":"Mini-camping De Eshoeve","source":"3dShapes"}},"245355063":{"location":[53.0774685,6.4459179],"ct":"NL","tp":"CS","ts":"2023-05-30T12:16:20Z","tX":530,"tY":333,"tags":{"addr:city":"Norg","addr:housenumber":"63","addr:postcode":"9331VA","addr:street":"Langeloërweg","email":"info@norgerberg.nl","name":"De Norgerberg","phone":"+31 592 612 281","website":"https://www.norgerberg.nl/"}},"268165458":{"location":[52.9819569,6.5096131],"ct":"NL","tp":"CS","ts":"2023-05-30T17:42:02Z","tX":530,"tY":333,"tags":{"addr:city":"Assen","addr:housenumber":"14","addr:postcode":"9405VG","addr:street":"Witterzomer","capacity:caravans":"17","caravans":"yes","contact:email":"zomerzicht@gmail.com","contact:phone":"+31 6 83568531","contact:website":"https://www.zomerzicht.nl","name":"Camping Zomerzicht","old_name":"De Bloemenhof","tents":"yes","toilets":"yes","wheelchair":"limited"}},"354567834":{"location":[52.9468084,6.3649422],"ct":"NL","tp":"CS","ts":"2024-09-01T16:27:00Z","tX":530,"tY":333,"tags":{"addr:city":"Appelscha","addr:housenumber":"1","addr:postcode":"8426EP","addr:street":"Alkenhaer","contact:email":"info@campingalkenhaer.nl","contact:phone":"+31 516 432 600","contact:website":"https://www.campingalkenhaer.nl","name":"Camping Alkenhaer"}},"398155796":{"location":[52.9321586,6.5844661],"ct":"NL","tp":"CS","ts":"2023-05-30T12:16:27Z","tX":530,"tY":333,"tags":{"addr:city":"Amen","addr:housenumber":"53","addr:postcode":"9446TE","addr:street":"Amen","cabins":"yes","caravans":"yes","email":"dianaheide@ardoer.com","name":"Vakantiepark Diana Heide","phone":"+31 592 389 297","tents":"yes","website":"https://dianaheide.ardoer.com"}},"401871938":{"location":[52.9933702,6.6263444],"ct":"NL","tp":"CS","ts":"2023-05-30T17:42:06Z","tX":530,"tY":333,"tags":{"addr:city":"Balloo","addr:housenumber":"52","addr:postcode":"9458TC","addr:street":"Balloo","contact:email":"zorgboerderij@deballoohoeve.nl","contact:phone":"+31 592 243 223","contact:website":"https://www.deballoohoeve.nl/camping","name":"Camping de Balloohoeve","outdoor_seating":"yes"}},"403547688":{"location":[52.9907507,6.6781699],"ct":"NL","tp":"CS","ts":"2023-05-30T12:16:27Z","tX":530,"tY":333,"tags":{"addr:city":"Anderen","addr:housenumber":"28","addr:postcode":"9465TR","addr:street":"Nijend","caravans":"yes","email":"info@campingtolhek.nl","name":"Landgoed Tolhek","phone":"+31 592 241 325","tents":"yes","website":"https://campingtolhekdrenthe.nl"}},"466407012":{"location":[52.9920581,6.6423818],"ct":"NL","tp":"CS","ts":"2023-05-30T12:16:27Z","tX":530,"tY":333,"tags":{"addr:city":"Rolde","addr:housenumber":"2","addr:postcode":"9451AK","addr:street":"Balloërstraat","email":"info@deweyert.nl","name":"de Weyert","phone":"+31 592 241 520","website":"https://deweyert.nl"}},"572393080":{"location":[53.0168995,6.4663698],"ct":"NL","tp":"CS","ts":"2023-11-15T13:41:21Z","tX":530,"tY":333,"tags":{"brand":"SVR","caravans":"yes","contact:email":"schuilingvredeveld@gmail.com","contact:phone":"+31 592 388 269","contact:website":"http://www.campingdeschuilhoeve.nl/","name":"De Schuilhoeve","operator":"Familie A. Schuiling","shower":"yes","tents":"yes","toilets":"yes"}},"642712160":{"location":[53.0739489,6.4581785],"ct":"NL","tp":"CS","ts":"2024-03-25T22:27:00Z","tX":530,"tY":333,"tags":{"addr:city":"Norg","addr:housenumber":"12","addr:postcode":"9331AC","addr:street":"Kerkpad","cabins":"yes","caravans":"yes","email":"info@bosparknorg.nl","name":"Bospark Langeloërduinen","phone":"+31 592 612 770","shower":"yes","tents":"yes","toilets":"yes","website":"https://www.bosparknorg.nl/"}},"675504437":{"location":[52.9409465,6.6623236],"ct":"NL","tp":"CS","ts":"2023-05-30T12:16:29Z","tX":530,"tY":333,"tags":{"addr:city":"Grolloo","addr:housenumber":"15","addr:postcode":"9444XE","addr:street":"De Pol","cabins":"yes","caravans":"yes","email":"info@berenkuil.nl","name":"Landgoed De Berenkuil","phone":"+31 592 501 242","tents":"yes","toilets:wheelchair":"yes","website":"https://www.berenkuil.nl","wheelchair":"yes"}},"683489804":{"location":[52.9205794,6.4116063],"ct":"NL","tp":"CS","ts":"2023-05-30T12:16:29Z","tX":530,"tY":333,"tags":{"addr:city":"Smilde","addr:housenumber":"112","addr:postcode":"9422CH","addr:street":"Rijksweg","caravans":"yes","contact:email":"info@wolvenhoeve.nl","contact:phone":"+31 592 415 464;+31 6 23692387","contact:website":"https://www.wolvenhoeve.nl/","name":"Minicamping De Wolvenhoeve","tents":"yes"}},"769707957":{"location":[53.0972359,6.6608543],"ct":"NL","tp":"CS","ts":"2023-05-30T12:16:31Z","tX":530,"tY":333,"tags":{"addr:city":"Zuidlaren","addr:housenumber":"33a","addr:postcode":"9471PA","addr:street":"Tienelsweg","caravans":"yes","email":"campingdetimp@live.nl","name":"Camping De Timp","phone":"+31 50 409 1862","tents":"yes","website":"https://www.campingdetimp.nl/"}},"769730964":{"location":[53.0989285,6.6589895],"ct":"NL","tp":"CS","ts":"2023-05-30T12:16:31Z","tX":530,"tY":333,"tags":{"addr:city":"Zuidlaren","addr:housenumber":"35","addr:postcode":"9471PA","addr:street":"Tienelsweg","caravans":"yes","email":"tienelsheem@kpnmail.nl","name":"Camping Tienelsheem","phone":"+31 50 409 1838","tents":"yes","website":"https://www.tienelsheem.nl"}},"896252059":{"location":[53.0825016,6.5618819],"ct":"NL","tp":"CS","ts":"2023-05-30T12:16:34Z","tX":530,"tY":333,"tags":{"contact:phone":"+31 592 543 625","name":"Camping De Eswal"}},"904731590":{"location":[52.9122486,6.5380685],"ct":"NL","tp":"CS","ts":"2022-05-23T19:26:05Z","tX":530,"tY":333,"tags":{"name":"Camping De Eikenhorst"}},"908858075":{"location":[52.9760833,6.5039632],"ct":"NL","tp":"CS","ts":"2023-05-30T12:16:35Z","tX":530,"tY":333,"tags":{"addr:city":"Assen","addr:housenumber":"7","addr:postcode":"9405VE","addr:street":"Witterzomer","cabins":"yes","caravans":"yes","email":"info@witterzomer.nl","name":"Vakantiepark Witterzomer","phone":"+31 592 393 535","tents":"yes","website":"https://www.witterzomer.nl"}},"952053740":{"location":[53.0786394,6.6632632],"ct":"NL","tp":"CS","ts":"2024-06-24T08:35:03Z","tX":530,"tY":333,"tags":{"addr:city":"Schipborg","addr:housenumber":"2a","addr:postcode":"9469PL","addr:street":"Zeegserweg","cabins":"yes","caravans":"yes","contact:fax":"+31 50 409 1489","contact:phone":"+31 50 409 1489","contact:website":"https://www.devledders.nl/","email":"info@devledders.nl","motorhome":"yes","name":"De Vledders","shower":"yes","static_caravans":"yes","tents":"yes","toilets":"yes"}},"957471151":{"location":[52.9603254,6.5278789],"ct":"NL","tp":"CR","ts":"2021-06-23T10:18:31Z","tX":530,"tY":333,"tags":{"access":"private"}},"961461223":{"location":[52.9195184,6.5264109],"ct":"NL","tp":"CS","ts":"2023-05-30T12:16:36Z","tX":530,"tY":333,"tags":{"addr:city":"Hooghalen","addr:housenumber":"7","addr:postcode":"9414VL","addr:street":"De Streek","camp_site":"serviced","caravans":"yes","drinking_water":"yes","email":"minicamping@devogelpoel.nl","fee":"yes","internet_access":"wlan","name":"De Vogelpoel","phone":"+31 593 592 945","sanitary_dump_station":"yes","source":"http://devogelpoel.nl","tents":"yes","website":"https://devogelpoel.nl"}},"971334368":{"location":[53.0984095,6.373553],"ct":"NL","tp":"CS","ts":"2024-07-09T22:16:17Z","tX":530,"tY":333,"tags":{}},"1120879923":{"location":[53.1138853,6.4048411],"ct":"NL","tp":"CS","ts":"2023-05-05T20:01:56Z","tX":530,"tY":333,"tags":{"brand":"SVR","caravans":"yes","contact:email":"info@campingopstruun.nl","contact:phone":"+31 6 49841145","contact:website":"https://campingopstruun.nl/","internet_access":"yes","internet_access:fee":"no","name":"Camping op Struun","nudism":"no","shower":"yes","tents":"yes","toilets":"yes"}},"1131763749":{"location":[53.0739298,6.4472911],"ct":"NL","tp":"CR","ts":"2023-07-06T00:39:19Z","tX":530,"tY":333,"tags":{"name":"Camperplaats Norgerberg"}},"1158273639":{"location":[52.9786333,6.5181911],"ct":"NL","tp":"CS","ts":"2023-05-30T17:42:10Z","tX":530,"tY":333,"tags":{"addr:city":"Assen","addr:housenumber":"12","addr:postcode":"9405VK","addr:street":"Witterhaar","caravans":"yes","contact:email":"info@minicampingdegouberville.nl","contact:phone":"+31 592 353 028","contact:website":"https://minicampingdegouberville.nl","motorhome":"yes","name":"De Gouberville","shower":"yes","tents":"yes","toilets":"yes"}},"1199797481":{"location":[52.9367383,6.5098003],"ct":"NL","tp":"CS","ts":"2023-08-19T13:45:08Z","tX":530,"tY":333,"tags":{"addr:city":"Hooghalen","addr:housenumber":"23","addr:postcode":"9414VH","addr:street":"Laaghalerveen","capacity:motorhomes":"6","capacity:pitches":"20","capacity:tents":"5","caravans":"yes","contact:email":"info@laaghalerveld.nl","contact:phone":"+31 6 13949774","contact:website":"https://www.laaghalerveld.nl/","motorhome":"yes","name":"Natuurkampeerterrein Laaghalerveld","old_name":"Thyencamp","shower":"yes","tents":"yes","toilets":"yes"}},"1300536614":{"location":[52.9733217,6.3469202],"ct":"NL","tp":"CR","ts":"2024-07-10T13:30:23Z","tX":530,"tY":333,"tags":{"name":"Camperplaats De Flint","website":"https://www.campercampingdeflint.nl"}},"2860017097":{"location":[52.9213673,6.3446287],"ct":"NL","tp":"CS","ts":"2021-09-21T19:31:19Z","tX":530,"tY":333,"tags":{"addr:city":"Appelscha","addr:housenumber":"3","addr:postcode":"8426SM","addr:street":"Oude Willem","name":"Boscamping Appelscha","website":"https://boscampingappelscha.nl/"}},"5680125825":{"location":[52.9558607,6.5234537],"ct":"NL","tp":"CS","ts":"2020-07-01T18:01:07Z","tX":530,"tY":333,"tags":{"addr:street":"De Haar","name:en":"Assen TT Circuit Camp Site"}},"8409167466":{"location":[52.9738112,6.5317824],"ct":"NL","tp":"CS","ts":"2022-06-27T11:47:10Z","tX":530,"tY":333,"tags":{"addr:city":"Assen","addr:housenumber":"1","addr:postcode":"9405TH","addr:street":"Witterbroek","name":"TT camping Jan en Bertha"}},"12041635175":{"location":[53.0980309,6.3745551],"ct":"NL","tp":"CS","ts":"2024-07-09T22:16:17Z","tX":530,"tY":333,"tags":{"addr:city":"Een","addr:housenumber":"16","addr:postcode":"9342TC","addr:street":"Amerika","bin":"yes","cabins":"yes","caravans":"yes","dog":"leashed","email":"info@ronostrand.nl","fee":"yes","internet_access":"wlan","motorhome":"yes","name":"Camping Ronostrand","nudism":"no","permanent_camping":"yes","phone":"+31 592 656 206","power_supply":"yes","reservation":"yes","shower":"yes","static_caravans":"yes","tents":"yes","toilets":"yes","website":"https://www.ronostrand.nl"}},"5143761774":{"location":[53.000259,6.5763668],"ct":"NL","tp":"CR","ts":"2023-07-14T22:57:38Z","tX":530,"tY":333,"tags":{"caravan_site:type":"parking_lot","charge":"€14.80","fee":"yes","name":"Parking Havenkade","power_supply":"yes","sanitary_dump_station":"no"}},"10844521683":{"location":[53.0775689,6.4479652],"ct":"NL","tp":"CR","ts":"2023-04-26T19:02:05Z","tX":530,"tY":333,"tags":{"name":"Receptie Camping De Norgerberg"}},"6925323932":{"location":[52.9383591,6.6662092],"ct":"NL","tp":"SD","ts":"2019-10-28T19:07:31Z","tX":530,"tY":333,"tags":{"access":"customers","operator":"Landgoed De Berenkuil","water_point":"yes"}},"6927705036":{"location":[53.0797535,6.6648757],"ct":"NL","tp":"SD","ts":"2019-10-29T16:20:18Z","tX":530,"tY":333,"tags":{"water_point":"yes"}},"7756922996":{"location":[52.9205483,6.5589465],"ct":"NL","tp":"SD","ts":"2020-07-27T14:58:41Z","tX":530,"tY":333,"tags":{"access":"customers","fee":"no","operator":"Camping Tikvah","sanitary_dump_station:round_drain":"yes"}}}