{"12286080":{"location":[52.8836225,6.608052],"ct":"NL","tp":"CS","ts":"2023-07-03T20:51:08Z","tX":530,"tY":334,"tags":{"brand":"SVR","cabins":"yes","capacity:pitches":"18","caravans":"yes","contact:email":"info@puurnatuurlijkcamping.nl","contact:mobile":"+31 6 80156967","contact:website":"https://puurnatuurlijkcamping.nl/","internet_access":"wlan","internet_access:fee":"no","motorhome":"yes","name":"Camping Puur Natuurlijk","opening_hours":"Mar 24 - Oct 31","shower":"yes","tents":"yes","toilets":"yes"}},"52714819":{"location":[52.8386262,6.4777807],"ct":"NL","tp":"CS","ts":"2023-05-30T17:41:59Z","tX":530,"tY":334,"tags":{"brand":"SVR","caravans":"yes","landcover":"grass","name":"Zwaluwlust","phone":"+31 593 522 852","shower":"yes","tents":"yes","toilets":"yes","website":"https://www.campingzwaluwlust.nl"}},"88109096":{"location":[52.6973587,6.3570544],"ct":"NL","tp":"CS","ts":"2023-06-13T05:52:47Z","tX":530,"tY":334,"tags":{"addr:city":"Koekange","addr:housenumber":"1","addr:postcode":"7958PT","addr:street":"Panjerdweg","caravans":"yes","contact:mobile":"+31 6 10169227","contact:phone":"+31 522 451 817","contact:website":"https://www.morenehoeve.com/","name":"Minicamping De Moréne Hoeve","operator":"Coby van Dijk","source":"3dShapes","tents":"yes"}},"89160512":{"location":[52.7243527,6.6675818],"ct":"NL","tp":"CS","ts":"2023-07-23T20:09:45Z","tX":530,"tY":334,"tags":{"addr:city":"Zwinderen","addr:housenumber":"20A","addr:postcode":"7864TL","addr:street":"Toldijk","cabins":"yes","capacity:pitches":"44","caravans":"yes","landcover":"grass","mobile":"+31 6 27181318","motorhome":"yes","name":"Zwinderen","opening_hours":"Apr 1 - Oct 31","phone":"+31 524 291 680","shower":"yes","swimming_pool":"yes","tents":"yes","toilets":"yes","website":"https://www.campingzwinderen.nl/"}},"89710270":{"location":[52.7524866,6.516049],"ct":"NL","tp":"CS","ts":"2023-05-31T14:39:46Z","tX":530,"tY":334,"tags":{"addr:city":"Stuifzand","addr:housenumber":"26","addr:postcode":"7934TB","addr:street":"Siberië","contact:email":"info@campingdezandgaten.nl","contact:phone":"+31 528 331 447","contact:website":"https://www.campingdezandgaten.nl","designation":"Wifi available","name":"mini-camping De Zandgaten"}},"89846293":{"location":[52.7613903,6.3847925],"ct":"NL","tp":"CS","ts":"2022-03-08T22:57:15Z","tX":530,"tY":334,"tags":{"addr:city":"Ruinen","addr:housenumber":"15","addr:postcode":"7963PM","addr:street":"Achterma","caravans":"yes","email":"info@campingdeberghoeve.nl","name":"Camping De Berghoeve","phone":"+31 6 10968633","tents":"yes","website":"https://www.campingdeberghoeve.nl"}},"89846677":{"location":[52.7246815,6.4196751],"ct":"NL","tp":"CS","ts":"2023-05-30T12:16:13Z","tX":530,"tY":334,"tags":{"addr:city":"Fluitenberg","addr:housenumber":"94","addr:postcode":"7931TC","addr:street":"Fluitenbergseweg","alt_name":"Boerderijcamping Sonneclaer","caravans":"yes","drinking_water":"yes","email":"info@sonneclaer.nl","name":"Hoeve Sonneclaer","phone":"+31 528 251 451","power_supply":"no","shower":"yes","tents":"yes","toilets":"yes","website":"https://sonneclaer.nl"}},"89848234":{"location":[52.7762525,6.5583601],"ct":"NL","tp":"CS","ts":"2024-04-25T06:50:02Z","tX":530,"tY":334,"tags":{"source":"3dShapes"}},"89848714":{"location":[52.7137393,6.36714],"ct":"NL","tp":"CS","ts":"2023-05-30T12:16:13Z","tX":530,"tY":334,"tags":{"addr:city":"Koekange","addr:housenumber":"12","addr:postcode":"7958PW","addr:street":"Koekangerveldweg","caravans":"yes","email":"info@campingdetol.nl","name":"De Tol","phone":"+31 528 251 270","tents":"yes","website":"https://www.campingdetol.nl"}},"89848847":{"location":[52.775024,6.5581382],"ct":"NL","tp":"CS","ts":"2024-04-25T06:50:02Z","tX":530,"tY":334,"tags":{"source":"3dShapes"}},"89848982":{"location":[52.8160544,6.5036615],"ct":"NL","tp":"CS","ts":"2022-03-14T23:56:40Z","tX":530,"tY":334,"tags":{"caravans":"yes","contact:email":"minicampingwestenenk@outlook.com","contact:mobile":"+31 6 11953010","contact:website":"http://campingwestenenk.nl/","name":"Camping Westenenk","tents":"yes"}},"89849301":{"location":[52.811212,6.5233542],"ct":"NL","tp":"CS","ts":"2024-05-12T14:34:40Z","tX":530,"tY":334,"tags":{"description":"SVR campsite","name":"Camping Wyshorne","source":"3dShapes","website":"http://www.camping-wyshorne.nl/"}},"89849976":{"location":[52.7755644,6.5595789],"ct":"NL","tp":"CS","ts":"2024-04-25T06:50:02Z","tX":530,"tY":334,"tags":{"source":"3dShapes"}},"89865473":{"location":[52.8021117,6.4859021],"ct":"NL","tp":"CS","ts":"2023-04-24T19:17:32Z","tX":530,"tY":334,"tags":{"addr:city":"Wijster","addr:housenumber":"9","addr:postcode":"9418TP","addr:street":"Grondselweg","caravans":"yes","contact:email":"camping@zorg-en-vrij.nl","contact:mobile":"+31 6 45917752","contact:website":"https://zorg-en-vrij.nl/","name":"Minicamping Zorg-en-Vrij","shower":"yes","tents":"yes","toilets":"yes"}},"107317617":{"location":[52.900763,6.4815587],"ct":"NL","tp":"CS","ts":"2023-08-01T08:01:36Z","tX":530,"tY":334,"tags":{"caravans":"yes","email":"minicampinghethijkerveld@gmail.com","landcover":"grass","name":"'T Hijkerveld","opening_hours":"Apr 1 - Oct 15","phone":"+31 593 525 210;+31 6 48631320","shower":"yes","tents":"yes","toilets":"yes","website":"https://www.minicampinghethijkerveld.nl/"}},"107319243":{"location":[52.8808956,6.4423904],"ct":"NL","tp":"CS","ts":"2023-05-30T12:16:16Z","tX":530,"tY":334,"tags":{"addr:city":"Beilen","addr:housenumber":"10","addr:postcode":"9411VP","addr:street":"Vorrelveen","cabins":"yes","caravans":"yes","email":"info@campingvorrelveen.nl","name":"Camping Vorrelveen","phone":"+31 593 527 261","tents":"yes","website":"https://campingvorrelveen.nl"}},"107319577":{"location":[52.888264,6.4621217],"ct":"NL","tp":"CS","ts":"2023-06-17T06:33:31Z","tX":530,"tY":334,"tags":{"addr:city":"Hijken","addr:housenumber":"13","addr:postcode":"9415TE","addr:street":"Vorrelveenseweg","capacity:pitches":"15","caravans":"yes","contact:phone":"+31 593 523 568","contact:website":"https://www.detuinfluiter.nl","name":"Minicamping De Tuinfluiter","shower":"yes","tents":"yes","toilets":"yes"}},"107514275":{"location":[52.8209225,6.3914947],"ct":"NL","tp":"CS","ts":"2023-05-30T12:16:17Z","tX":530,"tY":334,"tags":{"addr:city":"Dwingeloo","addr:housenumber":"1","addr:postcode":"7991PD","addr:street":"Oude Hoogeveensedijk","caravans":"yes","email":"info@oldebargen.nl","name":"De Olde Bârgen","phone":"+31 521 597 261","tents":"yes","website":"https://www.oldebargen.nl/"}},"107514740":{"location":[52.8712557,6.4677801],"ct":"NL","tp":"CS","ts":"2023-05-30T12:16:16Z","tX":530,"tY":334,"tags":{"addr:city":"Beilen","addr:housenumber":"6","addr:postcode":"9411VJ","addr:street":"Brunstingerveld","caravans":"yes","contact:email":"info@campingdevennen.com","contact:phone":"+31 593 526 213","contact:website":"https://campingdevennen.com/","internet_access":"yes","internet_access:fee":"no","name":"Camping De Vennen","tents":"yes"}},"107516226":{"location":[52.8337423,6.3841918],"ct":"NL","tp":"CS","ts":"2023-01-03T20:54:48Z","tX":530,"tY":334,"tags":{"addr:city":"Dwingeloo","addr:housenumber":"1","addr:postcode":"7991PE","addr:street":"Lhee","caravans":"yes","name":"Boerderijcamping Doortenshof","operator":"Koop Doorten","tents":"yes"}},"107517238":{"location":[52.8199918,6.4850784],"ct":"NL","tp":"CS","ts":"2023-05-30T12:16:16Z","tX":530,"tY":334,"tags":{"addr:city":"Spier","addr:housenumber":"17","addr:postcode":"9417TD","addr:street":"Wijsterseweg","cabins":"yes","caravans":"yes","email":"info@bosrand-spier.nl","name":"Camping De Bosrand","phone":"+31 593 562 354","source":"3dShapes;survey","tents":"yes","website":"https://www.bosrand-spier.nl"}},"107517370":{"location":[52.8270905,6.3684046],"ct":"NL","tp":"CS","ts":"2023-08-18T20:24:15Z","tX":530,"tY":334,"tags":{"email":"info@manegededrift.nl","landcover":"grass","name":"Drift","phone":"+31 521 592 625","shower":"yes","static_caravans":"yes","tents":"yes","toilets":"yes","website":"https://www.manegededrift.nl/"}},"108565244":{"location":[52.842983,6.514621],"ct":"NL","tp":"CS","ts":"2024-07-29T20:45:40Z","tX":530,"tY":334,"tags":{"source":"3dShapes"}},"108578165":{"location":[52.869978,6.6382193],"ct":"NL","tp":"CS","ts":"2023-06-13T05:52:47Z","tX":530,"tY":334,"tags":{"brand":"SVR","caravans":"yes","contact:email":"info@kastanjehoeve.info","contact:mobile":"+31 6 25506992","contact:phone":"+31 593 346 408","contact:website":"https://kastanjehoeve.info/","contact:whatsapp":"+31 6 25506992","internet_access":"wlan","internet_access:fee":"no","name":"Kastanjehoeve","operator":"Fam. Pepping","shower":"yes","tents":"yes","toilets":"yes"}},"116544900":{"location":[52.8762239,6.6132897],"ct":"NL","tp":"CS","ts":"2024-08-21T18:00:48Z","tX":530,"tY":334,"tags":{"addr:city":"Zwiggelte","addr:housenumber":"5","addr:postcode":"9433TJ","addr:street":"Elperweg","caravans":"yes","email":"info@campingmiddendrenthe.nl","internet_access":"wlan","internet_access:fee":"no","name":"Camping Midden Drenthe","phone":"+31 593 370 022","tents":"yes","website":"https://campingmiddendrenthe.nl"}},"136831734":{"location":[52.8650408,6.3514074],"ct":"NL","tp":"CS","ts":"2023-05-30T12:16:19Z","tX":530,"tY":334,"tags":{"addr:city":"Diever","addr:housenumber":"13","addr:postcode":"7981LA","addr:street":"Groningerweg","cabins":"yes","caravans":"yes","email":"info@wildryck.nl","name":"Landgoed 't Wildryck","operator":"Roompot","phone":"+31 521 591 207","tents":"yes","website":"https://www.landgoedwildryck.nl"}},"158437051":{"location":[52.7994031,6.5213854],"ct":"NL","tp":"CS","ts":"2023-05-30T12:16:19Z","tX":530,"tY":334,"tags":{"addr:city":"Wijster","addr:housenumber":"36a","addr:postcode":"9418TL","addr:street":"Drijberseweg","caravans":"yes","email":"info@otterberg.nl","name":"Camping Otterberg","phone":"+31 593 562 362","tents":"yes","website":"https://otterberg.nl"}},"346566748":{"location":[52.774653,6.3685223],"ct":"NL","tp":"CS","ts":"2024-07-13T17:18:07Z","tX":530,"tY":334,"tags":{"addr:city":"Ruinen","addr:housenumber":"11","addr:postcode":"7963PX","addr:street":"Oude Benderseweg","cabins":"yes","caravans":"yes","contact:website":"https://www.europarcs.nl/vakantieparken/nederland/drenthe/ruinen","email":"info@landclubruinen.nl","name":"EuroParcs Ruinen","shower":"yes","tents":"yes","toilets":"yes","website":"https://www.europarcs.nl/vakantieparken/nederland/drenthe/ruinen"}},"346566753":{"location":[52.7838467,6.3685128],"ct":"NL","tp":"CS","ts":"2023-11-22T20:08:40Z","tX":530,"tY":334,"tags":{"addr:city":"Ruinen","addr:housenumber":"2","addr:postcode":"7963RB","addr:street":"Witteveen","cabins":"yes","caravans":"yes","contact:email":"info@dewiltzangh-ruinen.nl","contact:fax":"+31 522 472 178","contact:phone":"+31 522 471 227","contact:website":"https://www.europarcs.nl/vakantieparken/nederland/drenthe/de-wiltzangh","email":"receptie@dewiltzangh-ruinen.nl","name":"De Wiltzangh","operator":"Europarcs","phone":"+31 522 471 227","shower":"yes","tents":"yes","toilets":"yes","website":"https://www.dewiltzangh-ruinen.nl"}},"353519732":{"location":[52.8183018,6.3599187],"ct":"NL","tp":"CS","ts":"2024-08-02T10:40:17Z","tX":530,"tY":334,"tags":{"addr:city":"Dwingeloo","addr:housenumber":"1","addr:postcode":"7991SE","addr:street":"Leeuweriksveldweg","caravans":"yes","contact:email":"info@torentjeshoek.nl","contact:phone":"+31 521 591 706","contact:website":"https://www.torentjeshoek.nl","drinking_water":"yes","impromptu":"no","name":"De Torentjeshoek","shower":"yes","stars":"3","tents":"yes","website":"https://www.torentjeshoek.nl"}},"389608499":{"location":[52.8424946,6.4959619],"ct":"NL","tp":"CS","ts":"2023-05-30T12:16:26Z","tX":530,"tY":334,"tags":{"addr:city":"Beilen","addr:housenumber":"23","addr:postcode":"9411TS","addr:street":"Smalbroek","capacity":"15","caravans":"yes","email":"info@smalbroekerhout.nl","fee":"yes","name":"Camping 't Smalbroekerhout","phone":"+31 593 522 037","tents":"yes","website":"https://www.smalbroekerhout.nl"}},"391791987":{"location":[52.8459608,6.5315867],"ct":"NL","tp":"CS","ts":"2024-02-15T19:54:30Z","tX":530,"tY":334,"tags":{"addr:city":"Beilen","addr:housenumber":"42","addr:postcode":"9411TK","addr:street":"Makkum","caravans":"yes","fee":"yes","name":"Camping de Molenhorst","note":"Wifi-netwerk","operator":"fam. van der Zwan","tents":"yes","website":"https://www.campingdemolenhorst.nl"}},"392601548":{"location":[52.7599023,6.5511868],"ct":"NL","tp":"CS","ts":"2023-05-30T12:16:26Z","tX":530,"tY":334,"tags":{"addr:city":"Tiendeveen","addr:housenumber":"15","addr:postcode":"7936TN","addr:street":"Kanaal Oostzijde","contact:email":"info@campingdebeukenhof.com","contact:phone":"+31 528 331 246","name":"De Beukenhof","website":"https://www.campingdebeukenhof.com/"}},"392684345":{"location":[52.7423418,6.5551502],"ct":"NL","tp":"CS","ts":"2023-07-17T17:58:15Z","tX":530,"tY":334,"tags":{"addr:city":"Tiendeveen","addr:housenumber":"8","addr:postcode":"7936TS","addr:street":"Hoogeveenseweg","brand":"Vekabo","cabins":"yes","capacity:pitches":"25","caravans":"yes","email":"info@minicampingdebulte.nl","mobile":"+31 6 20686557;+31 6 54343572","name":"De Bulte","opening_hours":"Apr 1 - Sep 30","phone":"+31 528 344 000","shower":"yes","tents":"yes","toilets":"yes","website":"https://www.minicampingdebulte.nl"}},"431568223":{"location":[52.81861,6.4810375],"ct":"NL","tp":"CS","ts":"2022-05-28T09:33:59Z","tX":530,"tY":334,"tags":{"addr:city":"Spier","addr:housenumber":"9","addr:postcode":"9417TD","addr:street":"Wijsterseweg","cabins":"yes","caravans":"yes","email":"info@vakantiecentrumsonnevanck.nl","name":"Vakantiecentrum Sonnevanck","phone":"+31 593 562 214","tents":"yes","website":"https://www.vakantiecentrumsonnevanck.nl"}},"439008518":{"location":[52.7437301,6.3561514],"ct":"NL","tp":"CS","ts":"2023-05-30T12:16:27Z","tX":530,"tY":334,"tags":{"addr:city":"Ruinen","addr:housenumber":"9","addr:postcode":"7963PA","addr:street":"Hees","capacity":"25","email":"g.klomp@deweidenbos.nl","name":"De Weidenbos","operator":"Gerrit & Bertha Klomp","phone":"+31 522 471 706","website":"http://www.deweidenbos.nl"}},"519946111":{"location":[52.7994152,6.6122528],"ct":"NL","tp":"CS","ts":"2023-05-30T12:16:28Z","tX":530,"tY":334,"tags":{"addr:city":"Mantinge","addr:housenumber":"1","addr:postcode":"9436PN","addr:street":"Mantingerdijk","caravans":"yes","email":"info@hetveentieshof.nl","name":"Het Veentieshof","phone":"+31 593 552 289","tents":"yes","website":"https://hetveentieshof.nl"}},"519946114":{"location":[52.7911572,6.5977756],"ct":"NL","tp":"CS","ts":"2024-03-24T17:20:42Z","tX":530,"tY":334,"tags":{"addr:city":"Mantinge","addr:housenumber":"26","addr:postcode":"9436PM","addr:street":"Steendervalsweg","caravans":"yes","email":"info@geuzenbos.nl","name":"Het Geuzenbos","phone":"+31 593 552 082","tents":"yes","website":"https://www.geuzenbos.nl"}},"706928761":{"location":[52.7711931,6.4822488],"ct":"NL","tp":"CS","ts":"2023-11-09T06:46:07Z","tX":530,"tY":334,"tags":{"addr:city":"Pesse","addr:housenumber":"51","addr:postcode":"7933TM","addr:street":"Oostering","email":"info@oosterweide.nl","landuse":"grass","name":"Camping De Oosterweide","phone":"+31 528 242 678","source":"3dShapes","website":"https://www.oosterweide.nl/"}},"707073274":{"location":[52.8179436,6.6624615],"ct":"NL","tp":"CS","ts":"2023-05-30T12:16:30Z","tX":530,"tY":334,"tags":{"addr:city":"Witteveen","addr:housenumber":"31","addr:postcode":"9439TD","addr:street":"Mr. J.B. Kanweg","caravans":"yes","email":"info@campingbuitenwereld.nl","name":"Camping Buitenwereld","phone":"+31 593 566 712;+31 6 47436313","shower":"yes","tents":"yes","toilets":"yes","website":"https://www.campingbuitenwereld.nl"}},"721293933":{"location":[52.7896085,6.3394569],"ct":"NL","tp":"CS","ts":"2023-11-30T22:38:52Z","tX":530,"tY":334,"tags":{"addr:city":"Ansen","addr:housenumber":"26","addr:postcode":"7964KK","addr:street":"Dwingelerweg","email":"info@plaggenhut.nl","name":"d'Olde Kamp","phone":"+31 522 471 691","source":"BAG","source:date":"2014-03-24","website":"https://www.plaggenhut.nl"}},"738488298":{"location":[52.7173373,6.5347679],"ct":"NL","tp":"CS","ts":"2023-08-27T08:31:19Z","tX":530,"tY":334,"tags":{"capacity:pitches":"25","caravans":"yes","landcover":"grass","name":"Krakeel","shower":"yes","tents":"yes","toilets":"yes","website":"http://www.woltinge-media.nl/"}},"740010322":{"location":[52.7081712,6.5897894],"ct":"NL","tp":"CS","ts":"2024-06-04T14:18:13Z","tX":530,"tY":334,"tags":{"name":"Camping Hollandscheveld"}},"820194956":{"location":[52.8418827,6.4879486],"ct":"NL","tp":"CS","ts":"2023-05-30T17:42:09Z","tX":530,"tY":334,"tags":{"addr:city":"Beilen","addr:housenumber":"30","addr:postcode":"9411TV","addr:street":"Smalbroek","contact:phone":"+31 6 22821743","contact:website":"https://www.campingsmalbroek.com","name":"Camping Smalbroek","source":"3dShapes"}},"848173462":{"location":[52.7263869,6.6223094],"ct":"NL","tp":"CS","ts":"2021-07-31T13:33:32Z","tX":530,"tY":334,"tags":{"addr:city":"Geesbrug","addr:housenumber":"24a","addr:postcode":"7917PR","addr:street":"Coevorderstraatweg","brand":"ANWB","caravans":"yes","email":"info@drentsheerlijk.nl","name":"Drentsheerlijk","phone":"+31 6 15394416","tents":"yes","website":"https://drentsheerlijk.nl"}},"877819546":{"location":[52.8686741,6.3645932],"ct":"NL","tp":"CS","ts":"2023-07-03T20:42:24Z","tX":530,"tY":334,"tags":{"addr:city":"Dwingeloo","addr:housenumber":"7","addr:postcode":"7991TE","addr:street":"Het Lot","capacity:pitches":"25","caravans":"yes","contact:email":"annelies@haarsluis.nl","contact:phone":"+31 521 591 348","contact:website":"https://www.haarsluis.nl/","name":"Camping De Haarsluis","shower":"yes","tents":"yes","toilets":"yes"}},"896282976":{"location":[52.8409619,6.4666996],"ct":"NL","tp":"CS","ts":"2023-05-30T12:16:34Z","tX":530,"tY":334,"tags":{"addr:city":"Beilen","addr:housenumber":"46","addr:postcode":"9411TV","addr:street":"Smalbroek","email":"info@camping-boszicht.nl","name":"Camping Boszicht","phone":"+31 593 522 334","website":"https://camping-boszicht.nl"}},"896489434":{"location":[52.8284748,6.4789564],"ct":"NL","tp":"CS","ts":"2023-10-15T19:46:29Z","tX":530,"tY":334,"tags":{"addr:city":"Spier","addr:housenumber":"20","addr:postcode":"9417TB","addr:street":"Moraineweg","caravans":"yes","name":"Camping De Moraine","phone":"+31 593 562 317","tents":"yes","website":"https://campingmoraine.nl"}},"897864849":{"location":[52.7960695,6.6315836],"ct":"NL","tp":"CS","ts":"2024-09-04T20:37:29Z","tX":530,"tY":334,"tags":{"addr:city":"Mantinge","addr:housenumber":"8","addr:postcode":"9436PN","addr:street":"Mantingerdijk","cabins":"yes","caravans":"yes","email":"alles@voscheheugte.nl","name":"Voscheheugte","phone":"+31 593 232 132","tents":"yes","website":"https://www.voscheheugte.nl/nl/Natuurkampeerterrein"}},"949041105":{"location":[52.7783818,6.3365607],"ct":"NL","tp":"CS","ts":"2024-06-26T20:05:36Z","tX":530,"tY":334,"tags":{"addr:city":"Ansen","addr:housenumber":"7","addr:postcode":"7964KT","addr:street":"Om de Kamp","caravans":"yes","email":"tneuvertje@gmail.com","name":"Mini-Camping 't Neuvertje","phone":"+31 522 472 481","tents":"yes","website":"https://tneuvertje.nl/"}},"957036926":{"location":[52.8194297,6.3727361],"ct":"NL","tp":"CS","ts":"2024-08-01T12:46:26Z","tX":530,"tY":334,"tags":{"addr:city":"Dwingeloo","addr:housenumber":"9","addr:postcode":"7991PA","addr:street":"Bosrand","caravans":"yes","email":"info@camping-de-bosrand.nl","name":"De Bosrand","phone":"+31 521 597 270","tents":"yes","website":"https://camping-de-bosrand.nl"}},"961463258":{"location":[52.9023804,6.6793264],"ct":"NL","tp":"CS","ts":"2023-08-01T08:01:36Z","tX":530,"tY":334,"tags":{"addr:city":"Schoonloo","addr:housenumber":"16","addr:postcode":"9443TL","addr:street":"Elperstraat","brand":"SVR","cabins":"yes","capacity:cabins":"2","capacity:pitches":"58","caravans":"yes","email":"info@elperhof.nl","fee":"yes","internet_access":"yes","motorhome":"yes","name":"Camping Elperhof","old_name":"Buiten Gewoon","payment:cards":"yes","payment:cash":"yes","phone":"+31 6 44377688","power_supply":"yes","shower":"yes","tents":"yes","toilets":"yes","website":"https://www.elperhof.nl/"}},"964294661":{"location":[52.8141256,6.3786718],"ct":"NL","tp":"CS","ts":"2021-07-14T12:42:17Z","tX":530,"tY":334,"tags":{"addr:city":"Dwingeloo","addr:housenumber":"105","addr:postcode":"7991PB","addr:street":"De Noordster","cabins":"yes","caravans":"yes","name":"RCN De Noordster","operator":"RCN","tents":"yes","toilets:wheelchair":"yes","website":"https://www.rcn.nl/nl/vakantieparken/nederland/drenthe/rcn-de-noordster","wheelchair":"yes"}},"967754964":{"location":[52.8440004,6.4265391],"ct":"NL","tp":"CS","ts":"2023-05-30T12:16:36Z","tX":530,"tY":334,"tags":{"addr:city":"Dwingeloo","addr:housenumber":"33","addr:postcode":"7991PM","addr:street":"Lheebroek","caravans":"yes","email":"info@meistershof.nl","impromptu":"no","name":"De Meistershof","phone":"+31 521 597 278","stars":"4","tents":"yes","website":"https://www.meistershof.nl"}},"968793542":{"location":[52.7755644,6.5592561],"ct":"NL","tp":"CS","ts":"2024-04-12T12:23:37Z","tX":530,"tY":334,"tags":{"addr:city":"Drijber","addr:housenumber":"19","addr:postcode":"9419TK","addr:street":"Kanaal Oostzijde","brand":"SVR","cabins":"yes","caravans":"yes","email":"info@camping-drenthe.nl","motorhome":"yes","name":"Camping de Stal","operator":"Fam van Vliet","phone":"+31 528 331 326","shower":"yes","tents":"yes","toilets":"yes","website":"https://www.camping-drenthe.nl"}},"970901987":{"location":[52.8319822,6.6086398],"ct":"NL","tp":"CS","ts":"2021-08-06T13:00:14Z","tX":530,"tY":334,"tags":{"addr:city":"Eursinge","addr:housenumber":"2","addr:postcode":"9434TG","addr:street":"Stroetenweg","caravans":"yes","email":"info@destroetenhof.nl","name":"Minicamping De Stroetenhof","phone":"+31 6 55783978","tents":"yes","website":"https://www.destroetenhof.nl"}},"973261963":{"location":[52.8493007,6.400664],"ct":"NL","tp":"CS","ts":"2023-05-30T17:42:10Z","tX":530,"tY":334,"tags":{"addr:city":"Dwingeloo","addr:housenumber":"9","addr:postcode":"7991PN","addr:street":"Holtien","caravans":"yes","email":"dwingelderhof@live.nl","name":"Camping Dwingelderhof","nudism":"designated","operator":"commercial","phone":"+31 521 591 800","tents":"yes","website":"https://www.camping-dwingelderhof.nl"}},"985728341":{"location":[52.7226527,6.5603358],"ct":"NL","tp":"CS","ts":"2025-01-27T22:43:13Z","tX":530,"tY":334,"tags":{"addr:city":"Nieuweroord","addr:housenumber":"6","addr:postcode":"7911TM","addr:street":"Trambaan","caravans":"yes","description":"50+ camping","email":"minicamping-schonewille@outlook.com","name":"Camping De Groene Halte","phone":"+31 528 354 929","tents":"yes","website":"https://www.campingdegroenehalte.nl/"}},"985748875":{"location":[52.7482633,6.3673498],"ct":"NL","tp":"CS","ts":"2023-05-30T12:16:36Z","tX":530,"tY":334,"tags":{"addr:city":"Ruinen","addr:housenumber":"30","addr:postcode":"7963PB","addr:street":"Hees","caravans":"yes","email":"info@niezinghoeve.nl","name":"Niezinghoeve","phone":"+31 522 472 422","tents":"yes","website":"https://niezinghoeve.nl"}},"987129555":{"location":[52.707896,6.5899957],"ct":"NL","tp":"CS","ts":"2021-09-26T13:19:35Z","tX":530,"tY":334,"tags":{"addr:city":"Hollandscheveld","addr:housenumber":"5","addr:postcode":"7913VW","addr:street":"Jan Kreeftweg","caravans":"yes","email":"info@campinghollandscheveld.nl","name":"Camping Hollandscheveld","phone":"+31 6 22229442","tents":"yes","website":"http://www.campinghollandscheveld.nl"}},"989911777":{"location":[52.8157115,6.3663165],"ct":"NL","tp":"CS","ts":"2024-08-01T12:14:02Z","tX":530,"tY":334,"tags":{"addr:city":"Dwingeloo","addr:housenumber":"6","addr:postcode":"7991SC","addr:street":"Anserpad","caravans":"no","internet_access":"no","internet_access:fee":"no","name":"Scouting Labelterrein Dwingeloo","phone":"+31 521 591 430","scout":"yes","tents":"yes","website":"https://dwingeloo.scouting.nl"}},"1002691115":{"location":[52.8923571,6.4951807],"ct":"NL","tp":"CS","ts":"2021-12-14T16:17:13Z","tX":530,"tY":334,"tags":{"addr:city":"Hijken","addr:housenumber":"27","addr:postcode":"9415PG","addr:street":"Westeinde","email":"info@campinghoevewelgelegen.nl","name":"Hoeve Welgelegen","phone":"+31 6 13096075","website":"https://www.campinghoevewelgelegen.nl"}},"1040389666":{"location":[52.8009913,6.489368],"ct":"NL","tp":"CR","ts":"2025-01-24T13:31:18Z","tX":530,"tY":334,"tags":{"addr:city":"Wijster","addr:postcode":"9418TP","addr:street":"Grondselweg","caravan_site":"motorhome_stopover","caravan_site:type":"countryside","charge":"10.10 EUR","contact:email":"info@grondsels.nl","contact:mobile":"+31 6 49996314;+31 6 22903449","fee":"yes","name":"Camperplaats Grondsel","operator":"Jan de Morrée en Janetta Sikken","power_supply":"yes","power_supply:charge":"3 EUR","power_supply:fee":"yes","website":"https://grondsels.nl/camperplaats/"}},"1126774887":{"location":[52.6984911,6.3819618],"ct":"NL","tp":"CS","ts":"2023-06-13T05:52:47Z","tX":530,"tY":334,"tags":{"addr:city":"Echten","addr:housenumber":"24","addr:postcode":"7932PX","addr:street":"Oshaarseweg","caravans":"yes","contact:email":"info@westerbergen.nl","contact:mobile":"+31 6 20652020","contact:phone":"+31 528 251 224","contact:website":"https://www.westerbergen.nl","internet_access":"yes","internet_access:fee":"yes","name":"Vakantiepark Westerbergen","tents":"yes"}},"1191578517":{"location":[52.8210211,6.4094521],"ct":"NL","tp":"CS","ts":"2025-04-04T20:42:35Z","tX":530,"tY":334,"tags":{"addr:city":"Dwingeloo","addr:housenumber":"2a","addr:postcode":"7991NG","addr:street":"Achter 't Zaand","area":"yes","contact:email":"lheederzand@staatsbosbeheer.nl","contact:phone":"+31 30 697 7749","contact:website":"https://www.logerenbijdeboswachter.nl/natuurkampeerterreinen/lheederzand","name":"Kampeerterrein Lheederzand","website":"https://www.logerenbijdeboswachter.nl/natuurkampeerterreinen/lheederzand"}},"1193013346":{"location":[52.8432948,6.5089184],"ct":"NL","tp":"CS","ts":"2023-07-28T19:43:54Z","tX":530,"tY":334,"tags":{"caravans":"yes","email":"minicampingbeilerhorst@gmail.com","landcover":"grass","name":"Beilerhorst","phone":"+31 6 50562277","shower":"yes","start_date":"2016","tents":"yes","toilets":"yes","website":"https://www.beilerhorst.nl/"}},"1205400205":{"location":[52.8501699,6.5898261],"ct":"NL","tp":"CS","ts":"2023-09-06T06:05:46Z","tX":530,"tY":334,"tags":{"caravans":"yes","email":"info@landgoedborkerheide.nl","motorhome":"yes","name":"Landgoed Börkerheide","opening_hours":"Apr 01 - Sep 30","phone":"+31 593 331 546","shower":"yes","tents":"yes","toilets":"yes","website":"https://www.landgoedborkerheide.nl"}},"1241632486":{"location":[52.9032987,6.3774133],"ct":"NL","tp":"CS","ts":"2024-01-21T13:18:24Z","tX":530,"tY":334,"tags":{"addr:city":"Hoogersmilde","addr:housenumber":"23","addr:postcode":"9423TA","addr:street":"Bosweg","contact:email":"info@reeenwissel.nl","contact:phone":"+31 592 459 356","contact:website":"https://www.reeenwissel.nl/","name":"Camping de Reeënwissel","toilets:wheelchair":"yes","wheelchair":"yes"}},"1267098711":{"location":[52.7050289,6.5520007],"ct":"NL","tp":"CS","ts":"2024-03-28T12:24:25Z","tX":530,"tY":334,"tags":{"name":"De Eikenhof"}},"1274761730":{"location":[52.7755081,6.5578463],"ct":"NL","tp":"CS","ts":"2024-04-25T06:50:02Z","tX":530,"tY":334,"tags":{"source":"3dShapes"}},"1353950694":{"location":[52.8284575,6.3900132],"ct":"NL","tp":"CR","ts":"2025-01-24T13:37:54Z","tX":530,"tY":334,"tags":{"addr:city":"Dwingeloo","addr:housenumber":"78","addr:postcode":"7991PJ","addr:street":"Lhee","bicycle_rental":"yes","capacity":"84","car_rental":"yes","caravan_site":"motorhome_stopover","caravan_site:type":"countryside","charge":"23.50 EUR","check_out":"11:00","dog":"leashed","dog:fee":"no","fee":"yes","internet_access":"wlan","laundry":"yes","name":"Camperparc Stee in Lhee","phone":"+31 6 51431747","power_supply":"yes","power_supply:fee":"no","power_supply:maxcurrent":"16","reentry":"yes","reservation":"yes","sanitary_dump_station":"yes","sauna":"yes","shower":"yes","website":"https://www.steeinlhee.nl"}},"1385914564":{"location":[52.7774065,6.4121911],"ct":"NL","tp":"CS","ts":"2025-05-12T19:10:04Z","tX":530,"tY":334,"tags":{"access":"private","addr:city":"Ruinen","addr:housenumber":"12","addr:postcode":"7963PZ","addr:street":"Anholt","camp_site":"basic","caravans":"no","fee":"no","name":"Berka","operator":"Helios","static_caravans":"no","tents":"yes"}},"2279126623":{"location":[52.8418099,6.6034415],"ct":"NL","tp":"CS","ts":"2023-05-07T15:40:41Z","tX":530,"tY":334,"tags":{"addr:city":"Eursinge","addr:housenumber":"2","addr:postcode":"9434TA","addr:street":"Walakkers","name":"minicamping Aan den Esch"}},"6239417088":{"location":[52.8431034,6.5132436],"ct":"NL","tp":"CS","ts":"2023-05-27T18:09:50Z","tX":530,"tY":334,"tags":{"addr:city":"Beilen","addr:housenumber":"21","addr:postcode":"9411TR","addr:street":"Terhorst","email":"info@minicampingterhorst.nl","internet_access":"wlan","name":"minicamping Terhorst","opening_hours":"Mo-Sa 00:00-24:00","phone":"+31 6 50737382","website":"https://minicampingterhorst.nl"}},"6918661386":{"location":[52.7008864,6.5421902],"ct":"NL","tp":"CS","ts":"2024-09-17T01:56:34Z","tX":530,"tY":334,"tags":{"caravans":"yes","email":"info@oosterweide.nl","name":"Minicamping De Oosterweide","phone":"+31 6 52670709","tents":"yes","website":"https://www.oosterweide.nl/"}},"6928613672":{"location":[52.7081951,6.5748713],"ct":"NL","tp":"CS","ts":"2023-05-28T20:16:13Z","tX":530,"tY":334,"tags":{"addr:city":"Hollandscheveld","addr:country":"NL","addr:housenumber":"15a","addr:postcode":"7913VX","addr:street":"Meerboomweg","caravans":"yes","contact:mobile":"+31 6 41411125","email":"info@campingtussendewieken.nl","name":"Camping Tussen De Wieken","phone":"+31 528 341 448","shower":"yes","tents":"yes","toilets":"yes","website":"https://www.campingtussendewieken.nl/"}},"9900651843":{"location":[52.7051054,6.5516688],"ct":"NL","tp":"CS","ts":"2022-07-20T21:28:19Z","tX":530,"tY":334,"tags":{"addr:city":"Hollandscheveld","addr:housenumber":"56","addr:postcode":"7913VK","addr:street":"Rechtuit","name":"De Eikenhof"}},"11074036767":{"location":[52.8860576,6.5948998],"ct":"NL","tp":"CS","ts":"2023-08-01T08:01:36Z","tX":530,"tY":334,"tags":{"cabins":"yes","capacity:pitches":"5","caravans":"yes","email":"thoefijzer@outlook.com","name":"'T Hoefijzer","opening_hours":"Apr 1 - Oct 30","phone":"+31 6 11802896;+31 6 53846657","shower":"yes","tents":"yes","toilets":"yes","website":"https://www.thoefijzer.info/minicamping/"}},"11391671479":{"location":[52.7281318,6.4802756],"ct":"NL","tp":"CS","ts":"2023-12-03T11:17:27Z","tX":530,"tY":334,"tags":{"caravans":"yes","name":"Camperplaats Hoogeveen"}},"8068407865":{"location":[52.8291162,6.3902751],"ct":"NL","tp":"CR","ts":"2023-05-26T08:26:20Z","tX":530,"tY":334,"tags":{"addr:city":"Dwingeloo","addr:housenumber":"78","addr:postcode":"7991PJ","addr:street":"Lhee","dog":"yes","fee":"yes","internet_access":"wlan","name":"Camperparc Stee in Lhee","phone":"+31 6 51431747","power_supply":"yes","sanitary_dump_station":"yes","website":"https://www.steeinlhee.nl"}}}