{"15694536":{"location":[52.6743543,6.5569003],"ct":"NL","tp":"CS","ts":"2023-05-30T12:16:38Z","tX":530,"tY":335,"tags":{"addr:city":"Elim","addr:housenumber":"6","addr:postcode":"7916TJ","addr:street":"Jeulenwijk","caravans":"yes","email":"deknotwilg@hotmail.com","name":"De Knotwilg","phone":"+31 528 361 229","shower":"yes","tents":"yes","toilets":"yes","website":"https://www.campingdeknotwilg.nl"}},"16141062":{"location":[52.5218689,6.3435175],"ct":"NL","tp":"CS","ts":"2023-07-29T19:50:05Z","tX":530,"tY":335,"tags":{"caravans":"yes","email":"info@kemminckhorst.nl","landcover":"grass","mobile":"+31 6 15646380","name":"Kemminckhorst","phone":"+31 529 471 537","shower":"yes","tents":"yes","toilets":"yes","website":"https://www.kemminckhorst.nl/"}},"26859331":{"location":[52.558333,6.5875],"ct":"NL","tp":"CS","ts":"2019-12-13T11:43:36Z","tX":530,"tY":335,"tags":{"name":"De Zandstuve","website":"https://www.zandstuve.nl/"}},"72899888":{"location":[52.6908271,6.4408971],"ct":"NL","tp":"CS","ts":"2023-05-30T12:16:12Z","tX":530,"tY":335,"tags":{"addr:city":"Zuidwolde","addr:housenumber":"5","addr:postcode":"7921VA","addr:street":"Ten Arlo","cabins":"yes","caravans":"yes","email":"info@debulte.nl","internet_access":"no","name":"Kampeerterrein De Bulte","phone":"+31 528 371 730","tents":"yes","website":"https://debulte.nl"}},"86832802":{"location":[52.5241326,6.3376048],"ct":"NL","tp":"CS","ts":"2023-07-29T19:59:18Z","tX":530,"tY":335,"tags":{"caravans":"yes","email":"campingdestuwe@gmail.com","landcover":"grass","name":"De Stuwe","phone":"+31 529 471 309","short_description":"Camping De Stuwe is een prachtige camping nabij Oudleusen tussen Dalfsen en Ommen in het Overijsselse Vechtdal. De camping ligt op 50 meter van de stuw en de naam De Stuwe spreekt dan ook voor zich. M","shower":"yes","tents":"yes","toilets":"yes","website":"https://www.campingdestuwe.nl/"}},"87567255":{"location":[52.5233964,6.5443526],"ct":"NL","tp":"CS","ts":"2022-05-14T04:31:54Z","tX":530,"tY":335,"tags":{"access":"private","addr:city":"Diffelen","addr:housenumber":"9b","addr:postcode":"7795DG","addr:street":"Grote Esweg","contact:email":"hardenberg@ncc.nl","contact:website":"https://www.ncc.nl/terreinen/hardenberg-de-rolle","name":"NCC Terrein De Rolle","operator":"Nederlandse Caravan Club"}},"87571044":{"location":[52.5342148,6.56329],"ct":"NL","tp":"CS","ts":"2023-05-30T21:25:48Z","tX":530,"tY":335,"tags":{"addr:city":"Diffelen","addr:housenumber":"123","addr:postcode":"7795DB","addr:street":"Rheezerweg","contact:email":"info@deklashorst.nl","contact:phone":"+31 6 13231326","contact:website":"https://www.campingdeklashorst.nl","name":"Natuurkampeerterrein De Klashorst","operator":"Staatsbosbeheer"}},"87594717":{"location":[52.4869598,6.418268],"ct":"NL","tp":"CS","ts":"2023-05-30T12:23:53Z","tX":530,"tY":335,"tags":{"addr:city":"Giethmen","addr:housenumber":"2","addr:postcode":"8147RB","addr:street":"Dalmsholterweg","email":"info@voshuus.nl","landuse":"grass","name":"'t Voshuus","phone":"+31 529 451 671","website":"https://www.voshuus.nl"}},"87600483":{"location":[52.4887408,6.4250253],"ct":"NL","tp":"CS","ts":"2023-10-24T14:00:44Z","tX":530,"tY":335,"tags":{"addr:city":"Ommen","addr:housenumber":"15","addr:postcode":"7731PR","addr:street":"Lemelerweg","brand":"SVR","capacity:pitches":"30","caravans":"yes","contact:email":"info@nieuwe-brug.nl","contact:phone":"+31 529 451 096","contact:website":"https://www.groepsaccommodatienieuwebrug.nl/camping-ommen/","name":"de Nieuwe Brug","shower":"yes","tents":"yes","toilets":"yes"}},"87612356":{"location":[52.5893396,6.6698803],"ct":"NL","tp":"CS","ts":"2023-08-11T20:56:46Z","tX":530,"tY":335,"tags":{"caravans":"yes","email":"info@deroskamp.nl","landcover":"grass","name":"De Roskamp","phone":"+31 524 561 664","shower":"yes","tents":"yes","toilets":"yes","website":"https://www.deroskamp.nl/"}},"87615035":{"location":[52.5262321,6.3670613],"ct":"NL","tp":"CS","ts":"2023-05-30T21:25:39Z","tX":530,"tY":335,"tags":{"name":"Camping De Hoogenkamp","website":"https://www.dehoogenkamp.nl"}},"87616331":{"location":[52.5360627,6.3834155],"ct":"NL","tp":"CS","ts":"2024-04-23T11:04:04Z","tX":530,"tY":335,"tags":{"addr:city":"Ommen","addr:housenumber":"14","addr:postcode":"7731RP","addr:street":"Emslandweg","caravans":"yes","contact:facebook":"https://www.facebook.com/varsenerveld","email":"boerderijcamping@varsenerveld.nl","internet_access":"wlan","internet_access:fee":"no","landcover":"grass","motorhome":"yes","name":"Het Varsenerveld","phone":"+31 6 21983895","shower":"yes","tents":"yes","toilets":"yes","website":"https://www.varsenerveld.nl"}},"87678883":{"location":[52.5810469,6.5690473],"ct":"NL","tp":"CS","ts":"2015-10-22T07:17:06Z","tX":530,"tY":335,"tags":{"name":"De Fjordenhof","source":"3dShapes"}},"87679442":{"location":[52.5554473,6.591679],"ct":"NL","tp":"CS","ts":"2023-05-06T07:42:48Z","tX":530,"tY":335,"tags":{"brand":"SVR","capacity:pitches":"20","caravans":"yes","contact:mobile":"+31 6 22135812","email":"info@familieveurink.nl","landcover":"grass","name":"Familie Veurink","opening_hours":"Mar 15 - Nov 01","phone":"+31 523 262 315","tents":"yes","website":"https://www.familieveurink.nl/"}},"87681133":{"location":[52.5545021,6.5827604],"ct":"NL","tp":"CS","ts":"2023-08-25T20:25:25Z","tX":530,"tY":335,"tags":{"brand":"SVR","capacity:pitches":"28","caravans":"yes","email":"info@de-esrandrheeze.nl","internet_access":"wlan","internet_access:fee":"no","landcover":"grass","name":"De Esrand","opening_hours":"Apr 1 - Oct 15","phone":"+31 523 231 177","shower":"yes","start_date":"1992","tents":"yes","toilets":"yes","website":"https://www.de-esrandrheeze.nl"}},"87937429":{"location":[52.6095913,6.515902],"ct":"NL","tp":"CS","ts":"2023-05-30T12:23:53Z","tX":530,"tY":335,"tags":{"email":"info@campingdedemsvaart.nl","name":"Camping Dedemsvaart","phone":"+31 523 617 103","website":"https://www.campingdedemsvaart.nl"}},"87953196":{"location":[52.6720098,6.6753083],"ct":"NL","tp":"CS","ts":"2023-08-01T08:01:36Z","tX":530,"tY":335,"tags":{"cabins":"yes","caravans":"yes","email":"info@minicampingestella.nl","landcover":"grass","name":"Estella","phone":"+31 6 12026445;+31 6 19431562","shower":"yes","tents":"yes","toilets":"yes","website":"https://www.minicampingestella.nl/"}},"87956206":{"location":[52.6587901,6.6693146],"ct":"NL","tp":"CS","ts":"2024-06-24T08:35:03Z","tX":530,"tY":335,"tags":{"cabins":"yes","capacity:pitches":"12","caravans":"yes","email":"info@campingklaverhoeve.com","internet_access":"wlan","landcover":"grass","mobile":"+31 6 17456562","name":"De Klaverhoeve","opening_hours":"Apr 1 - Oct 1","phone":"+31 524 572 124","shower":"yes","tents":"yes","toilets":"yes","website":"https://www.campingklaverhoeve.com"}},"87975822":{"location":[52.6891194,6.5955373],"ct":"NL","tp":"CS","ts":"2022-08-01T17:02:28Z","tX":530,"tY":335,"tags":{"addr:city":"Elim","addr:housenumber":"111","addr:postcode":"7916VB","addr:street":"Brouwerswijk","capacity":"25","caravans":"yes","description":"Navigation hint:  Brouwerswijk via Tuindersweg!","email":"info@buitenplaatsdrenthe.nl","internet_access":"yes","internet_access:fee":"no","name":"Buitenplaats Drenthe","nudism":"no","phone":"+31 6 28330774","reservation":"yes","source":"3dShapes+survey+Bing","tents":"yes","website":"https://www.buitenplaatsdrenthe.nl/","wheelchair":"limited"}},"87976586":{"location":[52.6915562,6.5908893],"ct":"NL","tp":"CS","ts":"2024-04-16T08:15:19Z","tX":530,"tY":335,"tags":{"brand":"SVR","capacity:cabins":"4","capacity:pitches":"60","caravans":"yes","description":"Aanrijdadvies via Tuinderswijk","email":"info@svrcampingboslust.nl","internet_access":"yes","internet_access:fee":"no","mobile":"+31 6 54977100","name":"SVR Camping Boslust","phone":"+31 528 351 748","shower":"yes","tents":"yes","toilets":"yes","website":"https://www.svrcampingboslust.nl"}},"88018514":{"location":[52.6754514,6.5647246],"ct":"NL","tp":"CS","ts":"2023-12-13T12:26:36Z","tX":530,"tY":335,"tags":{"addr:city":"Elim","addr:housenumber":"10","addr:postcode":"7916VK","addr:street":"Brandligtswijk","caravans":"yes","contact:mobile":"+31 6 82866251;+31 6 13717783","contact:website":"http://www.myry.nl/","name":"Camping MYRY","operator":"Jille en Henny Wedzinga","tents":"yes"}},"88018953":{"location":[52.6743214,6.5393873],"ct":"NL","tp":"CS","ts":"2023-08-26T21:57:48Z","tX":530,"tY":335,"tags":{"cabins":"yes","capacity:cabins":"1","capacity:pitches":"38","capacity:static_caravans":"1","caravans":"yes","email":"info@camping-nieuwmoscou.nl","name":"Nieuw Moscou","nudism":"designated","phone":"+31 528 361 408","shower":"yes","swimming_pool":"yes","tents":"yes","toilets":"yes","website":"https://camping-nieuwmoscou.nl/naturisten-camping/"}},"88063390":{"location":[52.6614467,6.4298573],"ct":"NL","tp":"CR","ts":"2023-08-19T18:03:23Z","tX":530,"tY":335,"tags":{"access":"private","capacity:caravans":"42","email":"zuidwolde@caravanclub.nl","name":"De Krententerp","operator":"Nederlandse Caravan Club","phone":"+31 528 372 847","shower":"yes","toilets":"yes","website":"https://www.ncc.nl/terreinen/zuidwolde-de-krententerp/"}},"352395210":{"location":[52.5048811,6.4106575],"ct":"NL","tp":"CS","ts":"2023-05-30T12:24:01Z","tX":530,"tY":335,"tags":{"addr:city":"Ommen","addr:housenumber":"15","addr:postcode":"7731AP","addr:street":"Wolfskuil","name":"De Wolfskuil","phone":"+31 529 451 631","website":"https://www.wolfskuil.nl/"}},"385914016":{"location":[52.6200534,6.5719216],"ct":"NL","tp":"CS","ts":"2023-05-30T12:24:02Z","tX":530,"tY":335,"tags":{"addr:city":"Slagharen","addr:housenumber":"37","addr:postcode":"7776PB","addr:street":"Zwarte Dijk","name":"Attractie- & Vakantiepark Slagharen","phone":"+31 523 683 000","website":"https://www.slagharen.com/nl/camping"}},"387825815":{"location":[52.564267,6.5561547],"ct":"NL","tp":"CS","ts":"2023-05-30T12:24:02Z","tX":530,"tY":335,"tags":{"addr:city":"Rheezerveen","addr:housenumber":"27","addr:postcode":"7797RD","addr:street":"Ommerweg","email":"camping@deklimberg.nl","name":"Camping De Klimberg","phone":"+31 523 261 955","website":"https://www.deklimberg.nl"}},"391300818":{"location":[52.6105807,6.3681445],"ct":"NL","tp":"CS","ts":"2023-05-30T21:25:42Z","tX":530,"tY":335,"tags":{"addr:city":"Balkbrug","addr:housenumber":"5","addr:postcode":"7707PK","addr:street":"De Haar","contact:email":"info@reestdal.nl","contact:phone":"+31 523 656 232","contact:website":"https://www.reestdal.nl","name":"Camping 't Reestdal"}},"391300830":{"location":[52.6084219,6.3682562],"ct":"NL","tp":"CS","ts":"2023-05-30T12:24:02Z","tX":530,"tY":335,"tags":{"addr:city":"Balkbrug","addr:housenumber":"7","addr:postcode":"7707PK","addr:street":"De Haar","contact:email":"info@si-es-an.nl","contact:phone":"+31 523 656 534","contact:website":"https://www.si-es-an.nl/","name":"Si-Es-An"}},"481887770":{"location":[52.5367042,6.5683947],"ct":"NL","tp":"CS","ts":"2023-05-30T21:25:42Z","tX":530,"tY":335,"tags":{"brand":"SVR","capacity:pitches":"18","caravans":"yes","contact:email":"info@dekleve.nl","contact:phone":"+31 523 237 834","contact:website":"https://dekleve.nl","name":"De Kleve","shower":"yes","tents":"yes","toilets":"yes"}},"481887781":{"location":[52.5346297,6.5694599],"ct":"NL","tp":"CS","ts":"2023-05-30T12:24:04Z","tX":530,"tY":335,"tags":{"addr:city":"Diffelen","addr:housenumber":"76","addr:postcode":"7795DA","addr:street":"Rheezerweg","email":"info@devechtvallei.nl","name":"De Vechtvallei","phone":"+31 523 251 800","source":"http://www.de-vechtvallei.nl/","website":"https://de-vechtvallei.nl","wheelchair":"yes"}},"481887784":{"location":[52.5216124,6.5601519],"ct":"NL","tp":"CS","ts":"2023-05-30T21:25:42Z","tX":530,"tY":335,"tags":{"addr:city":"Diffelen","addr:housenumber":"13","addr:postcode":"7795DD","addr:street":"Grote Esweg","contact:email":"info@hetscholtemeijer.nl","contact:phone":"+31 6 33192880","contact:website":"https://www.hetscholtemeijer.nl","name":"Boerencamping Het Scholtemeijer"}},"481887787":{"location":[52.5299873,6.591169],"ct":"NL","tp":"CS","ts":"2023-12-20T16:03:01Z","tX":530,"tY":335,"tags":{"addr:city":"Bergentheim","addr:housenumber":"1","addr:postcode":"7691PJ","addr:street":"Mölinksweg","cabins":"no","caravans":"no","contact:email":"info@schottinck.nl","contact:phone":"+31 523 232 482","contact:website":"https://www.schottinck.nl","motorhome":"yes","name":"Minicamping Schöttinck","tents":"no"}},"483109681":{"location":[52.6104586,6.5109537],"ct":"NL","tp":"CS","ts":"2023-05-30T12:24:05Z","tX":530,"tY":335,"tags":{"addr:city":"Dedemsvaart","addr:housenumber":"186","addr:postcode":"7701BK","addr:street":"Rheezerend","contact:email":"glouwdijk@home.nl","contact:phone":"+31 523 612 818","contact:website":"http://louwdijkminicamping.nl/","name":"Mini camping Het Rheezerend"}},"483109719":{"location":[52.5841896,6.5352907],"ct":"NL","tp":"CS","ts":"2023-05-30T12:24:04Z","tX":530,"tY":335,"tags":{"contact:phone":"+31 523 638 260","contact:website":"https://www.stoetenslagh.nl/","name":"Het Stoetenslagh"}},"545575600":{"location":[52.4937975,6.5128025],"ct":"NL","tp":"CS","ts":"2023-05-30T12:24:06Z","tX":530,"tY":335,"tags":{"addr:city":"Ommen","addr:housenumber":"8","addr:postcode":"7731TV","addr:street":"Nieuwe Hammerweg","caravans":"yes","email":"camping@devogelsangh.nl","name":"Camping De Vogelsangh","phone":"+31 546 673 080","tents":"yes","website":"https://www.campingdevogelsangh.nl"}},"545677732":{"location":[52.5172441,6.4073431],"ct":"NL","tp":"CS","ts":"2023-09-24T10:09:47Z","tX":530,"tY":335,"tags":{"addr:city":"Ommen","addr:housenumber":"1","addr:postcode":"7731PW","addr:street":"Steenoever","caravans":"yes","contact:website":"https://www.camping-annahoeve.nl","internet_access":"wlan","name":"Camping Anna' s Hoeve","name:nl":"Camping Anna' s Hoeve","shower":"yes","tents":"yes","toilets":"yes"}},"545677742":{"location":[52.5169557,6.4126354],"ct":"NL","tp":"CS","ts":"2024-05-11T06:19:59Z","tX":530,"tY":335,"tags":{"addr:city":"Ommen","addr:housenumber":"13","addr:postcode":"7731BC","addr:street":"Zwolseweg","caravans":"yes","email":"info@koeksebelt.nl","name":"Camping de Koeksebelt","phone":"+31 529 451 378","shower":"yes","tents":"yes","toilets":"yes","website":"https://koeksebelt.nl/"}},"545677747":{"location":[52.4886611,6.4119878],"ct":"NL","tp":"CS","ts":"2023-07-01T17:24:16Z","tX":530,"tY":335,"tags":{"addr:city":"Giethmen","addr:housenumber":"4","addr:postcode":"8147RB","addr:street":"Dalmsholterweg","cabins":"yes","caravans":"yes","contact:email":"info@bergzicht.nl","contact:phone":"+31 529 451 208","contact:website":"https://www.bergzicht.nl/","internet_access":"wlan","internet_access:fee":"no","name":"Bergzicht","shower":"yes","static_caravans":"yes","tents":"yes","toilets":"yes"}},"545677748":{"location":[52.5032717,6.4426068],"ct":"NL","tp":"CS","ts":"2024-08-04T20:10:20Z","tX":530,"tY":335,"tags":{"addr:city":"Ommen","addr:housenumber":"1","addr:postcode":"7731PB","addr:street":"Besthemerberg","caravans":"yes","email":"info@ommerland.nl","name":"Camping Ommerland","phone":"+31 529 451 362","tents":"yes","website":"https://www.ommerland.nl/"}},"629606779":{"location":[52.6341405,6.66547],"ct":"NL","tp":"CS","ts":"2023-05-30T12:24:06Z","tX":530,"tY":335,"tags":{"addr:city":"Anerveen","addr:housenumber":"33","addr:postcode":"7788AG","addr:street":"Anerveenseweg","capacity":"15","caravans":"yes","contact:email":"info@eikenzoom.nl","contact:phone":"+31 6 20111023","contact:website":"https://eikenzoom.nl/","internet_access":"yes","internet_access:fee":"no","name":"Minicamping De Eikenzoom","short_name":"De Eikenzoom","shower":"yes","tents":"yes","toilets":"yes"}},"911311033":{"location":[52.6712814,6.5452177],"ct":"NL","tp":"CS","ts":"2023-05-30T12:16:35Z","tX":530,"tY":335,"tags":{"addr:city":"Elim","addr:housenumber":"1","addr:postcode":"7916TG","addr:street":"Groot Hendrikswijk","caravans":"yes","contact:email":"info@hendrikswijkje.nl","contact:phone":"+31 528 362 418","contact:website":"https://hendrikswijkje.nl/","name":"Familiecamping Hendriks Wijkje","tents":"yes"}},"914204284":{"location":[52.6332259,6.4225425],"ct":"NL","tp":"CS","ts":"2024-06-24T08:35:03Z","tX":530,"tY":335,"tags":{"brand":"SVR","cabins":"yes","capacity:pitches":"14","caravans":"yes","contact:email":"info@achtertkoeienpad.nl","contact:mobile":"+31 6 43520521","contact:phone":"+31 523 656 286","contact:website":"https://www.achtertkoeienpad.nl/","motorhome":"yes","name":"Achter 't Koeienpad","shower":"yes","tents":"yes","toilets":"yes"}},"931118391":{"location":[52.5088875,6.3840405],"ct":"NL","tp":"CR","ts":"2023-05-17T10:53:37Z","tX":530,"tY":335,"tags":{"caravans":"yes","name":"Camping Laarbrug","opening_hours":"Mar 15-Nov 1","phone":"+31 6 51352137","static_caravans":"yes","website":"https://www.campinglaarbrug.nl/"}},"952746023":{"location":[52.5180244,6.3636332],"ct":"NL","tp":"CS","ts":"2023-05-30T12:24:10Z","tX":530,"tY":335,"tags":{"addr:city":"Ommen","addr:housenumber":"3a","addr:postcode":"7731RC","addr:street":"Arendhorsterweg","cabins":"yes","caravans":"yes","email":"info@arendshorst.nl","name":"Resort de Arendshorst","phone":"+31 529 453 248","tents":"yes","website":"https://arendshorst.nl"}},"977968526":{"location":[52.5121847,6.5505472],"ct":"NL","tp":"CS","ts":"2023-12-20T19:36:53Z","tX":530,"tY":335,"tags":{"addr:city":"Beerze","addr:housenumber":"1","addr:postcode":"7736PK","addr:street":"Kampweg","caravans":"yes","contact:email":"info@beerzebulten.nl","contact:phone":"+31 523 251 398","contact:website":"https://www.beerzebulten.nl/","name":"Beerze Bulten","tents":"yes"}},"1075098976":{"location":[52.5750984,6.5695069],"ct":"NL","tp":"CS","ts":"2023-08-10T21:20:02Z","tX":530,"tY":335,"tags":{"cabins":"yes","caravans":"yes","email":"receptie@rheezerwold.nl","motorhome":"yes","name":"Vakantiepark 't Rheezerwold","operator":"Ardoer","phone":"+31 523 264 595","shower":"yes","static_caravans":"yes","tents":"yes","toilets":"yes","website":"https://www.rheezerwold.nl/"}},"1083538510":{"location":[52.5082069,6.3361154],"ct":"NL","tp":"CS","ts":"2024-08-16T10:46:22Z","tX":530,"tY":335,"tags":{"addr:city":"Dalfsen","addr:housenumber":"15","addr:postcode":"7722HS","addr:street":"Tolhuisweg","caravans":"yes","contact:email":"info@campingdemoat.nl","contact:phone":"+31 6 12420689","contact:website":"https://campingdemoat.nl/","name":"Minicamping De Moat","tents":"yes"}},"1149476960":{"location":[52.5330032,6.3881501],"ct":"NL","tp":"CS","ts":"2023-02-25T18:21:22Z","tX":530,"tY":335,"tags":{"caravans":"yes","name":"Mini camping Boszicht","tents":"yes","website":"https://www.boszichtommen.nl/"}},"1158555501":{"location":[52.6170746,6.5669158],"ct":"NL","tp":"SD","ts":"2023-03-30T22:17:28Z","tX":530,"tY":335,"tags":{"fee":"yes","sanitary_dump_station:chemical_toilet":"yes","sanitary_dump_station:gravity":"yes","sanitary_dump_station:grey_water":"yes","water_point":"yes"}},"1158555502":{"location":[52.6174776,6.5670154],"ct":"NL","tp":"CR","ts":"2023-05-30T12:24:12Z","tX":530,"tY":335,"tags":{"addr:city":"Lutten","addr:housenumber":"46","addr:postcode":"7775PC","addr:street":"Zwarte Dijk","capacity":"15","charge":"20€","email":"info@bembomhoeve.nl","fee":"yes","internet_access":"wlan","internet_access:fee":"customers","name":"Bembom Hoeve","phone":"+31 523 300 431","power_supply":"cee_17_blue","reservation":"yes","sanitary_dump_station":"yes","waste":"trash","website":"https://www.bembomhoeve.nl/"}},"1160545473":{"location":[52.5481513,6.5684514],"ct":"NL","tp":"CR","ts":"2023-04-07T19:05:41Z","tX":530,"tY":335,"tags":{"cabins":"yes","caravans":"yes","name":"Sprookjescamping De Vechtstreek","phone":"+31 523 261 369","shower":"yes","tents":"yes","toilets":"yes","website":"https://sprookjescamping.nl/"}},"1160545474":{"location":[52.5489268,6.5694729],"ct":"NL","tp":"CR","ts":"2023-04-07T19:05:41Z","tX":530,"tY":335,"tags":{"cabins":"yes","caravans":"yes","email":"info@campingtveld.nl","mobile":"+31 523 262 286","motorhome":"yes","name":"Camping ’t Veld","shower":"yes","stars":"5","tents":"yes","toilets":"yes","website":"https://www.campingtveld.nl/"}},"1172706113":{"location":[52.4900087,6.4398925],"ct":"NL","tp":"CS","ts":"2023-09-25T08:56:44Z","tX":530,"tY":335,"tags":{"addr:city":"Ommen","addr:housenumber":"80","addr:postcode":"7731AJ","addr:street":"Hammerweg","group_only":"yes","name":"Scouting kampeerterrein Eerde","opening_hours":"Apr 15 - Oct 15","operator":"Scouting Nederland","scout":"yes","shower":"no","tents":"yes","toilets":"yes","website":"https://eerde.scouting.nl/"}},"1172737856":{"location":[52.5450591,6.4930188],"ct":"NL","tp":"CS","ts":"2024-12-28T09:08:49Z","tX":530,"tY":335,"tags":{"addr:city":"Stegeren","addr:country":"NL","addr:housenumber":"25","addr:postcode":"7737PE","addr:street":"Coevorderweg","cabins":"yes","camp_site":"deluxe","caravans":"yes","contact:email":"info@kleinewolf.nl","contact:phone":"+31 529 457 203","contact:website":"https://www.kleinewolf.nl/","dog":"yes","fee":"yes","lit":"yes","motorhome":"yes","name":"De Kleine Wolf","name:de":"Der kleine Wolf","nudism":"no","permanent_camping":"yes","reservation":"required","shower":"yes","stars":"5","swimming_pool":"yes","tents":"yes","toilets":"yes"}},"1172743726":{"location":[52.5324391,6.3821595],"ct":"NL","tp":"CS","ts":"2023-05-30T12:24:12Z","tX":530,"tY":335,"tags":{"addr:city":"Ommen","addr:housenumber":"17","addr:postcode":"7731RP","addr:street":"Emslandweg","brand":"SVR","caravans":"yes","internet_access":"wlan","internet_access:fee":"no","name":"Emsland","phone":"+31 529 453 084","shower":"yes","tents":"yes","toilets":"yes","website":"https://www.emsland-ommen.nl/camping/"}},"1172775608":{"location":[52.5124402,6.5436138],"ct":"NL","tp":"CS","ts":"2023-12-20T20:41:22Z","tX":530,"tY":335,"tags":{"addr:city":"Beerze","addr:housenumber":"3","addr:postcode":"7736PL","addr:street":"Marsdijk","addr:unit":"a","capacity:pitches":"13","capacity:static_caravans":"100","caravans":"yes","motorhome":"yes","name":"Camping Wilrod","phone":"+31 523 251 940","shower":"yes","static_caravans":"yes","tents":"yes","toilets":"yes","website":"https://campingwilrod.nl/"}},"1173058381":{"location":[52.5150716,6.4013498],"ct":"NL","tp":"CS","ts":"2023-11-16T17:10:37Z","tX":530,"tY":335,"tags":{"access":"yes","addr:city":"Ommen","addr:housenumber":"17","addr:postcode":"7731BC","addr:street":"Zwolseweg","group_only":"yes","name":"Ada's Hoeve","operator":"Scouting Nederland","scout":"yes","tents":"yes","website":"https://adashoeve.nl/"}},"1186513810":{"location":[52.620199,6.6043786],"ct":"NL","tp":"CR","ts":"2023-07-02T14:03:31Z","tX":530,"tY":335,"tags":{"email":"info@vetker-grevelman-vof.nl","motorhome":"designated","name":"Camperplaats Langs de Esch","phone":"+31 6 20843291","toilets":"yes"}},"1190701943":{"location":[52.5843063,6.4536542],"ct":"NL","tp":"CS","ts":"2023-08-01T08:06:32Z","tX":530,"tY":335,"tags":{"capacity:pitches":"15","caravans":"yes","email":"boerencamping@debinnentuin.info","motorhome":"yes","name":"De Binnentuin","opening_hours":"Jan 15 - Dec 15","phone":"+31 6 39428482;+31 6 54354380","shower":"yes","tents":"yes","toilets":"yes","website":"https://www.debinnentuin.info/boerencamping"}},"1191660352":{"location":[52.6850313,6.4449003],"ct":"NL","tp":"CS","ts":"2023-08-01T08:01:36Z","tX":530,"tY":335,"tags":{"cabins":"yes","caravans":"yes","name":"Klein Zwitserland","phone":"+31 6 26930096;+31 6 26973841","shower":"yes","static_caravans":"yes","swimming_pool":"yes","tents":"yes","toilets":"yes","website":"https://campingkleinzwitserland.nl/"}},"1199740343":{"location":[52.530463,6.5588731],"ct":"NL","tp":"CS","ts":"2023-08-19T09:36:02Z","tX":530,"tY":335,"tags":{"capacity:pitches":"20","caravans":"yes","name":"Kien","shower":"yes","tents":"yes","toilets":"yes","website":"https://sites.google.com/view/campingdiffelen/home"}},"1202404732":{"location":[52.6742328,6.5394099],"ct":"NL","tp":"CS","ts":"2023-08-26T21:57:48Z","tX":530,"tY":335,"tags":{"cabins":"yes","capacity:cabins":"3","capacity:pitches":"6","capacity:static_caravans":"2","caravans":"yes","email":"info@camping-nieuwmoscou.nl","name":"Nieuw Moscou","phone":"+31 528 361 408","shower":"yes","swimming_pool":"yes","tents":"yes","toilets":"yes","website":"https://camping-nieuwmoscou.nl/geklede-camping/"}},"1202524461":{"location":[52.6535787,6.6261812],"ct":"NL","tp":"CS","ts":"2023-08-27T11:39:18Z","tX":530,"tY":335,"tags":{"cabins":"yes","caravans":"yes","email":"campingdeboergondier@gmail.com","motorhome":"yes","name":"De Boergondiër","phone":"+31 6 13076136","shower":"yes","tents":"yes","toilets":"yes","website":"https://www.boergondier.nl/"}},"1226534087":{"location":[52.5314645,6.3515267],"ct":"NL","tp":"CS","ts":"2024-09-07T07:46:00Z","tX":530,"tY":335,"tags":{"access":"private","capacity:persons":"30","caravans":"yes","drinking_water":"yes","group_only":"yes","name":"CJV Schelle","power_supply":"yes","shower":"yes","tents":"yes","toilets":"yes","website":"https://www.cjvschelle.nl/"}},"1243481778":{"location":[52.6791386,6.6120704],"ct":"NL","tp":"CR","ts":"2024-02-02T14:10:09Z","tX":530,"tY":335,"tags":{"caravans":"no","mobile":"+31 6 27408907","motorhome":"designated","name":"De Bonenstee","phone":"+31 528 351 661","website":"https://www.debonenstee.nl/"}},"1282810231":{"location":[52.6398159,6.4268099],"ct":"NL","tp":"CS","ts":"2024-05-14T11:07:14Z","tX":530,"tY":335,"tags":{"name":"Camperparkeerplaats Nolderwoud"}},"1343871972":{"location":[52.5171114,6.4176206],"ct":"NL","tp":"CR","ts":"2024-12-19T20:35:28Z","tX":530,"tY":335,"tags":{"name":"Camperpark De Steenanjer"}},"1351590950":{"location":[52.577428,6.6293894],"ct":"NL","tp":"CR","ts":"2025-01-15T15:36:22Z","tX":530,"tY":335,"tags":{"addr:city":"Hardenberg","addr:street":"Parkweg","capacity":"5","caravan_site":"motorhome_stopover","caravan_site:type":"park","charge":"10 EUR/24 hours","fee":"yes","internet_access":"no","maxstay":"3 days","name":"Park Kruserbrink - Hardenberg","power_supply":"yes","reservation":"no","sanitary_dump_station":"yes","sanitary_dump_station:grey_water":"yes","surface":"grass_paver","water_point":"yes","website":"https://www.hardenberg.nl/parkeren/andere-voertuigen"}},"1775854342":{"location":[52.5077856,6.3602835],"ct":"NL","tp":"CS","ts":"2019-03-28T14:20:25Z","tX":530,"tY":335,"tags":{"name":"Landgoed Vilsteren","source":"Bing, http://www.natuurkampeerterreinen.nl","website":"https://www.natuurkampeerterreinen.nl/nl/terreinen/overijssel/landgoed-vilsteren.html"}},"2740035319":{"location":[52.506667,6.5819049],"ct":"NL","tp":"CR","ts":"2021-02-16T17:09:25Z","tX":530,"tY":335,"tags":{"addr:city":"Mariënberg","addr:housenumber":"4","addr:street":"Pallegarsteweg","cabins":"yes","campers":"yes","fee":"yes","internet_access":"yes","name":"Camping de Pallegarste","power_supply":"yes","tents":"yes","website":"https://www.depallegarste.nl/"}},"2740141140":{"location":[52.5107239,6.5152622],"ct":"NL","tp":"CS","ts":"2023-05-14T16:39:50Z","tX":530,"tY":335,"tags":{"addr:city":"Beerze","addr:housenumber":"10","addr:postcode":"7736PJ","addr:street":"Beerzerweg","caravans":"yes","fee":"yes","name":"Huttopia De Roos","operator":"Huttopia","shower":"yes","source":"BAG","source:date":"2014-03-24","tents":"yes","toilets":"yes","website":"https://www.campingderoos.nl/"}},"2740142919":{"location":[52.5140132,6.5432095],"ct":"NL","tp":"CS","ts":"2023-10-28T07:20:19Z","tX":530,"tY":335,"tags":{"addr:city":"Beerze","addr:housenumber":"4a","addr:postcode":"7736PL","addr:street":"Marsdijk","brand":"SVR","caravans":"yes","contact:mobile":"+31 6 15178212;+31 6 57040620","name":"Camping Zandman","phone":"+31 523 252 151","shower":"yes","source":"BAG","source:date":"2014-03-24","tents":"yes","toilets":"yes","website":"https://www.zandmanbeerze.nl/"}},"2777688325":{"location":[52.6732265,6.3480494],"ct":"NL","tp":"CS","ts":"2022-11-04T11:11:30Z","tX":530,"tY":335,"tags":{"addr:city":"de Wijk","addr:housenumber":"35","addr:postcode":"7957NC","addr:street":"Commissieweg","caravans":"yes","email":"info@dedrenthseroos.nl","name":"De Drenthse Roos","phone":"+31 528 391 933","source":"BAG","source:date":"2014-03-24","tents":"yes","website":"https://www.dedrenthseroos.nl"}},"2804339116":{"location":[52.623462,6.6469016],"ct":"NL","tp":"CS","ts":"2023-05-28T08:10:41Z","tX":530,"tY":335,"tags":{"addr:city":"Anerveen","addr:housenumber":"1","addr:postcode":"7788AB","addr:street":"Slagenweg","name":"Mini camping De Kleine Weide","source":"BAG","source:date":"2014-03-24","website":"https://www.campingdekleineweide.nl"}},"4306697724":{"location":[52.5511676,6.5765879],"ct":"NL","tp":"CS","ts":"2022-06-06T07:24:08Z","tX":530,"tY":335,"tags":{"name":"Familie Camping De Belten","phone":"+31 523 262 264","website":"https://www.debelten.nl/"}},"4306697725":{"location":[52.5488076,6.5750108],"ct":"NL","tp":"CS","ts":"2022-06-06T07:24:09Z","tX":530,"tY":335,"tags":{"fee":"yes","name":"Camping de Oldemeyer","phone":"+31 523 262 805","website":"https://www.oldemeyer.nl/"}},"4306697726":{"location":[52.5628272,6.5930325],"ct":"NL","tp":"CS","ts":"2022-06-06T07:24:10Z","tX":530,"tY":335,"tags":{"name":"De Kleine Belties","phone":"+31 523 261 303","website":"https://www.kleinebelties.nl/"}},"6580353327":{"location":[52.5897659,6.6556646],"ct":"NL","tp":"CS","ts":"2024-05-03T14:54:03Z","tX":530,"tY":335,"tags":{"caravans":"yes","name":"Landhoeve de Zwiese","tents":"yes"}},"6832685188":{"location":[52.6795759,6.4197976],"ct":"NL","tp":"CS","ts":"2022-06-06T07:02:00Z","tX":530,"tY":335,"tags":{"addr:city":"Zuidwolde","addr:housenumber":"5","addr:postcode":"7921VS","addr:street":"Falieberglaan","email":"info@deentekoele.nl","internet_access":"wlan","name":"Camping de Entekoele","phone":"+31 528 371 315","website":"https://www.deentekoele.nl/"}},"7740302985":{"location":[52.5892362,6.5921866],"ct":"NL","tp":"CS","ts":"2020-07-23T11:21:26Z","tX":530,"tY":335,"tags":{"name":"Camperplaats fam. Pullen"}},"10896042091":{"location":[52.5356144,6.3564614],"ct":"NL","tp":"CS","ts":"2023-05-24T20:03:15Z","tX":530,"tY":335,"tags":{"caravans":"no","email":"zielmandienstverleningen@gmail.com","motorcycle":"designated","name":"Motorstop café Calluna","phone":"+31 6 41250018;+31 6 51011109","tents":"yes","toilets":"yes","website":"https://www.cafecalluna.nl/motorstop"}},"11076040149":{"location":[52.5752963,6.4185665],"ct":"NL","tp":"CS","ts":"2023-07-29T20:15:22Z","tX":530,"tY":335,"tags":{"capacity:pitches":"10","caravans":"yes","email":"info@teunshoeve.nl","name":"Teun's Hoeve","phone":"+31 6 29505197","shower":"yes","tents":"yes","toilets":"yes","website":"https://teunshoeve.nl/kamperen-bij-teuns-hoeve/"}},"11092301245":{"location":[52.4967572,6.3837594],"ct":"NL","tp":"CS","ts":"2023-08-05T20:48:04Z","tX":530,"tY":335,"tags":{"caravans":"yes","email":"denne.camp@wxs.nl","name":"Jongerencamping Dennenoord","phone":"+31 529 451 857","shower":"yes","tents":"yes","toilets":"yes","website":"https://www.jongerencamping.nl/kamperen/"}},"11148608731":{"location":[52.6395673,6.5490993],"ct":"NL","tp":"CS","ts":"2023-08-27T18:05:38Z","tX":530,"tY":335,"tags":{"caravans":"yes","name":"Het Wiel","phone":"+31 317 413 964","shower":"yes","tents":"yes","toilets":"yes"}},"4329293590":{"location":[52.5773972,6.6293553],"ct":"NL","tp":"CR","ts":"2019-06-19T17:29:59Z","tX":530,"tY":335,"tags":{"addr:city":"Hardenberg","addr:street":"Parkweg","capacity":"5","fee":"yes","internet_access":"no","power_supply":"yes","sanitary_dump_station":"yes"}},"7868610786":{"location":[52.5108455,6.4391865],"ct":"NL","tp":"CR","ts":"2022-06-06T07:27:26Z","tX":530,"tY":335,"tags":{"addr:city":"Ommen","addr:housenumber":"3","addr:postcode":"7731PA","addr:street":"Beerzerweg","email":"info@stekkenkamp.nl","name":"Camperplaats Landgoed de Stekkenkamp","phone":"+31 529 451 193","website":"https://www.stekkenkamp.nl"}},"10961771812":{"location":[52.4931719,6.3940309],"ct":"NL","tp":"CR","ts":"2025-01-16T17:20:26Z","tX":530,"tY":335,"tags":{"addr:city":"Giethmen","addr:housenumber":"2","addr:postcode":"8147RJ","addr:street":"Hogeveldsweg","caravan_site":"motorhome_stopover","caravan_site:type":"farm","charge":"20 EUR","contact:email":"info@camperplaatsgiethmen.nl","contact:phone":"+31 6 23446490","contact:website":"https://www.camperplaatsgiethmen.nl/","dog":"yes","fee":"yes","internet_access":"wlan","internet_access:fee":"no","name":"Camperplaats Giethmen","power_supply":"yes","power_supply:fee":"no","sanitary_dump_station":"yes","seasonal":"yes","water_point":"yes","water_point:fee":"no","website":"https://www.camperplaatsgiethmen.nl/"}},"11871944869":{"location":[52.5172167,6.417086],"ct":"NL","tp":"CR","ts":"2024-05-01T14:37:51Z","tX":530,"tY":335,"tags":{"name":"Camperpark de Steenanjer"}},"5750006540":{"location":[52.5449169,6.4944574],"ct":"NL","tp":"SD","ts":"2018-07-09T18:59:19Z","tX":530,"tY":335,"tags":{"access":"customers","fee":"no","water_point":"yes"}},"9969493447":{"location":[52.5127043,6.549808],"ct":"NL","tp":"SD","ts":"2022-08-22T09:12:20Z","tX":530,"tY":335,"tags":{"fee":"no","water_point":"yes"}},"11199346954":{"location":[52.5444738,6.4925668],"ct":"NL","tp":"SD","ts":"2023-09-18T08:20:36Z","tX":530,"tY":335,"tags":{"access":"customers","fee":"no","water_point":"yes"}},"11199372846":{"location":[52.5450004,6.4945107],"ct":"NL","tp":"SD","ts":"2023-09-18T08:20:36Z","tX":530,"tY":335,"tags":{"water_point":"yes"}},"11763126368":{"location":[52.5455166,6.490495],"ct":"NL","tp":"SD","ts":"2024-03-26T08:03:23Z","tX":530,"tY":335,"tags":{"access":"customers","fee":"no","water_point":"yes"}},"12504632010":{"location":[52.5961482,6.6551775],"ct":"NL","tp":"CR","ts":"2025-01-15T15:29:18Z","tX":530,"tY":335,"tags":{"caravan_site":"motorhome_stopover","caravan_site:type":"farm","charge":"17 EUR","check_in":"14:00","check_out":"11:00","dog":"yes","email":"info@camperplaatsenaandevecht.nl","fee":"yes","internet_access":"wlan","internet_access:fee":"no","name":"Camperplaatsen aan de Vecht","phone":"+31 622467128","power_supply":"yes","power_supply:charge":"1 EUR","power_supply:fee":"y","power_supply:maxcurrent":"16","reservation":"yes","seasonal":"yes","shower":"yes","toilets":"yes","water_point":"yes","water_point:fee":"no","website":"https://camperplaatsenaandevecht.nl/"}}}