{"898484":{"location":[52.3794413,6.4044893],"ct":"NL","tp":"CS","ts":"2023-05-30T12:24:13Z","tX":530,"tY":336,"tags":{"cabins":"yes","capacity:cabins":"2","capacity:pitches":"15","caravans":"yes","email":"heldersbroek@hotmail.com","landcover":"grass","mobile":"+31 6 14556530;+31 6 51324274","name":"Heldersbroek","phone":"+31 548 595 871","tents":"yes","website":"https://www.heldersbroek.nl/"}},"7687616":{"location":[52.2911868,6.5481582],"ct":"NL","tp":"CS","ts":"2024-06-24T08:53:34Z","tX":530,"tY":336,"tags":{"addr:city":"Rijssen","addr:housenumber":"1","addr:postcode":"7461PG","addr:street":"Biesterij","contact:email":"info@campingdebiesterij.nl","contact:phone":"+31 547 769 024","contact:website":"https://www.campingdebiesterij.nl/","name":"De Biesterij"}},"15703622":{"location":[52.4511215,6.3492393],"ct":"NL","tp":"CS","ts":"2023-05-30T12:24:13Z","tX":530,"tY":336,"tags":{"capacity:pitches":"27","caravans":"yes","description":"Farm Camping","drinking_water":"yes","email":"info@camping-de-vos.nl","mobile":"+31 6 51192354","name":"Camping de Vos","power_supply":"yes","shower":"yes","tents":"yes","toilets":"yes","website":"http://www.camping-de-vos.nl/"}},"15753403":{"location":[52.3311318,6.3309603],"ct":"NL","tp":"CS","ts":"2023-05-30T12:24:13Z","tX":530,"tY":336,"tags":{"capacity:pitches":"40","caravans":"yes","contact:whatsapp":"+31 6 53888887","email":"info@campingdeportlander.nl","landcover":"grass","motorhome":"yes","name":"de Portlander","opening_hours":"Apr 7 - Oct 1","tents":"yes","toilets":"yes"}},"54951121":{"location":[52.4428848,6.6692789],"ct":"NL","tp":"CS","ts":"2023-05-30T21:25:47Z","tX":530,"tY":336,"tags":{"addr:city":"Vriezenveen","addr:housenumber":"9","addr:postcode":"7671PD","addr:street":"Bavesbeekweg","landuse":"grass","name":"de Beekhoeve","source":"3dShapes","website":"https://www.campingdebeekhoeve.nl"}},"54991584":{"location":[52.2959549,6.6467152],"ct":"NL","tp":"CS","ts":"2023-05-30T12:23:52Z","tX":530,"tY":336,"tags":{"brand":"SVR","caravans":"yes","email":"info@grasbroek.nl","landcover":"grass","name":"'t Grasbroek","operator":"Familie Smit","phone":"+31 74 384 1827","shower":"yes","tents":"yes","toilets":"yes","website":"https://www.grasbroek.nl/"}},"55790666":{"location":[52.3507904,6.5727298],"ct":"NL","tp":"CR","ts":"2025-01-23T18:39:37Z","tX":530,"tY":336,"tags":{"addr:city":"Wierden","addr:housenumber":"22","addr:postcode":"7642NR","addr:street":"Zandinksweg","caravan_site":"motorhome_stopover","caravan_site:type":"restaurant","charge":"15 EUR","fee":"yes","internet_access":"wlan","name":"Camperplaats de Huurne te Wierden","phone":"+31 6 26991789","power_supply":"yes","sanitary_dump_station:chemical_toilet":"yes","sanitary_dump_station:grey_water":"yes","surface":"grass","water_point":"yes","website":"https://www.camperplaatsdehuurne.nl"}},"56459415":{"location":[52.4723429,6.5266627],"ct":"NL","tp":"CS","ts":"2023-07-29T19:20:46Z","tX":530,"tY":336,"tags":{"caravans":"yes","email":"info@landgoedgeerdijk.nl","landcover":"grass","motorhome":"yes","name":"Landgoed Geerdijk","phone":"+31 6 14612405","shower":"yes","tents":"yes","toilets":"yes","website":"https://www.landgoedgeerdijk.nl/"}},"56461957":{"location":[52.3939113,6.529565],"ct":"NL","tp":"CR","ts":"2023-07-17T18:03:21Z","tX":530,"tY":336,"tags":{"cabins":"yes","mobile":"+31 6 34359132;+31 6 51507561","motorhome":"designated","name":"Recreatiepark De Bonte Specht","phone":"+31 546 697 513","website":"https://www.bontespecht.nl/"}},"56469900":{"location":[52.3267143,6.5310608],"ct":"NL","tp":"CS","ts":"2025-01-23T18:32:32Z","tX":530,"tY":336,"tags":{"addr:city":"Notter","addr:housenumber":"14","addr:postcode":"7467PD","addr:street":"Klokkendijk","charge":"28.70 EUR","check_in":"14:00","check_out":"12:00","dog":"leashed","dog:charge":"0.75 EUR","dog:fee":"yes","fee":"yes","name":"Landschapscamping De Grimberghoeve","network":"SVR","website":"https://grimberghoeve.nl/"}},"57389439":{"location":[52.2939442,6.5429804],"ct":"NL","tp":"CS","ts":"2023-05-30T12:23:52Z","tX":530,"tY":336,"tags":{"addr:city":"Rijssen","addr:housenumber":"8","addr:postcode":"7461PX","addr:street":"Schietbaanweg","contact:email":"info@wittezand.nl","contact:phone":"+31 548 513 394","contact:website":"https://www.wittezand.nl/","name":"'t Witte Zand"}},"57689768":{"location":[52.4662971,6.4231846],"ct":"NL","tp":"CS","ts":"2024-03-20T08:45:23Z","tX":530,"tY":336,"tags":{"addr:city":"Lemele","addr:housenumber":"16","addr:postcode":"8148PC","addr:street":"Lemelerweg","caravans":"yes","contact:email":"info@lemeleresch.nl","contact:phone":"+31 572 331 241","contact:website":"https://lemeleresch.nl/","name":"De Lemeler Esch","tents":"yes"}},"57700038":{"location":[52.408852,6.486483],"ct":"NL","tp":"CS","ts":"2023-07-29T18:43:28Z","tX":530,"tY":336,"tags":{"capacity:pitches":"25","caravans":"yes","email":"jhschuurman@hotmail.com","name":"Martenshoek","phone":"+31 548 681 276","shower":"yes","tents":"yes","toilets":"yes","website":"https://campingmartenshoek.nl"}},"57700245":{"location":[52.4059826,6.4857759],"ct":"NL","tp":"CS","ts":"2023-08-10T20:56:36Z","tX":530,"tY":336,"tags":{"caravans":"yes","email":"info@boerderijcampingtvosje.nl","landcover":"grass","mobile":"+31 6 25266962","name":"'t Vosje","phone":"+31 548 681 376","shower":"yes","tents":"yes","toilets":"yes","website":"https://boerderijcampingtvosje.nl/"}},"57828518":{"location":[52.4148062,6.3945241],"ct":"NL","tp":"CS","ts":"2025-03-23T14:02:02Z","tX":530,"tY":336,"tags":{"addr:city":"Luttenberg","addr:housenumber":"3","addr:postcode":"8105SE","addr:street":"Nieuwe Twentseweg","capacity":"15","caravans":"yes","email":"info@dehuttert.nl","internet_access":"no","motorhome":"yes","name":"De Huttert","phone":"+31 572 301274","shower":"yes","tents":"yes","toilets":"yes","website":"https://www.dehuttert.nl"}},"57828543":{"location":[52.375816,6.3633798],"ct":"NL","tp":"CS","ts":"2024-11-21T01:06:01Z","tX":530,"tY":336,"tags":{"addr:city":"Haarle","addr:housenumber":"8","addr:postcode":"7448PZ","addr:street":"Veldhuisweg","bakery_service":"yes","internet_access":"wlan","internet_access:fee":"no","name":"’t spikkie","power_supply":"yes","power_supply:fee":"no","power_supply:maxcurrent":"6","surface":"grass","website":"https://www.spikkie.nl/"}},"57842715":{"location":[52.3517625,6.3826723],"ct":"NL","tp":"CS","ts":"2024-08-25T09:49:27Z","tX":530,"tY":336,"tags":{"brand":"SVR","dog":"no","drinking_water":"yes","email":"info@campingbesten.nl","fee":"yes","internet_access":"wlan","min_age":"40","name":"Camping Besten","old_name":"Camping Bergwever","openfire":"no","operator":"Camping Besten","payment:cash":"yes","power_supply":"yes","reservation":"recommended","shower":"yes","toilets":"yes","website":"https://campingbesten.nl/"}},"57842747":{"location":[52.3689127,6.3953415],"ct":"NL","tp":"CS","ts":"2024-06-24T08:53:34Z","tX":530,"tY":336,"tags":{"brand":"SVR","cabins":"yes","capacity:cabins":"4","capacity:pitches":"15","caravans":"yes","internet_access":"yes","internet_access:fee":"no","landcover":"grass","landuse":"recreation_ground","name":"De Molenhoek","operator":"Gerard & Riky Blankhorst","phone":"+31 6 20840108","shower":"yes","tents":"yes","toilets":"yes","website":"https://www.svr-haarle.nl/"}},"57843688":{"location":[52.3219297,6.3457383],"ct":"NL","tp":"CS","ts":"2023-08-28T21:55:17Z","tX":530,"tY":336,"tags":{"cabins":"yes","caravans":"yes","email":"info@sallandshoeve.nl","name":"Sallandshoeve","phone":"+31 572 321 342","shower":"yes","tents":"yes","toilets":"yes","website":"https://www.sallandshoeve.nl/kamperen"}},"186035335":{"location":[52.4198428,6.4204811],"ct":"NL","tp":"CS","ts":"2024-03-27T08:55:28Z","tX":530,"tY":336,"tags":{"addr:city":"Hellendoorn","addr:housenumber":"4","addr:postcode":"7447PR","addr:street":"Ossenkampweg","alt_name":"Eelerberg","capacity:pitches":"166","caravans":"yes","drinking_water":"yes","email":"camping@eelerberg.nl","name":"Natuurcamping Eelerberg","opening_hours":"Apr 1 - Sep 30","phone":"+31 6 51340919","power_supply":"yes","shower":"yes","tents":"yes","toilets":"yes","website":"https://www.eelerberg.nl/home-eelerberg"}},"267491581":{"location":[52.3943521,6.3610501],"ct":"NL","tp":"CS","ts":"2017-08-11T13:59:28Z","tX":530,"tY":336,"tags":{"building":"yes","name":"De Luttenberg","ref:bag":"177100000185644","source":"BAG","source:date":"2017-08-11","start_date":"1972"}},"317481231":{"location":[52.285731,6.6138249],"ct":"NL","tp":"CS","ts":"2022-05-31T04:29:15Z","tX":530,"tY":336,"tags":{"addr:city":"Enter","addr:housenumber":"1","addr:postcode":"7468RX","addr:street":"Zeendamsweg","email":"info@denotenwei.nl","name":"Camping De Notenwei","operator":"Gerrit Brunnekreef","phone":"+31 6 55138453","website":"https://denotenwei.nl"}},"369247326":{"location":[52.3390459,6.3634964],"ct":"NL","tp":"CS","ts":"2025-04-02T12:04:33Z","tX":530,"tY":336,"tags":{}},"433967802":{"location":[52.4561712,6.4113476],"ct":"NL","tp":"CS","ts":"2024-03-20T19:45:01Z","tX":530,"tY":336,"tags":{"cabins":"yes","caravans":"yes","contact:email":"info@deoldelucashoeve.nl","contact:mobile":"+31 6 23949165","contact:website":"https://www.deoldelucashoeve.nl/","motorhome":"yes","name":"Natuurkampeerterrein De Olde Lucas Hoeve","opening_hours":"Apr 1 - Oct 14","shower":"yes","tents":"yes","toilets":"yes"}},"433993649":{"location":[52.458535,6.4238807],"ct":"NL","tp":"CS","ts":"2023-05-30T12:24:03Z","tX":530,"tY":336,"tags":{"caravans":"yes","email":"info@erveaaftink.nl","name":"Erve Aaftink","phone":"+31 572 331 232","shower":"yes","tents":"yes","toilets":"yes","toilets:wheelchair":"yes","website":"https://www.erveaaftink.nl/","wheelchair":"yes","wheelchair:description":"Dit betreft het sanitaire gedeelte van de camping."}},"433997217":{"location":[52.4598194,6.4209337],"ct":"NL","tp":"CS","ts":"2023-09-03T20:35:20Z","tX":530,"tY":336,"tags":{"addr:city":"Lemele","addr:housenumber":"32","addr:postcode":"8148PC","addr:street":"Lemelerweg","caravans":"yes","contact:email":"info@de-eskamp.nl","contact:phone":"+31 572 331 234","contact:website":"https://www.de-eskamp.nl/","drinking_water":"yes","internet_access":"yes","internet_access:fee":"no","name":"Camping De Eskamp","power_supply":"yes","shower":"yes","tents":"yes","toilets":"yes","toilets:wheelchair":"yes","wheelchair":"yes"}},"448006403":{"location":[52.4341799,6.44113],"ct":"NL","tp":"CR","ts":"2025-01-16T13:42:43Z","tX":530,"tY":336,"tags":{"capacity":"10","caravan_site":"motorhome_stopover","caravan_site:type":"fishing","charge":"15 EUR","dog":"leashed","email":"info@camperplaatshancate.com","fee":"yes","internet_access":"wlan","name":"Camperplaats Hancate","payment:cash":"yes","phone":"+31 6 439 43 233","power_supply":"yes","power_supply:fee":"no","seasonal":"yes","water_point":"yes","water_point:fee":"no","website":"https://www.camperplaatshancate.com/"}},"507935834":{"location":[52.2950063,6.5259288],"ct":"NL","tp":"CS","ts":"2024-04-19T20:19:50Z","tX":530,"tY":336,"tags":{"name":"De Goolne Ket'n","note":"De Goolne Ket'n is Riessens; De Gouden Ketting","website":"https://www.degoolneketn.nl/"}},"536207705":{"location":[52.2894338,6.5479953],"ct":"NL","tp":"CS","ts":"2023-05-30T12:24:05Z","tX":530,"tY":336,"tags":{"addr:city":"Rijssen","addr:housenumber":"2","addr:postcode":"7461PG","addr:street":"Biesterij","contact:email":"info@schwarzwaldhoeve.nl","contact:phone":"+31 547 381 297","contact:website":"https://www.schwarzwaldhoeve.nl/","name":"De Schwarzwaldhoeve"}},"536725525":{"location":[52.2927461,6.4328771],"ct":"NL","tp":"CS","ts":"2023-05-30T12:24:05Z","tX":530,"tY":336,"tags":{"addr:city":"Holten","addr:housenumber":"8","addr:postcode":"7451HL","addr:street":"Reebokkenweg","contact:email":"holterberg@ardoer.com","contact:phone":"+31 548 361 524","contact:website":"https://holterberg.ardoer.com/nl/","name":"De Holterberg"}},"542836223":{"location":[52.3510744,6.4530585],"ct":"NL","tp":"CS","ts":"2024-01-25T09:21:41Z","tX":530,"tY":336,"tags":{"addr:city":"Nijverdal","addr:housenumber":"116","addr:postcode":"7441DK","addr:street":"Holterweg","contact:email":"noetselerberg@ardoer.com","contact:phone":"+31 548 612 665","contact:website":"https://noetselerberg.ardoer.com/nl/","name":"Ardoër Camping Noetselerberg"}},"542836272":{"location":[52.2910116,6.3772861],"ct":"NL","tp":"CS","ts":"2023-05-30T21:25:43Z","tX":530,"tY":336,"tags":{"contact:email":"j.terstal@hetnet.nl","contact:phone":"+31 548 362 801","contact:website":"https://www.minicampingterstal.nl","name":"Minicamping Ter Stal","operator":"Familie ter Stal"}},"833032825":{"location":[52.3208913,6.5665122],"ct":"NL","tp":"CR","ts":"2025-05-13T18:15:40Z","tX":530,"tY":336,"tags":{"capacity":"20","caravan_site":"motorhome_stopover","caravan_site:type":"winery","charge":"18 EUR","dog":"yes","fee":"yes","internet_access":"wlan","internet_access:fee":"no","motorhome":"designated","name":"Wijngaard Baan","phone":"+31 6 54201948","restaurant":"yes","sanitary_dump_station":"yes","sanitary_dump_station:chemical_toilet":"yes","sanitary_dump_station:fee":"no","sanitary_dump_station:grey_water":"yes","shower":"yes","toilets":"yes","water_point":"yes","water_point:fee":"no","website":"https://www.wijngaardbaan.nl"}},"852667319":{"location":[52.4455801,6.4983753],"ct":"NL","tp":"CS","ts":"2022-06-06T07:05:33Z","tX":530,"tY":336,"tags":{"addr:city":"Den Ham","addr:housenumber":"56","addr:postcode":"7683PR","addr:street":"Zomerweg","caravans":"yes","email":"info@linderbeek.nl","name":"Boerderijcamping De Linderbeek","phone":"+31 546 671 422","tents":"yes","website":"https://www.linderbeek.nl/"}},"927055285":{"location":[52.3655865,6.4149744],"ct":"NL","tp":"CS","ts":"2024-04-06T12:58:30Z","tX":530,"tY":336,"tags":{"access":"customers","addr:city":"Haarle","addr:housenumber":"3sA","addr:postcode":"7448RM","addr:street":"Almeloseweg","capacity":"30","email":"twilhaar@kpnmail.nl","internet_access":"no","name":"Natuurkampeerterrein Twilhaar","operator":"Natuurkampeerterreinen","tents":"yes","url":"https://www.campingtwilhaar.nl/"}},"947496906":{"location":[52.2856777,6.4620265],"ct":"NL","tp":"CS","ts":"2025-06-22T10:52:21Z","tX":530,"tY":336,"tags":{"brand":"SVR","cabins":"yes","capacity:cabins":"1","capacity:pitches":"15","caravans":"yes","internet_access":"wlan","internet_access:fee":"no","name":"De Elshof","operator":"Familie Oolbekkink","phone":"+31 548 362 165","shower":"yes","tents":"yes","toilets":"yes","website":"http://www.deelshof.nl/"}},"961391224":{"location":[52.4697305,6.4622113],"ct":"NL","tp":"CS","ts":"2023-07-29T19:34:25Z","tX":530,"tY":336,"tags":{"capacity:pitches":"14","caravans":"yes","email":"info@noordmeer.nl","landcover":"grass","name":"Noord Meer","opening_hours":"Apr 1 - Sep 30","phone":"+31 6 51080150","shower":"yes","tents":"yes","toilets":"yes","website":"https://noordmeer.nl/"}},"1056353025":{"location":[52.383051,6.5045662],"ct":"NL","tp":"CS","ts":"2024-04-10T17:26:01Z","tX":530,"tY":336,"tags":{"addr:city":"Nijverdal","addr:housenumber":"27a","addr:postcode":"7443LE","addr:street":"Dalkruid","capacity:pitches":"40","caravans":"yes","name":"Bij de Schaapskooi","opening_hours":"Apr 1 - Oct 1","phone":"+31 548 610 712","shower":"yes","tents":"yes","toilets":"yes","website":"https://www.campingbijdeschaapskooi.nl"}},"1056461025":{"location":[52.2777452,6.4485683],"ct":"NL","tp":"CS","ts":"2023-05-30T12:24:11Z","tX":530,"tY":336,"tags":{"addr:city":"Holten","addr:housenumber":"5","addr:postcode":"7451RG","addr:street":"Schreursweg","email":"info@campingideaal.nl","name":"Camping Ideaal","phone":"+31 548 361 725","website":"https://www.campingideaal.nl"}},"1060002844":{"location":[52.4412514,6.3480254],"ct":"NL","tp":"CS","ts":"2025-03-11T14:59:31Z","tX":530,"tY":336,"tags":{"addr:city":"Lemelerveld","addr:housenumber":"2A","addr:postcode":"8151PP","addr:street":"Verbindingsweg","cabins":"yes","caravans":"yes","email":"info@campingheidepark.nl","long_name":"Charmecamping Heidepark","name":"Heidepark","phone":"+31 572 371 525","shower":"yes","tents":"yes","toilets":"yes","website":"https://www.heidepark.nl/"}},"1114934501":{"location":[52.2851677,6.4377],"ct":"NL","tp":"CR","ts":"2025-01-18T10:34:21Z","tX":530,"tY":336,"tags":{"addr:city":"Holten","addr:housenumber":"34","addr:postcode":"7451RD","addr:street":"Rijssenseweg","caravan_site":"motorhome_stopover","caravan_site:type":"village","email":"info@camperplaatslookerland.nl","name":"Camperplaats Lookerland Holten","phone":"+31 6 82978295","power_supply":"yes","power_supply:fee":"yes","power_supply:maxcurrent":"16","sanitary_dump_station":"yes","sanitary_dump_station:chemical_toilet":"yes","sanitary_dump_station:grey_water":"yes","shower":"yes","source":"BAG","source:date":"2014-03-24","surface":"grass","toilets":"yes","water_point":"yes","website":"https://camperplaatslookerland.nl/"}},"1185309503":{"location":[52.3950742,6.5311852],"ct":"NL","tp":"CS","ts":"2023-06-27T14:56:31Z","tX":530,"tY":336,"tags":{"cabins":"yes","capacity:pitches":"11","caravans":"yes","email":"info@ervengreun.nl","name":"De Piksenhoeve","old_name":"Erve 'n greun","phone":"+31 546 697 898","shower":"yes","toilets":"yes","website":"http://www.ervengreun.nl"}},"1186270373":{"location":[52.4735564,6.4951003],"ct":"NL","tp":"CS","ts":"2025-03-30T16:47:33Z","tX":530,"tY":336,"tags":{"cabins":"yes","caravans":"yes","email":"info@de-blekkenhorst.nl","motorhome":"yes","name":"De Blekkenhorst","phone":"+31 546 671 559","shower":"yes","static_caravans":"yes","swimming_pool":"yes","tents":"yes","toilets":"yes","website":"https://www.de-blekkenhorst.nl/"}},"1191312426":{"location":[52.4129531,6.4730427],"ct":"NL","tp":"CS","ts":"2023-07-21T21:42:50Z","tX":530,"tY":336,"tags":{"caravans":"yes","email":"info@riemeilink.nl","name":"De Schaapskooi","phone":"+31 548 681 352","shower":"yes","tents":"yes","toilets":"yes","website":"https://campingdeschaapskooi.nl/"}},"1191340130":{"location":[52.3611231,6.49864],"ct":"NL","tp":"CS","ts":"2023-08-01T08:06:32Z","tX":530,"tY":336,"tags":{"capacity:pitches":"20","caravans":"yes","email":"derkjeshoeve@gmail.com","name":"De Derkjeshoeve","phone":"+31 6 15502478;+31 6 20887192","shower":"yes","tents":"yes","toilets":"yes","website":"https://www.derkjeshoeve.nl/"}},"1193198744":{"location":[52.4521067,6.5201848],"ct":"NL","tp":"CS","ts":"2023-07-29T19:04:26Z","tX":530,"tY":336,"tags":{"caravans":"yes","email":"info@lourenshoeve.nl","name":"De Lourenshoeve","phone":"+31 546 672 950","shower":"yes","tents":"yes","toilets":"yes","website":"https://www.lourenshoeve.nl/accommodaties/kampeerplaatsen"}},"1195118996":{"location":[52.4757132,6.6255721],"ct":"NL","tp":"CS","ts":"2024-06-22T19:32:33Z","tX":530,"tY":336,"tags":{"capacity:pitches":"25","caravans":"yes","drinking_water":"yes","email":"info@allemanshoeve.nl","name":"Allemanshoeve","opening_hours":"Apr 01 - Oct 31","phone":"+31 6 30235755","power_supply":"yes","shower":"yes","tents":"yes","toilets":"yes"}},"1195272758":{"location":[52.4753379,6.5004364],"ct":"NL","tp":"CS","ts":"2023-08-06T16:00:37Z","tX":530,"tY":336,"tags":{"cabins":"yes","capacity:pitches":"40","caravans":"yes","email":"info@dekuupershoek.nl","name":"De Kuupershoek","phone":"+31 546 671 900","shower":"yes","tents":"yes","toilets":"yes","website":"https://dekuupershoek.nl/"}},"1198486576":{"location":[52.3269484,6.5208263],"ct":"NL","tp":"CS","ts":"2024-03-25T16:21:45Z","tX":530,"tY":336,"tags":{"cabins":"yes","caravans":"yes","email":"info@molke.nl","name":"Mölke","phone":"+31 548 512 743","shower":"yes","static_caravans":"yes","tents":"yes","toilets":"yes","website":"https://www.molke.nl/kamperen"}},"1200236461":{"location":[52.4183335,6.4203994],"ct":"NL","tp":"CS","ts":"2024-03-27T08:55:28Z","tX":530,"tY":336,"tags":{"addr:city":"Hellendoorn","addr:housenumber":"4","addr:postcode":"7447PR","addr:street":"Ossenkampweg","alt_name":"Eelerberg","capacity:pitches":"30","caravans":"yes","drinking_water":"yes","email":"natuurkampeerterrein@rhanerveld.nl","name":"Natuurkampeerterrein Het Rhanerveld","opening_hours":"Apr 1 - Sep 30","phone":"+31 6 28394833","power_supply":"yes","shower":"yes","tents":"yes","toilets":"yes","website":"https://www.eelerberg.nl/home-rhanerveld"}},"1236661768":{"location":[52.3882907,6.3938144],"ct":"NL","tp":"CR","ts":"2025-01-23T23:04:14Z","tX":530,"tY":336,"tags":{"addr:city":"Haarle","addr:housenumber":"37","addr:postcode":"7448RZ","addr:street":"Luttenbergerweg","camp_site":"serviced","caravan_site":"motorhome_stopover","caravan_site:type":"farm","charge":"16 EUR","fee":"yes","internet_access":"wlan","internet_access:fee":"no","name":"Ons groene kampeerterrein","operator":"USVA","power_supply":"yes","power_supply:fee":"no","sanitary_dump_station":"yes","sanitary_dump_station:chemical_toilet":"yes","sanitary_dump_station:fee":"no","sanitary_dump_station:grey_water":"yes","shower":"yes","toilets":"yes","water_point":"yes","water_point:fee":"no","website":"https://www.usva-bikes.com/kampeerplekken/"}},"1246107620":{"location":[52.3720742,6.4126119],"ct":"NL","tp":"CR","ts":"2025-05-13T18:15:24Z","tX":530,"tY":336,"tags":{"addr:city":"Haarle","addr:housenumber":"5","addr:postcode":"7448RK","addr:street":"Oude Deventerweg","bar":"yes","capacity":"25","caravan_site":"motorhome_stopover","caravan_site:type":"countryside","charge":"15 EUR","dog":"yes","email":"gertjanliesbethvanvoorst@gmail.com","internet_access":"wlan","internet_access:fee":"no","laundry":"yes","name":"Camperplaats De Bosweide","name:en":"Campersite De Bosweide","phone":"+31 6 51337926","power_supply":"yes","power_supply:fee":"no","power_supply:maxcurrent":"10","sanitary_dump_station":"yes","shower":"yes","source":"BAG","surface":"grass","toilets":"yes","website":"https://www.de-bosweide.nl"}},"1259677380":{"location":[52.3178114,6.3614652],"ct":"NL","tp":"CR","ts":"2025-05-13T18:15:14Z","tX":530,"tY":336,"tags":{"area":"yes","capacity":"25","caravan_site":"motorhome_stopover","caravan_site:type":"farm","charge":"19.50 EUR","dog":"leashed","email":"info@sploderstea.nl","internet_access":"wlan","internet_access:fee":"no","laundry":"yes","name":"Camperplaats Sploder Stea","phone":"+31 6 12234544","power_supply":"yes","power_supply:capacity":"25","power_supply:fee":"no","power_supply:maxcurrent":"10","reservation":"yes","toilets":"yes","water_point":"yes","water_point:fee":"no","website":"https://www.sploderstea.nl/"}},"1267555513":{"location":[52.4154185,6.4326976],"ct":"NL","tp":"CR","ts":"2025-05-07T23:38:26Z","tX":530,"tY":336,"tags":{"addr:street":"Veldhuizenweg","area":"yes","capacity":"44","caravan_site":"motorhome_stopover","caravan_site:type":"countryside","charge":"17 EUR","charge:conditional":"15 EUR @ (Nov-Feb)","dog":"leashed","dog:fee":"no","email":"info@bosrandhellendoorn.nl","fee":"yes","internet_access":"wlan","internet_access:fee":"no","name":"Camperpark Hellendoorn","phone":"+31 6 20541113","power_supply":"yes","power_supply:charge":"0.75 EUR/kWh","power_supply:fee":"yes","reservation":"no","sanitary_dump_station":"yes","sanitary_dump_station:chemical_toilet":"yes","sanitary_dump_station:fee":"no","sanitary_dump_station:grey_water":"yes","seasonal":"no","shower":"yes","shower:fee":"yes","surface":"gravel","water_point":"yes","water_point:fee":"no","website":"https://camperparkhellendoorn.nl/"}},"1352230351":{"location":[52.298102,6.5826478],"ct":"NL","tp":"CR","ts":"2025-01-18T00:17:33Z","tX":530,"tY":336,"tags":{"capacity":"3","caravan_site":"motorhome_stopover","caravan_site:type":"village","dog":"yes","fee":"no","internet_access":"no","maxstay":"72 hours","name":"Parking Enter","power_supply":"yes","sanitary_dump_station":"no","surface":"paving_stones","toilets":"no","water_point":"no","website":"https://www.visitwierden-enter.nl/overnachten/53359-parking-enter-1/"}},"1352292270":{"location":[52.4743154,6.4910089],"ct":"NL","tp":"CR","ts":"2025-03-30T16:47:33Z","tX":530,"tY":336,"tags":{"capacity":"25","caravan_site":"motorhome_stopover","caravan_site:type":"countryside","dog":"yes","fee":"yes","internet_access":"yes","internet_access:fee":"no","landuse":"meadow","name":"Camperplaats Eerder Achterbroek","power_supply":"yes","power_supply:charge":"3 EUR","power_supply:fee":"yes","sanitary_dump_station":"yes","sanitary_dump_station:chemical_toilet":"yes","sanitary_dump_station:grey_water":"yes","shower":"yes","surface":"grass","toilets":"yes","water_point":"yes","water_point:fee":"no","website":"https://www.camperplaats-eerder-achterbroek.nl/"}},"1352319869":{"location":[52.360114,6.3542189],"ct":"NL","tp":"CR","ts":"2025-04-25T14:34:11Z","tX":530,"tY":336,"tags":{"addr:city":"Haarle","addr:housenumber":"7","addr:postcode":"7448PS","addr:street":"Wittebroeksweg","capacity":"25","caravan_site":"motorhome_stopover","caravan_site:type":"farm_shop","charge":"15 EUR","check_in":"07:00-22:00","name":"Camperplaats 't Haarlerveld","phone":"+31 6 51492630","seasonal":"no"}},"1353719044":{"location":[52.286868,6.5327027],"ct":"NL","tp":"CR","ts":"2025-01-23T17:29:01Z","tX":530,"tY":336,"tags":{"addr:city":"Rijssen","addr:housenumber":"94","addr:postcode":"7461PB","addr:street":"Markeloseweg","capacity":"60","caravan_site":"motorhome_stopover","caravan_site:type":"forest","caravans":"no","charge":"22.95","check_in":"13:00","check_out":"13:00","dog":"yes","dog:fee":"no","dog_park":"yes","email":"info@camperpark-midas.nl","fireworks":"no","internet_access":"wlan","internet_access:fee":"no","laundry":"yes","name":"Camperpark Midas","phone":"+31 6 53911034","picnic_table":"yes","power_supply":"yes","power_supply:charge":"0.75 EUR/kWh","power_supply:fee":"yes","power_supply:maxcurrent":"16","reentry":"yes","reservation":"yes","sanitary_dump_station":"yes","sanitary_dump_station:chemical_toilet":"yes","sanitary_dump_station:grey_water":"yes","shower":"yes","shower:fee":"no","tents":"no","toilets":"yes","water_point":"yes","water_point:fee":"no","website":"https://camperpark-midas.nl/"}},"1353733496":{"location":[52.393884,6.5295086],"ct":"NL","tp":"CR","ts":"2025-01-23T19:00:55Z","tX":530,"tY":336,"tags":{"cabins":"yes","capacity":"15","caravan_site":"motorhome_stopover","caravan_site:type":"holiday_village","charge":"18.50 EUR","email":"info@bontespecht.nl","mobile":"+31 6 51507561","motorhome":"designated","name":"Recreatiepark De Bonte Specht","phone":"+31 6 34359132","reservation":"yes","sanitary_dump_station":"yes","water_point":"yes","website":"https://www.bontespecht.nl/camperplaatsen/"}},"1353800314":{"location":[52.3587643,6.6554856],"ct":"NL","tp":"CR","ts":"2025-01-23T22:58:52Z","tX":530,"tY":336,"tags":{"capacity":"6","caravan_site":"motorhome_stopover","caravan_site:type":"town","fee":"yes","internet_access":"no","lit":"yes","maxlength":"11","maxstay":"72 hours","name":"Camperplaats Centrum Almelo","operator":"Gemeente Almelo","panoramax":"b1d9ae78-42c9-441d-b924-145370484c5b","permanent_camping":"no","picnic_table":"yes","power_supply":"yes","sanitary_dump_station":"no","surface":"grass_paver","toilets":"no","website":"https://www.uitinalmelo.nl/overnachten/kamperen/24441-camperplaats-centrum-almelo/"}},"1353806012":{"location":[52.4506145,6.6446496],"ct":"NL","tp":"CR","ts":"2025-01-24T01:18:08Z","tX":530,"tY":336,"tags":{"addr:housenumber":"39","addr:street":"Dalweg","capacity":"4","caravan_site":"motorhome_stopover","caravan_site:type":"countryside","charge":"20 EUR","check_out":"12:00","designation":"campers","fee":"yes","motorhome":"designated","name":"Camperplek Johanneshoeve","power_supply:maxcurrent":"10","sanitary_dump_station":"yes","sanitary_dump_station:chemical_toilet":"yes","sanitary_dump_station:fee":"no","sanitary_dump_station:grey_water":"yes","shower":"yes","surface":"grass_paver","toilets":"yes","website":"https://dejohanneshoeve.nl/camperplek/"}},"1371161797":{"location":[52.3432178,6.4846059],"ct":"NL","tp":"CS","ts":"2025-03-25T12:25:54Z","tX":530,"tY":336,"tags":{}},"1374138984":{"location":[52.3384887,6.3636757],"ct":"NL","tp":"CS","ts":"2025-04-02T12:04:33Z","tX":530,"tY":336,"tags":{"caravan_site":"motorhome_stopover","surface":"grass"}},"1392190847":{"location":[52.4588502,6.457007],"ct":"NL","tp":"CS","ts":"2025-06-04T18:49:51Z","tX":530,"tY":336,"tags":{"addr:city":"Den Ham","addr:housenumber":"32","addr:postcode":"7683PD","addr:street":"Meersendijk","brand":"SVR","cabins":"yes","camp_site":"serviced","capacity:cabins":"23","capacity:pitches":"55","caravans":"yes","dog":"leashed","fee":"yes","lit":"yes","motorhome":"yes","name":"De Regge-Vallei","nudism":"no","openfire":"no","phone":"+31 546 671703","power_supply":"yes","static_caravans":"no","tents":"yes","website":"https://www.dereggevallei.nl/"}},"2098633745":{"location":[52.3499704,6.5743193],"ct":"NL","tp":"CR","ts":"2024-06-24T08:53:34Z","tX":530,"tY":336,"tags":{"addr:city":"Wierden","addr:housenumber":"22","addr:postcode":"7642NR","addr:street":"Zandinksweg","name":"de Huurne","phone":"+31 6 26991789","website":"https://www.camperplaatsdehuurne.nl"}},"2187767414":{"location":[52.4582649,6.4575338],"ct":"NL","tp":"CS","ts":"2013-03-05T22:30:41Z","tX":530,"tY":336,"tags":{"name":"De Regge-Vallei"}},"2770815514":{"location":[52.2851747,6.4384877],"ct":"NL","tp":"CR","ts":"2022-06-06T07:13:46Z","tX":530,"tY":336,"tags":{"addr:city":"Holten","addr:housenumber":"34","addr:postcode":"7451RD","addr:street":"Rijssenseweg","email":"kristel@kvtv.nl","name":"Camperplaats Lookerland Holten","phone":"+31 6 26789797","source":"BAG","source:date":"2014-03-24"}},"2787266485":{"location":[52.3597323,6.3556893],"ct":"NL","tp":"CR","ts":"2024-09-08T13:48:27Z","tX":530,"tY":336,"tags":{"addr:city":"Haarle","addr:housenumber":"7","addr:postcode":"7448PS","addr:street":"Wittebroeksweg","name":"Camperplaats 't Haarlerveld","phone":"+31651492630","source":"BAG","source:date":"2014-03-24","website":"https://thaarlerveld.nl"}},"2843370451":{"location":[52.3876025,6.5886574],"ct":"NL","tp":"CS","ts":"2023-05-28T08:10:46Z","tX":530,"tY":336,"tags":{"addr:city":"Hoge Hexel","addr:housenumber":"1","addr:postcode":"7645AD","addr:street":"Haarboersweg","name":"Vakantieoord De Kiekebelt","source":"BAG","source:date":"2014-05-07","website":"https://www.dekiekebelt.nl"}},"2846697074":{"location":[52.3523728,6.3826609],"ct":"NL","tp":"CS","ts":"2024-08-24T20:56:20Z","tX":530,"tY":336,"tags":{"addr:city":"Haarle","addr:housenumber":"4","addr:postcode":"7448RL","addr:street":"Oude Deventerweg","source":"BAG","source:date":"2014-05-07"}},"2846698443":{"location":[52.3388948,6.3625929],"ct":"NL","tp":"CS","ts":"2025-04-02T12:04:33Z","tX":530,"tY":336,"tags":{"addr:city":"Haarle","addr:housenumber":"8a","addr:postcode":"7448RL","addr:street":"Oude Deventerweg","email":"info@deheidebloemrecreatie.nl","internet_access":"yes","internet_access:fee":"no","name":"De Heidebloem Recreatie","phone":"+31 572 321 509","source":"BAG","source:date":"2014-05-07","website":"https://www.deheidebloemrecreatie.nl/"}},"3050544532":{"location":[52.3268839,6.5291501],"ct":"NL","tp":"CR","ts":"2014-08-30T15:05:14Z","tX":530,"tY":336,"tags":{"name":"De Grimberghoeve"}},"3752033342":{"location":[52.3757289,6.3632712],"ct":"NL","tp":"CS","ts":"2015-09-20T20:20:24Z","tX":530,"tY":336,"tags":{"addr:city":"Haarle","addr:housenumber":"8","addr:postcode":"7448PZ","addr:street":"Veldhuisweg","name":"’t spikkie"}},"3752033343":{"location":[52.3756896,6.3635824],"ct":"NL","tp":"CR","ts":"2015-09-20T20:20:24Z","tX":530,"tY":336,"tags":{}},"5331270227":{"location":[52.2778357,6.4498703],"ct":"NL","tp":"CS","ts":"2018-01-10T13:52:32Z","tX":530,"tY":336,"tags":{"name":"Camperplaats Holten"}},"11097520672":{"location":[52.2960406,6.6133918],"ct":"NL","tp":"CS","ts":"2023-08-22T19:51:41Z","tX":530,"tY":336,"tags":{"addr:city":"Enter","addr:housenumber":"7","addr:postcode":"7468RS","addr:street":"Vloodweg","name":"Vakantiecentrum 't Schuttenbelt","phone":"+31 547 381 472","website":"https://www.vakantiecentrum-schuttenbelt.nl/"}},"11130498216":{"location":[52.3432288,6.4846059],"ct":"NL","tp":"CS","ts":"2025-03-25T12:25:54Z","tX":530,"tY":336,"tags":{"access":"customers","addr:city":"Nijverdal","addr:housenumber":"282","addr:postcode":"7441AN","addr:street":"Rijssensestraat","camp_site":"standard","long_name":"SVR Camping De Jonkerhoeve","name":"De Jonkerhoeve","phone":"+31 548 616808","toilets":"yes","website":"https://www.camping-dejonkerhoeve.nl/"}},"11234239022":{"location":[52.3746586,6.4577585],"ct":"NL","tp":"CS","ts":"2023-10-05T18:01:42Z","tX":530,"tY":336,"tags":{"caravans":"no","fee":"no","static_caravans":"no","tents":"yes"}},"5227041257":{"location":[52.2981295,6.5828571],"ct":"NL","tp":"CR","ts":"2024-08-27T07:12:26Z","tX":530,"tY":336,"tags":{"internet_access":"no","name":"Camperplaats Enter","toilets":"no"}},"7569656385":{"location":[52.2872009,6.5335379],"ct":"NL","tp":"CR","ts":"2021-06-04T06:46:59Z","tX":530,"tY":336,"tags":{"addr:city":"Rijssen","addr:housenumber":"94","addr:postcode":"7461PB","addr:street":"Markeloseweg","email":"info@camperpark-midas.nl","name":"Camperpark Midas","phone":"+31 6 53911034"}},"7890742468":{"location":[52.3995852,6.5085919],"ct":"NL","tp":"CR","ts":"2024-01-02T19:41:04Z","tX":530,"tY":336,"tags":{"capacity":"6","caravan_site":"motorhome_stopover","caravan_site:type":"farm_shop","charge":"13 EUR","dog":"yes","fee":"yes","internet_access":"wlan","internet_access:fee":"no","name":"Camperplaats Marleseveld","operator":"Limousinhouderij Marleseveld","power_supply":"yes","reservation":"yes","sanitary_dump_station":"yes","sanitary_dump_station:chemical_toilet":"yes","sanitary_dump_station:grey_water":"yes","stars":"4","water_point":"yes","website":"https://www.marleseveld.nl/camping"}},"8686732017":{"location":[52.373097,6.4112729],"ct":"NL","tp":"CR","ts":"2021-05-19T19:46:36Z","tX":530,"tY":336,"tags":{"addr:city":"Haarle","addr:housenumber":"5","addr:postcode":"7448RK","addr:street":"Oude Deventerweg","internet_access":"wlan","name":"Camperplaats De Bosweide","name:en":"Campersite De Bosweide","source":"BAG","source:date":"2014-05-07","website":"https://www.de-bosweide.nl"}},"10744919965":{"location":[52.4505942,6.6446541],"ct":"NL","tp":"CR","ts":"2024-01-18T14:53:06Z","tX":530,"tY":336,"tags":{"addr:housenumber":"39","addr:street":"Dalweg","capacity:caravans":"4","designation":"campers","motorhome":"designated","name":"Camperplek Johanneshoeve","shower":"yes","toilets":"yes","website":"https://dejohanneshoeve.nl/camperplek/"}},"11921819294":{"location":[52.3588399,6.6551352],"ct":"NL","tp":"CR","ts":"2024-11-14T13:51:03Z","tX":530,"tY":336,"tags":{"capacity":"6","fee":"yes","internet_access":"no","name":"Camperplaats Almelo","operator":"Gemeente Almelo","panoramax":"b1d9ae78-42c9-441d-b924-145370484c5b","permanent_camping":"no","power_supply":"yes","sanitary_dump_station":"no","toilets":"no"}},"8779153312":{"location":[52.4024786,6.5107559],"ct":"NL","tp":"SD","ts":"2021-05-29T16:32:17Z","tX":530,"tY":336,"tags":{}},"12887329698":{"location":[52.4591888,6.457018],"ct":"NL","tp":"SD","ts":"2025-06-04T18:49:51Z","tX":530,"tY":336,"tags":{"access":"customers","fee":"no","operator":"De Regge-Valei","sanitary_dump_station:round_drain":"yes"}}}