{"12556224":{"location":[52.2663136,6.5216839],"ct":"NL","tp":"CS","ts":"2023-05-30T12:24:13Z","tX":530,"tY":337,"tags":{"addr:city":"Markelo","addr:housenumber":"14","addr:postcode":"7475ST","addr:street":"Bovenbergweg","name":"De Bovenberg","phone":"+31 547 361 781","website":"https://www.debovenberg.nl/"}},"15817180":{"location":[52.1797531,6.5648978],"ct":"NL","tp":"CS","ts":"2023-05-30T12:24:13Z","tX":530,"tY":337,"tags":{"brand":"SVR","caravans":"yes","mobile":"+31 6 30491366","motorhome":"yes","name":"De Kiefte","operator":"Fam. Rouwenhorst","phone":"+31 547 351 655","shower":"yes","stars":"4","tents":"yes","toilets":"yes","website":"https://www.dekiefte.eu/"}},"16140222":{"location":[52.0901876,6.6583285],"ct":"NL","tp":"CS","ts":"2023-07-29T15:42:16Z","tX":530,"tY":337,"tags":{"caravans":"yes","email":"info@campingdebombam.nl","name":"De Bombam","phone":"+31 545 478 699","shower":"yes","tents":"yes","toilets":"yes","website":"https://www.campingdebombam.nl/"}},"55979792":{"location":[52.1477935,6.5893511],"ct":"NL","tp":"CS","ts":"2014-12-21T11:34:52Z","tX":530,"tY":337,"tags":{"landuse":"grass","name":"Scouting Neede","source":"3dShapes"}},"55980423":{"location":[52.1867115,6.5682721],"ct":"NL","tp":"CS","ts":"2023-06-24T08:03:34Z","tX":530,"tY":337,"tags":{"addr:city":"Diepenheim","addr:housenumber":"1","addr:postcode":"7478RG","addr:street":"Kiefteweg","brand":"VeKaBo","cabins":"yes","capacity:pitches":"20","caravans":"yes","email":"dewezel@hetnet.nl","internet_access":"wlan","internet_access:fee":"no","motorhome":"yes","name":"Boerderijcamping De Wezel","opening_hours":"Apr 1- Nov 1","phone":"+31 6 25353109","shower":"yes","static_caravans":"yes","tents":"yes","toilets":"yes","website":"https://www.dewezel.nl"}},"57682292":{"location":[52.1023718,6.5007724],"ct":"NL","tp":"CS","ts":"2023-08-03T21:43:18Z","tX":530,"tY":337,"tags":{"caravans":"yes","landcover":"grass","name":"Kerkemeijer","phone":"+31 545 271 202","shower":"yes","tents":"yes","toilets":"yes","website":"https://www.kerkemeijer.nl/camping/"}},"57685782":{"location":[52.0782547,6.5304412],"ct":"NL","tp":"CS","ts":"2023-07-29T15:21:13Z","tX":530,"tY":337,"tags":{"caravans":"yes","email":"info@falkenborg.nl","landcover":"grass","name":"Falkenborg","phone":"+31 6 18177376","shower":"yes","tents":"yes","toilets":"yes","website":"https://www.falkenborg.nl/"}},"57723635":{"location":[52.2618751,6.4331426],"ct":"NL","tp":"CS","ts":"2024-12-03T20:46:23Z","tX":530,"tY":337,"tags":{"addr:city":"Holten","addr:housenumber":"3","addr:postcode":"7451NR","addr:street":"Evertjesweg","email":"info@dezuurberg.nl","name":"De Zuurberg","phone":"+31 6 22235242","source":"3dShapes","website":"https://www.dezuurberg.nl/camping"}},"57772697":{"location":[52.2134552,6.4193016],"ct":"NL","tp":"CS","ts":"2023-09-03T14:17:20Z","tX":530,"tY":337,"tags":{"caravans":"yes","email":"Info@camping-bosrand.nl","landcover":"grass","name":"De Bosrand","phone":"+31 573 421 229","shower":"yes","static_caravans":"yes","tents":"yes","toilets":"yes"}},"57772836":{"location":[52.2380459,6.4463025],"ct":"NL","tp":"CS","ts":"2023-06-13T05:57:04Z","tX":530,"tY":337,"tags":{"brand":"SVR","capacity:pitches":"25","caravans":"yes","email":"campingdebles@gmail.com","internet_access":"no","landcover":"grass","mobile":"+31 6 13069736","motorhome":"yes","name":"De Bles","operator":"Familie Letink","phone":"+31 547 362 685","shower":"yes","tents":"yes","toilets":"yes","website":"https://www.campingdebles.nl/"}},"57773538":{"location":[52.2457541,6.4787564],"ct":"NL","tp":"CS","ts":"2023-05-06T07:42:48Z","tX":530,"tY":337,"tags":{"brand":"SVR","caravans":"yes","email":"administratie@hetkleinevelthuis.nl","internet_access":"wlan","internet_access:fee":"yes","landcover":"grass","name":"Het Kleine Velthuis","old_name":"Het Kleine Veld","operator":"familie Velthuis","phone":"+31 6 37159698","shower":"yes","tents":"yes","toilets":"yes","website":"https://www.campingmarkelo.com/"}},"57777001":{"location":[52.1509384,6.4312493],"ct":"NL","tp":"CS","ts":"2023-07-29T16:30:51Z","tX":530,"tY":337,"tags":{"capacity:pitches":"120","caravans":"yes","email":"info@erveharkink.nl","landcover":"grass","mobile":"+31 6 15533712","name":"Erve Harkink","phone":"+31 573 251 775","shower":"yes","tents":"yes","toilets":"yes","website":"https://erveharkink.nl/"}},"57783355":{"location":[52.1054374,6.4489521],"ct":"NL","tp":"CS","ts":"2023-08-22T19:48:14Z","tX":530,"tY":337,"tags":{"cabins":"yes","caravans":"yes","email":"info@campingschoneveld.nl","name":"Schoneveld","phone":"+31 6 21382343","shower":"yes","tents":"yes","toilets":"yes","website":"https://www.campingschoneveld.nl/"}},"57784109":{"location":[52.1117864,6.4250078],"ct":"NL","tp":"CS","ts":"2023-05-30T12:18:32Z","tX":530,"tY":337,"tags":{"addr:city":"Barchem","addr:housenumber":"8","addr:postcode":"7244PZ","addr:street":"Hardermaat","capacity":"15","fee":"yes","internet_access":"wlan","name":"Camping 't Fleerhof","operator":"Fam. Bannink","phone":"+31 573 441 370","power_supply":"yes","website":"https://www.fleerhof.nl/"}},"57784396":{"location":[52.1038532,6.442868],"ct":"NL","tp":"CS","ts":"2023-06-24T07:15:05Z","tX":530,"tY":337,"tags":{"addr:city":"Ruurlo","addr:housenumber":"3","addr:postcode":"7261MR","addr:street":"Wildpad","caravans":"yes","contact:email":"info@camping-tamaring.nl","contact:phone":"+31 573 451 486;+31 6 13055894","contact:website":"https://www.camping-tamaring.nl/","internet_access":"wlan","internet_access:fee":"no","name":"Camping Tamaring","operator":"Jan en Wenda van Kuijk","shower":"yes","swimming_pool":"yes","tents":"yes","toilets":"yes"}},"57849198":{"location":[52.259797,6.3529219],"ct":"NL","tp":"CS","ts":"2023-06-25T09:21:13Z","tX":530,"tY":337,"tags":{"addr:city":"Bathmen","addr:housenumber":"6","addr:postcode":"7437SM","addr:street":"Arkelsteijnweg","caravans":"yes","contact:email":"camping@coolewee.nl","contact:phone":"+31 570 541 103","contact:website":"https://www.coolewee.nl/","name":"Camping de Coolewee","opening_hours":"Apr 1 - Sep 30","operator":"Wim en Ineke van Schooten","shower":"yes","tents":"yes","toilets":"yes"}},"58207595":{"location":[52.1736063,6.3839377],"ct":"NL","tp":"CS","ts":"2023-08-01T08:03:15Z","tX":530,"tY":337,"tags":{"caravans":"yes","email":"j.kettelarij@hetnet.nl","landcover":"grass","name":"De Kolk","phone":"+31 573 251 609;+31 6 40312458","shower":"yes","tents":"yes","toilets":"yes","website":"https://www.boerderijcampingdekolk.nl"}},"58214743":{"location":[52.1286473,6.363901],"ct":"NL","tp":"CS","ts":"2024-06-24T08:38:50Z","tX":530,"tY":337,"tags":{"addr:city":"Lochem","addr:housenumber":"2","addr:postcode":"7241RM","addr:street":"Vordensebinnenweg","capacity:pitches":"15","caravans":"yes","email":"info@camping-grooteveld.nl","name":"Camping 't Groote Veld","phone":"+31 573 252 514;+31 6 51093707","shower":"yes","surface":"grass","tents":"yes","toilets":"yes","website":"https://www.camping-grooteveld.nl/"}},"58216014":{"location":[52.1390004,6.3908569],"ct":"NL","tp":"CS","ts":"2024-08-29T13:47:05Z","tX":530,"tY":337,"tags":{"access":"customers","addr:city":"Lochem","addr:housenumber":"3","addr:postcode":"7241RJ","addr:street":"Gageldijk","cabins":"yes","capacity:persons":"90","capacity:pitches":"15","caravans":"yes","email":"info@gagel.nl","fee":"yes","mobile":"+31617231546","name":"Regenerative farm & camping 't Gagel","opening_hours":"Mar 15 - Oct 31","operator":"Gemeenschapsboerderij 't Gagel","payment:account_cards":"yes","payment:app":"yes","payment:apple_pay":"yes","payment:cash":"yes","payment:coins":"yes","payment:contactless":"yes","payment:google_pay":"yes","payment:mastercard":"yes","payment:notes":"yes","payment:visa":"yes","phone":"+31617231546","shower":"yes","static_caravans":"no","tents":"yes","toilets":"yes","website":"https://www.gagel.nl"}},"58229718":{"location":[52.0777147,6.3801958],"ct":"NL","tp":"CS","ts":"2023-05-30T19:04:43Z","tX":530,"tY":337,"tags":{"cabins":"yes","caravans":"yes","mobile":"+31 6 27331119;+31 6 53590076","name":"'t Haller","phone":"+31 575 467 253","shower":"yes","tents":"yes","toilets":"yes","website":"https://www.campingt-haller.nl"}},"58230329":{"location":[52.0843314,6.3548441],"ct":"NL","tp":"CS","ts":"2023-06-19T10:03:20Z","tX":530,"tY":337,"tags":{"brand":"SVR","capacity:pitches":"22","caravans":"yes","email":"fam.velhorst@tlebbink.nl","mobile":"+31 6 13027007","name":"'t Lebbink","phone":"+31 575 556 680","shower":"yes","tents":"yes","toilets":"yes","website":"https://tlebbink.nl/"}},"72350872":{"location":[52.1003363,6.5694257],"ct":"NL","tp":"CS","ts":"2019-06-08T18:56:28Z","tX":530,"tY":337,"tags":{"addr:city":"Haarlo","addr:housenumber":"43","addr:postcode":"7273SL","addr:street":"Wolinkweg","name":"Natuurcampeerterrein 't Scharvelt","website":"https://www.natuurkampeerterreinen.nl/terreinen/gelderland/t-scharvelt/"}},"113319913":{"location":[52.1164347,6.337326],"ct":"NL","tp":"CS","ts":"2019-03-28T14:09:38Z","tX":530,"tY":337,"tags":{"addr:city":"Vorden","addr:housenumber":"12","addr:postcode":"7251KA","addr:street":"Enzerinckweg","area":"yes","name":"De Reehorst","power_supply":"no","tents":"yes","website":"https://www.dereehorst.nl/"}},"207569578":{"location":[52.1059811,6.3539915],"ct":"NL","tp":"CS","ts":"2023-05-30T12:18:39Z","tX":530,"tY":337,"tags":{"addr:city":"Vorden","addr:housenumber":"4","addr:postcode":"7251KT","addr:street":"Mosselseweg","name":"Minicamping 't Meulenbrugge","phone":"+31 575 556 612","website":"https://www.meulenbrugge-vorden.nl/"}},"209082896":{"location":[52.1112235,6.3543551],"ct":"NL","tp":"CS","ts":"2023-05-30T12:18:39Z","tX":530,"tY":337,"tags":{"brand":"SVR","cabins":"yes","capacity:cabins":"2","capacity:pitches":"30","caravans":"yes","email":"info@hoevekroepan.nl","mobile":"+31 6 12978126","name":"Hoeve Kroep An","opening_hours":"Mar 15 - Nov 1","phone":"+31 575 556 960","shower":"yes","tents":"yes","toilets":"yes","website":"https://www.hoevekroepan.nl/"}},"291372149":{"location":[52.1268431,6.4354673],"ct":"NL","tp":"CS","ts":"2024-02-16T17:26:10Z","tX":530,"tY":337,"tags":{"addr:city":"Barchem","addr:housenumber":"3","addr:postcode":"7244RC","addr:street":"Looweg","contact:phone":"+31 573 441 385","name":"Camping Reusterman","website":"https://www.reusterman.nl/"}},"340194665":{"location":[52.1383799,6.4475762],"ct":"NL","tp":"CS","ts":"2015-04-23T20:52:59Z","tX":530,"tY":337,"tags":{"name":"De Heksenlaak"}},"347990182":{"location":[52.0751734,6.3384949],"ct":"NL","tp":"CS","ts":"2023-05-30T19:04:49Z","tX":530,"tY":337,"tags":{"addr:city":"Vorden","addr:housenumber":"4","addr:postcode":"7251NV","addr:street":"Lieferinkweg","capacity":"30","contact:website":"https://www.campingboomgaard.nl/contact.php","internet_access":"wlan","name":"Camping de Boomgaard","website":"https://www.campingboomgaard.nl/contact.php"}},"347990183":{"location":[52.0615926,6.3768341],"ct":"NL","tp":"CS","ts":"2023-05-30T12:18:55Z","tX":530,"tY":337,"tags":{"addr:city":"Hengelo (Gld)","addr:housenumber":"1","addr:postcode":"7255MR","addr:street":"Zelledijk","capacity":"40","email":"ons.kampeerz@zonenleven.nl","name":"De Scharf Naturistencamping","nudism":"designated","phone":"+31 6 10767923","source":"BAG","source:date":"2014-03-24","website":"https://www.zonenleven.nl/de-scharf","wheelchair":"yes"}},"434060673":{"location":[52.2310446,6.548122],"ct":"NL","tp":"CS","ts":"2019-03-28T13:49:16Z","tX":530,"tY":337,"tags":{"name":"Bergzicht","website":"https://www.camping-bergzicht.nl/"}},"499627785":{"location":[52.0732966,6.3883555],"ct":"NL","tp":"CS","ts":"2024-01-29T10:50:18Z","tX":530,"tY":337,"tags":{"access":"customers","addr:city":"Vorden","addr:housenumber":"1","addr:postcode":"7251MS","addr:street":"Bleuminkmaatweg","capacity":"30","caravans":"yes","charge":"€ 23 per plek obv twee personen","dog":"leashed","drinking_water":"yes","fee":"yes","internet_access":"wlan","name":"Minicamping Erve Zonnehoeve","operator":"Erve Zonnehoeve","payment:american_express":"yes","payment:contactless":"yes","payment:credit_cards":"yes","payment:maestro":"yes","payment:mastercard":"yes","payment:visa":"yes","picnic_table":"yes","power_supply":"yes","shower":"yes","static_caravans":"yes","tents":"yes","toilets":"yes","website":"https://www.ervezonnehoeve.nl"}},"503098571":{"location":[52.1123482,6.3595728],"ct":"NL","tp":"CS","ts":"2019-03-28T13:49:58Z","tX":530,"tY":337,"tags":{"name":"Camping Prinsenhoeve","website":"https://deprinsenhoeve.nl/"}},"503103791":{"location":[52.1205751,6.368853],"ct":"NL","tp":"CS","ts":"2019-03-21T04:33:01Z","tX":530,"tY":337,"tags":{"name":"Camping de Wildenborcherhof","website":"https://www.wildenborcherhof.nl/pages/nl/de-camping/de-camping.php"}},"503259858":{"location":[52.1019061,6.3443995],"ct":"NL","tp":"CS","ts":"2017-06-25T19:36:24Z","tX":530,"tY":337,"tags":{"name":"Camping de Grasplas","website":"https://www.grasplas.nl/"}},"503922331":{"location":[52.0753523,6.3390765],"ct":"NL","tp":"CR","ts":"2025-01-23T11:12:51Z","tX":530,"tY":337,"tags":{"bicycle_rental":"yes","capacity":"4","caravan_site":"motorhome_stopover","caravan_site:type":"camp_site","charge":"18 EUR","charge:conditional":"11 EUR @ (Nov-Feb)","dog":"yes","dog:charge":"1 EUR","dog:fee":"yes","email":"info@campingboomgaard.nl","fee":"yes","internet_access":"wlan","internet_access:fee":"no","name":"Camperplaats de Boomgaard","phone":"+31 575 461667","power_supply":"yes","power_supply:charge":"0.50 EUR/kWh, minimum 2.50 EUR","power_supply:maxcurrent":"8","reservation":"yes","sanitary_dump_station":"yes","sanitary_dump_station:chemical_toilet":"yes","sanitary_dump_station:fee":"no","sanitary_dump_station:grey_water":"yes","toilets":"yes","water_point":"yes","water_point:fee":"no","website":"https://www.campingboomgaard.nl/tarieven/camperveld/"}},"503952615":{"location":[52.080357,6.3576527],"ct":"NL","tp":"CS","ts":"2024-11-23T20:42:18Z","tX":530,"tY":337,"tags":{"capacity":"15","email":"info@debijvanck.com","name":"Minicamping de Bijvanck","phone":"+31 575 556 482","website":"http://www.debijvanck.com/"}},"536725638":{"location":[52.2259353,6.4761606],"ct":"NL","tp":"CS","ts":"2023-05-30T12:24:05Z","tX":530,"tY":337,"tags":{"addr:city":"Markelo","addr:housenumber":"8","addr:postcode":"7475PR","addr:street":"Hogedijk","email":"info@kattenbergsehoeve.nl","name":"Landgoed Kattenbergse Hoeve","operator":"Familie Jansen","phone":"+31 547 700 230","website":"https://www.kattenbergsehoeve.nl/"}},"625689418":{"location":[52.0589175,6.3557544],"ct":"NL","tp":"CS","ts":"2020-03-02T15:00:58Z","tX":530,"tY":337,"tags":{"capacity":"125","name":"Kom-Es-An","website":"https://www.kom-es-an.nl/"}},"724576515":{"location":[52.2162314,6.3463701],"ct":"NL","tp":"CS","ts":"2024-07-20T22:37:10Z","tX":530,"tY":337,"tags":{"caravans":"yes","drinking_water":"yes","internet_access":"no","name":"Natuurkampeerterrein De Vrolijk","power_supply":"yes","sanitary_dump_station":"yes","shower":"yes","tents":"yes","toilets":"yes","wheelchair":"yes"}},"724578407":{"location":[52.2176251,6.3466847],"ct":"NL","tp":"CS","ts":"2024-07-21T20:44:04Z","tX":530,"tY":337,"tags":{"access":"customers","camp_site":"deluxe","caravans":"yes","drinking_water":"yes","email":"info@campingdevrolijk.nl","fee":"yes","group_only":"no","internet_access":"wlan","name":"Camping De Vrolijk","permanent_camping":"yes","phone":"+31 573 401 941","power_supply":"yes","sanitary_dump_station":"yes","shower":"yes","static_caravans":"yes","tents":"yes","toilets":"yes","washing_machine":"yes","website":"https://www.campingdevrolijk.nl/","wheelchair":"yes"}},"771073496":{"location":[52.1314656,6.3765551],"ct":"NL","tp":"CS","ts":"2024-06-23T17:07:37Z","tX":530,"tY":337,"tags":{"access":"private","addr:city":"Lochem","addr:housenumber":"7a","addr:postcode":"7241RM","addr:street":"Vordensebinnenweg","description":"Dit kampeerterrein is alleen toegankelijk voor leden van de NTKC","dog":"leashed","internet_access":"no","name":"NTKC Valkenbelt","note":"Camping alleen toegankelijk voor leden van de NTKC","operator":"Nederlandse Toeristen Kampeer Club","power_supply":"yes","website":"https://www.kampeerclub.nl/terrein/kampeerterrein-de-valkenbelt"}},"802009506":{"location":[52.2119985,6.6700183],"ct":"NL","tp":"CR","ts":"2025-01-23T14:37:08Z","tX":530,"tY":337,"tags":{"capacity":"25","caravan_site":"motorhome_stopover","caravan_site:type":"countryside","caravans":"yes","charge":"16 EUR","fee":"yes","name":"De Bentelose Esch","power_supply":"yes","power_supply:fee":"yes","power_supply:maxcurrent":"8","sanitary_dump_station":"yes","tents":"yes","water_point":"yes","water_point:fee":"no","website":"https://www.debenteloseesch.nl/"}},"851463155":{"location":[52.0887752,6.4392997],"ct":"NL","tp":"CS","ts":"2023-05-30T12:19:08Z","tX":530,"tY":337,"tags":{"addr:city":"Ruurlo","addr:housenumber":"2a","addr:postcode":"7261MH","addr:street":"Hallerweg","caravans":"yes","drinking_water":"yes","email":"info@campinghaller.nl","landuse":"grass","name":"‘t Haller","phone":"+31 573 451 291","power_supply":"yes","shower":"yes","tents":"yes","toilets":"yes","website":"https://www.campinghaller.nl"}},"865338785":{"location":[52.1801191,6.629119],"ct":"NL","tp":"CS","ts":"2023-05-30T21:25:43Z","tX":530,"tY":337,"tags":{"brand":"SVR","capacity:pitches":"15","caravans":"yes","email":"info@markveldseveld.nl","fee":"yes","name":"Markveldseveld","phone":"+31 547 333 374;+31 547 334 434","shower":"yes","start_date":"1997","tents":"yes","toilets":"yes","website":"https://www.markveldseveld.nl"}},"961067262":{"location":[52.1831771,6.5782348],"ct":"NL","tp":"CR","ts":"2025-01-23T14:22:16Z","tX":530,"tY":337,"tags":{"addr:city":"Diepenheim","addr:housenumber":"6","addr:postcode":"7478RH","addr:street":"Esweg","caravan_site":"motorhome_stopover","caravan_site:type":"countryside","email":"info@ravenhorstrecreatie.nl","internet_access":"wlan","name":"Camperpark Diepenheim","phone":"+31 547 769 005","power_supply":"yes","sanitary_dump_station":"yes","toilets":"yes","water_point":"yes","website":"https://ravenhorstrecreatie.nl"}},"1038078736":{"location":[52.1394354,6.5762408],"ct":"NL","tp":"CS","ts":"2022-04-24T05:41:43Z","tX":530,"tY":337,"tags":{"addr:city":"Neede","addr:housenumber":"1","addr:postcode":"7161PG","addr:street":"Bliksteeg","name":"Hof van Moeder Aarde","website":"https://www.hofvanmoederaarde.nl"}},"1040060455":{"location":[52.1484286,6.5465412],"ct":"NL","tp":"CS","ts":"2022-03-14T12:39:29Z","tX":530,"tY":337,"tags":{"addr:city":"Neede","addr:housenumber":"3","addr:postcode":"7161LJ","addr:street":"Lage Broekdijk","capacity:caravans":"20","fee":"yes","name":"de Hooiberg","website":"https://vekabo-minicamping-achterhoek.nl/"}},"1057199663":{"location":[52.2352511,6.5360357],"ct":"NL","tp":"CS","ts":"2023-05-30T12:24:11Z","tX":530,"tY":337,"tags":{"addr:city":"Markelo","addr:housenumber":"49","addr:postcode":"7475BC","addr:street":"Goorseweg","email":"info@montebello.nl","name":"Camping Monte Bello","phone":"+31 547 361 321","website":"https://www.montebello.nl"}},"1164671343":{"location":[52.2145206,6.564008],"ct":"NL","tp":"CS","ts":"2023-05-30T21:25:51Z","tX":530,"tY":337,"tags":{"capacity:pitches":"25","caravans":"yes","landcover":"grass","motorhome":"yes","name":"Camping Koelert","opening_hours":"Apr 1 - Oct 30","shower":"yes","tents":"yes","toilets":"yes","website":"https://www.campingkoelert.nl"}},"1167309914":{"location":[52.163977,6.6005736],"ct":"NL","tp":"CS","ts":"2023-09-08T11:44:54Z","tX":530,"tY":337,"tags":{"caravans":"yes","drinking_water":"yes","email":"info@campinglolotte.nl","name":"Lolotte","opening_hours":"\"only during school holidays\"","phone":"+31 6 11213155","power_supply":"yes","shower":"yes","tents":"yes","toilets":"yes","website":"https://www.campinglolotte.nl/#verblijf"}},"1169192022":{"location":[52.2385464,6.6515677],"ct":"NL","tp":"CS","ts":"2023-05-30T12:24:12Z","tX":530,"tY":337,"tags":{"brand":"SVR","capacity:pitches":"25","caravans":"yes","email":"info@debroak.nl","motorhome":"yes","name":"De Broak","phone":"+31 547 292 713","shower":"yes","tents":"yes","toilets":"yes","website":"https://www.debroak.nl/"}},"1184591197":{"location":[52.1821523,6.3963322],"ct":"NL","tp":"CS","ts":"2023-07-17T18:00:21Z","tX":530,"tY":337,"tags":{"brand":"VeKaBo","caravans":"yes","email":"erikwelbergen@hetnet.nl","internet_access":"wlan","internet_access:fee":"no","mobile":"+31 6 30807687","name":"Lieftink","opening_hours":"Apr 15 - Oct 15","phone":"+31 573 401 589","shower":"yes","tents":"yes","toilets":"yes","website":"https://www.campinglieftink.nl/"}},"1184794969":{"location":[52.2608618,6.5244493],"ct":"NL","tp":"CS","ts":"2023-06-25T09:35:07Z","tX":530,"tY":337,"tags":{"cabins":"yes","capacity:pitches":"18","caravans":"yes","email":"info@minicamping-dekeujer.nl","landcover":"grass","mobile":"+31 6 13761511","motorhome":"yes","name":"De Keujer","phone":"+31 547 361 241","shower":"yes","start_date":"1998","tents":"yes","toilets":"yes","website":"https://www.minicamping-dekeujer.nl"}},"1191302587":{"location":[52.2625397,6.6626648],"ct":"NL","tp":"CS","ts":"2023-07-21T20:34:56Z","tX":530,"tY":337,"tags":{"caravans":"yes","email":"info@dekroezedanne.nl","name":"De Kroeze Danne","note":"Christelijk vakantie- en conferentiecentrum met aangrenzend een camping","phone":"+31 74 377 1111","shower":"yes","tents":"yes","toilets":"yes","website":"https://www.dekroezedanne.nl/accommodaties/kamperen/kampeerplaats"}},"1193147535":{"location":[52.0534427,6.4472283],"ct":"NL","tp":"CS","ts":"2023-07-29T14:38:54Z","tX":530,"tY":337,"tags":{"capacity:pitches":"20","caravans":"yes","email":"info@dennemaat.nl","landcover":"grass","name":"Dennemaat","phone":"+31 573 461 000","shower":"yes","tents":"yes","toilets":"yes","website":"https://www.dennemaat.nl/"}},"1193152396":{"location":[52.0666094,6.4551736],"ct":"NL","tp":"CS","ts":"2023-08-01T08:03:15Z","tX":530,"tY":337,"tags":{"cabins":"yes","capacity:pitches":"25","caravans":"yes","email":"info@nibink.nl","motorhome":"yes","name":"'n Ibink","phone":"+31 6 51901506","shower":"yes","tents":"yes","toilets":"yes","website":"https://www.nibink.nl/"}},"1193155024":{"location":[52.0612049,6.5735319],"ct":"NL","tp":"CR","ts":"2025-01-23T00:26:20Z","tX":530,"tY":337,"tags":{"caravan_site":"motorhome_stopover","caravan_site:type":"countryside","caravans":"no","charge":"20 EUR","charge:conditional":"17 EUR @ (summer)","email":"info@erveroos.nl","fee":"yes","motorhome":"designated","name":"Erve Roos","opening_hours":"Apr-Nov","phone":"+31 6 54372133","power_supply":"no","power_supply:fee":"no","seasonal":"yes","shower":"yes","toilets":"yes","water_point":"yes","water_point:fee":"no","website":"https://erveroos.nl/"}},"1193159123":{"location":[52.1031335,6.5750152],"ct":"NL","tp":"CS","ts":"2023-07-29T15:29:05Z","tX":530,"tY":337,"tags":{"cabins":"yes","caravans":"yes","email":"info@deeskerhof.nl","mobile":"+31 6 22546775","name":"De Deeskerhof","phone":"+31 545 261 407","shower":"yes","tents":"yes","toilets":"yes","website":"http://www.deeskerhof.nl/"}},"1193170797":{"location":[52.1865601,6.4912733],"ct":"NL","tp":"CS","ts":"2023-07-29T16:20:21Z","tX":530,"tY":337,"tags":{"caravans":"yes","email":"info@erve-hofvanheden.nl","motorhome":"yes","name":"Erve Hof Van (H)Eden","phone":"+31 6 34401168","shower":"yes","tents":"yes","toilets":"yes","website":"https://erve-hofvanheden.nl/"}},"1199300053":{"location":[52.0956046,6.5853027],"ct":"NL","tp":"CS","ts":"2023-08-17T21:43:57Z","tX":530,"tY":337,"tags":{"capacity:pitches":"15","caravans":"yes","mobile":"+31 6 57213622","name":"Campanula","phone":"+31 545 261 346","shower":"yes","tents":"yes","toilets":"yes","website":"https://www.vakantieboerderij-campanula.nl/"}},"1199301134":{"location":[52.1071856,6.5220548],"ct":"NL","tp":"CR","ts":"2025-01-23T10:59:34Z","tX":530,"tY":337,"tags":{"bakery_service":"yes","capacity":"25","caravan_site":"motorhome_stopover","caravan_site:type":"countryside","caravans":"no","charge":"20 EUR","check_in":"13:00","check_out":"12:00","email":"info@camperparkdommerholt.nl","fee":"yes","motorhome":"designated","name":"Camperpark 't Dommelholt","phone":"+31 6 13556937","phone_2":"+31 6 21455807","power_supply":"yes","power_supply:fee":"no","power_supply:maxcurrent":"10","sanitary_dump_station:chemical_toilet":"yes","sanitary_dump_station:fee":"no","sanitary_dump_station:grey_water":"yes","shower":"yes","tents":"no","toilets":"yes","water_point":"yes","water_point:fee":"no","website":"https://www.camperparkdommerholt.nl/"}},"1199302125":{"location":[52.1101788,6.5086172],"ct":"NL","tp":"CS","ts":"2023-08-22T19:48:15Z","tX":530,"tY":337,"tags":{"capacity:pitches":"25","caravans":"yes","email":"info@campingkleinhaneveld.nl","name":"Klein Haneveld","phone":"+31 6 51042225","shower":"yes","tents":"yes","toilets":"yes","website":"https://www.campingkleinhaneveld.nl/wie-zijn-wij/"}},"1203864972":{"location":[52.054036,6.6619585],"ct":"NL","tp":"CS","ts":"2023-08-31T06:50:09Z","tX":530,"tY":337,"tags":{"disused:website":"http://www.dekleinekoerboom.nl/","landcover":"grass","landuse":"grass","name":"De Kleine Koerboom"}},"1262705847":{"location":[52.2548481,6.3738781],"ct":"NL","tp":"CR","ts":"2025-01-15T14:41:26Z","tX":530,"tY":337,"tags":{"attraction":"Boerderijmuseum De Pothaar","caravan_site":"motorhome_stopover","caravan_site:type":"museum","charge":"15 EUR","email":"info@depothaar.nl","name":"Camperplaats De Pothaar","phone":"+31 616591911","power_supply":"yes","power_supply:fee":"no","reservation":"yes","shower":"yes","toilets":"yes","website":"https://depothaar.nl/overnachten/#kamers"}},"1262705848":{"location":[52.254779,6.3739371],"ct":"NL","tp":"CR","ts":"2024-03-14T20:53:28Z","tX":530,"tY":337,"tags":{}},"1263513415":{"location":[52.2572323,6.4590806],"ct":"NL","tp":"CS","ts":"2024-06-30T13:06:49Z","tX":530,"tY":337,"tags":{"name":"Camping De Poppe"}},"1263513416":{"location":[52.256679,6.4606992],"ct":"NL","tp":"CS","ts":"2024-03-17T16:29:28Z","tX":530,"tY":337,"tags":{"name":"Beukenveld"}},"1353684214":{"location":[52.1812217,6.5858444],"ct":"NL","tp":"CR","ts":"2025-01-23T14:32:33Z","tX":530,"tY":337,"tags":{"capacity":"19","caravan_site":"motorhome_stopover","caravan_site:type":"camp_site","charge":"36 EUR","check_in":"14:00","check_out":"12:00","fee":"yes","name":"Camperpark Achterhoek - Den Blanken","operator":"Fam. van Velsen","sanitary_dump_station":"yes","surface":"grass","water_point":"yes","website":"https://www.recreatieparkdenblanken.nl/camperplaatsen/camperplaats"}},"2417814774":{"location":[52.0534791,6.6747734],"ct":"NL","tp":"CS","ts":"2019-03-28T14:18:12Z","tX":530,"tY":337,"tags":{"internet_access":"yes","name":"Camping de Goede Hoop","website":"https://www.degoedehoop.nl/"}},"2658105895":{"location":[52.1938249,6.3818377],"ct":"NL","tp":"CS","ts":"2020-03-14T16:04:22Z","tX":530,"tY":337,"tags":{"addr:city":"Laren","addr:housenumber":"29","addr:postcode":"7245VW","addr:street":"Verwoldseweg","name":"Mini camping Haarman","source":"BAG","source:date":"2014-02-05","website":"https://www.demeidenvanhaarman.nl/camping/"}},"2745839842":{"location":[52.1806908,6.587007],"ct":"NL","tp":"CS","ts":"2022-06-06T09:59:08Z","tX":530,"tY":337,"tags":{"addr:city":"Neede","addr:housenumber":"44","addr:postcode":"7161LW","addr:street":"Diepenheimseweg","email":"info@campingdenblanken.nl","name":"Camping Den Blanken","operator":"Fam. van Velsen","phone":"+31 547 351 353","sanitary_dump_station":"yes","source":"BAG","source:date":"2014-03-24","stars":"4","website":"https://www.campingdenblanken.nl/","wheelchair":"yes"}},"2746170960":{"location":[52.1109727,6.5906236],"ct":"NL","tp":"CS","ts":"2023-05-27T20:42:29Z","tX":530,"tY":337,"tags":{"addr:city":"Haarlo","addr:housenumber":"1","addr:postcode":"7273PP","addr:street":"Veldweg","contact:website":"https://www.campingveldzicht.nl/contact","name":"Camping Veldzicht","source":"BAG","source:date":"2014-03-24","website":"https://www.campingveldzicht.nl/"}},"2747500808":{"location":[52.0682725,6.5023555],"ct":"NL","tp":"CS","ts":"2017-03-17T21:55:27Z","tX":530,"tY":337,"tags":{"addr:city":"Ruurlo","addr:housenumber":"2","addr:postcode":"7261RG","addr:street":"Bekkenwal","contact:website":"https://campingdemeibeek.nl/contact/","name":"Camping De Meibeek","source":"BAG","source:date":"2014-03-24","website":"https://campingdemeibeek.nl"}},"2756117124":{"location":[52.2030465,6.3567977],"ct":"NL","tp":"CS","ts":"2023-05-27T20:41:44Z","tX":530,"tY":337,"tags":{"addr:city":"Laren","addr:housenumber":"1","addr:postcode":"7245RA","addr:street":"Broekdijk","internet_access":"wlan","internet_access:fee":"no","name":"Camping Nijveld","phone":"+31 6 27554790","sanitary_dump_station":"customers","source":"BAG","source:date":"2014-03-24","website":"https://www.campingnijveld.nl/home","wheelchair":"yes"}},"2756140369":{"location":[52.2084959,6.3763345],"ct":"NL","tp":"CS","ts":"2022-06-06T09:59:27Z","tX":530,"tY":337,"tags":{"addr:city":"Laren","addr:housenumber":"1","addr:postcode":"7245SG","addr:street":"Berkenweg","name":"Gelders Laren","phone":"+31 573 402 962","source":"BAG","source:date":"2014-03-24","website":"https://campinggelderslaren.nl/"}},"2756142065":{"location":[52.200065,6.3749584],"ct":"NL","tp":"CS","ts":"2022-06-06T09:59:28Z","tX":530,"tY":337,"tags":{"addr:city":"Laren","addr:housenumber":"7","addr:postcode":"7245TJ","addr:street":"Markeloseweg","email":"info@campinghietkamp.nl","name":"Boerderij Camping Hietkamp","operator":"Fam. R.J. Woestenenk","phone":"+31 573 402 363","source":"BAG","source:date":"2014-03-24","website":"http://www.campinghietkamp.nl/"}},"2788549123":{"location":[52.2531529,6.5041392],"ct":"NL","tp":"CS","ts":"2022-06-06T07:18:07Z","tX":530,"tY":337,"tags":{"addr:city":"Markelo","addr:housenumber":"19a","addr:postcode":"7475SM","addr:street":"Oude Rijssenseweg","email":"dekeite@groenecamping.nl","name":"De Keite","operator":"Familie H.J. ten Tije","phone":"+31 547 334 536","source":"BAG","source:date":"2014-03-24","website":"http://www.groenecamping.nl/"}},"3535200328":{"location":[52.0735205,6.602521],"ct":"NL","tp":"CS","ts":"2018-03-01T08:31:40Z","tX":530,"tY":337,"tags":{"addr:city":"Eibergen","addr:housenumber":"25","addr:postcode":"7151NV","addr:street":"Hupselse Markenweg","name":"De Vlierhof","source":"BAG","source:date":"2018-03-01"}},"3699124042":{"location":[52.191302,6.5740098],"ct":"NL","tp":"CS","ts":"2019-03-28T14:19:06Z","tX":530,"tY":337,"tags":{"addr:city":"Diepenheim","addr:housenumber":"5","addr:postcode":"7478PX","addr:street":"Nijhofweg","name":"De Mölnhöfte","source":"BAG","source:date":"2014-03-24","website":"https://www.molnhofte.nl/"}},"4294724537":{"location":[52.1811887,6.5860667],"ct":"NL","tp":"CR","ts":"2016-07-10T15:28:33Z","tX":530,"tY":337,"tags":{"name":"Camperpark Achterhoek","operator":"Fam. van Velsen"}},"5083069448":{"location":[52.091199,6.6240061],"ct":"NL","tp":"CS","ts":"2018-03-21T15:24:58Z","tX":530,"tY":337,"tags":{"addr:city":"Eibergen","addr:housenumber":"8","addr:postcode":"7151NV","addr:street":"Hupselse Markenweg","name":"De Fontein","source":"BAG","source:date":"2018-03-01"}},"5712320659":{"location":[52.1184024,6.5498655],"ct":"NL","tp":"CS","ts":"2023-05-31T15:20:04Z","tX":530,"tY":337,"tags":{"addr:city":"Geesteren","addr:housenumber":"7","addr:postcode":"7274DR","addr:street":"Overbielseweg","email":"info@campingoverbiel.nl","name":"Camping Overbiel","phone":"+31 545 261 442","website":"http://www.campingoverbiel.nl"}},"7359964482":{"location":[52.0945377,6.5608982],"ct":"NL","tp":"CS","ts":"2020-04-02T19:45:50Z","tX":530,"tY":337,"tags":{"name":"Erve 't Byvanck"}},"7834521786":{"location":[52.0958684,6.4824595],"ct":"NL","tp":"CS","ts":"2023-09-01T06:56:28Z","tX":530,"tY":337,"tags":{"caravans":"yes","name":"Mini camping Brinkman","tents":"yes"}},"9493171988":{"location":[52.1122404,6.5478352],"ct":"NL","tp":"CS","ts":"2022-03-20T13:12:56Z","tX":530,"tY":337,"tags":{"addr:city":"Haarlo","addr:housenumber":"6","addr:postcode":"7273PB","addr:street":"Hogebrugweg","name":"Oetdoor","source":"BAG","source:date":"2022-02-09","website":"https://www.oetdoor.nl/"}},"10873437605":{"location":[52.1951019,6.4350054],"ct":"NL","tp":"CS","ts":"2023-05-06T18:39:35Z","tX":530,"tY":337,"tags":{"name":"Paalkamp Weleveld","name:en":"Bivouac Weleveld"}},"11002755433":{"location":[52.1203455,6.4819404],"ct":"NL","tp":"CS","ts":"2023-06-24T07:26:52Z","tX":530,"tY":337,"tags":{"capacity:pitches":"5","caravans":"no","name":"Stelkampsveld","reservation":"recommended","tents":"yes","toilets":"yes","website":"http://www.rpstelkampsveld.nl"}},"11087437203":{"location":[52.1136987,6.3643666],"ct":"NL","tp":"CS","ts":"2023-08-03T21:51:28Z","tX":530,"tY":337,"tags":{"capacity:pitches":"1","caravans":"yes","email":"info@olthuys.nl","mobile":"+31 6 12380917","name":"Natuurkampeerterrein Olthuys","phone":"+31 575 559 590","reservation":"recommended","shower":"yes","tents":"yes","toilets":"yes","website":"https://olthuys.nl/kamperen/"}},"11165073102":{"location":[52.2017746,6.4129445],"ct":"NL","tp":"CS","ts":"2023-10-02T12:21:17Z","tX":530,"tY":337,"tags":{"caravans":"yes","email":"boerderijcampingschurink@freeler.nl","name":"Schurink","phone":"+31 573 421 281;+31 573 421 379","shower":"yes","tents":"yes","toilets":"yes","website":"http://campingschurink.nl/"}},"11172971766":{"location":[52.0723007,6.6413879],"ct":"NL","tp":"CS","ts":"2023-09-06T21:33:10Z","tX":530,"tY":337,"tags":{"caravans":"yes","email":"eibernest@capfun.com","name":"Het Eibernest","operator":"Capfun","phone":"+31 545 471 268","shower":"yes","tents":"yes","toilets":"yes","website":"https://www.eibernest.nl/accommodaties/kamperen/kampeerplaats"}},"11883184455":{"location":[52.2055891,6.5606824],"ct":"NL","tp":"CS","ts":"2024-10-29T10:46:40Z","tX":530,"tY":337,"tags":{"addr:city":"Diepenheim","addr:housenumber":"1a","addr:postcode":"7478SH","addr:street":"1e Zomerdijk","capacity:pitches":"10","caravans":"yes","dog":"leashed","drinking_water":"yes","email":"info@vinckeboom.nl","fee":"yes","internet_access":"wlan","name":"Buitenplaats Vinckeboom","picnic_table":"yes","power_supply":"yes","shower":"yes","source":"BAG","source:date":"2024-04-12","tents":"yes","toilets":"yes","website":"https://www.vinckeboom.nl"}},"12022785927":{"location":[52.2585846,6.4593187],"ct":"NL","tp":"CS","ts":"2024-07-01T13:05:28Z","tX":530,"tY":337,"tags":{"access":"customers","emergency:phone":"+31 6 5767 4742","name":"Recreatiepark De Poppe","opening_hours":"Th-Sa 09:00-17:00, Mon 09:00-14:00, Su 10:00-17:00, Tu-We closed"}},"6812511346":{"location":[52.2163724,6.3486791],"ct":"NL","tp":"SD","ts":"2019-09-24T04:08:10Z","tX":530,"tY":337,"tags":{"access":"customers","fee":"no","sanitary_dump_station:gravity":"yes"}},"12662965853":{"location":[52.2406632,6.517392],"ct":"NL","tp":"CS","ts":"2025-03-14T15:32:39Z","tX":530,"tY":337,"tags":{"caravans":"yes","tents":"yes"}}}