{"15822857":{"location":[52.0416828,6.3938617],"ct":"NL","tp":"CS","ts":"2024-06-10T14:30:38Z","tX":530,"tY":338,"tags":{"caravans":"yes","fixme":"Teken alle veldjes in als area en zet deze relatie om in een multipolygon zodat er 1 camping is in plaats van 8","mobile":"+31 6 23460385","name":"Landgoed 't Zand","phone":"+31 314 625 378","shower":"yes","tents":"yes","toilets":"yes","website":"https://www.landgoedhetzand.nl"}},"16121103":{"location":[51.9438368,6.5956266],"ct":"NL","tp":"CS","ts":"2023-07-23T13:22:30Z","tX":530,"tY":338,"tags":{"alt_name":"Minicamping TOB","capacity:pitches":"20","caravans":"yes","email":"info@minicampingtob.nl","name":"'T Olde Baôten","opening_hours":"Mar 15 - Sep 30","phone":"+31 6 43840873","shower":"yes","tents":"yes","toilets":"yes","website":"https://www.minicampingtob.nl/"}},"16121202":{"location":[52.0122916,6.5291936],"ct":"NL","tp":"CS","ts":"2023-07-23T14:00:11Z","tX":530,"tY":338,"tags":{"capacity:pitches":"23","caravans":"yes","email":"minicampingdeappelboom@gmail.com","name":"De Appelboom","phone":"+31 6 19824399","shower":"yes","tents":"yes","toilets":"yes","website":"https://minicampingdeappelboom.nl/"}},"58229383":{"location":[52.0448792,6.4066687],"ct":"NL","tp":"CS","ts":"2023-05-30T19:04:43Z","tX":530,"tY":338,"tags":{"landuse":"grass","name":"Natuurcamping Eend","operator":"Landgoed 't Zand","website":"https://www.landgoedhetzand.nl"}},"58229825":{"location":[52.040281,6.3424779],"ct":"NL","tp":"CS","ts":"2023-07-29T14:27:53Z","tX":530,"tY":338,"tags":{"cabins":"yes","capacity:cabins":"1","capacity:pitches":"15","caravans":"yes","email":"info@dekloostertuin.info","landcover":"grass","mobile":"+31 6 51071044","name":"De Kloostertuin","phone":"+31 575 463 369","shower":"yes","tents":"yes","toilets":"yes","website":"https://de-kloostertuin.business.site/"}},"58230049":{"location":[52.0419287,6.3978215],"ct":"NL","tp":"CS","ts":"2024-06-10T14:30:38Z","tX":530,"tY":338,"tags":{"landuse":"grass","name":"Natuurcamping Veldhoen","operator":"Landgoed 't Zand","source":"3dShapes","website":"https://www.landgoedhetzand.nl"}},"58230430":{"location":[52.0481652,6.367444],"ct":"NL","tp":"CS","ts":"2023-05-30T19:04:43Z","tX":530,"tY":338,"tags":{"brand":"SVR","capacity:pitches":"10","caravans":"yes","email":"info@meestershuus.nl","internet_access":"wlan","name":"'t Meestershuus","opening_hours":"Apr 1 - Oct 31","phone":"+31 575 467 376","shower":"yes","tents":"yes","toilets":"yes","website":"https://www.meestershuus.nl"}},"58287539":{"location":[51.9263477,6.6407614],"ct":"NL","tp":"CS","ts":"2023-05-30T12:18:33Z","tX":530,"tY":338,"tags":{"brand":"SVR","capacity:pitches":"15","caravans":"yes","landcover":"grass","name":"Slotboom","phone":"+31 543 565 236","shower":"yes","tents":"yes","toilets":"yes","website":"https://www.campingslotboom.nl/"}},"58829845":{"location":[51.9227172,6.4804979],"ct":"NL","tp":"CS","ts":"2025-01-22T23:19:07Z","tX":530,"tY":338,"tags":{"addr:city":"Sinderen","addr:housenumber":"9","addr:postcode":"7065BW","addr:street":"Kasselderstraat","caravans":"yes","contact:email":"info@campingdezonnehoek.com","contact:phone":"+31 6 46440932","contact:website":"http://www.campingdezonnehoek.com/","laundry":"yes","name":"De Zonnehoek","permanent_camping":"yes","power_supply":"yes","static_caravans":"yes","tents":"yes"}},"58905283":{"location":[51.9837026,6.4482036],"ct":"NL","tp":"CS","ts":"2023-05-31T15:20:09Z","tX":530,"tY":338,"tags":{"email":"info@campinghessenoord.nl","internet_access":"no","landuse":"grass","name":"Hessenoord","note":"Natuurkampeerkaart verplicht","phone":"+31 6 53764791","source":"3dShapes; local knowledge","website":"https://www.campinghessenoord.nl"}},"58905369":{"location":[51.984775,6.4481121],"ct":"NL","tp":"CS","ts":"2023-09-09T20:40:17Z","tX":530,"tY":338,"tags":{"addr:city":"Halle","addr:housenumber":"4","addr:postcode":"7025DP","addr:street":"Landstraat","caravans":"yes","drinking_water":"yes","email":"info@campinghessenoord.nl","internet_access":"yes","landuse":"grass","name":"Hessenoord","note":"Natuurkampeerkaart verplicht","phone":"+31 6 53764791","source":"3dShapes;local knowledge","tents":"yes","website":"https://www.campinghessenoord.nl"}},"58911168":{"location":[52.0159876,6.3950522],"ct":"NL","tp":"CS","ts":"2023-06-13T05:54:47Z","tX":530,"tY":338,"tags":{"addr:city":"Zelhem","addr:housenumber":"29","addr:postcode":"7021HP","addr:street":"Meeneweg","contact:email":"j.reinders@live.nl","contact:mobile":"+31 6 55732132","contact:phone":"+31 314 621 059","contact:website":"https://www.hetbosland.nl/","group_only":"yes","name":"Groepscamping Het Bosland"}},"58918186":{"location":[51.8898359,6.5689168],"ct":"NL","tp":"CS","ts":"2023-08-25T17:31:14Z","tX":530,"tY":338,"tags":{"addr:city":"Aalten","addr:country":"NL","addr:housenumber":"14","addr:postcode":"7122JN","addr:street":"Essinkweg","landuse":"grass","name":"Minicamping Koenders","source":"BAG","source:date":"2014-03-24","website":"https://www.minicamping-koenders.nl"}},"58920797":{"location":[51.946564,6.368456],"ct":"NL","tp":"CS","ts":"2021-07-19T07:31:48Z","tX":530,"tY":338,"tags":{"landuse":"grass","name":"Kampeerboerderij Villa's Weide","source":"3dShapes","website":"http://www.kampeer-boerderij.nl/"}},"59040175":{"location":[51.9207374,6.5353542],"ct":"NL","tp":"CS","ts":"2023-06-13T05:54:47Z","tX":530,"tY":338,"tags":{"addr:city":"Aalten","addr:housenumber":"13","addr:postcode":"7122MJ","addr:street":"Gendringseweg","caravans":"yes","contact:email":"els.verschoor@hotmail.com","contact:mobile":"+31 6 51275902","contact:phone":"+31 543 461 319","contact:website":"http://minicampingdeanderekant.nl/","name":"Camping De Andere Kant (FKK)","nudism":"designated","source":"BAG","source:date":"2014-03-24","tents":"yes"}},"59042209":{"location":[51.9095857,6.4153364],"ct":"NL","tp":"CS","ts":"2023-05-30T12:18:33Z","tX":530,"tY":338,"tags":{"addr:city":"Silvolde","addr:housenumber":"18","addr:postcode":"7064KL","addr:street":"Kapelweg","caravans":"yes","contact:email":"info@meyboske.nl","contact:phone":"+31 315 329 728","contact:website":"https://www.meyboske.nl/","internet_access":"yes","internet_access:fee":"no","name":"'t Meyböske","opening_hours":"Apr 1-Nov 1","operator":"Dennis en Gerlinde van Dongen","sanitary_dump_station":"yes","tents":"yes","wheelchair":"limited"}},"59042766":{"location":[51.9102788,6.4074269],"ct":"NL","tp":"CS","ts":"2023-05-30T12:18:33Z","tX":530,"tY":338,"tags":{"brand":"SVR","cabins":"yes","capacity:cabins":"4","capacity:pitches":"22","caravans":"yes","contact:phone":"+31 315 323 763","name":"Op de Keizer","shower":"yes","tents":"yes","toilets":"yes","website":"https://www.opdekeizer.nl/"}},"59042995":{"location":[51.9104614,6.4281792],"ct":"NL","tp":"CS","ts":"2025-01-09T21:37:14Z","tX":530,"tY":338,"tags":{"addr:city":"Sinderen","addr:housenumber":"22","addr:postcode":"7065AN","addr:street":"Kapelweg","caravans":"yes","contact:email":"info@nieuwebuyl.nl","contact:phone":"+31 6 13983898;+31 6 83985580","contact:website":"https://www.nieuwebuyl.nl/","drinking_water":"yes","internet_access":"wlan","name":"Natuurkampeerterrein Nieuwe Buyl","operator":"Sam, Ina en Jolanda van Erkel","payment:cash":"yes","power_supply":"yes","sanitary_dump_station":"no","shower":"yes","tents":"yes","toilets":"yes","wheelchair":"no"}},"59051960":{"location":[51.8375329,6.4034059],"ct":"NL","tp":"CS","ts":"2014-12-16T21:41:22Z","tX":530,"tY":338,"tags":{"landuse":"grass","name":"Camping \"De Bosrand\"","source":"3dShapes"}},"137006654":{"location":[51.9484862,6.6427821],"ct":"NL","tp":"CS","ts":"2024-05-29T08:57:46Z","tX":530,"tY":338,"tags":{"name":"Vakantiepark De Twee Bruggen","source":"BAG","source:date":"2014-03-24","website":"https://www.detweebruggen.nl/"}},"295095671":{"location":[51.8628971,6.6106237],"ct":"DE","tp":"CR","ts":"2025-01-29T13:49:38Z","tX":530,"tY":338,"tags":{"addr:city":"Bocholt","addr:street":"Hemdener Ringstraße","capacity":"10","caravan_site":"motorhome_stopover","caravan_site:type":"swimming_pool","charge":"10 EUR","dog":"yes","fee":"yes","maxstay":"3 nights","name":"Wohnmobilstellplatz Sauna- & Wasserwelten Bahia","sanitary_dump_station":"yes","water_point":"yes","water_point:charge":"1 EUR","water_point:fee":"yes","website":"https://www.bocholt.de/freizeit-und-tourismus/uebernachten/wohnmobil-stellplaetze"}},"347990184":{"location":[52.0462036,6.404524],"ct":"NL","tp":"CS","ts":"2023-05-30T19:04:49Z","tX":530,"tY":338,"tags":{"name":"Natuurcamping Fazant","operator":"Landgoed 't Zand","website":"https://www.landgoedhetzand.nl"}},"374470999":{"location":[51.9706576,6.359686],"ct":"NL","tp":"CS","ts":"2024-05-18T17:38:42Z","tX":530,"tY":338,"tags":{"addr:city":"Doetinchem","addr:housenumber":"9","addr:postcode":"7004HW","addr:street":"Loordijk","contact:website":"https://www.campingplukdedag.nl/","name":"Wandelcamping Pluk de Dag","website":"https://www.campingplukdedag.nl/"}},"374531886":{"location":[51.946567,6.3317512],"ct":"NL","tp":"CS","ts":"2024-08-08T13:43:44Z","tX":530,"tY":338,"tags":{"addr:city":"Doetinchem","addr:housenumber":"144-146","addr:postcode":"7004HD","addr:street":"Rekhemseweg","contact:website":"https://www.dewrange.nl/contact","name":"Recreatiepark De Wrange","website":"https://www.dewrange.nl"}},"377706612":{"location":[51.9313105,6.6187056],"ct":"NL","tp":"CS","ts":"2023-05-30T19:05:12Z","tX":530,"tY":338,"tags":{"contact:website":"https://www.campingboomans.nl/contact","internet_access":"wlan","name":"Camping Chaletpark Boomans","website":"https://www.campingboomans.nl/","wheelchair":"yes"}},"417319523":{"location":[51.9754455,6.5648866],"ct":"NL","tp":"CS","ts":"2023-05-30T19:05:03Z","tX":530,"tY":338,"tags":{"addr:city":"Lichtenvoorde","addr:housenumber":"72","addr:postcode":"7131NZ","addr:street":"Oude Aaltenseweg","contact:website":"https://www.campingdekei.nl/contact-opnemen-met-minicamping-de-kei-achterhoek.html","internet_access":"wlan","name":"Minicamping de Kei","source":"BAG","source:date":"2014-02-11","website":"https://www.campingdekei.nl/"}},"438158336":{"location":[51.9310664,6.4280588],"ct":"NL","tp":"CS","ts":"2023-05-31T15:20:08Z","tX":530,"tY":338,"tags":{"name":"De Speelhoeve","phone":"+31 315 298 635","website":"https://www.despeelhoeve.com"}},"465960335":{"location":[52.0101502,6.3869321],"ct":"NL","tp":"CS","ts":"2024-11-09T18:13:48Z","tX":530,"tY":338,"tags":{"name":"Camping De Betteld","phone":"+31 314 627 200","website":"https://www.betteld.nl/nl/zelhem"}},"477293755":{"location":[52.003378,6.3634121],"ct":"NL","tp":"CS","ts":"2023-12-10T18:45:33Z","tX":530,"tY":338,"tags":{"name":"Camping Pluimerskamp","website":"https://www.pluimerskamp.nl/"}},"482471318":{"location":[51.9856281,6.4658633],"ct":"NL","tp":"CS","ts":"2023-06-24T06:30:27Z","tX":530,"tY":338,"tags":{"capacity":"15","caravans":"yes","email":"info@hofshoeve.nl","mobile":"+31 6 55988410","name":"Hofshoeve","operator":"Familie Hofs","phone":"+31 314 631 355","shower":"yes","tents":"yes","toilets":"yes","website":"https://www.hofshoeve.nl"}},"489411950":{"location":[52.0378965,6.6340763],"ct":"NL","tp":"CS","ts":"2024-04-12T18:31:37Z","tX":530,"tY":338,"tags":{"addr:city":"Groenlo","addr:housenumber":"6","addr:postcode":"7141DH","addr:street":"Elshofweg","dog":"leashed","email":"info@marveld.nl","name":"Marveld Recreatie","phone":"+31 544 466 000","stars":"5","website":"https://www.marveld.nl"}},"610898087":{"location":[51.9040379,6.452534],"ct":"NL","tp":"CS","ts":"2023-06-24T06:19:49Z","tX":530,"tY":338,"tags":{"brand":"SVR","cabins":"yes","capacity:motorhome":"4","caravans":"yes","contact:email":"info@biezenhof.com","contact:phone":"+31 315 617 652;+31 6 44748623;+31 6 49004012","contact:website":"https://www.biezenhof.com","internet_access":"wlan","internet_access:fee":"no","motorhome":"yes","name":"De Biezenhof","operator":"Han & Ida Wisman","sanitary_dump_station":"yes","shower":"yes","tents":"yes","toilets":"yes"}},"618255106":{"location":[51.9098293,6.5760963],"ct":"NL","tp":"CS","ts":"2018-08-20T12:34:07Z","tX":530,"tY":338,"tags":{"name":"Kempink"}},"625688315":{"location":[52.0305062,6.339422],"ct":"NL","tp":"CS","ts":"2023-06-13T05:54:47Z","tX":530,"tY":338,"tags":{"cabins":"yes","capacity:pitches":"20","caravans":"yes","email":"camping@roekevisch.nl","name":"Camping 't Bosch","phone":"+31 314 623 145","shower":"yes","tents":"yes","toilets":"yes","website":"http://www.roekevisch.nl/"}},"625977079":{"location":[51.915945,6.3721477],"ct":"NL","tp":"CR","ts":"2025-01-22T23:16:52Z","tX":530,"tY":338,"tags":{"capacity":"4","caravan_site":"motorhome_stopover","caravan_site:type":"parking_lot","fee":"no","maxstay":"72 hours","name":"Camperplaats de Paasberg Silvolde","power_supply":"no","sanitary_dump_station":"no","water_point":"no"}},"625979558":{"location":[51.8697972,6.3797978],"ct":"NL","tp":"CR","ts":"2018-09-16T15:06:28Z","tX":530,"tY":338,"tags":{"capacity":"2","fee":"no","maxstay":"72 hours","name":"Camperplaats Gendringen"}},"701415243":{"location":[51.9574895,6.3790176],"ct":"NL","tp":"CS","ts":"2023-05-30T12:19:03Z","tX":530,"tY":338,"tags":{"addr:city":"Doetinchem","addr:housenumber":"4","addr:postcode":"7004JE","addr:street":"Stadsheidelaan","backcountry":"no","cabins":"no","camp_site":"standard","caravans":"yes","fee":"yes","group_only":"no","internet_access":"no","motor_vehicle":"yes","name":"Natuurkampeerterrein Distelheide","openfire":"yes","phone":"+31 6 15404236","sanitary_dump_station":"yes","static_caravans":"no","tents":"yes","toilets":"yes","website":"https://www.distelheide.nl/"}},"762618145":{"location":[51.9331667,6.6059998],"ct":"NL","tp":"CR","ts":"2020-03-07T11:44:01Z","tX":530,"tY":338,"tags":{"internet_access":"wlan","name":"'t Walfort","website":"https://www.campingwalfort.nl/","wheelchair":"yes"}},"797847856":{"location":[51.9860101,6.3505437],"ct":"NL","tp":"CS","ts":"2023-08-19T21:11:59Z","tX":530,"tY":338,"tags":{"cabins":"yes","capacity:pitches":"14","caravans":"yes","email":"maronhilverda@me.com","fee":"yes","internet_access":"wlan","motorhome":"yes","name":"Brugginck","power_supply":"yes","sanitary_dump_station":"yes","shower":"yes","tents":"yes","toilets":"yes","website":"https://www.campingbrugginck.nl"}},"807587396":{"location":[52.0155805,6.6679313],"ct":"NL","tp":"CS","ts":"2021-04-26T18:28:25Z","tX":530,"tY":338,"tags":{"capacity":"20","caravans":"yes","internet_access":"wlan","internet_access:fee":"no","name":"Wellness Camping Stoltenborg","tents":"yes","website":"https://wellness-camping-stoltenborg.nl/"}},"807612696":{"location":[51.9702942,6.6469544],"ct":"NL","tp":"CS","ts":"2021-02-20T13:14:08Z","tX":530,"tY":338,"tags":{"name":"Minicamping 't Voorde","website":"https://minicamping-voorde.com/"}},"808050909":{"location":[51.9774448,6.5601821],"ct":"NL","tp":"CS","ts":"2023-05-30T19:04:52Z","tX":530,"tY":338,"tags":{"access":"customers","addr:city":"Lichtenvoorde","addr:housenumber":"64b","addr:postcode":"7131NZ","addr:street":"Oude Aaltenseweg","capacity":"25","name":"Minicamping De Flier","operator":"De Flier","phone":"+31 6 28271544","website":"https://campingdeflier.nl"}},"854671718":{"location":[51.8827763,6.5096917],"ct":"NL","tp":"CS","ts":"2023-05-30T12:19:08Z","tX":530,"tY":338,"tags":{"addr:city":"De Heurne","addr:housenumber":"41","addr:postcode":"7095CE","addr:street":"Spekkendijk","email":"deblokke@outlook.com","name":"De Blökke","phone":"+31 315 651 305","website":"https://www.deblokke.nl"}},"887558554":{"location":[51.9286606,6.4413965],"ct":"NL","tp":"CS","ts":"2020-12-22T15:20:10Z","tX":530,"tY":338,"tags":{"addr:city":"Sinderen","addr:housenumber":"6","addr:postcode":"7065AH","addr:street":"Idinkweg","caravans":"yes","contact:email":"info@eikenbos.nl","contact:phone":"+31 6 13455860","contact:website":"https://www.eikenbos.nl/","name":"Camping 't Eikenbos","operator":"Geurt en Heidi Neerlaar","tents":"yes"}},"887678959":{"location":[52.0345088,6.3971721],"ct":"NL","tp":"CS","ts":"2023-06-13T05:54:47Z","tX":530,"tY":338,"tags":{"addr:city":"Zelhem","addr:housenumber":"5","addr:postcode":"7021HC","addr:street":"Petersdijk","contact:email":"info@campingwolfersweide.nl","contact:mobile":"+31 6 15965121","contact:phone":"+31 314 624 888","contact:website":"http://www.campingwolfersweide.nl","designation":"Vekabo","name":"Wolfersweide"}},"888767303":{"location":[51.9443202,6.5431489],"ct":"NL","tp":"CS","ts":"2024-12-04T16:38:42Z","tX":530,"tY":338,"tags":{"addr:city":"Aalten","addr:housenumber":"3","addr:postcode":"7122PC","addr:street":"Boterdijk","caravans":"yes","contact:email":"info@goorzicht.nl","contact:phone":"+31 543 461 339","contact:website":"https://www.goorzicht.nl/","name":"Camping Goorzicht","operator":"Fam. te Dorsthorst","tents":"yes"}},"891320870":{"location":[52.0477769,6.6308217],"ct":"NL","tp":"CS","ts":"2025-01-23T00:22:54Z","tX":530,"tY":338,"tags":{"capacity":"25","name":"Minicamping Groot Antink","website":"https://grootantink.nl/camping/"}},"958655785":{"location":[51.8772858,6.4869822],"ct":"NL","tp":"CS","ts":"2023-05-30T12:19:11Z","tX":530,"tY":338,"tags":{"addr:city":"De Heurne","addr:housenumber":"2","addr:postcode":"7095AC","addr:street":"Stegerdijk","email":"camping@destege.nl","name":"Minicamping De Stege","phone":"+31 315 655 526","website":"https://www.destege.nl/"}},"1086239971":{"location":[51.8783617,6.4989053],"ct":"NL","tp":"CS","ts":"2023-06-13T05:54:48Z","tX":530,"tY":338,"tags":{"addr:city":"De Heurne","addr:housenumber":"14","addr:postcode":"7095CH","addr:street":"Hoge Heurnseweg","contact:mobile":"+31 6 10851793","contact:phone":"+31 315 654 364","name":"Boerderijcamping de Mebel","website":"https://www.demebel.nl/"}},"1118861720":{"location":[51.9929707,6.5311939],"ct":"NL","tp":"CS","ts":"2023-07-23T13:41:05Z","tX":530,"tY":338,"tags":{"cabins":"yes","capacity:cabins":"1","capacity:pitches":"15","caravans":"yes","email":"info@camping-woltas.nl","landuse":"meadow","name":"Woltas","shower":"yes","tents":"yes","toilets":"yes","website":"https://www.camping-woltas.nl/"}},"1164662061":{"location":[51.9296974,6.4025278],"ct":"NL","tp":"CS","ts":"2023-05-30T12:19:15Z","tX":530,"tY":338,"tags":{"cabins":"yes","capacity":"15","capacity:cabins":"1","caravans":"yes","email":"sylaw000@planet.nl","landcover":"grass","motorhome":"yes","name":"Camping Halfweg","phone":"+31 6 51127805;+31 6 85341889","shower":"yes","tents":"yes","toilets":"yes","website":"http://www.halfweg.net/"}},"1169192017":{"location":[51.9563067,6.4091207],"ct":"NL","tp":"CS","ts":"2023-06-13T05:54:48Z","tX":530,"tY":338,"tags":{"brand":"SVR","capacity:pitches":"15","caravans":"yes","internet_access":"yes","internet_access:fee":"no","mobile":"+31 6 41208606","name":"'t Erinkveld","operator":"Fam. Hagelaars","phone":"+31 315 298 218","sanitary_dump_station":"customers","shower":"yes","tents":"yes","toilets":"yes","website":"https://www.boerderij-campings.nl/camping/t-erinkveld"}},"1169192025":{"location":[51.8621691,6.3848275],"ct":"NL","tp":"CS","ts":"2023-05-30T12:19:16Z","tX":530,"tY":338,"tags":{"brand":"SVR","cabins":"yes","capacity:cabins":"2","capacity:caravans":"15","caravans":"yes","contact:whatsapp":"+31 6 28929559;+31 6 45663997","email":"info@campingtzwaantje.nl","landcover":"grass","motorhome":"yes","name":"'t Zwaantje","phone":"+31 6 28929559;+31 6 45663997","shower":"yes","start_date":"1986","tents":"yes","toilets":"yes","website":"https://campingtzwaantje.nl/"}},"1169249632":{"location":[52.0521285,6.6531955],"ct":"NL","tp":"CS","ts":"2023-05-06T07:42:48Z","tX":530,"tY":338,"tags":{"brand":"SVR","capacity:pitches":"25","caravans":"yes","email":"info@desnippert.nl","name":"De Snippert","phone":"+31 6 24821281","shower":"yes","tents":"yes","toilets":"yes","website":"https://www.desnippert.nl/"}},"1188717138":{"location":[51.8999557,6.5087569],"ct":"NL","tp":"CS","ts":"2023-07-10T19:22:09Z","tX":530,"tY":338,"tags":{"cabins":"yes","capacity:cabins":"2","capacity:pitches":"7","caravans":"yes","email":"info@caspershuus.nl","name":"Caspershuus","phone":"+31 6 40253839","shower":"yes","tents":"yes","toilets":"yes","website":"https://www.caspershuus.nl/index.php/de-camping/"}},"1191587822":{"location":[51.950057,6.5330172],"ct":"NL","tp":"CS","ts":"2023-07-23T13:29:58Z","tX":530,"tY":338,"tags":{"capacity:pitches":"28","caravans":"yes","email":"info@dewolboom.nl","mobile":"+31 6 51845296","name":"De Wolboom","phone":"+31 543 461 377","shower":"yes","tents":"yes","toilets":"yes","website":"https://www.dewolboom.nl/"}},"1191589247":{"location":[51.9830487,6.5923132],"ct":"NL","tp":"CS","ts":"2023-07-23T13:35:32Z","tX":530,"tY":338,"tags":{"caravans":"yes","email":"info@zotteschaap.nl","name":"'T Zotte Schaap","opening_hours":"Apr 1 - Sep 30","phone":"+31 6 39369229","shower":"yes","tents":"yes","toilets":"yes","website":"https://zotteschaap.nl/"}},"1193032160":{"location":[52.038427,6.5769063],"ct":"NL","tp":"CS","ts":"2023-07-28T21:51:01Z","tX":530,"tY":338,"tags":{"capacity:pitches":"8","caravans":"yes","email":"dehippekip@live.nl","name":"De Hippe Kip","phone":"+31 6 44492327","shower":"yes","tents":"yes","toilets":"yes","website":"https://www.minicampingdehippekip.nl/"}},"1205055392":{"location":[51.9723032,6.3743535],"ct":"NL","tp":"CS","ts":"2023-09-04T21:31:54Z","tX":530,"tY":338,"tags":{"capacity:pitches":"15","caravans":"yes","email":"brunsveld@slangenburg.nl","name":"Brunsveld","phone":"+31 315 298 589","shower":"yes","tents":"yes","toilets":"yes","website":"https://www.slangenburg.nl/brunsveld/"}},"1351550955":{"location":[51.9922741,6.5649764],"ct":"NL","tp":"CR","ts":"2025-01-15T13:12:07Z","tX":530,"tY":338,"tags":{"capacity":"8","caravan_site":"motorhome_stopover","caravan_site:type":"swimming_pool","caravans":"no","charge":"10 EUR","description":"extra places on parking lot at same price, without power supply","fee":"yes","name":"Camperplaats Zwembad Meekenesch","payment:CamperContact":"yes","payment:CamperPay":"yes","payment:cash":"no","payment:credit_cards":"no","power_supply":"yes","power_supply:charge":"0.60 EUR/kWh","power_supply:fee":"yes","reservation":"no","sanitary_dump_station":"yes","shower":"yes","socket:cee_blue":"yes","surface":"grass_paver","toilets":"yes","trailer":"no","water_point":"yes","water_point:charge":"1 EUR/90 liter","water_point:fee":"yes","website":"https://www.meekenesch.nl/huren/camperplaats/"}},"1353544416":{"location":[51.9986025,6.3450913],"ct":"NL","tp":"CR","ts":"2025-01-23T00:08:52Z","tX":530,"tY":338,"tags":{"capacity":"2","caravan_site":"motorhome_stopover","caravan_site:type":"parking_lot","fee":"no","maxstay":"24 hours","name":"Camperplaats Zelhem","power_supply":"no","sanitary_dump_station":"no","seasonal":"no","water_point":"no"}},"1353544869":{"location":[52.0146303,6.357508],"ct":"NL","tp":"CR","ts":"2025-01-23T00:14:01Z","tX":530,"tY":338,"tags":{"capacity":"8","caravan_site":"motorhome_stopover","caravan_site:type":"distillery","charge":"14.10 EUR","designation":"campers","dog":"leashed","email":"info@distilleerderijdebronckhorst.nl","fee":"yes","internet_access":"wlan","internet_access:fee":"no","maxlength":"13","name":"De Bronckhorst","phone":"+31 6 13 78 92 68","power_supply":"yes","power_supply:charge":"3.40 EUR","power_supply:fee":"yes","power_supply:maxcurrent":"16","sanitary_dump_station":"yes","sanitary_dump_station:chemical_toilet":"yes","sanitary_dump_station:fee":"no","sanitary_dump_station:grey_water":"yes","shower":"no","tents":"no","toilets":"no","water_point":"yes","website":"https://www.camperplaatsdebronckhorst.nl/"}},"1409823487":{"location":[51.8994125,6.3543907],"ct":"NL","tp":"CS","ts":"2011-08-23T12:19:17Z","tX":530,"tY":338,"tags":{"name":"Camping 'Slootermeer'"}},"2343328475":{"location":[52.0345613,6.3875622],"ct":"NL","tp":"CS","ts":"2020-06-12T10:22:19Z","tX":530,"tY":338,"tags":{"addr:city":"Zelhem","addr:housenumber":"4","addr:postcode":"7021HE","addr:street":"Berkendijk","name":"Natuurkampeerterrein Het Zand","operator":"Landgoed 't Zand","website":"https://www.natuurkampeerterreinen.nl/terreinen/gelderland/landgoed-het-zand-hattemer-oldenburger/"}},"2401561576":{"location":[52.0482528,6.4141197],"ct":"NL","tp":"CS","ts":"2016-02-13T12:58:02Z","tX":530,"tY":338,"tags":{"designation":"Vekabo","name":"De Veldhoek"}},"2757200136":{"location":[52.0143981,6.5127476],"ct":"NL","tp":"CS","ts":"2018-12-08T11:32:46Z","tX":530,"tY":338,"tags":{"addr:city":"Zieuwent","addr:housenumber":"3","addr:postcode":"7136KM","addr:street":"Grobbenweg","motorcycle:theme":"yes","motorcycle_friendly":"yes","name":"Motorcamping bij het Vuur","source":"BAG","source:date":"2014-03-24","website":"http://motorcampingbijhetvuur.nl"}},"2757268035":{"location":[52.006811,6.5902231],"ct":"NL","tp":"CS","ts":"2023-05-27T20:41:56Z","tX":530,"tY":338,"tags":{"addr:city":"Lievelde","addr:housenumber":"106","addr:postcode":"7137MC","addr:street":"Lievelderweg","group_only":"yes","name":"Beusink Recreatie","source":"BAG","source:date":"2014-03-24","website":"https://www.beusink.nl"}},"2757269269":{"location":[52.0288621,6.5850325],"ct":"NL","tp":"CS","ts":"2020-09-02T14:05:25Z","tX":530,"tY":338,"tags":{"addr:city":"Lievelde","addr:housenumber":"3b","addr:postcode":"7137HB","addr:street":"Droebertweg","name":"De Leeghte minicamping","source":"BAG","source:date":"2014-03-24","website":"https://www.deleeghte.nl/de-camping/"}},"2757704657":{"location":[51.960541,6.4851812],"ct":"NL","tp":"CS","ts":"2014-05-22T09:53:30Z","tX":530,"tY":338,"tags":{"addr:city":"Heelweg","addr:housenumber":"4A","addr:postcode":"7055AX","addr:street":"Molenweg","name":"De Kool","source":"BAG","source:date":"2014-03-24"}},"2811935797":{"location":[51.9424658,6.5420795],"ct":"NL","tp":"CS","ts":"2024-12-04T16:38:42Z","tX":530,"tY":338,"tags":{"addr:city":"Aalten","addr:housenumber":"2","addr:postcode":"7122PC","addr:street":"Boterdijk","name":"De Nieuwe Welpshof","source":"BAG","source:date":"2014-03-24","website":"https://denieuwewelpshof.nl/"}},"2811937512":{"location":[51.9541531,6.5762045],"ct":"NL","tp":"CS","ts":"2021-03-26T21:12:31Z","tX":530,"tY":338,"tags":{"addr:city":"Aalten","addr:housenumber":"59","addr:postcode":"7122RT","addr:street":"Markerinkdijk","name":"Boerderij 't Lankhof","source":"BAG","source:date":"2014-03-24","website":"https://www.tlankhof.nl/"}},"3542140056":{"location":[52.0385279,6.3930926],"ct":"NL","tp":"CS","ts":"2024-06-10T14:30:38Z","tX":530,"tY":338,"tags":{"name":"Natuurcamping Buizerd","operator":"Landgoed 't Zand","website":"https://www.landgoedhetzand.nl"}},"3542140057":{"location":[52.0339974,6.3857748],"ct":"NL","tp":"CS","ts":"2024-06-10T14:30:38Z","tX":530,"tY":338,"tags":{"name":"Natuurcamping Hazeveld","operator":"Landgoed 't Zand","website":"https://www.landgoedhetzand.nl"}},"3542140058":{"location":[52.0371516,6.3802827],"ct":"NL","tp":"CS","ts":"2024-06-10T14:30:38Z","tX":530,"tY":338,"tags":{"name":"Natuurcamping Konijnenwei","website":"https://www.landgoedhetzand.nl"}},"3542140059":{"location":[52.0493681,6.4061147],"ct":"NL","tp":"CS","ts":"2024-06-10T14:30:38Z","tX":530,"tY":338,"tags":{"name":"Natuurcamping Reebok","operator":"Landgoed 't Zand","website":"https://www.landgoedhetzand.nl"}},"3542140060":{"location":[52.0343127,6.3863913],"ct":"NL","tp":"CS","ts":"2024-06-10T14:30:38Z","tX":530,"tY":338,"tags":{"name":"Natuurcamping Specht","operator":"Landgoed 't Zand","website":"https://www.landgoedhetzand.nl"}},"3961117180":{"location":[51.9922416,6.5648524],"ct":"NL","tp":"CR","ts":"2022-01-27T20:01:50Z","tX":530,"tY":338,"tags":{"capacity":"3"}},"9876891779":{"location":[51.8627809,6.6100936],"ct":"DE","tp":"SD","ts":"2025-01-29T13:49:38Z","tX":530,"tY":338,"tags":{"brand":"SaniStation"}},"5051033441":{"location":[52.0517301,6.5078974],"ct":"NL","tp":"CS","ts":"2017-08-22T12:02:34Z","tX":530,"tY":338,"tags":{}},"8874667010":{"location":[51.9230203,6.5168624],"ct":"NL","tp":"CS","ts":"2025-03-08T20:51:21Z","tX":530,"tY":338,"tags":{"addr:city":"Aalten","addr:housenumber":"27D","addr:postcode":"7122ME","addr:street":"Gendringseweg","capacity":"5","name":"De Möllenhook","operator":"Logiesverblijf & Kleinschalige Camping De Möllenhook","website":"https://www.demolenhoek.net/"}},"10876277627":{"location":[52.0401543,6.3799981],"ct":"NL","tp":"CS","ts":"2023-05-25T12:07:53Z","tX":530,"tY":338,"tags":{"contact:mobile":"+31 6 55155767","email":"landgoeddehoenderkamp@scouting.nl","name":"Scouting Labelterrein Landgoed De Hoenderkamp","note":"Veldjes heten Wulp , Grutto en Vossebult","operator":"Hélène de Fremery","phone":"+31 575 472 339","scout":"yes","website":"https://landgoeddehoenderkamp.scouting.nl/"}},"5904845390":{"location":[51.9986048,6.3450938],"ct":"NL","tp":"CR","ts":"2024-05-26T16:03:29Z","tX":530,"tY":338,"tags":{"capacity":"2","fee":"no","maxstay":"24 hours","name":"Camperplaats Zelhem"}},"5909920449":{"location":[51.9333853,6.581935],"ct":"NL","tp":"CR","ts":"2025-01-21T15:42:39Z","tX":530,"tY":338,"tags":{"capacity":"4","caravan_site":"motorhome_stopover","caravan_site:type":"parking_lot;restaurant","charge":"10 EUR/24 hours","email":"info@het-noorden.com","fee":"no","maxstay":"72 hours","name":"Camperplaats 't Noorden Aalten","power_supply":"yes","sanitary_dump_station":"yes","seasonal":"no","website":"https://achterhoek.nl/camperplaats-t-noorden"}},"8284380844":{"location":[52.0478546,6.6314507],"ct":"NL","tp":"CR","ts":"2021-01-02T18:42:21Z","tX":530,"tY":338,"tags":{"capacity":"3","name":"Camperplaatsen Groot Antink"}},"8987491424":{"location":[52.0146323,6.3574157],"ct":"NL","tp":"CR","ts":"2021-08-07T10:14:24Z","tX":530,"tY":338,"tags":{"designation":"campers","name":"De Bronckhorst","tents":"no","website":"https://www.campercontact.com/nl/nederland/gelderland/zelhem/99429/camperlocatie-de-bronckhorst"}},"5999064233":{"location":[51.9039305,6.4522737],"ct":"NL","tp":"SD","ts":"2018-10-19T21:19:38Z","tX":530,"tY":338,"tags":{}}}