{"59051901":{"location":[51.8353346,6.3997603],"ct":"NL","tp":"CS","ts":"2025-04-09T18:55:56Z","tX":530,"tY":339,"tags":{"caravans":"yes","email":"info@oostenriek.nl","landcover":"grass","name":"'t Oostenriek","phone":"+31 315 377 209","shower":"yes","tents":"yes","toilets":"yes","website":"https://www.oostenriek.nl/"}},"81176216":{"location":[51.7854363,6.6351394],"ct":"DE","tp":"CS","ts":"2022-02-28T10:24:04Z","tX":530,"tY":339,"tags":{"addr:city":"Hamminkeln","addr:housenumber":"100","addr:postcode":"46499","addr:street":"Bußter Weg","email":"info@dingdener-heide.de","fee":"yes","name":"Campingplatz Dingdener Heide","operator":"Erholungsgebiet Dingdener Heide GmbH","phone":"+49 2852 2405","website":"https://dingdener-heide.de/"}},"96748520":{"location":[51.754699,6.483089],"ct":"DE","tp":"CS","ts":"2022-11-27T17:19:37Z","tX":530,"tY":339,"tags":{"area":"yes","email":"sonsfeld@t-online.de","name":"Campingplatz Strandhaus Sonsfeld","operator":"Familie Schwarzkopf","phone":"+49 2857 2247","website":"https://www.strandhaussonsfeld.de/camping.html"}},"108498875":{"location":[51.7642893,6.3889034],"ct":"DE","tp":"CR","ts":"2023-12-04T14:56:43Z","tX":530,"tY":339,"tags":{"capacity":"46","charge":"10 EUR","dog":"yes","fee":"yes","internet_access":"no","name":"Stellplatz an der Ebentalstraße","operator":"Stadt Rees","phone":"+49 25841 51187","power_supply":"yes","sanitary_dump_station":"yes","seasonal":"no","tents":"no","water_point":"yes","website":"https://www.stadt-rees.de/tourismus-freizeit/unterkuenfte/wohnmobilstellplatz/","wheelchair":"limited","wikimedia_commons":"Category:Wohnmobilstellplatz Rees"}},"109236747":{"location":[51.6663974,6.5524536],"ct":"DE","tp":"CS","ts":"2023-10-27T10:40:44Z","tX":530,"tY":339,"tags":{"addr:city":"Wesel","addr:country":"DE","addr:housenumber":"1","addr:postcode":"46487","addr:street":"Gravinsel","name":"Grav-Insel","operator":"Erholungszentrum Grav-Insel GmbH & Co. KG","phone":"+49 281 972830","website":"https://www.grav-insel.com/","wikidata":"Q17308029","wikimedia_commons":"File:Rainbow over camping Grav-Insel near Wesel - panoramio.jpg","wikipedia":"de:Campingplatz Grav-Insel"}},"116562100":{"location":[51.6615557,6.3733787],"ct":"DE","tp":"CS","ts":"2022-03-17T18:21:57Z","tX":530,"tY":339,"tags":{"addr:city":"Sonsbeck","addr:country":"DE","addr:housenumber":"158","addr:postcode":"47665","addr:street":"Marienbaumer Straße","addr:suburb":"Labbeck","cabins":"yes","capacity":"84","caravans":"yes","dog":"yes","dryer":"yes","email":"info@kerstgenshof.de","fax":"+49 2801 90309","fee":"yes","kitchen":"yes","name":"Campingpark Kerstgenshof","opening_hours":"May-Aug 09:00-13:00,15:00-20:00","operator":"Familie Ingenlath","payment:cash":"yes","payment:girocard":"yes","phone":"+49 2801 4308","power_supply":"yes","reservation":"recommended","sanitary_dump_station":"yes","smoking":"yes","tents":"yes","washing_machine":"yes","website":"https://www.kerstgenshof.de/","wheelchair":"yes"}},"123374292":{"location":[51.8239272,6.4221275],"ct":"DE","tp":"CS","ts":"2024-04-13T08:12:27Z","tX":530,"tY":339,"tags":{"addr:housenumber":"5","addr:street":"Waldweg","contact:email":"campingplatz-schmitz@gmx.de","contact:phone":"+49 2874 29161","name":"Campingplatz am Wolfsee","permanent_camping":"only","website":"http://camping-wolfssee.de/"}},"151612746":{"location":[51.8352412,6.6317052],"ct":"DE","tp":"CR","ts":"2023-11-10T19:44:15Z","tX":530,"tY":339,"tags":{"fee":"yes","name":"Womo Park Bocholt","operator":"S. und M. Stahl","phone":"+49 2871 2359199","power_supply":"yes","website":"https://womopark-bocholt.de/"}},"161596089":{"location":[51.6606792,6.5938061],"ct":"DE","tp":"CR","ts":"2024-07-02T10:28:19Z","tX":530,"tY":339,"tags":{"capacity":"45","caravan_site":"motorhome_stopover","caravan_site:type":"river","charge":"11 EUR","fee":"yes","name":"Römerwardt","phone":"+49 157 856 817 54","power_supply":"yes","tents":"no","water_point:charge":"1 EUR","website":"https://baeder-wesel.de/reisemobilstellplatz/"}},"245827685":{"location":[51.7414486,6.4095267],"ct":"DE","tp":"CS","ts":"2023-06-05T07:15:43Z","tX":530,"tY":339,"tags":{"access":"customers","addr:housenumber":"151 A","addr:street":"Husenweg","email":"info@camping-niederrhein.com","fee":"yes","internet_access":"no","name":"Camping Niederrhein","operator":"J. Nünninghoff","payment:cash":"yes","phone":"+49 2804 8128","shower":"yes","website":"http://camping-niederrhein.com/"}},"261525327":{"location":[51.7403885,6.4153544],"ct":"DE","tp":"CS","ts":"2022-06-23T20:15:53Z","tX":530,"tY":339,"tags":{"addr:city":"Xanten","addr:country":"DE","addr:housenumber":"150","addr:postcode":"46509","addr:street":"Husenweg","contact:phone":"+49 2804 1431","fee":"yes","name":"Camping Op et Husen","reservation":"50","tents":"yes"}},"328994334":{"location":[51.8343575,6.4646994],"ct":"DE","tp":"CR","ts":"2015-02-18T16:46:04Z","tX":530,"tY":339,"tags":{"capacity":"8","fee":"yes","name":"Wohnmobilstellplatz Isselburg Münsterdeich","power_supply":"yes"}},"341456916":{"location":[51.654711,6.4635191],"ct":"DE","tp":"CR","ts":"2024-10-29T09:17:49Z","tX":530,"tY":339,"tags":{"addr:city":"Xanten","addr:country":"DE","addr:housenumber":"6","addr:postcode":"46509","addr:street":"Fürstenberg","capacity":"70","caravan_site":"motorhome_stopover","caravan_site:type":"tow","charge":"15 EUR + 2.30 EUR Kurtaxe per Person","contact:email":"Post@womopark-xanten.de","contact:mobile":"+49 176 10058370","contact:phone":"+49 2804 219588","dog":"yes","fee":"yes","name":"WomoPark Xanten","operator":"Herbert Becker","power_supply":"yes","power_supply:charge":"4.50 EUR","power_supply:fee":"yes","reservation":"yes","sanitary_dump_station":"yes","sanitary_dump_station:chemical_toilet":"yes","sanitary_dump_station:grey_water":"yes","shower":"yes","source":"Bing","toilets":"yes","water_point":"yes","website":"https://wohnmobilparkxanten.de/"}},"357243752":{"location":[51.6613749,6.3948104],"ct":"DE","tp":"CS","ts":"2021-01-01T09:32:31Z","tX":530,"tY":339,"tags":{"description":"dog allowed","email":"willi.bremer@gmx.de","fee":"yes","name":"Campingplatz Bremer","phone":"+49 2801 4730","tents":"yes","website":"https://www.campingplatz-bremer.de"}},"357244839":{"location":[51.6588546,6.3851328],"ct":"DE","tp":"CS","ts":"2023-11-08T04:30:20Z","tX":530,"tY":339,"tags":{"addr:city":"Xanten","addr:housenumber":"18a","addr:postcode":"46509","addr:street":"Urseler Straße","caravans":"yes","drinking_water":"yes","email":"mail@waldcamping-speetenkath.de","fee":"yes","name":"Waldcamping Speetenkath","nudism":"no","opening_hours":"24/7","operator":"Waldcamping \"Speetenkath\" GmbH","payment:coins":"yes","payment:notes":"yes","phone":"+49 2801 1769","power_supply":"yes","reservation":"yes","sanitary_dump_station":"customers","shower":"yes","tents":"yes","toilets":"yes","website":"https://www.waldcamping-speetenkath.de/","wheelchair":"yes"}},"365852385":{"location":[51.7995537,6.3516199],"ct":"DE","tp":"CS","ts":"2020-08-24T19:19:05Z","tX":530,"tY":339,"tags":{"addr:city":"Rees","addr:housenumber":"19","addr:postcode":"46459","addr:street":"Grietherbusch","addr:suburb":"Grietherbusch","email":"info@ampingplatz-bruehlensee.de","fee":"yes","name":"Campingplatz Brühlensee","phone":"+49 2851 966918","tents":"yes","website":"https://www.campingplatz-bruehlensee.de/"}},"497784318":{"location":[51.7324753,6.4836123],"ct":"DE","tp":"CS","ts":"2022-06-19T10:35:16Z","tX":530,"tY":339,"tags":{"addr:housenumber":"1","addr:street":"Alte Poststraße","email":"info@lange-renne.de","fax":"+49 2857 9242","name":"Zur langen Renne","operator":"Familie Sehl","phone":"+49 2857 9240","website":"www.lange-renne.de"}},"497784321":{"location":[51.7324582,6.480996],"ct":"DE","tp":"CS","ts":"2022-06-19T10:35:16Z","tX":530,"tY":339,"tags":{"addr:housenumber":"40","addr:street":"Heresbachstraße","contact:email":"heinz.scheepers@t-online.de","contact:phone":"+49 2857 3510","name":"Campingplatz \"Im Bonekamp\""}},"497784323":{"location":[51.7303981,6.4811074],"ct":"DE","tp":"CS","ts":"2017-06-02T23:15:00Z","tX":530,"tY":339,"tags":{"addr:housenumber":"30a","addr:street":"Heresbachstraße","contact:email":"christa.boemer@t-online.de","contact:fax":"+49 2857 915721","contact:phone":"+49 2857 915720","contact:website":"http://www.campingplatz-zur-rose.de","name":"Campingplatz \"Zur Rose\"","operator":"Christa Bömer"}},"861323367":{"location":[51.6585309,6.3986482],"ct":"DE","tp":"CS","ts":"2024-03-31T14:07:28Z","tX":530,"tY":339,"tags":{"caravans":"yes","drinking_water":"yes","internet_access":"no","name":"Campingplatz Bremer","power_supply":"yes","shower":"yes","tents":"yes","toilets":"yes"}},"1107999367":{"location":[51.7556783,6.4819001],"ct":"DE","tp":"CS","ts":"2022-11-26T12:52:18Z","tX":530,"tY":339,"tags":{"area":"yes","caravans":"yes","email":"camping@schulte-hagenhof.com","name":"Campingplatz Schulte-Hagenhof","phone":"+49 174 9131322","power_supply":"yes","website":"https://www.schulte-hagenhof.com/"}},"1186544703":{"location":[51.6561469,6.3713498],"ct":"DE","tp":"CR","ts":"2023-07-03T08:17:44Z","tX":530,"tY":339,"tags":{"internet_access":"wlan","internet_access:fee":"no","name":"Lebensart","power_supply":"yes","sanitary_dump_station":"customers","toilets":"yes","website":"https://www.landhotel-lebensart.de/stellplatz.php"}},"1266015528":{"location":[51.663963,6.4817254],"ct":"DE","tp":"CR","ts":"2024-11-01T17:40:14Z","tX":530,"tY":339,"tags":{"cabins":"no","capacity":"4","charge":"15 EUR","check_date":"2024-11-01","fee":"yes","name":"Zur Rheinfähre Xanten","power_supply":"no","sanitary_dump_station":"no","surface":"fine_gravel","tents":"no","water_point":"no"}},"1273517556":{"location":[51.8351614,6.6318867],"ct":"DE","tp":"SD","ts":"2015-04-25T19:35:39Z","tX":530,"tY":339,"tags":{"sanitary_dump_station:accepted":"black_water;tank_chemicals"}},"1735690826":{"location":[51.6611346,6.5921992],"ct":"DE","tp":"SD","ts":"2018-07-27T19:45:34Z","tX":530,"tY":339,"tags":{"opening_hours":"24/7","sanitary_dump_station:round_drain":"yes"}},"3358129835":{"location":[51.8344331,6.4646053],"ct":"DE","tp":"SD","ts":"2015-04-25T19:35:41Z","tX":530,"tY":339,"tags":{"sanitary_dump_station:accepted":"black_water;tank_chemicals"}},"3388071438":{"location":[51.7643729,6.389279],"ct":"DE","tp":"SD","ts":"2021-11-10T20:54:22Z","tX":530,"tY":339,"tags":{"fee":"yes","sanitary_dump_station:accepted":"black_water;tank_chemicals"}},"3651076316":{"location":[51.8326101,6.429999],"ct":"DE","tp":"CR","ts":"2024-11-21T13:21:10Z","tX":530,"tY":339,"tags":{"caravan_site":"motorhome_stopover","caravan_site:type":"zoo","charge":"7 EUR","fee":"yes","name":"Biotopwildpark Anholter Schweiz Wohnmobilstellplatz","power_supply":"yes","power_supply:charge":"0.70 EUR/KWh","power_supply:fee":"yes","website":"https://www.anholter-schweiz.de/wohnmobilstellplatz/"}},"5861247724":{"location":[51.650704,6.6477794],"ct":"DE","tp":"CS","ts":"2023-10-06T08:35:27Z","tX":530,"tY":339,"tags":{"access":"yes","addr:city":"Wesel","addr:country":"DE","addr:housenumber":"16","addr:postcode":"46485","addr:street":"Am Lippehafen","charge":"5.00 EUR/day","contact:email":"ilka.andre@freenet.de","contact:mobile":"+49 172 9937057","contact:phone":"+49 281 20689362","fee":"yes","name":"Otto Vorberg Haus-Zeltplatz","operator":"Lippeverband","tents":"yes"}},"5011970231":{"location":[51.6627855,6.5861802],"ct":"DE","tp":"SD","ts":"2021-03-17T21:02:09Z","tX":530,"tY":339,"tags":{"fee":"1 EUR","opening_hours":"24/7","operator":"RTGW","sanitary_dump_station:pump-out":"yes"}},"6030656762":{"location":[51.6541893,6.464408],"ct":"DE","tp":"SD","ts":"2018-11-01T21:01:53Z","tX":530,"tY":339,"tags":{}}}