{"24442524":{"location":[51.5212817,6.5072941],"ct":"DE","tp":"CS","ts":"2022-09-13T19:22:53Z","tX":530,"tY":340,"tags":{"addr:city":"Kamp-Lintfort","addr:country":"DE","addr:housenumber":"305","addr:postcode":"47475","addr:street":"Altfelder Straße","camp_site":"deluxe","capacity":"650","caravans":"yes","description:de":"Nur Dauercamping!","dog":"yes","email":"altfeld@freizeit-oasen.de","fax":"+49 2842 47746","name":"Freizeitanlage Altfeld","nudism":"no","opening_hours":"Tu,We,Fr 15:00-18:00;Sa 10:00-13:00,15:00-18:00","operator":"Freizeitanlage Altfeld GmbH","permanent_camping":"only","phone":"+49 2842 47904","sanitary_dump_station":"yes","shower":"yes","static_caravans":"yes","tents":"yes","toilets":"yes","website":"https://altfeld.freizeit-oasen.de","wheelchair":"yes"}},"58204956":{"location":[51.4273522,6.5114098],"ct":"DE","tp":"CS","ts":"2020-02-21T16:43:47Z","tX":530,"tY":340,"tags":{"name":"Campingplatz Bej Wolters","operator":"Bej Wolters - Gisela Wolters-Hoever"}},"58205217":{"location":[51.4290125,6.5142633],"ct":"DE","tp":"CS","ts":"2020-09-20T15:51:48Z","tX":530,"tY":340,"tags":{"name":"Campingplatz Schultes Kull","tents":"no"}},"61580715":{"location":[51.4332708,6.3802743],"ct":"DE","tp":"CS","ts":"2024-01-14T21:34:31Z","tX":530,"tY":340,"tags":{"addr:city":"Kerken","addr:country":"DE","addr:housenumber":"51","addr:postcode":"47647","addr:street":"Buyxdyck","email":"info@campingpark-eyller-see.de","name":"Camping-Park „Eyller-See“","operator":"Camper-Gemeinschaft „Radschläger“ Düsseldorf e.V.","phone":"+49 2833 4190","website":"https://www.campingpark-eyller-see.de/"}},"61580716":{"location":[51.4363743,6.386745],"ct":"DE","tp":"CS","ts":"2024-01-17T14:54:33Z","tX":530,"tY":340,"tags":{"addr:city":"Kerken","addr:country":"DE","addr:housenumber":"4","addr:postcode":"47647","addr:street":"Am Eyller See","name":"Duisburger Campingplatz","operator":"Naherholungsplatz Ortsclub Duisburg e.V.","website":"https://www.nocduisburg.de"}},"86157226":{"location":[51.4446025,6.5757065],"ct":"DE","tp":"CR","ts":"2020-11-26T18:14:20Z","tX":530,"tY":340,"tags":{"addr:city":"Neukirchen-Vluyn","addr:housenumber":"9","addr:postcode":"47506","addr:street":"Krefelder Straße","capacity":"15","fee":"yes","name":"Wohnmobilplatz Niederrhein","operator":"Hotel Dampfmühle","phone":"+49 2845 93490","power_supply":"yes","sanitary_dump_station":"yes","tents":"no","water_point":"yes","website":"https://wohnmobilstellplatz-niederrhein.de"}},"123257603":{"location":[51.4887315,6.4319646],"ct":"DE","tp":"CS","ts":"2018-03-15T21:28:49Z","tX":530,"tY":340,"tags":{"name":"SOLA Niederrhein (Zeltlager)","wheelchair":"limited"}},"187781994":{"location":[51.5110231,6.3287779],"ct":"DE","tp":"CR","ts":"2024-04-28T10:48:55Z","tX":530,"tY":340,"tags":{"addr:city":"Geldern","addr:housenumber":"19","addr:postcode":"47608","addr:street":"Am Holländer See","capacity":"45","fee":"yes","internet_access":"no","name":"Reisemobilstellplatz Geldern Am Holländer See","operator":"Stadt Geldern Amt für Stadtmarketing und Tourismus","payment:coins":"yes","power_supply":"yes","sanitary_dump_station":"yes","wheelchair":"yes","wikimedia_commons":"File:Reisemobilstellplatz Geldern Am Holländer See.jpg"}},"206100620":{"location":[51.4566127,6.4237749],"ct":"DE","tp":"CS","ts":"2024-08-20T12:54:06Z","tX":530,"tY":340,"tags":{"addr:city":"Rheurdt","addr:country":"DE","addr:housenumber":"47","addr:postcode":"47509","addr:street":"Kengen","addr:suburb":"Kengen","dog":"yes","name":"Campingplatz Lupinenhof","phone":"+49 2833 7650","website":"https://www.campingplatz-lupinenhof.de/"}},"206101067":{"location":[51.4599948,6.4228757],"ct":"DE","tp":"CR","ts":"2020-07-27T14:51:30Z","tX":530,"tY":340,"tags":{"capacity":"99","name":"Campingplatz Forellenhof","operator":"Winfried Hammans","power_supply":"yes"}},"230891577":{"location":[51.5794138,6.5183915],"ct":"DE","tp":"CR","ts":"2023-02-05T22:52:12Z","tX":530,"tY":340,"tags":{"addr:housenumber":"66","addr:street":"Burgstraße","capacity":"11","fee":"yes","name":"Reisemobilstellplatz an der Motte","power_supply":"yes","sanitary_dump_station":"yes","surface":"fine_gravel","url":"https://www.alpen.de/de/dienstleistungen/reisemobilstellplatz/"}},"239329483":{"location":[51.4636505,6.4683041],"ct":"DE","tp":"CR","ts":"2023-11-08T10:20:57Z","tX":530,"tY":340,"tags":{"addr:city":"Rheurdt","addr:country":"DE","addr:housenumber":"15","addr:postcode":"47509","addr:street":"St. Nikolausweg","capacity":"21","contact:mobile":"+49 177 6310990","fee":"yes","name":"Wohnmobilpark Ökodorf Rheurdt","operator":"Familie Lotz","power_supply":"yes","sanitary_dump_station":"yes","water_point":"yes","website":"https://www.wohnmobilpark-lotz.de/startseite/der-wohnmobilpark/","wheelchair":"yes"}},"288981002":{"location":[51.4229861,6.5050555],"ct":"DE","tp":"CS","ts":"2024-03-06T13:29:12Z","tX":530,"tY":340,"tags":{"caravans":"no","name":"CVJM Eichenkreuzheim","openfire":"no","power_supply":"yes","shower":"hot","tents":"yes","website":"https://www.cvjm-moers.de/website/de/ov/moers/weitere-angebote/freizeithaus-eichenkreuzheim"}},"470147941":{"location":[51.4353646,6.4197487],"ct":"DE","tp":"CR","ts":"2025-01-08T00:39:07Z","tX":530,"tY":340,"tags":{"addr:city":"Kerken","addr:housenumber":"9","addr:postcode":"47647","addr:street":"Kempener Straße","barrier":"fence","capacity":"30","caravan_site":"motorhome_stopover","caravan_site:type":"village","charge":"8 EUR","check_date":"2021-05-11","contact:email":"info@wohnmobilstellplatz-kerken.de","contact:mobile":"+49 157 33933985","contact:phone":"+49 2833 7255","email":"info@wohnmobilstellplatz-kerken.de","fee":"yes","internet_access":"no","name":"Wohnmobilpark Aldekerker Platte","object:city":"Kerken","object:country":"DE","object:housenumber":"9","object:postcode":"47647","object:street":"Kempener Straße","object:suburb":"Aldekerk","operator":"Elisabeth Franken","power_supply":"yes","power_supply:charge":"3 EUR","power_supply:fee":"yes","reservation":"yes","sanitary_dump_station":"yes","tents":"no","toilets":"no","water_point":"yes","website":"https://www.wohnmobilstellplatz-kerken.de/"}},"531317250":{"location":[51.4336853,6.3772078],"ct":"DE","tp":"CS","ts":"2024-03-04T11:34:26Z","tX":530,"tY":340,"tags":{"addr:city":"Kerken","addr:country":"DE","addr:housenumber":"52","addr:postcode":"47647","addr:street":"Buyxdyck","caravans":"no","email":"Info@Jugendzeltplatz-Eyll.de","fee":"yes","fireplace":"yes","group_only":"yes","name":"Jugendzeltplatz Eyller See","operator":"Kreis Kleve","phone":"+49 2833 7919","reservation":"required","tents":"yes","website":"https://www.jugendzeltplatz-eyll.de/"}},"552767518":{"location":[51.4404653,6.6178739],"ct":"DE","tp":"CR","ts":"2024-03-19T17:15:16Z","tX":530,"tY":340,"tags":{"addr:city":"Moers","addr:housenumber":"144","addr:postcode":"47447","addr:street":"Filder Straße","alt_name":"ENNI Wohnmobilplatz","barrier":"fence","capacity":"11","caravans":"no","dog":"yes","fee":"yes","fence_type":"metal","height":"1","name":"Stellplatz am Aktivbad Solimare","operator":"Stadt Moers","phone":"+49 2841 104-455","power_supply":"yes","sanitary_dump_station":"yes","website":"https://www.enni.de/freizeit/wohnmobilstellplatz/#accordion-wo-finde-ich-schnell-und-kompakt-informationen-zu-moers-und-seinen-freizeiteinrichtungen-"}},"564059856":{"location":[51.4543682,6.501214],"ct":"DE","tp":"CS","ts":"2020-08-18T21:25:24Z","tX":530,"tY":340,"tags":{}},"771913666":{"location":[51.4999799,6.4416719],"ct":"DE","tp":"CS","ts":"2020-02-12T15:58:35Z","tX":530,"tY":340,"tags":{}},"771933411":{"location":[51.5011538,6.4397102],"ct":"DE","tp":"CS","ts":"2020-02-12T16:43:26Z","tX":530,"tY":340,"tags":{"name":"AWO Kinder- und Jugendzeltplatz"}},"777930087":{"location":[51.5024469,6.5309802],"ct":"DE","tp":"CR","ts":"2024-12-11T14:31:09Z","tX":530,"tY":340,"tags":{"addr:city":"Kamp-Lintfort","addr:housenumber":"60","addr:postcode":"47475","addr:street":"Gohrstraße","capacity":"39","caravan_site":"motorhome_stopover","caravan_site:type":"town","charge":"14.00 EUR/night","email":"info@wellings-parkhotel.de","fee":"yes","internet_access":"wlan","internet_access:fee":"customers","motorhome":"designated","name":"Wohnmobilstellplatz KLamp-Lintfort Am Wandelweg","operator":"Wellings Parkhotel","phone":"+49 2842 21040","power_supply":"yes","sanitary_dump_station":"yes","shower":"grass","shower:charge":"0.80 EUR/minute","shower:fee":"yes","toilets":"yes","water_point":"yes","water_point:charge":"1.30 EUR/100 liter","water_point:fee":"yes","website":"https://womo-kali.de/"}},"838370781":{"location":[51.455666,6.5016112],"ct":"DE","tp":"CS","ts":"2020-08-18T21:50:10Z","tX":530,"tY":340,"tags":{}},"1058347285":{"location":[51.543087,6.6662945],"ct":"DE","tp":"CR","ts":"2024-12-11T14:27:54Z","tX":530,"tY":340,"tags":{"caravan_site":"motorhome_stopover","caravan_site:type":"river","charge":"9 EUR","fee":"yes","phone":"+49 0160 7891304","power_supply":"no","sanitary_dump_station":"no","surface":"grass","tents":"yes","water_point":"no"}},"3208615061":{"location":[51.5002823,6.5380434],"ct":"DE","tp":"CR","ts":"2024-02-17T02:38:18Z","tX":530,"tY":340,"tags":{"addr:city":"Kamp-Lintfort","addr:postcode":"47475","addr:street":"Bertastraße","fee":"yes","internet_access":"no","maxstay":"3 nights","name":"Pappelsee","power_supply":"no","sanitary_dump_station":"no","toilets":"no"}},"3208622922":{"location":[51.499002,6.4368794],"ct":"DE","tp":"CR","ts":"2023-05-08T11:35:33Z","tX":530,"tY":340,"tags":{"addr:city":"Issum","addr:housenumber":"18","addr:postcode":"47661","addr:street":"Koetherdyck","capacity":"20","contact:phone":"+49 2835 954111","fee":"yes","internet_access":"wlan","name":"Wohnmobilpark Hexenland-Sevelen","power_supply":"yes","sanitary_dump_station":"yes","water_point":"yes","website":"http://www.wohnmobilpark-hexenland-sevelen.de","wheelchair":"designated"}},"8194399219":{"location":[51.4281712,6.512331],"ct":"DE","tp":"CS","ts":"2020-12-04T14:42:14Z","tX":530,"tY":340,"tags":{"name":"Schultes Kull"}},"7529005996":{"location":[51.4065871,6.3306201],"ct":"DE","tp":"CR","ts":"2023-05-08T11:25:09Z","tX":530,"tY":340,"tags":{"addr:city":"Wachtendonk","addr:postcode":"47669","addr:street":"Achter de Stadt","fee":"yes","name":"Wohnmobilstellplatz Achter de Stadt","phone":"+49 2836 915565","power_supply":"yes","sanitary_dump_station":"yes","toilets":"no","water_point":"yes","website":"https://www.wachtendonk.de/","wheelchair":"no"}},"7774948655":{"location":[51.407448,6.6788764],"ct":"DE","tp":"CR","ts":"2020-12-25T13:22:28Z","tX":530,"tY":340,"tags":{"addr:city":"Duisburg","addr:housenumber":"101","addr:postcode":"47239","addr:street":"Bergheimer Straße","capacity":"18","email":"service@duisburgkontor.de","name":"Wohnmobilstellplatz Toeppersee","phone":"+49 203 285440","power_supply":"yes","sanitary_dump_station":"no","website":"https://www.duisburg.de/tourismus/stadt_erleben/freizeitundaktiv/wohnmobilstellplatz-toeppersee.php#top"}},"4588572803":{"location":[51.4065224,6.3309478],"ct":"DE","tp":"SD","ts":"2017-01-04T08:16:35Z","tX":530,"tY":340,"tags":{"sanitary_dump_station:chemical_toilet":"yes","sanitary_dump_station:gravity":"yes","sanitary_dump_station:grey_water":"yes"}},"5336399270":{"location":[51.4403813,6.6181184],"ct":"DE","tp":"SD","ts":"2018-01-13T08:36:46Z","tX":530,"tY":340,"tags":{"sanitary_dump_station:chemical_toilet":"yes","sanitary_dump_station:fee":"yes","sanitary_dump_station:gravity":"yes","sanitary_dump_station:grey_water":"yes"}},"6979359696":{"location":[51.4447577,6.5761267],"ct":"DE","tp":"SD","ts":"2019-11-15T10:27:48Z","tX":530,"tY":340,"tags":{"sanitary_dump_station:chemical_toilet":"yes","sanitary_dump_station:gravity":"yes","sanitary_dump_station:grey_water":"yes","water_point":"yes"}},"8722775477":{"location":[51.435508,6.4192684],"ct":"DE","tp":"SD","ts":"2024-09-02T08:53:51Z","tX":530,"tY":340,"tags":{}},"10181081259":{"location":[51.529777,6.3545964],"ct":"DE","tp":"SD","ts":"2022-11-13T18:09:10Z","tX":530,"tY":340,"tags":{"access":"customers"}},"11494142488":{"location":[51.5113692,6.3283691],"ct":"DE","tp":"SD","ts":"2024-01-06T10:33:40Z","tX":530,"tY":340,"tags":{"access":"customers","sanitary_dump_station:basin":"yes","sanitary_dump_station:chemical_toilet":"yes","sanitary_dump_station:fee":"no","sanitary_dump_station:gravity":"yes","sanitary_dump_station:grey_water":"yes","sanitary_dump_station:suction":"no"}}}