{"24767706":{"location":[50.8169642,6.4224816],"ct":"DE","tp":"CS","ts":"2022-08-25T15:26:51Z","tX":530,"tY":343,"tags":{"caravans":"designated","operator":"Restaurant Muzepuckel","phone":"+49  2421 781033","tents":"no"}},"99419875":{"location":[50.9242202,6.3410529],"ct":"DE","tp":"CR","ts":"2024-03-24T14:53:19Z","tX":530,"tY":343,"tags":{"addr:city":"Jülich","addr:street":"Rurauenstraße","bbq":"no","capacity":"30","caravans":"no","charge":"15 EUR","charge:power_supply":"EUR 0.50/kWh","contact:phone":"+49 2461 9795 0","dog":"leashed","fee":"yes","name":"Wohnmobilstellplatz Brückenkopf-Park Jülich","operator":"Brückenkopf-Park Jülich","phone":"+49 2461 9795 0","power_supply":"yes","seasonal":"no","supervised":"no","tents":"no","water_point":"yes","website":"https://www.brueckenkopf-park.de/index.php/uebernachtung/jugendzeltplatz.html","wheelchair":"limited"}},"99419879":{"location":[50.9241179,6.3394449],"ct":"DE","tp":"CS","ts":"2024-03-24T14:53:19Z","tX":530,"tY":343,"tags":{"addr:city":"Jülich","addr:street":"Rurauenstraße","barrier":"fence","contact:phone":"+49 2461 9795 0","fee":"yes","opening_hours":"Apr-Oct","operator":"Brückenkopf-Park Jülich","website":"https://www.brueckenkopf-park.de/index.php/uebernachtung/jugendzeltplatz.html"}},"316262772":{"location":[50.8085928,6.4663023],"ct":"DE","tp":"CR","ts":"2024-08-03T14:15:29Z","tX":530,"tY":343,"tags":{"addr:city":"Düren","addr:country":"DE","addr:housenumber":"188","addr:postcode":"52349","addr:street":"Rurstraße","capacity":"20","caravan_site":"motorhome_stopover","caravan_site:type":"town","charge":"7 EUR","email":"Ansprechpartner@IG-Reisemobilhafen-Dueren.eu","fee":"yes","name":"Reisemobilhafen Düren","operator":"Achim Junk","phone":"+49242133847","power_supply":"yes","power_supply:charge":"2 EUR","power_supply:fee":"yes","sanitary_dump_station":"yes","water_point":"yes","website":"http://www.ig-reisemobilhafen-dueren.eu/","wheelchair":"yes"}},"1027062411":{"location":[50.8094753,6.645947],"ct":"DE","tp":"CR","ts":"2023-04-25T10:47:30Z","tX":530,"tY":343,"tags":{"capacity":"2","fee":"no","maxstay":"48 hours","name":"Wohnmobilstellplatz Nörvenich","power_supply":"yes","sanitary_dump_station":"no"}},"7075747257":{"location":[50.8507397,6.3664511],"ct":"DE","tp":"CR","ts":"2024-08-04T17:25:30Z","tX":530,"tY":343,"tags":{"capacity":"2","caravan_site":"motorhome_stopover","caravan_site:type":"viewpoint;restaurant","description":"Parkplatzbereich, der für Wohnmobile ausgewiesen ist.","fee":"yes","internet_access":"no","name":"Wohnmobilstellplatz Goltsteinkuppe","opening_hours":"Mo-Su 10:00-20:00","power_supply":"no","sanitary_dump_station":"no","water_point":"no","website":"https://indeland-erleben.de/wohnmobil-stellplaetze","wheelchair":"yes"}},"7075837114":{"location":[50.8083865,6.4661635],"ct":"DE","tp":"SD","ts":"2019-12-21T18:53:01Z","tX":530,"tY":343,"tags":{"access":"customers","fee":"yes","sanitary_dump_station:basin":"yes","sanitary_dump_station:round_drain":"yes"}},"8047922225":{"location":[50.9234586,6.3402526],"ct":"DE","tp":"SD","ts":"2020-10-26T17:04:57Z","tX":530,"tY":343,"tags":{"access":"yes","opening_hours":"24/7","sanitary_dump_station:basin":"yes","sanitary_dump_station:round_drain":"yes"}}}