{"7112674":{"location":[50.6837841,6.4702385],"ct":"DE","tp":"CS","ts":"2022-07-25T16:29:34Z","tX":530,"tY":344,"tags":{"addr:city":"Nideggen","addr:country":"DE","addr:housenumber":"1","addr:postcode":"52385","addr:street":"Campingweg","addr:suburb":"Brück","contact:fax":"+49 2427 1294","name":"Campingplatz Hetzingen","note":"2 Campingplätze, die sich überschneiden und von verschiedenen Betreibern unterhalten werden","operator":"Heinz Klein","owner":"Heinz Klein","phone":"+49 2427 508","website":"https://www.campingplatz-hetzingen.de/"}},"7383790":{"location":[50.6846913,6.4703633],"ct":"DE","tp":"CS","ts":"2017-07-09T13:10:02Z","tX":530,"tY":344,"tags":{"name":"Burgblick"}},"34479545":{"location":[50.6300578,6.4555827],"ct":"DE","tp":"CS","ts":"2017-09-11T18:14:36Z","tX":530,"tY":344,"tags":{"name":"Campingplatz Kohl","website":"http://www.campingplatz-kohl.de/"}},"42136627":{"location":[50.6819372,6.4684889],"ct":"DE","tp":"CS","ts":"2023-08-18T21:02:10Z","tX":530,"tY":344,"tags":{"caravans":"no","name":"Hetzinger Hof 1","permanent_camping":"yes","phone":"+49 2427 6105","reservation":"required","website":"http://campingplatz-hetzingerhof.de/index.html"}},"66931138":{"location":[50.6399384,6.4681831],"ct":"DE","tp":"CS","ts":"2022-08-07T12:08:11Z","tX":530,"tY":344,"tags":{"caravans":"yes","dog":"leashed","drinking_water":"yes","fee":"yes","name":"Campingplatz Wittscheidt","openfire":"no","permanent_camping":"yes","power_supply":"yes","reservation":"no","sanitary_dump_station":"customers","shower":"yes","tents":"yes","toilets":"yes","washing_machine":"yes","waste_disposal":"yes","wheelchair":"yes"}},"80735434":{"location":[50.5632802,6.3331608],"ct":"DE","tp":"CS","ts":"2024-08-19T12:41:17Z","tX":530,"tY":344,"tags":{"addr:city":"Simmerath","addr:housenumber":"7","addr:postcode":"52152","addr:street":"An der Streng","bar":"yes","big_rigs":"yes","caravans":"yes","description":"Fee= € 20.50 (2 adults, camper), additional fee for WiFi and showers, cash payment only.","dog":"no","dryer":"yes","fireplace":"no","general_room":"yes","guarded":"no","internet_access":"wlan","internet_access:fee":"yes","kitchen":"yes","name":"Camp-Hammer","operator":"Katja Ellinger","payment:credit_card":"no","pets":"yes","phone":"+49 2473 92 90 41","picnic_benches":"no","power_supply":"yes","power_supply:voltage":"220","restaurant":"yes","sanitary_dump_station":"yes","shower":"hot","source":"Survey","swimming_pool":"no","tents":"yes","toilets:disposal":"flush","toilets:position":"sitting","washing_machine":"yes","water:location":"central","water:quality":"potable","website":"https://www.camp-hammer.de/"}},"80740992":{"location":[50.5646709,6.3314984],"ct":"DE","tp":"CR","ts":"2024-07-25T08:42:58Z","tX":530,"tY":344,"tags":{"dog":"yes","fee":"yes","name":"Wohnmobilhafen Camp Hammer","sanitary_dump_station":"yes","water_point":"yes"}},"81208390":{"location":[50.5277208,6.4594249],"ct":"DE","tp":"CS","ts":"2024-01-03T19:16:58Z","tX":530,"tY":344,"tags":{"addr:city":"Schleiden","addr:housenumber":"39","addr:postcode":"53937","addr:street":"Im Wiesengrund","name":"Campingplatz Dieffenbachtal","name:de":"Campingplatz Dieffenbach","phone":"+49 2445 7030","sanitary_dump_station":"yes","tents":"yes","website":"https://www.camping-dieffenbachtal.de/"}},"90406141":{"location":[50.5889526,6.357095],"ct":"DE","tp":"CS","ts":"2013-05-15T17:11:28Z","tX":530,"tY":344,"tags":{}},"90406480":{"location":[50.5828694,6.3619642],"ct":"DE","tp":"CS","ts":"2024-07-03T13:43:20Z","tX":530,"tY":344,"tags":{"name":"Campingplatz Sonnenschein"}},"95541079":{"location":[50.6698478,6.4756707],"ct":"DE","tp":"CS","ts":"2022-06-13T17:48:11Z","tX":530,"tY":344,"tags":{"internet_access":"wlan","name":"Haus Friedensthal","website":"http://www.camping-abenden.de","wheelchair":"no"}},"109369282":{"location":[50.5798158,6.4442398],"ct":"DE","tp":"CR","ts":"2024-08-03T14:13:32Z","tX":530,"tY":344,"tags":{"addr:city":"Schleiden","addr:housenumber":"40","addr:postcode":"53937","addr:street":"Vogelsang","capacity":"50","caravan_site":"motorhome_stopover","caravan_site:type":"nature","charge":"14 EUR","email":"info@eifel-wohnmobilpark-vogelsang.de","fee":"yes","internet_access":"no","lit":"no","name":"Eifel-Wohnmobilpark-Vogelsang","operator":"Petra Aust","phone":"+49 1577 1941065","power_supply":"no","surface":"gravel","website":"https://www.eifel-wohnmobilpark-vogelsang.de","wikimedia_commons":"Category:Eifel-Wohnmobilpark-Vogelsang"}},"121081106":{"location":[50.6176941,6.3746744],"ct":"DE","tp":"CS","ts":"2023-11-04T15:32:02Z","tX":530,"tY":344,"tags":{"addr:city":"Simmerath","addr:housenumber":"26","addr:postcode":"52152","addr:street":"Seerandweg","caravans":"yes","contact:city":"Simmerath","contact:housenumber":"26","contact:postcode":"52152","contact:street":"Seerandweg","email":"info@camping-rursee.de","name":"Camping Rursee","note":"Camping Rursee im Weidenbachtal, liegt in einer der schönsten Buchten am Rursee.","operator":"Christina Bauer","phone":"+49 2473 2365","shower":"yes","tents":"yes","toilets":"yes","website":"https://www.camping-rursee.de/","wheelchair":"no"}},"133750877":{"location":[50.6371286,6.472848],"ct":"DE","tp":"CR","ts":"2024-08-03T14:35:30Z","tX":530,"tY":344,"tags":{"capacity":"19","caravan_site":"motorhome_stopover","caravan_site:type":"city","caravans":"no","charge":"10 EUR/24 hours","contact:email":"info@wohnmobilhafen-heimbach.de","contact:fax":"+49 2446 809992","contact:mobile":"+49 172 2315204","contact:phone":"+49 2446 1497","dog":"yes","fee":"yes","internet_access":"no","lit":"yes","name":"Wohnmobilhafen Heimbach","power_supply":"yes","power_supply:capacity":"20","power_supply:charge":"0.5 EUR/kWh","power_supply:fee":"yes","power_supply:maxcurrent":"16","sanitary_dump_station":"yes","sanitary_dump_station:chemical_toilet":"yes","sanitary_dump_station:grey_water":"yes","tents":"no","water_point:charge":"1 EUR/100 liter","water_point:fee":"yes","website":"https://www.wohnmobilhafen-heimbach.de/","wheelchair":"yes","wikimedia_commons":"Category:Wohnmobilhafen Heimbach"}},"133751856":{"location":[50.6561328,6.4934782],"ct":"DE","tp":"CS","ts":"2023-08-06T21:05:16Z","tX":530,"tY":344,"tags":{"addr:city":"Heimbach","addr:country":"DE","addr:housenumber":"99","addr:postcode":"52396","addr:street":"Sankt-Georg-Straße","addr:suburb":"Blens","caravans":"yes","contact:email":"campingplatz.rurthal@gmail.com","contact:phone":"+49 2446 3377","contact:website":"https://www.campingplatz-rurthal.de/","fee":"yes","name":"Rurthal von Abercron","operator":"Manfred von Abercron","sanitary_dump_station":"yes","static_caravans":"yes","tents":"yes"}},"138602944":{"location":[50.5297836,6.4660874],"ct":"DE","tp":"CR","ts":"2024-11-23T12:03:55Z","tX":530,"tY":344,"tags":{"addr:city":"Schleiden","addr:housenumber":"33","addr:postcode":"53937","addr:street":"Im Wiesengrund","capacity":"3","caravans":"no","fee":"no","maxstay":"24 hours","name":"Stellplatz am Erlebnisfreibad","operator":"Stadt Schleiden","phone":"+49 2444 2011","power_supply":"no","sanitary_dump_station:chemical_toilet":"no","sanitary_dump_station:grey_water":"no","shower":"no","tents":"no","toilets":"no","water_point":"no"}},"151081608":{"location":[50.5784198,6.4921602],"ct":"DE","tp":"CR","ts":"2022-01-05T22:02:01Z","tX":530,"tY":344,"tags":{"addr:city":"Schleiden","addr:country":"DE","addr:postcode":"53937","addr:street":"Pfarrer-Kneipp-Straße","addr:suburb":"Gemünd","capacity":"40","caravans":"no","contact:email":"info@womo-nationalpark-eifel.eu","contact:mobile":"+49 174 7167067","contact:website":"https://www.womo-nationalpark-eifel.eu/","dog":"yes","fee":"yes","internet_access":"yes","internet_access:fee":"no","lit":"yes","name":"Wohnmobilhafen am Nationalpark Eifel","operator":"Karin Höfer","power_supply":"yes","sanitary_dump_station":"yes","sanitary_dump_station:chemical_toilet":"yes","sanitary_dump_station:grey_water":"yes","shower":"yes","tents":"no","toilets":"yes","water_point":"yes"}},"192335060":{"location":[50.6052088,6.3802795],"ct":"DE","tp":"CR","ts":"2024-07-25T08:54:56Z","tX":530,"tY":344,"tags":{"charge":"16.5 EUR","fee":"yes","name":"Am Rurseezentrum - Antoniushof","opening_hours":"24/7","power_supply":"yes","power_supply:charge":"1.2 EUR/kWh","reservation":"no","sanitary_dump_station":"yes","seasonal":"no","surface":"grass_paver","water_point":"yes","water_point:charge":"2.4 EUR/140 liter","website":"https://www.eifel.info/a-wohnmobilstellplatz-rurberg","wikimedia_commons":"File:Antoniushof und Wohnmobilstellplatz Rurberg, Simmerath - Luftaufnahme-0177.jpg"}},"209112704":{"location":[50.527101,6.4123643],"ct":"DE","tp":"CS","ts":"2023-11-04T15:31:37Z","tX":530,"tY":344,"tags":{"addr:city":"Schleiden","addr:country":"DE","addr:housename":"Naturcampinganlage Schafbachmühle","addr:housenumber":"1","addr:postcode":"53937","addr:street":"Schafbachmühle","cabins":"yes","caravans":"yes","email":"info@schafbachmuehle.de","fax":"+49 2485 912 831","internet_access":"wlan","internet_access:fee":"yes","name":"Schafbachmühle","note_de":"Umrisse sind noch zu überprüfen","openfire":"yes","opening_hours":"Mo-Su 10:00-13:00; 15:00-18:00","operator":"Wagner","phone":"+49 2485 268","power_supply":"yes","tents":"yes","website":"https://www.schafbachmuehle.de/","wheelchair":"limited"}},"231552363":{"location":[50.5268425,6.4473269],"ct":"DE","tp":"CS","ts":"2021-10-06T19:20:20Z","tX":530,"tY":344,"tags":{}},"238229196":{"location":[50.6461829,6.4763472],"ct":"DE","tp":"CS","ts":"2024-05-11T08:28:32Z","tX":530,"tY":344,"tags":{"cabins":"yes","caravans":"yes","drinking_water":"yes","fax":"+49 2446 559","fireplace":"yes","internet_access":"wlan","internet_access:fee":"no","name":"Heimbacher Campingplatz Gut Habersauel","permanent_camping":"yes","phone":"+49 2446 437","power_supply":"yes","sanitary_dump_station":"yes","shower":"yes","static_caravans":"yes","tents":"yes","toilets":"yes","website":"https://heimbacher-campingplatz.de/"}},"247536133":{"location":[50.6290531,6.3852524],"ct":"DE","tp":"CS","ts":"2024-05-09T18:58:43Z","tX":530,"tY":344,"tags":{}},"262342594":{"location":[50.6762338,6.6596295],"ct":"DE","tp":"CR","ts":"2024-08-03T14:09:23Z","tX":530,"tY":344,"tags":{"capacity":"60","caravan_site":"motorhome_stopover","caravan_site:type":"harbour","caravans":"no","charge":"12.5 EUR/day","contact:email":"info@seepark-zuelpich.de","contact:phone":"+49 2252 52345","fee":"yes","name":"Wohnmobilhafen Seepark Zülpich","opening_hours":"24/7","operator":"Seepark Zülpich gGmbH","power_supply":"yes","sanitary_dump_station":"customers","seasonal":"no","surface":"grass","tents":"no","water_point":"yes","water_point:charge":"1 EUR","website":"https://seepark-zuelpich.de/wohnmobilhafen/","wheelchair":"limited","wikimedia_commons":"Category:Wohnmobilhafen Seepark Zülpich"}},"301126196":{"location":[50.5958556,6.6324476],"ct":"DE","tp":"CR","ts":"2024-09-22T21:28:13Z","tX":530,"tY":344,"tags":{"addr:city":"Mechernich","addr:country":"DE","addr:housenumber":"3","addr:postcode":"53894","addr:street":"Elisabethhütte","capacity":"36","email":"verwaltung@freizeit-mechernich.de","fee":"yes","internet_access":"wlan","internet_access:fee":"no","mobile":"+49 172 6876891","name":"Wohnmobilhafen Mechernich","opening_hours":"24/7","operator":"Freizeit-Mechernich GmbH","power_supply":"yes","reservation":"yes","sanitary_dump_station":"customers","sanitary_dump_station:chemical_toilet":"yes","sanitary_dump_station:grey_water":"yes","shower":"no","tents":"no","toilets":"no","water_point":"yes","website":"https://www.wohnmobilhafen-mechernich.de/"}},"333105763":{"location":[50.7275666,6.4648354],"ct":"DE","tp":"CS","ts":"2010-05-04T08:00:01Z","tX":530,"tY":344,"tags":{"name":"Freizeitfreunden Rurtal e.V."}},"364976615":{"location":[50.5653023,6.3331378],"ct":"DE","tp":"CS","ts":"2015-08-10T19:01:38Z","tX":530,"tY":344,"tags":{"name":"Felshang"}},"364976620":{"location":[50.5649399,6.3332025],"ct":"DE","tp":"CS","ts":"2017-12-08T18:22:53Z","tX":530,"tY":344,"tags":{"name":"Wald-Blick"}},"367301493":{"location":[50.627188,6.3883183],"ct":"DE","tp":"CS","ts":"2021-07-13T19:09:50Z","tX":530,"tY":344,"tags":{}},"367301497":{"location":[50.6270237,6.3870204],"ct":"DE","tp":"CS","ts":"2015-08-24T18:49:20Z","tX":530,"tY":344,"tags":{"note":"Grenzverlauf geschätzt"}},"368583018":{"location":[50.6161276,6.3777985],"ct":"DE","tp":"CS","ts":"2023-05-23T12:52:31Z","tX":530,"tY":344,"tags":{"name":"Camping Fritz"}},"417108070":{"location":[50.6172531,6.3762003],"ct":"DE","tp":"CS","ts":"2023-05-23T12:52:31Z","tX":530,"tY":344,"tags":{"name":"Camping Rursee"}},"452129899":{"location":[50.6181608,6.3802272],"ct":"DE","tp":"CS","ts":"2023-05-23T12:52:31Z","tX":530,"tY":344,"tags":{"name":"Moderner Campingbetrieb Lutterbach","phone":"+49 2473 3284"}},"452129901":{"location":[50.6177483,6.3817409],"ct":"DE","tp":"CS","ts":"2024-06-16T13:02:46Z","tX":530,"tY":344,"tags":{"addr:city":"Simmerath","addr:housenumber":"26","addr:postcode":"52152","addr:street":"Seerandweg","name":"Rursee","website":"https://www.camping-rursee.de","wheelchair":"yes"}},"452129902":{"location":[50.6171552,6.383235],"ct":"DE","tp":"CS","ts":"2023-05-23T12:52:31Z","tX":530,"tY":344,"tags":{}},"452129905":{"location":[50.616085,6.3820366],"ct":"DE","tp":"CS","ts":"2024-08-13T20:42:57Z","tX":530,"tY":344,"tags":{}},"483318125":{"location":[50.6181697,6.3888913],"ct":"DE","tp":"CR","ts":"2024-07-03T22:14:54Z","tX":530,"tY":344,"tags":{"charge":"8 EUR /24 hours","fee":"yes","internet_access":"no","name":"In den Höfen Rurberg","power_supply":"no","surface":"fine_gravel"}},"545199508":{"location":[50.6533113,6.4933334],"ct":"DE","tp":"CS","ts":"2020-01-27T17:46:07Z","tX":530,"tY":344,"tags":{"addr:city":"Heimbach","addr:country":"DE","addr:housenumber":"8","addr:postcode":"52396","addr:street":"Hausener Straße","addr:suburb":"Hausen","area":"yes","name":"Campingplatz Felsenblick","phone":"+49 2446 805677","website":"https://campingplatz-felsenblick.de/"}},"588751397":{"location":[50.5504763,6.478227],"ct":"DE","tp":"CS","ts":"2024-01-01T20:32:44Z","tX":530,"tY":344,"tags":{"access":"customers","backcountry":"yes","camp_site":"basic","capacity:tents":"2","caravans":"no","charge":"15.00 EUR","description":"The Campsite is a wooden platform for two tents. Each spot measures 2,25m * 3,5m. As there is no reception, it has to be booked in advance for 10€","drinking_water":"no","email":"info@nordeifel-tourismus.de","fee":"yes","fireplace":"no","fixme":"length estimated ~1.5* old size","internet_access":"no","name":"Walden","openfire":"no","operator":"Naturpark Nordeifel e.V.","ref":"3","reservation":"required","shower":"no","tents":"yes","toilets":"yes","website":"https://www.trekking-eifel.de/de/die-trekkingplaetze/walden/"}},"591433350":{"location":[50.6178919,6.390538],"ct":"DE","tp":"CS","ts":"2022-09-13T15:30:12Z","tX":530,"tY":344,"tags":{"name":"W.S.V. Euskirchen"}},"598952128":{"location":[50.7280853,6.3768133],"ct":"DE","tp":"CS","ts":"2023-11-09T05:32:41Z","tX":530,"tY":344,"tags":{"caravans":"no","fee":"yes","group_only":"yes","name":"Jugendzeltplatz Finkenheide","openfire":"yes","operator":"Kreis Düren","reservation":"required","tents":"yes","website":"https://www.kreis-dueren.de/kreishaus/amt/51/Jugendzeltplatz.php"}},"619271899":{"location":[50.5557853,6.4783496],"ct":"DE","tp":"CS","ts":"2024-01-01T20:32:44Z","tX":530,"tY":344,"tags":{"access":"customers","backcountry":"yes","camp_site":"basic","capacity:tents":"2","caravans":"no","charge":"15.00 EUR","description":"The Campsite is a wooden platform for two tents. Each spot measures 2,25m * 3,5m. As there is no reception, it has to be booked in advance for 10€","drinking_water":"no","email":"info@nordeifel-tourismus.de","fee":"yes","fireplace":"no","name":"Land in Sicht","openfire":"no","operator":"Naturpark Nordeifel e.V.","power_supply":"no","ref":"2","reservation":"required","shower":"no","tents":"yes","toilets":"yes","website":"https://www.trekking-eifel.de/de/die-trekkingplaetze/land-in-sicht/","wheelchair":"no"}},"683082961":{"location":[50.5746796,6.4400847],"ct":"DE","tp":"CS","ts":"2024-03-08T15:09:48Z","tX":530,"tY":344,"tags":{"access":"customers","backcountry":"yes","camp_site":"basic","capacity:tents":"2","caravans":"no","charge":"15.00 EUR","description":"The Campsite is a wooden platform for two tents. Each spot measures 2,25m * 3,5m. As there is no reception, it has to be booked in advance for 10€","drinking_water":"no","email":"info@nordeifel-tourismus.de","fee":"yes","fireplace":"no","internet_access":"no","name":"Trekkingplatz P01 Nordstern","openfire":"no","operator":"Naturpark Nordeifel e.V.","ref":"1","reservation":"required","shower":"no","tents":"yes","website":"https://www.trekking-eifel.de/de/die-trekkingplaetze/nordstern/"}},"821852574":{"location":[50.6321544,6.4040289],"ct":"DE","tp":"CS","ts":"2020-07-16T13:04:59Z","tX":530,"tY":344,"tags":{}},"834035575":{"location":[50.6376939,6.4698138],"ct":"DE","tp":"CS","ts":"2020-08-04T22:32:08Z","tX":530,"tY":344,"tags":{}},"851858595":{"location":[50.5519293,6.6407112],"ct":"DE","tp":"CS","ts":"2024-01-01T20:32:44Z","tX":530,"tY":344,"tags":{"access":"customers","backcountry":"yes","camp_site":"basic","capacity:tents":"2","caravans":"no","charge":"15.00 EUR","description":"The Campsite is a wooden platform for two tents. Each spot measures 2,25m * 3,5m. As there is no reception, it has to be booked in advance for 10€","drinking_water":"no","email":"info@nordeifel-tourismus.de","fee":"yes","fireplace":"no","internet_access":"no","name":"180°","openfire":"no","operator":"Naturpark Nordeifel e.V.","ref":"10","reservation":"required","shower":"no","tents":"yes","toilets":"yes","website":"https://www.trekking-eifel.de/de/die-trekkingplaetze/180/"}},"964045493":{"location":[50.6260039,6.3910091],"ct":"DE","tp":"CS","ts":"2021-07-13T18:12:54Z","tX":530,"tY":344,"tags":{}},"1012558039":{"location":[50.627507,6.3849671],"ct":"DE","tp":"CS","ts":"2021-12-15T18:47:35Z","tX":530,"tY":344,"tags":{}},"1077890586":{"location":[50.6384792,6.4934262],"ct":"DE","tp":"CS","ts":"2024-01-01T20:32:44Z","tX":530,"tY":344,"tags":{"access":"customers","backcountry":"yes","camp_site":"basic","capacity:tents":"2","caravans":"no","charge":"15.00 EUR","drinking_water":"no","email":"info@nordeifel-tourismus.de","fee":"yes","fireplace":"no","name":"Klein Schweden","openfire":"no","operator":"Naturpark Nordeifel e.V.","ref":"14","reservation":"required","shower":"no","tents":"yes","toilets":"yes","website":"https://www.trekking-eifel.de/de/die-trekkingplaetze/naturlagerplatz-heimbach/"}},"1078462308":{"location":[50.6306935,6.3791737],"ct":"DE","tp":"CS","ts":"2024-01-01T20:32:44Z","tX":530,"tY":344,"tags":{"access":"customers","backcountry":"yes","camp_site":"basic","capacity:tents":"2","caravans":"no","charge":"15.00 EUR","drinking_water":"no","email":"info@nordeifel-tourismus.de","fee":"yes","fireplace":"no","name":"Mit Seeblick","openfire":"no","operator":"Naturpark Nordeifel e.V.","ref":"18","reservation":"required","shower":"no","tents":"yes","toilets":"yes","website":"https://www.trekking-eifel.de/de/die-trekkingplaetze/Mit%20Seeblick/"}},"1079635108":{"location":[50.5292098,6.464635],"ct":"DE","tp":"CS","ts":"2024-11-23T12:03:55Z","tX":530,"tY":344,"tags":{"addr:city":"Schleiden","addr:housenumber":"24","addr:postcode":"53937","addr:street":"Im Wiesengrund","name":"Camping Berners"}},"1193127130":{"location":[50.7051657,6.4241886],"ct":"DE","tp":"CS","ts":"2024-01-01T20:32:44Z","tX":530,"tY":344,"tags":{"access":"customers","backcountry":"yes","camp_site":"basic","capacity:tents":"2","caravans":"no","charge":"15.00 EUR","drinking_water":"no","email":"info@nordeifel-tourismus.de","fee":"yes","fireplace":"no","name":"Krawutschke Biwak","openfire":"no","operator":"Naturpark Nordeifel e.V.","ref":"12","reservation":"required","shower":"no","tents":"yes","toilets":"yes","website":"https://www.trekking-eifel.de/de/die-trekkingplaetze/krawutschke-biwak/"}},"1244036943":{"location":[50.5237511,6.5565919],"ct":"DE","tp":"CR","ts":"2024-01-29T11:36:02Z","tX":530,"tY":344,"tags":{"addr:city":"Kall","addr:housenumber":"3","addr:postcode":"53925","addr:street":"Rinner Straße","name":"Naturcamping Sötenicher Mühle","website":"https://www.soetenichermuehle.de/"}},"2431410204":{"location":[50.6051796,6.3805659],"ct":"DE","tp":"SD","ts":"2022-10-02T17:15:33Z","tX":530,"tY":344,"tags":{"fee":"no","sanitary_dump_station:accepted":"black_water;grey_water;tank_chemicals"}},"3522201712":{"location":[50.5281468,6.5370564],"ct":"DE","tp":"CR","ts":"2022-07-22T16:10:25Z","tX":530,"tY":344,"tags":{"cabins":"yes","capacity":"8","contact:email":"a.kloecker52@gmx.de","contact:phone":"+49 2441 6880","fee":"yes","name":"Wohnmobilhafen Kallbachtal","power_supply":"yes","sanitary_dump_station":"customers","tents":"yes"}},"4090307442":{"location":[50.6675359,6.3550277],"ct":"DE","tp":"SD","ts":"2016-04-01T16:40:14Z","tX":530,"tY":344,"tags":{}},"4090326822":{"location":[50.6669071,6.353931],"ct":"DE","tp":"CR","ts":"2024-05-16T14:24:35Z","tX":530,"tY":344,"tags":{"addr:city":"Hürtgenwald","addr:housenumber":"26","addr:postcode":"52393","addr:street":"Simonskall","capacity":"5","dog":"yes","fee":"no","internet_access":"no","maxlength":"8","maxstay":"1 night","name":"Wohnmobilstellplätz Landhotel Kallbach","operator":"Landhotel Kallbach","phone":"+49 (0)2429 94440","power_supply":"no","sanitary_dump_station":"yes","sanitary_dump_station:chemical_toilet":"yes","shower":"no","surface":"gravel_turf","water_point":"yes","website":"https://www.kallbach.de/"}},"4178773274":{"location":[50.6765359,6.6581208],"ct":"DE","tp":"SD","ts":"2020-05-11T12:39:58Z","tX":530,"tY":344,"tags":{}},"9970269421":{"location":[50.6700571,6.4218431],"ct":"DE","tp":"CS","ts":"2024-01-01T20:32:44Z","tX":530,"tY":344,"tags":{"access":"customers","backcountry":"yes","camp_site":"basic","capacity:tents":"2","caravans":"no","charge":"15.00 EUR","drinking_water":"no","email":"info@nordeifel-tourismus.de","fee":"yes","fireplace":"no","name":"Aufwärts!","openfire":"no","operator":"Naturpark Nordeifel e.V.","ref":"15","reservation":"required","shower":"no","tents":"yes","toilets":"yes","website":"https://www.trekking-eifel.de/de/die-trekkingplaetze/Aufw%C3%A4rts!/"}},"4762301916":{"location":[50.6927294,6.4788519],"ct":"DE","tp":"CR","ts":"2021-08-05T12:53:09Z","tX":530,"tY":344,"tags":{"addr:city":"Nideggen","addr:country":"DE","addr:postcode":"52385","addr:street":"Bahnhofstraße","capacity":"4","description":"3€ / Tag 0,5€ / h","fee":"yes","name":"Wohnmobilstellplatz Danzley","operator":"Stadt Nideggen","power_supply":"no","sanitary_dump_station":"no","water_point":"no","website":"https://www.nideggen.de/tourismus/aktivitaeten/campstellpl.php","wheelchair":"yes"}},"11602193463":{"location":[50.5267657,6.5770726],"ct":"DE","tp":"CR","ts":"2024-02-09T13:11:06Z","tX":530,"tY":344,"tags":{"name":"Hubertushof","website":"http://www.hubertushof-ferfer.de/"}},"4757600870":{"location":[50.68481,6.4711869],"ct":"DE","tp":"SD","ts":"2017-03-27T08:53:48Z","tX":530,"tY":344,"tags":{"access":"customers","fee":"no","sanitary_dump_station:round_drain":"yes"}},"4985312533":{"location":[50.6548645,6.4914936],"ct":"DE","tp":"SD","ts":"2017-07-21T17:03:25Z","tX":530,"tY":344,"tags":{}},"7681082067":{"location":[50.6368193,6.4729616],"ct":"DE","tp":"SD","ts":"2020-07-03T19:45:09Z","tX":530,"tY":344,"tags":{"access":"customers","fee":"no","opening_hours":"24/7","operator":"Wohnmobilhafen Heimbach","sanitary_dump_station:basin":"yes","sanitary_dump_station:round_drain":"yes"}},"8176826129":{"location":[50.5793551,6.4452752],"ct":"DE","tp":"SD","ts":"2020-11-29T17:55:49Z","tX":530,"tY":344,"tags":{"access":"customers","fee":"no","opening_hours":"24/7","sanitary_dump_station:basin":"yes","sanitary_dump_station:round_drain":"yes"}},"9968154678":{"location":[50.5791484,6.4883465],"ct":"DE","tp":"SD","ts":"2024-01-13T11:27:28Z","tX":530,"tY":344,"tags":{"fee":"no"}},"12147984034":{"location":[50.596111,6.6326355],"ct":"DE","tp":"SD","ts":"2024-08-31T15:40:23Z","tX":530,"tY":344,"tags":{"sanitary_dump_station:chemical_toilet":"yes","sanitary_dump_station:gravity":"yes"}},"12147984035":{"location":[50.5961099,6.6326208],"ct":"DE","tp":"SD","ts":"2024-08-31T15:40:23Z","tX":530,"tY":344,"tags":{"sanitary_dump_station:gravity":"yes","sanitary_dump_station:grey_water":"yes"}}}