{"25859669":{"location":[50.4944629,6.423273],"ct":"DE","tp":"CR","ts":"2023-06-03T17:52:16Z","tX":530,"tY":345,"tags":{"access":"yes","addr:city":"Hellenthal","addr:postcode":"53940","addr:street":"Oleftalstraße","capacity":"30","fee":"no","internet_access":"no","name":"Wohnmobilstellplatz an der Oleftalsperre","power_supply":"no","sanitary_dump_station":"no","tents":"no"}},"28988533":{"location":[50.3359557,6.5398924],"ct":"DE","tp":"CS","ts":"2023-11-04T22:24:55Z","tX":530,"tY":345,"tags":{"addr:city":"Stadtkyll","addr:country":"DE","addr:housenumber":"81","addr:postcode":"54589","addr:street":"Wirftstraße","caravans":"yes","landuse":"recreation_ground","name":"Camping Landal Wirfttal","operator":"Landal","phone":"+49 6597 9292 10","tents":"yes","website":"https://www.landalcamping.de/de-de/campingplatze/deutschland/eifel/wirfttal"}},"29053986":{"location":[50.2971523,6.5837443],"ct":"DE","tp":"CS","ts":"2022-01-09T14:01:09Z","tX":530,"tY":345,"tags":{"name":"Campingplatz Lehnerath"}},"133764572":{"location":[50.409488,6.3731351],"ct":"DE","tp":"CR","ts":"2024-09-19T17:30:56Z","tX":530,"tY":345,"tags":{"capacity":"16","fee":"yes","name":"Europa-Wohnmobilhafen","power_supply":"yes","source":"www.weisserstein.info","surface":"gravel","tents":"no","website":"https://www.weisserstein.info/pgs/wohnmobilhafen.php"}},"134031824":{"location":[50.4441577,6.4127872],"ct":"DE","tp":"CS","ts":"2021-10-02T20:48:30Z","tX":530,"tY":345,"tags":{"addr:city":"Hellenthal","addr:housenumber":"1","addr:postcode":"53940","addr:street":"Oberpreth","fee":"yes","name":"Oberprether Mühle","operator":"Oberprether Mühle UG","phone":"+49 2448 9197803","website":"https://www.oberprether-muehle.de/"}},"188645551":{"location":[50.4861979,6.626386],"ct":"DE","tp":"CR","ts":"2024-08-03T21:53:17Z","tX":530,"tY":345,"tags":{"bbq":"yes","capacity":"25","caravan_site":"motorhome_stopover","caravan_site:type":"village","charge":"11.50 EUR","fee":"yes","internet_access":"no","lit":"yes","name":"Wohnmobilhafen Nettersheim","opening_hours":"24/7","operator":"Gemeinde Nettersheim","power_supply":"yes","power_supply:fee":"customers","sanitary_dump_station":"yes","surface":"gravel","tents":"no","website":"http://wohnmobilstellplatz.de","wikimedia_commons":"File:Wohnmobilhafen Nettersheim-2264.jpg"}},"214433864":{"location":[50.3579849,6.4731676],"ct":"DE","tp":"CR","ts":"2023-12-04T23:05:31Z","tX":530,"tY":345,"tags":{"capacity":"15","charge":"EUR 10/24 Stunden","fee":"yes","internet_access":"no","lit":"yes","name":"Stellplatz Kronenburger See","power_supply":"yes","sanitary_dump_station":"yes","website":"https://www.kronenburger-see.de/Wohnmobilstellplatz","wheelchair":"yes","wikimedia_commons":"File:Wohnmobilstellplatz Kronenburger See-9407.jpg"}},"216796741":{"location":[50.3613406,6.4543123],"ct":"DE","tp":"CS","ts":"2025-01-04T19:19:46Z","tX":530,"tY":345,"tags":{"addr:city":"Hallschlag","addr:housenumber":"19","addr:postcode":"54611","addr:street":"Bahnhofstraße","name":"Campingpark Kronenburger See","website":"https://www.campingpark-kronenburger-see.de/"}},"225621348":{"location":[50.4723956,6.4331988],"ct":"DE","tp":"CS","ts":"2024-01-09T13:38:41Z","tX":530,"tY":345,"tags":{"name":"Camping Dickerscheid"}},"339798712":{"location":[50.4356218,6.6553175],"ct":"DE","tp":"CR","ts":"2025-04-15T10:01:17Z","tX":530,"tY":345,"tags":{"capacity":"15","caravan_site":"motorhome_stopover","caravan_site:type":"town","charge":"8 EUR","contact:email":"touristinfo@blankenheim.de","contact:phone":"+49 2449 87-222 /-223","dog":"yes","fee":"yes","fee:caravan":"24/7","fee:motorcar":"09:00-19:00","name":"Wohnmobilstellplatz Weiheranlage","opening_hours":"24/7","power_supply":"yes","reservation":"no","sanitary_dump_station":"yes","seasonal":"no","surface":"fine_gravel","tents":"no","water_point":"yes","water_point:charge":"0.2 EUR/20 liter","water_point:conditional":"no @ \"winter\"","water_point:fee":"yes","website":"https://www.blankenheim.de/de/freizeit/wohnmobilstellplatz","wheelchair":"limited"}},"440019388":{"location":[50.4794899,6.4304052],"ct":"DE","tp":"CS","ts":"2023-08-07T20:58:57Z","tX":530,"tY":345,"tags":{"addr:city":"Hellenthal","addr:housenumber":"1","addr:postcode":"53940","addr:street":"Platiß","cabins":"yes","capacity":"150","caravans":"yes","email":"info@wildbach-camping.de","fee":"yes","motorhome":"yes","name":"Wildbach Camping","operator":"Clemens und Lorenz Schmitz","phone":"+49 2482 1500; +49 171 4155489","shower":"yes","tents":"yes","toilets":"yes","website":"https://www.wildbach-camping.de/"}},"619280904":{"location":[50.4600555,6.6083222],"ct":"DE","tp":"CS","ts":"2024-01-21T12:29:11Z","tX":530,"tY":345,"tags":{"access":"customers","backcountry":"yes","camp_site":"basic","capacity:tents":"2","caravans":"no","charge":"15.00 EUR","description":"The Campsite is a wooden platform for two tents. Each spot measures 2,25m * 3,5m. As there is no reception, it has to be booked in advance for 10€","drinking_water":"no","email":"info@nordeifel-tourismus.de","fee":"yes","fireplace":"no","internet_access":"no","name":"Ich bin mal kurz weg","openfire":"no","operator":"Naturpark Nordeifel e.V.","ref":"4","reservation":"required","shower":"no","tents":"yes","website":"https://www.trekking-eifel.de/de/die-trekkingplaetze/ich-bin-mal-kurz-weg/","wheelchair":"no"}},"669491122":{"location":[50.4991609,6.6258512],"ct":"DE","tp":"CS","ts":"2024-07-10T05:38:42Z","tX":530,"tY":345,"tags":{"caravans":"no","fee":"yes","group_only":"yes","name":"Jugendzeltplatz Nettersheim","openfire":"yes","reservation":"required","tents":"yes","website":"https://www.naturzentrum-eifel.de/unterkuenfte/jugendzeltplatz.html"}},"694822822":{"location":[50.3591824,6.4644392],"ct":"DE","tp":"CS","ts":"2023-06-26T19:54:18Z","tX":530,"tY":345,"tags":{"addr:city":"Dahlem","addr:country":"DE","addr:postcode":"53949","addr:street":"Seeuferstraße","addr:suburb":"Kronenburg","caravans":"no","group_only":"yes","name":"Zeltplatz Bibercamp","tents":"yes","website":"https://www.campingpark-kronenburger-see.de/jugendzeltplatz"}},"712513999":{"location":[50.3103065,6.4167616],"ct":"DE","tp":"CS","ts":"2024-01-01T20:32:44Z","tX":530,"tY":345,"tags":{"access":"customers","backcountry":"yes","camp_site":"basic","capacity:tents":"2","caravans":"no","charge":"15.00 EUR","description":"The Campsite is a wooden platform for two tents. Each spot measures 2,25m * 3,5m. As there is no reception, it has to be booked in advance for 10€","drinking_water":"no","email":"info@nordeifel-tourismus.de","fee":"yes","fireplace":"no","internet_access":"no","name":"Birkenrausch","openfire":"no","operator":"Naturpark Nordeifel e.V.","ref":"5","reservation":"required","shower":"no","tents":"yes","website":"https://www.trekking-eifel.de/de/die-trekkingplaetze/birkenrausch/"}},"724561063":{"location":[50.3817373,6.5643883],"ct":"DE","tp":"CS","ts":"2024-01-15T16:04:16Z","tX":530,"tY":345,"tags":{"access":"customers","backcountry":"yes","camp_site":"basic","capacity:tents":"2","caravans":"no","charge":"15.00 EUR","description":"The Campsite is a wooden platform for two tents. Each spot measures 2,25m * 3,5m. As there is no reception, it has to be booked in advance for 10€","drinking_water":"no","email":"info@nordeifel-tourismus.de","fee":"yes","fireplace":"no","fixme":"Add correct sized object, toilet etc.","internet_access":"no","name":"In die Wildnis","openfire":"no","operator":"Naturpark Nordeifel e.V.","phone":"+49 2441 994570","ref":"7","reservation":"required","shower":"no","tents":"yes","toilets":"yes","website":"https://www.trekking-eifel.de/de/die-trekkingplaetze/in-die-wildnis/"}},"949058938":{"location":[50.4077088,6.5385101],"ct":"DE","tp":"CS","ts":"2023-08-12T20:14:04Z","tX":530,"tY":345,"tags":{"addr:city":"Dahlem","addr:postcode":"53949","name":"Campingplatz Dahlemer Binz"}},"954083750":{"location":[50.3504064,6.5657401],"ct":"DE","tp":"CR","ts":"2022-07-01T21:27:17Z","tX":530,"tY":345,"tags":{"addr:city":"Jünkerath","addr:housenumber":"16","addr:postcode":"54584","addr:street":"Glaadter Straße","name":"Wohnmobilstellplatz Eifelland","website":"https://www.eifel.info/a-wohnmobilstellplatz-eifelland"}},"986469197":{"location":[50.51014,6.5748097],"ct":"DE","tp":"CR","ts":"2024-07-02T10:04:55Z","tX":530,"tY":345,"tags":{"addr:city":"Kall","addr:country":"DE","addr:housenumber":"31-33","addr:postcode":"53925","addr:street":"Urfttalstraße","addr:suburb":"Urft","capacity":"10","charge":"8 EUR/24 h","charge:power_supply":"EUR 1.00 / 2 kWh","email":"info@wohnmobilpark-urft.de","fee":"yes","name":"Wohnmobilpark Urft","operator":"Erich Breuer","phone":"+49 2441 6520","power_supply":"yes","power_supply:charge":"1 EUR/2 kWh","power_supply:fee":"yes","sanitary_dump_station":"customers","surface":"gravel","water_point":"yes","water_point:charge":"1 EUR/100 liter","water_point:fee":"yes","website":"https://www.wohnmobilpark-urft.de/","wheelchair":"yes"}},"1075994560":{"location":[50.3280919,6.4457599],"ct":"DE","tp":"CS","ts":"2022-07-05T11:55:06Z","tX":530,"tY":345,"tags":{"addr:city":"Ormont","addr:housenumber":"5","addr:postcode":"54597","addr:street":"Kirchweg","name":"Campingplatz \"Am Sonnenhang\"","website":"https://www.campingplatz-ormont.de/"}},"1218584057":{"location":[50.5014406,6.5354953],"ct":"DE","tp":"CS","ts":"2024-01-01T20:32:44Z","tX":530,"tY":345,"tags":{"access":"customers","backcountry":"yes","camp_site":"basic","capacity:tents":"2","caravans":"no","charge":"15.00 EUR","drinking_water":"no","email":"info@nordeifel-tourismus.de","fee":"yes","fireplace":"no","name":"Schlüsselstelle","openfire":"no","operator":"Naturpark Nordeifel e.V.","ref":"13","reservation":"required","shower":"no","tents":"yes","toilets":"yes","website":"https://www.trekking-eifel.de/de/die-trekkingplaetze/schluesselstelle/"}},"3470098022":{"location":[50.4354186,6.6551142],"ct":"DE","tp":"SD","ts":"2016-08-11T11:43:26Z","tX":530,"tY":345,"tags":{"sanitary_dump_station:chemical_toilet":"yes","sanitary_dump_station:fee":"yes","sanitary_dump_station:gravity":"yes","sanitary_dump_station:grey_water":"yes"}},"3646650208":{"location":[50.357652,6.4723954],"ct":"DE","tp":"SD","ts":"2015-07-11T19:44:32Z","tX":530,"tY":345,"tags":{"access":"yes","fee":"no","opening_hours":"24/7","sanitary_dump_station:basin":"yes","sanitary_dump_station:round_drain":"yes"}},"3996067058":{"location":[50.4865942,6.6270156],"ct":"DE","tp":"SD","ts":"2018-10-15T09:58:01Z","tX":530,"tY":345,"tags":{"access":"yes","opening_hours":"24/7","sanitary_dump_station:basin":"yes","sanitary_dump_station:round_drain":"yes"}},"9973405179":{"location":[50.3440712,6.5425484],"ct":"DE","tp":"CS","ts":"2024-01-01T20:32:44Z","tX":530,"tY":345,"tags":{"access":"customers","backcountry":"yes","camp_site":"basic","capacity:tents":"2","caravans":"no","charge":"15.00 EUR","drinking_water":"no","email":"info@nordeifel-tourismus.de","fee":"yes","fireplace":"no","name":"Feuerland","openfire":"no","operator":"Naturpark Nordeifel e.V.","power_supply":"no","ref":"17","reservation":"required","shower":"no","tents":"yes","toilets":"yes","website":"https://www.trekking-eifel.de/de/die-trekkingplaetze/feuerland/","wheelchair":"no"}},"12098556565":{"location":[50.3651025,6.6486818],"ct":"DE","tp":"CS","ts":"2024-08-08T10:06:15Z","tX":530,"tY":345,"tags":{"name":"Jugendzeltplatz Alendorf"}},"12154948926":{"location":[50.5033142,6.4771932],"ct":"DE","tp":"CS","ts":"2024-09-09T09:51:46Z","tX":530,"tY":345,"tags":{"access":"permit","backcountry":"yes","capacity:persons":"4","caravans":"no","contact:city":"Nettersheim","contact:housenumber":"16","contact:postcode":"53947","contact:street":"Bahnhofstraße","fee":"yes","name":"20 Flow","operator":"Naturpark Nordeifel e.V.","ref":"20","shower":"no","static_caravans":"no","tents":"yes","url":"https://www.trekking-eifel.de/de/die-trekkingplaetze/Flow/"}},"8827995865":{"location":[50.4082445,6.5379161],"ct":"DE","tp":"CR","ts":"2023-05-19T20:27:53Z","tX":530,"tY":345,"tags":{"addr:city":"Dahlem","addr:housenumber":"50","addr:postcode":"53949","addr:street":"Dahlemer Binz","name":"Wohnmobil-Stellplatz Dahlemer Binz"}},"4338827512":{"location":[50.4093436,6.3727334],"ct":"DE","tp":"SD","ts":"2020-08-09T18:32:32Z","tX":530,"tY":345,"tags":{"access":"customers","opening_hours":"24/7","sanitary_dump_station:basin":"yes","sanitary_dump_station:chemical_toilet":"yes","sanitary_dump_station:gravity":"yes","sanitary_dump_station:grey_water":"yes","sanitary_dump_station:round_drain":"yes"}},"4908027704":{"location":[50.4076975,6.5377922],"ct":"DE","tp":"SD","ts":"2023-05-19T20:27:53Z","tX":530,"tY":345,"tags":{}}}