{"9656328":{"location":[50.2190731,6.4390575],"ct":"DE","tp":"CS","ts":"2019-06-19T15:26:19Z","tX":530,"tY":346,"tags":{"cabins":"yes","caravans":"yes","contact:email":"info@waldcamping-pruem.de","contact:phone":"+49 6551 2481","contact:website":"http://waldcamping-pruem.de/","description":"Free access to near-by communal swimming pool for guests","description:de":"Gratiszugang für Gäste zum angrenzenden Freibad","dog":"yes","internet_access":"wlan","name":"Waldcamping Prüm/Eifel","permanent_camping":"yes","tents":"yes","washing_machine":"yes"}},"32815977":{"location":[50.2273196,6.6424372],"ct":"DE","tp":"CS","ts":"2024-03-01T16:36:50Z","tX":530,"tY":346,"tags":{"area":"yes","name":"Felsenhof Bungalowpark + Camping","website":"https://www.felsenhof.de/"}},"88030751":{"location":[50.2203221,6.4429947],"ct":"DE","tp":"CS","ts":"2019-08-25T10:10:56Z","tX":530,"tY":346,"tags":{"caravans":"no","email":"F.J.Keilen@web.de","group_only":"yes","name":"Jugendlager","phone":"+49 6551 6410","tents":"yes"}},"116500545":{"location":[50.1071134,6.3501626],"ct":"DE","tp":"CS","ts":"2024-09-05T06:52:59Z","tX":530,"tY":346,"tags":{"addr:city":"Manderscheid","addr:country":"DE","addr:housenumber":"1","addr:place":"Heilhausermühle","addr:postcode":"54649","capacity:pitches":"150","email":"walter.tautges@t-online.de","fax":"+49 6554 900847","fee":"yes","name":"Campingplatz Heilhauser Mühle","opening_hours":"Apr 01 - Oct 31","phone":"+49 6554 805","power_supply":"yes","sanitary_dump_station":"yes","shower":"yes","static_caravans":"yes","toilets":"yes","website":"https://campingplatz-heilhauser-muehle.de"}},"137137247":{"location":[50.0925712,6.357617],"ct":"DE","tp":"CS","ts":"2024-08-20T19:39:39Z","tX":530,"tY":346,"tags":{"addr:city":"Waxweiler","addr:country":"DE","addr:housenumber":"7","addr:postcode":"54649","addr:street":"Schwimmbadstraße","email":"info@ferienpark-waxweiler.de","fax":"+49 6554 920029","name":"Campingpark Eifel","phone":"+49 6554 92000","website":"https://ferienpark-waxweiler.de/camping-eifel/","wheelchair":"yes"}},"137824356":{"location":[50.2815569,6.4601216],"ct":"DE","tp":"CS","ts":"2018-07-14T20:59:17Z","tX":530,"tY":346,"tags":{"name":"Campingplatz Birkenwiese","website":"http://www.campingplatz-birkenwiese.de/5/home"}},"205047242":{"location":[50.0877399,6.3676202],"ct":"DE","tp":"CS","ts":"2024-08-20T19:39:39Z","tX":530,"tY":346,"tags":{}},"237436416":{"location":[50.2168676,6.6031585],"ct":"DE","tp":"CS","ts":"2017-08-16T04:30:43Z","tX":530,"tY":346,"tags":{"addr:city":"Gerolstein","addr:housenumber":"200","addr:postcode":"54568","addr:street":"Hillenseifen","fee":"yes","name":"Camping Eifelblick","website":"http://www.parkgerolstein.com/"}},"261950872":{"location":[50.2209962,6.6536449],"ct":"DE","tp":"CR","ts":"2024-08-05T14:08:23Z","tX":530,"tY":346,"tags":{"addr:city":"Gerolstein","addr:postcode":"54568","addr:street":"Raderstraße","capacity":"25","caravan_site":"motorhome_stopover","caravan_site:type":"town","charge":"15 EUR","dog":"yes","fee":"yes","name":"Wohnmobilstellplatz Gerolstein","power_supply":"yes","power_supply:capacity":"20","power_supply:fee":"no","sanitary_dump_station":"yes","sanitary_dump_station:fee":"no","water_point":"yes","water_point:conditional":"no @ (Nov-Apr)","water_point:fee":"no","website":"https://wohnmobil-gerolstein.de/"}},"264781543":{"location":[50.1639299,6.3368568],"ct":"DE","tp":"CR","ts":"2024-04-02T22:19:24Z","tX":530,"tY":346,"tags":{"addr:city":"Pronsfeld","addr:postcode":"54597","addr:street":"Bahnhofstraße","charge":"7 EUR","email":"info@pronsfeld-eifel.de","fee":"yes","internet_access":"wlan","name":"\"Am alten Bahnhof\" Pronsfeld","operator":"Ortsgemeinde Pronsfeld","phone":"+49 6556 7326","power_supply":"yes","power_supply:charge":"0.50 EUR/kWh","power_supply:fee":"yes","sanitary_dump_station":"yes","water_point":"yes","water_point:charge":"0.50 EUR/60 liter","water_point:fee":"yes","website":"https://pronsfeld-eifel.de/wohnmobilstellplatz"}},"418279619":{"location":[50.2387095,6.6141892],"ct":"DE","tp":"CS","ts":"2023-11-02T10:21:02Z","tX":530,"tY":346,"tags":{"addr:city":"Gerolstein","addr:housenumber":"31","addr:postcode":"54568","addr:street":"Müllenborner Straße","name":"Campingplatz Oosbachtal","phone":"+49 6591 7409","website":"https://www.camping-oosbachtal.de/"}},"777481431":{"location":[50.2530154,6.3978278],"ct":"DE","tp":"CS","ts":"2024-01-01T20:32:44Z","tX":530,"tY":346,"tags":{"access":"customers","backcountry":"yes","camp_site":"basic","capacity:tents":"2","caravans":"no","charge":"15.00 EUR","description":"The Campsite is a wooden platform for two tents. Each spot measures 2,25m * 3,5m. As there is no reception, it has to be booked in advance for 10€","drinking_water":"no","email":"info@nordeifel-tourismus.de","fee":"yes","fireplace":"no","internet_access":"no","name":"Abgetaucht","openfire":"no","operator":"Naturpark Nordeifel e.V.","ref":"6","reservation":"required","shower":"no","tents":"yes","toilets":"yes","website":"https://www.trekking-eifel.de/de/die-trekkingplaetze/abgetaucht/","wheelchair":"no"}},"983076314":{"location":[50.0952358,6.35517],"ct":"DE","tp":"CR","ts":"2023-12-26T18:27:53Z","tX":530,"tY":346,"tags":{"access":"yes","fee":"yes","name":"Stellplatz Alter Bahnhof Waxweiler","phone":"+49 6554 811","power_supply":"yes","sanitary_dump_station":"yes","website":"http://waxweiler.com/wohnmobilplatz.html"}},"1167436130":{"location":[50.0994899,6.3618969],"ct":"DE","tp":"CR","ts":"2023-04-29T21:56:03Z","tX":530,"tY":346,"tags":{"addr:city":"Waxweiler","addr:housenumber":"43","addr:postcode":"54649","addr:street":"Pintesfelder Straße","capacity":"2","fee":"no","internet_access":"no","name":"paddymog","power_supply":"no","sanitary_dump_station":"no"}},"1189833822":{"location":[50.2025566,6.4217083],"ct":"DE","tp":"CR","ts":"2024-06-15T14:59:12Z","tX":530,"tY":346,"tags":{"addr:city":"Prüm","addr:postcode":"54595","addr:street":"Gerberweg","charge":"8 EUR / night","fee":"yes","internet_access":"wlan","name":"Wohmobilstellplatz Prüm","power_supply":"yes","sanitary_dump_station":"yes"}},"6358943672":{"location":[50.1554559,6.4665458],"ct":"DE","tp":"CR","ts":"2023-05-14T19:13:21Z","tX":530,"tY":346,"tags":{"fee":"yes","name":"Wohnmobilstellplatz Schönecken","operator":"Ortsgemeinde Schönecken","payment:cash":"yes","payment:coins":"yes","power_supply":"yes","tents":"no","toilets":"no"}}}