{"135754189":{"location":[49.9573284,6.4234007],"ct":"DE","tp":"CS","ts":"2024-08-20T13:04:39Z","tX":530,"tY":347,"tags":{"addr:city":"Oberweis","addr:postcode":"54636","caravans":"yes","contact:fax":"+49 6527 9292-32","contact:phone":"+49 6527 9292-0","contact:website":"https://www.pruemtal.de/pruemtal-camping-de","dog":"yes","internet_access":"wlan","name":"Prümtal-Camping","permanent_camping":"yes","power_supply":"yes","static_caravans":"yes","swimming_pool":"yes","tents":"yes","washing_machine":"yes","website":"https://www.pruemtal.de"}},"135864055":{"location":[49.8505578,6.3468909],"ct":"LU","tp":"CS","ts":"2021-09-09T10:51:19Z","tX":530,"tY":347,"tags":{}},"137106906":{"location":[49.999114,6.3539191],"ct":"DE","tp":"CS","ts":"2024-08-23T20:53:04Z","tX":530,"tY":347,"tags":{"addr:city":"Utscheid","addr:housenumber":"21","addr:postcode":"54675","addr:street":"Im Krahnen","breakfast":"yes","cabin:rental":"tent","capacity":"50","description":"Familiecamping","email":"info@camping-dreispatzen.eu","fee":"yes","internet_access":"yes","internet_access:fee":"no","internet_access:ssid":"Spatznet","motorcycle_friendly":"customary","name":"Camping Drei Spatzen","opening_hours":"Mo-Su 09:00-21:00","operator":"Camping Drei Spatzen GmbH","payment:cash":"yes","payment:debit_cards":"yes","phone":"+49 6564 9649999","power_supply":"yes","sanitary_dump_station":"yes","washing_machine":"yes","website":"https://www.camping-dreispatzen.eu"}},"138563466":{"location":[49.8404716,6.3330254],"ct":"LU","tp":"CS","ts":"2021-08-20T22:23:35Z","tX":530,"tY":347,"tags":{"access":"permissive","email":"info@camping-altschmiede.de","fax":"+49 6526 1330","fee":"yes","name":"Camping-Altschmiede","opening_hours":"Apr-Oct","operator":"Camping-Altschmiede GmbH","payment:cash":"yes","payment:debit_cards":"yes","phone":"+49 6526 375","power_supply":"yes","reservation":"recommended","sanitary_dump_station":"yes","tents":"yes","website":"https://www.camping-altschmiede.de/"}},"208781777":{"location":[49.8535779,6.4639331],"ct":"DE","tp":"CS","ts":"2021-10-01T20:32:54Z","tX":530,"tY":347,"tags":{"email":"info@camping-nimseck.de","fax":"+49 6525 1299","internet_access":"yes","internet_access:fee":"no","name":"Camping Nimseck","operator":"Eichers GmbH & Co. KG","phone":"+49 6525 314","power_supply":"yes","shower":"yes","toilets":"yes","website":"https://camping-nimseck.de"}},"254910038":{"location":[49.856723,6.4028701],"ct":"DE","tp":"CS","ts":"2024-04-01T11:50:19Z","tX":530,"tY":347,"tags":{"addr:city":"Ferschweiler","addr:postcode":"54668","addr:street":"Dreitalstraße","capacity:persons":"500","caravans":"no","charge":"4.20 EUR","fee":"yes","group_only":"yes","name":"Jugendzeltplatz Ferschweiler","openfire":"yes","power_supply":"yes","reservation":"required","shower":"yes","tents":"yes","toilets":"yes","website":"https://ferschweiler.de/jugendzeltplatz/"}},"302313901":{"location":[50.0374237,6.5913436],"ct":"DE","tp":"CS","ts":"2023-11-03T13:27:07Z","tX":530,"tY":347,"tags":{"addr:city":"Kyllburg","addr:housenumber":"5","addr:postcode":"54655","addr:street":"Karl-Kaufmann-Weg","caravans":"yes","email":"info@campkyllburg.de","fee":"yes","internet_access":"wlan","name":"Camp Kyllburg","phone":"+49 6563 8133","power_supply":"yes","shower":"yes","tents":"yes","toilets":"yes","website":"https://www.campkyllburg.de/"}},"420460854":{"location":[49.8421797,6.4587674],"ct":"DE","tp":"CS","ts":"2022-04-15T11:23:34Z","tX":530,"tY":347,"tags":{"caravans":"yes","contact:phone":"+49 6525 510","contact:website":"http://www.camping-suedeifel.de","fee":"yes","name":"Camping Südeifel","power_supply":"yes","shower":"yes","tents":"yes","toilets":"yes","toilets:wheelchair":"yes","wheelchair":"yes"}},"874114944":{"location":[49.9397041,6.6257839],"ct":"DE","tp":"CS","ts":"2010-08-22T16:19:18Z","tX":530,"tY":347,"tags":{"name":"Natur-Camp Eifel"}},"1099618261":{"location":[50.0197374,6.348591],"ct":"DE","tp":"CS","ts":"2022-10-01T10:14:12Z","tX":530,"tY":347,"tags":{"capacity":"120","contact:email":"p.schuster.oberraden@t-online.de","contact:fax":"+49 6564 930823","contact:phone":"+49 6564 4530","contact:website":"https://www.jfs-fischbach.de/","group_only":"yes","landuse":"residential","name":"Jugendfreizeitstätte Fischbach","reservation":"required"}},"1264654722":{"location":[49.9699294,6.5246598],"ct":"DE","tp":"CR","ts":"2024-06-09T15:31:20Z","tX":530,"tY":347,"tags":{"capacity:caravans":"7","caravan_site":"motorhome_stopover","caravan_site:type":"parking_lot","charge":"10.00 EUR/24 hours","fee":"yes","maxstay":"3 days","name":"Parkplatz Altes Gymnasium","opening_hours":"24/7","payment":"24/7","payment:coins":"yes","payment:coins:denominations":"0.10 EUR;0.20 EUR;0.50 EUR;1 EUR;2 EUR","power_supply":"no","sanitary_dump_station":"no","seasonal":"no","source:payment":"entrance","traffic_sign":"DE:314,1048-17"}},"1290668254":{"location":[50.0167436,6.4418477],"ct":"DE","tp":"CR","ts":"2024-06-09T15:31:20Z","tX":530,"tY":347,"tags":{"caravan_site":"motorhome_stopover","caravan_site:type":"lake","dog":"yes","maxlength":"6","name":"Wohnmobilstellplätze Stausee Bitburg","opening_hours":"24/7","sanitary_dump_station":"no","surface":"asphalt","toilets":"yes"}},"7756188285":{"location":[50.0065369,6.4056199],"ct":"DE","tp":"CS","ts":"2020-07-27T10:16:26Z","tX":530,"tY":347,"tags":{"website":"https://www.ferienhof-neumuehle.de/"}},"12132810339":{"location":[49.9994593,6.3531493],"ct":"DE","tp":"SD","ts":"2024-08-23T20:53:04Z","tX":530,"tY":347,"tags":{"access":"customers","fee":"no","opening_hours":"24/7","operator":"Camping Drei Spatzen GmbH","sanitary_dump_station:round_drain":"yes"}}}