{"26392690":{"location":[49.7409852,6.6248563],"ct":"DE","tp":"CR","ts":"2024-06-03T21:49:26Z","tX":530,"tY":348,"tags":{"bakery_service":"yes","capacity":"120","caravan_site":"motorhome_stopover","caravan_site:type":"parking_lot","caravans":"no","charge":"14 EUR","charge:power_supply":"EUR 0.70/kWh","check_date:internet_access":"2023-09-02","contact:email":"info@camping-treviris.com","contact:phone":"+49 651 86921","contact:website":"https://reisemobilpark.camping-treviris.de/","dog":"yes","drinking_water":"yes","fee":"yes","internet_access":"wlan","internet_access:fee":"no","name":"Reisemobilpark Treviris","power_supply":"yes","power_supply:capacity":"62","power_supply:charge":"0.80 EUR/kWh","power_supply:fee":"yes","sanitary_dump_station":"yes","sanitary_dump_station:chemical_toilet":"yes","sanitary_dump_station:grey_water":"yes","shower":"yes","source":"Parie2018","tents":"no","toilets":"yes","water_point":"yes","water_point:charge":"0.10 EUR/10 liter","water_point:fee":"yes"}},"30076616":{"location":[49.7639141,6.5961559],"ct":"DE","tp":"CR","ts":"2024-09-12T18:08:24Z","tX":530,"tY":348,"tags":{"access":"yes","name":"Bron Park4Night","parking":"surface"}},"72177980":{"location":[49.6190785,6.5437461],"ct":"DE","tp":"CS","ts":"2023-11-04T17:17:19Z","tX":530,"tY":348,"tags":{"name":"Landal Warsberg","website":"https://www.landalcamping.de/de-de/campingplatze/deutschland/triererland/warsberg"}},"89702139":{"location":[49.797125,6.4307885],"ct":"LU","tp":"CS","ts":"2021-12-07T14:12:00Z","tX":530,"tY":348,"tags":{"caravans":"yes","name":"Camping Alferweiher","power_supply":"yes","shower":"yes","tents":"yes","toilets":"yes","washing_machine":"yes","website":"http://www.camping-alferweiher.lu/"}},"121005369":{"location":[49.6799807,6.5640873],"ct":"DE","tp":"CS","ts":"2023-03-20T09:12:08Z","tX":530,"tY":348,"tags":{"cabins":"yes","capacity":"60","caravans":"yes","email":"camping@campingplatz-konz.de","old_name":"Campingplatz Horsch","phone":"+49 6501 2577","shower":"yes","tents":"yes","toilets":"yes","website":"http://campingplatz-konz.de"}},"132108379":{"location":[49.8078864,6.5047161],"ct":"LU","tp":"CS","ts":"2024-11-11T07:52:07Z","tX":530,"tY":348,"tags":{"addr:city":"Rosport","addr:housenumber":"1","addr:postcode":"6580","addr:street":"Rue du Camping","email":"campingrosport@pt.lu","fax":"+352 73 51 55","name":"Camping Rosport","phone":"+352 73 01 60","sanitary_dump_station":"yes","shower":"yes","website":"https://www.camping-rosport.lu/"}},"134251818":{"location":[49.8006192,6.4164646],"ct":"LU","tp":"PK","ts":"2024-06-03T22:54:30Z","tX":530,"tY":348,"tags":{"access":"yes","covered":"no","fee":"no","motorhome":"yes","opening_hours":"24/7","park_ride":"no","parking":"surface","surface":"asphalt","toilets:wheelchair":"no","wheelchair":"yes"}},"135863299":{"location":[49.8043852,6.5109313],"ct":"DE","tp":"CS","ts":"2019-02-17T09:53:29Z","tX":530,"tY":348,"tags":{"name":"Am Stausee Ralingen","phone":"+49 170 4927248","website":"https://www.eifel.info/hotel-fewo-eifel/a-camping-am-stausee-ralingen"}},"135863300":{"location":[49.8118868,6.4308666],"ct":"LU","tp":"CS","ts":"2024-08-23T09:53:02Z","tX":530,"tY":348,"tags":{"caravans":"yes","email":"info@echternacherbrueck.de","fax":"+49 65 25 9315 5","fee":"yes","name":"Campingpark Freibad Echternacherbrück","phone":"+49 65 2534 0","power_supply":"yes","website":"https://www.echternacherbrueck.de/","wheelchair":"yes"}},"135863526":{"location":[49.7864235,6.5112269],"ct":"LU","tp":"CS","ts":"2021-06-16T05:54:52Z","tX":530,"tY":348,"tags":{"name":"Campingplatz \"Zum Sauertal\""}},"135863557":{"location":[49.7162294,6.5048515],"ct":"LU","tp":"CS","ts":"2023-04-24T06:56:10Z","tX":530,"tY":348,"tags":{"name":"Camping Schützwiese","source":"geoportail.lu","website":"https://www.visitwasserbillig.lu/"}},"139754099":{"location":[49.8184532,6.3496609],"ct":"LU","tp":"CS","ts":"2024-06-10T07:37:08Z","tX":530,"tY":348,"tags":{"capacity":"380","caravans":"yes","drinking_water":"yes","email":"ampbv2000@gmail.com","int_name":"Belle Vue 2000","internet_access":"wlan","name":"Belle-Vue 2000","phone":"+352 79 06 35","power_supply":"yes","reservation":"yes","sanitary_dump_station":"yes","shower":"yes","tents":"yes","toilets":"yes","website":"https://campingbellevue.lu/"}},"145689788":{"location":[49.743203,6.6245991],"ct":"DE","tp":"CS","ts":"2023-02-26T06:46:45Z","tX":530,"tY":348,"tags":{"bar":"yes","big_rigs":"yes","camp_type":"established","caravans":"yes","description:en":"The individual grass pitches are small. However, the ablutions are excellent, with kitchen, lockers for phone charging, washing machines, dryers and a sanitation dump station.","dish_washing":"yes","dryer":"yes","email":"info@camping-treviris.com","fee":"yes","general_room":"no","guarded":"no","kitchen":"yes","name":"Campingplatz Treviris","opening_hours":"Mo-Su 08:00-22:00","payment:credit_card":"yes","pets":"yes","phone":"+49 651 86921","picnic_benches":"no","power_supply":"yes","power_supply:voltage":"220","restaurant":"yes","sanitary_dump_station":"yes","shop":"kiosk","shower":"hot","source":"Survey","stars":"4","swimming_pool":"no","tents":"yes","washing_machine":"yes","water:location":"central","water:quality":"potable","website":"https://camping-treviris.com/","wheelchair":"limited"}},"151847928":{"location":[49.7048504,6.554163],"ct":"DE","tp":"CS","ts":"2023-11-04T17:17:53Z","tX":530,"tY":348,"tags":{"addr:city":"Igel","addr:country":"DE","addr:postcode":"54298","addr:street":"Moselstraße","caravans":"yes","drinking_water":"yes","email":"info@camping-igel.de","name":"Campingplatz Igel","operator":"Emil Welsch","phone":"+49 6501 12944","power_supply":"yes","shower":"yes","tents":"no","toilets":"yes","website":"https://www.camping-igel.com/"}},"151866913":{"location":[49.7040041,6.5735673],"ct":"DE","tp":"CS","ts":"2024-04-17T13:04:53Z","tX":530,"tY":348,"tags":{"name":"Camping Konz Saarmündung","website":"http://campingplatz-konz.de/"}},"189029768":{"location":[49.8215251,6.4751384],"ct":"LU","tp":"CR","ts":"2024-06-27T16:54:05Z","tX":530,"tY":348,"tags":{"caravan_site":"motorhome_stopover","caravan_site:type":"river;bar","fee":"yes","name":"Minden Beach Camping","sanitary_dump_station":"yes","water_point":"yes","water_point:fee":"no"}},"216930230":{"location":[49.701655,6.4758278],"ct":"LU","tp":"CS","ts":"2021-11-05T21:11:42Z","tX":530,"tY":348,"tags":{"fee":"no","name":"Camping du Parc","wheelchair":"yes"}},"224846615":{"location":[49.6823806,6.4491483],"ct":"LU","tp":"CS","ts":"2023-11-20T16:59:57Z","tX":530,"tY":348,"tags":{"name":"Camping de la Route du Vin","website":"http://grevenmacher-tourist.lu/unterkuenfte/camping/"}},"257523382":{"location":[49.6838254,6.4503604],"ct":"LU","tp":"CS","ts":"2024-06-27T15:42:35Z","tX":530,"tY":348,"tags":{"permanent_camping":"only"}},"362559214":{"location":[49.8260078,6.3427125],"ct":"LU","tp":"CS","ts":"2023-09-10T09:00:01Z","tX":530,"tY":348,"tags":{"addr:city":"Berdorf","addr:housenumber":"5","addr:postcode":"6552","addr:street":"Beim Maartbësch","camp_site":"serviced","dog":"yes","internet_access":"wlan","name":"Martbusch","phone":"+352 790545","reservation":"yes","url":"http://camping-martbusch.lu/","website":"https://camping-martbusch.lu/"}},"363709707":{"location":[49.8318936,6.3302053],"ct":"LU","tp":"CS","ts":"2021-12-16T18:06:08Z","tX":530,"tY":348,"tags":{"name":"Camping Grundhof","phone":"+352 836112"}},"397375584":{"location":[49.7798657,6.3307701],"ct":"LU","tp":"CS","ts":"2024-03-07T11:00:38Z","tX":530,"tY":348,"tags":{"addr:city":"Consdorf","addr:housenumber":"33","addr:postcode":"6211","addr:street":"Buurgkapp","caravans":"yes","contact:email":"info@campinglapinede.lu","fee":"yes","name":"La Pinede","operator":"Municipal Consdorf","phone":"+352 79 02 71","sanitary_dump_station":"yes","website":"https://www.visitconsdorf.lu/fr/loger-manger/campings"}},"495945927":{"location":[49.8265701,6.3422582],"ct":"LU","tp":"CR","ts":"2024-06-27T23:03:26Z","tX":530,"tY":348,"tags":{"capacity":"9","caravan_site":"motorhome_stopover","caravan_site:type":"village","fee":"yes","name":"Quick Stop Martbusch","power_supply":"yes","power_supply:maxcurrent":"16","sanitary_dump_station":"yes","water_point":"yes","website":"https://www.mullerthal.lu/en/fiche/campingcar/quick-stop-martbusch"}},"708388137":{"location":[49.8376928,6.3330171],"ct":"DE","tp":"SD","ts":"2019-07-29T04:33:38Z","tX":530,"tY":348,"tags":{"access":"customers","fee":"no","water_point":"yes"}},"750253676":{"location":[49.8162688,6.4086107],"ct":"LU","tp":"CS","ts":"2024-10-26T15:00:27Z","tX":530,"tY":348,"tags":{"addr:city":"Echternach","addr:housenumber":"17","addr:postcode":"6430","addr:street":"Route de Diekirch","capacity:caravans":"240","dog":"yes","email":"info@camping-echternach.lu","fax":"+352 26 72 08 47","internet_access":"wlan","internet_access:fee":"no","name":"Camping Officiel Wollefsschlucht","operator":"Syndicat Tourisme Echternach","phone":"+352 72 02 72","website":"https://www.visitechternach.lu/de/essen-uebernachten/campingplatze"}},"810027983":{"location":[49.738345,6.6595465],"ct":"DE","tp":"CR","ts":"2023-12-04T15:13:48Z","tX":530,"tY":348,"tags":{"capacity":"20","caravan_site:type":"winery","charge":"13 EUR /day","fee":"yes","internet_access":"no","name":"Weingut Georg Fritz von Nell","power_supply":"yes","tents":"no","website":"https://www.vonnell.de/wohnmobilstellplatz/","wikimedia_commons":"Category:Wohnmobilstellplatz Weingut Georg Fritz von Nell"}},"909026303":{"location":[49.7542775,6.5045138],"ct":"DE","tp":"CS","ts":"2024-09-11T09:43:22Z","tX":530,"tY":348,"tags":{"addr:city":"Langsur","addr:housenumber":"42","addr:postcode":"54308","addr:street":"Uferstraße","cabins":"no","capacity:permanent_camping":"80","capacity:tents":"20","capacity:touristic":"50","caravans":"yes","dog":"yes","drinking_water":"yes","email":"info@camping-metzdorf.de","fee":"yes","motor_vehicle":"yes","name":"Campingplatz Alter Bahnhof Metzdorf","operator":"Michael Könes","permanent_camping":"yes","phone":"+49 6501 12626","power_supply":"yes","sanitary_dump_station":"yes","shower":"yes","surface":"grass","tents":"yes","toilets":"yes","toilets:wheelchair":"no","washing_machine":"yes","website":"https://www.camping-metzdorf.de/","wheelchair":"limited"}},"961930152":{"location":[49.8190593,6.3973994],"ct":"LU","tp":"CS","ts":"2021-10-02T10:43:44Z","tX":530,"tY":348,"tags":{"access":"private","email":"scoutcampechternach@outlook.com","group_only":"yes","landuse":"grass","name":"Scout Camp Echternach","operator":"Eechternoacher Quaichleken","scout":"yes","website":"https://www.camp-scout.lu/"}},"964861361":{"location":[49.7781114,6.3385328],"ct":"LU","tp":"CS","ts":"2024-03-07T11:00:39Z","tX":530,"tY":348,"tags":{"addr:city":"Consdorf","addr:housenumber":"27","addr:postcode":"6210","addr:street":"Route de Luxembourg","name":"Garden-Parc","phone":"+352 790040","website":"https://www.camping.lu/fr/campings/garden-park-consdorf"}},"1160923631":{"location":[49.7526116,6.5016098],"ct":"DE","tp":"CS","ts":"2024-09-11T09:43:22Z","tX":530,"tY":348,"tags":{"access":"customers","addr:city":"Langsur","addr:housenumber":"29","addr:postcode":"54308","addr:street":"Uferstraße","caravans":"yes","email":"campdeulux@t-online.de","name":"Campingplatz DeuLux","phone":"+491622589124","tents":"yes"}},"11913778907":{"location":[49.7397755,6.6212543],"ct":"DE","tp":"CR","ts":"2024-06-03T21:49:26Z","tX":530,"tY":348,"tags":{"caravan_site":"motorhome_stopover","caravan_site:type":"parking_lot","caravans":"yes","fee":"no","name":"Wohnmobilstellplatz Trier Messeparkplatz","sanitary_dump_station":"yes","water_point":"yes"}},"9035509662":{"location":[49.7385432,6.6580125],"ct":"DE","tp":"SD","ts":"2021-08-25T16:10:45Z","tX":530,"tY":348,"tags":{"access":"customers","fee":"no","sanitary_dump_station:basin":"yes"}},"9524193780":{"location":[49.7052103,6.5535062],"ct":"DE","tp":"SD","ts":"2022-02-21T11:50:47Z","tX":530,"tY":348,"tags":{"access":"customers","operator":"Campingplatz Igel"}},"10797709444":{"location":[49.75371,6.503395],"ct":"DE","tp":"SD","ts":"2024-08-18T06:05:36Z","tX":530,"tY":348,"tags":{"fee":"no","sanitary_dump_station:grey_water":"yes"}},"10797709445":{"location":[49.7536905,6.5033568],"ct":"DE","tp":"SD","ts":"2024-08-18T06:05:40Z","tX":530,"tY":348,"tags":{"fee":"no","sanitary_dump_station:chemical_toilet":"yes"}},"4879171927":{"location":[49.8266609,6.342728],"ct":"LU","tp":"SD","ts":"2017-05-26T20:42:39Z","tX":530,"tY":348,"tags":{"access":"customers","fee":"no","sanitary_dump_station:basin":"yes","sanitary_dump_station:round_drain":"yes"}},"8450131652":{"location":[49.8096501,6.4288942],"ct":"LU","tp":"SD","ts":"2022-05-30T07:49:47Z","tX":530,"tY":348,"tags":{"fee":"no","sanitary_dump_station:chemical_toilet":"yes","sanitary_dump_station:grey_water":"yes","water_point":"yes","water_point:fee":"yes"}}}