{"30056054":{"location":[49.6016342,6.5535969],"ct":"DE","tp":"CR","ts":"2024-01-31T16:18:25Z","tX":530,"tY":349,"tags":{"addr:housenumber":"18","addr:postcode":"54439","addr:street":"Am Saarufer","capacity":"100","charge":"11,50€","contact:email":"info@reisemobilpark-saarburg.de","contact:mobile":"+49 151 15802080","dog":"yes","fee":"yes","internet_access":"wlan","internet_access:fee":"no","name":"Reisemobilpark Saarburg","power_supply":"yes","sanitary_dump_station":"yes","shower":"yes","tents":"no","toilets":"yes","water_point":"yes","website":"https://www.reisemobilpark-saarburg.de/","wheelchair":"limited"}},"32397227":{"location":[49.5990387,6.5402281],"ct":"DE","tp":"CS","ts":"2023-11-04T17:18:09Z","tX":530,"tY":349,"tags":{"addr:city":"Saarburg","addr:housenumber":"1","addr:postcode":"54439","addr:street":"Leukbachtal","caravans":"yes","fee":"yes","name":"Camping Leukbachtal","phone":"+49 6581-2228","shower":"yes","tents":"yes","toilets":"yes","website":"https://www.camping-leukbachtal.de/"}},"33831707":{"location":[49.5409982,6.3699905],"ct":"DE","tp":"CS","ts":"2024-12-26T13:57:22Z","tX":530,"tY":349,"tags":{"caravans":"yes","email":"info@mosel-camping.de","fax":"+49 6866 1005","name":"Mosel-Camping Dreiländereck","name:da":"ved mosell","operator":"Reinhold Ollinger","phone":"+49 6866 322","tents":"yes","website":"https://mosel-camping.de/"}},"35425822":{"location":[49.5929162,6.6517582],"ct":"DE","tp":"CS","ts":"2016-09-11T11:21:04Z","tX":530,"tY":349,"tags":{"name":"Rübezahl"}},"144598933":{"location":[49.6013307,6.5263524],"ct":"DE","tp":"CS","ts":"2023-11-04T17:18:08Z","tX":530,"tY":349,"tags":{"addr:city":"Saarburg","addr:country":"DE","addr:housenumber":"4","addr:postcode":"54439","addr:street":"Im Fichtenhain","caravans":"yes","dog":"yes","dryer":"yes","email":"info@campingwaldfrieden.de","fax":"+49 6581 5908","internet_access":"wlan","internet_access:fee":"yes","name":"Campingplatz Waldfrieden","opening_hours":"Mar 01-Oct 31","payment:cash":"yes","payment:girocard":"yes","phone":"+49 6581 2255","power_supply":"yes","sauna":"yes","stars":"4","tents":"yes","washing_machine":"yes","website":"https://www.campingwaldfrieden.de/"}},"199330041":{"location":[49.543013,6.3741138],"ct":"DE","tp":"CS","ts":"2022-01-06T07:09:16Z","tX":530,"tY":349,"tags":{"name":"Campingplatz Mosella"}},"239203438":{"location":[49.4790121,6.3849033],"ct":"DE","tp":"CR","ts":"2024-04-01T10:25:51Z","tX":530,"tY":349,"tags":{"capacity":"6","caravan_site":"motorhome_stopover","caravan_site:type":"swimming_pool;town","caravans":"no","charge":"5 EUR /night","fee":"yes","internet_access":"no","name":"Reisemobilplatz PerlBad","opening_hours":"24/7","operator":"Stadt Perl","payment:cash":"no","payment:credit_cards":"no","payment:debit_cards":"no","payment:easypark":"yes","payment:sms":"yes","power_supply":"yes","power_supply:charge":"EUR 1.00/6 hours","power_supply:socket":"cee_blue","reservation":"no","sanitary_dump_station":"yes","seasonal":"no","surface":"fine_gravel","tents":"no","water_point":"yes","website":"https://www.perl-saarschleifenland.de/uebernachtung/reisemobilplatz-perlbad-85912d85c0","wheelchair":"yes"}},"284064357":{"location":[49.4449325,6.3500288],"ct":"FR","tp":"CS","ts":"2023-06-27T11:49:16Z","tX":530,"tY":349,"tags":{"addr:city":"Sierck-les-Bains","caravans":"yes","drinking_water":"yes","internet_access":"wlan","internet_access:fee":"no","name":"Camping Municipal Les Tilleuls","power_supply":"yes","sanitary_dump_station":"yes","shower":"yes","stars":"3","tents":"yes","toilets":"yes","website":"https://www.siercklesbains.fr/camping/le-camping.html"}},"313992973":{"location":[49.5468975,6.3781166],"ct":"DE","tp":"CS","ts":"2020-05-16T16:52:00Z","tX":530,"tY":349,"tags":{}},"313992974":{"location":[49.5577189,6.3788585],"ct":"DE","tp":"CS","ts":"2020-05-16T16:52:00Z","tX":530,"tY":349,"tags":{"name":"Opa Schuler"}},"387438734":{"location":[49.5952599,6.5707356],"ct":"DE","tp":"CS","ts":"2019-08-25T10:10:56Z","tX":530,"tY":349,"tags":{"caravans":"no","group_only":"yes","name":"Jugendzeltplatz Kammerforst","tents":"yes","toilets:wheelchair":"yes","wheelchair":"yes"}},"430963104":{"location":[49.4446879,6.6338225],"ct":"DE","tp":"CS","ts":"2019-03-21T01:53:19Z","tX":530,"tY":349,"tags":{"name":"Campingplatz Kanu-Club Merzig","operator":"Kanu Club Merzig e.V.","toilets:wheelchair":"no","website":"https://www.kanuclub-merzig.de/camping","wheelchair":"no"}},"433279465":{"location":[49.564299,6.3747558],"ct":"DE","tp":"CR","ts":"2024-06-03T21:27:51Z","tX":530,"tY":349,"tags":{"caravan_site":"motorhome_stopover","caravan_site:type":"winery","fee":"yes","name":"Weingut Edwin Pauly","operator":"Edwin Pauly","power_supply":"yes","source":"http://www.paulywein.de","website":"http://www.paulywein.de"}},"605056159":{"location":[49.5089228,6.6210689],"ct":"DE","tp":"CS","ts":"2018-07-04T18:34:31Z","tX":530,"tY":349,"tags":{}},"828840397":{"location":[49.4443785,6.3621877],"ct":"FR","tp":"CR","ts":"2024-06-26T20:14:41Z","tX":530,"tY":349,"tags":{"capacity":"9","caravan_site":"motorhome_stopover","caravan_site:type":"village","fee":"no","name":"Aire Sierck-les-Bains","power_supply":"no","sanitary_dump_station":"no","water_supply":"no"}},"887832684":{"location":[49.4874145,6.5651276],"ct":"DE","tp":"PK","ts":"2024-06-26T20:23:15Z","tX":530,"tY":349,"tags":{"access":"customers","fee":"no","motorhome":"yes","parking":"surface"}},"925946779":{"location":[49.55712,6.3791812],"ct":"LU","tp":"CS","ts":"2021-04-04T18:44:22Z","tX":530,"tY":349,"tags":{"scout":"yes"}},"1188511013":{"location":[49.5090955,6.3650747],"ct":"LU","tp":"CR","ts":"2023-12-22T23:13:18Z","tX":530,"tY":349,"tags":{"capacity":"20","caravans":"yes","fee":"yes","name":"Sportboothafen Schwebsange Wohnmobilstellplatz","power_supply":"yes","sanitary_dump_station":"yes","static_caravans":"yes","tents":"no","water_point":"yes","website":"https://www.schengen.lu/port-de-schwebsingen/"}},"1212677326":{"location":[49.5389821,6.3620867],"ct":"LU","tp":"CR","ts":"2024-07-23T21:39:35Z","tX":530,"tY":349,"tags":{"addr:city":"Remich","addr:housenumber":"6","addr:postcode":"5549","addr:street":"Route du Vin","cabins":"no","capacity":"26","caravan_site":"motorhome_stopover","caravan_site:type":"river","charge":"18 EUR","fee":"yes","maxweight":"7.5","name":"Campcar-Parkplaz Remich","phone":"+352 27 07 54 16","power_supply":"yes","power_supply:capacity":"32","power_supply:maxcurrent":"16","reservation":"no","sanitary_dump_station":"yes","water_point":"yes","website":"https://visitremich.lu/lb/loger-et-manger/campcar/"}},"1268773428":{"location":[49.5067689,6.5359438],"ct":"DE","tp":"CR","ts":"2024-04-03T18:06:06Z","tX":530,"tY":349,"tags":{"charge":"6 €","fee":"yes","name":"Rehaklinik Saarschleife","power_supply":"no","sanitary_dump_station":"no","surface":"fine_gravel"}},"1937335440":{"location":[49.6014804,6.5546345],"ct":"DE","tp":"SD","ts":"2015-04-23T18:15:05Z","tX":530,"tY":349,"tags":{"sanitary_dump_station:chemical_toilet":"yes","sanitary_dump_station:gravity":"yes","sanitary_dump_station:grey_water":"yes"}},"7917289999":{"location":[49.4466346,6.6254716],"ct":"DE","tp":"CR","ts":"2024-02-10T21:24:51Z","tX":530,"tY":349,"tags":{"description:nl":"camperplaats bij zwembad. Tevens kantoor waar ook de sleutel is.","name":"Wohnmobil Stellplatz \"Das Bad\" Merzig","source":"Survey","toilets:wheelchair":"no","wheelchair":"yes"}},"7593588071":{"location":[49.4867941,6.5664845],"ct":"DE","tp":"SD","ts":"2024-06-26T20:22:58Z","tX":530,"tY":349,"tags":{"access":"yes","fee":"no","water_point":"yes"}},"7833239343":{"location":[49.4788856,6.3849825],"ct":"DE","tp":"SD","ts":"2020-08-21T19:09:29Z","tX":530,"tY":349,"tags":{"access":"yes","fee":"yes","opening_hours":"24/7","operator":"Stadt Perl","sanitary_dump_station:basin":"yes","sanitary_dump_station:round_drain":"yes"}}}