{"222846810":{"location":[48.3247434,6.4253984],"ct":"FR","tp":"CS","ts":"2019-07-03T21:55:10Z","tX":530,"tY":354,"tags":{"addr:city":"Châtel-sur-Moselle","addr:country":"FR","addr:postcode":"88330","addr:street":"Ferme de la Tuilerie","caravans":"yes","name":"Camping \"Aire Naturelle de la Tuilerie\"","opening_hours":"May 01-Oct 01","phone":"+33 3 29 67 94 56","tents":"25"}},"791631162":{"location":[48.2503818,6.4250596],"ct":"FR","tp":"CR","ts":"2024-06-21T16:21:05Z","tX":530,"tY":354,"tags":{"caravan_site":"motorhome_stopover","caravan_site:type":"village","caravans":"no","fee":"yes","name":"Aire De Camping Cars De Thaon-les-vosges","sanitary_dump_station":"yes","tents":"gate","water_point":"yes","water_point:fee":"yes"}},"977341848":{"location":[48.3117985,6.3851748],"ct":"FR","tp":"CR","ts":"2024-10-03T11:26:03Z","tX":530,"tY":354,"tags":{"bbq":"no","capacity":"14","caravan_site":"motorhome_stopover","caravan_site:type":"canal;village","caravans":"no","charge":"15.02 EUR","charge:conditional":"12.72 EUR @ (Oct-Apr)","dog":"yes","fee":"yes","maxlength":"9","name":"Camping-car Park Nomexy","network":"CAMPING-CAR PARK","power_supply":"yes","power_supply:maxcurrent":"6","surface":"asphalt","tents":"no","trailer":"no","website":"https://www.campingcarpark.com/fr_FR/sejour/aire-etape-camping-car/grand-est/88-vosges/nomexy","wheelchair":"yes"}},"1177405537":{"location":[48.4451042,6.5578364],"ct":"FR","tp":"CS","ts":"2023-05-29T22:58:50Z","tX":530,"tY":354,"tags":{"addr:housenumber":"14","addr:street":"Rue de la Barre","capacity:tents":"10","charge":"20€","email":"contact@etat-nature.com","fee":"yes","name":"Etat Nature","phone":"+33 6 81 96 01 44","shower":"yes","tents":"yes","toilets":"yes","washing_machine":"yes","website":"https://etat-nature.com/"}},"1294771477":{"location":[48.249645,6.4256594],"ct":"FR","tp":"SD","ts":"2024-06-21T16:21:05Z","tX":530,"tY":354,"tags":{"image":"https://cdn3.park4night.com/lieu/945001_945100/945051_gd.jpg","opening_hours":"24/7","water_point":"yes"}},"2883229614":{"location":[48.3389416,6.6386814],"ct":"FR","tp":"CS","ts":"2014-06-02T07:12:20Z","tX":530,"tY":354,"tags":{"internet_access":"wlan","name":"Municipal de Rambervillers"}}}