{"74306061":{"location":[48.1801263,6.4676903],"ct":"FR","tp":"CS","ts":"2023-05-10T20:54:36Z","tX":530,"tY":355,"tags":{"addr:city":"Epinal","addr:housenumber":"37","addr:postcode":"88000","addr:street":"rue Chaperon Rouge","barrier":"wall","capacity":"45","caravans":"yes","contact:mobile":"+336 86 16 14 48","contact:phone":"+333 29 34 43 65","fee":"yes","internet_access":"wlan","internet_access:fee":"no","name":"Camping Épinal Parc Du Château","power_supply":"yes","sanitary_dump_station":"yes","shower":"yes","stars":"2","tents":"yes","toilets":"yes","website":"http://www.camping-parcduchateau.com","wheelchair":"yes"}},"185706406":{"location":[48.1663016,6.3619861],"ct":"FR","tp":"CS","ts":"2025-03-07T10:40:47Z","tX":530,"tY":355,"tags":{"addr:city":"Sanchey","addr:country":"FR","addr:housenumber":"19","addr:postcode":"88390","addr:street":"Rue du Lac","capacity:tents":"110","caravans":"yes","email":"lacdebouzey@orange.fr","fax":"+33 3 29 64 28 03","internet_access":"wlan","name":"Les Nids du Lac","operator":"Sunêlia","phone":"+33 3 29 82 49 41","stars":"4","tents":"yes","website":"https://lesnidsdulac.com"}},"221928844":{"location":[48.1522553,6.3642524],"ct":"FR","tp":"CS","ts":"2023-11-10T13:39:31Z","tX":530,"tY":355,"tags":{"addr:city":"Renauvoid","addr:country":"FR","addr:housenumber":"1634","addr:postcode":"88390","addr:street":"Route de Bouzey","name":"Camping à la Ferme Champ Miguet","phone":"+33 3 29 82 22 82","website":"https://campingduchampmiguet.pagesperso-orange.fr/index.html"}},"222625646":{"location":[48.1618781,6.3547072],"ct":"FR","tp":"CS","ts":"2019-07-03T21:55:10Z","tX":530,"tY":355,"tags":{"addr:city":"Chaumousey","addr:country":"FR","addr:housenumber":"1007","addr:postcode":"88390","addr:street":"Chemin d'Ambafosse","name":"Camping \"Amis de La Nature\"","note":"réservation obligatoire","opening_hours":"May 01-Oct 31","phone":"+33 3 29 65 94 41","tents":"60"}},"624010558":{"location":[48.0155555,6.6012577],"ct":"FR","tp":"CR","ts":"2024-09-01T14:44:18Z","tX":530,"tY":355,"tags":{"capacity":"31","caravan_site":"motorhome_stopover","caravan_site:type":"train_station","charge":"6 EUR","fee":"yes","name":"Aire Camping-cars Remiremont","opening_hours":"24/7","power_supply":"yes","power_supply:charge":"3 EUR","power_supply:fee":"yes","power_supply:opening_hours":"01 Apr - 30 Sep","reservation":"yes","sanitary_dump_station":"yes","water_point":"yes","water_point:charge":"3 EUR","water_point:fee":"yes","website":"https://www.tourisme.vosges.fr/testpassvosges__trashed/885001720-aire-de-stationnement-camping-cars-remiremont-remiremont"}},"791663890":{"location":[48.0471207,6.3969727],"ct":"FR","tp":"CR","ts":"2024-09-03T13:53:36Z","tX":530,"tY":355,"tags":{"caravan_site":"motorhome_stopover","caravan_site:type":"village","charge":"8 EUR","fee":"yes","name":"Aire de Camping-Car Xertigny","power_supply":"yes","power_supply:fee":"no","sanitary_dump_station:fee":"no","shower":"yes","shower:fee":"yes","toilets":"yes","toilets:fee":"no","website":"https://www.mairie-xertigny.fr/Culture-Tourisme-Sport/Base-Loisirs-Woodies/Aire-Camping-Car.html"}},"837313923":{"location":[48.1854771,6.4452077],"ct":"FR","tp":"CR","ts":"2024-10-03T11:22:24Z","tX":530,"tY":355,"tags":{"capacity":"5","caravan_site":"motorhome_stopover","caravan_site:type":"canal;town","charge":"8 EUR","dog":"yes","fee":"yes","maxstay":"48 hours","name":"Aire de services pour camping car - Port d'Epinal","opening_hours":"24/7","power_supply":"yes","sanitary_dump_station":"yes","seasonal":"no","shadow":"yes","surface":"asphalt","water_point":"yes","website":"https://www.tourisme-epinal.com/sejourner/ou-dormir/aires-de-camping-car/aire-d-accueil-de-camping-cars-port-d-epinal-288037"}},"1232043205":{"location":[48.1462838,6.6173781],"ct":"FR","tp":"CR","ts":"2024-10-19T00:27:12Z","tX":530,"tY":355,"tags":{"capacity":"3","caravan_site":"motorhome_stopover","caravan_site:type":"town;river","fee":"no","name":"Aire de camping-car de Docelle","power_supply:fee":"yes","sanitary_dump_station:chemical_toilet":"yes","sanitary_dump_station:fee":"no","sanitary_dump_station:grey_water":"yes","seasonal":"no","water_point":"yes","water_point:fee":"yes","website":"https://www.tourisme-bruyeres.com/lei/detail/396/746001674/1941/aire-de-camping-car-de-docelles-docelles.htm"}},"1275393976":{"location":[48.0450551,6.5817922],"ct":"FR","tp":"CR","ts":"2024-05-07T14:28:19Z","tX":530,"tY":355,"tags":{"caravan_site":"motorhome_stopover","caravan_site:type":"village","fee":"no","name":"Aire Camping Car Saint Nabord","picnic_area":"yes","power_supply":"yes","sanitary_dump_station":"yes","water_point":"yes","website":"https://www.tourisme.vosges.fr/en/open-air-hospitality/885001721-aire-de-services-camping-cars-saint-nabord-saint-nabord"}},"1294873595":{"location":[47.9998787,6.6428434],"ct":"FR","tp":"CR","ts":"2024-09-01T14:44:18Z","tX":530,"tY":355,"tags":{"capacity":"3","caravan_site":"motorhome_stopover","caravan_site:type":"village","fee":"no","name":"Aire de camping-car de Dommartin-lès-Remiremont","opening_hours":"24/7","power_supply":"yes","power_supply:conditional":"no@(Nov-Feb)","power_supply:fee":"no","reservation":"no","seasonal":"no","water_point":"yes","water_point:fee":"yes","website":"https://www.ccpvm.fr/tourisme/aire-de-camping-car/"}},"2224864138":{"location":[48.1867328,6.444974],"ct":"FR","tp":"SD","ts":"2015-04-29T03:46:23Z","tX":530,"tY":355,"tags":{"sanitary_dump_station:accepted":"black_water"}},"10973903130":{"location":[48.1578806,6.358986],"ct":"FR","tp":"CS","ts":"2024-07-18T14:52:03Z","tX":530,"tY":355,"tags":{"caravans":"yes","drinking_water":"yes","power_supply":"yes","sanitary_dump_station":"no","shower":"yes","tents":"yes","toilets":"yes"}},"12099365102":{"location":[48.1516394,6.3652009],"ct":"FR","tp":"CS","ts":"2024-08-08T19:14:07Z","tX":530,"tY":355,"tags":{"name":"camping à la ferme","phone":"03 29 32 79 70"}},"4394671941":{"location":[48.0443585,6.3970866],"ct":"FR","tp":"SD","ts":"2018-11-12T23:31:14Z","tX":530,"tY":355,"tags":{"sanitary_dump_station":"yes"}},"4454757783":{"location":[48.0468435,6.3975695],"ct":"FR","tp":"SD","ts":"2024-09-03T13:53:36Z","tX":530,"tY":355,"tags":{"access":"yes","fee":"no"}},"5892387121":{"location":[48.0150451,6.6019061],"ct":"FR","tp":"SD","ts":"2018-09-08T06:48:50Z","tX":530,"tY":355,"tags":{"access":"yes","fee":"yes","opening_hours":"24/7","operator":"Aire Services"}},"7658160090":{"location":[48.1463741,6.6173856],"ct":"FR","tp":"SD","ts":"2024-01-01T19:01:47Z","tX":530,"tY":355,"tags":{"access":"yes","sanitary_dump_station:chemical_toilet":"yes","sanitary_dump_station:grey_water":"yes","water_point":"yes","water_point:fee":"yes"}},"10880343364":{"location":[48.1805713,6.4673332],"ct":"FR","tp":"SD","ts":"2023-05-10T20:54:36Z","tX":530,"tY":355,"tags":{"fee":"no","fixme":"sanitary_dump_station:chemical_toilet=yes/no ?? water_point=yes/no ??","sanitary_dump_station:gravity":"yes","sanitary_dump_station:grey_water":"yes","sanitary_dump_station:pump-out":"no","sanitary_dump_station:round_drain":"yes"}},"11834981348":{"location":[47.9996741,6.6442335],"ct":"FR","tp":"SD","ts":"2024-06-22T01:04:22Z","tX":530,"tY":355,"tags":{"capacity":"6","caravan_site":"motorhome_stopover","caravan_site:type":"village","fee":"no","name":"Aire De Camping-cars - Dommartin Les Remiremont","opening_hours":"24/7","power_supply":"yes","sanitary_dump_station":"yes","sanitary_dump_station:chemical_toilet":"yes","sanitary_dump_station:grey_water":"yes","surface":"asphalt","tents":"no","water_point":"yes","website":"https://www.tourisme-remiremont-plombieres.com/en/detail/2984/6407/885002283/aire-de-stationnement-camping-cars-dommartin-les-remiremont-dommartin-les-remiremont.htm/"}},"11842260480":{"location":[48.0453334,6.5814279],"ct":"FR","tp":"SD","ts":"2024-05-07T14:28:19Z","tX":530,"tY":355,"tags":{"fee":"no","operator":"Commune de Saint-Nabord","power_supply":"yes","sanitary_dump_station":"yes","source":"web;streetlevel imagery","water_point":"yes"}}}