{"128522818":{"location":[47.8235503,6.380069],"ct":"FR","tp":"CS","ts":"2020-02-01T09:36:43Z","tX":530,"tY":356,"tags":{"addr:city":"Luxeuil-les-Bains","addr:housenumber":"14","addr:postcode":"70300","addr:street":"Rue Grammont","contact:email":"camping.ot-luxeuil@wanadoo.fr","contact:fax":"+33 3 84 93 61 01","contact:phone":"+33 3 84 93 97 97","name":"Camping du Domaine de Chatigny","stars":"4"}},"193934259":{"location":[47.92487,6.4750206],"ct":"FR","tp":"CS","ts":"2024-07-19T18:01:17Z","tX":530,"tY":356,"tags":{"addr:housenumber":"23 Bis","addr:street":"Rue des Œuvres","alt_name":"Camping municipal du Val d’Ajol","caravans":"yes","email":"campingoreedesvosges@onlycamp.fr","fee":"yes","internet_access":"wlan","name":"L’Orée des Vosges","opening_hours":"Mo-Su 10:00-12:00, 14:00-18:30","operator":"Commune du Val d’Ajol","phone":"+33 7 49 72 24 15","shower":"yes","tents":"yes","website":"https://camping-val-dajol.fr/"}},"196667656":{"location":[47.9480676,6.6333095],"ct":"FR","tp":"CS","ts":"2021-03-16T23:00:38Z","tX":530,"tY":356,"tags":{"addr:housenumber":"3","caravans":"yes","email":"olivierleduc88@orange.fr","name":"Camping du Pont de Maxonchamp","opening_hours":"Apr 01-Oct 15","phone":"+33 3 29 24 30 65","stars":"2","survey:date":"2012","tents":"33","website":"https://www.camping-vosges-88.com"}},"198571106":{"location":[47.7757391,6.5795015],"ct":"FR","tp":"CS","ts":"2016-09-15T15:58:43Z","tX":530,"tY":356,"tags":{"name":"Camping La Pierre","source":"cadastre-dgi-fr source : Direction Générale des Impôts - Cadastre. Mise à jour : 2012"}},"221856109":{"location":[47.9652174,6.4164796],"ct":"FR","tp":"CS","ts":"2021-04-15T21:29:39Z","tX":530,"tY":356,"tags":{"addr:city":"Plombières-les-Bains","addr:housenumber":"81","addr:postcode":"88370","addr:street":"Rue du Camping","camp_site":"serviced","caravans":"yes","name":"Camping du Fraiteux","opening_hours":"Apr 01-Oct 31","phone":"+33 3 29 66 00 71","stars":"3","tents":"34","website":"https://www.campingfraiteux.com/"}},"221859773":{"location":[47.9679211,6.4478576],"ct":"FR","tp":"CS","ts":"2023-10-31T15:55:23Z","tX":530,"tY":356,"tags":{"addr:city":"Plombières-les-Bains","addr:country":"FR","addr:postcode":"88370","caravans":"yes","email":"contact@hermitage-camping.com","internet_access":"wlan","internet_access:fee":"no","name":"Camping de l'Hermitage","opening_hours":"Apr 15-Oct 15","payment:visa":"yes","phone":"+33 3 29 30 01 87","stars":"3","tents":"55","website":"https://www.hermitage-camping.com/","wheelchair":"limited"}},"308760758":{"location":[47.9205688,6.6617889],"ct":"FR","tp":"CR","ts":"2024-10-03T15:12:23Z","tX":530,"tY":356,"tags":{"caravan_site":"motorhome_stopover","caravan_site:type":"village","fee":"no","internet_access":"no","maxstay":"48 hours","name":"Aire camping-car Quai de la Parelle - Rupt-sur-Moselle","power_supply":"yes","power_supply:fee":"no","sanitary_dump_station:chemical_toilet":"yes","sanitary_dump_station:grey_water":"yes","surface":"asphalt","water_point":"yes","water_point:fee":"no"}},"699144454":{"location":[47.8166894,6.3860523],"ct":"FR","tp":"CR","ts":"2024-05-19T11:19:30Z","tX":530,"tY":356,"tags":{"bbq":"no","capacity":"45","caravan_site":"motorhome_stopover","caravan_site:type":"town","caravans":"yes","charge":"13.90 EUR","dog":"leashed","fee":"yes","internet_access":"wlan","maxlength":"none","name":"Aire Camping-Car Park Luxeuil-les-Bains","network":"CAMPING-CAR PARK","opening_hours":"24/7","operator":"CAMPING CAR-Park","power_supply":"yes","power_supply:capacity":"40","power_supply:maxcurrent":"6","sanitary_dump_station":"yes","source":"Survey 2019","tents":"no","trailer":"yes","website":"https://www.campingcarpark.com/fr_FR/sejour/aire-etape-camping-car/bourgogne-franche-comte/70-haute-saone/luxeuil-les-bains"}},"958471220":{"location":[47.7557101,6.5877434],"ct":"FR","tp":"CS","ts":"2021-07-29T21:50:01Z","tX":530,"tY":356,"tags":{"addr:city":"Mélisey","addr:housenumber":"17 bis","addr:postcode":"70270","addr:street":"route des Vosges","fee":"yes","name":"Camping du Cœur et de l’amitié"}},"1023994928":{"location":[47.87001,6.5023517],"ct":"FR","tp":"CR","ts":"2024-05-06T12:24:44Z","tX":530,"tY":356,"tags":{"capacity":"2","caravan_site":"motorhome_stopover","caravan_site:type":"village","fee":"no","name":"Aire de stationnement camping car Saint-Bresson","picnic_area":"yes","power_supply":"yes","water_point":"yes"}},"1156082485":{"location":[47.9175466,6.5264742],"ct":"FR","tp":"CS","ts":"2023-03-22T23:06:14Z","tX":530,"tY":356,"tags":{"addr:city":"Le Val d'Ajol","addr:housenumber":"9–11","addr:postcode":"88340","addr:street":"les Mousses","cabins":"yes","capacity:persons":"50","capacity:tents":"20","caravans":"yes","name":"La Crèche","phone":"+33 329305782","shower":"yes","tents":"yes","toilets":"yes","website":"https://blog.lacreche.com/"}},"1213000762":{"location":[47.8873044,6.4032029],"ct":"FR","tp":"CR","ts":"2025-02-05T18:57:30Z","tX":530,"tY":356,"tags":{"capacity":"6","caravan_site":"motorhome_stopover","caravan_site:type":"village","fee":"no","name":"Aire de camping car de Fougerolles-Saint-Valbert","power_supply":"cee_17_blue","reservation":"no","sanitary_dump_station":"yes","water_point":"yes","website":"https://fougerolles-saint-valbert.fr/aire-de-camping-car"}},"1232043298":{"location":[47.894308,6.6216707],"ct":"FR","tp":"CR","ts":"2023-12-17T22:58:00Z","tX":530,"tY":356,"tags":{"capacity":"2","caravan_site":"motorhome_stopover","caravan_site:type":"village","fee":"no","maxstay":"2 days","name":"Aire de stationnement camping car Coravillers","power_supply":"yes","power_supply:fee":"yes","sanitary_dump_station":"no","seasonal":"no","services:charge":"2 EUR","services:fee":"yes","source":"BD Ortho IGN","toilets":"yes","water_point":"yes","water_point:fee":"yes"}},"1232045366":{"location":[47.837272,6.5602337],"ct":"FR","tp":"CR","ts":"2024-06-20T19:40:27Z","tX":530,"tY":356,"tags":{"capacity":"4","caravan_site":"motorhome_stopover","caravan_site:type":"village","fee":"no","name":"Faucogney-Et-La-Mer Aire pour camping-cars","sanitary_dump_station":"yes","seasonal":"no","water_point":"yes","water_point:fee":"yes"}},"1297481956":{"location":[47.8492528,6.4745475],"ct":"FR","tp":"CR","ts":"2024-06-30T00:03:08Z","tX":530,"tY":356,"tags":{"capacity":"4","caravan_site":"motorhome_stopover","caravan_site:type":"sports_centre","fee":"no","name":"Aire Camping-car Raddon-et-Chapendu","power_supply":"yes","water_point":"yes","website":"https://www.luxeuil-vosges-sud.fr/sit/aire-daccueil-de-camping-cars-2"}},"1312898678":{"location":[47.8165938,6.6043912],"ct":"FR","tp":"PK","ts":"2024-10-10T09:31:39Z","tX":530,"tY":356,"tags":{"fee":"no","motorhome":"yes","motorhome:overnight":"yes","parking":"surface","picnic_table":"yes","surface":"gravel"}},"1320408608":{"location":[47.9205313,6.6557193],"ct":"FR","tp":"CR","ts":"2024-10-03T15:12:23Z","tX":530,"tY":356,"tags":{"capacity":"3","caravan_site":"motorhome_stopover","caravan_site:type":"river","fee":"no","maxstay":"48 hours","name":"Aire Camping-car Rupt-sur-Moselle - Allée Charles Bossi","opening_hours":"24/7","picnic_area":"yes","power_supply":"yes","sanitary_dump_station":"no","seasonal":"no","water_point":"no","website":"https://www.massif-des-vosges.fr/sit/745005052-aire-de-stationnement-camping-car-a-rupt-sur-moselle/"}},"1487741585":{"location":[47.7551283,6.6529322],"ct":"FR","tp":"CS","ts":"2015-03-05T22:05:34Z","tX":530,"tY":356,"tags":{"name":"Camping la Broche","phone":"+33384633140","website":"http://www.camping-broche.com/"}},"3720132687":{"location":[47.8510554,6.6160247],"ct":"FR","tp":"CR","ts":"2024-06-29T23:22:10Z","tX":530,"tY":356,"tags":{"capacity":"2","caravan_site":"motorhome_stopover","caravan_site:type":"village","fee":"no","name":"Aire de stationnement Esmoulières","picnic_area":"yes","website":"https://www.bourgognefranchecomte.com/aires-de-camping-car/aire-de-stationnement-pour-camping-cars-2"}},"8710489141":{"location":[47.8040505,6.6763429],"ct":"FR","tp":"CR","ts":"2024-10-23T15:24:47Z","tX":530,"tY":356,"tags":{"capacity":"2","caravan_site":"motorhome_stopover","caravan_site:type":"farm_shop","fee":"no","name":"Aire La Chèvrerie des Bois Pâturés","product":"cheese","website":"https://www.bourgognefranchecomte.com/aires-de-camping-car/aire-de-stationnement-a-la-ferme"}},"9937120217":{"location":[47.8215867,6.5903147],"ct":"FR","tp":"CR","ts":"2025-04-03T21:54:20Z","tX":530,"tY":356,"tags":{"capacity":"1","caravan_site":"motorhome_stopover","caravan_site:type":"forest","fee":"no","name":"Aire de camping-cars du Bois de Rochalain","power_supply":"no","sanitary_dump_station":"no","water_point":"no"}},"11944872589":{"location":[47.7906916,6.559135],"ct":"FR","tp":"CR","ts":"2024-05-30T12:18:12Z","tX":530,"tY":356,"tags":{"capacity":"6","caravan_site":"motorhome_stopover","caravan_site:type":"lake","fee":"no","name":"Aire camping-cars d'Ecromagny","opening_hours":"24/7","power_supply":"yes","seasonal":"no","water_point":"yes"}},"11997642424":{"location":[47.9254607,6.5860596],"ct":"FR","tp":"CR","ts":"2024-06-20T19:46:03Z","tX":530,"tY":356,"tags":{"capacity":"2","caravan_site":"motorhome_stopover","caravan_site:type":"countryside","fee":"no","name":"Aire de Chapelle de Beauregard","reservation":"no","seasonal":"no","surface":"grass","website":"https://www.bourgognefranchecomte.com/aires-de-camping-car/aire-de-stationnement-pour-camping-cars-4"}},"7896495557":{"location":[47.9206035,6.6616347],"ct":"FR","tp":"SD","ts":"2024-10-03T15:12:23Z","tX":530,"tY":356,"tags":{"access":"yes","fee":"no","power_supply":"yes","power_supply:fee":"no","sanitary_dump_station:chemical_toilet":"yes","sanitary_dump_station:grey_water":"yes","water_point":"yes"}}}