{"26315131":{"location":[47.3946945,6.4982371],"ct":"FR","tp":"CS","ts":"2024-08-30T09:13:19Z","tX":530,"tY":358,"tags":{"fee":"yes","name":"Camping Municipal des Iles","opening_hours":"May-Oct","phone":"0033675788486","website":"https://clerval.fr/pages/apercu/22/camping-22"}},"26316560":{"location":[47.3377653,6.3551998],"ct":"FR","tp":"CS","ts":"2023-08-22T14:14:22Z","tX":530,"tY":358,"tags":{"caravans":"yes","drinking_water":"yes","fee":"yes","name":"Le Domaine d'Aucroix","phone":"+33381843889","power_supply":"yes","shower":"yes","source":"bing","tents":"yes","toilets":"yes","website":"https://www.vacances-ulvf.com/nos-villages/le-domaine-d-aucroix"}},"26317767":{"location":[47.4530525,6.5837122],"ct":"FR","tp":"CS","ts":"2023-09-25T13:20:26Z","tX":530,"tY":358,"tags":{"addr:city":"L'Isle-sur-le-Doubs","addr:country":"FR","addr:housenumber":"10","addr:postcode":"25250","addr:street":"Rue des Lûmes","capacity":"70","capacity:tents":"76","contact:phone":"+33 3 81 92 73 05","email":"contact@les-lumes.com","fee":"yes","internet_access":"wlan","mobile":"+33 6 85 42 97 81","name":"Camping Les Lûmes","opening_hours":"Apr 01-Sep 30: 10:00-12:00,14:00-21:00","payment:credit_cards":"no","phone":"+33 3 81 92 73 05","ref:FR:SIRET":"33528526800041","sanitary_dump_station":"customers","shower":"hot","stars":"3","website":"http://www.les-lumes.com/","wheelchair":"yes"}},"102818621":{"location":[47.3260447,6.3616895],"ct":"FR","tp":"CS","ts":"2024-10-21T02:14:23Z","tX":530,"tY":358,"tags":{"addr:city":"Pont-les-Moulins","addr:country":"FR","addr:housenumber":"1","addr:postcode":"25110","addr:street":"Rue Pontarlier","capacity":"35","email":"info@campingdelile.fr","internet_access":"wlan","name":"Camping de l'Île","phone":"+33 3 81 84 15 23","website":"www.campingdelile.fr"}},"138406461":{"location":[47.353581,6.3799941],"ct":"FR","tp":"CS","ts":"2013-11-11T19:54:00Z","tX":530,"tY":358,"tags":{"name":"Camping de Lonot","source":"cadastre-dgi-fr source : Direction Générale des Impôts - Cadastre ; mise à jour : 2009"}},"197238020":{"location":[47.5084386,6.3594277],"ct":"FR","tp":"CS","ts":"2023-07-17T13:23:51Z","tX":530,"tY":358,"tags":{"caravans":"yes","motor_vehicle":"yes","name":"Camping du Val de Bonnal","power_supply":"yes","shower":"yes","stars":"4","tents":"yes","toilets":"yes","website":"http://www.camping-valdebonnal.fr/"}},"197238021":{"location":[47.4414169,6.3463017],"ct":"FR","tp":"CS","ts":"2023-10-29T21:57:03Z","tX":530,"tY":358,"tags":{"addr:street":"Rue de Reveuge","camp_site":"deluxe","caravans":"yes","drinking_water":"yes","fee":"yes","group_only":"no","internet_access":"wlan","motor_vehicle":"yes","name":"Camping du Bois de Reveuge","phone":"+33 3 81 84 38 60","power_supply":"yes","reservation":"yes","shower":"yes","stars":"4","swimming_pool":"yes","tents":"yes","toilets":"yes","washing_machine":"yes","website":"https://www.campingduboisdereveuge.com/"}},"299672982":{"location":[47.2904926,6.5775611],"ct":"FR","tp":"CR","ts":"2024-06-20T20:05:44Z","tX":530,"tY":358,"tags":{"capacity":"2","caravan_site":"motorhome_stopover","caravan_site:type":"village","fee":"no","name":"Aires de camping-cars - Sancey","picnic_area":"yes","power_supply":"no","sanitary_dump_station":"yes","tents":"no","website":"https://www.bourgognefranchecomte.com/aires-de-camping-car/aires-de-camping-cars-sancey"}},"998770463":{"location":[47.3213881,6.6107399],"ct":"FR","tp":"CR","ts":"2024-09-01T23:55:49Z","tX":530,"tY":358,"tags":{"capacity":"3","caravan_site":"motorhome_stopover","caravan_site:type":"countryside","fee":"no","name":"Aire de camping-cars - Belvoir","picnic_table":"yes","power_supply":"no","sanitary_dump_station":"no","surface":"asphalt","water_point":"no"}},"1263298121":{"location":[47.3053343,6.5948091],"ct":"FR","tp":"CR","ts":"2024-10-03T18:36:59Z","tX":530,"tY":358,"tags":{"capacity":"2","caravan_site":"motorhome_stopover","caravan_site:type":"village","check_date":"2024-03-16","fee":"no","name":"Aire de camping-cars Sancey-le-Long","picnic_table":"yes","power_supply":"yes","sanitary_dump_station":"yes","sanitary_dump_station:chemical_toilet":"yes","sanitary_dump_station:grey_water":"yes","seasonal":"no","surface":"asphalt","water_point":"yes","water_point:fee":"yes","website":"https://www.montagnes-du-jura.fr/sit/aires-de-camping-cars-sancey"}},"1263298122":{"location":[47.3054722,6.5945522],"ct":"FR","tp":"SD","ts":"2024-03-16T19:26:13Z","tX":530,"tY":358,"tags":{"check_date":"2024-03-16","source":"survey"}},"1296418039":{"location":[47.3105714,6.4915437],"ct":"FR","tp":"CR","ts":"2024-06-26T16:34:34Z","tX":530,"tY":358,"tags":{"capacity":"2","caravan_site":"motorhome_stopover","caravan_site:type":"street_side","fee":"no","name":"Aire de camping-cars - Vellevans","power_supply":"no","sanitary_dump_station":"no","surface":"asphalt","water_point":"no","website":"https://www.bourgognefranchecomte.com/aires-de-camping-car/aire-de-camping-cars-vellevans"}},"1302837296":{"location":[47.3399393,6.658554],"ct":"FR","tp":"CR","ts":"2024-09-02T17:46:56Z","tX":530,"tY":358,"tags":{"capacity":"6","caravan_site":"motorhome_stopover","caravan_site:type":"countryside","charge":"8€","check_date":"2024-07-21","contact:facebook":"https://www.facebook.com/aire.de.stationnement.camping.car.valonne/","fee":"yes","name":"Aire de stationnement pour Camping car de Valonne","opening_hours":"24/7","power_supply":"yes","sanitary_dump_station":"yes"}},"1305626953":{"location":[47.3400637,6.3579291],"ct":"FR","tp":"CR","ts":"2024-09-02T11:08:55Z","tX":530,"tY":358,"tags":{"addr:postcode":"25110","capacity":"30","caravan_site":"motorhome_stopover","caravan_site:type":"river","charge":"11.50 EUR","fee":"yes","name":"Baume-les-Dames Aire de Camping-Car","power_supply":"yes","power_supply:fee":"yes","sanitary_dump_station":"yes","sanitary_dump_station:fee":"yes","seasonal":"no","source":"cadastre-dgi-fr source : Direction Générale des Impôts - Cadastre ; mise à jour : 2009","water_point":"yes","water_point:fee":"yes","website":"https://www.ot-paysbaumois.fr/halte-camping-cars-baume-les-dames.html"}},"1312696082":{"location":[47.4512381,6.6503898],"ct":"FR","tp":"CR","ts":"2024-09-01T23:33:49Z","tX":530,"tY":358,"tags":{"capacity":"5","caravan_site":"motorhome_stopover","caravan_site:type":"village;river","fee":"no","name":"Aire de camping-cars au bord du Doubs","picnic_table":"yes","power_supply":"no","sanitary_dump_station":"no","surface":"asphalt","water_point":"no","website":"https://www.montagnes-du-jura.fr/sit/aire-de-camping-cars-au-bord-du-doubs"}},"1312699170":{"location":[47.3580473,6.6212371],"ct":"FR","tp":"CR","ts":"2024-09-01T23:55:49Z","tX":530,"tY":358,"tags":{"capacity":"2","caravan_site":"motorhome_stopover","caravan_site:type":"countryside","fee":"no","name":"Site éolien du Lomont","picnic_table":"yes","website":"https://en.montagnes-du-jura.fr/sit/aire-de-camping-cars"}},"1312750082":{"location":[47.3504972,6.4891414],"ct":"FR","tp":"CR","ts":"2024-09-02T07:01:37Z","tX":530,"tY":358,"tags":{"addr:city":"Crosey-le-Petit","addr:postcode":"25340","addr:street":"Rue Begin","capacity":"1","caravan_site":"motorhome_stopover","caravan_site:type":"countryside","check_date":"2024-07-26","fee":"no","name":"Aire de camping-cars Crosey-le-Petit","opening_hours":"24/7","picnic_table":"yes","power_supply":"no","sanitary_dump_station":"no","source":"survey","water_point":"yes","website":"https://en.montagnes-du-jura.fr/sit/aire-de-camping-cars-4"}},"1312754118":{"location":[47.3094819,6.5270192],"ct":"FR","tp":"CR","ts":"2024-09-02T07:33:02Z","tX":530,"tY":358,"tags":{"capacity":"4","caravan_site":"motorhome_stopover","caravan_site:type":"village","fee":"no","name":"Aire de camping-cars - Randevillers","power_supply":"no","sanitary_dump_station":"no","surface":"gravel","water_point":"no","website":"https://en.montagnes-du-jura.fr/sit/aire-de-camping-cars-randevillers"}},"5054632623":{"location":[47.2902083,6.5350198],"ct":"FR","tp":"CS","ts":"2019-05-03T12:09:24Z","tX":530,"tY":358,"tags":{"name":"Kamo"}},"12066090086":{"location":[47.3392076,6.6589294],"ct":"FR","tp":"SD","ts":"2024-07-21T10:23:05Z","tX":530,"tY":358,"tags":{"water_point":"yes"}}}