{"13498746":{"location":[46.8206689,6.67345],"ct":"CH","tp":"CS","ts":"2023-09-06T16:02:50Z","tX":530,"tY":360,"tags":{"name":"Parcelles Caravanes Camping Les Pins"}},"55677137":{"location":[46.9007589,6.3754389],"ct":"FR","tp":"CS","ts":"2024-10-20T21:28:08Z","tX":530,"tY":360,"tags":{"addr:street":"Chemin du Toulombief","caravans":"yes","dog":"leashed","email":"contact@camping-pontarlier.fr","internet_access":"wlan","internet_access:fee":"no","name":"Camping du Larmont","opening_hours:reception":"Oct 05-Feb 15 08:00-11:00; Oct 05-Feb 15 Tu,Th-Sa 08:00-11:00,16:00-19:00; Feb 16-Jul 05,Aug 24-Oct 04 08:00-11:30; Feb 16-Jul 05,Aug 24-Oct 04 Tu,Th-Sa 08:00-11:30,16:00-19:00; Jul 06-Aug 23 Mo-Su 07:30-12:30,16:00-19:30","phone":"+33 3 81 46 23 33","ref:FR:SIRET":"21250462500014","source":"cadastre-dgi-fr source : Direction Générale des Impôts - Cadastre. Mise à jour : 2010","stars":"3","tents":"yes","website":"https://camping-pontarlier.fr/","wheelchair":"yes"}},"65742857":{"location":[46.9716429,6.5883069],"ct":"CH","tp":"CR","ts":"2023-06-04T23:10:49Z","tX":530,"tY":360,"tags":{"description:de":"Wohnmobilstellplatz","fee":"no","lit":"no","name":"Lac des Taillères"}},"155271832":{"location":[46.8028184,6.6355012],"ct":"CH","tp":"CS","ts":"2023-04-24T20:06:50Z","tX":530,"tY":360,"tags":{"cabins":"yes","caravans":"yes","email":"VD24@campings-ccyverdon.ch","name":"Camping Le Pécos","opening_hours":"Mar 26 - Oct 2","phone":"+41 24 445 49 69","shower":"yes","source":"Orthophoto Yverdon 2012 / HEIG-VD","tents":"yes","toilets":"yes","website":"https://www.campings-ccyverdon.ch/camping-club-yverdon-bienvenue-au-camping-du-pecos-presentation/"}},"228841884":{"location":[46.9014244,6.3758645],"ct":"FR","tp":"CR","ts":"2024-06-26T16:56:43Z","tX":530,"tY":360,"tags":{"caravan_site":"motorhome_stopover","caravan_site:type":"camp_site","fee":"yes","name":"Aire de camping-cars Le Larmont","power_supply":"yes","sanitary_dump_station":"yes"}},"308719284":{"location":[46.8417917,6.5587514],"ct":"CH","tp":"CS","ts":"2021-10-20T10:30:27Z","tX":530,"tY":360,"tags":{"name":"Camping des Cluds"}},"320286425":{"location":[46.81132,6.5702624],"ct":"CH","tp":"CS","ts":"2023-08-12T08:17:22Z","tX":530,"tY":360,"tags":{"caravans":"yes","drinking_water":"yes","name":"Camping du Bois de Fey","power_supply":"yes","shower":"yes","tents":"yes","toilets":"yes"}},"321435803":{"location":[46.8175451,6.665324],"ct":"CH","tp":"CS","ts":"2021-12-06T08:33:15Z","tX":530,"tY":360,"tags":{"addr:city":"Corcelettes","addr:postcode":"1422","addr:street":"chemin de Bellerive","capacity":"66","email":"caravanes@treyvaud.com","name":"Camping de Belle-Rive","phone":"+41 26 676 94 49","website":"https://www.treyvaud.com/"}},"321452305":{"location":[46.820937,6.672752],"ct":"CH","tp":"CS","ts":"2024-09-27T17:41:55Z","tX":530,"tY":360,"tags":{"access":"yes","addr:city":"Grandson","addr:housenumber":"3","addr:postcode":"1422","addr:street":"Les Pins","camp_site":"serviced","caravans":"yes","fee":"yes","name":"Camping Les Pins","opening_hours":"Apr 1-Oct 1","operator":"Caravanes Treyvaud SA","payment:cash":"yes","payment:twint":"yes","phone":"+41 24 445 47 40","site":"camp_site","static_caravans":"yes","tents":"yes","website":"https://www.treyvaud.ch/camping-les-pins-grandson","wheelchair":"limited"}},"419855680":{"location":[46.9062234,6.5754726],"ct":"CH","tp":"CS","ts":"2024-07-16T02:34:19Z","tX":530,"tY":360,"tags":{"name":"Camping du Val-de- Travers","phone":"+41 32 861 42 62","website":"https://www.camping-val-de-travers.ch/"}},"673230369":{"location":[46.9007627,6.3749093],"ct":"FR","tp":"SD","ts":"2024-10-20T21:28:08Z","tX":530,"tY":360,"tags":{"building":"yes"}},"1313021854":{"location":[46.8703862,6.3714842],"ct":"FR","tp":"CR","ts":"2024-09-03T12:34:48Z","tX":530,"tY":360,"tags":{"caravan_site":"motorhome_stopover","caravan_site:type":"castle","fee":"no","name":"Aire de stationnement - Château de Joux","surface":"asphalt","website":"https://en.montagnes-du-jura.fr/sit/aire-de-stationnement-chateau-de-joux"}},"12012802146":{"location":[46.833313,6.4251577],"ct":"FR","tp":"CR","ts":"2024-06-26T16:31:21Z","tX":530,"tY":360,"tags":{"caravan_site":"motorhome_stopover","caravan_site:type":"parking_lot","fee":"no","name":"Aire d'accueil - La Coupe","power_supply":"yes","website":"https://www.bourgognefranchecomte.com/aires-de-camping-car/aire-daccueil-la-coupe"}},"11028511637":{"location":[46.837084,6.3969491],"ct":"FR","tp":"SD","ts":"2024-11-18T15:23:48Z","tX":530,"tY":360,"tags":{"access":"yes","fee":"no","operator":"Mairie","water_point":"yes"}},"7476955764":{"location":[46.9291412,6.6690966],"ct":"CH","tp":"CS","ts":"2023-04-05T19:22:34Z","tX":530,"tY":360,"tags":{"name":"Camping à la ferme La Coué","website":"https://lacoue.ch"}},"9799568291":{"location":[46.8598185,6.4758912],"ct":"CH","tp":"CS","ts":"2022-06-06T19:09:22Z","tX":530,"tY":360,"tags":{"backcountry":"yes","capacity:caravans":"4"}},"8663030199":{"location":[46.92717,6.63829],"ct":"CH","tp":"CR","ts":"2023-02-23T16:44:44Z","tX":530,"tY":360,"tags":{"addr:city":"Couvet","addr:housenumber":"15","addr:postcode":"2108","addr:street":"Clos Pury","capacity":"10","description":"Bezahlung bei der Reception espaceVAL","email":"info@espaceval.ch","fee":"CHF 19.-","name":"Stellplatz Couvet","phone":"+41 32 889 69 19","power_supply":"yes","sanitary_dump_station":"yes","website":"https://espaceval.ch"}},"8663048709":{"location":[46.8204553,6.4728384],"ct":"CH","tp":"CR","ts":"2021-05-13T11:56:28Z","tX":530,"tY":360,"tags":{"addr:city":"L'Auberson","addr:postcode":"1454","addr:street":"Grand Rue","capacity":"3","description":"Wenn alle Plätze belegt sind ist die V&E-Station blockiert","drinking_water":"yes","fee":"no","name":"Stellplatz L'Auberson","note":"GrandTourCH","power_supply":"yes","sanitary_dump_station":"yes"}},"8663060056":{"location":[46.8418727,6.5595104],"ct":"CH","tp":"CR","ts":"2023-11-02T16:18:34Z","tX":530,"tY":360,"tags":{"addr:city":"Bullet","addr:housenumber":"19","addr:postcode":"1453","addr:street":"Les Cluds","capacity":"3","description":"Beim Camping. Sanitär kann benutzt werden, schoen und ruhig","drinking_water":"yes","name":"Stellplatz Les Cluds-Bullet","note":"GrandTourCH","phone":"+41 79 155 77 07","power_supply":"yes","sanitary_dump_station":"yes","website":"https://www.campings-ccyverdon.ch/"}},"9042015034":{"location":[46.900352,6.608998],"ct":"CH","tp":"CR","ts":"2021-08-28T06:25:21Z","tX":530,"tY":360,"tags":{"name":"Stellplatz Le Château, Môtiers"}},"8850402454":{"location":[46.971327,6.58822],"ct":"CH","tp":"SD","ts":"2021-06-20T13:19:04Z","tX":530,"tY":360,"tags":{"description":"Euro-Relais","name":"Le Bout-du-Lac, La Brévine","note":"WML CH"}},"8850402455":{"location":[46.81989,6.47242],"ct":"CH","tp":"SD","ts":"2021-06-20T13:19:04Z","tX":530,"tY":360,"tags":{"description":"bei Stellplatz frei zugänglich","name":"Parking Musée, L Auberson","note":"WML CH"}}}