{"15861194":{"location":[46.3672394,6.3290318],"ct":"FR","tp":"CS","ts":"2023-05-16T06:32:49Z","tX":530,"tY":362,"tags":{"addr:housenumber":"212","addr:street":"Route d'Excenevex","caravans":"yes","contact:email":"campingmathieu@yahoo.fr","contact:fax":"+33 4 50 72 96 33","contact:mobile":"+33 6 56 79 25 77","contact:phone":"+33 4 50 72 84 31","contact:website":"http://www.camping-lac-leman-mathieu.com/","name":"Camping Mathieu - Léman","shower":"yes","stars":"2","tents":"yes"}},"24677528":{"location":[46.5161491,6.5978155],"ct":"CH","tp":"CS","ts":"2023-05-14T18:44:41Z","tX":530,"tY":362,"tags":{"addr:city":"Lausanne","addr:housenumber":"3","addr:postcode":"1007","addr:street":"Chemin du Camping","caravans":"yes","name":"Camping de Vidy","opening_hours":"week 1-53","phone":"+41 21 622 5005","shower":"yes","tents":"yes","toilets":"yes","website":"https://www.campinglausannevidy.ch/"}},"104661804":{"location":[46.3172373,6.4904775],"ct":"FR","tp":"CS","ts":"2022-01-23T22:13:27Z","tX":530,"tY":362,"tags":{"addr:housenumber":"130","addr:street":"Route du Lac","contact:fax":"+33 4 50 70 71 97","contact:phone":"+33 4 50 70 53 65","contact:website":"http://www.lacajojo.com/","name":"Le Lac à Jojo"}},"168110635":{"location":[46.5038696,6.4894139],"ct":"CH","tp":"CS","ts":"2024-04-16T21:05:36Z","tX":530,"tY":362,"tags":{"access":"yes","addr:city":"Morges","addr:housenumber":"15","addr:postcode":"1110","addr:street":"Promenade du Petit-Bois","camp_site":"serviced","caravans":"yes","drinking_water":"yes","fee":"yes","grass":"yes","internet_access":"yes","name":"TCS Camping Morges","operator":"TCS","payment:cash":"yes","payment:credit_cards":"yes","phone":"+41 21 801 12 70","power_supply":"yes","reservation":"recommended","sanitary_dump_station":"yes","shower":"yes","stars":"3","tents":"yes","toilets":"yes","website":"https://www.tcs.ch/fr/camping-voyages/camping-insider/campings/tcs-campings/camping-morges.php"}},"201741845":{"location":[46.3995606,6.5082831],"ct":"FR","tp":"CS","ts":"2023-11-25T19:46:45Z","tX":530,"tY":362,"tags":{"addr:city":"Thonon-les-Bains","addr:housenumber":"117","addr:postcode":"74200","addr:street":"Avenue de Saint-Disdille","capacity":"537","caravans":"yes","contact:facebook":"https://www.facebook.com/Camping.Lac.Leman.Saint.Disdille?fref=ts","contact:fax":"+33 4 50 71 93 67","contact:phone":"+33 4 50 71 14 11","contact:website":"http://www.disdille.com/fr/","internet_access":"wlan","internet_access:fee":"yes","name":"Camping Saint-Disdille","nudism":"no","sanitary_dump_station":"customers","source":"cadastre-dgi-fr source : Direction Générale des Impôts - Cadastre. Mise à jour : 2013","stars":"3","tents":"yes","wheelchair":"yes"}},"201741846":{"location":[46.4003782,6.5196524],"ct":"FR","tp":"CS","ts":"2023-03-27T15:46:29Z","tX":530,"tY":362,"tags":{"addr:housenumber":"821","addr:street":"Route de la Dranse","contact:phone":"+33 4 50 26 46 55","name":"Camping municipal Parc de la Dranse","source":"cadastre-dgi-fr source : Direction Générale des Impôts - Cadastre. Mise à jour : 2013"}},"201905192":{"location":[46.3938703,6.5291305],"ct":"FR","tp":"CS","ts":"2025-04-27T09:00:27Z","tX":530,"tY":362,"tags":{"addr:housenumber":"350","addr:street":"Rue de la Plaine","contact:email":"campingleshuttins@gmail.com","contact:phone":"+33 4 50 70 03 09","contact:website":"http://www.camping-leshuttins.com/","name":"Les Huttins","source":"cadastre-dgi-fr source : Direction Générale des Impôts - Cadastre. Mise à jour : 2013"}},"232222116":{"location":[46.4615462,6.3475515],"ct":"CH","tp":"CS","ts":"2023-04-22T18:03:02Z","tX":530,"tY":362,"tags":{"caravans":"yes","drinking_water":"yes","email":"reception@campingrolle.ch","fax":"+41 21 825 12 39","internet_access":"wlan","name":"Camping Aux Vernes","opening_hours":"Apr 1 - Sep 30","phone":"+41 21 825 15 35","shower":"yes","tents":"yes","website":"http://www.campingrolle.ch/"}},"232703631":{"location":[46.4003129,6.6458226],"ct":"FR","tp":"CS","ts":"2025-01-23T16:17:09Z","tX":530,"tY":362,"tags":{"name":"Vielle Église","source":"cadastre-dgi-fr source : Direction Générale des Impôts - Cadastre. Mise à jour : 2013","website":"https://www.campingvieilleeglise.fr/camping.php"}},"298864575":{"location":[46.3389912,6.3928161],"ct":"FR","tp":"CS","ts":"2022-11-10T12:58:53Z","tX":530,"tY":362,"tags":{"addr:city":"Sciez","addr:housenumber":"799","addr:postcode":"74140","addr:street":"Chemin de Songy","contact:facebook":"https://www.facebook.com/campingbriseduleman/","email":"info@campingbriseduleman.com","mobile":"+33 6 33 74 58 10","name":"Brise du Léman","website":"https://www.campingbriseduleman.com/"}},"299022216":{"location":[46.3409647,6.3979156],"ct":"FR","tp":"CS","ts":"2023-11-08T14:16:53Z","tX":530,"tY":362,"tags":{"addr:city":"Sciez","addr:housenumber":"658","addr:postcode":"74140","addr:street":"Chemin des Hutins Vieux","ele":"386","name":"Camping du Chatelet","phone":"+33 4 50 72 52 60","website":"https://www.camping-chatelet.com/"}},"299023127":{"location":[46.3401906,6.3963],"ct":"FR","tp":"CS","ts":"2022-11-12T08:32:12Z","tX":530,"tY":362,"tags":{"addr:city":"Sciez","addr:housenumber":"655","addr:postcode":"74140","addr:street":"Chemin des Hutins Vieux","name":"Camping de La Renouillère","phone":"+33 4 50 72 73 39"}},"299023128":{"location":[46.3422917,6.3967348],"ct":"FR","tp":"CS","ts":"2022-11-12T08:32:12Z","tX":530,"tY":362,"tags":{"addr:city":"Sciez","addr:housenumber":"111","addr:postcode":"74140","addr:street":"Chemin du Châtelet","contact:facebook":"https://www.facebook.com/rene74140/","email":"simonemansey@orange.fr","name":"Le Grand Foc","operator":"Rene Mansey","phone":"+33 4 50 72 62 70","website":"https://www.campingsdessavoie.com/camping-le-grand-foc"}},"317069005":{"location":[46.5499177,6.3743951],"ct":"CH","tp":"CS","ts":"2020-03-02T16:03:52Z","tX":530,"tY":362,"tags":{"name":"Bois Gentil"}},"343862313":{"location":[46.3512853,6.4104822],"ct":"FR","tp":"CS","ts":"2025-04-24T20:36:41Z","tX":530,"tY":362,"tags":{"addr:city":"Anthy-sur-Léman","addr:housenumber":"1","addr:postcode":"74200","addr:street":"Route du Clos","caravans":"yes","contact:email":"camping.anthy@gmail.com","contact:fax":"+33 9 72 19 53 82","contact:phone":"+33 4 50 72 36 58","contact:website":"http://www.camping-du-lac-anthy.com/","dog":"leashed","internet_access":"wlan","name":"Camping du Lac","ref:FR:NAF":"552C","ref:FR:SIREN":"412126351","ref:FR:SIRET":"41212635100011","reservation":"yes","stars":"2","start_date":"1997-05-26","tents":"no","wheelchair":"yes"}},"421790928":{"location":[46.3979419,6.5018698],"ct":"FR","tp":"CS","ts":"2020-06-14T14:45:06Z","tX":530,"tY":362,"tags":{"addr:city":"Thonon-les-Bains","addr:housenumber":"100","addr:postcode":"74200","addr:street":"Avenue de Saint-Disdille","alt_name":"Camping CCAS EDF","caravans":"yes","contact:email":"dranse@campeole.com","contact:phone":"+33 4 50 71 50 89","contact:website":"https://www.campeole.com/camping/haute-savoie/la-dranse-thonon-les-bains","internet_access":"wlan","name":"Camping La Dranse","nudism":"no","operator":"Camping Campéole","stars":"3","tents":"yes"}},"421791979":{"location":[46.3971078,6.5022738],"ct":"FR","tp":"CS","ts":"2020-06-14T14:32:20Z","tX":530,"tY":362,"tags":{"addr:city":"Thonon-les-Bains","addr:housenumber":"98","addr:postcode":"74200","addr:street":"Avenue de Saint-Disdille","caravans":"yes","contact:email":"ledisdillou@orange.fr","contact:facebook":"https://www.facebook.com/ledisdillou","contact:mobile":"+33 6 24 09 30 56","contact:phone":"+33 4 50 26 13 59","contact:website":"http://www.ledisdillou.com/","group_only":"no","internet_access":"wlan","internet_access:fee":"no","name":"Le Disdillou","nudism":"no","stars":"2","tents":"yes"}},"428073727":{"location":[46.3451365,6.3601905],"ct":"FR","tp":"CS","ts":"2024-03-03T11:10:58Z","tX":530,"tY":362,"tags":{"addr:city":"Excenevex","addr:housenumber":"10","addr:postcode":"74140","addr:street":"Avenue de la Plage","caravans":"yes","contact:email":"pinede@andretriganogroupe.com","contact:phone":"+33 4 50 72 85 05","contact:website":"https://www.camping-lapinede-excenevex.com/","name":"La Pinède","nudism":"no","old_name":"Camp des Dunes","operator":"Huttopia","payment:mastercard":"yes","payment:visa":"yes","ref:FR:NAF":"5530Z","ref:FR:SIREN":"841670573","ref:FR:SIRET":"84167057300010","reservation":"yes","sanitary_dump_station":"customers","stars":"3","start_date":"2018-08-08","tents":"yes","wheelchair":"yes"}},"428702813":{"location":[46.3562618,6.3516028],"ct":"FR","tp":"PK","ts":"2024-09-02T16:35:07Z","tX":530,"tY":362,"tags":{"contact:email":"accueil@excenevex.fr","contact:phone":"+33 4 50 72 81 27","maxweight":"5","motorhome":"yes","operator":"Municipalité d'Excenevex","sanitary_dump_station":"no","surface":"asphalt"}},"428853218":{"location":[46.3585502,6.3490326],"ct":"FR","tp":"CS","ts":"2024-05-21T23:51:39Z","tX":530,"tY":362,"tags":{"addr:housenumber":"365","addr:street":"Route d'Yvoire","contact:phone":"+33 4 50 72 81 20","name":"Le Chant'Oiseau"}},"428855475":{"location":[46.3599458,6.3499522],"ct":"FR","tp":"CS","ts":"2017-10-22T23:17:24Z","tX":530,"tY":362,"tags":{"contact:email":"camping.bellevue.e@wanadoo.fr","contact:phone":"+33 4 50 72 83 67","contact:website":"http://www.camping-bellevue-excenevex.com/","name":"Bellevue"}},"434734668":{"location":[46.3671579,6.3315075],"ct":"FR","tp":"CS","ts":"2021-08-22T17:52:55Z","tX":530,"tY":362,"tags":{"addr:housenumber":"434","addr:street":"Route d'Excenevex","name":"CCAS Les Huchettes"}},"445138426":{"location":[46.3715286,6.549873],"ct":"FR","tp":"CS","ts":"2020-09-23T22:43:05Z","tX":530,"tY":362,"tags":{"addr:city":"Champanges","addr:housenumber":"18","addr:postcode":"74500","addr:street":"Rue de Savoie","contact:email":"sylvie.bochaton548@orange.fr","contact:mobile":"+33 6 16 78 31 78","contact:phone":"+33 4 50 81 08 02","contact:website":"https://www.vacances-camping-lac-leman.fr/","fee":"yes","name":"Camping La Prairie"}},"491656891":{"location":[46.3566499,6.4729491],"ct":"FR","tp":"CS","ts":"2023-08-26T23:13:27Z","tX":530,"tY":362,"tags":{"addr:city":"Thonon-les-Bains","addr:housenumber":"28","addr:postcode":"74200","addr:street":"Avenue de Senevulaz","capacity":"100","contact:email":"campinglacnoir@gmail.com","contact:phone":"+33 4 50 26 07 28","contact:website":"http://www.camping-lelacnoir.fr/","fee":"yes","internet_access":"wlan","name":"Camping Le Lac Noir","opening_hours":"Oct-May off","reservation":"yes","start_date":"1964","wheelchair":"no"}},"514889174":{"location":[46.3455273,6.3566772],"ct":"FR","tp":"CS","ts":"2024-03-03T11:10:58Z","tX":530,"tY":362,"tags":{"name":"Le col Vert"}},"514889175":{"location":[46.3445564,6.3567531],"ct":"FR","tp":"CS","ts":"2024-03-03T11:10:58Z","tX":530,"tY":362,"tags":{"addr:housenumber":"1418","addr:street":"Route du Lac","contact:email":"info@camping-lac-leman.com","contact:phone":"+33 4 50 72 98 95","contact:website":"https://www.camping-lac-leman.com/","name":"Pourvoirie des Ellandes"}},"525337251":{"location":[46.358864,6.4218803],"ct":"FR","tp":"CR","ts":"2024-10-09T00:34:24Z","tX":530,"tY":362,"tags":{"capacity:caravans":"6","caravan_site":"motorhome_stopover","caravan_site:type":"beach;lake","charge":"2 EUR","fee":"yes","maxstay":"48 hours","name":"Aire Anthy-sur-Léman","sanitary_dump_station":"no","seasonal":"no","toilets:disposal":"no","water_supply":"no"}},"583646122":{"location":[46.5098022,6.5412609],"ct":"CH","tp":"CS","ts":"2025-03-26T14:38:59Z","tX":530,"tY":362,"tags":{"access":"private","addr:city":"Préverenges","addr:housenumber":"31","addr:postcode":"1028","addr:street":"Rue de la Venoge","description":"Petit camping naturiste privé","fee":"yes","name":"Camping Club Léman (naturiste)","operator":"Association CCL","payment:cash":"yes","payment:credit_cards":"yes","phone":"+41 79 884 57 64","website":"http://campingclubleman.ch/wordpress/"}},"729485416":{"location":[46.3403948,6.3742087],"ct":"FR","tp":"CS","ts":"2021-01-31T16:28:19Z","tX":530,"tY":362,"tags":{"addr:city":"Sciez","addr:country":"FR","addr:postcode":"74140","addr:street":"Domaine de Coudrée","capacity":"111","caravans":"yes","internet_access":"yes","name":"Camping GCU de Sciez","operator":"Groupement des Campeurs Universitaires","sanitary_dump_station":"customers","stars":"2","tents":"yes","wheelchair":"yes"}},"830328963":{"location":[46.3273193,6.4019411],"ct":"FR","tp":"CS","ts":"2024-12-07T14:20:02Z","tX":530,"tY":362,"tags":{"cabins":"yes","caravans":"yes","mobile":"+33 6 09 43 96 03","name":"L'Orée des Bois","phone":"+33 4 50 72 78 31","shower":"yes","source":"data.gouv.fr:DATAtourisme - 05/2020","stars":"3","tents":"yes","toilets":"yes","website":"http://demolis-camping-gites-sciez.fr"}},"1020872012":{"location":[46.3991921,6.6641017],"ct":"FR","tp":"CS","ts":"2022-01-13T14:38:59Z","tX":530,"tY":362,"tags":{"name":"Les Myosotis"}},"1020872026":{"location":[46.4016689,6.6759566],"ct":"FR","tp":"CS","ts":"2023-11-08T14:16:36Z","tX":530,"tY":362,"tags":{"name":"Rys","website":"https://www.campinglerys.fr/"}},"1285377656":{"location":[46.3591205,6.3488481],"ct":"FR","tp":"CR","ts":"2024-05-21T23:51:39Z","tX":530,"tY":362,"tags":{"capacity":"20","caravan_site":"motorhome_stopover","caravan_site:type":"harbour","charge":"16 EUR","charge:conditional":"14 EUR @ (Oct-Apr)","fee":"yes","name":"Aire camping-car Excenevex","network":"Onlypark","opening_hours":"24/7","power_supply":"yes","sanitary_dump_station":"yes","seasonal":"no","tents":"no","water_point":"yes","website":"https://www.onlypark.fr/aire-camping-car-excenevex/"}},"1319017620":{"location":[46.3563006,6.4530961],"ct":"FR","tp":"CS","ts":"2024-09-28T15:29:39Z","tX":530,"tY":362,"tags":{"name":"Camping de Morcy"}},"4215938025":{"location":[46.3994341,6.5067718],"ct":"FR","tp":"SD","ts":"2020-06-13T21:35:22Z","tX":530,"tY":362,"tags":{"access":"yes","description":"Payant uniquement pour les personnes extérieures au camping","fee":"yes"}},"9628707961":{"location":[46.3468471,6.6092786],"ct":"FR","tp":"CS","ts":"2024-09-28T15:18:38Z","tX":530,"tY":362,"tags":{"backcountry":"yes"}},"4913702021":{"location":[46.3632921,6.4422834],"ct":"FR","tp":"CR","ts":"2024-09-05T16:22:59Z","tX":530,"tY":362,"tags":{"capacity":"3","caravan_site":"motorhome_stopover","caravan_site:type":"beach","caravans":"no","fee":"yes","maxstay":"48 hours","name":"Aire de camping car Corzent","power_supply":"no","sanitary_dump_station":"no","seasonal":"no","tents":"no","water_point":"no","website":"https://www.savoie-mont-blanc.com/aires-camping-cars/aire-de-stationnement-pour-camping-car-corzent-499462/"}},"7619891232":{"location":[46.3972172,6.5027328],"ct":"FR","tp":"SD","ts":"2020-06-14T14:32:20Z","tX":530,"tY":362,"tags":{"access":"customers"}},"10605798847":{"location":[46.345377,6.3585131],"ct":"FR","tp":"SD","ts":"2023-02-04T10:55:34Z","tX":530,"tY":362,"tags":{"access":"customers"}},"12156343292":{"location":[46.3589004,6.4218132],"ct":"FR","tp":"SD","ts":"2024-09-04T21:05:38Z","tX":530,"tY":362,"tags":{"access":"yes"}},"8663097629":{"location":[46.51739,6.59829],"ct":"CH","tp":"CR","ts":"2023-05-14T18:44:41Z","tX":530,"tY":362,"tags":{"addr:city":"Lausanne","addr:housenumber":"3","addr:postcode":"1007","addr:street":"Chemin du Camping","capacity":"8","description":"3 Naechte","email":"info@clv.ch","fee":"CHF 24.-","motorhome":"designated","name":"Stellplatz Camping Vidy","note":"GrandTourCH","phone":"+41 21 622 5000","power_supply":"yes","sanitary_dump_station":"yes","website":"https://www.campinglausannevidy.ch/"}},"11099112058":{"location":[46.5047729,6.4889114],"ct":"CH","tp":"SD","ts":"2023-08-08T10:11:17Z","tX":530,"tY":362,"tags":{"access":"yes","charge":"min. 5 CHF","fee":"yes","operator":"CamperService.ch","sanitary_dump_station:chemical_toilet":"yes","sanitary_dump_station:grey_water":"yes","water_point":"yes"}}}