{"280480834":{"location":[46.1410791,6.602915],"ct":"FR","tp":"CR","ts":"2024-10-02T16:47:25Z","tX":530,"tY":363,"tags":{"capacity":"70","caravan_site":"motorhome_stopover","caravan_site:type":"skiing","charge":"17.60 EUR","fee":"yes","fee:conditional":"no @ (Apr 02-Dec 01)","name":"Aire de camping-car du Praz de Lys","sanitary_dump_station":"yes","seasonal":"no","surface":"asphalt","website":"https://www.prazdelys-sommand.com/hotellerie-plein-air/aire-daccueil-camping-car/"}},"288653144":{"location":[46.1948072,6.6773109],"ct":"FR","tp":"CS","ts":"2023-10-20T09:38:34Z","tX":530,"tY":363,"tags":{"addr:housenumber":"639","addr:street":"Route de Morzine","caravans":"yes","contact:phone":"+33 4 50 75 74 44","drinking_water":"yes","internet_access":"wlan","name":"Les Marmottes","stars":"2","tents":"yes"}},"290646407":{"location":[46.1505998,6.6428334],"ct":"FR","tp":"CS","ts":"2023-11-23T15:58:43Z","tX":530,"tY":363,"tags":{"addr:housenumber":"694","addr:postcode":"74260","addr:street":"Route des Platons","caravans":"yes","drinking_water":"yes","name":"La Grange au Frêne","phone":"+33450758060","shower":"yes","stars":"3","tents":"yes","website":"https://www.savoie-mont-blanc.com/offre/fiche/camping-d-ete-la-grange-au-frene/210456"}},"290814417":{"location":[46.1497316,6.6584534],"ct":"FR","tp":"CR","ts":"2025-02-17T10:17:01Z","tX":530,"tY":363,"tags":{"capacity":"25","caravan_site":"motorhome_stopover","caravan_site:type":"ski_village","charge":"21 EUR","drinking_water":"no","fee":"yes","fee:conditional":"no@(Apr 16-Nov 30)","name":"Les Perrières","power_supply":"no","sanitary_dump_station":"yes","toilets":"yes","website":"https://www.lesgets-mairie.fr/services-municipaux/aire-camping-car.aspx"}},"361444791":{"location":[46.2291367,6.6582361],"ct":"FR","tp":"CS","ts":"2025-02-09T15:33:55Z","tX":530,"tY":363,"tags":{"addr:housenumber":"2440","addr:street":"Route des Grandes Alpes","caravans":"yes","contact:fax":"+33 4 50 79 64 69","contact:phone":"+33 4 50 79 64 69","contact:website":"http://www.valleedaulps.com/camping-le-solerey.html","name":"Le Solerey","tents":"yes"}},"363717493":{"location":[46.2943931,6.6148638],"ct":"FR","tp":"CS","ts":"2022-04-12T09:45:59Z","tX":530,"tY":363,"tags":{"addr:city":"La Baume","addr:housenumber":"1064","addr:postcode":"74430","addr:street":"Route du Lac","caravans":"yes","contact:email":"mairie@la-baume.fr","contact:phone":"+33 4 50 72 10 06","contact:website":"http://la-baume.fr/Camping","internet_access":"no","name":"Camping municipal de la Baume","nudism":"no","opening_hours":"Jul 1-Aug 31","operator":"Communauté de communes du Haut-Chablais","reservation":"yes","sanitary_dump_station":"no","stars":"2","tents":"yes"}},"439380963":{"location":[46.0999621,6.5872544],"ct":"FR","tp":"CS","ts":"2024-01-04T20:00:40Z","tX":530,"tY":363,"tags":{"addr:housenumber":"166","addr:street":"Route du Stade","caravans":"yes","contact:fax":"+33 4 50 34 39 78","contact:phone":"+33 4 50 34 25 59","contact:website":"https://www.prazdelys-sommand.com/hotellerie-plein-air/camping-municipal-thezieres-taninges/","internet_access":"wlan","internet_access:fee":"no","name":"Camping des Thézières","official_name":"Camping municipal des Thézières","sanitary_dump_station":"yes","source":"cadastre-dgi-fr source : Direction Générale des Impôts - Cadastre. Mise à jour : 2012","stars":"2","tents":"yes"}},"830316994":{"location":[46.089337,6.6765818],"ct":"FR","tp":"CS","ts":"2023-07-25T16:54:05Z","tX":530,"tY":363,"tags":{"caravans":"yes","name":"Camping municipal Lac et Montagnes","source":"data.gouv.fr:DATAtourisme - 05/2020","stars":"2"}},"862852772":{"location":[46.1421464,6.4762853],"ct":"FR","tp":"CS","ts":"2022-01-03T14:57:11Z","tX":530,"tY":363,"tags":{"addr:city":"Saint-Jeoire","addr:housenumber":"1040","addr:postcode":"74490","addr:street":"Route de Chounaz","contact:phone":"+33 4 50 35 80 54","name":"Camping Chounaz"}},"916713053":{"location":[46.160263,6.5504232],"ct":"FR","tp":"CR","ts":"2024-10-08T17:45:06Z","tX":530,"tY":363,"tags":{"access":"yes","addr:city":"Mieussy","addr:postcode":"74440","addr:street":"Route de Sommand","capacity":"5","caravan_site":"motorhome_stopover","caravan_site:type":"ski_resort","charge":"0 €","description":"Aire de camping-car, borne flot bleu pour les services à 100M, sur la route de Roche Pallud","fee":"no","maxstay":"no","motorhome":"designated","name":"Mieussy - Route de Sommand","operator":"Ville de Mieussy","power_supply":"no","sanitary_dump_station":"yes","sanitary_dump_station:chemical_toilet":"yes","sanitary_dump_station:grey_water":"yes","sanitary_dump_station:round_drain":"yes","supervised":"no","water_point":"yes"}},"1285626931":{"location":[46.0817345,6.4135862],"ct":"FR","tp":"CR","ts":"2024-05-22T14:28:49Z","tX":530,"tY":363,"tags":{"addr:city":"Bonneville","addr:housenumber":"312","addr:postcode":"74130","addr:street":"Clos des Bairiers","bbq":"no","capacity":"68","capacity:caravans":"68","caravan_site":"motorhome_stopover","caravan_site:type":"camp_site","caravans":"no","caravans:conditional":"no @ (Sep-Jun)","description":"Les camping-cars sont autorisés toute l’année et les tentes, vans et caravanes sont autorisés à séjourner uniquement en haute saison (1er juillet- 31 août) durant la période d’ouverture des sanitaires.","dog":"leashed","fee":"yes","internet_access":"wlan","maxlength":"none","name":"Camping municipal du Bois des Tours de Bonneville","network":"CAMPING-CAR PARK","operator":"Camping-Car Park","phone":"+33 1 83 64 69 21","power_supply":"yes","power_supply:capacity":"53","power_supply:maxcurrent":"6","sanitary_dump_station":"yes","shower":"yes","shower:conditional":"no @ (Sep-Jun)","tents":"yes","tents:conditional":"no @ (Sep-Jun)","toilets":"yes","toilets:conditional":"no @ (Sep-Jun)","trailer":"yes","water_point":"yes","website":"https://www.campingcarpark.com/fr_FR/sejour/aire-etape-camping-car/auvergne-rhone-alpes/74-haute-savoie/bonneville"}},"2136680003":{"location":[46.1498635,6.6569042],"ct":"FR","tp":"SD","ts":"2025-02-17T10:17:01Z","tX":530,"tY":363,"tags":{"fee":"yes"}},"12237460492":{"location":[46.1402072,6.5858568],"ct":"FR","tp":"CR","ts":"2024-10-09T22:29:56Z","tX":530,"tY":363,"tags":{"caravan_site":"motorhome_stopover","caravan_site:type":"restaurant;mountains;skiing","fee":"purchase","name":"Aire Auberge du Lys Blanc","phone":"+33 6 72 36 00 25","sanitary_dump_station":"yes","water_point":"yes","website":"https://www.prazdelys-sommand.com/restauration/restaurant-lauberge-du-lys-blanc/"}},"5033812346":{"location":[46.0771116,6.5298432],"ct":"FR","tp":"SD","ts":"2024-09-04T11:43:14Z","tX":530,"tY":363,"tags":{"access":"yes","charge":"2 EUR","description":"vidange eaux noires et grises.","fee":"yes","operator":"flots bleus","payment:credit_cards":"yes","payment:visa":"yes","sanitary_dump_station":"public","seasonal":"no","water_point":"yes","website":"https://www.savoie-mont-blanc.com/aires-camping-cars/aire-de-service-camping-car-4800884/"}},"6775179328":{"location":[46.1411055,6.6035012],"ct":"FR","tp":"SD","ts":"2019-10-25T09:40:28Z","tX":530,"tY":363,"tags":{"charge":"2","description":"vidanges eaux noires et grises.","fee":"yes","operator":"flots bleus","payment:cash":"yes","payment:coins":"yes","payment:mastercard":"yes","payment:visa":"yes","water_point":"yes"}},"8514430673":{"location":[46.1592288,6.5494602],"ct":"FR","tp":"SD","ts":"2021-11-20T14:40:26Z","tX":530,"tY":363,"tags":{"access":"yes","description":"Station de vidange pour Camping-car.","fee":"no","operator":"Ville de Mieussy","sanitary_dump_station":"public","sanitary_dump_station:chemical_toilet":"yes","sanitary_dump_station:grey_water":"yes","sanitary_dump_station:round_drain":"yes","water_point":"yes"}}}