{"26858346":{"location":[45.879444,6.640833],"ct":"FR","tp":"CS","ts":"2007-03-28T17:11:13Z","tX":530,"tY":364,"tags":{"created_by":"JOSM","name":"Bornand"}},"81293505":{"location":[45.9247691,6.4024366],"ct":"FR","tp":"CS","ts":"2023-11-07T20:07:05Z","tX":530,"tY":364,"tags":{"addr:city":"SAINT JEAN DE SIXT","addr:housenumber":"580","addr:postcode":"74450","addr:street":"Route du Crêt","caravans":"yes","dog":"yes","fee":"yes","internet_access":"wlan","name":"Camping du Crêt","opening_hours":"May 01-Sep 30: Mo-Su,PH 00:00-24:00","power_supply":"yes","washing_machine":"yes","website":"https://www.camping-du-cret.com/"}},"81293506":{"location":[45.9246724,6.4041688],"ct":"FR","tp":"CS","ts":"2023-11-07T20:06:54Z","tX":530,"tY":364,"tags":{"dog":"yes","fee":"yes","internet_access":"wlan","name":"Camping du Crêt","opening_hours":"May 01-Sep 30: Mo-Su,PH 00:00-24:00","power_supply":"yes","tents":"yes","washing_machine":"yes","website":"https://www.camping-du-cret.com/"}},"267331213":{"location":[45.9396643,6.4275174],"ct":"FR","tp":"CS","ts":"2024-09-18T00:54:00Z","tX":530,"tY":364,"tags":{"addr:city":"Le Grand-Bornand","addr:housenumber":"33","addr:postcode":"74450","addr:street":"Chemin du Plein Air","email":"contact@campinglescale.com","fee":"yes","internet_access":"wlan","name":"l'Escale","opening_hours":"2023 May 17-2023 Sep 17: Mo-Su,PH 09:00-12:30, 13:30-19:30","phone":"+33 4 50 02 20 69","website":"https://www.campinglescale.com/"}},"292325491":{"location":[45.9403939,6.4424591],"ct":"FR","tp":"CS","ts":"2021-06-30T02:45:37Z","tX":530,"tY":364,"tags":{"name":"Le Clos Du Pin","note":"Camping caravaneige"}},"323479908":{"location":[45.836828,6.5677628],"ct":"FR","tp":"CS","ts":"2020-10-15T22:01:10Z","tX":530,"tY":364,"tags":{"email":"chantalouette@prazarly.fr","name":"Chantalouette","phone":"+33 6 70 06 19 71","stars":"2","website":"https://prazarly.fr"}},"457922399":{"location":[45.9240009,6.6539576],"ct":"FR","tp":"CS","ts":"2022-07-27T02:11:17Z","tX":530,"tY":364,"tags":{"name":"Mont Blanc Plage","phone":"+33 4 50 58 14 28","website":"https://mont-blanc-plage.net/"}},"474656673":{"location":[45.8790675,6.6362824],"ct":"FR","tp":"CS","ts":"2009-08-26T17:12:30Z","tX":530,"tY":364,"tags":{"name":"Demi-Lune"}},"476575664":{"location":[45.90866,6.4524241],"ct":"FR","tp":"CS","ts":"2023-08-18T09:07:11Z","tX":530,"tY":364,"tags":{"access":"yes","addr:city":"La Clusaz","addr:housenumber":"1800","addr:postcode":"74220","addr:street":"Route des Confins","capacity:caravans":"80","caravans":"yes","contact:email":"fermuy@capfun.com","dryer":"yes","fee":"yes","name":"Le Plan du Fernuy","opening_hours":"Dec 15-Apr 15: Mo-Su,PH 00:00-24:00 open; Jun 01-Sep 01: Mo-Su,PH 00:00-24:00 open","operator":"Cap Fun","phone":"+33 45002 4475","stars":"4","static_caravans":"yes","tents":"yes","washing_machine":"yes","website":"https://www.PlanDuFernuy.com/"}},"497674592":{"location":[46.0698937,6.5742612],"ct":"FR","tp":"CS","ts":"2018-10-03T12:09:07Z","tX":530,"tY":364,"tags":{"name":"Camping la Corbaz"}},"577215930":{"location":[45.9320067,6.6334057],"ct":"FR","tp":"CR","ts":"2024-10-04T02:25:56Z","tX":530,"tY":364,"tags":{"access":"yes","addr:city":"Sallanches","addr:postcode":"74700","addr:street":"Route du Fayet","capacity":"3","capacity:caravans":"4","caravan_site":"motorhome_stopover","caravan_site:type":"town","caravans":"no","fee":"no","maxstay":"unlimited","name":"Aire Camping Car de Sallanches","operator":"Ville de Sallanches","power_supply":"no","sanitary_dump_station":"yes","sanitary_dump_station:chemical_toilet":"yes","sanitary_dump_station:grey_water":"yes","sanitary_dump_station:round_drain":"yes","source":"http://www.sallanches.fr/67-deplacements.htm","supervised":"no","tents":"no","water_point":"yes"}},"676738806":{"location":[45.9247603,6.6487095],"ct":"FR","tp":"CS","ts":"2023-11-06T12:57:16Z","tX":530,"tY":364,"tags":{"addr:city":"Passy","addr:housenumber":"245","addr:street":"Route des Lacs","contact:phone":"+33 4 50 58 45 36","contact:website":"https://www.campinglesiles.fr/","internet_access":"wlan","internet_access:fee":"yes","name":"Les Iles","operator":"Tohapi","phone":"+33 4 50 58 45 36","stars":"3","website":"https://www.campinglesiles.fr/"}},"683647736":{"location":[45.8990311,6.6329669],"ct":"FR","tp":"CR","ts":"2024-10-02T19:13:30Z","tX":530,"tY":364,"tags":{"capacity":"6","caravan_site":"motorhome_stopover","caravan_site:type":"skiing","charge":"5 EUR","description":"municipal aire, fee 5 euros from May until September","fee":"yes","fee:conditional":"no @ (Oct-Apr)","maxstay":"3 days","name":"Combloux","operator":"Combloux","operator:type":"public","parking:fee":"yes","power_supply":"no","sanitary_dump_station":"yes","sanitary_dump_station:chemical_toilet":"yes","sanitary_dump_station:fee":"no","sanitary_dump_station:grey_water":"yes","surface":"asphalt","toilets:disposal":"yes","water_point":"yes","water_supply":"yes","website":"https://www.combloux.com/en/camping/aire-de-stationnement-pour-camping-cars/"}},"830319272":{"location":[45.891856,6.3349351],"ct":"FR","tp":"CS","ts":"2020-07-26T14:06:36Z","tX":530,"tY":364,"tags":{"name":"Camping Le Lachat","source":"data.gouv.fr:DATAtourisme - 05/2020","stars":"2","website":"https://www.campinglelachat.fr/"}},"907021409":{"location":[45.9363649,6.645834],"ct":"FR","tp":"CS","ts":"2021-02-14T11:41:37Z","tX":530,"tY":364,"tags":{"addr:city":"Sallanches","addr:housenumber":"390","addr:postcode":"74700","addr:street":"Route de Passy","internet_access":"wlan","name":"Le relais de la Vallée Blanche"}},"907021411":{"location":[45.9267165,6.6488018],"ct":"FR","tp":"CS","ts":"2024-11-01T08:56:37Z","tX":530,"tY":364,"tags":{"access":"customers","addr:city":"Passy","addr:housenumber":"132","addr:postcode":"74190","capacity:caravans":"95","capacity:tents":"95","caravans":"yes","email":"camping@v-mb.fr","fee":"yes","name":"Mont Blanc Village l'Ecureuil","opening_hours":"Mo-Su 08:00-11:30, 16:00-19:00","phone":"+33 4 50 58 43 67","static_caravans":"yes","tents":"yes","website":"https://www.camping-ecureuil.com/"}},"916694678":{"location":[46.0099884,6.536137],"ct":"FR","tp":"CR","ts":"2024-10-08T17:45:06Z","tX":530,"tY":364,"tags":{"access":"yes","addr:city":"Le Reposoir","addr:postcode":"74950","addr:street":"Route de Prariand, D204","capacity":"10","caravan_site":"motorhome_stopover","caravan_site:type":"parking_lot","charge":"0 €","description":"Aire de camping-car, borne artisanale","fee":"no","maxstay":"no","name":"Le Reposoir","operator":"Ville de Le Reposoir","power_supply":"no","sanitary_dump_station":"yes","sanitary_dump_station:chemical_toilet":"yes","sanitary_dump_station:grey_water":"yes","sanitary_dump_station:round_drain":"yes","seasonal":"no","supervised":"no","toilets":"yes","water_point":"yes","website":"http://www.lereposoir.fr/hebergement/aire-de-service-et-de-stationnement-camping-car-93550/"}},"916703103":{"location":[46.0588331,6.3745422],"ct":"FR","tp":"CR","ts":"2024-10-08T17:45:06Z","tX":530,"tY":364,"tags":{"access":"yes","addr:city":"Saint-Pierre-en-Faucigny - Avenue de la Gare","addr:postcode":"74800","addr:street":"Avenue de la Gare","capacity":"15","caravan_site":"motorhome_stopover","caravan_site:type":"parking_lot","charge":"0 €","description":"Aire de camping-car, borne artisanale","fee":"no","maxstay":"48 hours","motorcar":"yes","name":"Saint-Pierre-en-Faucigny","operator":"Ville de Le Reposoir","power_supply":"no","sanitary_dump_station":"yes","sanitary_dump_station:chemical_toilet":"yes","sanitary_dump_station:grey_water":"yes","sanitary_dump_station:round_drain":"yes","supervised":"no","surface":"asphalt","water_point":"yes"}},"1067909028":{"location":[45.9124148,6.6593674],"ct":"FR","tp":"CS","ts":"2010-12-27T17:29:07Z","tX":530,"tY":364,"tags":{"source":"cadastre-dgi-fr source : Direction Générale des Impôts - Cadastre. Mise à jour : 2010"}},"1067909031":{"location":[45.9177637,6.648271],"ct":"FR","tp":"CS","ts":"2010-12-27T17:29:07Z","tX":530,"tY":364,"tags":{"source":"cadastre-dgi-fr source : Direction Générale des Impôts - Cadastre. Mise à jour : 2010"}},"1154853558":{"location":[45.9160992,6.6480321],"ct":"FR","tp":"CS","ts":"2023-03-16T22:05:19Z","tX":530,"tY":364,"tags":{"capacity":"25","caravans":"yes","email":"jeanmariebibollet@club-internet.fr","mobile":"+33 614659047","name":"Du Chesney","phone":"+33 450583476","shower":"yes","source":"cadastre-dgi-fr source : Direction Générale des Impôts - Cadastre. Mise à jour : 2010","tents":"yes","toilets":"yes","website":"https://www.savoie-mont-blanc.com/campings/camping-du-chesney-141977/"}},"4899816528":{"location":[45.9033154,6.3623712],"ct":"FR","tp":"CS","ts":"2022-03-16T09:24:53Z","tX":530,"tY":364,"tags":{"name":"Le Colomban"}},"7750401208":{"location":[46.0046665,6.393969],"ct":"FR","tp":"CS","ts":"2022-05-21T13:28:57Z","tX":530,"tY":364,"tags":{"name":"Camping municipal"}},"9964507232":{"location":[45.8793405,6.510849],"ct":"FR","tp":"CS","ts":"2022-08-19T18:52:46Z","tX":530,"tY":364,"tags":{"backcountry":"yes","name":"Camping à la ferme"}},"11133475905":{"location":[45.836207,6.5767873],"ct":"FR","tp":"CS","ts":"2023-08-21T07:27:20Z","tX":530,"tY":364,"tags":{"addr:housenumber":"229","addr:postcode":"74120","addr:street":"Route des Thouvassières","name":"Les Prés d'Arly"}},"12296192804":{"location":[45.9245512,6.3908347],"ct":"FR","tp":"CS","ts":"2024-10-29T10:13:10Z","tX":530,"tY":364,"tags":{"contact:city":"Saint-Jean-de-Sixt","contact:housenumber":"942","contact:phone":"+33 4 50 02 24 36","contact:postcode":"74450","contact:street":"Route de Forgeassoud","name":"AEC Vacances - Forgeassoud, Saint Jean de Sixt","website":"https://www.aec-vacances.com/fr/villages-vacances-aec/saint-jean-de-sixt"}},"12155275011":{"location":[46.0690466,6.5596861],"ct":"FR","tp":"CR","ts":"2024-09-04T11:47:00Z","tX":530,"tY":364,"tags":{"capacity":"3","caravan_site":"motorhome_stopover","caravan_site:type":"town","caravans":"no","fee":"no","name":"Aire Camping-car Cluses","power_supply":"no","sanitary_dump_station":"yes","tents":"no","water_point":"yes","website":"https://www.cluses-montagnes-tourisme.com/camping/aire-de-service-et-de-stationnement-camping-car/"}},"4527980380":{"location":[46.0689954,6.559794],"ct":"FR","tp":"SD","ts":"2024-09-04T11:47:00Z","tX":530,"tY":364,"tags":{"access":"yes","charge":"3 EUR","fee":"yes","name":"Flot Bleu Cluses","operator":"flots bleus","payment:cash":"yes","sanitary_dump_station":"public","water_point":"yes"}},"5034222889":{"location":[45.9318904,6.6335406],"ct":"FR","tp":"SD","ts":"2022-05-10T17:58:13Z","tX":530,"tY":364,"tags":{"access":"yes","description":"Station de vidange pour Camping-car.","fee":"no","operator":"flots bleus","sanitary_dump_station":"public","sanitary_dump_station:chemical_toilet":"yes","sanitary_dump_station:grey_water":"yes","sanitary_dump_station:round_drain":"yes","water_point":"yes"}},"8513798297":{"location":[46.0100956,6.5364756],"ct":"FR","tp":"SD","ts":"2021-11-20T14:40:26Z","tX":530,"tY":364,"tags":{"access":"yes","description":"Station de vidange pour Camping-car.","fee":"no","operator":"Ville de Le Reposoir","sanitary_dump_station":"public","sanitary_dump_station:chemical_toilet":"yes","sanitary_dump_station:grey_water":"yes","sanitary_dump_station:round_drain":"yes","water_point":"yes"}},"8514293215":{"location":[46.0588657,6.3746647],"ct":"FR","tp":"SD","ts":"2024-03-02T15:40:15Z","tX":530,"tY":364,"tags":{"access":"yes","description":"Station de vidange pour Camping-car.","fee":"no","operator":"Ville de Saint-Pierre-en-Faucigny","sanitary_dump_station":"public","sanitary_dump_station:chemical_toilet":"yes","sanitary_dump_station:grey_water":"yes","sanitary_dump_station:round_drain":"yes","water_point":"yes"}},"10800045148":{"location":[45.9093304,6.4521361],"ct":"FR","tp":"SD","ts":"2023-04-10T19:22:06Z","tX":530,"tY":364,"tags":{"sanitary_dump_station:chemical_toilet":"yes"}},"10800045149":{"location":[45.9091567,6.4520156],"ct":"FR","tp":"SD","ts":"2023-04-10T19:22:06Z","tX":530,"tY":364,"tags":{"fee":"yes","fee:conditional":"no @ customers","sanitary_dump_station:chemical_toilet":"no","sanitary_dump_station:grey_water":"yes"}}}