{"53532062":{"location":[45.3248748,6.5343598],"ct":"FR","tp":"CR","ts":"2024-09-05T16:28:18Z","tX":530,"tY":367,"tags":{"capacity":"60","caravan_site":"motorhome_stopover","caravan_site:type":"skiing","charge":"15 EUR","fee":"yes","name":"Aire de camping-car Les Ménuires","sanitary_dump_station":"yes","sanitary_dump_station:fee":"yes","services:charge":"2 EUR","water_point":"yes","water_point:fee":"yes","website":"https://lesmenuires.com/en/camper-van"}},"170560704":{"location":[45.1699367,6.4300938],"ct":"FR","tp":"CS","ts":"2025-04-30T15:11:07Z","tX":530,"tY":367,"tags":{"addr:housenumber":"426","addr:postcode":"73450","addr:street":"Route des Villards","barrier":"wall","caravans":"yes","drinking_water":"yes","internet_access":"wlan","internet_access:fee":"no","name":"Camping Caravaneige de Sainte-Thècle","phone":"+33 4 79 59 03 90","power_supply":"yes","source":"cadastre-dgi-fr source : Direction Générale des Impôts - Cadastre. Mise à jour : 2012","tents":"yes","website":"https://www.valloire.net/hotellerie-plein-air/camping-caravaneige-de-sainte-thecle-valloire/"}},"300130330":{"location":[45.19399,6.6629373],"ct":"FR","tp":"CS","ts":"2024-08-10T07:29:59Z","tX":530,"tY":367,"tags":{"area":"yes","capacity":"100","caravans":"yes","drinking_water":"yes","name":"Les Combes","phone":"+33 4 79 05 00 23","power_supply":"yes","sanitary_dump_station":"yes","shower":"yes","stars":"2","tents":"yes","toilets":"yes","website":"https://www.camping-modane.com/"}},"729485375":{"location":[45.3304296,6.5321459],"ct":"FR","tp":"CS","ts":"2022-01-18T18:14:37Z","tX":530,"tY":367,"tags":{"addr:city":"Les Belleville","addr:country":"FR","addr:place":"Les Ménuires","addr:postcode":"73440","addr:street":"Rue des Marmottes","caravans":"yes","name":"Camping GCU de Les Menuires","operator":"Groupement des Campeurs Universitaires","phone":"+33 4 79 00 15 21","website":"https://www.gcu.asso.fr"}},"871357958":{"location":[45.2699653,6.3492933],"ct":"FR","tp":"CS","ts":"2024-07-29T20:01:46Z","tX":530,"tY":367,"tags":{"addr:city":"Saint-Jean-de-Maurienne","addr:housenumber":"422","caravans":"yes","drinking_water":"yes","internet_access":"yes","internet_access:fee":"yes","name":"Camping des Grands Cols","power_supply":"yes","sanitary_dump_station":"yes","shower":"yes","swimming_pool":"no","tents":"yes","toilets":"yes","website":"http://www.campingdesgrandscols.com"}},"871359391":{"location":[45.2135246,6.478668],"ct":"FR","tp":"CS","ts":"2020-11-13T15:43:26Z","tX":530,"tY":367,"tags":{"name":"Le Marintan","source":"cadastre-dgi-fr source : Direction Générale des Impôts - Cadastre. Mise à jour : 2012","stars":"3","website":"https://camping-maurienne.com/"}},"914327157":{"location":[45.2800589,6.3477866],"ct":"FR","tp":"CR","ts":"2024-06-27T12:58:56Z","tX":530,"tY":367,"tags":{"access":"yes","addr:city":"Saint-Jean-de-Maurienne","addr:postcode":"73300","addr:street":"Rue Louis Sibué","capacity":"25","caravan_site":"motorhome_stopover","caravan_site:type":"ski_village","caravans":"no","dog":"yes","fee":"no","maxstay":"48 hours","name":"Aire de camping-car Saint-Jean-de-Maurienne","opening_hours":"24/7","operator":"Ville de Saint-Jean-de-Maurienne","power_supply":"no","sanitary_dump_station":"yes","sanitary_dump_station:chemical_toilet":"yes","sanitary_dump_station:grey_water":"yes","sanitary_dump_station:round_drain":"yes","seasonal":"no","supervised":"no","water_point":"yes"}},"1197232097":{"location":[45.2470956,6.3541132],"ct":"FR","tp":"CS","ts":"2023-08-11T22:20:55Z","tX":530,"tY":367,"tags":{"backcountry":"yes","fee":"no","fixme":"Emplacement à confirmer","name":"Zone de bivouac des Léchères","website":"http://www.maurienne.fr/fr/il4-camping_i6510132-zone-de-bivouac-des-lecheres.aspx"}},"1214142357":{"location":[45.2196663,6.3372526],"ct":"FR","tp":"CR","ts":"2023-12-21T22:56:22Z","tX":530,"tY":367,"tags":{"addr:city":"Albiez-le-Vieux","caravan_site":"ski_village","charge":"15 EUR","charge:conditional":"10 EUR @(Apr 15-Nov 19)","fee":"yes","name":"Aire de camping-cars des Contamines","power_supply":"yes"}},"1254618877":{"location":[45.2088095,6.5362915],"ct":"FR","tp":"CS","ts":"2025-03-01T18:40:17Z","tX":530,"tY":367,"tags":{"access":"customers","addr:city":"Orelle","addr:housenumber":"156","addr:postcode":"73140","capacity:persons":"30","name":"Camping municipal d'Orelle","source":"cadastre-dgi-fr source : Direction Générale des Impôts - Cadastre. Mise à jour : 2012"}},"12163414841":{"location":[45.093288,6.3515556],"ct":"FR","tp":"CS","ts":"2024-09-08T12:18:53Z","tX":530,"tY":367,"tags":{"backcountry":"yes","capacity:persons":"4","caravans":"no","fee":"no","impromptu":"yes","static_caravans":"no"}},"12014868832":{"location":[45.1756676,6.4894263],"ct":"FR","tp":"CR","ts":"2024-06-27T13:09:26Z","tX":530,"tY":367,"tags":{"caravan_site":"motorhome_stopover","caravan_site:type":"ski_village","fee":"yes","name":"Aire de stationnement Camping Car Valmeinier","sanitary_dump_station":"yes","seasonal":"no","website":"http://www.maurienne-tourisme.com/hebergement/aire-de-stationnement-camping-car-6600955/"}},"8493621642":{"location":[45.2802599,6.3479103],"ct":"FR","tp":"SD","ts":"2023-12-21T22:56:22Z","tX":530,"tY":367,"tags":{"access":"yes","description":"Station de vidange pour Camping-car.","fee":"no","operator":"Ville de Saint-Jean-de-Maurienne","sanitary_dump_station:chemical_toilet":"yes","sanitary_dump_station:grey_water":"yes","sanitary_dump_station:round_drain":"yes","water_point":"yes"}},"12014868831":{"location":[45.1757239,6.4896087],"ct":"FR","tp":"SD","ts":"2024-06-27T13:09:26Z","tX":530,"tY":367,"tags":{"access":"yes"}},"12806178417":{"location":[45.1686661,6.4294595],"ct":"FR","tp":"SD","ts":"2025-05-03T13:55:51Z","tX":530,"tY":367,"tags":{"operator":"Flot Bleu","toilets":"no"}}}