{"166828770":{"location":[44.8561722,6.5888899],"ct":"FR","tp":"CS","ts":"2024-06-23T09:31:32Z","tX":530,"tY":368,"tags":{"contact:email":"contact@camping-iscledeprelles.com","contact:phone":"+334 92 20 28 66","landuse":"tourism","name":"Camping Iscle de Prelles","website":"https://camping-iscledeprelles.com/"}},"195760449":{"location":[44.9710508,6.5127155],"ct":"FR","tp":"CR","ts":"2024-10-05T16:00:11Z","tX":530,"tY":368,"tags":{"caravan_site":"motorhome_stopover","caravan_site:type":"ski_village","caravans":"no","charge":"15 EUR","fee":"yes","name":"Aire de camping-car Les Charmettes","opening_hours":"24/7","power_supply:fee":"no","reservation":"no","sanitary_dump_station":"yes","seasonal":"no","surface":"asphalt","tents":"no","water_point":"yes","water_point:fee":"no","website":"https://www.serre-chevalier.com/en/accommodation/campsites/service-area-camping-charmettes"}},"233399472":{"location":[44.9379618,6.4121575],"ct":"FR","tp":"CS","ts":"2019-03-22T20:05:35Z","tX":530,"tY":368,"tags":{"backcountry":"yes","impromptu":"yes","landuse":"tourism","name":"bivouac du glacier blanc"}},"233399768":{"location":[44.8721989,6.3864583],"ct":"FR","tp":"CS","ts":"2019-03-22T20:05:35Z","tX":530,"tY":368,"tags":{"area":"yes","backcountry":"yes","building":"no","description":"Aucune commodité, un pan d'alpage autorisé au bivouac, rien de plus.","impromptu":"yes","landuse":"tourism","name":"bivouac du sélé","wheelchair":"no"}},"238050198":{"location":[44.8423207,6.4906057],"ct":"FR","tp":"CS","ts":"2023-07-23T17:59:10Z","tX":530,"tY":368,"tags":{"addr:city":"Vallouise","addr:postcode":"05290","addr:street":"chemin des chambonnettes","alt_name":"Camping Huttopia Vallouise","capacity:tents":"160","caravans":"yes","description":"Emplacements libres ou location tentes Toile & Bois entièrement équipée ou un chalet bois. Piscine chauffée, services restauration, laverie.","email":"info@chalet-vallouise.com","internet_access":"wlan","landuse":"tourism","name":"Camping les Chambonnettes","opening_hours":"May-Sep","operator":"Huttopia","phone":"+33 4 92 23 30 26","stars":"3","static_caravans":"yes","tents":"yes","website":"https://europe.huttopia.com/site/camping-vallouise/"}},"238656380":{"location":[44.8839128,6.4465554],"ct":"FR","tp":"CS","ts":"2024-08-12T15:51:49Z","tX":530,"tY":368,"tags":{"addr:postcode":"05340","caravans":"yes","description":"17 hectares d'emplacements. Électricité, sanitaires. Pas de Bungalow. Camping car autorisés.","drinking_water":"yes","email":"info@ailefroide.fr","internet_access":"wlan","landuse":"tourism","name":"Camping d'Ailefroide","opening_hours":"Mo-Su 08:00-12:00, 14:00-21:00","phone":"+33492233200","power_supply":"yes","sanitary_dump_station":"yes","shower":"yes","stars":"2","tents":"yes","toilets":"yes","website":"http://www.ailefroide.fr"}},"252712359":{"location":[44.9802918,6.4969381],"ct":"FR","tp":"CS","ts":"2024-02-23T17:11:42Z","tX":530,"tY":368,"tags":{"addr:city":"Le Monêtier-les-Bains","addr:housenumber":"255","addr:place":"Le Casset","addr:postcode":"05220","capacity:tents":"77","caravans":"yes","email":"camping.monetier@orange.fr","fee":"yes","internet_access":"yes","internet_access:fee":"no","landuse":"tourism","name":"Camping des Deux Glaciers","opening_hours":"Jun 01 - Sep 30","payment:carte_bleue":"yes","payment:cash":"yes","payment:cheques_vacances":"yes","payment:credit_cards":"yes","payment:maestro":"yes","phone":"+33 4 92 46 10 08","phone:mobile":"+33 7 89 56 58 77","playground":"yes","power_supply":"yes","shower":"yes","tents":"yes","toilets":"yes","website":"https://www.hautes-alpes.net/fr/tourisme/essentiels/hebergements/campings-caravaning/selection/35020/fiche/camping-municipal-des-2-glaciers.html"}},"285208151":{"location":[45.0511303,6.6725009],"ct":"IT","tp":"CS","ts":"2024-09-25T13:10:18Z","tX":530,"tY":368,"tags":{"addr:city":"Bardonecchia","addr:postcode":"10052","addr:street":"Strada Provinciale 126 del Melezet","caravans":"yes","contact:email":"info@campeggiopiandelcolle.com","contact:phone":"+39 3333879711","contact:website":"http://www.campeggiopiandelcolle.com/","dog":"yes","drinking_water":"yes","fee":"yes","internet_access":"yes","internet_access:fee":"no","motorhome":"yes","name":"Pian del Colle","power_supply":"yes","shower":"yes","socket:cee_blue":"yes","tents":"yes","toilets":"yes"}},"356733386":{"location":[45.050723,6.6667563],"ct":"IT","tp":"CS","ts":"2024-09-25T13:07:16Z","tX":530,"tY":368,"tags":{"addr:city":"Bardonecchia","addr:postcode":"10052","caravans":"yes","contact:phone":"+39 335 8223405","contact:website":"https://www.campingvallestretta.com/","dog":"yes","drinking_water":"yes","fee":"yes","name":"Valle Stretta","operator":"REAR","power_supply":"yes","shower":"yes","socket:cee_blue":"yes","tents":"no","toilets":"yes"}},"391251460":{"location":[44.9441377,6.5559715],"ct":"FR","tp":"CR","ts":"2024-11-15T14:37:12Z","tX":530,"tY":368,"tags":{"capacity":"15","caravan_site":"motorhome_stopover","caravan_site:type":"skiing","caravans":"no","charge":"20 EUR","charge:conditional":"12 EUR @ (\"summer\")","ele":"1400","fee":"yes","name":"Parking camping-car Carserre Chevalier Vallée, Le Bez","operator":"Brigitte Pennec","phone":"+33 6 07 52 95 99","power_supply":"yes","sanitary_dump_station":"yes","tents":"no","water_point":"yes","website":"https://www.serrechevalier-locations.com/camping-cars-serre-chevalier/"}},"612084748":{"location":[44.840468,6.4876571],"ct":"FR","tp":"CS","ts":"2023-07-23T18:45:41Z","tX":530,"tY":368,"tags":{"addr:city":"Vallouise","addr:country":"FR","addr:postcode":"05290","addr:street":"D 504","capacity":"114","caravans":"no","internet_access":"wlan","landuse":"tourism","name":"Camping GCU de Vallouise","operator":"Groupement des Campeurs Universitaires","phone":"+33 4 92 23 43 16","sanitary_dump_station":"customers","stars":"2","tents":"yes","website":"https://www.gcu.asso.fr/terrains/vallouise-hautes-alpes-05","wheelchair":"yes"}},"625984797":{"location":[45.0314958,6.3636803],"ct":"FR","tp":"CS","ts":"2024-08-16T15:16:59Z","tX":530,"tY":368,"tags":{"addr:city":"Villar-d'Arêne","addr:country":"FR","addr:postcode":"05480","addr:street":"Arsine","alt_name":"Camping Arsine","caravans":"yes","drinking_water":"yes","internet_access":"no","landuse":"tourism","name":"Camping Municipal d'Arsine","power_supply":"yes","sanitary_dump_station":"yes","shower":"yes","tents":"yes","toilets":"yes"}},"664096681":{"location":[44.876112,6.6160588],"ct":"FR","tp":"CS","ts":"2024-07-21T21:48:52Z","tX":530,"tY":368,"tags":{"addr:hamlet":"Saint-Blaise","caravans":"yes","drinking_water":"yes","email":"info@camping5vallees.com","internet_access":"wlan","internet_access:fee":"no","landuse":"tourism","name":"Camping des 5 Vallées","phone":"+33 4 92 21 06 27","power_supply":"yes","sanitary_dump_station":"yes","shower":"yes","source":"survey","stars":"3","swimming_pool":"yes","tents":"yes","toilets":"yes","website":"https://www.camping5vallees.com/"}},"729485384":{"location":[45.0360937,6.3543959],"ct":"FR","tp":"CS","ts":"2020-11-23T23:08:01Z","tX":530,"tY":368,"tags":{"addr:city":"Villar-d'Arêne","addr:country":"FR","addr:place":"La Ruine","addr:postcode":"05480","capacity":"43","caravans":"yes","name":"Camping GCU de Villar-d'Arène","stars":"2","tents":"yes"}},"835328266":{"location":[44.8411184,6.4935086],"ct":"FR","tp":"CR","ts":"2024-08-06T12:15:23Z","tX":530,"tY":368,"tags":{"caravan_site":"motorhome_stopover","caravan_site:type":"village","caravans":"no","fee":"no","picnic_table":"yes","power_supply":"no","sanitary_dump_station":"no","seasonal":"no","surface":"asphalt","tents":"no","water_point":"no"}},"838502277":{"location":[44.8900885,6.446672],"ct":"FR","tp":"PK","ts":"2024-10-09T23:20:00Z","tX":530,"tY":368,"tags":{"motorhome":"yes","parking":"surface","surface":"grass"}},"871367054":{"location":[44.9186831,6.6751411],"ct":"FR","tp":"CS","ts":"2020-11-13T16:03:36Z","tX":530,"tY":368,"tags":{"name":"Les Gentianes"}},"890748212":{"location":[45.0169514,6.6313667],"ct":"FR","tp":"CS","ts":"2022-10-28T15:35:07Z","tX":530,"tY":368,"tags":{"caravans":"yes","contact:website":"https://www.nevache.fr/camping/","name":"Camping de la Lame","tents":"yes"}},"914141866":{"location":[44.9360964,6.5864444],"ct":"FR","tp":"CR","ts":"2023-12-21T14:40:58Z","tX":530,"tY":368,"tags":{"access":"yes","addr:city":"Saint-Chaffrey","addr:postcode":"05330","addr:street":"Route des Queyret","capacity":"40","caravan_site":"motorhome_stopover","caravan_site:type":"ski_village","description":"Aire de camping-car Saint-Chaffrey","fee":"no","maxstay":"no","name":"Aire de camping-car Saint-Chaffrey","opening_hours":"24/7","operator":"Ville de Saint-Chaffrey","power_supply":"yes","sanitary_dump_station":"yes","sanitary_dump_station:chemical_toilet":"yes","sanitary_dump_station:grey_water":"yes","sanitary_dump_station:round_drain":"yes","seasonal":"no","supervised":"no","tents":"no","water_point":"yes","wheelchair":"yes"}},"979396327":{"location":[45.0341234,6.5439717],"ct":"FR","tp":"CS","ts":"2022-05-07T02:12:56Z","tX":530,"tY":368,"tags":{"alt_name":"Foncouverte, Névache","camp_site":"basic","capacity":"80","caravans":"yes","dog":"yes","drinking_water":"yes","fee":"yes","internet_access":"no","motor_vehicle":"yes","name":"Camping de Fontcouverte","name:fr":"Camping de Fontcouverte","openfire":"no","phone":"+33 4 92 21 38 21","power_supply":"no","shower":"yes","tents":"yes","toilets":"yes","washing_machine":"no","website":"https://www.camping-fontcouverte-nevache-alpes.com/"}},"1081825385":{"location":[44.869585,6.6050597],"ct":"FR","tp":"CS","ts":"2022-07-27T14:54:50Z","tX":530,"tY":368,"tags":{"access":"permissive","addr:city":"Puy-Saint-André","addr:housenumber":"118","addr:street":"Chemin de la Plaine","fee":"yes","group_only":"yes","name":"Aire des Gens du Voyage","operator":"Communauté de Communes du Briançonnais"}},"1191470871":{"location":[44.8664799,6.4861194],"ct":"FR","tp":"CR","ts":"2024-08-06T11:55:35Z","tX":530,"tY":368,"tags":{"caravan_site":"motorhome_stopover","caravan_site:type":"camp_site","charge":"16.44 EUR","fee":"yes","name":"Le Freyssinet","power_supply":"yes","power_supply:charge":"4.20 EUR","power_supply:fee":"yes","sanitary_dump_station":"no","website":"https://camping-le-freyssinet.weebly.com/"}},"1319007783":{"location":[44.8663033,6.4847834],"ct":"FR","tp":"CS","ts":"2024-09-29T12:03:27Z","tX":530,"tY":368,"tags":{"addr:city":"Vallouise-Pelvoux","addr:postcode":"05340","addr:street":"Plateau des Essarts","description":"WIFI seulement à l'accueil Autre site web : https://www.paysdesecrins.com/mon-sejour/dormir-ete/campings-ete/camping-municipal-le-freyssinet-1782346","email":"mairie@vallouise-pelvoux.fr","mobile":"+33 7 61 45 86 43","name":"Le Freyssinet","opening_hours":"Jun 15-Aug 15","phone":"+33 4 92 23 37 83","website":"https://camping-le-freyssinet.weebly.com/"}},"11822899514":{"location":[44.8907285,6.6291037],"ct":"FR","tp":"CR","ts":"2024-04-16T20:20:38Z","tX":530,"tY":368,"tags":{"capacity":"30","caravan_site":"motorhome_stopover","caravan_site:type":"parking_lot","caravans":"no","fee":"no","name":"Briançon - Rue Georges Bermond Gonnet","operator":"Ville de Briançon","power_supply":"yes","sanitary_dump_station":"yes","sanitary_dump_station:chemical_toilet":"yes","sanitary_dump_station:grey_water":"yes","sanitary_dump_station:round_drain":"yes","supervised":"no","tents":"no","water_point":"yes"}},"7819973450":{"location":[44.8434218,6.4905381],"ct":"FR","tp":"SD","ts":"2020-08-17T11:11:25Z","tX":530,"tY":368,"tags":{"access":"customers","fee":"yes"}},"7906682071":{"location":[44.9478084,6.5556756],"ct":"FR","tp":"SD","ts":"2020-09-14T21:12:38Z","tX":530,"tY":368,"tags":{"access":"yes"}},"8491445613":{"location":[44.890305,6.6292247],"ct":"FR","tp":"SD","ts":"2021-11-20T14:40:26Z","tX":530,"tY":368,"tags":{"description":"Station de vidange pour Camping-car","fee":"no","operator":"Ville de Briançon","sanitary_dump_station:chemical_toilet":"yes","sanitary_dump_station:grey_water":"yes","sanitary_dump_station:round_drain":"yes","water_point":"yes"}},"8491495651":{"location":[44.9360814,6.5867558],"ct":"FR","tp":"SD","ts":"2023-07-22T09:37:34Z","tX":530,"tY":368,"tags":{"description":"Station de vidange pour Camping-car","fee":"no","opening_hours":"24/7","operator":"Ville de Saint-Chaffrey","sanitary_dump_station:chemical_toilet":"yes","sanitary_dump_station:grey_water":"yes","sanitary_dump_station:round_drain":"yes","water_point":"yes"}},"11062121342":{"location":[44.8652332,6.4870099],"ct":"FR","tp":"SD","ts":"2023-07-22T19:08:12Z","tX":530,"tY":368,"tags":{"fee":"yes","payment:coins":"yes","water_point":"yes"}}}