{"11244015":{"location":[44.6585997,6.6375333],"ct":"FR","tp":"CS","ts":"2023-04-13T19:23:35Z","tX":530,"tY":369,"tags":{"addr:city":"Guillestre","addr:postcode":"05600","addr:street":"Routes des Campings","cabins":"yes","capacity:pitches":"190","caravans":"yes","covered":"no","email":"guillestre@aol.com","internet_access":"wlan","name":"La Rochette","phone":"+33 4 92 45 02 15","shower":"yes","source":"cadastre-dgi-fr source : Direction Générale des Impôts - Cadastre. Mise à jour : 2012","stars":"3","tents":"yes","toilets":"yes","website":"https://www.campingguillestre.com/"}},"11250654":{"location":[44.8252529,6.5247991],"ct":"FR","tp":"CS","ts":"2023-07-23T17:17:58Z","tX":530,"tY":369,"tags":{"addr:city":"Les Vigneaux","addr:postcode":"05120","addr:street":"Le Pont du Rif","camp_site":"deluxe","email":"courounba@andretriganogroupe.com","fax":"+33 4 92 23 04 69","fee":"yes","internet_access":"wlan","landuse":"tourism","name":"Camping le Courounba","operator":"André Trigano","phone":"+33 4 92 23 02 09","source":"cadastre-dgi-fr source : Direction Générale des Impôts - Cadastre. Mise à jour : 2010","stars":"3","tents":"yes","website":"https://vacances-andretrigano.com/camping/hautes-alpes/le-courounba-les-vigneaux"}},"16147060":{"location":[44.6586985,6.627253],"ct":"FR","tp":"CS","ts":"2023-07-31T21:21:38Z","tX":530,"tY":369,"tags":{"caravans":"yes","email":"info@camping-levillard.com","internet_access":"wlan","landuse":"tourism","name":"Le Villard","opening_hours":"24/7","phone":"+33 4 92 45 06 54","stars":"4","static_caravans":"yes","tents":"yes","website":"https://camping-levillard.com"}},"130402802":{"location":[44.603095,6.5239078],"ct":"FR","tp":"CS","ts":"2019-07-14T17:13:45Z","tX":530,"tY":369,"tags":{"landuse":"tourism","name":"Les Cariamas","source":"cadastre-dgi-fr source : Direction Générale des Impôts - Cadastre. Mise à jour : 2011"}},"173508692":{"location":[44.6792323,6.6051352],"ct":"FR","tp":"CS","ts":"2023-07-23T15:18:24Z","tX":530,"tY":369,"tags":{"addr:city":"Réotier","description":"WIFI gratuit près de la réception, jusqu'à 22h (tables et prises disponibles sous abri)","email":"camping.lafontaine@gmail.com","landuse":"tourism","name":"Camping municipal La Fontaine","source":"cadastre-dgi-fr source : Direction Générale des Impôts - Cadastre. Mise à jour : 2009","stars":"2","website":"https://www.camping-reotier.fr"}},"207164816":{"location":[44.5997335,6.5426841],"ct":"FR","tp":"CS","ts":"2023-05-01T07:00:17Z","tX":530,"tY":369,"tags":{"landuse":"tourism","name":"La Place","website":"https://camping-la-place.business.site/"}},"237951001":{"location":[44.8255077,6.4897424],"ct":"FR","tp":"CS","ts":"2019-03-22T20:05:35Z","tX":530,"tY":369,"tags":{"caravans":"yes","landuse":"tourism","name":"Croque Loisirs","openfire":"yes","phone":"+33 6 78 37 81 34","source":"cadastre-dgi-fr source : Direction Générale des Impôts - Cadastre. Mise à jour : 2013","stars":"2","tents":"yes","website":"http://www.campingpuysaintvincent.fr/"}},"250151643":{"location":[44.6461091,6.5831817],"ct":"FR","tp":"CS","ts":"2024-06-23T20:38:44Z","tX":530,"tY":369,"tags":{"addr:city":"Saint-Clément-sur-Durance","addr:housenumber":"472","addr:postcode":"05600","addr:street":"route du Corset","caravans":"yes","drinking_water":"yes","email":"campinglesmillevents@yahoo.fr","fee":"yes","landuse":"tourism","name":"Les Mille vents","phone":"+33 4 92 45 10 90","power_supply":"yes","shower":"yes","stars":"2","static_caravans":"yes","swimming_pool":"outdoor","tents":"yes","toilets":"yes","website":"https://www.camping-les-mille-vents.com"}},"255914630":{"location":[44.6200943,6.5451011],"ct":"FR","tp":"CS","ts":"2021-12-23T19:23:27Z","tX":530,"tY":369,"tags":{"landuse":"tourism","name":"New Rabioux","website":"https://www.camping-new-rabioux.fr"}},"269076658":{"location":[44.777939,6.5588456],"ct":"FR","tp":"CS","ts":"2024-08-02T11:33:03Z","tX":530,"tY":369,"tags":{"addr:city":"L'Argentière-la-Bessée","addr:postcode":"05120","addr:street":"Avenue Pierre Sainte","area":"yes","caravans":"yes","drinking_water":"yes","landuse":"tourism","name":"Camping des Ecrins","phone":"+33 6 20 97 09 73","power_supply":"yes","sanitary_dump_station":"yes","shower":"yes","tents":"yes","toilets":"yes","website":"http://www.camping-les-ecrins.com/"}},"344089674":{"location":[44.6784988,6.6096456],"ct":"FR","tp":"CS","ts":"2025-06-12T19:38:08Z","tX":530,"tY":369,"tags":{"addr:city":"Eygliers","addr:place":"Plan d'eau - Les Iscles","addr:postcode":"05600","capacity":"166","caravans":"yes","contact:email":"contact@aucampingdulac.fr","contact:phone":"+33 4 92 57 97 73","landuse":"tourism","name":"Les Iscles","source":"cadastre-dgi-fr source : Direction Générale des Impôts - Cadastre. Mise à jour : 2009","stars":"3","tents":"yes","website":"https://www.aucampingdulac.fr/"}},"438003511":{"location":[44.8176106,6.5500836],"ct":"FR","tp":"CS","ts":"2023-07-23T17:09:28Z","tX":530,"tY":369,"tags":{"addr:city":"Les Vigneaux","addr:postcode":"05120","addr:street":"La Ruinette","camp_site":"standard","email":"vaudois@vacances-andretrigano.com","fee":"yes","landuse":"tourism","name":"Camping Les Vaudois","note":"entrée par la route ouest","operator":"André Trigano","phone":"+33 4 92 23 02 09","stars":"1","tents":"yes","website":"https://vacances-andretrigano.com/camping/hautes-alpes/les-vaudois-les-vigneaux"}},"508812571":{"location":[44.756997,6.5794711],"ct":"FR","tp":"CS","ts":"2024-08-14T19:19:27Z","tX":530,"tY":369,"tags":{"addr:city":"La roche de rame","addr:place":"Les Gillis","addr:postcode":"05310","caravans":"yes","drinking_water":"yes","email":"info@campingleverger.com","internet_access":"yes","landuse":"tourism","mobile":"+33 6 62 61 04 39; +33 6 03 17 67 25","name":"Le Verger","operator":"Camping Le Verger","phone":"+33 4 92 20 92 23","power_supply":"yes","sanitary_dump_station":"no","shower":"yes","stars":"3","tents":"yes","toilets":"yes","website":"http://campingleverger.com","wheelchair":"yes"}},"609285069":{"location":[44.7665904,6.3283567],"ct":"FR","tp":"CS","ts":"2023-08-07T21:28:36Z","tX":530,"tY":369,"tags":{"backcountry":"yes","camp_site":"basic","fee":"no","tents":"yes"}},"667527968":{"location":[44.6156409,6.5167366],"ct":"FR","tp":"CS","ts":"2023-06-09T08:55:52Z","tX":530,"tY":369,"tags":{"landuse":"tourism","name":"Camping Les Pins"}},"675225229":{"location":[44.6573505,6.6334026],"ct":"FR","tp":"CS","ts":"2023-04-09T20:40:12Z","tX":530,"tY":369,"tags":{"cabins":"yes","capacity:pitches":"95","capacity:static_caravans":"17","caravans":"yes","email":"camping@lesaintjames.com","internet_access":"wlan","internet_access:fee":"yes","landuse":"tourism","name":"Saint-James les Pins","phone":"+33 4 92 45 08 24","shower":"yes","stars":"3","tents":"yes","toilets":"yes","website":"https://www.lesaintjames.com/"}},"871367968":{"location":[44.7470442,6.5817365],"ct":"FR","tp":"CS","ts":"2023-07-23T13:11:53Z","tX":530,"tY":369,"tags":{"addr:city":"La Roche-de-Rame","addr:postcode":"05310","capacity:caravans":"70","caravans":"yes","email":"Contact@camping-du-lac-05.com","name":"Le Lac","phone":"+33  4 92 20 90 31","source":"cadastre-dgi-fr source : Direction Générale des Impôts - Cadastre. Mise à jour : 2009","stars":"2","static_caravans":"yes","tents":"yes","website":"https://camping-du-lac-05.fr"}},"965047435":{"location":[44.7102407,6.5949545],"ct":"FR","tp":"CS","ts":"2024-07-20T10:32:16Z","tX":530,"tY":369,"tags":{"access":"yes","addr:city":"Saint-Crépin","addr:postcode":"05600","addr:street":"Quartier La cabane","caravans":"yes","drinking_water":"yes","fee":"yes","mobile":"+33 6 51 44 89 33","name":"Camping La Cabane","phone":"+33 4 92 45 07 33","power_supply":"yes","shower":"yes","stars":"2","static_caravans":"yes","tents":"yes","website":"https://www.campingcabane.fr/"}},"1019452482":{"location":[44.6563946,6.6559117],"ct":"FR","tp":"CS","ts":"2022-01-08T15:07:38Z","tX":530,"tY":369,"tags":{}},"1042256388":{"location":[44.7905925,6.560673],"ct":"FR","tp":"CR","ts":"2025-04-06T20:42:12Z","tX":530,"tY":369,"tags":{"bbq":"no","capacity":"22","caravan_site":"motorhome_stopover","caravan_site:type":"mountains","caravans":"no","charge":"14.70 EUR","dog":"leashed","fee":"yes","internet_access":"wlan","maxlength":"9","name":"Aire l'Argentière-la-Bessée","network":"CAMPING-CAR PARK","opening_hours":"24/7","power_supply":"yes","power_supply:capacity":"24","power_supply:maxcurrent":"6","sanitary_dump_station":"yes","surface":"asphalt","tents":"no","trailer":"yes","water_point":"yes","website":"https://www.campingcarpark.com/fr_FR/sejour/aire-etape-camping-car/provence-alpes-cote-dazur/05-hautes-alpes/l-argentiere-la-bessee"}},"1160925374":{"location":[44.661895,6.6506704],"ct":"FR","tp":"CS","ts":"2023-04-09T20:08:57Z","tX":530,"tY":369,"tags":{"capacity:pitches":"19","caravans":"yes","email":"catinat-fleuri@wanadoo.fr","motorhome":"yes","name":"Le Catinat Fleuri","phone":"+33 4 92 45 07 62","shower":"yes","tents":"yes","toilets":"yes"}},"1164340450":{"location":[44.6023054,6.528315],"ct":"FR","tp":"CS","ts":"2023-12-15T10:08:15Z","tX":530,"tY":369,"tags":{"cabins":"yes","capacity:pitches":"80","caravans":"yes","internet_access":"wlan","internet_access:fee":"no","name":"Les Eygas","phone":"+33 6 45 23 72 73","shower":"yes","stars":"3","tents":"yes","toilets":"yes","website":"https://franse-alpen.nl/"}},"1213528887":{"location":[44.8300946,6.4065372],"ct":"FR","tp":"CS","ts":"2023-10-06T08:19:14Z","tX":530,"tY":369,"tags":{"backcountry":"yes","description":"Aire de bivouac non officiel à vérifier sur place."}},"1275259516":{"location":[44.6928937,6.3679727],"ct":"FR","tp":"CS","ts":"2024-05-08T19:02:25Z","tX":530,"tY":369,"tags":{"addr:city":"Orcières","addr:postcode":"05170","capacity":"25","caravans":"yes","email":"aprapic@gmail.com","fee":"yes","name":"Camping de la Casse","phone":"+33 4 92556258","tents":"yes","website":"https://www.prapic.com/campingprapicorciereshautesalpes","wheelchair":"yes"}},"1313538131":{"location":[44.8250019,6.4983638],"ct":"FR","tp":"CR","ts":"2024-09-05T16:34:43Z","tX":530,"tY":369,"tags":{"capacity":"2","caravan_site":"motorhome_stopover","caravan_site:type":"skiing;parking_lot","charge":"10.60 EUR","fee":"yes","name":"Aire Station 1400 Puy Saint Vincent","sanitary_dump_station":"yes","surface":"asphalt","website":"https://www.mairie-puy-saint-vincent.fr/se-deplacer-en-camping-car"}},"1319011302":{"location":[44.742021,6.5613018],"ct":"FR","tp":"CS","ts":"2024-11-12T10:17:47Z","tX":530,"tY":369,"tags":{"caravans":"yes","ele":"1200","email":"contact@camping-freissinieres.fr","fee":"yes","mobile":"+33 6 50 41 73 34","name":"Les Allouviers","phone":"+33 4 92 20 93 24","tents":"yes","website":"https://camping-freissinieres.fr/"}},"1319012693":{"location":[44.704031,6.6031766],"ct":"FR","tp":"CS","ts":"2024-09-29T11:47:08Z","tX":530,"tY":369,"tags":{"addr:city":"Saint-Crépin","addr:place":"Île basse","addr:postcode":"05600","email":"camping@saintcrepin.com","internet_access":"wlan","mobile":"+33 9 67 49 67 90","name":"Camping municipal de l'Île","stars":"3","website":"https://www.camping-ile-saint-crepin.com/"}},"1319014246":{"location":[44.6647828,6.6533897],"ct":"FR","tp":"CS","ts":"2024-09-28T15:05:11Z","tX":530,"tY":369,"tags":{"fee":"yes","mobile":"+33 6 62 23 06 05","name":"L'Epervière","phone":"+33 4 92 45 13 76"}},"1319015083":{"location":[44.6548881,6.6473802],"ct":"FR","tp":"CS","ts":"2024-09-28T15:09:58Z","tX":530,"tY":369,"tags":{"internet_access":"wlan","name":"La Ribière","stars":"3","website":"https://www.laribiere.fr/"}},"1375423350":{"location":[44.8188064,6.4792601],"ct":"FR","tp":"CR","ts":"2025-04-06T20:54:32Z","tX":530,"tY":369,"tags":{"caravan_site":"motorhome_stopover","caravan_site:type":"hiking;skiing","ele":"1800","fee":"yes","name":"Aire camping-cars 1800 Puy-Saint-Vincent","power_supply":"yes","sanitary_dump_station":"yes","toilets":"yes","water_point":"yes","website":"https://www.paysdesecrins.com/en/my-stay/accommodation-ete/camper-van-facilities-ete/aire-d-accueil-camping-cars-1800m-1459304"}},"2465916559":{"location":[44.8087726,6.5144767],"ct":"FR","tp":"PK","ts":"2024-10-02T16:20:24Z","tX":530,"tY":369,"tags":{"motorhome":"yes","motorhome:overnight":"no","parking":"surface"}},"5058146243":{"location":[44.8392095,6.4550879],"ct":"FR","tp":"CS","ts":"2017-08-26T11:51:36Z","tX":530,"tY":369,"tags":{"description":"Huttopia, Camp indigo","name":"Pont des Places"}},"5759535094":{"location":[44.6067045,6.3381442],"ct":"FR","tp":"CS","ts":"2020-08-23T14:48:24Z","tX":530,"tY":369,"tags":{"name":"Camping municipal de Réallon"}},"4404273496":{"location":[44.6583018,6.6374247],"ct":"FR","tp":"SD","ts":"2020-05-25T09:34:41Z","tX":530,"tY":369,"tags":{}},"4404273497":{"location":[44.6579025,6.6355895],"ct":"FR","tp":"SD","ts":"2020-05-25T09:34:41Z","tX":530,"tY":369,"tags":{}},"4404285302":{"location":[44.6550545,6.6474301],"ct":"FR","tp":"SD","ts":"2020-05-25T09:34:41Z","tX":530,"tY":369,"tags":{}},"9587524953":{"location":[44.7790531,6.5591915],"ct":"FR","tp":"SD","ts":"2022-08-14T12:35:51Z","tX":530,"tY":369,"tags":{}},"9594530561":{"location":[44.7903263,6.5606936],"ct":"FR","tp":"SD","ts":"2022-03-21T14:23:37Z","tX":530,"tY":369,"tags":{}},"12158095673":{"location":[44.8250227,6.498338],"ct":"FR","tp":"SD","ts":"2024-09-05T16:34:43Z","tX":530,"tY":369,"tags":{"access":"yes"}},"12211929301":{"location":[44.7045153,6.600855],"ct":"FR","tp":"SD","ts":"2024-09-30T15:09:13Z","tX":530,"tY":369,"tags":{}}}