{"26859063":{"location":[44.5229774,6.3407309],"ct":"FR","tp":"CS","ts":"2023-04-30T16:39:18Z","tX":530,"tY":370,"tags":{"access":"customers","addr:city":"Prunières","addr:housenumber":"32","addr:postcode":"05230","addr:street":"Chemin du Roustou","capacity":"500","fee":"yes","internet_access":"wlan","internet_access:fee":"no","name":"La Presqu’île","operator":"Sunêlia","static_caravans":"yes","tents":"yes","website":"https://www.campinglapresquile.com"}},"80648637":{"location":[44.384362,6.6427302],"ct":"FR","tp":"CS","ts":"2019-03-22T20:05:11Z","tX":530,"tY":370,"tags":{"capacity":"45","landuse":"tourism","name":"Camping du Plan"}},"126782683":{"location":[44.3813417,6.6752553],"ct":"FR","tp":"CS","ts":"2019-03-25T11:19:03Z","tX":530,"tY":370,"tags":{"capacity":"73","landuse":"tourism","name":"Camping de La Chaup","stars":"2","website":"https://www.campinglachaup.fr/"}},"127483155":{"location":[44.3844397,6.6347553],"ct":"FR","tp":"CS","ts":"2023-11-11T13:27:25Z","tX":530,"tY":370,"tags":{"capacity":"90","landuse":"tourism","name":"Camping Le Tampico","phone":"+33 4 92 81 02 55","stars":"3","website":"https://www.letampico.fr/"}},"127502379":{"location":[44.3975323,6.5438798],"ct":"FR","tp":"CS","ts":"2020-08-10T16:57:13Z","tX":530,"tY":370,"tags":{"capacity":"267","caravans":"yes","fee":"no","internet_access":"wlan","internet_access:fee":"yes","landuse":"tourism","name":"Camping Domaine Loisirs de l'Ubaye","nudism":"no","shower":"yes","stars":"4","static_caravans":"yes","tents":"yes","toilets":"yes","website":"https://www.loisirsubaye.com/","wheelchair":"yes"}},"128071363":{"location":[44.425569,6.4393785],"ct":"FR","tp":"CS","ts":"2023-08-22T21:38:34Z","tX":530,"tY":370,"tags":{"caravans":"yes","drinking_water":"yes","name":"Le Bois des Hoches","operator":"ANAM","power_supply":"yes","shower":"yes","source":"cadastre-dgi-fr source : Direction Générale des Impôts - Cadastre. Mise à jour : 2011","tents":"yes","toilets":"yes"}},"128071522":{"location":[44.4248925,6.436721],"ct":"FR","tp":"CS","ts":"2024-07-21T14:25:16Z","tX":530,"tY":370,"tags":{"caravans":"yes","drinking_water":"yes","name":"Le Noyer du Baron","power_supply":"yes","sanitary_dump_station":"yes","shower":"yes","source":"cadastre-dgi-fr source : Direction Générale des Impôts - Cadastre. Mise à jour : 2011","tents":"yes","toilets":"yes","website":"https://www.camping-noyerdubaron.com"}},"130398923":{"location":[44.5548613,6.4871606],"ct":"FR","tp":"CS","ts":"2021-02-06T12:47:34Z","tX":530,"tY":370,"tags":{"addr:city":"Embrun","addr:postcode":"05200","landuse":"tourism","name":"La Vielle Ferme","source":"cadastre-dgi-fr source : Direction Générale des Impôts - Cadastre. Mise à jour : 2011","website":"https://www.campingembrun.com","wheelchair":"yes"}},"130402050":{"location":[44.5461152,6.4927131],"ct":"FR","tp":"CS","ts":"2022-06-10T12:59:31Z","tX":530,"tY":370,"tags":{"addr:city":"Baratier","addr:postcode":"05200","landuse":"tourism","name":"Le Petit Liou","phone":"+33 4 92 43 19 10","source":"cadastre-dgi-fr source : Direction Générale des Impôts - Cadastre. Mise à jour : 2011","website":"https://www.camping-lepetitliou.com"}},"130402057":{"location":[44.5384041,6.4524338],"ct":"FR","tp":"CS","ts":"2024-01-07T13:12:48Z","tX":530,"tY":370,"tags":{"addr:city":"Crots","addr:postcode":"05200","addr:street":"La Garenne","email":"contact@lagarenne-crots.com","fee":"yes","landuse":"tourism","name":"La Garenne","operator":"Mairie de Crots","payment:cash":"yes","payment:credit_cards":"yes","payment:debit_cards":"yes","payment:mastercard":"yes","source":"cadastre-dgi-fr source : Direction Générale des Impôts - Cadastre. Mise à jour : 2011","website":"https://www.lagarenne-crots.com/","wheelchair":"yes"}},"130732166":{"location":[44.396714,6.4893628],"ct":"FR","tp":"CS","ts":"2023-11-11T13:27:24Z","tX":530,"tY":370,"tags":{"capacity":"40","landuse":"tourism","name":"Camping River","stars":"3","website":"https://www.camping-river.eu/"}},"156711151":{"location":[44.5249661,6.4009666],"ct":"FR","tp":"CR","ts":"2024-05-30T10:42:18Z","tX":530,"tY":370,"tags":{"addr:city":"Savines-le-Lac","barrier":"fence","capacity":"18","caravan_site":"motorhome_stopover","caravan_site:type":"village","caravans":"no","charge":"14.32 EUR","fee":"yes","motorhome":"designated","name":"Aire camping car du Barnafret","network":"AirePark","opening_hours":"24/7","operator":"Mairie de Savines-le-Lac","reservation":"yes","sanitary_dump_station":"yes","surface":"asphalt","tents":"no","toilets":"no","water_point":"yes","website":"https://www.aireparkreservation.com/aires-camping-cars/provence-alpes-cote-azur/hautes-alpes/savines-le-lac-serre-poncon","wheelchair":"yes"}},"161082149":{"location":[44.5518841,6.4767917],"ct":"FR","tp":"CS","ts":"2024-05-19T08:54:16Z","tX":530,"tY":370,"tags":{"addr:city":"Embrun","addr:postcode":"05200","addr:street":"Avenue du Lac","caravans":"yes","drinking_water":"yes","email":"info@camping-embrun-clapiere.com","fee":"yes","landuse":"tourism","name":"La Clapière","payment:cash":"yes","payment:credit_cards":"yes","payment:mastercard":"yes","payment:visa":"yes","phone":"+33 4 92 43 01 83","shower":"yes","source":"cadastre-dgi-fr source : Direction Générale des Impôts - Cadastre. Mise à jour : 2012","tents":"yes","website":"https://www.camping-embrun-clapiere.com/","wheelchair":"yes"}},"178940480":{"location":[44.5593265,6.4810825],"ct":"FR","tp":"CS","ts":"2025-01-06T15:11:25Z","tX":530,"tY":370,"tags":{"addr:city":"Embrun","addr:postcode":"05200","internet_access":"wlan","internet_access:fee":"no","landuse":"tourism","name":"Les Tourelles","stars":"3","website":"https://www.camping-alpes-les-tourelles.com/"}},"207163334":{"location":[44.5724712,6.5385266],"ct":"FR","tp":"CS","ts":"2019-03-22T20:05:26Z","tX":530,"tY":370,"tags":{"landuse":"tourism","name":"Le Mont Orel","wheelchair":"no"}},"207165680":{"location":[44.5450709,6.4983811],"ct":"FR","tp":"CS","ts":"2023-12-15T09:21:42Z","tX":530,"tY":370,"tags":{"caravans":"yes","fee":"yes","landuse":"tourism","name":"Les Esparons","static_caravans":"yes","tents":"yes","website":"https://www.lesesparons.com/"}},"207214263":{"location":[44.5576522,6.5071866],"ct":"FR","tp":"CS","ts":"2019-03-22T20:05:26Z","tX":530,"tY":370,"tags":{"landuse":"tourism","name":"La Madeleine"}},"207214278":{"location":[44.5562115,6.5055837],"ct":"FR","tp":"CS","ts":"2019-03-22T20:05:26Z","tX":530,"tY":370,"tags":{"landuse":"tourism","name":"La Tour"}},"207638982":{"location":[44.5486535,6.4966827],"ct":"FR","tp":"CS","ts":"2021-02-06T12:46:10Z","tX":530,"tY":370,"tags":{"landuse":"tourism","name":"Les Grillons","website":"https://campinglesgrillons.com/"}},"208287045":{"location":[44.5479879,6.4657146],"ct":"FR","tp":"CS","ts":"2021-06-09T08:55:04Z","tX":530,"tY":370,"tags":{"addr:city":"Embrun","addr:postcode":"05200","addr:street":"Chemin de Chadenas","fee":"yes","landcover":"trees","landuse":"tourism","name":"Camping du Club Nautique Alpin Serre Ponçon","operator":"Club Nautique Alpin Serre Ponçon","website":"https://www.cna-embrun.com/","wheelchair":"yes"}},"224942010":{"location":[44.5372155,6.456501],"ct":"FR","tp":"CS","ts":"2023-11-01T22:31:33Z","tX":530,"tY":370,"tags":{"addr:city":"Crots","addr:postcode":"05200","landuse":"tourism","name":"Manu","website":"https://www.campingmanu.com/","wheelchair":"yes"}},"345295401":{"location":[44.5514984,6.4741873],"ct":"FR","tp":"CS","ts":"2019-03-22T20:05:48Z","tX":530,"tY":370,"tags":{"landuse":"tourism","name":"camping de l'UCPA"}},"427457145":{"location":[44.3822513,6.6580632],"ct":"FR","tp":"CR","ts":"2024-08-16T13:35:47Z","tX":530,"tY":370,"tags":{"alt_name":"Aire de camping-car Jacques Villain","caravan_site":"motorhome_stopover","caravan_site:type":"town","charge":"10 EUR","fee":"yes","internet_access":"no","name":"Aire du stade Léon Signoret - Barcelonnette","opening_hours":"May-Oct","picnic_area":"yes","power_supply":"yes","power_supply:fee":"no","sanitary_dump_station":"yes","surface":"gravel","water_point":"yes","water_point:fee":"no","website":"https://www.ville-barcelonnette.fr/les-parcs-a-camping-car.html"}},"432297012":{"location":[44.3920215,6.5746525],"ct":"FR","tp":"CS","ts":"2024-01-24T19:07:51Z","tX":530,"tY":370,"tags":{"capacity":"150","internet_access":"wlan","internet_access:fee":"yes","landuse":"tourism","name":"Camping Le Fontarache","stars":"3","website":"https://www.camping-fontarache.fr/"}},"434414002":{"location":[44.3430172,6.3613646],"ct":"FR","tp":"CS","ts":"2024-07-25T18:11:22Z","tX":530,"tY":370,"tags":{"access":"customers","addr:city":"Seyne-les-Alpes","addr:postcode":"04140","addr:street":"La Haute Gréyère","capacity":"100","description":"Camping 3 étoiles avec Piscine, snack-bar et locations Campsite 3 stars with swimming pool, snack-bar and rentals","fee":"yes","highway":"service","landuse":"tourism","lanes":"1","name":"Camping Les Prairies","phone":"+33 4 92 35 10 21","stars":"3","tents":"yes","website":"https://www.campinglesprairies.com/"}},"455028722":{"location":[44.5451785,6.4899077],"ct":"FR","tp":"CS","ts":"2021-02-06T12:03:39Z","tX":530,"tY":370,"tags":{"addr:city":"Baratier","addr:postcode":"05200","addr:street":"Route des Orres","email":"Loucompass05@gmail.com","landuse":"tourism","name":"Lou Compass","phone":"+33 6 32 92 29 28","website":"https://www.loucompass.com/"}},"455030994":{"location":[44.5395683,6.492851],"ct":"FR","tp":"CS","ts":"2023-11-01T22:32:21Z","tX":530,"tY":370,"tags":{"landuse":"tourism","name":"Les deux Bois","website":"https://camping-les2bois.com/"}},"455106463":{"location":[44.5304946,6.5007837],"ct":"FR","tp":"CS","ts":"2024-08-18T13:30:33Z","tX":530,"tY":370,"tags":{"addr:city":"Baratier","addr:postcode":"05200","addr:street":"Route des Orres","email":"info@lesairelles.com","internet_access":"yes","landuse":"tourism","name":"Les Airelles","phone":"+33492431157","website":"https://www.lesairelles.com/"}},"458460737":{"location":[44.5147101,6.3606017],"ct":"FR","tp":"CS","ts":"2018-08-05T20:38:43Z","tX":530,"tY":370,"tags":{"addr:city":"Pontis","addr:postcode":"05160","name":"Les Chappas","phone":"+33 4 92 44 22 09","website":"https://www.camping-les-chappas.com/"}},"458539066":{"location":[44.457768,6.355033],"ct":"FR","tp":"CS","ts":"2023-09-19T20:24:58Z","tX":530,"tY":370,"tags":{"addr:city":"Ubaye-Serre-Ponçon","addr:postcode":"04340","capacity":"75","landuse":"tourism","name":"Lou Pibou","phone":"+33 4 92 85 51 58","stars":"3","website":"https://www.camping-lou-pibou.fr/"}},"458753308":{"location":[44.3460668,6.34394],"ct":"FR","tp":"CS","ts":"2024-09-30T12:41:12Z","tX":530,"tY":370,"tags":{"addr:city":"Seyne les Alpes","addr:housenumber":"703","addr:postcode":"04140","addr:street":"Route du Haut Chardavon","capacity":"100","capacity:caravans":"40","caravans":"yes","fee":"yes","landuse":"tourism","name":"Camping Caravaneige de La Blanche**","payment:cards":"yes","payment:cheque":"yes","payment:coins":"yes","stars":"2","static_caravans":"yes","tents":"yes","website":"http://www.campingdelablanche.net"}},"458754980":{"location":[44.4087873,6.3473678],"ct":"FR","tp":"CS","ts":"2024-10-06T13:00:10Z","tX":530,"tY":370,"tags":{"capacity":"137","description":"Ouverture : été/hiver été : 25 mai au 10 septembre hiver : 23 décembre au 18 mars","landuse":"tourism","name":"Étoile des Neiges","stars":"4","website":"https://www.etoile-des-neiges.com/"}},"458756164":{"location":[44.4432483,6.3535879],"ct":"FR","tp":"CS","ts":"2023-11-11T13:27:33Z","tX":530,"tY":370,"tags":{"capacity":"25","landuse":"tourism","name":"Centre de Loisirs du Lautaret","website":"https://www.loisirsmontagne.com/"}},"458757297":{"location":[44.4687533,6.3332811],"ct":"FR","tp":"CS","ts":"2025-01-08T12:03:48Z","tX":530,"tY":370,"tags":{"capacity":"118","landuse":"tourism","name":"Les Berges du Lac","stars":"3"}},"458757844":{"location":[44.5056735,6.3550667],"ct":"FR","tp":"CS","ts":"2022-07-30T03:57:06Z","tX":530,"tY":370,"tags":{"capacity":"25","landuse":"tourism","name":"Aire Naturelle de camping le Château","phone":"+33 6 79 78 22 79"}},"458757845":{"location":[44.5131901,6.3621636],"ct":"FR","tp":"CS","ts":"2024-09-28T13:42:00Z","tX":530,"tY":370,"tags":{"capacity":"60","landuse":"tourism","name":"Les Granges"}},"458759382":{"location":[44.4249783,6.4410155],"ct":"FR","tp":"CS","ts":"2023-11-11T13:27:32Z","tX":530,"tY":370,"tags":{"capacity":"25","caravans":"yes","drinking_water":"yes","landuse":"tourism","name":"Bois des Hoches","power_supply":"yes","shower":"yes","tents":"yes","toilets":"yes","website":"https://www.camping-boisdeshoches.com/"}},"458759383":{"location":[44.4351983,6.4266352],"ct":"FR","tp":"CS","ts":"2024-10-24T11:38:40Z","tX":530,"tY":370,"tags":{"capacity":"25","name":"La Source"}},"458760945":{"location":[44.3983691,6.5322638],"ct":"FR","tp":"CS","ts":"2024-07-22T19:52:02Z","tX":530,"tY":370,"tags":{"capacity":"205","landuse":"tourism","name":"Camping Le Rioclar","stars":"3","website":"https://www.rioclar.com/"}},"601392063":{"location":[44.5166263,6.3762243],"ct":"FR","tp":"CS","ts":"2021-05-22T07:19:29Z","tX":530,"tY":370,"tags":{"addr:city":"Savines-le-Lac","addr:place":"Les Eygoires","addr:postcode":"05160","addr:street":"Le Pré d'Émeraude","capacity":"256","caravans":"yes","internet_access":"wlan","landuse":"tourism","name":"Camping GCU de Savines-le-Lac","operator":"Groupement des Campeurs Universitaires","phone":"+33 4 92 44 30 03","sanitary_dump_station":"no","stars":"2","tents":"yes","website":"https://www.gcu.asso.fr/","wheelchair":"limited"}},"610314192":{"location":[44.5196734,6.3849158],"ct":"FR","tp":"CS","ts":"2020-12-04T23:37:42Z","tX":530,"tY":370,"tags":{"addr:city":"Savines-le-Lac","addr:postcode":"05160","landuse":"tourism","name":"Le Grand Large","operator":"Maire de Savines-le-Lac","phone":"+33 4 92 44 20 48","website":"https://www.camping-savineslelac.fr"}},"611156835":{"location":[44.3859951,6.6098289],"ct":"FR","tp":"CS","ts":"2021-09-25T14:56:29Z","tX":530,"tY":370,"tags":{"camp_site":"basic","name":"CVVU Camping"}},"652398731":{"location":[44.5233726,6.4012531],"ct":"FR","tp":"CS","ts":"2021-02-15T18:08:32Z","tX":530,"tY":370,"tags":{"addr:city":"Savines-le-Lac","addr:postcode":"05160","addr:street":"Rue du Barnafret","fee":"yes","internet_access":"yes","landuse":"tourism","name":"Les Sources","phone":"+33 4 92 44 20 52","website":"https://www.hotel-les-sources.com"}},"676042565":{"location":[44.4983133,6.3455075],"ct":"FR","tp":"CS","ts":"2023-12-15T13:57:57Z","tX":530,"tY":370,"tags":{"addr:city":"Le Sauze-du-Lac","addr:housenumber":"201","addr:postcode":"05160","addr:street":"route d'Orbanne","capacity:tents":"49","caravans":"no","fee":"yes","landuse":"tourism","name":"La Palatriere","phone":"+33 4 92 44 20 98","static_caravans":"yes","tents":"yes","website":"https://www.lapalatriere.com"}},"695682519":{"location":[44.5272645,6.3597981],"ct":"FR","tp":"CS","ts":"2024-07-16T14:47:00Z","tX":530,"tY":370,"tags":{"caravans":"yes","fee":"yes","name":"Nautic","static_caravans":"yes","tents":"yes","website":"https://campinglenautic.com/"}},"712004421":{"location":[44.5608832,6.3457196],"ct":"FR","tp":"CS","ts":"2021-12-17T09:07:10Z","tX":530,"tY":370,"tags":{"access":"customers","addr:city":"Saint-Apollinaire","addr:postcode":"05160","addr:street":"Route des lacs","caravans":"yes","email":"contact@camping-le-clos-du-lac.fr","fee":"yes","name":"Le Clos du Lac","phone":"+33 4 92 44 27 43","stars":"3","tents":"yes","website":"https://www.camping-le-clos-du-lac.fr/","wheelchair":"yes"}},"914093761":{"location":[44.5752786,6.6775715],"ct":"FR","tp":"CR","ts":"2024-10-08T17:48:39Z","tX":530,"tY":370,"tags":{"access":"yes","addr:city":"Crévoux","addr:postcode":"05560","addr:street":"Allée Trub Charles","capacity":"50","caravan_site":"motorhome_stopover","caravan_site:type":"ski_resort","description":"Aire de camping-car.","fee":"no","maxstay":"no","name":"Vars Les-Claux","operator":"Ville de Vars","power_supply":"yes","power_supply:fee":"yes","sanitary_dump_station":"yes","sanitary_dump_station:chemical_toilet":"yes","sanitary_dump_station:grey_water":"yes","sanitary_dump_station:round_drain":"yes","supervised":"no","tents":"no","water_point":"yes"}},"958748329":{"location":[44.5381112,6.4892859],"ct":"FR","tp":"CS","ts":"2021-12-28T21:05:35Z","tX":530,"tY":370,"tags":{"capacity":"80","caravans":"yes","internet_access":"wlan","name":"Camping Le Verger","stars":"4","tents":"yes","website":"https://www.campingleverger.fr/"}},"985639454":{"location":[44.5375172,6.4546126],"ct":"FR","tp":"CR","ts":"2024-05-22T14:12:26Z","tX":530,"tY":370,"tags":{"bbq":"no","capacity":"40","caravan_site":"motorhome_stopover","caravan_site:type":"mountains","caravans":"no","charge":"14.16 EUR","charge:conditional":"12.96 @ (Oct-Apr)","dog":"leashed","fee":"yes","internet_access":"wlan","maxlength":"none","name":"Aire Camping-car Park Crots","network":"CAMPING-CAR PARK","opening_hours":"24/7","power_supply:capacity":"48","power_supply:maxcurrent":"6","sanitary_dump_station":"yes","tents":"no","trailer":"yes","water_point":"yes","website":"https://www.campingcarpark.com/fr_FR/sejour/aire-etape-camping-car/provence-alpes-cote-dazur/05-hautes-alpes/crots"}},"1013228330":{"location":[44.5106837,6.5525352],"ct":"FR","tp":"CS","ts":"2024-09-28T15:15:23Z","tX":530,"tY":370,"tags":{"addr:place":"Le Pont","hide":"yes","name":"Camping à la ferme","phone":"+33 4 92 44 07 51","ref":"H51"}},"1308151475":{"location":[44.4282484,6.4339799],"ct":"FR","tp":"CR","ts":"2024-08-16T12:14:38Z","tX":530,"tY":370,"tags":{"capacity":"5","caravan_site":"motorhome_stopover","caravan_site:type":"village","description":"tourist tax to be paid at post office or city hall","fee":"tourst_tax","maxstay":"2 nights","name":"Aire de camping-car du Lauzet-Ubaye","sanitary_dump_station":"no","seasonal":"no","toilets":"yes","website":"https://www.lauzetubaye.fr/aire-camping"}},"1727963963":{"location":[44.4996529,6.5555712],"ct":"FR","tp":"SD","ts":"2024-08-07T12:23:22Z","tX":530,"tY":370,"tags":{"access":"yes","addr:place":"Champ Lacas","brand":"Flot Bleau","description:fr":"Jeton à retirer à l'Office de Tourisme","fee":"yes","operator":"Office de Tourisme","power_supply":"yes","waste":"yes","water_point":"yes"}},"5842142309":{"location":[44.5312758,6.4393877],"ct":"FR","tp":"CS","ts":"2018-08-19T16:49:17Z","tX":530,"tY":370,"tags":{"name":"La Pinede"}},"12115228006":{"location":[44.3899442,6.6526508],"ct":"FR","tp":"CR","ts":"2024-10-07T11:17:39Z","tX":530,"tY":370,"tags":{"caravan_site":"motorhome_stopover","caravan_site:type":"parking_lot; swimming_pool","fee":"no","name":"Aire de la piscine - Barcelonnette","power_supply":"no","sanitary_dump_station":"no","surface":"asphalt","website":"https://www.ville-barcelonnette.fr/les-parcs-a-camping-car.html"}},"12222229739":{"location":[44.5463621,6.6067582],"ct":"FR","tp":"CR","ts":"2024-10-10T09:05:56Z","tX":530,"tY":370,"tags":{"access":"yes","addr:city":"Crévoux","addr:postcode":"05200","addr:street":"Pré la Font","capacity":"10","caravan_site":"motorhome_stopover","caravan_site:type":"mountains;skiing","fee":"no","name":"Aire Camping-cars Crévoux Pré la Font","operator":"Ville de Crévoux","power_supply":"no","sanitary_dump_station":"yes","sanitary_dump_station:chemical_toilet":"yes","sanitary_dump_station:grey_water":"yes","sanitary_dump_station:round_drain":"yes","seasonal":"no","supervised":"no","tents":"no","water_point":"yes","water_point:fee":"no"}},"5732635541":{"location":[44.5248201,6.4006747],"ct":"FR","tp":"SD","ts":"2024-05-30T10:41:35Z","tX":530,"tY":370,"tags":{"access":"customers","fee":"yes","sanitary_dump_station:accepted":"black_water;grey_water;tank_chemicals","water_point":"yes"}},"5974710127":{"location":[44.5203842,6.3399865],"ct":"FR","tp":"SD","ts":"2018-10-11T10:41:56Z","tX":530,"tY":370,"tags":{"access":"customers","fee":"no"}},"5974710128":{"location":[44.5224279,6.3389729],"ct":"FR","tp":"SD","ts":"2018-10-11T10:41:56Z","tX":530,"tY":370,"tags":{"access":"customers","fee":"no"}},"6762227391":{"location":[44.3825242,6.6580474],"ct":"FR","tp":"SD","ts":"2019-08-31T18:29:13Z","tX":530,"tY":370,"tags":{"access":"customers","fee":"yes","opening_hours":"24/7","sanitary_dump_station:basin":"yes","sanitary_dump_station:round_drain":"yes"}},"8491047795":{"location":[44.5748103,6.6775236],"ct":"FR","tp":"SD","ts":"2021-11-20T14:40:26Z","tX":530,"tY":370,"tags":{"description":"Station de vidange pour Camping-car","fee":"no","operator":"Ville de Vars","sanitary_dump_station:chemical_toilet":"yes","sanitary_dump_station:grey_water":"yes","sanitary_dump_station:round_drain":"yes","water_point":"yes"}},"8491072875":{"location":[44.5464432,6.606653],"ct":"FR","tp":"SD","ts":"2024-10-04T11:54:06Z","tX":530,"tY":370,"tags":{"access":"yes","fee":"no","operator":"Ville de Crévoux","sanitary_dump_station:chemical_toilet":"yes","sanitary_dump_station:grey_water":"yes","sanitary_dump_station:round_drain":"yes","water_point":"yes"}},"9122439872":{"location":[44.3857532,6.6091534],"ct":"FR","tp":"SD","ts":"2024-08-16T11:32:35Z","tX":530,"tY":370,"tags":{"access":"yes","fee":"no","website":"https://www.tourisme-alpes-haute-provence.com/hebergement/saint-pons/apidae-aire-de-service-et-de-stationnement-camping-car-de-saint-pons-4866083/"}}}