{"172023150":{"location":[44.1773493,6.6209935],"ct":"FR","tp":"CS","ts":"2019-03-22T20:05:21Z","tX":530,"tY":371,"tags":{"capacity":"25","contact:email":"contact@camping-pommier.com","contact:phone":"+33 4 92 83 41 56","landuse":"tourism","name":"Les Pommiers","website":"http://www.camping-pommier.com"}},"399262439":{"location":[44.2213936,6.4467156],"ct":"FR","tp":"CS","ts":"2024-08-30T12:27:31Z","tX":530,"tY":371,"tags":{"capacity":"30","capacity:caravans":"30","capacity:tents":"30","caravans":"yes","dog":"yes","landuse":"tourism","name":"Le Mandala","phone":"+33 (0)6 01 76 93 59","power_supply":"yes","sanitary_dump_station":"no","shower":"yes","socket:cee_blue":"yes","stars":"3","tents":"yes","toilets":"yes","website":"https://www.camping-mandala.fr/"}},"413609174":{"location":[44.1713845,6.3555648],"ct":"FR","tp":"CS","ts":"2023-09-18T14:58:51Z","tX":530,"tY":371,"tags":{"landuse":"tourism","name":"Camping Municipal de La Javie"}},"458750286":{"location":[44.1381885,6.5907864],"ct":"FR","tp":"CS","ts":"2024-08-07T09:43:32Z","tX":530,"tY":371,"tags":{"addr:city":"Beauvezer","addr:street":"Route d'Allos","capacity":"155","landuse":"tourism","name":"Paradis Les Relarguiers","stars":"4","website":"https://www.relarguiers.fr/"}},"458750544":{"location":[44.1601889,6.6066069],"ct":"FR","tp":"CS","ts":"2023-11-06T20:01:18Z","tX":530,"tY":371,"tags":{"capacity":"109","landuse":"tourism","name":"Le Haut-Verdon","stars":"4","website":"https://www.lehautverdon.com/"}},"458751595":{"location":[44.1740884,6.6167884],"ct":"FR","tp":"CS","ts":"2019-03-20T13:47:30Z","tX":530,"tY":371,"tags":{"capacity":"40","landuse":"tourism","name":"Le Bois Joly","stars":"2","website":"http://www.colmarslesalpes-verdontourisme.com/hebergement/camping-le-bois-joly-570114/"}},"458752157":{"location":[44.2823949,6.3914758],"ct":"FR","tp":"CS","ts":"2019-08-29T16:53:56Z","tX":530,"tY":371,"tags":{"addr:city":"Seyne les Alpes","addr:country":"FR","addr:postcode":"04140","bbq":"yes","cabins":"yes","capacity":"57","caravans":"yes","drinking_water":"yes","email":"loupassavous@orange.fr","fee":"yes","internet_access":"wlan","internet_access:fee":"yes","landuse":"tourism","motor_vehicle":"yes","name":"Lou Passavous","operator":"Jan-Apr 30: off;May 01-Sep 15: Mo-Su 09:00-12:00,14:00-17:00; Sep 16-Dec 31 off","phone":"+33 492 35 14 67","power_supply":"cee_17_blue","sanitary_dump_station":"customers","stars":"3","swimming_pool":"yes","tents":"yes","website":"https://loupassavous.com/"}},"538317962":{"location":[44.2428034,6.6222246],"ct":"FR","tp":"CR","ts":"2024-10-08T17:48:39Z","tX":530,"tY":371,"tags":{"capacity":"20","caravan_site":"motorhome_stopover","caravan_site:type":"parking_lot","fee":"no","maxstay":"3 days","name":"Val d'Allos","power_supply":"yes","sanitary_dump_station":"yes","seasonal":"no","surface":"asphalt","water_point":"yes","website":"https://en.valdallos.com/val-d-allos-motorhome-park.html"}},"10976457500":{"location":[44.1792965,6.6276352],"ct":"FR","tp":"CR","ts":"2024-10-10T09:04:06Z","tX":530,"tY":371,"tags":{"caravan_site":"motorhome_stopover","caravan_site:type":"village;river","caravans":"no","dog":"yes","fee":"no","name":"Aire camping-cars de Colmars-les-Alpes","operator":"Colmars-les-Alpes","permanent_camping":"no","sanitary_dump_station":"yes","sanitary_dump_station:chemical_toilet":"no","sanitary_dump_station:grey_water":"no","tents":"no","water_point":"yes","water_point:conditional":"no@(Nov-Apr)","website":"https://www.verdontourisme.com/en/informations/hotellerie-plein-air-en/aire-camping-cars-de-colmars-les-alpes-en-4727690id/"}},"5799865096":{"location":[44.1793564,6.6264398],"ct":"FR","tp":"SD","ts":"2024-10-06T17:29:52Z","tX":530,"tY":371,"tags":{"fee":"yes","water_point":"yes"}},"6757544280":{"location":[44.282051,6.3912642],"ct":"FR","tp":"SD","ts":"2019-08-29T16:53:56Z","tX":530,"tY":371,"tags":{"access":"customers","fee":"no","sanitary_dump_station:basin":"yes"}},"11053992066":{"location":[44.2427016,6.6223258],"ct":"FR","tp":"SD","ts":"2024-09-05T18:20:38Z","tX":530,"tY":371,"tags":{"sanitary_dump_station:chemical_toilet":"yes","sanitary_dump_station:grey_water":"yes"}}}