{"68811520":{"location":[43.9615237,6.5103549],"ct":"FR","tp":"CS","ts":"2022-07-05T12:40:56Z","tX":530,"tY":372,"tags":{"alt_name":"Camping municipal","barrier":"fence","capacity":"200","internet_access":"wlan","landuse":"tourism","name":"Camping Les Iscles","source":"survey","stars":"2","survey:date":"2022-06-29","website":"http://www.camping-les-iscles.com"}},"93648442":{"location":[43.8377436,6.4951163],"ct":"FR","tp":"CS","ts":"2023-11-10T09:43:12Z","tX":530,"tY":372,"tags":{"capacity":"500","email":"contact@camp-du-verdon.com","fax":"+33 4 92 83 69 37","landuse":"tourism","name":"Camping Domaine du Verdon","phone":"+33 4 92 83 61 29","stars":"4","website":"https://www.camp-du-verdon.com/"}},"108219669":{"location":[43.8530227,6.5045002],"ct":"FR","tp":"CS","ts":"2024-09-28T13:34:11Z","tX":530,"tY":372,"tags":{"capacity":"55","landuse":"tourism","name":"Camping Le Pesquier","stars":"2","website":"https://www.camping-le-pasquier.com/"}},"108219887":{"location":[43.8460881,6.5154488],"ct":"FR","tp":"CR","ts":"2024-10-08T22:39:00Z","tX":530,"tY":372,"tags":{"capacity":"50","caravan_site":"motorhome_stopover","caravan_site:type":"town","charge":"9.60 EUR","fee":"yes","name":"Aire camping-cars La Boudousque - Castellane","opening_hours":"24/7","payment:coins":"yes","power_supply":"yes","power_supply:fee":"yes","sanitary_dump_station":"yes","seasonal":"no","toilets":"yes","water_point":"yes","water_point:conditional":"no@(\"winter\")","website":"https://www.mairie-castellane.fr/fiche/se-loger-a-castellane/hotellerie_plein_air/aire-d-accueil-municipale-camping-car-la-boudousque/746856/48066"}},"184447596":{"location":[43.9712557,6.6581542],"ct":"FR","tp":"CS","ts":"2020-03-20T17:08:46Z","tX":530,"tY":372,"tags":{"capacity":"64","caravans":"yes","fee":"yes","landuse":"tourism","name":"Camping La Ribière","power_supply":"yes","shower":"yes","stars":"2","tents":"yes","toilets":"yes","website":"https://www.la-ribiere.com/"}},"220990773":{"location":[43.8455172,6.5098569],"ct":"FR","tp":"CS","ts":"2024-06-17T08:30:25Z","tX":530,"tY":372,"tags":{"capacity":"65","caravans":"yes","drinking_water":"yes","landuse":"tourism","name":"Camping Le Frédéric Mistral","power_supply":"yes","shower":"yes","stars":"3","tents":"yes","toilets":"yes","website":"https://camping-fredericmistral.fr"}},"220990775":{"location":[43.8465786,6.5066741],"ct":"FR","tp":"CS","ts":"2024-10-11T11:19:31Z","tX":530,"tY":372,"tags":{"capacity":"57","internet_access":"no","landuse":"tourism","name":"Camping Les Lavandes","stars":"2","website":"https://www.camping-les-lavandes.com/"}},"229713921":{"location":[44.0786444,6.4969155],"ct":"FR","tp":"CS","ts":"2020-06-03T20:52:44Z","tX":530,"tY":372,"tags":{"caravans":"yes","landuse":"tourism","name":"Camping La ferme du Villard","phone":"+33 4 92 83 92 53","stars":"1","tents":"100","website":"http://www.campingduvillard.com/fr/"}},"295661766":{"location":[43.8587304,6.4990796],"ct":"FR","tp":"CS","ts":"2024-02-13T14:34:14Z","tX":530,"tY":372,"tags":{"addr:housenumber":"384","addr:street":"Route du Hameau de la Palud","capacity":"297","landuse":"tourism","name":"Camping Terra Verdon","opening_hours":"Mo-Fr 09:00-18:00; Sa 09:00-13:00","operator":"Ciela Village","phone":"+33 4 92 83 66 67","ref:FR:SIRET":"32534595700014","source":"prefecture 04","stars":"4","website":"https://www.camping-terra-verdon.com/"}},"301102826":{"location":[43.8371506,6.4900175],"ct":"FR","tp":"CS","ts":"2019-03-22T20:05:42Z","tX":530,"tY":372,"tags":{"landuse":"tourism","name":"Camping Calme et Nature","phone":"+33 4 92 83 61 57","stars":"3","url":"http://campingcastellane.com/"}},"301152456":{"location":[43.8656889,6.465318],"ct":"FR","tp":"CS","ts":"2024-05-12T12:35:15Z","tX":530,"tY":372,"tags":{"capacity":"27","email":"accueil@les-sirenes.com","landuse":"tourism","name":"Camping des Sirènes","phone":"+33 4 92 83 70 56","stars":"1","survey:date":"2024-05-12","website":"https://www.les-sirenes.com/"}},"357377605":{"location":[43.9531877,6.3753192],"ct":"FR","tp":"CS","ts":"2023-11-10T10:33:44Z","tX":530,"tY":372,"tags":{"capacity":"126","contact:email":"campingnapoleon@hotmail.com","contact:phone":"+33 4 92 34 22 70","landuse":"tourism","name":"Camping L'Or Bleu","stars":"3","website":"https://www.camping-napoleon.com/"}},"357492620":{"location":[43.8387558,6.5419691],"ct":"FR","tp":"CS","ts":"2024-07-16T14:48:02Z","tX":530,"tY":372,"tags":{"capacity":"48","contact:email":"accueil@camping-la-ferme.com","contact:phone":"+33 4 92 83 67 77","internet_access":"wlan","internet_access:fee":"no","landuse":"tourism","name":"Camping La Ferme","stars":"3","website":"https://camping-la-ferme.com/","wheelchair":"yes"}},"367677276":{"location":[43.9166162,6.5401033],"ct":"FR","tp":"CS","ts":"2023-09-02T16:43:40Z","tX":530,"tY":372,"tags":{"capacity":"70","caravans":"yes","contact:mobile":"+337 69 56 68 00","contact:phone":"+334 92 83 29 24","contact:website":"http://www.lecampingdulac.fr/","drinking_water":"yes","landuse":"tourism","name":"Camping du Lac","shower":"yes","stars":"2","tents":"yes","toilets":"yes"}},"383688281":{"location":[43.8565048,6.4941336],"ct":"FR","tp":"CS","ts":"2023-11-10T09:43:10Z","tX":530,"tY":372,"tags":{"capacity":"44","landuse":"tourism","name":"Camping Provençal","stars":"3","website":"https://www.camping-provencal.com/"}},"458462064":{"location":[43.8453332,6.5042394],"ct":"FR","tp":"CS","ts":"2024-06-14T07:49:23Z","tX":530,"tY":372,"tags":{"capacity":"44","caravans":"yes","drinking_water":"yes","landuse":"tourism","name":"Camping Notre-Dame","power_supply":"yes","shower":"yes","stars":"3","tents":"yes","website":"https://www.camping-notredame.com/"}},"458463802":{"location":[43.8857639,6.5132047],"ct":"FR","tp":"CS","ts":"2024-09-07T09:24:55Z","tX":530,"tY":372,"tags":{"addr:city":"Castellane","addr:postcode":"04120","addr:street":"La Baume","capacity":"150","fee":"yes","internet_access":"wlan","landuse":"tourism","name":"Clicochic Castillon de Provence","stars":"3"}},"458464562":{"location":[43.8707167,6.3728875],"ct":"FR","tp":"CS","ts":"2019-03-22T20:06:06Z","tX":530,"tY":372,"tags":{"capacity":"6","landuse":"tourism","name":"Les Ferrays"}},"458749467":{"location":[44.0065298,6.5576194],"ct":"FR","tp":"CS","ts":"2019-03-22T20:06:08Z","tX":530,"tY":372,"tags":{"capacity":"25","landuse":"tourism","name":"Camping L'Adrech","phone":"+33 4 92 89 17 81","stars":"2","website":"https://www.adrech.com/"}},"458749468":{"location":[43.9767103,6.509667],"ct":"FR","tp":"CS","ts":"2023-08-24T13:52:47Z","tX":530,"tY":372,"tags":{"capacity":"25","landuse":"tourism","name":"L'Issole","website":"https://www.camping-issole.com/"}},"516117531":{"location":[43.8724129,6.5113494],"ct":"FR","tp":"CR","ts":"2024-10-08T22:29:54Z","tX":530,"tY":372,"tags":{"bbq":"yes","capacity":"40","caravan_site":"motorhome_stopover","caravan_site:type":"countryside","charge":"10.60 EUR","dog":"yes","dog:fee":"no","fee":"yes","name":"Aire de stationnement Castellane","power_supply":"yes","power_supply:charge":"3 EUR","power_supply:fee":"yes","sanitary_dump_station":"yes","sanitary_dump_station:chemical_toilet":"yes","sanitary_dump_station:grey_water":"yes","website":"https://www.mairie-castellane.fr/fiche/se-loger-a-castellane/hotellerie_plein_air/aire-d-accueil-et-de-service-castellane-camping-cars/606582/48066"}},"543203209":{"location":[43.9616192,6.4758731],"ct":"FR","tp":"CS","ts":"2024-06-15T12:09:16Z","tX":530,"tY":372,"tags":{"landuse":"tourism","name":"Le Pastaïre"}},"605889505":{"location":[43.9631739,6.6644264],"ct":"FR","tp":"CR","ts":"2024-10-05T16:01:27Z","tX":530,"tY":372,"tags":{"caravan_site":"motorhome_stopover","caravan_site:type":"village","caravans":"no","dog":"yes","fee":"no","name":"Aire Camping Car d'Annot","power_supply":"no","sanitary_dump_station":"yes","sanitary_dump_station:chemical_toilet":"yes","sanitary_dump_station:grey_water":"yes","shadow":"yes","tents":"no","water_point":"yes","website":"https://www.verdontourisme.com/en/informations/hotellerie-plein-air-en/aire-camping-cars-dannot-en-586668id/"}},"1081228583":{"location":[44.02493,6.6317292],"ct":"FR","tp":"CR","ts":"2024-10-08T17:48:39Z","tX":530,"tY":372,"tags":{"caravan_site":"motorhome_stopover","caravan_site:type":"village","fee":"no","motorhome":"designated","name":"Aire camping-cars de Méailles","sanitary_dump_station":"yes","sanitary_dump_station:chemical_toilet":"yes","sanitary_dump_station:grey_water":"yes","seasonal":"summer","website":"https://www.tourisme-alpes-haute-provence.com/hebergement/meailles/apidae-aire-d-accueil-camping-car-de-meailles-5729357/"}},"1190495576":{"location":[43.8766976,6.5106902],"ct":"FR","tp":"CR","ts":"2024-10-08T17:48:39Z","tX":530,"tY":372,"tags":{"caravan_site":"motorhome_stopover","caravan_site:type":"farm_shop","charge":"EUR 16","fee":"yes","name":"Ferme de Cheyron","power_supply":"yes","seasonal":"summer","surface":"grass","website":"https://fermeducheiron.wixsite.com/castellane/camping"}},"1308276091":{"location":[43.8551568,6.5004133],"ct":"FR","tp":"CR","ts":"2024-08-16T15:00:17Z","tX":530,"tY":372,"tags":{"bbq":"yes","caravan_site":"motorhome_stopover","caravan_site:type":"countryside","charge":"10 EUR","dog":"yes","fee":"yes","name":"Aire camping-cars La Halte Napoléon","opening_hours":"24/7","power_supply":"yes","sanitary_dump_station":"yes","seasonal":"no","shadow":"yes","toilets":"yes","website":"https://www.tourisme-alpes-haute-provence.com/hebergement/castellane/apidae-aire-camping-cars-la-halte-napoleon-749380/"}},"7803386735":{"location":[43.8415861,6.5351019],"ct":"FR","tp":"CS","ts":"2020-08-11T09:23:01Z","tX":530,"tY":372,"tags":{"name":"Camping Les Framboiseilles","source":"data.gouv.fr:DATAtourisme - 05/2020"}},"5709236786":{"location":[43.8518639,6.5079671],"ct":"FR","tp":"SD","ts":"2018-06-21T16:54:45Z","tX":530,"tY":372,"tags":{"sanitary_dump_station:chemical_toilet":"yes","sanitary_dump_station:fee":"yes","sanitary_dump_station:gravity":"yes","sanitary_dump_station:grey_water":"yes","sanitary_dump_station:suction":"no"}},"11053985656":{"location":[44.0248805,6.6317672],"ct":"FR","tp":"SD","ts":"2023-07-19T00:32:15Z","tX":530,"tY":372,"tags":{}},"12206952887":{"location":[43.962991,6.664352],"ct":"FR","tp":"SD","ts":"2024-09-28T13:26:06Z","tX":530,"tY":372,"tags":{"access":"yes","fee":"no","sanitary_dump_station:chemical_toilet":"yes","sanitary_dump_station:grey_water":"yes","water_point":"yes"}}}