{"123152893":{"location":[43.780154,6.3486462],"ct":"FR","tp":"CS","ts":"2024-06-12T13:31:30Z","tX":530,"tY":373,"tags":{"capacity":"140","caravans":"yes","email":"campingmunicipallapalud@orange.fr","internet_access":"wlan","internet_access:fee":"no","landuse":"tourism","name":"Camping municipal le Grand Canyon","phone":"+33 4 92 77 38 13","power_supply":"yes","tents":"yes","website":"http://www.camping.lapaludsurverdon.com"}},"301102827":{"location":[43.7951459,6.4364026],"ct":"FR","tp":"CS","ts":"2022-01-21T11:15:40Z","tX":530,"tY":373,"tags":{"capacity":"100","fax":"+33 4 92 83 66 49","landuse":"tourism","name":"Camping Verdon Carajuan","opening_hours":"Apr 08-Sep30: 14:00-20:00","phone":"+33 4 92 83 70 94","stars":"2","website":"http://camping-gorgesduverdon-carajuan-rougon.com"}},"359282257":{"location":[43.8227882,6.4313268],"ct":"FR","tp":"CS","ts":"2023-03-11T15:14:10Z","tX":530,"tY":373,"tags":{"capacity":"253","email":"aremus@camping-gorgesduverdon.com","fax":"+33 4 92 83 74 72","fee":"yes","internet_access":"wlan","landuse":"tourism","name":"Huttopia Gorges du Verdon","operator":"Huttopia","phone":"+33 4 92 83 63 64","stars":"4","url":"https://europe.huttopia.com/site/camping-gorges-du-verdon/"}},"392926908":{"location":[43.8296961,6.4282099],"ct":"FR","tp":"CS","ts":"2023-03-15T14:48:38Z","tX":530,"tY":373,"tags":{"addr:housenumber":"8129","addr:street":"Route des Gorges du Verdon","capacity":"210","landuse":"tourism","name":"Domaine Chasteuil Verdon Provence","phone":"+33492836121","stars":"3","website":"https://www.chasteuil-provence.com"}},"458456769":{"location":[43.7829054,6.3496879],"ct":"FR","tp":"CS","ts":"2019-10-02T11:24:31Z","tX":530,"tY":373,"tags":{"contact:email":"campingbourras@gmail.com","email":"campingbourras@gmail.com","landuse":"tourism","name":"Camping à la Ferme de Bourras","phone":"+33 4 92 77 33 54"}},"458463428":{"location":[43.8233768,6.5680568],"ct":"FR","tp":"CS","ts":"2024-07-02T13:21:05Z","tX":530,"tY":373,"tags":{"capacity":"200","landuse":"tourism","name":"Les Collines de Castellane","stars":"4","website":"https://www.rcn.nl/fr/camping/france/gorges-du-verdon/rcn-les-collines-de-castellane"}},"589010716":{"location":[43.7783504,6.3382508],"ct":"FR","tp":"CS","ts":"2022-06-08T15:03:18Z","tX":530,"tY":373,"tags":{"capacity":"35","name":"Le Bourbon","phone":"+33618696826","shower":"yes"}},"814302244":{"location":[43.7782074,6.363858],"ct":"FR","tp":"CS","ts":"2020-06-09T18:34:40Z","tX":530,"tY":373,"tags":{"contact:phone":"+33 4 92 77 30 34","name":"La Maison d’Adèle","tents":"yes","website":"https://www.accueil-paysan-paca.com/adherent/marie-claude-lurot/"}},"952292692":{"location":[43.7721789,6.60275],"ct":"FR","tp":"CR","ts":"2024-10-03T13:19:16Z","tX":530,"tY":373,"tags":{"caravan_site":"motorhome_stopover","caravan_site:type":"village","charge":"5.44 EUR","description":"Camping Municipal Fontvieille","fee":"yes","motorhome":"yes","name":"Les Greyttes","tents":"yes","website":"https://www.tourinprovence.fr/hebergement/campings/3952-camping-des-greyttes.html"}},"954197542":{"location":[43.7605732,6.4425034],"ct":"FR","tp":"CR","ts":"2024-05-26T23:32:39Z","tX":530,"tY":373,"tags":{"capacity":"5","caravan_site":"motorhome_stopover","caravan_site:type":"village","fee":"no","maxstay":"3 days","name":"Aire Camping-car de Trigance","opening_hours":"Apr-Oct","power_supply":"yes","sanitary_dump_station":"yes","service:fee":"yes","water_point":"yes","website":"https://trigance.fr/le-village/camping-cars/"}},"965342861":{"location":[43.5854832,6.6674361],"ct":"FR","tp":"CS","ts":"2024-05-24T13:55:05Z","tX":530,"tY":373,"tags":{"access":"customers","addr:city":"Fayence","addr:housenumber":"477","addr:postcode":"83440","addr:street":"Chemin des Suanes Hautes","amenity:restaurant":"yes","bar":"yes","capacity":"46","caravans":"yes","description":"Naturist campsite and chalets","email":"contact@tuquette.com","fee":"yes","internet_access":"yes","internet_access:fee":"customers","name":"La Tuquette","nudism":"yes","opening_hours":"Apr 22 - Oct 1","operator":"Christiane and Robert","payment:cash":"yes","payment:cheque":"yes","phone":"+33 4 94 76 19 40","power_supply":"yes","reservation":"yes","sanitary_dump_station":"yes","shower":"yes","stars":"4","swimming_pool":"outdoor","tents":"yes","toilets":"yes","website":"http://www.tuquette.com/"}},"965343476":{"location":[43.5860826,6.6685201],"ct":"FR","tp":"CS","ts":"2023-04-28T19:38:43Z","tX":530,"tY":373,"tags":{"cabins":"yes","capacity:cabins":"11","caravans":"yes","contact:phone":"+334 66 60 07 00","name":"Camping Koawa Lou Cantaire","opening_hours":"Apr 7 - Oct 1","operator":"Koawa","shower":"yes","stars":"3","tents":"yes","toilets":"yes","website":"https://www.camping-lou-cantaire.com"}},"1042560332":{"location":[43.6082638,6.3810142],"ct":"FR","tp":"CR","ts":"2024-10-08T16:16:50Z","tX":530,"tY":373,"tags":{"addr:city":"Ampus","addr:postcode":"83111","caravan_site":"motorhome_stopover","caravan_site:type":"village","fee":"no","name":"Aire camping car Ampus","power_supply":"yes","power_supply:fee":"yes","surface":"asphalt","water_point":"yes","water_point:fee":"no"}},"1057594686":{"location":[43.7756109,6.3502515],"ct":"FR","tp":"CS","ts":"2023-06-25T10:17:03Z","tX":530,"tY":373,"tags":{"capacity":"10","charge":"5-10 EUR / night","email":"bio.verdon@gmail.com","fixme":"Surfaces à affiner","name":"Bio Verdon","operator:type":"private","phone":"+33 6 84 05 78 96","start_date":"2010","tents":"yes","website":"https://camping-bio-verdon.blogspot.com/"}},"1169373631":{"location":[43.7226059,6.6250982],"ct":"FR","tp":"CS","ts":"2024-04-21T12:14:58Z","tX":530,"tY":373,"tags":{"name":"Camping Municipal Notre-Dame","stars":"3"}},"1343876241":{"location":[43.6359567,6.6484625],"ct":"FR","tp":"CR","ts":"2024-12-19T20:58:05Z","tX":530,"tY":373,"tags":{}},"1674749641":{"location":[43.8201648,6.619951],"ct":"FR","tp":"CS","ts":"2012-03-17T06:09:00Z","tX":530,"tY":373,"tags":{"name":"Centre Equestre la Grande Bastide"}},"4366679689":{"location":[43.7152219,6.4988595],"ct":"FR","tp":"CS","ts":"2017-02-04T10:03:12Z","tX":530,"tY":373,"tags":{"name":"Camping Municipal des Pontets"}},"6449396330":{"location":[43.7122772,6.5088383],"ct":"FR","tp":"CS","ts":"2023-11-08T14:17:17Z","tX":530,"tY":373,"tags":{"email":"camping@humawaka.com","name":"Humawaka","phone":"+33 6 69 40 57 92","website":"https://humawaka.fr/"}},"8709636052":{"location":[43.7651993,6.4750675],"ct":"FR","tp":"CS","ts":"2023-02-04T13:34:46Z","tX":530,"tY":373,"tags":{"name":"Camping à la Ferme","operator":"Domaine de Bagarry","phone":"+33 6 76 85 32 90","website":"https://www.tourinprovence.fr/hebergement/campings/4643-camping-a-la-ferme-du-domaine-de-bagarry.html"}},"5139729989":{"location":[43.6321368,6.6488595],"ct":"FR","tp":"CR","ts":"2024-10-08T17:28:46Z","tX":530,"tY":373,"tags":{"capacity":"3","caravan_site":"motorhome_stopover","caravan_site:type":"street_side","fee":"no","maxstay":"1 day","name":"Seillans Aire Municipale","power_supply":"no","sanitary_dump_station":"yes","seasonal":"no","water_point":"yes"}},"5486418625":{"location":[43.7605769,6.4423846],"ct":"FR","tp":"SD","ts":"2018-03-18T13:25:54Z","tX":530,"tY":373,"tags":{"fee":"yes","sanitary_dump_station:chemical_toilet":"yes","sanitary_dump_station:grey_water":"yes","water_point":"yes"}},"11056713261":{"location":[43.632345,6.6485833],"ct":"FR","tp":"SD","ts":"2023-07-20T12:35:49Z","tX":530,"tY":373,"tags":{"fee":"no","motorhome":"designated","name":"Seillans","website":"https://www.paysdefayence.com/campings/aire-de-services-municipales-camping-car-de-seillans/"}}}