{"26858757":{"location":[43.4765798,6.6387165],"ct":"FR","tp":"CS","ts":"2013-10-05T18:59:48Z","tX":530,"tY":374,"tags":{"name":"Lei Suves"}},"26858943":{"location":[43.450833,6.633611],"ct":"FR","tp":"CS","ts":"2013-07-21T09:55:40Z","tX":530,"tY":374,"tags":{"name":"Pecheurs"}},"33265768":{"location":[43.3304915,6.6667358],"ct":"FR","tp":"CS","ts":"2019-03-22T20:05:07Z","tX":530,"tY":374,"tags":{"landuse":"tourism","name":"Camping \"Les Cigalons\"","source":"cadastre-dgi-fr source : Direction Générale des Impôts - Cadastre. Mise à jour : 2009"}},"259999758":{"location":[43.4599529,6.5439456],"ct":"FR","tp":"CS","ts":"2022-10-15T11:25:22Z","tX":530,"tY":374,"tags":{"campers":"yes","caravans":"no","drinking_water":"yes","landuse":"tourism","name":"Camping Les Cigales","power_supply":"yes","shower":"yes","tents":"yes","toilets":"yes","toilets:wheelchair":"limited","wheelchair":"limited"}},"440509927":{"location":[43.4705803,6.679355],"ct":"FR","tp":"CS","ts":"2019-03-22T20:05:59Z","tX":530,"tY":374,"tags":{"addr:city":"Puget-sur-Argens","addr:housenumber":"1056","addr:postcode":"83480","addr:street":"Chemin des Suvières","landuse":"tourism","name":"La Bastiane","name:oc":"La Bastiana"}},"488475613":{"location":[43.5454125,6.4378144],"ct":"FR","tp":"CS","ts":"2009-11-22T05:14:05Z","tX":530,"tY":374,"tags":{"source":"cadastre-dgi-fr source : Direction Générale des Impôts - Cadastre. Mise à jour : 2009"}},"493039405":{"location":[43.5751573,6.5312374],"ct":"FR","tp":"CS","ts":"2024-06-10T16:23:06Z","tX":530,"tY":374,"tags":{"addr:city":"Callas","addr:housenumber":"1776","addr:postcode":"83830","addr:street":"RD 225","contact:email":"villaverde@camping-villaverde.com","contact:phone":"+33 4 94 47 83 41","landuse":"tourism","name":"Domaine Villa Verde","website":"https://www.camping-villaverde.com"}},"668991709":{"location":[43.4458728,6.4733827],"ct":"FR","tp":"CS","ts":"2024-10-02T12:11:54Z","tX":530,"tY":374,"tags":{"addr:housenumber":"126","addr:street":"Chemin des Eaux Vives","caravans":"yes","contact:email":"campingleauvive@sfr.fr","contact:phone":"+33 4 94 47 40 66","contact:website":"http://www.campingleauvive.fr/","internet_access":"yes","landuse":"tourism","name":"Le camping de l’eau vive","stars":"3","static_caravans":"yes"}},"717576996":{"location":[43.4413702,6.4279412],"ct":"FR","tp":"CS","ts":"2022-09-16T11:56:10Z","tX":530,"tY":374,"tags":{"name":"Camping de la Vallée de Taradeau"}},"790786957":{"location":[43.4688783,6.5490612],"ct":"FR","tp":"CS","ts":"2020-04-11T16:01:31Z","tX":530,"tY":374,"tags":{"cabins":"only"}},"813636767":{"location":[43.4698087,6.5920061],"ct":"FR","tp":"CS","ts":"2023-11-16T16:04:17Z","tX":530,"tY":374,"tags":{"addr:housenumber":"1617","addr:street":"Route de Fréjus","caravans":"yes","drinking_water":"yes","internet_access":"wlan","name":"Domaine de la Noguiere","power_supply":"yes","shower":"yes","tents":"yes","toilets":"yes"}},"966015356":{"location":[43.5537695,6.560989],"ct":"FR","tp":"CS","ts":"2024-05-24T14:41:14Z","tX":530,"tY":374,"tags":{"access":"customers","addr:city":"CALLAS","addr:postcode":"83830","addr:street":"Route de Grasse – R.D. 562","capacity":"100","contact:phone":"+33494679520","contact:website":"https://www.lahautegarduere.fr","description":"Centre de Vacances et terrain de club, familial et très convivial, niché au cœur d’un vaste domaine naturel de 70 hectares, entièrement naturiste.","email":"lahautegarduere@yahoo.fr","fee":"yes","name":"Domaine La Haute Garduère","nudism":"yes","operator":"Annie DIZIER","pet":"yes","pets_allowed":"dogs","phone":"+33494679520","website":"https://www.lahautegarduere.fr"}},"1102349826":{"location":[43.5169558,6.4790322],"ct":"FR","tp":"CS","ts":"2023-11-27T07:01:54Z","tX":530,"tY":374,"tags":{"name":"Camping de la Foux","stars":"2","website":"https://www.camping-lafoux.com/"}},"1190267057":{"location":[43.3588039,6.3289029],"ct":"FR","tp":"CS","ts":"2024-10-09T22:36:54Z","tX":530,"tY":374,"tags":{"capacity:pitches":"105","caravans":"yes","dog":"yes","fax":"+33 4 94 60 99 26","fee":"yes","internet_access":"wlan","motorhome":"yes","name":"Les Bruyères","phone":"+33 4 94 73 47 07","power_supply":"yes","power_supply:maxcurrent":"10","swimming_pool":"yes","tents":"yes","website":"https://www.camping-les-bruyeres-83.com/"}},"1236967436":{"location":[43.4740385,6.6375607],"ct":"FR","tp":"CS","ts":"2024-01-04T16:56:34Z","tX":530,"tY":374,"tags":{"addr:housenumber":"1160","addr:street":"Route de Marchandise","name":"Camping de Parpaillon","phone":"+33494198904"}},"1680929272":{"location":[43.4213127,6.3373866],"ct":"FR","tp":"CS","ts":"2024-04-17T13:51:25Z","tX":530,"tY":374,"tags":{"addr:postcode":"83340","addr:street":"Route du Thoronet","internet_access":"wlan","name":"Domaine de la cigalière","phone":"+33494738106;+33680543645","website":"https://www.domaine-lacigaliere.com/"}},"3924123260":{"location":[43.452693,6.4909505],"ct":"FR","tp":"SD","ts":"2016-01-02T18:58:45Z","tX":530,"tY":374,"tags":{}},"7005938593":{"location":[43.4454331,6.6581006],"ct":"FR","tp":"CS","ts":"2019-11-24T11:34:12Z","tX":530,"tY":374,"tags":{"addr:city":"Roquebrune-sur-Argens","addr:postcode":"83520","addr:street":"Chemin du Moulin des Iscles","name":"Camping du Moulin des Iscles"}},"11944819332":{"location":[43.452796,6.6329008],"ct":"FR","tp":"CR","ts":"2024-05-30T11:43:47Z","tX":530,"tY":374,"tags":{"caravan_site":"motorhome_stopover","caravan_site:type":"farm_shop","charge":"25 EUR purchase at farm store","fee":"yes","fee:conditional":"no @ (Oct-Apr)","name":"Espace Arena - Roquebrune sur Argens","sanitary_dump_station":"yes","water_point":"yes"}},"10712945445":{"location":[43.4678475,6.671347],"ct":"FR","tp":"SD","ts":"2023-03-05T19:57:09Z","tX":530,"tY":374,"tags":{"name":"Vidange CC"}},"11982607664":{"location":[43.4783681,6.6385869],"ct":"FR","tp":"SD","ts":"2024-06-15T09:36:28Z","tX":530,"tY":374,"tags":{}}}