{"8956344":{"location":[43.2826082,6.5854174],"ct":"FR","tp":"CS","ts":"2024-12-04T12:42:19Z","tX":530,"tY":375,"tags":{"caravans":"yes","contact:phone":"+33 4 94 56 31 15","name":"Camping de la plage","stars":"4","tents":"yes","website":"https://www.camping-de-la-plage.fr/"}},"8956345":{"location":[43.2842173,6.5904209],"ct":"FR","tp":"CS","ts":"2024-09-24T18:23:45Z","tX":530,"tY":375,"tags":{"alt_name":"Camping Les Mûres","backcountry":"no","cabins":"yes","caravans":"yes","check_date":"2024-09-24","dog":"yes","drinking_water":"yes","dryer":"no","email":"info@camping-des-mures.com","fee":"yes","internet_access":"wlan","internet_access:fee":"yes","kitchen":"no","name":"Camping Des Mûres","naturism":"no","nudism":"no","openfire":"no","payment:cash":"no","payment:girocard":"no","payment:mastercard":"no","payment:visa":"no","phone":"+33 4 94 56 16 97","power_supply":"yes","reservation":"required","sanitary_dump_station":"yes","sauna":"no","scout":"no","shower":"yes","smoking":"yes","stars":"4","static_caravans":"no","toilets":"yes","washing_machine":"yes","website":"https://www.camping-des-mures.com"}},"14890622":{"location":[43.2620665,6.5358316],"ct":"FR","tp":"CS","ts":"2022-11-15T12:20:31Z","tX":530,"tY":375,"tags":{"name":"Domaine Marin de Grimaud","permanent_camping":"yes"}},"26858582":{"location":[43.2407744,6.5734098],"ct":"FR","tp":"CS","ts":"2024-06-08T19:18:47Z","tX":530,"tY":375,"tags":{"addr:city":"Gassin","addr:housenumber":"370","addr:postcode":"83580","addr:street":"Route du Bourrian","dog":"yes","drinking_water":"yes","fee":"yes","internet_access":"wlan","internet_access:fee":"yes","name":"Parc Saint-James-Montana","openfire":"no","phone":"+33 4 94 55 20 20","power_supply":"yes","reservation":"required","shower":"yes","stars":"4","toilets":"yes","website":"https://camping-parcsaintjames.com"}},"37027819":{"location":[43.1835684,6.5152301],"ct":"FR","tp":"CS","ts":"2019-03-22T20:05:08Z","tX":530,"tY":375,"tags":{"cabins":"yes","caravans":"yes","landuse":"tourism","name":"Cros de Mouton","openfire":"no","shop":"yes","tents":"yes"}},"65279163":{"location":[43.2147016,6.639824],"ct":"FR","tp":"CS","ts":"2025-05-21T09:12:09Z","tX":530,"tY":375,"tags":{"landuse":"tourism","name":"La Croix du Sud","opening_hours":"Apr-Sep","operator":"Campéole","stars":"3"}},"88206794":{"location":[43.1559789,6.4289973],"ct":"FR","tp":"CS","ts":"2019-03-22T20:05:11Z","tX":530,"tY":375,"tags":{"landuse":"tourism","name":"Camping Les Mimosas"}},"88242973":{"location":[43.152236,6.4317994],"ct":"FR","tp":"CR","ts":"2024-11-02T16:09:10Z","tX":530,"tY":375,"tags":{"addr:city":"Le Lavandou","addr:postcode":"83980","bbq":"no","capacity":"46","caravan_site":"motorhome_stopover","caravan_site:type":"beach","caravans":"no","charge":"26.72 EUR","charge:conditional":"21.72 EUR @ (Nov 4-Apr 18)","dog":"leashed","fee":"yes","internet_access":"no","maxlength":"none","name":"Le Lavandou","network":"CAMPING-CAR PARK","power_supply":"yes","power_supply:capacity":"48","power_supply:fee":"no","power_supply:maxcurrent":"6","sanitary_dump_station":"yes","sanitary_dump_station:chemical_toilet":"yes","sanitary_dump_station:grey_water":"yes","tents":"no","trailer":"no","water_point":"yes","website":"https://www.campingcarpark.com/fr_FR/sejour/aire-etape-camping-car/provence-alpes-cote-dazur/83-var/le-lavandou"}},"116645517":{"location":[43.2040851,6.6521389],"ct":"FR","tp":"CS","ts":"2021-11-01T12:12:13Z","tX":530,"tY":375,"tags":{"contact:email":"info@tournels.com","contact:phone":"+334 94 55 90 90","landuse":"tourism","name":"Les Tournels","stars":"5","website":"https://www.tournels.com/"}},"121513723":{"location":[43.1338204,6.3281361],"ct":"FR","tp":"CS","ts":"2022-05-09T14:30:04Z","tX":530,"tY":375,"tags":{"capacity":"50","caravans":"yes","contact:email":"dominique.cavatore74@orange.fr","contact:phone":"+334 94 64 86 24","landuse":"tourism","name":"La Chevrerie","opening_hours":"Jun 01-Sep 01","source":"BDOrtho IGN","stars":"1","tents":"yes","website":"https://www.bormeslesmimosas.com/fr/diffusio/hotellerie-plein-air/la-chevrerie-bormes-les-mimosas_TFO917971"}},"126083606":{"location":[43.1346087,6.3527338],"ct":"FR","tp":"CS","ts":"2022-05-09T14:38:48Z","tX":530,"tY":375,"tags":{"caravans":"yes","contact:phone":"+334 94 71 25 30","internet_access":"wlan","landuse":"tourism","name":"Beau Séjour","stars":"2","website":"https://www.caravaning-beausejour.com/"}},"126083608":{"location":[43.1356452,6.3535408],"ct":"FR","tp":"CS","ts":"2019-11-21T14:22:35Z","tX":530,"tY":375,"tags":{"caravans":"yes","contact:phone":"+334 94 71 03 93","landuse":"tourism","name":"Saint-Pons","stars":"3","tents":"yes","website":"https://www.provenceweb.fr/83/saintpons/camping.htm"}},"126083626":{"location":[43.1343362,6.3534816],"ct":"FR","tp":"CS","ts":"2023-11-27T07:01:53Z","tX":530,"tY":375,"tags":{"caravans":"yes","contact:phone":"+334 94 64 96 15","landuse":"tourism","name":"Les Citronniers","stars":"2","tents":"yes","website":"https://www.campinglescitronniers.com/"}},"185909651":{"location":[43.3247863,6.6219051],"ct":"FR","tp":"CS","ts":"2019-03-22T20:05:24Z","tX":530,"tY":375,"tags":{"landuse":"tourism","name":"Le Baumettes"}},"186428168":{"location":[43.167875,6.5188537],"ct":"FR","tp":"CS","ts":"2025-04-25T08:17:39Z","tX":530,"tY":375,"tags":{"caravans":"yes","drinking_water":"yes","internet_access":"wlan","landuse":"tourism","name":"Bonporteau","power_supply":"yes","shower":"yes","tents":"yes","toilets":"yes"}},"186428198":{"location":[43.1689717,6.5299938],"ct":"FR","tp":"CS","ts":"2023-10-31T04:30:41Z","tX":530,"tY":375,"tags":{"addr:city":"Cavalaire-sur-Mer","addr:postcode":"83240","addr:street":"Boulevard de Pasteur","caravans":"yes","drinking_water":"yes","email":"contact@camping-baie.com","internet_access":"wlan","landuse":"tourism","name":"Camping de la Baie","opening_hours":"Nov 16-Mar 14 off","phone":"+33 4 94 64 08 15","power_supply":"cee_7_5","shower":"yes","stars":"4","swimming_pool":"yes","tents":"yes","toilets":"yes","website":"https://www.camping-baie.com/"}},"186428633":{"location":[43.1959495,6.5554464],"ct":"FR","tp":"CS","ts":"2019-03-22T20:05:24Z","tX":530,"tY":375,"tags":{"landuse":"tourism","name":"Selection"}},"198343861":{"location":[43.2699247,6.5706592],"ct":"FR","tp":"CS","ts":"2019-03-23T16:18:21Z","tX":530,"tY":375,"tags":{"internet_access":"wlan","landuse":"tourism","name":"Holiday Marina","stars":"5","website":"https://www.holiday-marina.com/"}},"220041812":{"location":[43.2888716,6.5771124],"ct":"FR","tp":"CS","ts":"2022-10-01T12:18:21Z","tX":530,"tY":375,"tags":{"caravans":"no","landuse":"tourism","name":"Domaine des Naiades","operator":"Marvilla Parks","stars":"4","tents":"no","website":"https://www.lesnaiades.com"}},"230874856":{"location":[43.2785496,6.5801646],"ct":"FR","tp":"CS","ts":"2025-01-07T14:49:11Z","tX":530,"tY":375,"tags":{"access":"customers","addr:city":"Grimaud","addr:housenumber":"1910","addr:postcode":"83310","addr:street":"Route du Littoral","caravans":"no","description":"Bienvenue aux Prairies de la Mer, un hotel de plein air***** situé à Port Grimaud, le lieu idéal pour une expérience de vacances dépaysantes et haut de gamme, en plein cœur de la Méditerranée.","email":"prairies@riviera-villages.com","landuse":"tourism","name":"Prairies de la Mer","operator":"Riviera Village","payment:cash":"yes","payment:credit_cards":"yes","payment:debit_cards":"yes","payment:notes":"yes","payment:visa":"yes","phone":"04 94 79 09 09","tents":"no","website":"https://www.riviera-villages.com/Les-Prairies-de-la-Mer"}},"241103124":{"location":[43.1174221,6.3552756],"ct":"FR","tp":"CS","ts":"2024-07-12T17:24:41Z","tX":530,"tY":375,"tags":{"caravans":"yes","landuse":"tourism","name":"Camp du Domaine","phone":"+33 4 94 71 03 12","source":"BDOrtho IGN;cadastre-dgi-fr 2017","stars":"5","tents":"yes","website":"https://www.campdudomaine.com/"}},"241103148":{"location":[43.1232342,6.3497952],"ct":"FR","tp":"CS","ts":"2023-10-31T04:29:18Z","tX":530,"tY":375,"tags":{"caravans":"yes","contact:email":"contact@campinglacelinette.fr","contact:phone":"+334 94 71 07 98","landuse":"tourism","name":"La Celinette","stars":"2","tents":"yes","website":"https://www.campinglacelinette.fr/"}},"332676179":{"location":[43.1889073,6.4732231],"ct":"FR","tp":"CS","ts":"2023-10-31T04:28:59Z","tX":530,"tY":375,"tags":{"contact:phone":"+33 4 94 55 70 80","internet_access":"wlan","internet_access:fee":"no","landuse":"tourism","name":"Pachacaïd","stars":"4","website":"https://www.pachacaid.com/"}},"340079369":{"location":[43.241152,6.661314],"ct":"FR","tp":"CS","ts":"2024-01-02T15:14:55Z","tX":530,"tY":375,"tags":{"addr:city":"Ramatuelle","addr:housenumber":"1378","addr:postcode":"83350","addr:street":"Chemin des Moulins","contact:email":"camping-lavigneraie1860@orange.fr","contact:phone":"+33 4 94 97 17 03","contact:website":"https://www.la-vigneraie-1860.fr/fr-fr/","landuse":"tourism","name":"La Vigneraie 1860"}},"340079371":{"location":[43.2370983,6.6605056],"ct":"FR","tp":"CS","ts":"2025-01-07T14:37:50Z","tX":530,"tY":375,"tags":{"access":"customers","addr:city":"Ramatuelle","addr:housenumber":"842","addr:postcode":"83350","addr:street":"Chemin des Tamaris","description":"Toison d’Or profite de son emplacement exceptionnel sur la plage de Pampelonne pour proposer deux ambiances au gré des saisons.","dog":"yes","email":"toison@riviera-villages.com","internet_access":"yes","landuse":"tourism","name":"Toison d'Or","operator":"Riviera Villages","phone":"+33 (0)4 94 79 83 54","reservation":"recommended","stars":"5","wheelchair":"yes"}},"389229267":{"location":[43.27859,6.5699322],"ct":"FR","tp":"CS","ts":"2020-08-12T13:06:22Z","tX":530,"tY":375,"tags":{"caravans":"yes","contact:phone":"+336 63 57 92 70","landuse":"tourism","name":"Camping à la ferme","tents":"yes","website":"https://www.campingferrero.fr/"}},"422617912":{"location":[43.1953469,6.5525302],"ct":"FR","tp":"CS","ts":"2024-05-30T09:56:41Z","tX":530,"tY":375,"tags":{"addr:city":"La Croix-Valmer","addr:country":"FR","addr:housenumber":"393","addr:postcode":"84420","addr:street":"Boulevard de la Mer","capacity":"158","caravans":"yes","fee":"yes","internet_access":"wlan","landuse":"tourism","name":"GCU La Croix-Valmer","operator":"Groupement des Campeurs Universitaires","phone":"+33 4 94 79 78 97","sanitary_dump_station":"customers","stars":"2","static_caravans":"yes","tents":"yes","website":"https://www.gcu.asso.fr/terrains/la-croix-valmer-var-83","wheelchair":"limited"}},"424715507":{"location":[43.2317824,6.660084],"ct":"FR","tp":"CS","ts":"2025-01-07T14:35:15Z","tX":530,"tY":375,"tags":{"access":"customers","addr:city":"Ramatuelle","addr:housenumber":"4363","addr:postcode":"83350","addr:street":"route des plages","description":"À mi-chemin entre la mer bleu azur et les vignes de Provence, Kon Tiki est entièrement sécurisé et propose une grande variété de services et de commerces haut de gamme.","dog":"yes","email":"kontiki@riviera-villages.com","fee":"yes","internet_access":"yes","landuse":"tourism","name":"Kon Tiki","operator":"Riviera Villages","payment:cash":"yes","payment:credit_cards":"yes","payment:debit_cards":"yes","payment:mastercard":"yes","payment:visa":"yes","phone":"+33 (0)4 94 55 96 96","reservation":"recommended","stars":"5"}},"424836075":{"location":[43.2116355,6.6615022],"ct":"FR","tp":"CR","ts":"2025-06-19T16:26:18Z","tX":530,"tY":375,"tags":{"capacity":"200","caravan_site":"motorhome_stopover","caravan_site:type":"beach","caravans":"no","charge":"22 EUR/24Hour","charge:conditional":"12 EUR @ (Oct 14-Mar 27)","dog":"yes","fee":"yes","internet_access":"no","internet_access:fee":"no","maxstay":"48 hours","name":"Ramatuelle Aire Municipale de Stationnement pour Camping-Car","operator":"Commune de Ramatuelle","payment:credit_cards":"yes","sanitary_dump_station":"yes","tourist_tax":"0.66 € per day per person","website":"https://www.ramatuelle-tourisme.com/fr/hebergement/aire-de-service-accueil-camping-cars/ramatuelle/aire-municipale-de-stationnement-pour-camping-car-4601094/","wheelchair":"yes"}},"426148505":{"location":[43.130016,6.3504255],"ct":"FR","tp":"CS","ts":"2023-10-31T04:30:56Z","tX":530,"tY":375,"tags":{"caravans":"yes","contact:phone":"+334 94 71 08 41","landuse":"tourism","name":"Le Grand Batailler","source":"BDOrtho IGN 2014","tents":"yes","website":"https://www.campingdugrandbatailler.com/"}},"426154381":{"location":[43.1351238,6.3476662],"ct":"FR","tp":"CS","ts":"2019-03-21T06:28:07Z","tX":530,"tY":375,"tags":{"contact:email":"contact@claumarjo.fr","contact:phone":"+334 94 71 53 39","landuse":"tourism","name":"Clau mar Jo","website":"http://www.camping-clau-mar-jo.fr"}},"426154533":{"location":[43.1239116,6.330496],"ct":"FR","tp":"CS","ts":"2024-02-06T13:26:29Z","tX":530,"tY":375,"tags":{"contact:email":"info@campinglagriotte.com","contact:phone":"+33 4 94 15 20 72","landuse":"tourism","name":"Camping Lou Cabasson","website":"https://www.campingloucabasson.com/"}},"426594765":{"location":[43.2360695,6.6142493],"ct":"FR","tp":"CS","ts":"2024-10-08T09:40:41Z","tX":530,"tY":375,"tags":{"addr:city":"Ramatuelle","addr:housenumber":"229","addr:postcode":"83350","addr:street":"Chemin des Piboules","caravans":"yes","email":"pierre.campana0945@gmail.com","fee":"yes","internet_access":"wlan","landuse":"tourism","motorhome":"yes","name":"La Rouillère","opening_hours":"Apr 8 - Oct 10","payment:cash":"yes","payment:cheque":"yes","payment:credit_cards":"yes","phone":"+33 4 94 79 28 67;+33 6 71 64 59 09","power_supply:maxcurrent":"10","static_caravans":"yes","tents":"yes","washing_machine":"yes","website":"https://www.camping-var-ramatuelle.com/"}},"429475235":{"location":[43.2056396,6.6407296],"ct":"FR","tp":"CS","ts":"2021-12-26T01:11:18Z","tX":530,"tY":375,"tags":{"caravans":"yes","dog":"yes","email":"junetto@yahoo.fr","fax":"+33 4 94792485","internet_access":"wlan","internet_access:fee":"no","landuse":"tourism","name":"Camping à la ferme \"Chez Marcel\"","openfire":"no","opening_hours":"May-Sep","phone":"+33 7 85085268;+33 6 19434313","power_supply":"yes","tents":"20","website":"http://location-roumegou.com/"}},"430606824":{"location":[43.2563804,6.5135736],"ct":"FR","tp":"CS","ts":"2025-06-16T14:59:45Z","tX":530,"tY":375,"tags":{"caravans":"yes","drinking_water":"yes","landuse":"tourism","name":"L'Argentière","operator":"Sunêlia","power_supply":"yes","sanitary_dump_station":"yes","shower":"yes","stars":"4","tents":"yes","toilets":"yes"}},"437610117":{"location":[43.1925787,6.63637],"ct":"FR","tp":"CS","ts":"2019-06-07T09:22:33Z","tX":530,"tY":375,"tags":{"landuse":"tourism","name":"Cap Taillat","sauna":"yes"}},"443381308":{"location":[43.2394558,6.6608139],"ct":"FR","tp":"CS","ts":"2024-03-19T11:39:37Z","tX":530,"tY":375,"tags":{"capacity:caravans":"12","caravans":"yes","fee":"yes","landuse":"tourism","name":"Les Tamaris","payment:cash":"yes"}},"448369747":{"location":[43.1579495,6.4482198],"ct":"FR","tp":"CS","ts":"2024-07-05T09:16:07Z","tX":530,"tY":375,"tags":{"caravans":"yes","drinking_water":"yes","landuse":"tourism","name":"Parc Camping de Pramousquier","power_supply":"yes","shower":"yes","tents":"yes","url":"https://www.campingpramousquier.com/"}},"463822741":{"location":[43.3167794,6.630284],"ct":"FR","tp":"CR","ts":"2023-12-18T12:44:46Z","tX":530,"tY":375,"tags":{"addr:city":"Sainte-Maxime","addr:postcode":"83120","addr:street":"Rond-Point de Neuenbürg","caravan_site":"motorhome_stopover","caravan_site:type":"parking_lot","caravans":"no","charge":"12 EUR/night","charge:conditional":"7 EUR @ (Oct-Mar)","fee":"yes","maxstay":"48 hours","name":"Aire camping car Sainte-Maxime","opening_hours":"24/7","power_supply":"no","sanitary_dump_station":"yes","seasonal":"no","surface":"asphalt","tents":"no","water_point":"yes"}},"489921988":{"location":[43.133393,6.3520849],"ct":"FR","tp":"CS","ts":"2019-11-21T13:58:28Z","tX":530,"tY":375,"tags":{"contact:phone":"+334 94 71 26 05","landuse":"tourism","name":"A la ferme Giraud","source":"BDOrtho IGN 2014"}},"512532311":{"location":[43.1218801,6.3486312],"ct":"FR","tp":"CS","ts":"2024-05-29T13:44:30Z","tX":530,"tY":375,"tags":{"addr:city":"Bormes-les-Mimosas","addr:country":"FR","addr:housenumber":"17","addr:postcode":"83230","addr:street":"Impasse du Houx","capacity":"231","caravans":"yes","fee":"yes","internet_access":"wlan","landuse":"tourism","name":"GCU Bormes-les-Mimosas La Favière","operator":"Groupement des Campeurs Universitaires de France","phone":"+33 4 94 71 43 40","sanitary_dump_station":"customers","source":"BDOrtho IGN;knowledge 2017-08","stars":"2","static_caravans":"yes","tents":"yes","website":"https://www.gcu.asso.fr/terrains/bormes-les-mimosas-la-favi%C3%A8re-var-83","wheelchair":"limited"}},"613681461":{"location":[43.1026683,6.3315323],"ct":"FR","tp":"CS","ts":"2024-05-29T13:40:37Z","tX":530,"tY":375,"tags":{"addr:city":"Bormes-les-Mimosas","addr:country":"FR","addr:housenumber":"235","addr:postcode":"83230","addr:street":"Route du Bout du Monde","capacity":"37","caravans":"yes","internet_access":"wlan","landuse":"tourism","name":"GCU Bormes-les-Mimosas Cabasson","operator":"Groupement des Campeurs Universitaires","phone":"+33 4 94 15 28 43","stars":"2","static_caravans":"no","tents":"yes","website":"https://www.gcu.asso.fr/terrains/bormes-les-mimosas-cabasson-var-83","wheelchair":"limited"}},"624797400":{"location":[43.1972931,6.5448119],"ct":"FR","tp":"CS","ts":"2024-05-29T14:13:25Z","tX":530,"tY":375,"tags":{"addr:city":"Cavalaire -sur-Mer","addr:country":"FR","addr:postcode":"84420","addr:street":"Rue de Pardigon","capacity":"99","caravans":"yes","drinking_water":"yes","fee":"yes","landuse":"tourism","name":"GCU Cavalaire Le Paradou","operator":"Groupement des Campeurs Universitaires","phone":"+33 4 94 64 05 47","power_supply":"yes","shower":"yes","stars":"2","static_caravans":"yes","tents":"yes","toilets":"yes","website":"https://www.gcu.asso.fr/"}},"624800024":{"location":[43.1950797,6.5458601],"ct":"FR","tp":"CS","ts":"2024-05-29T14:13:51Z","tX":530,"tY":375,"tags":{"addr:city":"Cavalaire -sur-Mer","addr:country":"FR","addr:housenumber":"58","addr:postcode":"84420","addr:street":"Impasse Roux","capacity":"149","caravans":"yes","drinking_water":"yes","fee":"yes","internet_access":"wlan","landuse":"tourism","name":"GCU Cavalaire Les Oliviers","operator":"Groupement des Campeurs Universitaires","phone":"+33 4 94 64 05 47","power_supply":"yes","shower":"yes","stars":"2","static_caravans":"yes","tents":"yes","toilets":"yes","website":"https://www.gcu.asso.fr/terrains/cavalaire-sur-mer-var-83"}},"644405205":{"location":[43.275234,6.560588],"ct":"FR","tp":"CS","ts":"2022-06-06T16:36:39Z","tX":530,"tY":375,"tags":{"caravans":"no","internet_access":"wlan","internet_access:fee":"no","landuse":"tourism","name":"Camping La Pinede","operator":"CapFun","stars":"4","tents":"no","website":"https://www.capfun.com/camping-france-provence_alpes_cote_d_azur-la_pinede-FR.html","wheelchair":"yes"}},"679241551":{"location":[43.1442937,6.3816765],"ct":"FR","tp":"CS","ts":"2022-09-16T06:30:00Z","tX":530,"tY":375,"tags":{"capacity":"85","caravans":"yes","name":"Caravaning Saint-Clair","stars":"3","website":"http://www.caravaningsaintclair.com/","wheelchair":"designated"}},"708775780":{"location":[43.1956048,6.6286388],"ct":"FR","tp":"CS","ts":"2024-05-10T14:08:17Z","tX":530,"tY":375,"tags":{"description":"Camping Ladouceur","name":"Ladouceur","short_name":"CIE Delle","website":"https://www.camping-ladouceur.com/fr"}},"747816873":{"location":[43.1462912,6.3791118],"ct":"FR","tp":"CS","ts":"2023-10-31T04:31:17Z","tX":530,"tY":375,"tags":{"addr:housenumber":"65","addr:street":"Chemin du Pataras","contact:phone":"+336 86 46 57 55","internet_access":"wlan","name":"Camping de l'Olivier","website":"https://www.campingdelolivier.fr/"}},"785110666":{"location":[43.2732573,6.5031937],"ct":"FR","tp":"CS","ts":"2020-03-27T15:04:40Z","tX":530,"tY":375,"tags":{"name":"Camping Charlemagne"}},"831746467":{"location":[43.160426,6.4341904],"ct":"FR","tp":"CS","ts":"2010-07-24T19:14:43Z","tX":530,"tY":375,"tags":{}},"837572155":{"location":[43.234416,6.6589305],"ct":"FR","tp":"CS","ts":"2020-08-16T13:24:54Z","tX":530,"tY":375,"tags":{"name":"La Mataranne"}},"839809179":{"location":[43.292198,6.4939062],"ct":"FR","tp":"CS","ts":"2023-08-27T08:39:14Z","tX":530,"tY":375,"tags":{"caravans":"yes","drinking_water":"yes","name":"Camping de Bérard","power_supply":"yes","shower":"yes","tents":"yes","toilets":"yes","website":"https://www.campingdeberard.com"}},"981210837":{"location":[43.1474381,6.3934057],"ct":"FR","tp":"CS","ts":"2023-08-02T11:19:35Z","tX":530,"tY":375,"tags":{"capacity":"18","caravans":"yes","name":"Camping de la Fossette","phone":"+33614955037","tents":"yes"}},"998425405":{"location":[43.2181189,6.5770127],"ct":"FR","tp":"CS","ts":"2024-10-08T09:59:49Z","tX":530,"tY":375,"tags":{"addr:street":"Chemin du Moulin de Verdagne,","cabins":"yes","capacity:cabins":"101","capacity:persons":"8527","capacity:tents":"34","caravans":"yes","dog":"leashed","fee":"yes","internet_access":"wlan","motorhome":"yes","name":"Camping du Moulin de Verdagne","phone":"+33 0494797821","power_supply":"yes","stars":"4","tents":"yes","washing_machine":"yes","website":"https://www.domaine-verdagne.com/"}},"1058610201":{"location":[43.2567549,6.5742881],"ct":"FR","tp":"CS","ts":"2022-05-09T15:40:40Z","tX":530,"tY":375,"tags":{"addr:city":"Gassin","addr:housenumber":"716","addr:postcode":"83580","addr:street":"Route Départementale 559","capacity":"20","name":"Camping à la ferme Jauffret","opening_hours":"Jun 15-Sep 15: 09:00-21:00","phone":"+33 4 94 56 27 78","website":"http://www.camping-jauffret.fr/"}},"1084628040":{"location":[43.1714397,6.5244609],"ct":"FR","tp":"CS","ts":"2022-08-08T11:26:55Z","tX":530,"tY":375,"tags":{"name":"la Pinède"}},"1092658666":{"location":[43.2065372,6.6399012],"ct":"FR","tp":"CS","ts":"2022-09-07T15:28:01Z","tX":530,"tY":375,"tags":{"addr:city":"Ramatuelle","addr:housenumber":"943","addr:postcode":"83350","addr:street":"Chemin des 4 Vents","name":"Camping à la Ferme Battini","phone":"+33 6 11 96 05 64"}},"1154356018":{"location":[43.1712313,6.520814],"ct":"FR","tp":"CS","ts":"2023-03-14T19:43:23Z","tX":530,"tY":375,"tags":{"addr:city":"Cavalaire-sur-Mer","addr:housenumber":"206","addr:postcode":"83240","addr:street":"Chemin des Canissons","caravans":"yes","email":"campingdelatreille@wanadoo.fr","fee":"yes","name":"Camping de la Treille","opening_hours":"08 Apr - 08 Oct","phone":"+33 4 94 64 31 81","static_caravans":"yes","tents":"yes","website":"https://www.campingdelatreille.com/"}},"2316285810":{"location":[43.279501,6.5634201],"ct":"FR","tp":"CS","ts":"2013-05-22T20:05:25Z","tX":530,"tY":375,"tags":{"name":"Gitês Ruru"}},"2345227200":{"location":[43.2210494,6.5545993],"ct":"FR","tp":"CS","ts":"2013-06-15T07:29:50Z","tX":530,"tY":375,"tags":{"name":"Camping de la Vernatelle Haute"}},"4307533031":{"location":[43.2388147,6.5737526],"ct":"FR","tp":"CS","ts":"2016-07-17T16:03:11Z","tX":530,"tY":375,"tags":{"addr:city":"Gassin","addr:housenumber":"286","addr:postcode":"83580","addr:street":"Route du Bourrian","name":"Camping Roche Parc","phone":"+33 4 94 56 12 29","website":"http://rocheparc.free.fr"}},"4361804813":{"location":[43.2153863,6.6594763],"ct":"FR","tp":"CS","ts":"2016-08-22T16:40:41Z","tX":530,"tY":375,"tags":{"addr:street":"Route de Camarat","dog":"no","dryer":"no","kitchen":"no","name":"Camping à la Ferme","naturism":"no","payment:cash":"no","payment:girocard":"no","payment:mastercard":"no","payment:visa":"no","power_supply":"no","sanitary_dump_station":"no","sauna":"no","washing_machine":"no"}},"8983588792":{"location":[43.2010505,6.6453177],"ct":"FR","tp":"CS","ts":"2024-08-20T20:45:05Z","tX":530,"tY":375,"tags":{"capacity":"20","caravans":"yes","drinking_water":"yes","email":"contact@biancolini.com","internet_access":"wlan","name":"Camping à la ferme Biancolini","nudism":"no","phone":"+33 6 19 65 03 97","power_supply":"yes","shower":"yes","tents":"yes","website":"https://biancolini.com/"}},"12208605005":{"location":[43.2414245,6.6621624],"ct":"FR","tp":"CS","ts":"2024-09-29T09:08:09Z","tX":530,"tY":375,"tags":{"access":"customers","addr:street":"Chemin des Moulins","backcountry":"no","caravans":"yes","charge":"25-45","check_date":"2024-09-29","description":"Reception: Chemin des Moulins, 741","dog":"leashed","drinking_water":"yes","fee":"yes","group_only":"no","internet_access":"wlan","internet_access:fee":"customers","name":"Les Eucalyptus","openfire":"no","payment:cards":"no","payment:cash":"yes","payment:coins":"yes","payment:credit_cards":"no","payment:debit_cards":"no","phone":"+33 4 94 97 16 74","power_supply":"yes","sanitary_dump_station":"yes","shower":"yes","source":"survey","tents":"yes","toilets":"yes","website":"https://www.leseucalyptus.com"}},"11871699351":{"location":[43.1511663,6.3461629],"ct":"FR","tp":"CR","ts":"2024-05-01T13:08:08Z","tX":530,"tY":375,"tags":{"capacity":"10","caravan_site":"motorhome_stopover","caravan_site:type":"parking_lot","caravans":"no","fee":"no","name":"Aire de camping car – Parking Saint-François","opening_hours":"Nov-Mar","tents":"no","website":"https://www.bormeslesmimosas.com/hotellerie-plein-air/aire-de-camping-car-parking-saint-francois/"}},"4341082493":{"location":[43.1251137,6.3618487],"ct":"FR","tp":"SD","ts":"2020-11-21T17:32:14Z","tX":530,"tY":375,"tags":{}},"5966949758":{"location":[43.2393878,6.6623097],"ct":"FR","tp":"SD","ts":"2018-10-08T16:28:35Z","tX":530,"tY":375,"tags":{"fee":"no","water_point":"yes"}},"5966985846":{"location":[43.2114791,6.6624246],"ct":"FR","tp":"SD","ts":"2018-10-08T16:41:46Z","tX":530,"tY":375,"tags":{"access":"customers","water_point":"yes"}},"6705091601":{"location":[43.3172671,6.6302758],"ct":"FR","tp":"SD","ts":"2019-08-14T06:39:28Z","tX":530,"tY":375,"tags":{"access":"yes","water_point":"yes"}},"9216146629":{"location":[43.2039112,6.6519626],"ct":"FR","tp":"SD","ts":"2021-11-01T12:07:43Z","tX":530,"tY":375,"tags":{}},"12161749620":{"location":[43.2834695,6.5897799],"ct":"FR","tp":"SD","ts":"2024-09-23T20:13:15Z","tX":530,"tY":375,"tags":{"access":"customers","fee":"no"}},"12161749621":{"location":[43.2830751,6.5907427],"ct":"FR","tp":"SD","ts":"2024-09-26T07:59:35Z","tX":530,"tY":375,"tags":{"access":"customers","fee":"no","note":"grey water only"}},"12195486753":{"location":[43.2830031,6.5905829],"ct":"FR","tp":"SD","ts":"2024-09-23T20:13:08Z","tX":530,"tY":375,"tags":{"fee":"no"}},"12196799313":{"location":[43.284782,6.5918788],"ct":"FR","tp":"SD","ts":"2024-09-24T11:36:38Z","tX":530,"tY":375,"tags":{"fee":"no"}}}