{"1089903686":{"location":[-39.5255857,-62.6614994],"ct":"AR","tp":"CS","ts":"2022-08-28T17:35:17Z","tX":333,"tY":634,"tags":{"addr:city":"Pedro Luro","addr:country":"AR","bar":"no","big_rigs":"yes","building":"yes","camp_type":"established","caravans":"yes","description":"Small camping terrain next to river beach for day recreation.Showers available between 20:00 and 08:00.","dish_washing":"no","dryer":"no","fee":"ARS 120 (2 adults, camper)","general_room":"no","internet":"no","kitchen":"no","laundry":"yes","name":"Obra Don Bosco","payment:credit_card":"no","pets":"yes","power_supply":"yes","power_supply:voltage":"220","restaurant":"no","sanitary_dumpstation":"no","shop":"convenience","shower":"hot","source":"Survey","swimming_pool":"no","tents":"yes","toilets:disposal":"flush","toilets:position":"sitting","washing_machine":"no","water:location":"central","water:quality":"potable"}},"1089903693":{"location":[-39.5255892,-62.6606063],"ct":"AR","tp":"CS","ts":"2022-08-28T17:35:17Z","tX":333,"tY":634,"tags":{"name":"Camli","name:en":"Camping Fortin Mercedes Pedro Luro","name:es":"Camping Fortin Mercedes Pedro Luro","phone":"+542914681166"}},"2012735739":{"location":[-39.4596667,-62.71315],"ct":"AR","tp":"CS","ts":"2012-11-13T18:52:20Z","tX":333,"tY":634,"tags":{"name":"Lago La Salada Camping"}},"8367160212":{"location":[-39.4638846,-62.6838264],"ct":"AR","tp":"CS","ts":"2021-01-27T11:29:56Z","tX":333,"tY":634,"tags":{"access":"private","addr:city":"Lago Parque \"La Salada\"","name":"Camping La Salada","power_supply":"yes","toilets":"yes"}}}