{"827094670":{"location":[61.490919,30.2151214],"ct":"RU","tp":"CS","ts":"2020-07-21T08:33:58Z","tX":597,"tY":288,"tags":{"backcountry":"yes","building":"yes","fee":"yes","name":"Лисица и яйцо","openfire":"yes","phone":"+79119976198","website":"https://moominclub.ru/sorola/"}},"7785691306":{"location":[61.5005174,30.2330616],"ct":"RU","tp":"CS","ts":"2020-08-04T21:55:00Z","tX":597,"tY":288,"tags":{}},"9907233017":{"location":[61.481013,30.2306396],"ct":"RU","tp":"CS","ts":"2024-09-06T09:15:09Z","tX":597,"tY":288,"tags":{"addr:street":"Вишнёвая улица","name":"Сорола Кэмп","name:en":"Sorola Camp","opening_hours":"Mo-Su 10:00-20:00","phone":"+7 921-784-41-00"}},"11892728869":{"location":[61.4813502,30.2322538],"ct":"RU","tp":"CS","ts":"2024-05-10T03:12:03Z","tX":597,"tY":288,"tags":{"addr:housenumber":"119","addr:street":"Вишневая","internet_access":"wlan","name":"Ладога.Кэмп","name:en":"Ladoga.camp","opening_hours":"Su-Sa 09:00-20:00","phone":"+79214359457","website":"http://Ladoga.camp"}},"12083900572":{"location":[61.4678744,30.0555194],"ct":"RU","tp":"CS","ts":"2024-07-30T19:54:24Z","tX":597,"tY":288,"tags":{"name":"есть места под палатку"}},"12083900573":{"location":[61.4743945,30.0338473],"ct":"RU","tp":"CS","ts":"2024-07-30T19:54:25Z","tX":597,"tY":288,"tags":{"name":"есть места под палатку на полянке"}}}