{"2128264758":{"location":[59.9963744,30.1105933],"ct":"RU","tp":"CR","ts":"2018-12-28T16:12:04Z","tX":597,"tY":297,"tags":{"capacity":"60","fee":"yes","name":"Ольгино","name:en":"Olgino","name:ru":"Ольгино","payment:cash":"yes","phone":"+7 812 6330205;+7 812 6330206","power_supply":"yes","source":"http://camping-plus.ru/node/71","website":"http://hotel-olgino.ru/hotel-olgino.nsf/ru/camping_olgino"}},"2128264766":{"location":[60.0494959,29.9665574],"ct":"RU","tp":"CR","ts":"2021-12-03T20:42:46Z","tX":597,"tY":297,"tags":{"capacity":"40","fee":"yes","name":"Ретур","name:en":"Retur","name:ru":"Ретур","payment:cash":"yes","phone":"+7 812 4345022","power_supply":"yes","source":"http://camping-plus.ru/node/86"}},"11061585605":{"location":[60.0117339,29.9644075],"ct":"RU","tp":"CS","ts":"2023-07-22T13:00:52Z","tX":597,"tY":297,"tags":{}},"11085853605":{"location":[60.0127835,30.0739114],"ct":"RU","tp":"CS","ts":"2023-08-03T13:57:58Z","tX":597,"tY":297,"tags":{}},"9863001017":{"location":[59.9397472,30.2164673],"ct":"RU","tp":"CR","ts":"2022-07-02T22:05:01Z","tX":597,"tY":297,"tags":{"name:en":"Aurora"}}}