{"290744224":{"location":[49.7559379,29.9723942],"ct":"UA","tp":"CS","ts":"2014-07-01T19:53:38Z","tX":597,"tY":348,"tags":{"backcountry":"yes"}},"846059837":{"location":[49.755303,29.9608343],"ct":"UA","tp":"CS","ts":"2023-03-03T22:31:52Z","tX":597,"tY":348,"tags":{"addr:housenumber":"2","addr:postcode":"09152","addr:street":"Зарічна вулиця","name":"Дитячий оздоровчий заклад \"Дружба\"","name:uk":"Дитячий оздоровчий заклад \"Дружба\""}},"5074873121":{"location":[49.7576532,29.96849],"ct":"UA","tp":"CS","ts":"2023-10-29T15:06:14Z","tX":597,"tY":348,"tags":{"name":"Засада","name:ru":"Засада","name:uk":"Засада"}},"5074873521":{"location":[49.7559499,29.9714485],"ct":"UA","tp":"CS","ts":"2023-10-29T15:06:08Z","tX":597,"tY":348,"tags":{"name":"Трушкавель","name:ru":"Трушкавель","name:uk":"Трушкавель"}},"5074873821":{"location":[49.7581951,29.9626382],"ct":"UA","tp":"CS","ts":"2017-09-02T06:52:40Z","tX":597,"tY":348,"tags":{"name":"Дитячий табір \"Дригало\"","name:uk":"Дитячий табір \"Дригало\""}},"10593397905":{"location":[49.7571127,30.0381209],"ct":"UA","tp":"CS","ts":"2023-01-30T05:46:19Z","tX":597,"tY":348,"tags":{}},"4424703290":{"location":[49.7865089,30.169175],"ct":"UA","tp":"CR","ts":"2023-10-29T15:06:16Z","tX":597,"tY":348,"tags":{"addr:housenumber":"83","addr:postcode":"09100","addr:street":"проспект Незалежності","internet_access":"wlan","name":"Вадим","name:en":"Vadim","name:ru":"Вадим","name:uk":"Вадим","opening_hours":"24/7","operator":"Лукашенко ВБ","phone":"+380 97 700 0800","website":"http://LVB-BC.com"}}}