{"10441717":{"location":[45.9060719,-89.4103251],"ct":"US","tp":"CS","ts":"2020-09-30T20:12:06Z","tX":257,"tY":364,"tags":{"addr:city":"Eagle River","addr:housenumber":"7050","addr:postcode":"54521","addr:state":"WI","addr:street":"Old Highway 70 Road","name":"Camp Interlaken JCC","religion":"jewish","website":"https://www.campinterlaken.org/"}},"11168666":{"location":[45.8933575,-89.6479502],"ct":"US","tp":"CS","ts":"2020-06-04T14:42:04Z","tX":257,"tY":364,"tags":{}},"11661853":{"location":[46.0074188,-89.3467508],"ct":"US","tp":"CS","ts":"2020-09-24T04:14:45Z","tX":257,"tY":364,"tags":{"addr:housenumber":"6150","addr:state":"WI","addr:street":"East Buckatabon Road","name":"Camp Ramah in Wisconsin","website":"https://ramahwisconsin.com/"}},"11661964":{"location":[46.0095278,-89.5091501],"ct":"US","tp":"CS","ts":"2020-10-07T20:23:44Z","tX":257,"tY":364,"tags":{"addr:city":"Sayner","addr:housenumber":"8450","addr:postcode":"54560","addr:state":"WI","addr:street":"Camp Highlands Road","fee":"yes","name":"Camp Highlands for Boys","website":"https://www.camphighlands.com/","wikidata":"Q5027247","wikipedia":"en:Camp Highlands"}},"11695479":{"location":[45.9256212,-89.5199336],"ct":"US","tp":"CS","ts":"2020-09-30T13:16:21Z","tX":257,"tY":364,"tags":{"fee":"yes","internet_access":"yes","internet_access:fee":"yes","name":"Lynn Anne's Campground"}},"11696745":{"location":[45.9193222,-89.428015],"ct":"US","tp":"CS","ts":"2020-09-30T20:12:06Z","tX":257,"tY":364,"tags":{"addr:city":"St. Germain","addr:housenumber":"1467","addr:postcode":"54558","addr:state":"WI","addr:street":"Moon Beach Road","name":"Moon Beach","operator":"United Church Camps"}},"11956346":{"location":[45.8787387,-89.6188892],"ct":"US","tp":"CS","ts":"2020-11-28T16:06:18Z","tX":257,"tY":364,"tags":{"addr:city":"Minocqua","addr:housenumber":"8531","addr:postcode":"54548","addr:state":"WI","addr:street":"Red Pine Road","fee":"yes","name":"Red Pine Camp"}},"11959441":{"location":[45.8422252,-89.6426471],"ct":"US","tp":"CS","ts":"2022-05-28T20:28:22Z","tX":257,"tY":364,"tags":{"name":"Indian Shores Camping and Cottage Resort","website":"https://www.indian-shores.com/"}},"699514235":{"location":[46.0658341,-89.6477034],"ct":"US","tp":"CS","ts":"2022-07-17T04:21:14Z","tX":257,"tY":364,"tags":{"name":"North Trout Lake Campground"}},"1065560992":{"location":[46.0022204,-89.6211521],"ct":"US","tp":"SD","ts":"2022-05-31T14:55:06Z","tX":257,"tY":364,"tags":{}},"1065567087":{"location":[46.0074714,-89.6112856],"ct":"US","tp":"CS","ts":"2024-05-18T14:57:59Z","tX":257,"tY":364,"tags":{"caravans":"yes","fee":"yes","name":"Musky Lake Campground","operator":"Wisconsin Department of Natural Resources","operator:wikidata":"Q1467508","static_caravans":"yes","tents":"yes","website":"https://dnr.wisconsin.gov/topic/StateForests/nhal/recreation/camping/modern"}},"1065567088":{"location":[46.0011534,-89.6100469],"ct":"US","tp":"CS","ts":"2024-05-18T14:57:59Z","tX":257,"tY":364,"tags":{"caravans":"yes","fee":"yes","name":"Crystal Lake Campground","operator":"Wisconsin Department of Natural Resources","operator:wikidata":"Q1467508","static_caravans":"yes","tents":"yes","website":"https://dnr.wisconsin.gov/topic/StateForests/nhal/recreation/camping/modern"}},"1065567089":{"location":[46.0020576,-89.6337529],"ct":"US","tp":"CS","ts":"2024-05-18T14:57:59Z","tX":257,"tY":364,"tags":{"caravans":"yes","fee":"yes","name":"Firefly Lake Campground","operator":"Wisconsin Department of Natural Resources","operator:wikidata":"Q1467508","static_caravans":"yes","tents":"yes","website":"https://dnr.wisconsin.gov/topic/StateForests/nhal/recreation/camping/modern"}},"1167166782":{"location":[46.0080709,-89.3453867],"ct":"US","tp":"CS","ts":"2023-04-28T17:45:36Z","tX":257,"tY":364,"tags":{"name":"The Givah"}},"7215422338":{"location":[46.0336731,-89.4731389],"ct":"US","tp":"CS","ts":"2024-10-09T05:37:34Z","tX":257,"tY":364,"tags":{"addr:city":"own of Plum Lake","addr:housenumber":"7975","addr:state":"WI","addr:street":"Statehouse Road","capacity":"18","charge":"21 USD","drinking_water":"pump","fee":"yes","name":"West Star Lake Campground","reservation":"no","toilets":"yes"}},"7215440303":{"location":[46.0271926,-89.4665009],"ct":"US","tp":"CS","ts":"2024-10-09T05:37:34Z","tX":257,"tY":364,"tags":{"addr:city":"Town of Plum Lake","addr:housenumber":"7832","addr:state":"WI","addr:street":"County Highway N","capacity":"30","charge":"16 USD/resident; 21 USD/non-resident","drinking_water":"pump","fee":"yes","name":"East Star Lake Campground","reservation":"no","toilets:type":"pit latrine"}},"7724530881":{"location":[46.0231162,-89.5321463],"ct":"US","tp":"CS","ts":"2020-07-17T15:02:09Z","tX":257,"tY":364,"tags":{"access":"yes","addr:city":"Sayner","addr:housenumber":"3696","addr:postcode":"54560","addr:state":"WI","addr:street":"Razorback Rd","capacity":"54","charge":"21 USD","fee":"yes","name":"Razorback Lake Campground","operator":"Wisconsin Department of Natural Resources","website":"https://dnr.wi.gov/topic/StateForests/nhal/documents/razorback.pdf"}},"8643737511":{"location":[45.8890833,-89.6322216],"ct":"US","tp":"CS","ts":"2021-04-19T13:30:04Z","tX":257,"tY":364,"tags":{"addr:city":"Woodruff","addr:housenumber":"8530","addr:state":"WI","addr:street":"County Road J","capacity":"19","fee":"yes","name":"Carrol Lake Campground","operator":"WI DNR"}},"5275554067":{"location":[45.9260056,-89.5198475],"ct":"US","tp":"CR","ts":"2018-03-17T01:13:19Z","tX":257,"tY":364,"tags":{"access":"customers","fee":"no","water_point":"yes"}}}