{"9470200":{"location":[45.6520454,-89.5089152],"ct":"US","tp":"CS","ts":"2020-11-26T17:04:11Z","tX":257,"tY":365,"tags":{"addr:city":"Rhinelander","addr:housenumber":"6648","addr:postcode":"54501","addr:state":"WI","addr:street":"County Highway K","name":"Camp Birchrock","website":"http://campfireoneida.org/"}},"10571810":{"location":[45.5928289,-89.5201326],"ct":"US","tp":"CS","ts":"2020-11-26T19:59:01Z","tX":257,"tY":365,"tags":{"addr:city":"Rhinelander","addr:housenumber":"2750","addr:postcode":"54501","addr:state":"WI","addr:street":"Bible Camp Road","name":"Crescent Lake Bible Camp","religion":"christian","website":"http://crescentlake.camp/"}},"480473757":{"location":[45.7645188,-89.447197],"ct":"US","tp":"CS","ts":"2023-01-20T15:27:31Z","tX":257,"tY":365,"tags":{"name":"Fort Wilderness"}},"682114844":{"location":[45.6854471,-89.431403],"ct":"US","tp":"CS","ts":"2023-10-11T08:43:20Z","tX":257,"tY":365,"tags":{"name":"Hodag Overflow Camping"}},"1132582243":{"location":[45.6309955,-89.3218852],"ct":"US","tp":"CS","ts":"2023-01-16T22:10:25Z","tX":257,"tY":365,"tags":{"addr:city":"Rhinelander","addr:housenumber":"4060","addr:postcode":"54501","addr:state":"WI","addr:street":"South Shore Drive","email":"info@holidayacres.com","name":"Holiday Acres","phone":"+1-715-369-1500","website":"https://www.holidayacres.com/"}},"1169895532":{"location":[45.6612334,-89.3262369],"ct":"US","tp":"CR","ts":"2023-10-13T09:47:19Z","tX":257,"tY":365,"tags":{}},"1214498714":{"location":[45.7259983,-89.4260115],"ct":"US","tp":"CS","ts":"2023-10-12T11:17:37Z","tX":257,"tY":365,"tags":{"name":"Tesomas Scout Camp","operator":"Samoset Camping"}},"1214498715":{"location":[45.7160619,-89.4205975],"ct":"US","tp":"CS","ts":"2023-10-12T11:17:37Z","tX":257,"tY":365,"tags":{"name":"Akelaâ€™s World","operator":"Samoset Camping"}},"1214747017":{"location":[45.6785685,-89.4226222],"ct":"US","tp":"CS","ts":"2023-10-12T11:17:37Z","tX":257,"tY":365,"tags":{"addr:city":"Rhinelander","addr:housenumber":"4270","addr:postcode":"54501","addr:state":"WI","addr:street":"River Road","name":"Hodag Country Festival","website":"https://www.hodag.com/"}},"9443232626":{"location":[45.7159035,-89.4246823],"ct":"US","tp":"CS","ts":"2022-01-23T22:29:31Z","tX":257,"tY":365,"tags":{}},"9443232627":{"location":[45.7165627,-89.4227055],"ct":"US","tp":"CS","ts":"2022-01-23T22:29:31Z","tX":257,"tY":365,"tags":{}},"9443232628":{"location":[45.7162612,-89.4244489],"ct":"US","tp":"CS","ts":"2022-01-23T22:29:31Z","tX":257,"tY":365,"tags":{}},"9443232629":{"location":[45.7168062,-89.4239795],"ct":"US","tp":"CS","ts":"2022-01-23T22:29:31Z","tX":257,"tY":365,"tags":{}}}