{"10856293":{"location":[43.8145961,-89.3366341],"ct":"US","tp":"CS","ts":"2024-02-29T14:27:58Z","tX":257,"tY":373,"tags":{"addr:city":"Montello","addr:housenumber":"N4855","addr:postcode":"53949","addr:state":"WI","addr:street":"County Road Y","denomination":"free_methodist","name":"Sky Lodge Christian Camp","phone":"+1-608-297-2566","religion":"christian","website":"https://www.skylodge.org/"}},"10856298":{"location":[43.8003251,-89.3608679],"ct":"US","tp":"CS","ts":"2024-02-29T14:27:58Z","tX":257,"tY":373,"tags":{}},"782549946":{"location":[43.8196917,-89.3630334],"ct":"US","tp":"CS","ts":"2020-03-19T00:14:04Z","tX":257,"tY":373,"tags":{}},"782561157":{"location":[43.7933529,-89.3441144],"ct":"US","tp":"CS","ts":"2025-01-27T14:33:02Z","tX":257,"tY":373,"tags":{"addr:city":"Montello","addr:housenumber":"555","addr:postcode":"53949","addr:state":"WI","addr:street":"Lake Avenue","name":"Buffalo Lake Camping Resort","phone":"608-97-2915","website":"https://www.buffalolakecamping.com/"}},"851800289":{"location":[43.8042975,-89.5976793],"ct":"US","tp":"CS","ts":"2020-09-26T12:29:58Z","tX":257,"tY":373,"tags":{"name":"Shiloh"}},"851929976":{"location":[43.8057837,-89.6032863],"ct":"US","tp":"CS","ts":"2020-09-26T22:22:34Z","tX":257,"tY":373,"tags":{"name":"Fort McHenry"}},"852052356":{"location":[43.8051254,-89.5978273],"ct":"US","tp":"CS","ts":"2020-09-27T14:34:46Z","tX":257,"tY":373,"tags":{"name":"Gettysburg"}},"1337698879":{"location":[43.8183336,-89.3627446],"ct":"US","tp":"CS","ts":"2023-10-28T09:52:14Z","tX":257,"tY":373,"tags":{"name":"Crooked River Campground","website":"https://crookedrivercampground.com/"}},"7946233944":{"location":[43.8063922,-89.6015369],"ct":"US","tp":"CS","ts":"2020-09-26T22:22:34Z","tX":257,"tY":373,"tags":{"name":"Valley Forge"}},"7946233954":{"location":[43.805771,-89.6032992],"ct":"US","tp":"CS","ts":"2020-09-26T22:22:34Z","tX":257,"tY":373,"tags":{"name":"Fort McHenry"}},"7946233959":{"location":[43.8085072,-89.6003448],"ct":"US","tp":"CS","ts":"2020-09-26T22:22:34Z","tX":257,"tY":373,"tags":{"name":"Concord And Lexington"}},"7947853361":{"location":[43.8051293,-89.5978315],"ct":"US","tp":"CS","ts":"2020-09-27T14:34:46Z","tX":257,"tY":373,"tags":{"name":"Gettysburg"}},"7947855480":{"location":[43.8043178,-89.5976624],"ct":"US","tp":"CS","ts":"2020-09-27T14:45:38Z","tX":257,"tY":373,"tags":{"name":"Shiloh"}}}