{"11341752":{"location":[43.3918461,-89.5187173],"ct":"US","tp":"CS","ts":"2020-07-24T04:23:31Z","tX":257,"tY":374,"tags":{"name":"Lake Wisconsin Campground"}},"711389793":{"location":[43.5234377,-89.375067],"ct":"US","tp":"CS","ts":"2025-04-13T05:05:53Z","tX":257,"tY":374,"tags":{"name":"Pride of America Camping Resort"}},"711408338":{"location":[43.5520269,-89.3248238],"ct":"US","tp":"CS","ts":"2025-05-13T20:39:26Z","tX":257,"tY":374,"tags":{"addr:city":"Pardeeville","addr:housenumber":"W6445","addr:postcode":"53954","addr:state":"WI","addr:street":"Haynes Road","name":"Indian Trails Campground"}},"829514856":{"location":[43.3684118,-89.494035],"ct":"US","tp":"CS","ts":"2020-07-24T04:01:06Z","tX":257,"tY":374,"tags":{"name":"Smoky Hollow Campground"}},"1031048087":{"location":[43.4831307,-89.5131247],"ct":"US","tp":"CR","ts":"2025-05-29T21:00:29Z","tX":257,"tY":374,"tags":{"leisure":"resort","name":"Sky High Camping Resort","website":"https://skyhighcampingresort.com/","website:map":"https://skyhighcampingresort.com/images/Sky%20High%20Map%202022.pdf"}},"3998388015":{"location":[43.5542906,-89.3232153],"ct":"US","tp":"CS","ts":"2018-04-04T22:56:35Z","tX":257,"tY":374,"tags":{"addr:city":"Pardeeville","addr:housenumber":"W6445","addr:postcode":"53954","addr:state":"WI","addr:street":"Haynes Road","name":"Indian trails campground"}},"10067877264":{"location":[43.3610957,-89.6067467],"ct":"US","tp":"CS","ts":"2022-10-02T02:37:48Z","tX":257,"tY":374,"tags":{"backcountry":"yes"}}}