{"244954844":{"location":[43.2481797,-89.3708401],"ct":"US","tp":"CR","ts":"2023-03-20T20:35:41Z","tX":257,"tY":375,"tags":{"area":"yes","brand":"KOA","brand:wikidata":"Q16988635","name":"Madison KOA","operator":"KOA","short_name":"KOA"}},"732135936":{"location":[43.2943082,-89.6392633],"ct":"US","tp":"CR","ts":"2019-10-06T15:23:50Z","tX":257,"tY":375,"tags":{"name":"Schoepp's Cottonwood Resort"}},"755376928":{"location":[43.1984491,-89.5944445],"ct":"US","tp":"CS","ts":"2019-12-14T17:29:19Z","tX":257,"tY":375,"tags":{"addr:city":"Dane","addr:housenumber":"6307","addr:postcode":"53529","addr:state":"WI","addr:street":"Brandenburg Road","name":"Camp Brandenburg","operator":"Girl Scouts of Wisconsin - Badgerland Council"}},"3664654031":{"location":[43.1111282,-89.468402],"ct":"US","tp":"CS","ts":"2024-10-09T05:37:34Z","tX":257,"tY":375,"tags":{"addr:city":"Westport","addr:state":"WI","addr:street":"County Rd M","capacity":"30","charge":"25 USD","fee":"yes","operator":"Dane County","website":"https://www.danecountyparks.com/park/Mendota"}},"4085753259":{"location":[43.1854183,-89.3181998],"ct":"US","tp":"SD","ts":"2016-03-29T23:41:02Z","tX":257,"tY":375,"tags":{}},"7403614531":{"location":[43.1855754,-89.3185076],"ct":"US","tp":"CS","ts":"2024-10-09T05:37:34Z","tX":257,"tY":375,"tags":{"addr:city":"Deforest","addr:housenumber":"6200","addr:state":"WI","addr:street":"Williamsburg Way","capacity":"43","charge":"30 USD","fee":"yes","name":"Token Creek County Park","power_supply":"yes","reservation":"yes","shower":"yes"}},"7921640392":{"location":[43.2866735,-89.5349129],"ct":"US","tp":"CS","ts":"2020-09-18T23:59:36Z","tX":257,"tY":375,"tags":{"backcountry":"yes","name":"Eastern Lodi Marsh DCA"}},"7921804297":{"location":[43.2224114,-89.6112476],"ct":"US","tp":"CS","ts":"2020-09-19T03:49:53Z","tX":257,"tY":375,"tags":{"backcountry":"yes","name":"Springfield Hill DCA"}}}