{"1090397579":{"location":[38.9465926,-89.3610803],"ct":"US","tp":"CS","ts":"2023-10-29T00:29:16Z","tX":257,"tY":391,"tags":{"addr:city":"Greenville","addr:housenumber":"1391","addr:postcode":"62246","addr:state":"IL","addr:street":"Woburn Road","internet_access":"no","internet_access:fee":"no","name":"Durley Camp and retreat center","source":"Campground Map;Survey","website":"https://www.durleycamp.org/"}},"1090404904":{"location":[38.9268685,-89.4018486],"ct":"US","tp":"CS","ts":"2022-08-30T06:49:01Z","tX":257,"tY":391,"tags":{}},"5695516255":{"location":[38.9893157,-89.5583213],"ct":"US","tp":"CS","ts":"2022-08-30T06:14:54Z","tX":257,"tY":391,"tags":{"addr:city":"Sorento","addr:housenumber":"1696","addr:postcode":"62086","addr:state":"IL","addr:street":"Lake Road","name":"Gnaw Bone Campground","phone":"+1-217-272-4156","source":"local knowledge","website":"https://www.facebook.com/GnawboneCampground/"}},"9987496070":{"location":[38.8776718,-89.30068],"ct":"US","tp":"CS","ts":"2022-08-30T05:34:13Z","tX":257,"tY":391,"tags":{"name":"Bonanza Campground"}},"9987524099":{"location":[39.0575678,-89.4163552],"ct":"US","tp":"CS","ts":"2022-08-30T06:00:31Z","tX":257,"tY":391,"tags":{"name":"Indian Grove Campground"}},"9987528633":{"location":[38.9071419,-89.2971912],"ct":"US","tp":"CS","ts":"2022-08-30T05:46:00Z","tX":257,"tY":391,"tags":{"name":"Bond Christian Service Camp"}}}