{"295074392":{"location":[65.6490931,-16.9162779],"ct":"IS","tp":"CS","ts":"2024-04-20T16:26:14Z","tX":463,"tY":262,"tags":{"caravans":"yes","email":"info@myvatnaccommodation.is","fee":"yes","name":"Hlíð","phone":"+354 464 4103","sanitary_dump_station":"yes","tents":"yes","website":"https://www.myvatnaccommodation.is/","wheelchair":"yes"}},"295811364":{"location":[65.6237809,-16.9175371],"ct":"IS","tp":"CS","ts":"2024-08-16T10:55:31Z","tX":463,"tY":262,"tags":{"caravans":"yes","check_date":"2024-03-12","drinking_water":"yes","email":"info@vogahraun.is","fee":"yes","internet_access":"wlan","internet_access:fee":"no","name":"Vogar","payment:cash":"yes","payment:credit_cards":"yes","payment:debit_cards":"yes","phone":"+354 464 4399","power_supply":"yes","sanitary_dump_station":"yes","shower":"yes","tents":"yes","toilets":"yes","website":"https://www.vogartravelservice.com/camping","wheelchair":"no"}},"485352747":{"location":[65.6402522,-16.9139702],"ct":"IS","tp":"CS","ts":"2024-07-30T19:34:51Z","tX":463,"tY":262,"tags":{"addr:city":"Reykjahlíð","addr:postcode":"660","addr:street":"Bjarg","caravans":"yes","charge":"2000 ISK","drinking_water":"yes","email":"ferdabjarg@simnet.is","fee":"yes","name":"Bjarg","opening_hours":"Mo-Su 10:00-10:30, 18:00-21:00","phone":"+354 464 4240","power_supply":"yes","sanitary_dump_station":"no","shower":"yes","tents":"yes","toilets":"yes"}},"3629441447":{"location":[65.6493503,-16.9185697],"ct":"IS","tp":"SD","ts":"2019-07-21T18:52:28Z","tX":463,"tY":262,"tags":{"fixme":"location approximate"}},"3629441865":{"location":[65.6236939,-16.9177531],"ct":"IS","tp":"SD","ts":"2015-07-01T16:16:10Z","tX":463,"tY":262,"tags":{"fixme":"location approximate"}},"12114515848":{"location":[65.6235978,-16.9175111],"ct":"IS","tp":"SD","ts":"2024-08-16T10:55:31Z","tX":463,"tY":262,"tags":{"fee":"no","opening_hours":"24/7"}}}