{"83711294":{"location":[45.3369691,-73.486278],"ct":"CA","tp":"CS","ts":"2018-08-18T01:37:55Z","tX":302,"tY":366,"tags":{"name":"Camping Saint-André","source":"CanVec 6.0 - NRCan"}},"83711303":{"location":[45.3390661,-73.4932745],"ct":"CA","tp":"CS","ts":"2022-11-07T12:22:30Z","tX":302,"tY":366,"tags":{"name":"Camping Amerique Montreal","source":"CanVec 6.0 - NRCan"}},"83711331":{"location":[45.3468345,-73.4895572],"ct":"CA","tp":"CS","ts":"2022-11-07T12:22:30Z","tX":302,"tY":366,"tags":{"addr:housenumber":"130","addr:postcode":"J0L 2K0","addr:street":"Montée Monette","name":"Camping KOA Montreal Sud","name:en":"Montreal South KOA - Campground","phone":"+1-800-562-8636","source":"CanVec 6.0 - NRCan"}},"609559058":{"location":[45.4092687,-73.5903554],"ct":"CA","tp":"CS","ts":"2025-02-06T18:34:02Z","tX":302,"tY":366,"tags":{"name":"Camping Urbain"}},"1210877078":{"location":[45.5379787,-73.5171024],"ct":"CA","tp":"CR","ts":"2025-02-25T14:18:06Z","tX":302,"tY":366,"tags":{"addr:city":"Longueuil","addr:housenumber":"101","addr:province":"QC","addr:street":"Chemin de la Rive","capacity":"82","name":"Halte de véhicules récréatifs de la Marina de Longueuil","website":"http://www.parcoursducerf.com/"}},"1986363777":{"location":[45.3608918,-73.7713225],"ct":"CA","tp":"CS","ts":"2020-10-18T13:08:54Z","tX":302,"tY":366,"tags":{"name":"Tente artisanale","source":"http://static.panoramio.com/photos/large/79760563.jpg"}},"5873630485":{"location":[45.3973986,-73.4995229],"ct":"CA","tp":"SD","ts":"2020-05-15T15:02:25Z","tX":302,"tY":366,"tags":{"access":"yes","opening_hours":"24/7"}},"11218913951":{"location":[45.5377133,-73.516575],"ct":"CA","tp":"SD","ts":"2023-09-25T23:59:28Z","tX":302,"tY":366,"tags":{}},"11784773019":{"location":[45.5831751,-73.4835638],"ct":"CA","tp":"SD","ts":"2024-04-03T22:22:14Z","tX":302,"tY":366,"tags":{}}}