{"4433563794":{"location":[3.9345093,-73.6867498],"ct":"CO","tp":"CS","ts":"2016-10-06T03:17:50Z","tX":302,"tY":500,"tags":{"name":"ECOPETROL Chichimene","name:es":"ECOPETROL Chichimene"}},"4436014396":{"location":[4.0803447,-73.566589],"ct":"CO","tp":"CS","ts":"2016-10-07T11:31:03Z","tX":302,"tY":500,"tags":{"name":"fuerte militar de apiay","name:es":"fuerte militar de apiay"}},"4436089589":{"location":[4.0863632,-73.566303],"ct":"CO","tp":"CS","ts":"2016-10-07T11:29:15Z","tX":302,"tY":500,"tags":{"name":"apiay","name:es":"apiay"}},"4436105090":{"location":[4.0865235,-73.5661987],"ct":"CO","tp":"CS","ts":"2016-10-07T11:43:00Z","tX":302,"tY":500,"tags":{"name":"guardia apiay","name:es":"guardia apiay"}},"4680948197":{"location":[4.1387152,-73.6366029],"ct":"CO","tp":"CS","ts":"2017-02-12T00:00:14Z","tX":302,"tY":500,"tags":{"addr:housenumber":"25 / 100","addr:street":"Carrera 38","name":"Prosegur","name:en":"Prosegur","name:es":"Prosegur"}},"11141855198":{"location":[3.9957391,-73.8021721],"ct":"CO","tp":"CS","ts":"2023-08-24T16:45:38Z","tX":302,"tY":500,"tags":{"access":"yes","addr:city":"Acacias","addr:street":"Vereda la palma","name":"Gualandayglamping","operator":"PRIVADO","source":"CON TIC EXISTO"}},"12351405305":{"location":[4.0067947,-73.7153207],"ct":"CO","tp":"SD","ts":"2024-11-18T14:50:04Z","tX":302,"tY":500,"tags":{}}}