{"1641319488":{"location":[-43.1316925,-73.6310284],"ct":"CL","tp":"CS","ts":"2012-02-21T00:35:33Z","tX":302,"tY":648,"tags":{"name":"Las Brisas"}},"1641319491":{"location":[-43.1353494,-73.6230888],"ct":"CL","tp":"CS","ts":"2012-02-21T00:35:33Z","tX":302,"tY":648,"tags":{"name":"Neptuno"}},"1641319492":{"location":[-43.1364654,-73.6217277],"ct":"CL","tp":"CS","ts":"2012-02-21T00:35:34Z","tX":302,"tY":648,"tags":{"name":"Turis Lapa"}},"1641319509":{"location":[-43.1219364,-73.6415422],"ct":"CL","tp":"CS","ts":"2012-02-21T00:35:35Z","tX":302,"tY":648,"tags":{"name":"Los Paicos"}},"5333300922":{"location":[-43.1301285,-73.6337861],"ct":"CL","tp":"CS","ts":"2021-03-15T13:56:07Z","tX":302,"tY":648,"tags":{"name":"Camping y Cabañas Turismo Milaguen","name:en":"Camping and Cabañas Turismo Milaguen","name:fr":"Camping et Cabañas Turismo Milaguen","phone":"+56990789787"}},"6240546585":{"location":[-43.1180941,-73.6146757],"ct":"CL","tp":"CS","ts":"2019-01-27T22:07:03Z","tX":302,"tY":648,"tags":{}},"6357208887":{"location":[-43.1176512,-73.6239657],"ct":"CL","tp":"CS","ts":"2019-03-24T00:04:06Z","tX":302,"tY":648,"tags":{"addr:housenumber":"715","addr:street":"Aníbal Pinto","internet_access":"wlan","name":"Camping Doña Tere","opening_hours":"24/7","phone":"+56984535948","website":"http://google.com"}},"7256250885":{"location":[-43.1177943,-73.625653],"ct":"CL","tp":"CS","ts":"2020-03-01T20:03:09Z","tX":302,"tY":648,"tags":{"addr:housenumber":"334","addr:street":"Balmaceda","name":"Camping Tierra y Mar","phone":"+56996979420"}}}