{"438789380":{"location":[45.9535832,81.5664211],"ct":"KZ","tp":"CS","ts":"2016-08-24T10:57:55Z","tX":744,"tY":364,"tags":{"barrier":"fence","leisure":"resort"}},"438789386":{"location":[45.9529761,81.5677755],"ct":"KZ","tp":"CS","ts":"2016-08-24T10:57:55Z","tX":744,"tY":364,"tags":{"barrier":"fence","leisure":"resort","name":"Айсана"}},"496688641":{"location":[45.9544639,81.5683306],"ct":"KZ","tp":"CS","ts":"2023-08-18T07:01:19Z","tX":744,"tY":364,"tags":{"addr:housenumber":"34","addr:street":"улица 13-ый разъезд","barrier":"fence","email":"a-alakol@mail.ru","internet_access":"wlan","leisure":"resort","name":"Аквамарин","name:en":"AQUAMARINE Resort","opening_hours":"24/7","phone":"+77283330037","website":"https://aquamarine-alakol.ru/"}},"496688643":{"location":[45.9524994,81.5725389],"ct":"KZ","tp":"CS","ts":"2023-09-29T02:43:48Z","tX":744,"tY":364,"tags":{"barrier":"fence","internet_access":"wlan","leisure":"resort","name":"Жалын","name:en":"Zhalyn"}},"507843758":{"location":[45.8697313,81.6459053],"ct":"KZ","tp":"CS","ts":"2017-07-15T20:20:06Z","tX":744,"tY":364,"tags":{"leisure":"resort","name":"Аакбота пансионат","opening_hours":"24/7"}},"507843801":{"location":[45.8715301,81.6500848],"ct":"KZ","tp":"CS","ts":"2017-07-15T20:20:09Z","tX":744,"tY":364,"tags":{"leisure":"resort","name":"У Петровича","opening_hours":"24/7"}},"507843802":{"location":[45.870629,81.6482985],"ct":"KZ","tp":"CS","ts":"2017-07-15T20:20:09Z","tX":744,"tY":364,"tags":{"leisure":"resort","name":"Хан Шатыр 777","opening_hours":"24/7"}},"4319784910":{"location":[45.9547501,81.5678141],"ct":"KZ","tp":"CS","ts":"2022-05-18T21:19:31Z","tX":744,"tY":364,"tags":{"addr:street":"Акши","email":"a-alakol@mail.ru","internet_access":"wlan","name":"Аквамарин","name:en":"AQUAMARINE Resort","opening_hours":"24/7","phone":"+77283330037","website":"https://aquamarine-alakol.ru/"}},"6702813122":{"location":[45.9563553,81.5627817],"ct":"KZ","tp":"CS","ts":"2019-08-12T12:30:02Z","tX":744,"tY":364,"tags":{"addr:city":"Акши","name":"Д\\о \"Радуга\""}},"6745709191":{"location":[45.9530839,81.5678056],"ct":"KZ","tp":"CS","ts":"2019-08-26T09:40:01Z","tX":744,"tY":364,"tags":{"name":"Айсана"}},"9112330952":{"location":[45.8988419,81.6462555],"ct":"KZ","tp":"CS","ts":"2021-09-22T03:38:37Z","tX":744,"tY":364,"tags":{}},"11768389925":{"location":[45.8404598,81.707896],"ct":"KZ","tp":"CS","ts":"2024-03-28T08:18:52Z","tX":744,"tY":364,"tags":{"name":"Near lake, tax free!, temporary internet"}}}