{"236009450":{"location":[46.927447,37.1790798],"ct":"UA","tp":"CS","ts":"2023-03-09T21:27:41Z","tX":617,"tY":360,"tags":{"barrier":"fence","contact:email":"doc.gornyak@yandex.ua","fence_type":"chain_link","internet_access":"no","internet_access:fee":"no","name":"ДОЦ \"Горняк\"","name:uk":"ДОЦ \"Горняк\"","operator":"ГП \"Красноармейскуголь\"","smoking":"no","wheelchair":"no"}},"298433827":{"location":[46.8893891,37.0752555],"ct":"UA","tp":"CS","ts":"2014-08-17T21:50:42Z","tX":617,"tY":360,"tags":{"landuse":"recreation_ground"}},"303958337":{"location":[46.8973374,37.0971919],"ct":"UA","tp":"CS","ts":"2023-02-21T02:07:33Z","tX":617,"tY":360,"tags":{"barrier":"fence","landuse":"recreation_ground","name":"Утьос","name:uk":"Утьос"}},"4362362790":{"location":[46.9146484,37.1602635],"ct":"UA","tp":"CS","ts":"2023-10-23T01:18:14Z","tX":617,"tY":360,"tags":{"impromptu":"yes","name":"Місце для відпочинку з наметом","name:ru":"Место для отдыха с палаткой","name:uk":"Місце для відпочинку з наметом"}}}