{"785797497":{"location":[35.5245738,137.7882894],"ct":"JP","tp":"CS","ts":"2023-08-07T06:03:12Z","tX":903,"tY":403,"tags":{"addr:block_number":"5247","addr:city":"飯田市","addr:housenumber":"1","addr:postcode":"395-0807","addr:province":"長野県","addr:quarter":"鼎切石","name":"妙琴公園キャンプ場","name:en":"Myōkin Park Camping Ground"}},"866148556":{"location":[35.5107712,137.6652241],"ct":"JP","tp":"CS","ts":"2022-04-21T07:19:01Z","tX":903,"tY":403,"tags":{"name":"せいなの森キャンプ場","name:ja":"せいなの森キャンプ場","website":"https://www.seinanomori.com/"}},"879152514":{"location":[35.563225,137.7013799],"ct":"JP","tp":"CS","ts":"2021-08-24T07:07:31Z","tX":903,"tY":403,"tags":{"name":"大平キャンプ場","name:en":"Odaira Campground","name:ja":"大平キャンプ場"}},"966116696":{"location":[35.524458,137.789952],"ct":"JP","tp":"CR","ts":"2022-06-08T06:19:08Z","tX":903,"tY":403,"tags":{}},"3642001369":{"location":[35.6653431,137.6291683],"ct":"JP","tp":"CS","ts":"2015-07-09T06:54:49Z","tX":903,"tY":403,"tags":{"name":"阿寺渓谷キャンプ場"}},"11195227195":{"location":[35.7019023,137.579746],"ct":"JP","tp":"CS","ts":"2023-09-16T05:08:10Z","tX":903,"tY":403,"tags":{"name":"阿寺渓谷キャンプ場"}}}