{"83229295":{"location":[35.1829044,137.6682605],"ct":"JP","tp":"CS","ts":"2010-10-29T02:48:06Z","tX":903,"tY":404,"tags":{}},"438548607":{"location":[35.3673607,137.6666108],"ct":"JP","tp":"CS","ts":"2020-07-16T07:46:33Z","tX":903,"tY":404,"tags":{"ele":"1116","name":"もみじ平キャンプ場","name:en":"Momiji Daira Camping Ground","name:ja":"もみじ平キャンプ場"}},"463037566":{"location":[35.2491499,137.6698877],"ct":"JP","tp":"CS","ts":"2022-07-09T17:28:26Z","tX":903,"tY":404,"tags":{"name":"うるぎ星の森オートキャンプ場"}},"463037573":{"location":[35.2507333,137.6697126],"ct":"JP","tp":"CS","ts":"2022-07-05T11:15:11Z","tX":903,"tY":404,"tags":{}},"828718683":{"location":[35.3951736,137.7622765],"ct":"JP","tp":"CS","ts":"2021-07-14T02:34:32Z","tX":903,"tY":404,"tags":{"name":"おおぐて湖キャンプ場","name:en":"Lake Ōgute Camping Ground","name:ja-Latn":"Ōguteko Kyanpujō"}},"839991826":{"location":[35.2433983,137.6808019],"ct":"JP","tp":"CS","ts":"2023-11-02T04:25:36Z","tX":903,"tY":404,"tags":{"name":"白樺高原キャンプ場","name:en":"Shirakabakōgen Camping Ground","name:ja":"白樺高原キャンプ場","operator":"売木村","website":"https://www.urugi.jp/db/camp/post-23.html"}},"843406819":{"location":[35.2319647,137.6578917],"ct":"JP","tp":"CS","ts":"2020-09-02T07:20:16Z","tX":903,"tY":404,"tags":{"addr:block_number":"3370","addr:city":"根羽村","addr:county":"下伊那郡","addr:housenumber":"42","addr:postcode":"395-0701","addr:province":"長野県","addr:suburb":"小戸名","backcountry":"yes","name":"茶臼山高原木のぼりキャンプ村","name:en":"Chausuyama Highland Camping Village","name:ja":"茶臼山高原木のぼりキャンプ村","website":"http://nebakanko.com/shisetsu/kinobori.html"}},"856640962":{"location":[35.3746798,137.7802456],"ct":"JP","tp":"CS","ts":"2023-04-02T02:09:22Z","tX":903,"tY":404,"tags":{"addr:block_number":"5074","addr:city":"下條村","addr:county":"下伊那郡","addr:postcode":"399-2102","addr:province":"長野県","addr:suburb":"陽皐","name":"CAMP & CHEERS KANESHIGE (Café ＆ Taproom)","name:en":"Camp & Cheers Kaneshige (Café ＆ Taproom)","name:ja":"CAMP & CHEERS KANESHIGE (Café ＆ Taproom)","website":"https://shimojo-kanko.jp/asobu/canp"}},"864940137":{"location":[35.224224,137.7330461],"ct":"JP","tp":"CS","ts":"2020-10-29T08:12:12Z","tX":903,"tY":404,"tags":{"addr:city":"天龍村","addr:county":"下伊那郡","addr:postcode":"399-1202","addr:province":"長野県","addr:suburb":"神原","name":"大河内森林公園","name:en":"Okouchi Forest Park","name:ja":"大河内森林公園","website":"http://www.vill-tenryu.jp/tourism/camp_leisure/okouchiforestpark/"}},"946518035":{"location":[35.1742227,137.5132513],"ct":"JP","tp":"CR","ts":"2012-03-21T04:48:18Z","tX":903,"tY":404,"tags":{"name":"設楽オートキャンプ場"}},"947869668":{"location":[35.2230075,137.6588121],"ct":"JP","tp":"CS","ts":"2011-12-23T08:03:36Z","tX":903,"tY":404,"tags":{"name":"茶臼山高原キャンプ場"}},"1038937048":{"location":[35.4407176,137.666356],"ct":"JP","tp":"CS","ts":"2022-03-10T04:32:00Z","tX":903,"tY":404,"tags":{"name":"弓の又キャンプ場","name:ja":"弓の又キャンプ場","website":"https://www.vill.achi.lg.jp/soshiki/5/2009-11-post-95.html"}},"1159082898":{"location":[35.3739702,137.778395],"ct":"JP","tp":"CS","ts":"2023-04-02T02:12:33Z","tX":903,"tY":404,"tags":{"name":"KANESHIGE CAMP & CHEERS Free Site","name:ja":"KANESHIGE CAMP & CHEERS Free Site"}},"1691501508":{"location":[35.1981324,137.6041051],"ct":"JP","tp":"CS","ts":"2012-03-26T04:29:03Z","tX":903,"tY":404,"tags":{"name":"デイキャンプ"}},"1691501512":{"location":[35.2034407,137.6013746],"ct":"JP","tp":"CR","ts":"2012-03-26T04:29:03Z","tX":903,"tY":404,"tags":{"name":"ウッディーエリア"}},"1691501555":{"location":[35.2035152,137.604215],"ct":"JP","tp":"CR","ts":"2012-03-26T04:29:05Z","tX":903,"tY":404,"tags":{"name":"リバーサイドエリア"}},"1691501558":{"location":[35.204107,137.6033004],"ct":"JP","tp":"CR","ts":"2012-03-26T04:29:05Z","tX":903,"tY":404,"tags":{"name":"リバーサイドエリア"}},"5743276421":{"location":[35.4403922,137.4939129],"ct":"JP","tp":"CS","ts":"2018-07-06T09:59:51Z","tX":903,"tY":404,"tags":{"name":"根の上高原保古の湖キャンプ場"}}}