{"75608940":{"location":[-12.4982092,131.0332076],"ct":"AU","tp":"CR","ts":"2024-04-26T13:50:20Z","tX":884,"tY":547,"tags":{"addr:city":"Howard Springs","addr:country":"AU","addr:housenumber":"170","addr:street":"Whitewood Road","brand":"Big 4 Holiday Parks","brand:wikidata":"Q18636678","name":"Big4 Howard Springs Holiday Park","phone":"+61 8 8983 1169","short_name":"Big4"}},"75609561":{"location":[-12.3439219,130.8935596],"ct":"AU","tp":"CR","ts":"2023-11-21T03:53:50Z","tX":884,"tY":547,"tags":{"addr:city":"Lee Point","addr:country":"AU","addr:street":"Lee Point Road","name":"Lee Point Village Resort","phone":"+61 8 8945 0535"}},"241230066":{"location":[-12.4014424,130.9068221],"ct":"AU","tp":"CR","ts":"2024-07-03T07:07:12Z","tX":884,"tY":547,"tags":{"name":"Malak Caravan Park"}},"241738103":{"location":[-12.5082149,131.01695],"ct":"AU","tp":"CR","ts":"2023-11-21T03:53:50Z","tX":884,"tY":547,"tags":{"addr:city":"Howard Springs","addr:country":"AU","addr:housenumber":"17","addr:street":"Morgan Road","name":"Oasis Tourist Park","phone":"+61 8 8983 1048"}},"406434181":{"location":[-12.4364135,130.9169896],"ct":"AU","tp":"CR","ts":"2019-03-23T05:28:30Z","tX":884,"tY":547,"tags":{"addr:housenumber":"25","addr:street":"Hidden Valley Road","email":"hiddenvalley@freespiritresorts.com.au","name":"Hidden Valley Tourist Park","website":"https://www.hiddenvalleyholidaypark.com.au/"}},"564876160":{"location":[-12.5235015,131.039194],"ct":"AU","tp":"CR","ts":"2019-01-05T17:44:20Z","tX":884,"tY":547,"tags":{"phone":"+61 8 8983 1026","website":"http://coolalingacaravanpark.com.au/"}},"564876163":{"location":[-12.5221854,131.0393461],"ct":"AU","tp":"CR","ts":"2019-01-05T17:45:04Z","tX":884,"tY":547,"tags":{"building":"office","name":"Coolalinga Caravan Park","phone":"+61 8 8983 1026","website":"http://coolalingacaravanpark.com.au/"}},"1811182222":{"location":[-12.22389,131.0925],"ct":"AU","tp":"CS","ts":"2012-07-03T12:01:45Z","tX":884,"tY":547,"tags":{"name":"Leader Creek Fishing Camp"}},"2139838599":{"location":[-12.5175318,131.0288334],"ct":"AU","tp":"CR","ts":"2013-02-03T09:02:06Z","tX":884,"tY":547,"tags":{"name":"Darwin Boomerand Motel and Caravan Park"}},"6914894153":{"location":[-12.5442773,131.1140378],"ct":"AU","tp":"CS","ts":"2019-10-25T08:38:45Z","tX":884,"tY":547,"tags":{"name":"Fishers Rest"}},"8915515917":{"location":[-12.4420352,130.941485],"ct":"AU","tp":"CR","ts":"2021-08-17T06:08:40Z","tX":884,"tY":547,"tags":{"addr:street":"Wongabilla Street","description":"equestrian reserve / caravan park","leisure":"horse_riding","name":"Robbie Robins Reserve","sport":"equestrian"}},"10056803961":{"location":[-12.5078912,131.0170889],"ct":"AU","tp":"SD","ts":"2022-09-27T18:16:54Z","tX":884,"tY":547,"tags":{}},"11608794869":{"location":[-12.4281713,130.8945939],"ct":"AU","tp":"SD","ts":"2024-03-21T01:13:56Z","tX":884,"tY":547,"tags":{"addr:postcode":"0820","addr:street":"Hook Road","name":"Free Septic Dump Point","name:en":"Winellie Free Dump Point"}}}