{"11223070":{"location":[50.3716019,86.6892703],"ct":"RU","tp":"CS","ts":"2020-06-21T05:14:21Z","tX":758,"tY":345,"tags":{"camp_site":"serviced","contact:website":"http://inegen.ru/","leisure":"resort","name":"Агротуркомплекс \"Ферма Инегень\"","resort":"camp_site"}},"14434214":{"location":[50.49789,86.5674364],"ct":"RU","tp":"CS","ts":"2022-08-10T14:53:19Z","tX":758,"tY":345,"tags":{"addr:housenumber":"23","addr:street":"Катунская улица","name":"Улан","phone":"+7-983-326-33-92","resort":"tourist_camp"}},"816914595":{"location":[50.4982694,86.568663],"ct":"RU","tp":"CS","ts":"2022-08-10T14:53:19Z","tX":758,"tY":345,"tags":{"barrier":"fence","name":"Байкан на берегу Катуни","phone":"+7-913-697-11-45"}},"816914596":{"location":[50.4981689,86.5701387],"ct":"RU","tp":"CS","ts":"2022-08-10T14:53:19Z","tX":758,"tY":345,"tags":{"barrier":"fence","name":"Кан Кереде","phone":"+7-983-582-24-08","residential":"rural"}},"817564395":{"location":[50.4377862,86.6194235],"ct":"RU","tp":"CS","ts":"2022-08-10T13:55:16Z","tX":758,"tY":345,"tags":{"addr:housenumber":"39","addr:street":"Новая улица","barrier":"fence","name":"Четыре богатыря","opening_hours":"24/7","phone":"+7-983-329-06-70;89139968888"}},"817864145":{"location":[50.3336398,86.6901524],"ct":"RU","tp":"CS","ts":"2020-06-21T05:14:21Z","tX":758,"tY":345,"tags":{"barrier":"fence","cabins":"yes","camp_site":"serviced","name":"Ирбис"}},"817986328":{"location":[50.3562979,86.678807],"ct":"RU","tp":"CS","ts":"2022-08-10T13:55:16Z","tX":758,"tY":345,"tags":{"barrier":"fence","camp_site":"serviced","name":"Ижемди","phone":"+7-983-328-98-89"}},"817986346":{"location":[50.3517983,86.6803332],"ct":"RU","tp":"CS","ts":"2020-06-21T05:14:21Z","tX":758,"tY":345,"tags":{"barrier":"fence","camp_site":"serviced"}},"1085359105":{"location":[50.3848636,86.6712735],"ct":"RU","tp":"CS","ts":"2022-08-10T13:55:16Z","tX":758,"tY":345,"tags":{"barrier":"fence","name":"Ак Марал","phone":"+7-913-990-29-60"}},"1085359110":{"location":[50.4951481,86.6214003],"ct":"RU","tp":"CS","ts":"2022-08-10T13:55:16Z","tX":758,"tY":345,"tags":{"name":"У камней Сартакпая","phone":"+7-983-325-08-02"}},"1085359111":{"location":[50.4993165,86.6222651],"ct":"RU","tp":"CS","ts":"2022-08-10T13:55:16Z","tX":758,"tY":345,"tags":{"name":"Арчынду","phone":"+7-913-699-81-58"}},"1085372249":{"location":[50.5017695,86.582242],"ct":"RU","tp":"CS","ts":"2022-08-10T14:53:19Z","tX":758,"tY":345,"tags":{"name":"Лазурный берег","phone":"+7-983-580-76-36"}},"1085372250":{"location":[50.4997973,86.5802715],"ct":"RU","tp":"CS","ts":"2022-08-10T14:53:19Z","tX":758,"tY":345,"tags":{"name":"Айхал","phone":"+7-913-991-26-12"}},"1085372251":{"location":[50.4964707,86.5712482],"ct":"RU","tp":"CS","ts":"2022-08-10T14:53:19Z","tX":758,"tY":345,"tags":{"name":"Байлык","phone":"+7-913-996-84-40"}},"1085372252":{"location":[50.5090199,86.5680358],"ct":"RU","tp":"CS","ts":"2022-08-10T14:53:19Z","tX":758,"tY":345,"tags":{"addr:housenumber":"2","addr:street":"Р 256, 694 км","barrier":"fence","name":"На берегу Катуни","opening_hours":"24/7","phone":"89139925570"}},"1085372254":{"location":[50.5098249,86.5717802],"ct":"RU","tp":"CS","ts":"2022-08-10T14:53:19Z","tX":758,"tY":345,"tags":{"name":"Айртаж"}},"1085372256":{"location":[50.5104513,86.5737762],"ct":"RU","tp":"CS","ts":"2022-08-10T14:53:19Z","tX":758,"tY":345,"tags":{"name":"Яломан_camp","phone":"+7-913-993-39-14"}},"1085372258":{"location":[50.5076179,86.5730739],"ct":"RU","tp":"CS","ts":"2022-08-10T14:53:19Z","tX":758,"tY":345,"tags":{"name":"База отдыха","phone":"+7-913-692-72-62"}},"1905768950":{"location":[50.3949259,86.6659824],"ct":"RU","tp":"CS","ts":"2019-08-10T17:57:58Z","tX":758,"tY":345,"tags":{"name":"Слияние Чуи и Катуни","name:ru":"Гора с ликом воина и коня!"}},"3498949438":{"location":[50.4562076,86.6211217],"ct":"RU","tp":"CS","ts":"2015-05-05T11:37:06Z","tX":758,"tY":345,"tags":{"impromptu":"yes"}},"5153402469":{"location":[50.3929932,86.6725231],"ct":"RU","tp":"CS","ts":"2017-10-07T11:40:45Z","tX":758,"tY":345,"tags":{}},"5782253553":{"location":[50.479838,86.6434273],"ct":"RU","tp":"CS","ts":"2018-07-24T17:15:39Z","tX":758,"tY":345,"tags":{}},"9710634617":{"location":[50.3947623,86.6702665],"ct":"RU","tp":"CS","ts":"2022-05-03T05:55:01Z","tX":758,"tY":345,"tags":{}},"9950453217":{"location":[50.3999714,86.8180255],"ct":"RU","tp":"CS","ts":"2022-08-13T04:33:06Z","tX":758,"tY":345,"tags":{"name":"Кемпинг"}}}