{"150653480":{"location":[54.2218497,-4.6823801],"ct":"IM","tp":"CS","ts":"2023-09-21T22:33:36Z","tX":498,"tY":327,"tags":{"name":"Peel Camping Park","website":"https://www.peelonline.net/wheretostay/campsite.htm"}},"283505662":{"location":[54.2821138,-4.5928806],"ct":"IM","tp":"CS","ts":"2023-11-14T16:56:24Z","tX":498,"tY":327,"tags":{"name":"Glen Wyllin","postal_code":"IM6 1AL","website":"https://www.isleofman.com/Business/g/glenwyllin"}},"475394051":{"location":[54.2009575,-4.6569504],"ct":"IM","tp":"CS","ts":"2010-06-03T22:25:29Z","tX":498,"tY":327,"tags":{"name":"Ballaspit","place":"farm","source":"Isle of Man Government 1:25000 map (2007)"}},"901997108":{"location":[54.2256417,-4.6160667],"ct":"IM","tp":"CS","ts":"2023-05-04T21:00:14Z","tX":498,"tY":327,"tags":{"addr:city":"St Johns","addr:country":"IM","addr:place":"Glen Helen","addr:postcode":"IM4 3NP","caravans":"no","contact:facebook":"https://www.facebook.com/glenhelenglamping","fee":"yes","glamping_pods":"yes","name":"Glen Helen Glamping","pets_allowed":"no","static_caravans":"no","tents":"no","website":"https://www.glenhelenglamping.com"}},"991780874":{"location":[54.2606595,-4.5790315],"ct":"IM","tp":"CS","ts":"2023-05-01T21:18:54Z","tX":498,"tY":327,"tags":{"addr:city":"Kirk Michael","addr:country":"IM","addr:postcode":"IM6 1HQ","addr:street":"Barregarrow Crossroads","caravans":"yes","fee":"yes","fixme":"facilities and various self catering cottages as well","name":"Cronk Aashen Farm","tents":"yes","website":"https://www.cronkaashen.co.uk"}},"6918863985":{"location":[54.2869095,-4.5874254],"ct":"IM","tp":"CS","ts":"2023-02-23T15:45:34Z","tX":498,"tY":327,"tags":{"addr:city":"Kirk Michael","addr:housename":"Michael United AFC","addr:postcode":"IM6 1EE","addr:street":"Balleira Road","name":"Michael United AFC Campsite","seasonal":"yes","website":"https://www.visitisleofman.com/trade/information/product-catch-all/michael-utd-afc-campsite-p1287451"}},"10688639709":{"location":[54.2914336,-4.5794224],"ct":"IM","tp":"CS","ts":"2023-02-23T15:34:12Z","tX":498,"tY":327,"tags":{"contact:facebook":"https://www.facebook.com/pbcampsiteiom/","name":"Pennybridge TT Campsite","seasonal":"yes"}},"10693193695":{"location":[54.1999632,-4.6384569],"ct":"IM","tp":"CS","ts":"2024-07-19T21:41:50Z","tX":498,"tY":327,"tags":{"addr:city":"St John's","addr:housename":"Mullen-e-Cloie","addr:postcode":"IM4 3AR","addr:street":"Foxdale Road","name":"St John's United Football Club Campsite","seasonal":"yes","website":"https://www.stjohnsfootballclub.com/"}}}