{"367136025":{"location":[53.2550604,-4.590511],"ct":"GB","tp":"CS","ts":"2024-10-01T12:10:16Z","tX":498,"tY":332,"tags":{"name":"Parc Carafannau Pwll Preban"}},"367321475":{"location":[53.2844783,-4.6354333],"ct":"GB","tp":"CR","ts":"2024-08-20T12:23:19Z","tX":498,"tY":332,"tags":{}},"367494037":{"location":[53.2755338,-4.6122229],"ct":"GB","tp":"CS","ts":"2024-09-03T13:01:04Z","tX":498,"tY":332,"tags":{"name":"Tyn Towyn Campsite"}},"367512592":{"location":[53.2737549,-4.600017],"ct":"GB","tp":"CS","ts":"2024-10-01T14:40:36Z","tX":498,"tY":332,"tags":{"name":"Tan Y Graig Caravan Park","phone":"+44 1407861882","source":"OpenStreetmap Notes"}},"367512593":{"location":[53.2734506,-4.5989866],"ct":"GB","tp":"CR","ts":"2024-10-01T14:40:36Z","tX":498,"tY":332,"tags":{}},"380638890":{"location":[53.3021864,-4.6793634],"ct":"GB","tp":"CS","ts":"2019-03-19T17:17:06Z","tX":498,"tY":332,"tags":{"addr:postcode":"LL65 1YL","name":"Ty Mawr Farm Campsite","website":"https://www.campingandcaravanningclub.co.uk/campsites/uk/isleofanglesey/holyhead/tymawrfarm"}},"457639468":{"location":[53.2763857,-4.5813268],"ct":"GB","tp":"CR","ts":"2024-11-18T10:54:05Z","tX":498,"tY":332,"tags":{"addr:city":"Holyhead","addr:country":"GB","addr:postcode":"LL65 3EY","addr:suburb":"Y Fali / Valley","name":"Pen Y Bont Caravan & Camping","website":"https://www.ffermpenybont.co.uk/"}},"457657530":{"location":[53.2867223,-4.6072452],"ct":"GB","tp":"CR","ts":"2024-09-03T10:12:59Z","tX":498,"tY":332,"tags":{"name":"Trearddur Bay Country Park"}},"457753539":{"location":[53.2547402,-4.5925337],"ct":"GB","tp":"CS","ts":"2016-12-04T21:17:57Z","tX":498,"tY":332,"tags":{}},"458589784":{"location":[53.2921643,-4.6440307],"ct":"GB","tp":"CR","ts":"2024-09-30T12:09:58Z","tX":498,"tY":332,"tags":{"name":"Valley Of The Rocks Caravan Park"}},"458589785":{"location":[53.2912137,-4.6439674],"ct":"GB","tp":"CS","ts":"2024-09-30T12:09:58Z","tX":498,"tY":332,"tags":{"access":"customers","addr:city":"Isle of Anglesey","addr:postcode":"LL65 2LL","addr:street":"Porthdafarch Road","fee":"yes","name":"Valley Of The Rocks Campsite","phone":"+44 1407 765787","sanitary_dump_station":"yes","shower":"yes","toilets":"yes"}},"458754020":{"location":[53.2915815,-4.6610335],"ct":"GB","tp":"CS","ts":"2019-03-16T12:28:53Z","tX":498,"tY":332,"tags":{"addr:postcode":"LL65 2LT","name":"Tan-y-Graig","website":"https://www.ukcampsite.co.uk/sites/details.asp?revid=9547"}},"458788324":{"location":[53.2921877,-4.6637289],"ct":"GB","tp":"CS","ts":"2024-08-06T11:44:37Z","tX":498,"tY":332,"tags":{"access":"customers","addr:city":"Holyhead, Angelsey, North Wales","addr:housename":"Blackthorn Farm","addr:postcode":"LL65 2LT","addr:street":"Penrhos Feilw","name":"Blackthorn Farm Campsite","phone":"+44 1407 765262","sanitary_dump_station":"yes","shower":"yes","toilets":"yes","website":"https://blackthornfarm.co.uk/","wheelchair":"yes"}},"458788325":{"location":[53.2914864,-4.6652559],"ct":"GB","tp":"CR","ts":"2022-05-25T01:37:21Z","tX":498,"tY":332,"tags":{"addr:postcode":"LL65 2LT","name":"Blackthorn Farm Caravan Park","website":"https://blackthornfarm.co.uk/"}},"478156976":{"location":[53.3028324,-4.6138123],"ct":"GB","tp":"CR","ts":"2017-03-02T21:19:02Z","tX":498,"tY":332,"tags":{}},"517918871":{"location":[53.2703078,-4.6135885],"ct":"GB","tp":"CR","ts":"2024-10-01T15:10:09Z","tX":498,"tY":332,"tags":{"addr:postcode":"LL65 2AX","name":"Bagnol Caravan Park","website":"http://www.bagnolcaravanpark.co.uk"}},"517918872":{"location":[53.2665768,-4.6117814],"ct":"GB","tp":"CR","ts":"2024-09-05T14:38:19Z","tX":498,"tY":332,"tags":{"addr:postcode":"LL65 2AX","name":"Gwynfair Caravan Park"}},"589967010":{"location":[53.2691447,-4.6105645],"ct":"GB","tp":"CS","ts":"2018-05-21T20:39:50Z","tX":498,"tY":332,"tags":{"name":"Tyn Rhos"}},"688430647":{"location":[53.2460442,-4.5823002],"ct":"GB","tp":"CS","ts":"2019-03-19T17:16:48Z","tX":498,"tY":332,"tags":{"addr:postcode":"LL65 2NQ","name":"Cerrig-yr-Adar","name:en":"Outdoor Alternative","website":"https://www.outdooralternative.co.uk/"}},"1190998599":{"location":[53.305527,-4.6822483],"ct":"GB","tp":"CR","ts":"2023-07-21T08:25:12Z","tX":498,"tY":332,"tags":{}},"1190998600":{"location":[53.3054643,-4.6821069],"ct":"GB","tp":"CR","ts":"2023-07-21T08:25:12Z","tX":498,"tY":332,"tags":{}},"1190998601":{"location":[53.3054125,-4.6819862],"ct":"GB","tp":"CR","ts":"2023-07-21T08:25:12Z","tX":498,"tY":332,"tags":{}},"1314342135":{"location":[53.2548929,-4.5921169],"ct":"GB","tp":"CS","ts":"2024-10-01T12:10:16Z","tX":498,"tY":332,"tags":{"name":"Penrorsedd Caravan SIte"}},"12055138898":{"location":[53.2693885,-4.5933538],"ct":"GB","tp":"CR","ts":"2024-07-22T12:04:36Z","tX":498,"tY":332,"tags":{"addr:city":"Holyhead","addr:housename":"Hafod-Y-Plas Caravan and Camping","addr:postcode":"LL65 2EJ","name":"Hafod-Y-Plas Caravan and Camping"}}}