{"176978037":{"location":[52.0998144,-4.7019844],"ct":"GB","tp":"CR","ts":"2024-04-08T19:39:34Z","tX":498,"tY":337,"tags":{"addr:city":"Poppit","addr:postcode":"SA43 3LW","facebook":"https://www.facebook.com/holidaysbythesea/","fee":"yes","internet_access":"wlan","name":"Cardigan Bay Holiday Park","power_supply":"yes","source":"Bing","website":"https://www.cardiganbay.co.uk/"}},"355823463":{"location":[52.111117,-4.7257335],"ct":"GB","tp":"CS","ts":"2023-07-05T09:37:38Z","tX":498,"tY":337,"tags":{"addr:city":"Poppit","addr:housename":"Alltycoed","addr:postcode":"SA43 3LP","bbq":"yes","cabins":"yes","caravans":"yes","description":"Alltycoed farm, campsite and yurts is located on gate one of the Pembrokeshire Coast Path Walk","drinking_water":"yes","facebook":"https://www.facebook.com/AlltycoedCampsite/","fee":"yes","hot_water":"yes","internet_access":"wlan","lit":"no","motor_vehicle":"yes","name":"Alltycoed Campsite","payment:cash":"yes","payment:cryptocurrencies":"yes","permanent_camping":"no","phone":"+44 1239 612673","power_supply":"no","reservation":"recommended","sanitary_dump_station":"no","shower":"yes","swimming_pool":"no","tents":"yes","toilets":"yes","washing_machine":"no","website":"http://www.alltycoed.co.uk","wheelchair":"limited"}},"405365673":{"location":[52.091521,-4.6353812],"ct":"GB","tp":"CR","ts":"2019-05-19T19:25:51Z","tX":498,"tY":337,"tags":{"addr:city":"Cardigan","addr:country":"GB","addr:place":"Aelybryn","addr:postcode":"SA43 1QY","alt_name":"Aelybryn","capacity":"13","name":"Cardigan Caravan and Camping Site","phone":"+44 7773 344707","power_supply":"yes","sanitary_dump_station":"yes","url":"https://www.pitchup.com/campsites/Wales/West-Wales/Ceredigion/Cardigan/cardigan-caravan-camping-site/"}},"551484802":{"location":[52.10579,-4.685756],"ct":"GB","tp":"CR","ts":"2021-06-22T08:37:52Z","tX":498,"tY":337,"tags":{"addr:city":"Gwbert on Sea","addr:postcode":"SA43 1PP","description":"Static caravans for rent or sale only. No touring vans or tents.","name":"Patch Caravan Park","operator":"Evelyn Crescent Ltd","phone":"+44 1239 615858","power_supply":"yes","sanitary_dump_station":"yes","website":"http://www.patchcaravanpark.co.uk/"}},"603755632":{"location":[52.0664115,-4.6646574],"ct":"GB","tp":"CR","ts":"2018-07-02T12:59:39Z","tX":498,"tY":337,"tags":{"addr:city":"Cardigan / Aberteifi","addr:housename":"Pentwd Uchaf Farm","addr:postcode":"SA43 3DR","addr:street":"Fishguard Road","capacity":"20","internet_access":"wlan","internet_access:fee":"no","name":"Cardigan Camping and Caravan Site","operator":"Pentwd Uchaf Farm","phone":"+44 7773 721316","power_supply":"yes","sanitary_dump_station":"yes","website":"http://www.cardigancaravansite.co.uk/"}},"686925444":{"location":[52.1366321,-4.6345146],"ct":"GB","tp":"CR","ts":"2019-04-30T19:11:21Z","tX":498,"tY":337,"tags":{"addr:city":"Mwnt","addr:postcode":"SA43 1QH","name":"Ty Gwyn Caravan & Camping Park","phone":"+44 1239 614518","sanitary_dump_station":"yes"}},"699147912":{"location":[52.1270398,-4.6578763],"ct":"GB","tp":"CS","ts":"2010-04-16T22:03:59Z","tX":498,"tY":337,"tags":{}},"699147914":{"location":[52.1272413,-4.6578245],"ct":"GB","tp":"CR","ts":"2010-04-16T22:03:59Z","tX":498,"tY":337,"tags":{}},"704347763":{"location":[52.1078757,-4.6142855],"ct":"GB","tp":"CS","ts":"2019-07-14T16:28:13Z","tX":498,"tY":337,"tags":{"addr:city":"Penparc","addr:postcode":"SA43 1SA","caravans":"yes","dog":"yes","drinking_water":"yes","fee":"yes","internet_access":"wlan","internet_access:fee":"no","motor_vehicle":"yes","name":"Brongwyn Touring and Camping Park","operator":"Cardigan Holidays @ Brongwyn","phone":"+44 1239 613644","power_supply":"yes","sanitary_dump_station":"yes","swimming_pool":"yes","tents":"yes","url":"https://www.cardiganholidays.co.uk/touring--camping.html","washing_machine":"yes"}},"945067504":{"location":[52.0623821,-4.6438002],"ct":"GB","tp":"CS","ts":"2021-05-20T10:29:57Z","tX":498,"tY":337,"tags":{"name":"Fforest Camp","operator":"Fforest"}},"1215416421":{"location":[52.0586706,-4.7716053],"ct":"GB","tp":"CR","ts":"2023-10-13T17:01:01Z","tX":498,"tY":337,"tags":{}},"11025889492":{"location":[52.1217538,-4.6356489],"ct":"GB","tp":"CS","ts":"2024-10-04T19:17:13Z","tX":498,"tY":337,"tags":{"addr:city":"Ferwig, Cardigan","addr:housename":"Llwyncelyn","addr:postcode":"SA43 1QB","addr:street":"Mwnt Road","check_date":"2024-10-04","currency:XBT":"yes","name":"Mwnt Camping","payment:lightning":"yes","payment:lightning_contactless":"yes","payment:onchain":"yes","website":"https://www.mwntcamping.com"}}}