{"107372652":{"location":[48.5273589,-4.7598288],"ct":"FR","tp":"CS","ts":"2022-08-16T15:47:04Z","tX":498,"tY":353,"tags":{"addr:street":"Saint-Gonvel","caravans":"yes","internet_access":"wlan","internet_access:fee":"no","name":"Camping municipal de Saint-Gonvel","stars":"1","tents":"yes"}},"131664972":{"location":[48.4795563,-4.7519039],"ct":"FR","tp":"CS","ts":"2022-08-09T09:14:01Z","tX":498,"tY":353,"tags":{"addr:housenumber":"11","addr:street":"Route du Camping","caravans":"yes","name":"Camping du Tromeur","name:br":"Tachenn-gampiñ Tromeur","source:name:br":"proper translation","stars":"2","tents":"yes","website":"https://www.tromeur.fr"}},"131862614":{"location":[48.5689139,-4.6573683],"ct":"FR","tp":"CS","ts":"2024-06-04T18:33:05Z","tX":498,"tY":353,"tags":{"addr:city":"Lampaul-Ploudalmézeau","addr:postcode":"29830","addr:street":"Le Vourc'h","alt_name":"Le camping de Lampaul","capacity:tents":"100","caravans":"yes","fee":"yes","mobile":"+33 2 98 48 11 28","name":"Camping municipal des Dunes","name:br":"Tachenn-gampiñ kêr an Tevennioù","opening_hours":"Jun 15-Sep 20","operator":"Mairie de Lampaul-Ploudalmézeau","phone":"+33 2 98 30 79 88","source:name:br":"proper translation","stars":"2","static_caravans":"no","tents":"yes","website":"https://lampaul-ploudalmezeau.bzh/camping-municipal/la-camping-de-lampaul.html"}},"131863890":{"location":[48.5757761,-4.6290334],"ct":"FR","tp":"CS","ts":"2021-07-09T21:38:35Z","tX":498,"tY":353,"tags":{"addr:city":"Saint-Pabu","addr:housenumber":"89","addr:postcode":"29830","addr:street":"Rue de Corn Ar Gazel","capacity":"100","caravans":"yes","dog":"yes","email":"contact@camping-aber-benoit.com","name":"Camping de l'Aber Benoît","phone":"+33 2 98 89 76 25","stars":"2","tents":"yes","website":"https://www.camping-aber-benoit.com","wheelchair":"yes"}},"131865515":{"location":[48.5937814,-4.6037889],"ct":"FR","tp":"CS","ts":"2024-06-04T18:17:57Z","tX":498,"tY":353,"tags":{"addr:city":"Landéda","addr:housenumber":"51","addr:postcode":"29870","addr:street":"Toull Treaz","capacity:tents":"180","caravans":"yes","email":"info@camping-des-abers.com","fee":"yes","name":"Camping des Abers","name:br":"Tachenn-gampiñ an Aberioù","phone":"+33 2 98 04 93 35","shower":"yes","source:name:br":"ofis publik ar brezhoneg","stars":"4","static_caravans":"yes","tents":"yes","toilets":"yes","website":"https://www.camping-des-abers.com/"}},"131868097":{"location":[48.603556,-4.5974918],"ct":"FR","tp":"CS","ts":"2024-06-04T18:11:45Z","tX":498,"tY":353,"tags":{"addr:city":"Landéda","addr:housenumber":"551","addr:postcode":"29870","addr:street":"Lieu dit Penn-Enez","capacity:tents":"92","caravans":"yes","fee":"yes","motor_vehicle":"yes","name":"Camping de Penn Enez","name:br":"Tachenn-gampiñ Penn Enez","operator":"Municipal","phone":"+33 2 98 89 55 78","power_supply":"yes","source:name:br":"ofis publik ar brezhoneg","stars":"1","static_caravans":"no","tents":"yes","website":"https://www.camping-penn-enez.com/","wheelchair":"designated"}},"245105867":{"location":[48.5659489,-4.6992872],"ct":"FR","tp":"CR","ts":"2024-10-11T18:10:00Z","tX":498,"tY":353,"tags":{"capacity":"ca. 30","caravan_site":"motorhome_stopover","caravan_site:type":"beach","charge":"8 EUR","fee":"yes","internet_access":"no","maxstay":"72 hours","name":"Aire de Camping-Car de Kerros","opening_hours":"24/7","operator":"Commune de Ploudalmezeau","power_supply":"yes","power_supply:capacity":"40","power_supply:maxcurrent":"16","sanitary_dump_station":"yes","surface":"grass","tents":"no","water_point":"yes","website":"https://www.ploudalmezeau.fr/"}},"1236453794":{"location":[48.514089,-4.7586243],"ct":"FR","tp":"CS","ts":"2024-10-24T22:50:47Z","tX":498,"tY":353,"tags":{"addr:city":"Porspoder","addr:postcode":"29840","addr:street":"Route de Keroustad","camp_site":"serviced","capacity":"35","caravans":"yes","fee":"yes","fixme":"verify if still exists. website not working","internet_access":"yes","name":"Camping Mézou Pors","name:br":"Kêriadenn Vakañsiñ Kumun Porspoder","payment:cash":"yes","payment:cheque":"yes","payment:credit_cards":"no","payment:cryptocurrencies":"no","payment:debit_cards":"no","payment:electronic_purses":"no","phone":"+33 6 58 14 89 94","power_supply":"yes","reservation":"recommended","sanitary_dump_station":"customers","source:name:br":"proper translation","tents":"yes","website":"http://www.villagevacancesmezoupors.fr/le-camping-presentation/","wheelchair":"yes"}},"1292946566":{"location":[48.5676483,-4.6694048],"ct":"FR","tp":"CR","ts":"2024-10-11T18:09:21Z","tX":498,"tY":353,"tags":{"capacity":"48","caravan_site":"motorhome_stopover","caravan_site:type":"countryside","charge":"15 EUR","charge:conditional":"12.22 EUR @ (Oct-Apr)","dog":"yes","fee":"yes","internet_access":"wlan","name":"Ploudalmézeau aire de Tréompan","network":"AirePark","power_supply":"yes","power_supply:maxcurrent":"10","sanitary_dump_station":"yes","sanitary_dump_station:chemical_toilet":"yes","sanitary_dump_station:grey_water":"yes","website":"https://www.aireparkreservation.com/aires-camping-cars/bretagne/finistere/ploudalmezeau-aire-de-treompan"}},"3560247369":{"location":[48.5658113,-4.6990358],"ct":"FR","tp":"SD","ts":"2015-05-31T07:19:32Z","tX":498,"tY":353,"tags":{"access":"customers","drinking_water":"yes","fee":"yes"}},"6682045226":{"location":[48.5142613,-4.7580477],"ct":"FR","tp":"SD","ts":"2019-08-05T11:54:41Z","tX":498,"tY":353,"tags":{"access":"customers","sanitary_dump_station:gravity":"yes","sanitary_dump_station:suction":"no","water_point":"yes"}}}