{"44145228":{"location":[48.3404051,-4.7022101],"ct":"FR","tp":"CS","ts":"2022-08-21T12:04:47Z","tX":498,"tY":354,"tags":{"addr:street":"Route de Perzel","caravans":"yes","name":"Les Terrasses de Bertheaume","stars":"3","tents":"yes","website":"https://www.camping-brest.com/"}},"44150827":{"location":[48.3374276,-4.706912],"ct":"FR","tp":"CR","ts":"2024-10-12T21:24:35Z","tX":498,"tY":354,"tags":{"caravan_site":"motorhome_stopover","caravan_site:type":"coastal","charge":"10.20 EUR","fee":"yes","name":"Aire de camping-cars de Bertheaume-Plougonvelin","name:br":"Leur kirri-kampiñ Perzell","power_supply":"yes","power_supply:capacity":"50","power_supply:fee":"no","sanitary_dump_station":"yes","seasonal":"no","shower":"yes","source:name:br":"proper translation","toilets":"yes","water_point":"yes","water_point:charge":"2 EUR","water_point:fee":"yes","website":"https://www.iroise-bretagne.bzh/hebergement/aire-de-camping-cars-de-bertheaume-plougonvelin/"}},"51017926":{"location":[48.4361809,-4.7826889],"ct":"FR","tp":"CS","ts":"2023-03-16T08:36:49Z","tX":498,"tY":354,"tags":{"caravans":"yes","name":"Camping municipal de Porscuidic","stars":"2","tents":"yes","website":"https://campings-plouarzel.jimdofree.com/"}},"56042299":{"location":[48.4225827,-4.7853615],"ct":"FR","tp":"CR","ts":"2024-10-26T21:15:05Z","tX":498,"tY":354,"tags":{"caravan_site":"motorhome_stopover","caravan_site:type":"beach","caravans":"yes","charge":"10.22 EUR","charge:conditional":"3.77 EUR @ (Oct-Mar)","fee":"yes","internet_access":"wlan","internet_access:fee":"no","name":"Aire de Camping-car de Ruscumunoc","operator":"Commune Plouarzel","power_supply":"yes","power_supply:charge":"3.50 EUR","power_supply:conditional":"yes @ (Oct-Mar)","power_supply:fee":"no","sanitary_dump_station":"yes","shower":"yes","shower:charge":"1.20 EUR","shower:fee":"yes","tents":"no","water_point":"yes","water_point:charge":"2 EUR","water_point:fee":"yes","website":"https://www.iroise-bretagne.bzh/hebergement/aire-de-camping-cars-de-ruscumunoc/"}},"56042300":{"location":[48.4287018,-4.7821492],"ct":"FR","tp":"CS","ts":"2025-06-15T10:01:11Z","tX":498,"tY":354,"tags":{"caravans":"yes","name":"Camping municipal de Porstevigné","stars":"2","tents":"yes","website":"https://campings-plouarzel.jimdofree.com/"}},"59828803":{"location":[48.4511514,-4.7101144],"ct":"FR","tp":"CS","ts":"2011-09-29T13:44:08Z","tX":498,"tY":354,"tags":{"addr:street":"Caletour","mapcode":"2","name":"Camping vert de Lanniouarn","name:br":"Tachenn-gampiñ glas Lanniouarn","stars":"3"}},"131663149":{"location":[48.3562895,-4.6702878],"ct":"FR","tp":"CS","ts":"2024-09-24T19:19:27Z","tX":498,"tY":354,"tags":{"addr:city":"Locmaria-Plouzané","addr:postcode":"29280","addr:street":"Plage de Portez","capacity":"100","caravans":"yes","dog":"yes","email":"camping-portez@locmaria-plouzane.fr","internet_access":"no","name":"Camping municipal de Portez","name:br":"Tachenn-gampiñ kêr Portez","phone":"+33 2 98 48 49 85","source:name:br":"proper translation","stars":"2","tents":"yes","website":"http://camping-portez.fr/"}},"131663523":{"location":[48.3454536,-4.7419848],"ct":"FR","tp":"CS","ts":"2024-07-23T17:07:13Z","tX":498,"tY":354,"tags":{"addr:city":"Plougonvelin","addr:postcode":"29217","addr:street":"Kéryel","capacity:tents":"16","caravans":"yes","check_date":"2024-07-23","email":"domainedekeryel@gmail.com","fee":"yes","mobile":"+33 2 98 48 33 35","name":"Domaine de Kéryel","phone":"+33 7 83 200 201","shower":"yes","stars":"3","tents":"yes","toilets":"yes","website":"https://domainedekeryel.fr/"}},"131663820":{"location":[48.3665761,-4.7586806],"ct":"FR","tp":"CS","ts":"2025-06-11T07:57:26Z","tX":498,"tY":354,"tags":{"addr:city":"Le Conquet","addr:postcode":"29217","addr:street":"Route de Kermorvan","capacity:pitches":"235","caravans":"yes","internet_access":"wlan","internet_access:fee":"yes","name":"Camping les Blancs Sablons","name:br":"Tachenn-gampiñ Gwendraezh","nudism":"no","phone":"+33 2 98 36 07 91","sanitary_dump_station":"customers","stars":"2","tents":"yes","website":"https://www.camping-blancs-sablons.com","wheelchair":"designated"}},"131665195":{"location":[48.4392998,-4.6297133],"ct":"FR","tp":"CS","ts":"2025-05-16T20:47:16Z","tX":498,"tY":354,"tags":{"addr:street":"Route de l'Aber","caravans":"yes","name":"Camping municipal de Lokournan","name:br":"Tachenn-gampiñ kêr Lokournan","source:name:br":"proper translation","stars":"2","tents":"yes"}},"131780680":{"location":[48.2764205,-4.6069628],"ct":"FR","tp":"CS","ts":"2024-09-10T05:32:45Z","tX":498,"tY":354,"tags":{"addr:street":"rue de Grouanoc'h","caravans":"yes","drinking_water":"yes","mobile":"+33 6 42 65 22 20","name":"Camping municipal du Lannic","name:br":"Tachenn-gampién al Lannig","openfire":"no","phone":"+33 2 98 27 91 31","power_supply":"yes","sanitary_dump_station":"yes","shower":"hot","source:name:br":"proper translation","stars":"2","tents":"yes","toilets":"yes","website":"http://www.camaret-sur-mer.com/le-camping-municipal-du-lannic.php"}},"201377745":{"location":[48.4473536,-4.7764986],"ct":"FR","tp":"CR","ts":"2024-10-28T23:43:59Z","tX":498,"tY":354,"tags":{"capacity":"50","caravan_site":"motorhome_stopover","caravan_site:type":"beach","charge":"10 EUR","charge:conditional":"8 EUR @ (Nov-May)","fee":"yes","internet_access":"yes","internet_access:fee":"no","name":"Aire des Camping-Cars Lampaul-Plouarzel","power_supply":"yes","sanitary_dump_station":"yes","shower":"yes","toilets":"yes","water_point":"yes","website":"https://lampaul-plouarzel.fr/mes-loisirs/decouvrir-le-territoire/aire-de-camping-cars/"}},"232249635":{"location":[48.3553173,-4.6721512],"ct":"FR","tp":"CR","ts":"2025-05-04T14:05:22Z","tX":498,"tY":354,"tags":{"addr:city":"Locmaria-Plouzané","addr:postcode":"29280","caravan_site":"motorhome_stopover","caravan_site:type":"beach","charge":"5 EUR","dog":"yes","fee":"yes","name":"Aire de Camping Car de Portez","power_supply":"yes","power_supply:fee":"yes","sanitary_dump_station":"yes"}},"309866220":{"location":[48.2747111,-4.6079178],"ct":"FR","tp":"CR","ts":"2024-10-28T23:50:17Z","tX":498,"tY":354,"tags":{"capacity":"80","caravan_site":"motorhome_stopover","caravan_site:type":"beach","charge":"12.32 EUR","drinking_water":"yes","fee":"yes","name":"Aire d'Accueil de Camaret-sur-Mer","name:br":"Leur-degemer Kameled","power_supply":"yes","sanitary_dump_station":"yes","source:name:br":"proper translation","toilets":"no","water_point":"yes","website":"https://www.camaret-sur-mer.fr/fr/decouvrir/camping-sejourner-camaret-sur-mer/aire-de-camping-car"}},"338290228":{"location":[48.4386993,-4.6304895],"ct":"FR","tp":"SD","ts":"2024-10-12T21:25:58Z","tX":498,"tY":354,"tags":{"wheelchair":"limited"}},"911709539":{"location":[48.4048059,-4.7241351],"ct":"FR","tp":"CR","ts":"2024-10-08T19:39:32Z","tX":498,"tY":354,"tags":{"access":"yes","addr:city":"Ploumoguer","addr:postcode":"29810","addr:street":"Rue du Stade Huon de Kermadec","capacity":"25","caravan_site":"motorhome_stopover","caravan_site:type":"village","description":"Aire Communale Ploumoguer","fee":"no","maxstay":"no","name":"Aire Communale Ploumoguer","name:br":"Leur Kirri-kampiñ","operator":"Ville de Ploumoguer","power_supply":"yes","sanitary_dump_station":"yes","sanitary_dump_station:chemical_toilet":"yes","sanitary_dump_station:grey_water":"yes","sanitary_dump_station:round_drain":"yes","source:name:br":"ofis publik ar brezhoneg","supervised":"no","water_point":"yes","website":"https://www.roscoff-tourisme.com/en/fiche/aires/aire-communale-plouvorn_TFOB0018BRE029V500NVF/"}},"1317958902":{"location":[48.3733675,-4.6432046],"ct":"FR","tp":"CR","ts":"2024-10-30T22:54:04Z","tX":498,"tY":354,"tags":{"capacity":"3","caravan_site":"motorhome_stopover","caravan_site:type":"village","fee":"no","name":"Aire Municipale Locmaria-Plouzané","power_supply":"yes","power_supply:fee":"yes","sanitary_dump_station":"yes","water_point":"yes","water_point:fee":"yes","website":"https://locmaria-plouzane.fr/stationnement/"}},"7175198039":{"location":[48.360697,-4.7700234],"ct":"FR","tp":"SD","ts":"2020-01-31T13:56:42Z","tX":498,"tY":354,"tags":{}},"8465276853":{"location":[48.4051684,-4.7238784],"ct":"FR","tp":"SD","ts":"2021-11-20T14:40:26Z","tX":498,"tY":354,"tags":{"description":"Station de vidange pour Camping-car.","fee":"no","operator":"Ville de Ploumoguer","sanitary_dump_station:chemical_toilet":"yes","sanitary_dump_station:grey_water":"yes","sanitary_dump_station:round_drain":"yes","water_point":"yes"}},"9972237979":{"location":[48.4222694,-4.7847544],"ct":"FR","tp":"SD","ts":"2022-08-24T14:26:19Z","tX":498,"tY":354,"tags":{"name":"Aire de Camping-car de Ruscumunoc"}},"11111487825":{"location":[48.3664836,-4.7599023],"ct":"FR","tp":"SD","ts":"2023-08-13T10:56:04Z","tX":498,"tY":354,"tags":{"access":"customers"}},"12197610266":{"location":[48.373401,-4.6432064],"ct":"FR","tp":"SD","ts":"2024-09-24T19:02:49Z","tX":498,"tY":354,"tags":{"access":"yes"}}}