{"252495647":{"location":[48.0327975,-4.6625809],"ct":"FR","tp":"CR","ts":"2024-10-24T23:04:34Z","tX":498,"tY":355,"tags":{"capacity":"50","caravan_site":"motorhome_stopover","caravan_site:type":"village","description":"Service area 900 meter North just before the church","description:fr":"vue sur mer 200 m des commerces et des sentiers côtiers. Endroit très calme.","fee":"no","name":"Aire Municipale de Plogoff"}},"252495648":{"location":[48.0368799,-4.681797],"ct":"FR","tp":"CS","ts":"2023-08-10T20:56:39Z","tX":498,"tY":355,"tags":{"description":"Accueil des camping-car uniquement","name":"Kerguidy-Izella","name:br":"Kergidi izelañ","phone":"+33 2 98 70 35 60","source:name:br":"ofis publik ar brezhoneg","website":"https://fermelebars.com/"}},"252903717":{"location":[48.0251755,-4.6175984],"ct":"FR","tp":"CS","ts":"2022-08-27T09:05:14Z","tX":498,"tY":355,"tags":{"name":"Kermaléro","name:br":"Kervalero","opening_hours":"apr-oct","phone":"+33 2 98 74 84 75","source:name:br":"ofis publik ar brezhoneg","website":"https://primelin.fr/le-camping-de-kermalero/"}},"551954368":{"location":[48.0480452,-4.6826283],"ct":"FR","tp":"CS","ts":"2024-08-07T04:40:14Z","tX":498,"tY":355,"tags":{"capacity:caravans":"27","caravans":"yes","drinking_water":"yes","fee":"yes","name":"Camping de la Baie","opening_hours":"Jun-Sep","phone":"+33 2 98 70 64 28","power_supply":"yes","shower":"yes","stars":"1","tents":"yes"}},"911568992":{"location":[48.0484711,-4.6501662],"ct":"FR","tp":"CR","ts":"2024-10-30T22:58:55Z","tX":498,"tY":355,"tags":{"access":"yes","addr:city":"Cléden-Cap-Sizun","addr:postcode":"29770","addr:street":"Rue de Ballydehob","capacity":"10","caravan_site":"motorhome_stopover","caravan_site:type":"village","description":"Aire de camping-car Cléden-Cap-Sizun","fee":"no","maxstay":"no","name":"Aire de camping-car Cléden-Cap-Sizun","name:br":"Leur Kirri-kampiñ","operator":"Ville de Cléden-Cap-Sizun","power_supply":"no","sanitary_dump_station":"yes","sanitary_dump_station:chemical_toilet":"yes","sanitary_dump_station:grey_water":"yes","sanitary_dump_station:round_drain":"yes","seasonal":"no","source:name:br":"ofis publik ar brezhoneg","supervised":"no","water_point":"yes","website":"https://www.capsizuntourisme.fr/sejourner/infos-pratiques/bienvenue-aux-camping-cars/aire-de-services-et-de-stationnement-cleden-2173080"}},"6732526085":{"location":[48.0631425,-4.5913976],"ct":"FR","tp":"CS","ts":"2023-04-10T21:38:26Z","tX":498,"tY":355,"tags":{"capacity":"25","caravans":"yes","fee":"yes","internet_access":"no","motorhome":"yes","name":"Camping municipal de Goulien","name:en":"Goulien municipal campsite","opening_hours":"Jul-Aug 09:00-11:00,18:00-20:00","operator":"Mairie de Goulien","payment:cash":"yes","payment:credit_cards":"yes","phone":"+33 6 98 79 92 55; +33298700604","shower":"yes","tents":"yes","toilets":"yes","website":"https://goulien.fr/camping-municipal-tarifs-2017/","website:note":"Même si l'URL contient \"2017\", elle est toujours valable en 2022."}},"11950673922":{"location":[48.06944,-4.6007298],"ct":"FR","tp":"CS","ts":"2024-06-01T18:59:49Z","tX":498,"tY":355,"tags":{"addr:city":"Goulien","addr:place":"Kerguérriec","addr:postcode":"29770","capacity:tents":"18","caravans":"yes","fee":"yes","name":"Au bon vivre","phone":"+33 2 98 70 08 62","tents":"yes","website":"https://gaelledagorn.wixsite.com/camping-au-bon-vivre"}},"4385052790":{"location":[48.0597573,-4.7072456],"ct":"FR","tp":"CR","ts":"2024-10-16T09:23:30Z","tX":498,"tY":355,"tags":{"caravan_site":"motorhome_stopover","caravan_site:type":"coastal","caravans":"no","fee":"no","name":"Pointe Du Van","name:nl":"Pointe Du Van","opening_hours":"24/7","power_supply":"no","sanitary_dump_station":"no","seasonal":"no","tents":"no","toilets":"yes","water_point":"no"}},"4453179289":{"location":[48.03712,-4.7157816],"ct":"FR","tp":"CR","ts":"2024-10-05T12:34:32Z","tX":498,"tY":355,"tags":{"addr:street":"Route du Port de Bestrée","capacity":"50","caravan_site":"motorhome_stopover","caravan_site:type":"natural_park","charge":"15 EUR","description":"8 EUR daytime","fee":"yes","name":"Aire de Camping-cars de la pointe du Raz","opening_hours":"24/7","power_supply":"no","website":"https://www.pointeduraz.com/","wheelchair":"yes"}},"8464077557":{"location":[48.0481953,-4.6500786],"ct":"FR","tp":"SD","ts":"2024-10-30T22:58:55Z","tX":498,"tY":355,"tags":{"fee":"no","operator":"Ville de Cléden-Cap-Sizun","sanitary_dump_station:chemical_toilet":"yes","sanitary_dump_station:grey_water":"yes","sanitary_dump_station:round_drain":"yes","water_point":"yes"}},"11076748267":{"location":[48.0373513,-4.6653948],"ct":"FR","tp":"SD","ts":"2024-10-24T23:04:34Z","tX":498,"tY":355,"tags":{"access":"yes","fee":"no","opening_hours":"24/7","sanitary_dump_station:chemical_toilet":"yes","sanitary_dump_station:grey_water":"yes","website":"https://www.capsizuntourisme.fr/sejourner/infos-pratiques/bienvenue-aux-camping-cars/aire-de-services-plogoff-2173068"}},"12420505857":{"location":[48.0450787,-4.6310776],"ct":"FR","tp":"CS","ts":"2024-12-13T15:46:24Z","tX":498,"tY":355,"tags":{"name":"Camping de Keringa"}}}