{"253995862":{"location":[42.3351822,-4.6046974],"ct":"ES","tp":"CS","ts":"2023-04-25T20:13:11Z","tX":498,"tY":378,"tags":{"addr:city":"Carrión de los Condes","addr:country":"ES","addr:housenumber":"11","addr:postcode":"34120","addr:street":"Calle Tenerías","contact:phone":"+34 979880714; +34 667317891","internet_access":"wlan","name":"Camping El Edén","opening_hours":"Apr-Oct","operator":"private","wheelchair":"yes"}},"1092162791":{"location":[42.5186131,-4.7411037],"ct":"ES","tp":"CR","ts":"2024-04-01T10:25:47Z","tX":498,"tY":378,"tags":{"addr:housenumber":"1","addr:postcode":"34100","addr:street":"Calle de los Robles","capacity":"6","capacity:caravans":"6","caravan_site:type":"village;sports_centre","caravans":"yes","fee":"no","internet_access":"no","maxstay":"48 hours","motorhome":"designated","name":"Área de autocaravanas Saldaña","opening_hours":"24/7","power_supply":"yes","power_supply:capacity":"4","power_supply:fee":"yes","power_supply:socket":"cee_blue","sanitary_dump_station":"yes","surface":"concrete"}},"1202755854":{"location":[42.3386682,-4.6076754],"ct":"ES","tp":"CR","ts":"2024-02-05T21:55:08Z","tX":498,"tY":378,"tags":{"fee":"no","internet_access":"no","name":"Carrión de los Condes","sanitary_dump_station":"yes","water_point":"yes"}},"10002186647":{"location":[42.5185879,-4.7412083],"ct":"ES","tp":"SD","ts":"2024-03-22T16:12:17Z","tX":498,"tY":378,"tags":{"access":"yes","opening_hours":"24/7","sanitary_dump_station:accepted":"black_water;grey_water","sanitary_dump_station:basin":"yes","sanitary_dump_station:chemical_toilet":"yes","sanitary_dump_station:grey_water":"yes","water_point":"yes"}},"11589895036":{"location":[42.3380487,-4.6079781],"ct":"ES","tp":"SD","ts":"2024-02-05T21:55:08Z","tX":498,"tY":378,"tags":{"access":"yes","fee":"no","motorhome":"designated"}}}