{"203264753":{"location":[40.4286063,-4.6160587],"ct":"ES","tp":"CS","ts":"2013-11-26T21:00:17Z","tX":498,"tY":386,"tags":{"name":"Camping Pantano del Burguillo","source":"gps, survey"}},"370173954":{"location":[40.2627236,-4.8562579],"ct":"ES","tp":"CS","ts":"2020-11-28T06:36:24Z","tX":498,"tY":386,"tags":{"addr:city":"Gavilanes","addr:postcode":"05460","name":"Campamento El Labradero","phone":"+34 647 71 13 05;+ 34 600 227705","website":"http://www.campamentoellabradero.es/"}},"443560277":{"location":[40.3060695,-4.7593413],"ct":"ES","tp":"CS","ts":"2016-09-21T08:50:57Z","tX":498,"tY":386,"tags":{"area":"yes","name":"Campamento Juvenil"}},"554643420":{"location":[40.407939,-4.5745237],"ct":"ES","tp":"CS","ts":"2023-10-28T21:30:34Z","tX":498,"tY":386,"tags":{"caravans":"yes","name":"Camping Valle de Iruelas","phone":"+34 672 223 890","website":"https://www.campingvalledeiruelas.com/"}},"930951690":{"location":[40.296826,-4.6338238],"ct":"ES","tp":"CR","ts":"2024-04-11T14:55:34Z","tX":498,"tY":386,"tags":{"access":"yes","addr:city":"La Adrada","addr:postcode":"05430","capacity":"10","covered":"no","drinking_water":"yes","fee":"no","maxstay":"no","name":"Área de autocaravanas La Adrada","opening_hours":"24/7","operator":"Ayuntamiento de La Adrada","power_supply":"no","sanitary_dump_station":"yes","sanitary_dump_station:chemical_toilet":"yes","sanitary_dump_station:grey_water":"yes","sanitary_dump_station:round_drain":"yes","supervised":"no","surface":"unpaved","water_point":"yes"}},"930955589":{"location":[40.3775803,-4.8166342],"ct":"ES","tp":"CR","ts":"2024-09-10T18:15:32Z","tX":498,"tY":386,"tags":{"access":"yes","capacity":"10","caravan_site":"motorhome_stopover","caravan_site:type":"village","covered":"no","drinking_water":"yes","fee":"no","maxstay":"72 hours","name":"Área de autocaravanas Villanueva de Ávila","opening_hours":"24/7","operator":"Ayuntamiento de Villanueva de Ávila","power_supply":"no","sanitary_dump_station":"yes","sanitary_dump_station:chemical_toilet":"yes","sanitary_dump_station:grey_water":"yes","sanitary_dump_station:round_drain":"yes","supervised":"no","surface":"asphalt","water_point":"yes"}},"1155605313":{"location":[40.3010972,-4.7487232],"ct":"ES","tp":"CS","ts":"2023-03-19T18:56:55Z","tX":498,"tY":386,"tags":{"name":"Tunkashila","website":"https://tunkashila.com/"}},"1246810811":{"location":[40.3683563,-4.8892388],"ct":"ES","tp":"CR","ts":"2024-02-06T09:36:19Z","tX":498,"tY":386,"tags":{"capacity":"32","caravan_site":"motorhome_stopover","caravan_site:type":"sports_centre","fee":"no","name":"Area de Autocaravanas de Navarrevisca (Ávila)","opening_hours":"24/7","sanitary_dump_station":"yes","sanitary_dump_station:chemical_toilet":"yes","sanitary_dump_station:grey_water":"yes","water_point":"yes","website":"https://www.navarrevisca.es/area-de-autocaravanas/"}},"4235278972":{"location":[40.3972477,-4.7875024],"ct":"ES","tp":"CS","ts":"2022-07-28T18:06:12Z","tX":498,"tY":386,"tags":{"name":"Campamento Santa María del Monte"}},"4411219806":{"location":[40.3027154,-4.7626634],"ct":"ES","tp":"CS","ts":"2016-09-21T08:52:48Z","tX":498,"tY":386,"tags":{"name":"Camping Fuente Helecha","phone":"+34 918678487"}},"6329193142":{"location":[40.2674503,-4.8603657],"ct":"ES","tp":"CS","ts":"2019-03-11T11:13:12Z","tX":498,"tY":386,"tags":{"addr:city":"Gavilanes","addr:postcode":"05460","description":"Nuestras instalaciones se pueden utilizar durante todo el año. Es ideal para Ia realizacion de actividades como: Encuentros de fin de semana. Practicas de aire libre para cursos de monitores. Cursos de técnicos de montana. Convivencias.","name":"Campamento El Escurialejo","phone":"+34 609 63 48 82;+34 915 54 62 73","website":"http://idyma.net/"}},"12028195924":{"location":[40.3034913,-4.7201419],"ct":"ES","tp":"CS","ts":"2024-07-02T09:30:43Z","tX":498,"tY":386,"tags":{"addr:city":"Piedralaves","addr:postcode":"05440","addr:street":"CL-501, 89","name":"Campamento lancha el Pinillo"}},"8631665120":{"location":[40.296742,-4.6337008],"ct":"ES","tp":"SD","ts":"2024-05-16T19:11:42Z","tX":498,"tY":386,"tags":{"access":"yes","fee":"no","motorhome":"designated","operator":"Ayuntamiento de La Adrada","sanitary_dump_station":"public","sanitary_dump_station:chemical_toilet":"yes","sanitary_dump_station:grey_water":"yes","sanitary_dump_station:round_drain":"yes","water_point":"yes"}},"8631681184":{"location":[40.3776337,-4.8167417],"ct":"ES","tp":"SD","ts":"2024-02-06T09:27:44Z","tX":498,"tY":386,"tags":{"access":"yes","fee":"no","motorhome":"designated","operator":"Ayuntamiento de Villanueva de Ávila","sanitary_dump_station":"public","sanitary_dump_station:chemical_toilet":"yes","sanitary_dump_station:grey_water":"yes","sanitary_dump_station:round_drain":"yes","water_point":"yes"}}}