{"512929218":{"location":[62.1023505,-145.9682626],"ct":"US","tp":"CR","ts":"2023-03-24T19:21:55Z","tX":96,"tY":285,"tags":{"addr:city":"Tolsona","addr:housenumber":"173","addr:state":"AK","addr:street":"Glenn Highway","building":"yes","capacity":"41","charge":"$40.00, $50.00","description":"Full Hookups 30 & 50 amp Power Pull - Through Sites WI-Fi Showers Tent Sites / Cabins Rentals Laundry Facilities Tavern Sites Along The Tolsona Creek Big Rig Friendly","email":"ranchhouselodge@gmail.com","fee":"yes","image":"https://www.mapillary.com/app/?pKey=116015987371969","internet_access":"yes","internet_access:fee":"customers","name":"Ranch House Lodge - RV Park","note":"The lodge is mile 173 of the Glenn Highway","opening_hours":"sunrise-sunset","payment:cash":"yes","payment:credit_cards":"yes","payment:debit_cards":"yes","phone":"+1-907-822-5634","power_supply":"yes","reservation":"recommended","sanitary_dump_station":"yes","smoking":"outside","source":"local knowledge","website":"https://www.alaskaranchhouselodge.com/"}}}