{"15628416":{"location":[46.165555,-68.8509169],"ct":"US","tp":"CS","ts":"2023-03-22T08:27:47Z","tX":316,"tY":363,"tags":{"name":"Trout Brook Farm Campground","operator":"Baxter State Park","source":"https://i1.wp.com/baxterstatepark.org/wp-content/uploads/2017/03/tbf.png?ssl=1"}},"439955769":{"location":[46.1336192,-68.7936901],"ct":"US","tp":"CS","ts":"2022-11-30T22:45:23Z","tX":316,"tY":363,"tags":{"name":"Matagamon Wilderness"}},"440030282":{"location":[46.1070673,-68.5594074],"ct":"US","tp":"CS","ts":"2016-09-09T11:50:31Z","tX":316,"tY":363,"tags":{"name":"Shin Pond Village"}},"974399507":{"location":[46.1673235,-68.8515722],"ct":"US","tp":"CS","ts":"2022-05-29T01:33:07Z","tX":316,"tY":363,"tags":{"addr:city":"Millinocket","addr:state":"ME","addr:street":"Trout Brook Farm Campground Road","group_only":"yes"}},"974399508":{"location":[46.1672354,-68.8512544],"ct":"US","tp":"CS","ts":"2022-05-29T01:33:07Z","tX":316,"tY":363,"tags":{"addr:city":"Millinocket","addr:state":"ME","addr:street":"Trout Brook Farm Campground Road","group_only":"yes"}},"974399509":{"location":[46.1672642,-68.8508428],"ct":"US","tp":"CS","ts":"2021-08-18T16:41:09Z","tX":316,"tY":363,"tags":{"addr:city":"Millinocket","addr:state":"ME","addr:street":"Trout Brook Farm Campground Road","group_only":"yes"}},"974399512":{"location":[46.1664654,-68.8508428],"ct":"US","tp":"CS","ts":"2021-08-18T16:41:09Z","tX":316,"tY":363,"tags":{"addr:city":"Millinocket","addr:state":"ME","addr:street":"Trout Brook Farm Campground Road","group_only":"yes"}},"1134508540":{"location":[46.1089989,-68.8995277],"ct":"US","tp":"CS","ts":"2023-01-23T13:53:02Z","tX":316,"tY":363,"tags":{"name":"South Branch Pond Campground","operator":"Baxter State Park"}},"2079361203":{"location":[46.1394779,-68.8285141],"ct":"US","tp":"CS","ts":"2012-12-23T01:27:39Z","tX":316,"tY":363,"tags":{"name":"Billfish Pond Tentsite"}},"2079361206":{"location":[46.1812951,-68.8643201],"ct":"US","tp":"CS","ts":"2022-03-20T22:06:13Z","tX":316,"tY":363,"tags":{"access":"permit","backcountry":"yes","fee":"yes","name":"Boody Brook Tentsite","operator":"Baxter State Park"}},"2079361240":{"location":[46.1635762,-68.8059534],"ct":"US","tp":"CS","ts":"2022-03-20T22:06:13Z","tX":316,"tY":363,"tags":{"access":"permit","backcountry":"yes","fee":"yes","name":"First Lake Tentsite","operator":"Baxter State Park"}},"2079361250":{"location":[46.1557897,-68.8732363],"ct":"US","tp":"CS","ts":"2012-12-23T01:27:40Z","tX":316,"tY":363,"tags":{"name":"K.P. Dam Tentsite"}},"2079361280":{"location":[46.1369375,-68.8434344],"ct":"US","tp":"CS","ts":"2012-12-23T01:27:41Z","tX":316,"tY":363,"tags":{"name":"Long Pond Outlet Tentsite"}},"2079361284":{"location":[46.1380441,-68.8382378],"ct":"US","tp":"CS","ts":"2012-12-23T01:27:41Z","tX":316,"tY":363,"tags":{"name":"Long Pond Pines Tentsite"}},"2079361288":{"location":[46.1349304,-68.8658563],"ct":"US","tp":"CS","ts":"2012-12-23T01:27:41Z","tX":316,"tY":363,"tags":{"name":"Lower Fowler Outlet Tentsite"}},"2079361292":{"location":[46.1345473,-68.86015],"ct":"US","tp":"CS","ts":"2012-12-23T01:27:41Z","tX":316,"tY":363,"tags":{"name":"Lower Fowler Pond Tentsite"}},"2079361304":{"location":[46.1254594,-68.8477064],"ct":"US","tp":"CS","ts":"2012-12-23T01:27:41Z","tX":316,"tY":363,"tags":{"name":"Middle Fowler North Tentsite"}},"2079361307":{"location":[46.1200671,-68.8432514],"ct":"US","tp":"CS","ts":"2023-01-23T13:33:32Z","tX":316,"tY":363,"tags":{"name":"Middle Fowler South Tentsite"}},"2079361319":{"location":[46.1941972,-68.8945507],"ct":"US","tp":"CS","ts":"2024-05-27T13:37:55Z","tX":316,"tY":363,"tags":{"access":"permit","backcountry":"yes","fee":"yes","name":"Pine Point Tentsite","operator":"Baxter State Park"}},"2079361344":{"location":[46.1890279,-68.8744659],"ct":"US","tp":"CS","ts":"2024-05-27T13:37:55Z","tX":316,"tY":363,"tags":{"access":"permit","backcountry":"yes","fee":"yes","name":"Second Lake Tentsite","operator":"Baxter State Park"}},"2079361365":{"location":[46.1805081,-68.8260144],"ct":"US","tp":"CS","ts":"2022-03-20T22:06:13Z","tX":316,"tY":363,"tags":{"access":"permit","backcountry":"yes","fee":"yes","name":"Togue Ledge Tentsite","operator":"Baxter State Park"}},"4392730514":{"location":[46.1073935,-68.5625872],"ct":"US","tp":"CS","ts":"2016-09-08T22:10:05Z","tX":316,"tY":363,"tags":{"addr:housenumber":"T11","operator":"Shin Pond Village"}},"4392730515":{"location":[46.107642,-68.5631447],"ct":"US","tp":"CS","ts":"2016-09-08T22:10:07Z","tX":316,"tY":363,"tags":{"addr:housenumber":"T14","operator":"Shin Pond Village"}},"4392730702":{"location":[46.1084847,-68.5558474],"ct":"US","tp":"CS","ts":"2016-09-08T22:09:52Z","tX":316,"tY":363,"tags":{"addr:housenumber":"T4","operator":"Shin Pond Village"}},"4392730705":{"location":[46.107588,-68.5620435],"ct":"US","tp":"CS","ts":"2016-09-08T22:10:03Z","tX":316,"tY":363,"tags":{"addr:housenumber":"T9","operator":"Shin Pond Village"}},"4392730706":{"location":[46.1073917,-68.562437],"ct":"US","tp":"CS","ts":"2016-09-08T22:10:03Z","tX":316,"tY":363,"tags":{"addr:housenumber":"T10","operator":"Shin Pond Village"}},"4392730707":{"location":[46.1071883,-68.56281],"ct":"US","tp":"CS","ts":"2016-09-08T22:10:04Z","tX":316,"tY":363,"tags":{"addr:housenumber":"T12","operator":"Shin Pond Village"}},"4392730711":{"location":[46.1070393,-68.5611625],"ct":"US","tp":"CS","ts":"2016-09-08T22:10:19Z","tX":316,"tY":363,"tags":{"addr:housenumber":"26","operator":"Shin Pond Village"}},"4392730718":{"location":[46.107175,-68.559443],"ct":"US","tp":"CS","ts":"2016-09-08T22:11:05Z","tX":316,"tY":363,"tags":{"addr:housenumber":"1","operator":"Shin Pond Village"}},"4392730720":{"location":[46.1073106,-68.5594187],"ct":"US","tp":"CS","ts":"2016-09-08T22:11:06Z","tX":316,"tY":363,"tags":{"addr:housenumber":"2","operator":"Shin Pond Village"}},"4392730721":{"location":[46.1074474,-68.5595127],"ct":"US","tp":"CS","ts":"2016-09-08T22:11:08Z","tX":316,"tY":363,"tags":{"addr:housenumber":"3","operator":"Shin Pond Village"}},"4392730722":{"location":[46.1076219,-68.559464],"ct":"US","tp":"CS","ts":"2016-09-08T22:11:09Z","tX":316,"tY":363,"tags":{"addr:housenumber":"4","operator":"Shin Pond Village"}},"4392741311":{"location":[46.1074824,-68.5628261],"ct":"US","tp":"CS","ts":"2016-09-08T22:10:06Z","tX":316,"tY":363,"tags":{"addr:housenumber":"T13","operator":"Shin Pond Village"}},"4392741312":{"location":[46.1078247,-68.5632092],"ct":"US","tp":"CS","ts":"2016-09-08T22:10:08Z","tX":316,"tY":363,"tags":{"addr:housenumber":"T16","operator":"Shin Pond Village"}},"4392741313":{"location":[46.1071579,-68.558269],"ct":"US","tp":"CS","ts":"2016-09-08T22:11:19Z","tX":316,"tY":363,"tags":{"addr:housenumber":"12","operator":"Shin Pond Village"}},"4392741928":{"location":[46.1076109,-68.556979],"ct":"US","tp":"CS","ts":"2016-09-08T22:09:48Z","tX":316,"tY":363,"tags":{"addr:housenumber":"T6","operator":"Shin Pond Village"}},"4392741930":{"location":[46.1086216,-68.5557591],"ct":"US","tp":"CS","ts":"2016-09-08T22:09:53Z","tX":316,"tY":363,"tags":{"addr:housenumber":"T3","operator":"Shin Pond Village"}},"4392741931":{"location":[46.1088905,-68.5556277],"ct":"US","tp":"CS","ts":"2016-09-08T22:09:54Z","tX":316,"tY":363,"tags":{"addr:housenumber":"T2","operator":"Shin Pond Village"}},"4392741933":{"location":[46.107587,-68.5586212],"ct":"US","tp":"CS","ts":"2016-09-08T22:10:48Z","tX":316,"tY":363,"tags":{"addr:housenumber":"T7","operator":"Shin Pond Village"}},"4392741935":{"location":[46.1077317,-68.5598635],"ct":"US","tp":"CS","ts":"2016-09-08T22:11:10Z","tX":316,"tY":363,"tags":{"addr:housenumber":"5","operator":"Shin Pond Village"}},"4392741936":{"location":[46.1072106,-68.559104],"ct":"US","tp":"CS","ts":"2016-09-08T22:11:13Z","tX":316,"tY":363,"tags":{"addr:housenumber":"8","operator":"Shin Pond Village"}},"4392741937":{"location":[46.1072397,-68.5584003],"ct":"US","tp":"CS","ts":"2016-09-08T22:11:17Z","tX":316,"tY":363,"tags":{"addr:housenumber":"11","operator":"Shin Pond Village"}},"4392742615":{"location":[46.1071132,-68.5585698],"ct":"US","tp":"CS","ts":"2016-09-08T22:11:16Z","tX":316,"tY":363,"tags":{"addr:housenumber":"13","operator":"Shin Pond Village"}},"4392742904":{"location":[46.1074523,-68.559702],"ct":"US","tp":"CS","ts":"2016-09-08T22:11:11Z","tX":316,"tY":363,"tags":{"addr:housenumber":"6","operator":"Shin Pond Village"}},"4392742905":{"location":[46.1075042,-68.5588654],"ct":"US","tp":"CS","ts":"2016-09-08T22:11:15Z","tX":316,"tY":363,"tags":{"addr:housenumber":"10","operator":"Shin Pond Village"}},"4392769791":{"location":[46.1078903,-68.556645],"ct":"US","tp":"CS","ts":"2016-09-08T22:09:49Z","tX":316,"tY":363,"tags":{"addr:housenumber":"T5","operator":"Shin Pond Village"}},"4392769798":{"location":[46.1068168,-68.5607599],"ct":"US","tp":"CS","ts":"2016-09-08T22:10:15Z","tX":316,"tY":363,"tags":{"addr:housenumber":"22","operator":"Shin Pond Village"}},"4392769799":{"location":[46.1069195,-68.5609407],"ct":"US","tp":"CS","ts":"2016-09-08T22:10:16Z","tX":316,"tY":363,"tags":{"addr:housenumber":"24","operator":"Shin Pond Village"}},"4392769800":{"location":[46.1073082,-68.5610251],"ct":"US","tp":"CS","ts":"2016-09-08T22:10:22Z","tX":316,"tY":363,"tags":{"addr:housenumber":"27","operator":"Shin Pond Village"}},"4392769801":{"location":[46.1071294,-68.5613143],"ct":"US","tp":"CS","ts":"2016-09-08T22:10:23Z","tX":316,"tY":363,"tags":{"addr:housenumber":"28","operator":"Shin Pond Village"}},"4392770206":{"location":[46.1095355,-68.5550792],"ct":"US","tp":"CS","ts":"2016-09-08T22:09:55Z","tX":316,"tY":363,"tags":{"addr:housenumber":"T1","operator":"Shin Pond Village"}},"4392788199":{"location":[46.1071054,-68.5607193],"ct":"US","tp":"CS","ts":"2016-09-08T22:10:18Z","tX":316,"tY":363,"tags":{"addr:housenumber":"23","operator":"Shin Pond Village"}},"4392788204":{"location":[46.1079933,-68.5599649],"ct":"US","tp":"CS","ts":"2016-09-08T22:10:49Z","tX":316,"tY":363,"tags":{"addr:housenumber":"T8","operator":"Shin Pond Village"}},"4392797392":{"location":[46.1076973,-68.5634174],"ct":"US","tp":"CS","ts":"2016-09-08T22:10:09Z","tX":316,"tY":363,"tags":{"addr:housenumber":"T15","operator":"Shin Pond Village"}},"4392797499":{"location":[46.1075486,-68.5598096],"ct":"US","tp":"CS","ts":"2016-09-08T22:11:12Z","tX":316,"tY":363,"tags":{"addr:housenumber":"7","operator":"Shin Pond Village"}},"4392797591":{"location":[46.1071826,-68.5608802],"ct":"US","tp":"CS","ts":"2016-09-08T22:10:21Z","tX":316,"tY":363,"tags":{"addr:housenumber":"25","operator":"Shin Pond Village"}},"4392798191":{"location":[46.1069761,-68.5604942],"ct":"US","tp":"CS","ts":"2016-09-08T22:10:20Z","tX":316,"tY":363,"tags":{"addr:housenumber":"21","operator":"Shin Pond Village"}},"4392812589":{"location":[46.107166,-68.5588694],"ct":"US","tp":"CS","ts":"2016-09-08T22:11:14Z","tX":316,"tY":363,"tags":{"addr:housenumber":"9","operator":"Shin Pond Village"}},"4393989594":{"location":[46.1347173,-68.793706],"ct":"US","tp":"CS","ts":"2016-09-14T19:31:06Z","tX":316,"tY":363,"tags":{"addr:housenumber":"22"}},"4394216990":{"location":[46.1345837,-68.7936141],"ct":"US","tp":"CS","ts":"2016-09-14T19:31:06Z","tX":316,"tY":363,"tags":{"addr:housenumber":"21"}},"4394221889":{"location":[46.1348758,-68.7937866],"ct":"US","tp":"CS","ts":"2016-09-14T19:31:06Z","tX":316,"tY":363,"tags":{"addr:housenumber":"23","operator":"Matagamon Campground"}},"4394221890":{"location":[46.1350339,-68.7937851],"ct":"US","tp":"CS","ts":"2016-09-14T19:31:06Z","tX":316,"tY":363,"tags":{"addr:housenumber":"24"}},"4394221991":{"location":[46.1353047,-68.7937555],"ct":"US","tp":"CS","ts":"2016-09-09T23:05:09Z","tX":316,"tY":363,"tags":{"addr:housenumber":"25"}},"4394222192":{"location":[46.1355783,-68.7937464],"ct":"US","tp":"CS","ts":"2016-09-09T23:05:11Z","tX":316,"tY":363,"tags":{"addr:housenumber":"T1"}},"4394222789":{"location":[46.1361349,-68.7932041],"ct":"US","tp":"CS","ts":"2016-09-14T19:31:06Z","tX":316,"tY":363,"tags":{"addr:housenumber":"T27"}},"4394222889":{"location":[46.1363938,-68.7929233],"ct":"US","tp":"CS","ts":"2016-09-09T23:05:16Z","tX":316,"tY":363,"tags":{"addr:housenumber":"T2"}},"4394597710":{"location":[46.1326035,-68.7927945],"ct":"US","tp":"CS","ts":"2016-09-10T11:05:09Z","tX":316,"tY":363,"tags":{"addr:housenumber":"32"}},"4394597711":{"location":[46.1321927,-68.7927205],"ct":"US","tp":"CS","ts":"2016-09-10T11:05:13Z","tX":316,"tY":363,"tags":{"addr:housenumber":"33"}},"4394597712":{"location":[46.131989,-68.7926981],"ct":"US","tp":"CS","ts":"2016-09-10T11:05:15Z","tX":316,"tY":363,"tags":{"addr:housenumber":"34"}},"4394597802":{"location":[46.1315215,-68.7926615],"ct":"US","tp":"CS","ts":"2022-12-03T21:00:33Z","tX":316,"tY":363,"tags":{"addr:housenumber":"36"}},"4394605000":{"location":[46.131904,-68.7925202],"ct":"US","tp":"CS","ts":"2016-09-10T11:05:19Z","tX":316,"tY":363,"tags":{"addr:housenumber":"38"}},"4394626992":{"location":[46.131859,-68.7927896],"ct":"US","tp":"CS","ts":"2016-09-10T11:05:18Z","tX":316,"tY":363,"tags":{"addr:housenumber":"35"}},"4394627690":{"location":[46.1330366,-68.7923909],"ct":"US","tp":"CS","ts":"2016-09-10T11:05:07Z","tX":316,"tY":363,"tags":{"addr:housenumber":"40"}},"4396174094":{"location":[46.1359616,-68.7929467],"ct":"US","tp":"CS","ts":"2016-09-14T19:31:06Z","tX":316,"tY":363,"tags":{"addr:housenumber":"30"}},"4396174097":{"location":[46.1360611,-68.7927682],"ct":"US","tp":"CS","ts":"2016-09-14T19:31:06Z","tX":316,"tY":363,"tags":{"addr:housenumber":"29"}},"4396229891":{"location":[46.1357077,-68.7931048],"ct":"US","tp":"CS","ts":"2016-09-11T14:39:30Z","tX":316,"tY":363,"tags":{"addr:housenumber":"26"}},"4396369397":{"location":[46.0872096,-68.7777219],"ct":"US","tp":"CS","ts":"2023-12-27T12:30:53Z","tX":316,"tY":363,"tags":{"name":"Stair Falls West","operator:wikidata":"Q26695669"}},"10820192288":{"location":[46.1296225,-68.6286121],"ct":"US","tp":"CS","ts":"2023-04-17T18:51:29Z","tX":316,"tY":363,"tags":{"backcountry":"yes","operator":"Penobscot River Trails","operator:type":"private","operator:website":"https://penobscotrivertrails.org/seboeis-riverside-trail/"}},"4392740823":{"location":[46.1073367,-68.5582796],"ct":"US","tp":"CR","ts":"2016-09-08T22:11:20Z","tX":316,"tY":363,"tags":{"drinking_water":"yes","operator":"Shin Pond Village","power_supply":"yes"}}}