{"1281348977":{"location":[44.764341,-68.7027904],"ct":"US","tp":"CR","ts":"2024-05-10T04:11:47Z","tX":316,"tY":369,"tags":{}},"3015645777":{"location":[44.7554091,-68.6590092],"ct":"US","tp":"CR","ts":"2014-08-14T02:54:20Z","tX":316,"tY":369,"tags":{}},"3015645886":{"location":[44.815492,-68.8996941],"ct":"US","tp":"CR","ts":"2014-10-05T23:34:05Z","tX":316,"tY":369,"tags":{"name":"Pumpkin Patch RV Park"}},"5128705981":{"location":[44.7632964,-68.558688],"ct":"US","tp":"CS","ts":"2017-09-25T15:28:35Z","tX":316,"tY":369,"tags":{"name":"Star Rock Campsite"}},"7150918754":{"location":[44.8289427,-68.842023],"ct":"US","tp":"CS","ts":"2020-02-04T18:58:36Z","tX":316,"tY":369,"tags":{"addr:city":"Bangor","addr:housenumber":"1858","addr:postcode":"04401","addr:state":"ME","addr:street":"Union Street","caravans":"yes","name":"Paul Bunyan Campground"}},"7157280973":{"location":[44.8165286,-68.902329],"ct":"US","tp":"CS","ts":"2021-11-24T15:18:33Z","tX":316,"tY":369,"tags":{"addr:city":"Hermon","addr:housenumber":"149","addr:postcode":"04401","addr:state":"ME","addr:street":"Billings Road"}},"7365560871":{"location":[44.838331,-68.6932941],"ct":"US","tp":"CS","ts":"2020-04-04T01:16:27Z","tX":316,"tY":369,"tags":{"addr:city":"Eddington","addr:housenumber":"211","addr:postcode":"04428","addr:state":"ME","addr:street":"Riverside Drive","name":"Cold River Campground"}}}