{"7398683698":{"location":[44.1557636,-68.8147518],"ct":"US","tp":"CS","ts":"2023-05-05T01:53:38Z","tX":316,"tY":371,"tags":{"access":"permit","capacity:persons":"10","caravans":"yes","group_only":"no","name":"Mullens Head Camp Ground","operator":"Town of North Haven","tents":"no"}},"8281559372":{"location":[44.2833812,-68.6217954],"ct":"US","tp":"CS","ts":"2023-07-01T03:16:05Z","tX":316,"tY":371,"tags":{"addr:city":"Brooklin","addr:housenumber":"670","addr:postcode":"04616","addr:state":"ME","addr:street":"Reach Road","contact:facebook":"OceanfrontCampingatReachKnolls","contact:instagram":"oceanfrontcampingatreachknolls","fee":"yes","name":"Oceanfront Camping @ Reach Knolls","phone":"+1 207 359-5555","website":"http://www.reachknolls.com/"}},"10876591805":{"location":[44.1393286,-68.8025458],"ct":"US","tp":"CS","ts":"2023-05-07T21:39:24Z","tX":316,"tY":371,"tags":{}},"11514510537":{"location":[44.1483995,-68.5834453],"ct":"US","tp":"CS","ts":"2024-01-19T13:53:25Z","tX":316,"tY":371,"tags":{"access":"yes","backcountry":"yes","camp_site":"basic","capacity:persons":"6","description":"Limit Stay to 2 Nights. Groups of 6 or More and Commercial Users by Permission Only.","dog":"yes","fee":"no","impromptu":"no","internet_access":"no","lit":"no","note:openfire":"Fires by Permit Only â€“ Contact Maine Forest Service at 207-827-1800 for Permit. Keep All fires Below High Tide Line","openfire":"permit","operator":"Maine Coast Heritage Trust","permanent_camping":"no","phone":"207-729-7366","reservation":"no","scout":"no","source":"https://www.mcht.org/wp-content/uploads/2019/04/Saddleback_WebMap_20230403.pdf","static_caravans":"no","tents":"yes","toilets":"no","website":"https://www.mcht.org/preserve/saddleback-island/"}}}