{"866737151":{"location":[41.8961763,42.0956096],"ct":"GE","tp":"CS","ts":"2023-03-11T08:56:03Z","tX":631,"tY":380,"tags":{"access":"yes","addr:city":"Gomi","addr:postcode":"3523","backcountry":"no","bbq":"yes","cabins":"no","camp_site":"serviced","capacity:caravans":"4","capacity:persons":"30","capacity:tents":"15","caravans":"yes","charge":"8 USD","description":"The campground consists of 10 tent spots, 3 Camper-van spots, 1 A-frame Cabin, 1 Wood House, fully equipped outdoor kitchen, hot shower, toilet, chill out covered areas, hammocks, bonfire, bar, river 2 min walking distance.","dog":"yes","drinking_water":"yes","fee":"yes","group_only":"no","hot_water":"no","internet_access":"yes","kitchen":"yes","lit":"yes","motor_vehicle":"yes","name":"დუმბო ეკო ქემფი","name:en":"Dumbo Eco Camp","name:ka":"დუმბო ეკო ქემფი","name:ru":"Eco лагерь - Дамбо","nudism":"no","openfire":"yes","operator":"Lika Dumbadze","payment:apple_pay":"yes","payment:cash":"yes","payment:credit_cards":"yes","payment:debit_cards":"yes","payment:mastercard":"yes","payment:visa":"yes","permanent_camping":"no","phone":"+995 577931313","picnic_table":"yes","power_supply":"yes","sanitary_dump_station":"yes","shower":"yes","static_caravans":"yes","swimming_pool":"no","tents":"yes","toilets":"yes","washing_machine":"no","waste_disposal":"yes","website":"https://www.facebook.com/dumboecocamp/"}},"4371143498":{"location":[41.8280182,42.1575856],"ct":"GE","tp":"CS","ts":"2016-08-28T14:26:38Z","tX":631,"tY":380,"tags":{"name":"საკარვე ადგილი","name:en":"Camp place","name:ka":"საკარვე ადგილი"}},"10886783219":{"location":[41.9529005,42.0322764],"ct":"GE","tp":"CS","ts":"2023-07-09T16:08:41Z","tX":631,"tY":380,"tags":{"access":"yes","addr:city":"Melekeduri","addr:country":"GE","addr:housenumber":"3516","addr:street":"Ozurgeti 3516","caravans":"yes","fee":"yes","language:de":"main","language:en":"yes","mobile":"+49 15678 385835","name":"Camp Itara","phone":"+995 555 977 340","start_date":"2022-01","static_caravans":"no","tents":"yes","website":"https://www.itara.ge"}},"4329171690":{"location":[41.8288329,42.15514],"ct":"GE","tp":"CR","ts":"2016-07-31T09:45:04Z","tX":631,"tY":380,"tags":{"name":"gomis mta cota magla"}}}