{"166236009":{"location":[41.8699075,60.8736248],"ct":"UZ","tp":"CS","ts":"2022-08-27T06:35:17Z","tX":685,"tY":380,"tags":{"addr:country":"UZ","addr:region":"Qaraqalpaqstan Respublikası","building":"yes","name":"1"}},"166236011":{"location":[41.8690619,60.8712855],"ct":"UZ","tp":"CS","ts":"2022-08-27T06:35:17Z","tX":685,"tY":380,"tags":{"addr:country":"UZ","addr:region":"Qaraqalpaqstan Respublikası","building":"yes","name":"10"}},"166236012":{"location":[41.8678512,60.8714043],"ct":"UZ","tp":"CS","ts":"2022-08-27T06:35:17Z","tX":685,"tY":380,"tags":{"addr:country":"UZ","addr:region":"Qaraqalpaqstan Respublikası","building":"yes","name":"11"}},"166236013":{"location":[41.8679717,60.8717503],"ct":"UZ","tp":"CS","ts":"2022-08-27T06:35:17Z","tX":685,"tY":380,"tags":{"addr:country":"UZ","addr:region":"Qaraqalpaqstan Respublikası","building":"yes","name":"12"}},"166236014":{"location":[41.8681063,60.8721216],"ct":"UZ","tp":"CS","ts":"2022-08-27T06:35:17Z","tX":685,"tY":380,"tags":{"addr:country":"UZ","addr:region":"Qaraqalpaqstan Respublikası","building":"yes","name":"13"}},"166236015":{"location":[41.8682371,60.8724905],"ct":"UZ","tp":"CS","ts":"2022-08-27T06:35:17Z","tX":685,"tY":380,"tags":{"addr:country":"UZ","addr:region":"Qaraqalpaqstan Respublikası","building":"yes","name":"14"}},"166236016":{"location":[41.8683621,60.8728624],"ct":"UZ","tp":"CS","ts":"2022-08-27T06:35:17Z","tX":685,"tY":380,"tags":{"addr:country":"UZ","addr:region":"Qaraqalpaqstan Respublikası","building":"yes","name":"15"}},"166236017":{"location":[41.8697841,60.8733869],"ct":"UZ","tp":"CS","ts":"2022-08-27T06:35:17Z","tX":685,"tY":380,"tags":{"addr:country":"UZ","addr:region":"Qaraqalpaqstan Respublikası","building":"yes","name":"2"}},"166236019":{"location":[41.8697168,60.8731056],"ct":"UZ","tp":"CS","ts":"2022-08-27T06:35:17Z","tX":685,"tY":380,"tags":{"addr:country":"UZ","addr:region":"Qaraqalpaqstan Respublikası","building":"yes","name":"3"}},"166236020":{"location":[41.8695999,60.8728584],"ct":"UZ","tp":"CS","ts":"2022-08-27T06:35:17Z","tX":685,"tY":380,"tags":{"addr:country":"UZ","addr:region":"Qaraqalpaqstan Respublikası","building":"yes","name":"4"}},"166236021":{"location":[41.8695365,60.8725791],"ct":"UZ","tp":"CS","ts":"2022-08-27T06:35:17Z","tX":685,"tY":380,"tags":{"addr:country":"UZ","addr:region":"Qaraqalpaqstan Respublikası","building":"yes","name":"5"}},"166236022":{"location":[41.8694222,60.8723442],"ct":"UZ","tp":"CS","ts":"2022-08-27T06:35:17Z","tX":685,"tY":380,"tags":{"addr:country":"UZ","addr:region":"Qaraqalpaqstan Respublikası","building":"yes","name":"6"}},"166236023":{"location":[41.8693568,60.8720572],"ct":"UZ","tp":"CS","ts":"2022-08-27T06:35:17Z","tX":685,"tY":380,"tags":{"addr:country":"UZ","addr:region":"Qaraqalpaqstan Respublikası","building":"yes","name":"7"}},"166236024":{"location":[41.8692384,60.8718156],"ct":"UZ","tp":"CS","ts":"2022-08-27T06:35:17Z","tX":685,"tY":380,"tags":{"addr:country":"UZ","addr:region":"Qaraqalpaqstan Respublikası","building":"yes","name":"8"}},"166236025":{"location":[41.8691747,60.8715271],"ct":"UZ","tp":"CS","ts":"2022-08-27T06:35:17Z","tX":685,"tY":380,"tags":{"addr:country":"UZ","addr:region":"Qaraqalpaqstan Respublikası","building":"yes","name":"9"}},"292421211":{"location":[42.0189723,61.0253161],"ct":"UZ","tp":"CS","ts":"2020-12-13T17:02:44Z","tX":685,"tY":380,"tags":{"ele":"145","fax":"8 361 5324361","name":"Ayaz Qala qara uyler lageri","name:de":"Jurtenlager Ayaz Kala","name:en":"Ayaz Kala yurt camp","phone":"+99895 6050770","source":"DuMont Reise-Handbuch Usbekistan"}},"5199326221":{"location":[41.9226142,60.9271639],"ct":"UZ","tp":"CS","ts":"2017-10-30T04:54:16Z","tX":685,"tY":380,"tags":{"addr:street":"Юлдуз даха","name":"Элликкальа акчакулчилари фх","name:en":"Ellikqal'a aqchako'lchilari fx","name:ru":"Элликкальа акчакулчилари фх"}}}