{"566464621":{"location":[66.2687465,29.4042142],"ct":"FI","tp":"CS","ts":"2023-10-23T14:10:22Z","tX":595,"tY":257,"tags":{"access":"yes","addr:city":"Kuusamo","addr:housenumber":"134","addr:postcode":"93999","addr:street":"Juumantie","bbq":"yes","cabins":"yes","cafe":"yes","caravans":"yes","drinking_water":"yes","fee":"yes","name":"Lomakylä Retkietappi","phone":"+358 40 565 3474","reservation":"yes","sauna":"yes","shower":"yes","tents":"yes","toilets":"yes","website":"https://www.retkietappi.fi/"}},"570704021":{"location":[66.2730596,29.3777499],"ct":"FI","tp":"CS","ts":"2023-10-23T14:10:41Z","tX":595,"tY":257,"tags":{"access":"yes","addr:city":"Kuusamo","addr:country":"FI","addr:housenumber":"1","addr:postcode":"93999","addr:street":"Riekamontie","bar":"yes","bbq":"yes","cabins":"yes","caravans":"yes","dog":"leashed","email":"juumanleirintaalue@wippies.fi","fee":"yes","kitchen":"yes","name":"Juuma Camping","name:en":"Juuma Camping","name:fi":"Juuman leirintäalue","operator":"Kaija & Teemu Huotari","payment:cash":"yes","payment:credit_cards":"yes","payment:debit_cards":"yes","payment:visa":"yes","phone":"+358 44 272 78 72","power_supply":"yes","reservation":"yes","sauna":"yes","shower":"yes","toilets":"yes","washing_machine":"yes","website":"https://www.juumanleirintaalue.fi/"}},"630221969":{"location":[66.3716664,29.2937327],"ct":"FI","tp":"CS","ts":"2023-10-23T14:12:12Z","tX":595,"tY":257,"tags":{"access":"yes","addr:city":"Kuusamo","addr:country":"FI","addr:housenumber":"137","addr:postcode":"93999","addr:street":"Liikasenvaarantie","bbq":"yes","cabins":"10","camp_site":"standard","capacity":"170","capacity:caravan":"20","caravans":"yes","dog":"yes","drinking_water":"yes","fee":"yes","kitchen":"yes","motor_vehicle":"yes","name":"Oulangan kansallispuiston leirintäalue","name:en":"Oulanka National Park Camping Ground","name:fi":"Oulangan kansallispuiston leirintäalue","opening_hours":"Jun-Aug","operator":"Oulangan leirintäalue","phone":"+358 44 740 0001","playground":"yes","power_supply":"yes","reservation":"yes","sauna":"yes","shower":"yes","tents":"yes","tents:capacity":"110","toilets":"yes","website":"https://oulankacamping.fi/"}},"773736922":{"location":[66.2654554,29.3856304],"ct":"FI","tp":"CS","ts":"2024-09-25T19:28:02Z","tX":595,"tY":257,"tags":{"caravans":"yes","fee":"yes","leisure":"sauna","name":"Jyrävän Leirintä","operator":"https://stellapolaris.fi/jyravan-leirinta/","tents":"yes"}},"5972198551":{"location":[66.3691553,29.3374717],"ct":"FI","tp":"CS","ts":"2018-10-10T13:46:10Z","tX":595,"tY":257,"tags":{"access":"yes","backcountry":"yes","capacity":"5","fee":"no","name":"Kiutaköngäs telttailualue","operator":"Metsähallitus"}},"7852353185":{"location":[66.2547687,29.4374822],"ct":"FI","tp":"CS","ts":"2020-09-02T19:14:48Z","tX":595,"tY":257,"tags":{"access":"yes","backcountry":"yes","drinking_water":"treated","fee":"no","name":"Siilastupa","name:en":"Siilastupa","openfire":"yes","operator":"Metsähallitus","toilets":"yes"}},"7853062385":{"location":[66.2642229,29.4536071],"ct":"FI","tp":"CS","ts":"2020-09-02T19:14:48Z","tX":595,"tY":257,"tags":{"access":"yes","backcountry":"yes","capacity":"5","drinking_water":"yes","fee":"no","name":"Harrisuvanto","name:en":"Harrisuvanto","openfire":"yes","opening_hours":"24/7","operator":"Metsähallitus","toilets":"yes"}},"7869467558":{"location":[66.3028977,29.5199915],"ct":"FI","tp":"CS","ts":"2020-09-02T19:14:48Z","tX":595,"tY":257,"tags":{"access":"yes","backcountry":"yes","capacity":"5","fee":"no","name":"Jussinkämppä","operator":"Metsähallitus"}}}