{"1203504219":{"location":[46.8343739,29.3273794],"ct":"MD","tp":"CS","ts":"2023-09-09T05:37:27Z","tX":595,"tY":360,"tags":{"addr:city":"Hîrbovăț","name":"Tabăra pentru Copii „Hîrbovăț” (abandonată)"}},"4227929689":{"location":[46.8361044,29.4646026],"ct":"MD","tp":"CR","ts":"2024-06-10T08:54:07Z","tX":595,"tY":360,"tags":{"addr:street":"улица Панфилова","name":"ООО \"Лобус\""}},"6388610586":{"location":[47.0252976,29.3682338],"ct":"MD","tp":"CS","ts":"2019-04-07T07:19:50Z","tX":595,"tY":360,"tags":{"name:ru":"Поляна"}},"4363635990":{"location":[46.8319354,29.4776923],"ct":"MD","tp":"CR","ts":"2016-08-23T21:41:20Z","tX":595,"tY":360,"tags":{"name":"АГСК 34","name:ro":"АГСК 34","name:ru":"АГСК 34"}},"4405244190":{"location":[46.8503706,29.4692298],"ct":"MD","tp":"CR","ts":"2016-09-17T04:44:48Z","tX":595,"tY":360,"tags":{"name:ru":"АГСК 12"}},"4405260689":{"location":[46.8496573,29.4683615],"ct":"MD","tp":"CR","ts":"2016-09-17T04:44:46Z","tX":595,"tY":360,"tags":{"name:ru":"АГСК 8"}},"4431311190":{"location":[46.855326,29.4607452],"ct":"MD","tp":"CR","ts":"2016-10-04T19:19:21Z","tX":595,"tY":360,"tags":{}},"4432725190":{"location":[46.8163898,29.4654106],"ct":"MD","tp":"CR","ts":"2016-10-05T13:57:54Z","tX":595,"tY":360,"tags":{"addr:street":"улица Асаке","name:ru":"АГСК 14"}},"4478142593":{"location":[46.8117434,29.4860642],"ct":"MD","tp":"CR","ts":"2016-11-03T01:31:15Z","tX":595,"tY":360,"tags":{"addr:street":"Садовая улица","name:ru":"АГСК 5"}},"4486826089":{"location":[46.831596,29.4496989],"ct":"MD","tp":"CR","ts":"2016-11-07T12:37:12Z","tX":595,"tY":360,"tags":{"addr:street":"улица Интернационалистов","name:ru":"АГСК 9"}},"4532801415":{"location":[46.844398,29.4569741],"ct":"MD","tp":"CR","ts":"2016-12-01T21:20:42Z","tX":595,"tY":360,"tags":{"addr:street":"Кишинёвская улица","name:ru":"АГСК 13"}},"4574046190":{"location":[46.8257511,29.4841205],"ct":"MD","tp":"CR","ts":"2016-12-26T22:00:48Z","tX":595,"tY":360,"tags":{"name:ru":"Автостоянка"}},"4689804192":{"location":[46.8243554,29.4547671],"ct":"MD","tp":"CR","ts":"2017-02-17T04:15:16Z","tX":595,"tY":360,"tags":{"addr:street":"улица Крянгэ","name:ru":"АГСК 10"}},"4689853189":{"location":[46.8237093,29.4549721],"ct":"MD","tp":"CR","ts":"2017-02-17T04:15:15Z","tX":595,"tY":360,"tags":{"addr:street":"улица Крянгэ","name:ru":"АГСК 1"}},"4738778137":{"location":[46.8458542,29.4853609],"ct":"MD","tp":"CR","ts":"2017-03-16T21:48:15Z","tX":595,"tY":360,"tags":{"addr:street":"переулок Грибоедова","name:ru":"АГСК 20"}},"4811721422":{"location":[46.8412223,29.4576362],"ct":"MD","tp":"CR","ts":"2017-04-23T16:21:20Z","tX":595,"tY":360,"tags":{"addr:street":"Кишинёвская улица","name:ru":"АГСК 33"}},"6697545587":{"location":[46.8244144,29.4821981],"ct":"MD","tp":"CR","ts":"2019-08-09T17:11:10Z","tX":595,"tY":360,"tags":{"name:ru":"Центр"}},"6697586086":{"location":[46.8245732,29.4826219],"ct":"MD","tp":"CR","ts":"2019-08-09T17:11:10Z","tX":595,"tY":360,"tags":{"name:ru":"Центр"}}}