{"230330963":{"location":[46.7724822,29.5239797],"ct":"MD","tp":"CS","ts":"2023-07-12T10:10:21Z","tX":595,"tY":361,"tags":{"name":"Лесная поляна"}},"4770200432":{"location":[46.6167637,29.5053798],"ct":"MD","tp":"CS","ts":"2017-04-01T21:24:02Z","tX":595,"tY":361,"tags":{"name":"Tabăra \"Ghiocel\"","name:en":"\"Ghiocel\" Camp","name:ru":"Лагерь \"Гиочел\""}},"4466205390":{"location":[46.7848819,29.4839999],"ct":"MD","tp":"CR","ts":"2023-07-15T11:15:24Z","tX":595,"tY":361,"tags":{"addr:housenumber":"2А","addr:street":"улица Тимирязева","opening_hours":"24/7","phone":"+373 777 16 291"}},"4532801101":{"location":[46.7858648,29.4933399],"ct":"MD","tp":"CR","ts":"2016-12-01T21:20:43Z","tX":595,"tY":361,"tags":{"addr:street":"Индустриальная улица","name:ru":"АГСК 36"}},"4735977624":{"location":[46.7901427,29.4528134],"ct":"MD","tp":"CR","ts":"2017-03-15T11:58:43Z","tX":595,"tY":361,"tags":{"addr:street":"улица Ленина","name:ru":"АГСК 23"}},"4751246524":{"location":[46.8000349,29.4785457],"ct":"MD","tp":"CR","ts":"2017-03-23T17:54:47Z","tX":595,"tY":361,"tags":{"addr:housenumber":"217 б","addr:street":"улица Суворова","name:ru":"АГСК 21"}}}