{"2008319874":{"location":[34.9515937,32.9266695],"ct":"CY","tp":"CS","ts":"2013-10-21T10:24:35Z","tX":605,"tY":405,"tags":{"name":"Platania Camping Site Troodos"}},"2028498248":{"location":[34.9272737,32.831676],"ct":"CY","tp":"CS","ts":"2022-06-01T08:07:53Z","tX":605,"tY":405,"tags":{"caravans":"yes","fee":"yes","int_name":"Kampi Tou Kalogyrou","internet_access":"wlan","name":"Καμπί του Καλογήρου","name:el":"Καμπί του Καλογήρου","name:en":"Kampi Tou Kalogyrou","tents":"yes"}},"3099140312":{"location":[34.8885564,32.747659],"ct":"CY","tp":"CS","ts":"2018-09-08T20:08:39Z","tX":605,"tY":405,"tags":{"name":"Eco village","name:ru":"это не кемпинг","phone":"+357 99 800695","website":"http://nowishappening.net/"}},"4465566891":{"location":[34.9303038,32.88397],"ct":"CY","tp":"CS","ts":"2025-04-01T19:56:56Z","tX":605,"tY":405,"tags":{"charge":"2.5 EUR","fee":"yes","name":"Troodos Camping Site","website":"https://www.camping.info/en/campsite/camping-troodos"}},"10012888022":{"location":[34.9220228,32.8893764],"ct":"CY","tp":"CS","ts":"2023-08-14T09:44:01Z","tX":605,"tY":405,"tags":{"name":"Loumata camping site"}},"6099635586":{"location":[34.9193591,32.8318836],"ct":"CY","tp":"CR","ts":"2023-05-06T08:25:17Z","tX":605,"tY":405,"tags":{}},"12713955204":{"location":[34.9252187,32.8798634],"ct":"CY","tp":"CS","ts":"2025-04-01T19:56:56Z","tX":605,"tY":405,"tags":{"addr:city":"Τρόοδος","addr:postcode":"4800","name":"Troodos Hill Resort"}}}