{"2180789052":{"location":[-2.5285759,32.8948264],"ct":"TZ","tp":"CS","ts":"2023-09-26T16:04:39Z","tX":605,"tY":519,"tags":{"addr:city":"Mwanza","addr:country":"TZ","caravans":"yes","check_date":"2023-04-29","drinking_water":"yes","internet_access":"wlan","name":"Mwanza Yacht Club","power_supply":"yes","tents":"yes","toilets":"yes"}},"2181056345":{"location":[-2.5417134,33.0403707],"ct":"TZ","tp":"CS","ts":"2024-06-06T00:50:41Z","tX":605,"tY":519,"tags":{"access":"permissive","check_date":"2024-06-06","internet_access":"no","name":"Bujora Museum Camping","opening_hours":"07:00-18:00","payment:mastercard":"yes","payment:visa":"yes","wheelchair":"no"}},"3311757238":{"location":[-2.6215738,32.8683959],"ct":"TZ","tp":"CS","ts":"2015-01-26T10:01:11Z","tX":605,"tY":519,"tags":{"name":"Royal Sunset Lodge","note":"Probably inacurat Location taken from Google maps to verify this year"}},"8520657089":{"location":[-2.529672,32.9417831],"ct":"TZ","tp":"CS","ts":"2023-07-07T11:04:11Z","tX":605,"tY":519,"tags":{"addr:city":"Mwanza","addr:municipality":"Ilemela","addr:street":"Nyasaka Road","addr:subward":"Buzuruga Mashariki","addr:ward":"Mecco","check_date":"2023-07-07","internet_access":"no","man_made":"yes","opening_hours":"Mo-Fr 06:00-20:00","operator":"Sky Car wash","payment:cards":"no","payment:credit_cards":"no","payment:debit_cards":"no","source":"Ramani Mwanza 2020","wheelchair":"no"}},"8520663917":{"location":[-2.5300669,32.9414749],"ct":"TZ","tp":"CS","ts":"2023-07-07T10:59:32Z","tX":605,"tY":519,"tags":{"addr:city":"Mwanza","addr:municipality":"Ilemela","addr:subward":"Buzuruga Mashariki","addr:ward":"Mecco","check_date":"2023-07-07","internet_access":"no","man_made":"yes","operator":"King","payment:cards":"no","payment:credit_cards":"no","payment:debit_cards":"no","source":"Ramani Mwanza 2020","wheelchair":"no"}},"8520664449":{"location":[-2.5308172,32.9411745],"ct":"TZ","tp":"CS","ts":"2023-07-07T10:52:43Z","tX":605,"tY":519,"tags":{"addr:city":"Mwanza","addr:municipality":"Ilemela","addr:subward":"Buzuruga Mashariki","addr:ward":"Mecco","check_date":"2023-07-07","man_made":"yes","name":"Jomba Cafe","name:en":"Jomba Cafe","operator":"Jomba Cafe","source":"Ramani Mwanza 2020"}},"8532205562":{"location":[-2.5289522,32.9104471],"ct":"TZ","tp":"CS","ts":"2021-03-27T18:11:29Z","tX":605,"tY":519,"tags":{"addr:city":"Mwanza","addr:municipality":"Nyamagana","addr:subward":"Mlimani","addr:ward":"Pamba","man_made":"yes","name":"Mlimani Pub","source":"Ramani Mwanza 2020"}},"11323336987":{"location":[-2.5996462,32.9260455],"ct":"TZ","tp":"CS","ts":"2023-11-05T10:53:48Z","tX":605,"tY":519,"tags":{"name":"mkolani chini"}},"11323336988":{"location":[-2.5996438,32.9260351],"ct":"TZ","tp":"CS","ts":"2023-11-05T10:53:49Z","tX":605,"tY":519,"tags":{"name":"mkolani"}},"11406987597":{"location":[-2.5404921,32.8909328],"ct":"TZ","tp":"CS","ts":"2023-12-10T08:00:31Z","tX":605,"tY":519,"tags":{}},"12633288046":{"location":[-2.5061467,32.7435556],"ct":"TZ","tp":"CS","ts":"2025-03-03T13:41:56Z","tX":605,"tY":519,"tags":{}}}