{"916244003":{"location":[51.3747757,86.0943247],"ct":"RU","tp":"CS","ts":"2021-03-12T12:10:12Z","tX":756,"tY":341,"tags":{"cabins":"yes","camp_site":"serviced","caravans":"yes","motor_vehicle":"yes","name":"Красные купола","openfire":"yes","phone":"+7 913 999 09 62","reservation":"yes","website":"https://vk.com/krkypola"}},"1200915544":{"location":[51.3905299,86.0024705],"ct":"RU","tp":"CS","ts":"2023-08-21T18:47:41Z","tX":756,"tY":341,"tags":{"name":"Кайр-Суу"}},"4231820189":{"location":[51.3847337,86.0552285],"ct":"RU","tp":"CS","ts":"2018-12-17T15:53:17Z","tX":756,"tY":341,"tags":{"addr:housenumber":"2А","addr:place":"урочище Ареда","addr:postcode":"649240","name":"Чемальская Поляна","opening_hours":"24/7","phone":"+7 913 9996218;+7 923 6624932"}},"4437644090":{"location":[51.3893184,85.9949754],"ct":"RU","tp":"CS","ts":"2022-05-08T01:01:07Z","tX":756,"tY":341,"tags":{"addr:street":"Чемальский тракт","name":"Турбаза Банька у Михалыча","name:en":"Turbaza BAN'KA U MIKHALYCHA","opening_hours":"24/7","phone":"+7 923 6661508","website":"https://www.turistka.ru/altai/info.php?ob=1295"}},"5632748923":{"location":[51.3767321,85.9896947],"ct":"RU","tp":"CS","ts":"2018-05-21T13:52:32Z","tX":756,"tY":341,"tags":{"name":"Чемальские просторы"}},"7192190585":{"location":[51.3480349,86.0293539],"ct":"RU","tp":"CS","ts":"2020-02-07T00:40:08Z","tX":756,"tY":341,"tags":{"name":"У Петровича","opening_hours":"24/7"}},"7702923785":{"location":[51.3187257,86.0213367],"ct":"RU","tp":"CS","ts":"2020-07-10T17:04:58Z","tX":756,"tY":341,"tags":{"name":"Сосновый берег","name:en":"Pine coast"}},"7716985585":{"location":[51.3011989,86.0408757],"ct":"RU","tp":"CS","ts":"2020-07-15T13:39:07Z","tX":756,"tY":341,"tags":{}},"7728739085":{"location":[51.3913062,86.039864],"ct":"RU","tp":"CS","ts":"2020-07-19T16:14:13Z","tX":756,"tY":341,"tags":{"name":"топ кемпинг куча мест"}},"8956032531":{"location":[51.2941151,86.049663],"ct":"RU","tp":"CS","ts":"2021-07-28T06:24:10Z","tX":756,"tY":341,"tags":{"name":"ВиаФеррата Алтай"}},"9860880517":{"location":[51.3749331,86.1091975],"ct":"RU","tp":"CS","ts":"2022-07-01T17:10:00Z","tX":756,"tY":341,"tags":{"name":"место для отдыха с палаткой"}},"10867379405":{"location":[51.2572931,86.0708223],"ct":"RU","tp":"CS","ts":"2023-05-04T12:48:00Z","tX":756,"tY":341,"tags":{"addr:street":"Чемальский тракт","contact:instagram":"ezocentr_whitelotus","contact:vk":"club23041317","email":"BeliyLotos.Altai@yandex.ru","internet_access":"wlan","name":"Белый Лотос","name:en":"White Lotus","phone":"+79850952669","website":"https://www.whitelotusaltay.com"}},"11101753106":{"location":[51.3918547,86.0442444],"ct":"RU","tp":"CS","ts":"2023-08-09T13:11:52Z","tX":756,"tY":341,"tags":{"name":"Кемпинг"}},"11101759705":{"location":[51.3818479,86.0832198],"ct":"RU","tp":"CS","ts":"2023-08-12T11:22:09Z","tX":756,"tY":341,"tags":{"leisure":"sauna","name":"Баня с Пасекой","phone":"89139982307"}},"12809762653":{"location":[51.3976485,85.9942067],"ct":"RU","tp":"CS","ts":"2025-05-04T16:29:26Z","tX":756,"tY":341,"tags":{"email":"village@naturalesa.ru","name":"Глэмпинг \"Натуралеса\"","phone":"+7-936-938-99-88","website":"naturalesa.ru"}}}