{"6298510490":{"location":[34.373795,62.3069899],"ct":"AF","tp":"CS","ts":"2019-02-24T05:34:41Z","tX":689,"tY":407,"tags":{"name:en":"Clinic"}},"6298510491":{"location":[34.3694754,62.2985069],"ct":"AF","tp":"CS","ts":"2019-02-24T05:34:43Z","tX":689,"tY":407,"tags":{"name:en":"Clinic 1"}},"6298510492":{"location":[34.3669904,62.3004783],"ct":"AF","tp":"CS","ts":"2019-02-24T05:34:45Z","tX":689,"tY":407,"tags":{"name:en":"Clinic 2"}},"6298510493":{"location":[34.3637365,62.3083978],"ct":"AF","tp":"CS","ts":"2019-02-24T05:34:53Z","tX":689,"tY":407,"tags":{"name:en":"Clinic Street 2"}},"6298510494":{"location":[34.3719139,62.3319433],"ct":"AF","tp":"CS","ts":"2019-02-24T05:35:04Z","tX":689,"tY":407,"tags":{"name:en":"Shay dates 1"}},"6298510513":{"location":[34.3641855,62.3133267],"ct":"AF","tp":"CS","ts":"2019-02-24T05:35:18Z","tX":689,"tY":407,"tags":{"name:en":"Shaydayee Street 5"}},"6298510514":{"location":[34.364948,62.3213052],"ct":"AF","tp":"CS","ts":"2019-02-24T05:35:21Z","tX":689,"tY":407,"tags":{"name:en":"Shaydayee Street 3"}},"6298510515":{"location":[34.3800019,62.3569613],"ct":"AF","tp":"CS","ts":"2021-02-02T04:55:07Z","tX":689,"tY":407,"tags":{"name:en":"Shahrake sabz 1"}},"6298510516":{"location":[34.3736215,62.3549859],"ct":"AF","tp":"CS","ts":"2019-02-24T05:35:32Z","tX":689,"tY":407,"tags":{"name:en":"Shahrake sabz 3"}},"6298510517":{"location":[34.3721458,62.3581776],"ct":"AF","tp":"CS","ts":"2019-02-24T05:35:34Z","tX":689,"tY":407,"tags":{"name:en":"SS Street 9"}},"6298510518":{"location":[34.3725727,62.3595604],"ct":"AF","tp":"CS","ts":"2019-02-24T05:35:37Z","tX":689,"tY":407,"tags":{"name:en":"SS Street 8"}},"6298510519":{"location":[34.3731717,62.3615386],"ct":"AF","tp":"CS","ts":"2019-02-24T05:35:38Z","tX":689,"tY":407,"tags":{"name:en":"SS Street 7"}},"6298510520":{"location":[34.3754487,62.3687671],"ct":"AF","tp":"CS","ts":"2019-02-24T05:35:42Z","tX":689,"tY":407,"tags":{"name:en":"SS Street 1"}},"6298510521":{"location":[34.3787167,62.3653352],"ct":"AF","tp":"CS","ts":"2019-02-24T05:35:47Z","tX":689,"tY":407,"tags":{"name:en":"Shahrake sabz 7"}},"6298510522":{"location":[34.3784428,62.365921],"ct":"AF","tp":"CS","ts":"2019-02-24T05:35:48Z","tX":689,"tY":407,"tags":{"name:en":"Shahrake sabz 8"}},"6298510523":{"location":[34.3773396,62.3620217],"ct":"AF","tp":"CS","ts":"2019-02-24T05:35:51Z","tX":689,"tY":407,"tags":{"name:en":"Shahrake sabz 10"}},"6298510524":{"location":[34.3802236,62.3836252],"ct":"AF","tp":"CS","ts":"2019-02-24T05:36:00Z","tX":689,"tY":407,"tags":{"name:en":"Regration 6"}},"6298510690":{"location":[34.3665993,62.3023678],"ct":"AF","tp":"CS","ts":"2019-02-24T05:34:46Z","tX":689,"tY":407,"tags":{"name:en":"Clinic 3"}},"6298510691":{"location":[34.3648454,62.3044673],"ct":"AF","tp":"CS","ts":"2019-02-24T05:34:48Z","tX":689,"tY":407,"tags":{"name:en":"Clinic 4"}},"6298510692":{"location":[34.3639141,62.3105437],"ct":"AF","tp":"CS","ts":"2019-02-24T05:34:55Z","tX":689,"tY":407,"tags":{"name:en":"Clinic Street 3"}},"6298510693":{"location":[34.3641613,62.3130711],"ct":"AF","tp":"CS","ts":"2019-02-24T05:34:57Z","tX":689,"tY":407,"tags":{"name:en":"Clinic Street 5"}},"6298510694":{"location":[34.377311,62.3063107],"ct":"AF","tp":"CS","ts":"2019-02-24T05:35:00Z","tX":689,"tY":407,"tags":{"name:en":"Clinic 7"}},"6298510695":{"location":[34.3730069,62.3050019],"ct":"AF","tp":"CS","ts":"2019-02-24T05:35:02Z","tX":689,"tY":407,"tags":{"name:en":"Clinic 8"}},"6298510696":{"location":[34.3717573,62.3299505],"ct":"AF","tp":"CS","ts":"2019-02-24T05:35:06Z","tX":689,"tY":407,"tags":{"name:en":"Shaydayee 2"}},"6298510697":{"location":[34.369603,62.3334153],"ct":"AF","tp":"CS","ts":"2019-02-24T05:35:07Z","tX":689,"tY":407,"tags":{"name:en":"Shaydayee 3"}},"6298510698":{"location":[34.3710327,62.3295837],"ct":"AF","tp":"CS","ts":"2019-02-24T05:35:09Z","tX":689,"tY":407,"tags":{"name:en":"Shaydayee 4"}},"6298510701":{"location":[34.3689449,62.316327],"ct":"AF","tp":"CS","ts":"2019-02-24T05:35:13Z","tX":689,"tY":407,"tags":{"name:en":"Shaydayee 7"}},"6298510702":{"location":[34.3719811,62.3155586],"ct":"AF","tp":"CS","ts":"2019-02-24T05:35:15Z","tX":689,"tY":407,"tags":{"name:en":"Shaydayee 8"}},"6298510703":{"location":[34.3653434,62.3258872],"ct":"AF","tp":"CS","ts":"2019-02-24T05:35:23Z","tX":689,"tY":407,"tags":{"name:en":"Shaydayee Street 2"}},"6298510704":{"location":[34.3659309,62.3323364],"ct":"AF","tp":"CS","ts":"2019-02-24T05:35:26Z","tX":689,"tY":407,"tags":{"name:en":"Shaydayee 10"}},"6298510705":{"location":[34.3775954,62.3678955],"ct":"AF","tp":"CS","ts":"2019-02-24T05:35:43Z","tX":689,"tY":407,"tags":{"name:en":"Shahrake sabz 5"}},"6298510706":{"location":[34.3789873,62.366582],"ct":"AF","tp":"CS","ts":"2019-02-24T05:35:45Z","tX":689,"tY":407,"tags":{"name:en":"Shahrake sabz 6"}},"6298510707":{"location":[34.3780379,62.3650545],"ct":"AF","tp":"CS","ts":"2019-02-24T05:35:50Z","tX":689,"tY":407,"tags":{"name:en":"Shahrake sabz 9"}},"6298510708":{"location":[34.379079,62.3613576],"ct":"AF","tp":"CS","ts":"2019-02-24T05:35:53Z","tX":689,"tY":407,"tags":{"name:en":"Shahrake sabz 11"}},"6298510709":{"location":[34.376911,62.37378],"ct":"AF","tp":"CS","ts":"2019-02-24T05:35:54Z","tX":689,"tY":407,"tags":{"name:en":"Regration 1"}},"6298525686":{"location":[34.3636155,62.3064399],"ct":"AF","tp":"CS","ts":"2019-02-24T05:34:51Z","tX":689,"tY":407,"tags":{"name:en":"Clinic Street 2"}},"6298525688":{"location":[34.3727903,62.3119081],"ct":"AF","tp":"CS","ts":"2019-02-24T05:35:16Z","tX":689,"tY":407,"tags":{"name:en":"Shaydayee 9"}},"6298525689":{"location":[34.3645424,62.3168504],"ct":"AF","tp":"CS","ts":"2019-02-24T05:35:19Z","tX":689,"tY":407,"tags":{"name:en":"Shaydayee Street 4"}},"6298525690":{"location":[34.3657452,62.3304936],"ct":"AF","tp":"CS","ts":"2019-02-24T05:35:24Z","tX":689,"tY":407,"tags":{"name:en":"Shaydayee Street 1"}},"6298525691":{"location":[34.3742481,62.3576551],"ct":"AF","tp":"CS","ts":"2019-02-24T05:35:31Z","tX":689,"tY":407,"tags":{"name:en":"Shahrake Sabz 2"}},"6298525692":{"location":[34.3812954,62.3749708],"ct":"AF","tp":"CS","ts":"2019-02-24T05:35:57Z","tX":689,"tY":407,"tags":{"name:en":"Regration 4"}},"6298525693":{"location":[34.3822656,62.3781622],"ct":"AF","tp":"CS","ts":"2019-02-24T05:35:59Z","tX":689,"tY":407,"tags":{"name:en":"Regration 4"}},"6298525694":{"location":[34.3713354,62.3551731],"ct":"AF","tp":"CS","ts":"2019-02-24T05:36:02Z","tX":689,"tY":407,"tags":{"name:en":"Shahrake sabz 4"}},"6298526385":{"location":[34.3649636,62.306079],"ct":"AF","tp":"CS","ts":"2019-02-24T05:34:50Z","tX":689,"tY":407,"tags":{"name:en":"Clinic 5"}},"6298527085":{"location":[34.3738926,62.311285],"ct":"AF","tp":"CS","ts":"2019-02-24T05:34:59Z","tX":689,"tY":407,"tags":{"name:en":"Clinic 6"}},"6298527086":{"location":[34.3702463,62.3249548],"ct":"AF","tp":"CS","ts":"2019-02-24T05:35:10Z","tX":689,"tY":407,"tags":{"name:en":"Shaydayee 5"}},"6298527087":{"location":[34.3689107,62.3207118],"ct":"AF","tp":"CS","ts":"2019-02-24T05:35:12Z","tX":689,"tY":407,"tags":{"name:en":"Shaydayee 5"}},"6298527088":{"location":[34.3736794,62.3632462],"ct":"AF","tp":"CS","ts":"2019-02-24T05:35:40Z","tX":689,"tY":407,"tags":{"name:en":"SS Street 6"}},"6298527089":{"location":[34.3783327,62.3727187],"ct":"AF","tp":"CS","ts":"2019-02-24T05:35:56Z","tX":689,"tY":407,"tags":{"name:en":"Regration 3"}},"6581195485":{"location":[34.3754325,62.3687296],"ct":"AF","tp":"CS","ts":"2019-07-01T07:43:21Z","tX":689,"tY":407,"tags":{}},"6584179868":{"location":[34.3843273,62.3714341],"ct":"AF","tp":"CS","ts":"2019-07-02T13:47:16Z","tX":689,"tY":407,"tags":{"name:en":"Regration"}},"6594010586":{"location":[34.3638092,62.3398749],"ct":"AF","tp":"CS","ts":"2019-07-07T03:37:18Z","tX":689,"tY":407,"tags":{"name:en":"chest"}},"6594106985":{"location":[34.3851582,62.3927476],"ct":"AF","tp":"CS","ts":"2019-07-07T06:10:26Z","tX":689,"tY":407,"tags":{"name:en":"Regration"}},"6594107085":{"location":[34.3864952,62.3919612],"ct":"AF","tp":"CS","ts":"2019-07-07T06:10:27Z","tX":689,"tY":407,"tags":{}},"6594107087":{"location":[34.3832137,62.3822753],"ct":"AF","tp":"CS","ts":"2019-07-07T06:18:50Z","tX":689,"tY":407,"tags":{}},"6594107185":{"location":[34.3884472,62.3914697],"ct":"AF","tp":"CS","ts":"2019-07-07T06:10:28Z","tX":689,"tY":407,"tags":{}},"6594107186":{"location":[34.3857344,62.3914086],"ct":"AF","tp":"CS","ts":"2019-07-07T06:10:28Z","tX":689,"tY":407,"tags":{}},"6594107187":{"location":[34.3877708,62.3895631],"ct":"AF","tp":"CS","ts":"2019-07-07T06:10:28Z","tX":689,"tY":407,"tags":{}},"6594107188":{"location":[34.3895295,62.390151],"ct":"AF","tp":"CS","ts":"2019-07-07T06:10:29Z","tX":689,"tY":407,"tags":{}},"6594107786":{"location":[34.3835993,62.3791145],"ct":"AF","tp":"CS","ts":"2019-07-07T06:25:41Z","tX":689,"tY":407,"tags":{}},"6594113485":{"location":[34.3836073,62.3845565],"ct":"AF","tp":"CS","ts":"2019-07-07T06:16:28Z","tX":689,"tY":407,"tags":{}},"6594118885":{"location":[34.3844658,62.3883871],"ct":"AF","tp":"CS","ts":"2019-07-07T06:27:32Z","tX":689,"tY":407,"tags":{}},"6594118886":{"location":[34.3835355,62.3871],"ct":"AF","tp":"CS","ts":"2019-07-07T06:27:33Z","tX":689,"tY":407,"tags":{}},"6594119085":{"location":[34.3843144,62.3773561],"ct":"AF","tp":"CS","ts":"2019-07-07T06:27:38Z","tX":689,"tY":407,"tags":{}},"6594119086":{"location":[34.3803831,62.3711765],"ct":"AF","tp":"CS","ts":"2019-07-07T06:46:25Z","tX":689,"tY":407,"tags":{}},"6594119088":{"location":[34.3797661,62.3710609],"ct":"AF","tp":"CS","ts":"2019-07-07T06:49:17Z","tX":689,"tY":407,"tags":{}},"6594121385":{"location":[34.3846321,62.3764629],"ct":"AF","tp":"CS","ts":"2019-07-07T06:33:12Z","tX":689,"tY":407,"tags":{}},"6594121386":{"location":[34.3847418,62.3757983],"ct":"AF","tp":"CS","ts":"2019-07-07T06:33:12Z","tX":689,"tY":407,"tags":{}},"6594121485":{"location":[34.3846508,62.374235],"ct":"AF","tp":"CS","ts":"2019-07-07T06:33:13Z","tX":689,"tY":407,"tags":{}},"6594121486":{"location":[34.3847761,62.3723881],"ct":"AF","tp":"CS","ts":"2019-07-07T06:34:52Z","tX":689,"tY":407,"tags":{}},"6594124685":{"location":[34.3846376,62.3717567],"ct":"AF","tp":"CS","ts":"2019-07-07T06:37:00Z","tX":689,"tY":407,"tags":{}},"6594124688":{"location":[34.3836726,62.3713117],"ct":"AF","tp":"CS","ts":"2019-07-07T06:38:04Z","tX":689,"tY":407,"tags":{}},"6594124690":{"location":[34.3821167,62.3725029],"ct":"AF","tp":"CS","ts":"2019-07-07T06:43:52Z","tX":689,"tY":407,"tags":{}},"6594130285":{"location":[34.3792564,62.3710679],"ct":"AF","tp":"CS","ts":"2019-07-07T06:49:17Z","tX":689,"tY":407,"tags":{}},"6594130286":{"location":[34.3782083,62.3715636],"ct":"AF","tp":"CS","ts":"2019-07-07T06:51:41Z","tX":689,"tY":407,"tags":{}},"6594130287":{"location":[34.3764598,62.3722411],"ct":"AF","tp":"CS","ts":"2019-07-07T06:55:29Z","tX":689,"tY":407,"tags":{}},"7354589786":{"location":[34.3540324,62.3559944],"ct":"AF","tp":"CS","ts":"2020-04-01T13:49:15Z","tX":689,"tY":407,"tags":{"name:en":"Shahrak Razi"}},"7516901585":{"location":[34.364289,62.3298341],"ct":"AF","tp":"CS","ts":"2020-05-14T07:15:32Z","tX":689,"tY":407,"tags":{}},"6548672686":{"location":[34.3256766,62.2510448],"ct":"AF","tp":"CR","ts":"2019-06-15T01:48:21Z","tX":689,"tY":407,"tags":{"addr:street":"پل منار دار","name:en":"Petroleum ensaf","name:fa":"فروشگاه نفت انصاف","opening_hours":"24/7"}}}