{"37838885":{"location":[59.222408,12.1311071],"ct":"SE","tp":"CS","ts":"2025-05-25T11:36:55Z","tX":546,"tY":301,"tags":{"caravans":"yes","drinking_water":"yes","fee":"yes","name":"Camping Vammerviken","power_supply":"yes","sanitary_dump_station":"yes","shower":"yes","tents":"yes","toilets":"yes","website":"https://vammervikenscamping.se/"}},"362214821":{"location":[59.289786,12.0990878],"ct":"SE","tp":"CR","ts":"2022-05-18T23:10:33Z","tX":546,"tY":301,"tags":{"cabins":"yes","caravans":"yes","fee":"yes","internet_access":"wlan","internet_access:fee":"no","name":"Ekeby Camping","operator":"Mads","power_supply":"yes","sanitary_dump_station":"yes","stars":"3","surface":"grass","tents":"yes","website":"https://www.ekebycamping.se/"}},"864717954":{"location":[59.1949574,12.1071942],"ct":"SE","tp":"CS","ts":"2025-05-25T11:35:54Z","tX":546,"tY":301,"tags":{"addr:country":"SE","addr:housename":"Alcatraz","addr:housenumber":"10 - 12","addr:postcode":"666 93","addr:street":"Bruksvägen","caravans":"yes","drinking_water":"yes","fee":"yes","name":"Alcatraz","phone":"+46 531 20300","shower":"yes","tents":"yes","toilets":"yes","website":"https://www.alcatraz.se/"}},"12006508366":{"location":[59.2659849,12.147931],"ct":"SE","tp":"CS","ts":"2024-06-24T13:43:25Z","tX":546,"tY":301,"tags":{"backcountry":"yes","camp_site":"basic","drinking_water":"no","name":"Lövnäset","payment:cash":"no","power_supply":"no","shower":"no","toilets":"no","wheelchair":"no"}},"4986906091":{"location":[59.2901823,12.0993148],"ct":"SE","tp":"SD","ts":"2018-07-19T20:43:49Z","tX":546,"tY":301,"tags":{"access":"customers","fee":"no","opening_hours":"24/7","operator":"Ekeby Camping","sanitary_dump_station:basin":"yes"}},"4988656856":{"location":[59.2890262,12.0993644],"ct":"SE","tp":"SD","ts":"2017-07-23T19:36:38Z","tX":546,"tY":301,"tags":{}},"5771724329":{"location":[59.2896272,12.0972964],"ct":"SE","tp":"SD","ts":"2018-07-19T20:43:46Z","tX":546,"tY":301,"tags":{"access":"customers","fee":"no","opening_hours":"24/7","operator":"Ekeby Camping","sanitary_dump_station:basin":"yes"}},"6644797943":{"location":[59.1936035,12.1063136],"ct":"SE","tp":"SD","ts":"2024-07-26T12:49:22Z","tX":546,"tY":301,"tags":{"access":"yes","sanitary_dump_station:pump-out":"yes"}}}