{"203236627":{"location":[58.2653096,12.2662328],"ct":"SE","tp":"CR","ts":"2024-07-20T17:27:09Z","tX":546,"tY":306,"tags":{"fee":"yes","name":"Ställplats"}},"232239262":{"location":[58.4186359,12.0356775],"ct":"SE","tp":"CS","ts":"2018-10-25T06:56:21Z","tX":546,"tY":306,"tags":{"cabins":"yes","caravans":"yes","dog":"yes","name":"Lane Loge camping","power_supply":"yes","tents":"yes"}},"364862683":{"location":[58.2934818,12.2986514],"ct":"SE","tp":"CS","ts":"2025-05-27T01:29:44Z","tX":546,"tY":306,"tags":{"addr:city":"Trollhättan","addr:country":"SE","addr:housenumber":"7","addr:postcode":"46139","addr:street":"Kungsportsvägen","fee":"yes","name":"Trollhättans Camping Hjulkvarnelund","organisation":"ACSI;SCR","power_supply":"yes","sanitary_dump_station":"yes","tents":"yes","url":"https://stenrosetscamping.se/camping-city/"}},"4448464622":{"location":[58.28799,12.286334],"ct":"SE","tp":"SD","ts":"2017-09-23T18:46:31Z","tX":546,"tY":306,"tags":{"access":"yes","addr:place":"Spiköns gästhamn","boat":"yes","fee":"no","opening_hours":"24/7","sanitary_dump_station:accepted":"black_water","sanitary_dump_station:pump-out":"yes","seamark:small_craft_facility:category":"pump-out","seamark:type":"small_craft_facility","vehicle":"no","waterway":"sanitary_dump_station","website":"https://hamnkartan.azurewebsites.net"}},"5792992144":{"location":[58.3648638,12.2652054],"ct":"SE","tp":"SD","ts":"2018-07-28T23:19:24Z","tX":546,"tY":306,"tags":{"source":"survey"}}}