{"13796678":{"location":[54.1976115,12.1530633],"ct":"DE","tp":"CS","ts":"2024-02-02T11:08:05Z","tX":546,"tY":327,"tags":{"addr:city":"Rostock","addr:country":"DE","addr:housenumber":"2","addr:postcode":"18146","addr:street":"Budentannenweg","addr:suburb":"Markgrafenheide","caravans":"yes","description":"Camping- und Ferienpark Markgrafenheide","fee":"yes","name":"Baltic Freizeit","tents":"yes","website":"https://baltic-freizeit.de/"}},"34501102":{"location":[54.2495632,12.2165278],"ct":"DE","tp":"CS","ts":"2024-06-14T16:10:37Z","tX":546,"tY":327,"tags":{"addr:city":"Graal-Müritz","addr:housenumber":"1","addr:postcode":"18181","addr:street":"Wiedortschneise","caravans":"yes","check_date":"2024-06-14","email":"info@ostseecamp-ferienpark.de","fax":"+49 38206 79194","internet_access":"wlan","internet_access:fee":"no","internet_access:ssid":"OstseecampNET","name":"Ostseecamp und Ferienpark","opening_hours":"Mo-Su 07:00-22:00","operator":"Oliver Behrens","phone":"+49 38206 77580","power_supply":"yes","shower":"yes","static_caravans":"yes","tents":"yes","toilets":"yes","website":"https://www.ostseecamp-ferienpark.m-vp.de/","wheelchair":"limited"}},"974060675":{"location":[54.1752174,12.0558995],"ct":"DE","tp":"CR","ts":"2023-12-09T00:18:28Z","tX":546,"tY":327,"tags":{"capacity:motorhomes":"25","dog":"yes","fee":"yes","name":"Wohnmobilstellplatz Parkplatz Strand-Mitte Rostock","sanitary_dump_station":"yes","sanitary_dump_station:grey_water":"no","shower":"no","toilets":"yes","water_point":"no"}},"996963774":{"location":[54.2582444,12.2531804],"ct":"DE","tp":"CR","ts":"2024-10-25T10:24:16Z","tX":546,"tY":327,"tags":{"capacity":"12","charge":"20 EUR","drinking_water":"no","fee":"yes","internet_access":"no","name":"Zur Strandmitte","power_supply":"no","sanitary_dump_station":"yes","toilets":"no","wheelchair":"yes"}},"10225845647":{"location":[54.2583352,12.2535027],"ct":"DE","tp":"SD","ts":"2024-10-25T10:24:15Z","tX":546,"tY":327,"tags":{"description":"Hinweisschild der Stadt beachten >Entsorgung der Toilette nur ohne Chemie Zusätze möglich <","fee":"yes"}},"10992214548":{"location":[54.1776467,12.0915709],"ct":"DE","tp":"SD","ts":"2023-06-20T14:09:36Z","tX":546,"tY":327,"tags":{"description":"Ein Edelstahl Rohr zur Entsorgung von Toiletten"}},"11985206390":{"location":[54.2499057,12.2176843],"ct":"DE","tp":"SD","ts":"2024-06-16T10:35:27Z","tX":546,"tY":327,"tags":{}}}