{"37051411":{"location":[53.6176519,12.0639814],"ct":"DE","tp":"CS","ts":"2024-10-25T06:00:37Z","tX":546,"tY":330,"tags":{"addr:city":"Dobbertin","addr:housenumber":"1","addr:postcode":"19399","addr:street":"Am Zeltplatz","caravans":"yes","check_date":"2022-12-25","drinking_water":"yes","email":"dobbertincamping@aol.com","mobile":"+49 174 7378937","name":"Camping Am Dobbertiner See","operator":"Herr und Frau Linke","power_supply":"yes","sanitary_dump_station":"yes","shower":"yes","tents":"yes","toilets":"yes","website":"https://www.campingplatz-dobbertin.de"}},"168904863":{"location":[53.6188852,12.0658201],"ct":"DE","tp":"CR","ts":"2024-10-27T11:57:56Z","tX":546,"tY":330,"tags":{"caravan_site":"motorhome_stopover","caravan_site:type":"camp_site","drinking_water":"yes","fee":"yes","name":"Stellplatz am Campingplatz Dobbertiner See","power_supply":"yes","sanitary_dump_station":"yes","toilets":"yes"}},"221197695":{"location":[53.669671,12.2770912],"ct":"DE","tp":"CS","ts":"2024-02-21T15:43:24Z","tX":546,"tY":330,"tags":{"addr:city":"Krakow am See","addr:housenumber":"1","addr:postcode":"18292","addr:street":"Windfang","caravans":"yes","check_date":"2022-12-25","drinking_water":"yes","email":"info@campingplatz-krakower-see.de","name":"Campingplatz am Krakower See","phone":"+49 38457 507-74","shower":"yes","tents":"yes","toilets":"yes","website":"https://www.campingplatz-krakower-see.de/"}},"370041857":{"location":[53.6928189,12.0625126],"ct":"DE","tp":"CS","ts":"2023-09-13T17:26:28Z","tX":546,"tY":330,"tags":{"addr:city":"Lohmen","addr:housenumber":"3","addr:postcode":"18276","addr:street":"Am See","caravans":"yes","check_date":"2022-12-25","email":"info@campingplatz-gardersee.eu","name":"Campingplatz am Garder See","operator":"Henry Misch","phone":"+49 38458 20722","tents":"yes","website":"https://campingplatz-gardersee.com/"}},"419693836":{"location":[53.6052444,12.1049803],"ct":"DE","tp":"CS","ts":"2023-12-02T15:12:53Z","tX":546,"tY":330,"tags":{"addr:city":"Goldberg","addr:housenumber":"9","addr:postcode":"19399","addr:street":"Badestrand","caravans":"yes","check_date":"2022-12-25","email":"info@campingplatz-goldbergersee.de","mobile":"+49 172 2374247","motorhomes":"designated","name":"Camping Am Goldberger See","opening_hours":"Mo-Su 09:00-18:30","power_supply":"yes","sanitary_dump_station":"yes","sanitary_dump_station:chemical_toilet":"yes","sanitary_dump_station:grey_water":"yes","tents":"yes","website":"https://campingplatz-goldbergersee.de/"}},"1313042352":{"location":[53.5902703,12.2136224],"ct":"DE","tp":"CS","ts":"2024-10-11T08:16:42Z","tX":546,"tY":330,"tags":{"addr:city":"Neu Poserin","addr:housenumber":"9","addr:postcode":"19399","addr:street":"Köhlerweg","caravans":"yes","check_date":"2024-09-03","email":"info@campingoase-waldsee.de","fee":"yes","fixme":"genaue Position nicht bekannt","mobile":"+49 174 937 0469","name":"Campingoase Waldsee","opening_hours":"Mo-Su 09:00-18:00; Nov-Mar off","phone":"+49 38736 816254","shower":"yes","static_caravans":"yes","tents":"yes","website":"https://campingoase-waldsee.de/"}},"11186008746":{"location":[53.6700314,12.2724059],"ct":"DE","tp":"CR","ts":"2024-08-04T19:51:40Z","tX":546,"tY":330,"tags":{"caravan_site":"motorhome_stopover","caravan_site:type":"camp_site","caravans":"yes","charge":"21 EUR","charge:conditional":"18 EUR @ (Oct,Apr); 15 EUR @ (Nov-Mar)","description:de":"Übernachtungsplätze für Wohnmobile/Caravans (außerhalb der Öffnungszeiten)","fee":"yes","name":"Stellplatz vor der Schranke Campingplatz am Krakower See","sanitary_dump_station":"yes","water_point":"yes","website":"https://www.campingplatz-krakower-see.de/"}}}