{"165337434":{"location":[52.7282847,12.2204474],"ct":"DE","tp":"CS","ts":"2022-05-23T10:52:42Z","tX":546,"tY":334,"tags":{"backcountry":"yes","description":"Gebühr 3,59 €/Person & Tag Kinder unter 10 frei Anmeldung: Frau Kraft, Am Havelweg 1, Gülpe 033875 31358 oder Kreativoase Fam. Hammer, Straße am Neubau 4, Gülpe 017678336679 oder Fam. Radtke, Pareyer Str. 12, Gülpe 033875 904030 Stand 06.2015","fee":"yes","internet_access":"no","internet_access:fee":"no","name":"Biwak Gülpe","operator":"Gemeinde Havelaue","phone":"+49 1516 4689796","toilets":"Dixi","wheelchair":"no"}},"211239954":{"location":[52.8269762,12.0690605],"ct":"DE","tp":"CS","ts":"2024-06-24T03:42:40Z","tX":546,"tY":334,"tags":{"contact:phone":"+49 39387 20655; +49 163 3938701","name":"Campinginsel Havelberg","toilets:wheelchair":"no","website":"https://www.campinginsel-havelberg.de/","wheelchair":"limited"}},"316758317":{"location":[52.7821752,12.0114103],"ct":"DE","tp":"CS","ts":"2023-03-15T10:26:08Z","tX":546,"tY":334,"tags":{"name":"Campinggelegenheit am Gutshaus Büttnershof","phone":"+49 39390 81046 or 81840","source":"http://www.elberadweg.de/mitte/content/abschnitt.php?lg=de&nr=2&typ=","website":"https://www.gutshaus-buettnershof.de/"}},"348428764":{"location":[52.7604222,12.2229373],"ct":"DE","tp":"CS","ts":"2023-04-14T18:08:09Z","tX":546,"tY":334,"tags":{"backcountry":"yes","caravans":"no","charge":"5 Euro/10 Euro","contact:mobile":"+49 172 6531740","contact:website":"https://wasserwanderrastplatz-strodehne.de/","fee":"yes","name":"Wasserwanderrastplatz Strodehne","note":"Radwanderer zahlen 10 Euro","shower":"yes","tents":"yes","toilets":"yes"}},"350094326":{"location":[52.6979446,12.215903],"ct":"DE","tp":"CS","ts":"2024-09-06T17:03:16Z","tX":546,"tY":334,"tags":{"backcountry":"yes","camp_site":"basic","drinking_water":"no","name":"Wasserwanderrastplatz Molkenberg","phone":"+49 3625 95630","power_supply":"no","shower":"no","tents":"no","toilets":"no"}},"420704784":{"location":[52.7433593,12.0972509],"ct":"DE","tp":"CS","ts":"2019-03-12T23:37:23Z","tX":546,"tY":334,"tags":{"caravans":"yes","email":"camping-schoenfeld@gmx.de","name":"Campingplatz am Schönfelder See","phone":"+49 39382 237","tents":"yes","website":"https://www.campingplatz-schoenfeld.de/"}},"497560856":{"location":[52.7527335,12.1079846],"ct":"DE","tp":"CS","ts":"2023-04-05T13:43:51Z","tX":546,"tY":334,"tags":{"addr:city":"Kamern","addr:country":"DE","addr:housenumber":"1","addr:postcode":"39524","addr:street":"Seeweg","caravans":"yes","contact:phone":"+49 39382 230,+49 173 3456188","name":"Wohnwagen-Camping und Ferienhaussielung Kamern","note":"approximated location ~100m, fixme","openfire":"yes","tents":"yes","website":"http://www.naturlive.de/"}},"497567972":{"location":[52.7515906,12.1071263],"ct":"DE","tp":"CS","ts":"2019-03-05T10:47:04Z","tX":546,"tY":334,"tags":{"addr:city":"Kamern","addr:country":"DE","addr:housenumber":"2","addr:postcode":"39524","addr:street":"Seeweg","caravans":"yes","name":"Campingplatz Seeblick (Seeperle Kamern)","note":"really a campsite?, approximated location ~100m, fixme","phone":"+49 39382 297, +49 177 6335272","source":"http://www.kamern.de/tourismus/campingplaetze_seeblick.html","tents":"yes","website":"https://www.seeperle-kamern.de/"}},"497570504":{"location":[52.7451384,12.1011021],"ct":"DE","tp":"CS","ts":"2023-01-21T17:34:46Z","tX":546,"tY":334,"tags":{"addr:city":"Kamern","addr:country":"DE","addr:postcode":"39524","caravans":"yes","name":"Campingplatz \"Am Kamernschen See\"","phone":"+49 39382 39514 or 41810","tents":"yes","website":"https://www.camping-kamern.de/index.html"}},"497690508":{"location":[52.8625912,11.9620511],"ct":"DE","tp":"CS","ts":"2024-07-08T08:36:28Z","tX":546,"tY":334,"tags":{"caravans":"yes","drinking_water":"yes","internet_access":"wlan","internet_access:fee":"no","name":"Campingplatz \"Am Freibad\"","opening_hours":"Mo-Su 08:00-09:00,10:30-20:00","phone":"+49 163 4368387","power_supply":"yes","sanitary_dump_station":"customers","shower":"yes","tents":"yes","toilets":"yes","url":"http://www.werben-elbe.de/tourismus/ubernachten","wheelchair":"limited"}},"3449106996":{"location":[52.7387599,12.1955817],"ct":"DE","tp":"CR","ts":"2016-03-05T08:59:27Z","tX":546,"tY":334,"tags":{"capacity":"3","fee":"no","name":"Fischerstube Warnau","power_supply":"no","sanitary_dump_station":"no","water_point":"yes"}},"11109582673":{"location":[52.7532658,12.2019878],"ct":"DE","tp":"CS","ts":"2023-08-19T17:44:26Z","tX":546,"tY":334,"tags":{"name":"Campingwiese vom Hafen","phone":"+49 1578 8466527","phone:reservation":"+49 1578 8466527","website":"https://www.hafen-garz.de/"}},"11302858364":{"location":[52.8198979,12.0842823],"ct":"DE","tp":"CS","ts":"2023-10-31T16:32:08Z","tX":546,"tY":334,"tags":{}}}