{"49182174":{"location":[52.5376258,11.9681549],"ct":"DE","tp":"CR","ts":"2024-06-05T19:37:10Z","tX":546,"tY":335,"tags":{"addr:city":"Tangermünde","addr:postcode":"39590","addr:street":"Klosterberg","capacity":"30","caravan_site":"motorhome_stopover","caravan_site:type":"town","caravans":"yes","charge":"12 EUR","dog":"yes","fee":"yes","internet_access":"no","name":"Wohnmobilstellplatz Tangermünde","payment:cash":"no","payment:credit_cards":"yes","power_supply":"yes","reservation":"no","sanitary_dump_station":"yes","tents":"no","toilets":"no","website":"https://www.landkreis-stendal.de/de/wohnmobilplaetze/adr/1149447,1037,1/wohnmobilstellplatz_tangermuende.html"}},"49258700":{"location":[52.6082643,12.2746349],"ct":"DE","tp":"CS","ts":"2023-11-24T23:33:40Z","tX":546,"tY":335,"tags":{"addr:city":"Rathenow","addr:housenumber":"72","addr:postcode":"14712","addr:street":"Hauptstraße","alt_name":"Campingplatz Steckelsdorf","barrier":"fence","camp_site":"serviced","capacity":"120","caravans":"yes","contact:mail":"info@campingplatz-rathenow.de","contact:mobile":"+49 151 54823211","contact:phone":"+49 3385 499510","contact:website":"https://www.campingplatz-rathenow.de","drinking_water":"yes","fee":"yes","internet_access":"wlan","name":"Campingplatz Rathenow „Am Steggel“","operator":"Campingplatz Rathenow Schönfeldt GbR","power_supply":"yes","sanitary_dump_station":"yes","shower":"yes","source":"Bing","stars":"4","tents":"yes","toilets":"yes","wheelchair":"yes","wikidata":"Q123531386"}},"96838316":{"location":[52.6617072,12.2860924],"ct":"DE","tp":"CS","ts":"2023-03-07T19:13:08Z","tX":546,"tY":335,"tags":{"caravans":"yes","name":"Campingplatz Grütz","tents":"yes"}},"344539888":{"location":[52.5025263,12.0176454],"ct":"DE","tp":"CR","ts":"2024-08-10T09:35:17Z","tX":546,"tY":335,"tags":{"capacity":"5","contact:phone":"+49 39343 285","contact:website":"https://kloster-jerichow.de/","fee":"no","name":"Wohnmobilstellplatz am Kloster Jerichow","power_supply":"yes","sanitary_dump_station":"no","water_supply":"no","wheelchair":"yes"}},"506392432":{"location":[52.5376398,11.971022],"ct":"DE","tp":"CS","ts":"2024-06-25T18:02:44Z","tX":546,"tY":335,"tags":{"caravans":"yes","contact:phone":"+49 160-281 44 08","drinking_water":"yes","email":"kontakt@tangermuender-wassersportverein.de","name":"Radfahrer-Zeltplatz","operator":"Tangermünder Wassersportverein","power_supply":"yes","sanitary_dump_station":"yes","shower":"yes","tents":"yes","toilets":"yes","website":"http://www.tangermuender-wassersportverein.de","wheelchair":"no"}},"1296426341":{"location":[52.6737411,12.011123],"ct":"DE","tp":"CS","ts":"2024-06-26T17:35:11Z","tX":546,"tY":335,"tags":{"caravans":"yes","mobile":"+49 162 1931930","name":"Yachthafen Arneburg","operator":"Stadt Arneburg","sanitary_dump_station":"customers","source":"http://www.blauesband.de/?AllocationID=428&nlsid=1","tents":"yes","website":"https://www.stadt-arneburg.de/tourismus-wirtschaft/sportboothafen"}},"3510042227":{"location":[52.5382378,11.9688829],"ct":"DE","tp":"SD","ts":"2024-06-16T15:37:05Z","tX":546,"tY":335,"tags":{"access":"yes","opening_hours":"24/7"}},"5845552592":{"location":[52.6732985,12.2385121],"ct":"DE","tp":"CS","ts":"2018-08-21T06:46:04Z","tX":546,"tY":335,"tags":{"name":"Biwak Parey"}},"7470554496":{"location":[52.661649,12.281454],"ct":"DE","tp":"CS","ts":"2025-05-18T16:16:41Z","tX":546,"tY":335,"tags":{"access":"yes","addr:city":"Rathenow","addr:country":"DE","addr:postcode":"14712","addr:street":"Grützer Dorfstraße","addr:suburb":"Grütz","backcountry":"yes","capacity":"10","capacity:tents":"4","caravans":"no","charge":"2,50 Euro","fee":"yes","internet_access":"wlan","name":"Biwakplatz Grütz","operator":"Stadtverwaltung Rathenow","permanent_camping":"no","phone":"+49 3385596-0","tents":"yes","website":"https://www.westhavelland-naturpark.de/themen/rast-versorgung/07-biwakplatz-gruetz-uhw-km-1149/"}},"6048324654":{"location":[52.6080641,12.2751847],"ct":"DE","tp":"SD","ts":"2024-08-14T11:49:05Z","tX":546,"tY":335,"tags":{"fee":"no"}}}