{"2680703":{"location":[50.9532707,12.0849357],"ct":"DE","tp":"CS","ts":"2023-03-12T19:26:57Z","tX":546,"tY":343,"tags":{"addr:city":"Gera","addr:country":"DE","addr:housenumber":"14","addr:postcode":"07554","addr:street":"Reichenbacher Straße","addr:suburb":"Aga","addr:suburb:en":"Kleinaga","caravans":"150","contact:fax":"+49 366 953 210 18","contact:phone":"+49 366 953 210 17","contact:website":"https://camping-strandbad-aga.de/","fixme":"Size of camp site extrapolated from Bing Sat.","name":"Strandbad Aga","shower":"yes","source":"url","tents":"50","toilets":"yes"}},"8278106":{"location":[50.7672125,12.0237475],"ct":"DE","tp":"CS","ts":"2024-09-02T15:07:27Z","tX":546,"tY":343,"tags":{"addr:city":"Weida","addr:housenumber":"1","addr:postcode":"07570","addr:street":"An der Aumatalsperre","contact:email":"kontakt@campingplatz-weida.com","fax":"+49 36603 44088","name":"Naturcampingplatz Weida","operator":"Günter Kluge und Uwe Reichelt GbR","phone":"+49 36603 62561","source":"bing","website":"http://www.campingplatz-weida.de/"}},"61880943":{"location":[50.7596049,12.1255635],"ct":"DE","tp":"CS","ts":"2024-01-04T13:24:19Z","tX":546,"tY":343,"tags":{"addr:city":"Berga-Wünschendorf","addr:country":"DE","addr:housenumber":"35","addr:postcode":"07980","addr:street":"Dorfstraße","caravans":"35","name":"Campingplatz am Töpferberg","operator":"Restaurant am Töpferberg","phone":"+49 36623 20438","source":"url","tents":"yes","website":"https://www.toepferberg.de/"}},"222384846":{"location":[50.8654987,12.1768747],"ct":"DE","tp":"CR","ts":"2023-10-12T09:18:06Z","tX":546,"tY":343,"tags":{"name":"Am kühlen Grund"}},"510294584":{"location":[50.8584802,12.092156],"ct":"DE","tp":"CR","ts":"2021-03-31T00:51:54Z","tX":546,"tY":343,"tags":{"addr:city":"Gera","addr:housenumber":"21","addr:postcode":"07551","addr:street":"Gessentalstraße","caravans":"yes","name":"Wohnmobilhafen Im Gessenpark"}},"614592993":{"location":[50.8135689,12.2965738],"ct":"DE","tp":"CS","ts":"2022-07-15T23:11:35Z","tX":546,"tY":343,"tags":{"addr:city":"Crimmitschau","addr:country":"DE","addr:housenumber":"38","addr:postcode":"08451","addr:street":"Nischwitzer Straße","addr:suburb":"Mannichswalde","caravans":"yes","name":"Campingplatz Mannichswalde","phone":"+49 36608 2514;+49179 7961383","stars":"3","tents":"yes","website":"https://crimmitschau.de/de/campingplatz.html"}},"10875178832":{"location":[50.9444909,12.153151],"ct":"DE","tp":"CR","ts":"2023-05-07T08:33:45Z","tX":546,"tY":343,"tags":{"addr:city":"Gera","addr:country":"DE","addr:housenumber":"10","addr:postcode":"07554","addr:street":"Wernsdorf","addr:suburb":"Söllmnitz","contact:phone":"+49 36695 21083","name":"Garagen- und Stellplatzvermietung Krug","operator":"Alice & Roland Krug"}}}