{"55061241":{"location":[50.2940183,12.0901599],"ct":"DE","tp":"CS","ts":"2024-05-07T09:09:47Z","tX":546,"tY":345,"tags":{"addr:city":"Regnitzlosau","addr:country":"DE","addr:housenumber":"1","addr:place":"Haager Holz","caravans":"yes","contact:email":"info@naturistenbund-fichtelgebirge.de","contact:phone":"+49 9294/235","contact:website":"http://naturistenbund-fichtelgebirge.de/","motor_vehicle":"yes","name":"BFKK Fichtelgebirge","nudism":"designated","operator":"Naturistenbund Fcihtelgebirge e.V.","reservation":"required"}},"472886358":{"location":[50.4688788,12.1082703],"ct":"DE","tp":"CR","ts":"2021-02-03T09:05:19Z","tX":546,"tY":345,"tags":{"addr:city":"Plauen","addr:country":"DE","addr:housenumber":"57","addr:postcode":"08527","addr:street":"Zum Burgteich","capacity":"10","description":"Befestigte Wiesenfläche mit geschotterter Fahrspur. Private Anlage hinter ländlichem Anwesen. Gaststätte in der Nähe. Ganzjährig nutzbar.","email":"kai.sprunk@gmx.net","fee":"no","internet_access":"no","landuse":"recreation_ground","name":"Vogtland Stellplatz Thiergarten","phone":"+49 160 90669143","power_supply":"yes","sanitary_dump_station":"yes"}},"661308304":{"location":[50.4325538,12.1103814],"ct":"DE","tp":"CS","ts":"2024-04-08T12:11:31Z","tX":546,"tY":345,"tags":{"addr:city":"Oelsnitz/Vogtl.","addr:housenumber":"4","addr:postcode":"08606","addr:street":"Am Strand","caravans":"yes","name":"Naherholung Talsperre Pirk GmbH","phone":"+49 37421 23547","tents":"yes","website":"https://www.talsperre-pirk.de/","wheelchair":"no"}},"1307584855":{"location":[50.4937799,12.142203],"ct":"DE","tp":"CR","ts":"2022-10-25T03:43:57Z","tX":546,"tY":345,"tags":{"addr:city":"Plauen","addr:postcode":"08527","addr:street":"Gerberstraße","capacity:caravans":"12","fee":"15€","name":"Stellplatz Plauen","power_supply":"yes","reservation":"no","sanitary_dump_station":"yes","website":"https://www.plauen.de/Tourismus-Kultur-und-Freizeit/Übernachten/Wohnmobilstellplatz-/","wheelchair":"limited"}},"10148168773":{"location":[50.4116133,12.1742771],"ct":"DE","tp":"CR","ts":"2022-11-01T20:06:03Z","tX":546,"tY":345,"tags":{"addr:city":"Oelsnitz/Vogtl.","addr:postcode":"08606","addr:street":"Fabrikstraße","capacity:caravans":"4","fee":"9€","internet_access":"wlan","name":"SP am Elstergarten","power_supply":"yes","sanitary_dump_station":"no"}},"12126356111":{"location":[50.3774316,12.1287892],"ct":"DE","tp":"CR","ts":"2024-08-22T09:24:47Z","tX":546,"tY":345,"tags":{}}}