{"50914185":{"location":[50.285328,12.2404781],"ct":"DE","tp":"CR","ts":"2023-11-16T15:08:58Z","tX":546,"tY":346,"tags":{"addr:city":"Bad Elster","addr:postcode":"08645","addr:street":"Carl-August-Klinger-Straße","capacity":"5","fee":"yes","internet_access":"no","name":"Wohnmobil-Stellplatz am Albertbad","power_supply":"yes","sanitary_dump_station":"no"}},"54439255":{"location":[50.1061857,12.1050289],"ct":"DE","tp":"CR","ts":"2024-03-13T19:46:17Z","tX":546,"tY":346,"tags":{"capacity":"15","caravans":"yes","charge":"8 EUR/d","contact:email":"Schoberth-Gerhard@t-online.de","contact:mobile":"+49 170 2332446","contact:phone":"+49 9235 232","fee":"yes","internet_access":"wlan","maxstay":"2 days","name":"Wohnmobilstellplatz Kaiserstein","operator":"Markt Thierstein","power_supply":"yes","sanitary_dump_station":"yes","water_point":"yes","website":"https://www.thierstein.de/verzeichnis/visitenkarte.php?mandat=169572"}},"62222095":{"location":[50.1436442,12.0511684],"ct":"DE","tp":"CS","ts":"2022-10-25T10:07:55Z","tX":546,"tY":346,"tags":{"addr:city":"Selb","addr:country":"DE","addr:housenumber":"37","addr:postcode":"95100","addr:street":"Heidelheim","capacity":"200","caravans":"yes","dryer":"yes","name":"Kornberg-Borderland-Camping","operator":"Christian Schemm und Carolin Schraml","phone":"+49 9287 2366","power_supply":"yes","shower":"yes","source":"website","tents":"yes","toilets":"yes","washing_machine":"yes","website":"https://www.kornberg-borderland-camping.de/"}},"71335574":{"location":[50.0980535,12.2208254],"ct":"DE","tp":"CR","ts":"2021-08-18T20:44:50Z","tX":546,"tY":346,"tags":{"capacity":"15","caravans":"yes","fee":"yes","internet_access":"wlan","phone":"+49 9233 77110","power_supply":"yes","sanitary_dump_station":"yes","water_point":"yes","website":"https://stadt-hohenberg.de/index.php/tourismus/uebernachtung/wohnmobil-stellplatz/"}},"178809616":{"location":[50.129654,11.9956291],"ct":"DE","tp":"CR","ts":"2024-12-01T08:45:49Z","tX":546,"tY":346,"tags":{"capacity":"12","contact:email":"womo-marktleuthen@gmx.de","contact:mobile":"+49 171 9691301","fee":"no","internet_access":"wlan","name":"An den Egerauen","operator":"Stadt Marktleuthen","power_supply":"yes","sanitary_dump_station":"yes","water_point":"yes","website":"https://marktleuthen.de/touristik/wohnmobilstellplatz","wheelchair":"yes"}},"227820014":{"location":[50.1694958,12.1247061],"ct":"DE","tp":"CR","ts":"2024-11-15T00:16:15Z","tX":546,"tY":346,"tags":{"capacity":"10","charge":"10","dish_washing":"no","fee":"yes","internet_access":"yes","internet_access:fee":"no","kitchen":"no","name":"Papiermühlweg","operator":"Stadt Selb","panoramax":"accd0d69-f678-4362-b413-d455d5ad64f7","panoramax:0":"b611c5af-3186-4610-9427-9f4808ae38fa","permanent_camping":"no","power_supply":"yes","sanitary_dump_station":"yes","toilets":"yes","water_point":"yes","website":"https://www.selb.de/wohnmobilstellplatz","wheelchair":"yes"}},"431518177":{"location":[50.0908073,12.282356],"ct":"CZ","tp":"CS","ts":"2023-11-09T07:25:29Z","tX":546,"tY":346,"tags":{"email":"campingbriza@gmail.com","name":"Camping Bříza","phone":"+420 773 570 196","website":"https://www.campingbohemen.com/"}},"887998736":{"location":[50.2096123,12.0967573],"ct":"DE","tp":"CS","ts":"2022-09-11T16:42:45Z","tX":546,"tY":346,"tags":{"addr:city":"Schönwald","addr:country":"DE","addr:housenumber":"4","addr:postcode":"95173","addr:street":"Grünhaid","caravans":"yes","dog":"yes","dryer":"yes","email":"info@gasthof-turm.de","fax":"+49 9287 954416","name":"Campingplatz Schönwald","phone":"+49 9287 50364","power_supply":"yes","tents":"yes","washing_machine":"yes","website":"http://www.campingplatzschoenwald.de"}},"1155674195":{"location":[50.2876823,12.066595],"ct":"DE","tp":"CR","ts":"2024-04-14T14:18:03Z","tX":546,"tY":346,"tags":{"addr:city":"Regnitzlosau","addr:housenumber":"4","addr:postcode":"95194","addr:street":"Raitschin","capacity":"4","fee":"yes","name":"Wohnmobilstellplatz Gasthof Raitschin","power_supply":"yes","sanitary_dump_station":"yes","toilets":"no","water_point":"yes","website":"https://www.raitschin.de/stellplatz","wheelchair":"yes"}},"1158778957":{"location":[50.1543686,11.9555661],"ct":"DE","tp":"CR","ts":"2024-08-07T05:15:23Z","tX":546,"tY":346,"tags":{"addr:city":"Kirchenlamitz","addr:housenumber":"12","addr:postcode":"95158","addr:street":"Niederlamitzer Straße","capacity":"77","caravans":"yes","contact:email":"mail@fichtelpark.de","contact:mobile":"+49 179 4114447","contact:website":"https://fichtelpark.de/","fee":"yes","name":"Fichtelpark","power_supply":"yes","sanitary_dump_station":"yes","water_point":"yes","wheelchair":"yes"}},"1189866594":{"location":[50.091312,11.9543959],"ct":"DE","tp":"CR","ts":"2024-03-16T08:18:41Z","tX":546,"tY":346,"tags":{"addr:city":"Röslau","addr:housenumber":"24","addr:postcode":"95195","addr:street":"Oskar-Böttcher-Straße","contact:email":"info@roeslau.de","contact:phone":"+49923899100","contact:website":"www.roeslau.de","name":"Am Thuswald"}},"1189877671":{"location":[50.2310059,12.2047331],"ct":"CZ","tp":"CS","ts":"2023-07-15T18:56:21Z","tX":546,"tY":346,"tags":{"caravans":"yes","dog":"yes","fee":"yes","name":"Kemp Pod Rozhlednou","payment:cash":"yes","payment:mastercard":"yes","payment:visa":"yes","power_supply":"yes","shower":"hot","static_caravans":"no","tents":"yes","toilets":"yes"}},"1307585095":{"location":[50.2745555,12.2480829],"ct":"DE","tp":"CR","ts":"2011-06-01T10:01:23Z","tX":546,"tY":346,"tags":{"name":"Stellplatz Hotel Quellenpark"}},"10872906105":{"location":[50.0730537,12.099644],"ct":"DE","tp":"CR","ts":"2023-05-06T07:46:12Z","tX":546,"tY":346,"tags":{}},"5025986968":{"location":[50.1294781,11.9958756],"ct":"DE","tp":"SD","ts":"2018-01-21T14:20:23Z","tX":546,"tY":346,"tags":{"fee":"no","sanitary_dump_station:chemical_toilet":"yes","sanitary_dump_station:grey_water":"yes"}},"5859008790":{"location":[50.1695113,12.1247287],"ct":"DE","tp":"SD","ts":"2018-08-26T13:21:45Z","tX":546,"tY":346,"tags":{"sanitary_dump_station:chemical_toilet":"yes","sanitary_dump_station:fee":"no","sanitary_dump_station:gravity":"yes","sanitary_dump_station:grey_water":"yes","sanitary_dump_station:suction":"no"}},"10815790217":{"location":[50.1061923,12.1050534],"ct":"DE","tp":"SD","ts":"2023-04-16T06:42:34Z","tX":546,"tY":346,"tags":{}},"10815790227":{"location":[50.1062684,12.1053176],"ct":"DE","tp":"SD","ts":"2023-04-16T06:42:34Z","tX":546,"tY":346,"tags":{}},"6188269284":{"location":[50.2310188,12.2046326],"ct":"CZ","tp":"CS","ts":"2023-07-04T06:39:31Z","tX":546,"tY":346,"tags":{"fee":"yes","internet_access":"wlan","internet_access:fee":"no","kitchen":"yes","power_supply":"yes","shower":"hot","source":"bing;cuzk:km;local_knowledge","toilets":"yes"}},"9657603769":{"location":[50.2310895,12.2047377],"ct":"CZ","tp":"CR","ts":"2023-07-04T06:36:21Z","tX":546,"tY":346,"tags":{"fee":"yes","internet_access":"wlan","internet_access:fee":"no","name":"Kemp Pod Rozhlednou","power_supply":"yes","shower":"hot","toilets":"yes"}}}