{"1734575":{"location":[49.5310712,11.9658331],"ct":"DE","tp":"CS","ts":"2019-03-29T10:07:31Z","tX":546,"tY":349,"tags":{"addr:city":"Hirschau","addr:country":"DE","addr:postcode":"92242","addr:street":"Wolfgang-Droßbach-Straße","cabins":"yes","caravans":"yes","dog":"yes","dryer":"yes","email":"campingplatz@hirschau.de","fax":"+49 9622 81555","name":"Campingplatz Monte Kaolino","phone":"+49 9622 81502","power_supply":"yes","tents":"yes","washing_machine":"yes","website":"https://www.montekaolino.eu/"}},"52279551":{"location":[49.5555011,12.0056663],"ct":"DE","tp":"CS","ts":"2024-12-06T15:15:45Z","tX":546,"tY":349,"tags":{"addr:city":"Schnaittenbach","addr:country":"DE","addr:housenumber":"13","addr:postcode":"92253","addr:street":"Badstraße","camp_site":"deluxe","caravans":"yes","email":"info@campingplatz.schnaittenbach.de","fax":"+49 9622 1722","fee":"yes","lit":"yes","name":"Campingplatz am Naturerlebnisbad","operator":"Stadt Schnaittenbach","phone":"+49 9622 1722","power_supply":"cee_17_blue","source":"local_knowledge","static_caravans":"yes","tents":"yes","website":"https://www.schnaittenbach.de/freizeit-tourismus/naturerlebnisbad.html"}},"52944966":{"location":[49.5496204,12.0145509],"ct":"DE","tp":"CS","ts":"2019-09-16T12:46:52Z","tX":546,"tY":349,"tags":{"addr:city":"Schnaittenbach","addr:country":"DE","addr:housenumber":"1","addr:postcode":"92253","addr:street":"Kellerhäusl","caravans":"yes","name":"Kellerhäusl","phone":"+49 9622 1468","power_supply":"yes","tents":"yes"}},"145016714":{"location":[49.4647315,12.1913034],"ct":"DE","tp":"CS","ts":"2023-10-22T13:00:28Z","tX":546,"tY":349,"tags":{"addr:city":"Nabburg","addr:country":"DE","addr:housenumber":"22","addr:postcode":"92507","addr:street":"Neusather Straße","caravans":"yes","name":"Campingpark Nabburg","phone":"+49 9433 7999320","power_supply":"yes","tents":"yes","website":"https://www.campingpark-nabburg.de/"}},"176866141":{"location":[49.4110658,12.1667388],"ct":"DE","tp":"CS","ts":"2019-10-30T17:28:45Z","tX":546,"tY":349,"tags":{"addr:city":"Schwarzach b.Nabburg","addr:housenumber":"4","addr:postcode":"92548","addr:street":"Bachstraße","caravans":"yes","contact:phone":"+49 9435 3282","description":"Zufahrt über Bahnhofstraße","email":"anglernest-camping@t-online.de","name":"Campingplatz Anglernest","operator":"Thomas Wilhelm","tents":"yes","website":"https://www.oberpfaelzerwald.de/campingplatz-anglernest"}},"222332164":{"location":[49.4459663,12.0467717],"ct":"DE","tp":"CS","ts":"2024-07-16T17:47:57Z","tX":546,"tY":349,"tags":{"caravans":"yes","drinking_water":"no","leisure":"recreation_ground","name":"Schwärzermühlweiher","power_supply":"yes","sanitary_dump_station":"no","shower":"no","tents":"yes","toilets":"yes"}},"1236554201":{"location":[49.5208226,12.2784045],"ct":"DE","tp":"CS","ts":"2024-08-19T13:00:02Z","tX":546,"tY":349,"tags":{"description":"Geschlossen 8/24","name":"Campingplatz Trausnitz","website":"https://www.ostbayern-tourismus.de/attraktionen/campingplatz-trausnitz-8e7b0e797e"}},"2426871694":{"location":[49.4498012,12.1848892],"ct":"DE","tp":"CR","ts":"2013-08-21T14:49:21Z","tX":546,"tY":349,"tags":{"fee":"no","power_supply":"no"}},"2885080563":{"location":[49.4650853,12.1906798],"ct":"DE","tp":"CR","ts":"2014-05-28T10:55:30Z","tX":546,"tY":349,"tags":{}},"7115464403":{"location":[49.4604942,12.0481561],"ct":"DE","tp":"CS","ts":"2023-11-09T23:39:53Z","tX":546,"tY":349,"tags":{"access":"private","email":"info@grimmerthal.de","fee":"yes","fixme":"Genaue Position und Ausmaße","group_only":"yes","name":"Jugendzeltplatz Grimmerthal","operator":"KSJ Amberg","website":"https://grimmerthal.de/zeltplatz.html"}},"9781017575":{"location":[49.5564738,12.2782531],"ct":"DE","tp":"CS","ts":"2023-07-18T14:16:32Z","tX":546,"tY":349,"tags":{"addr:city":"Tännesberg","addr:postcode":"92723","contact:facebook":"https://www.facebook.com/Pfreimdtalh%C3%BCtte-Wirtshauskneipe-und-Campingplatz-Waldkraft-1545350122430553/","name":"Campingplatz Waldkraft","phone":"+49 9655 313"}}}