{"14358736":{"location":[49.344392,12.2096431],"ct":"DE","tp":"CS","ts":"2023-04-10T18:53:36Z","tX":546,"tY":350,"tags":{"addr:city":"Wackersdorf","addr:country":"DE","addr:housenumber":"1","addr:postcode":"92442","addr:street":"Sonnenrieder Straße","caravans":"yes","dryer":"yes","email":"info@see-camping.de","fax":"+49 9431 385799","mobile":"+49 170 2306976","name":"Lutter Campingplatz Murner See","operator":"CampingPark Lutter KG","phone":"+49 9431 9996822","power_supply":"yes","shower":"yes","static_caravans":"yes","tents":"yes","toilets":"yes","washing_machine":"yes","website":"https://www.campingpark-murnersee.de/"}},"30088798":{"location":[49.2014716,12.2719976],"ct":"DE","tp":"CS","ts":"2023-04-10T17:37:35Z","tX":546,"tY":350,"tags":{"addr:city":"Nittenau","addr:country":"DE","addr:housenumber":"3","addr:postcode":"93149","addr:street":"Lärchenweg","caravans":"yes","mobile":"+49 172 7860729","name":"Campingplatz Nittenau","shower":"yes","tents":"yes","toilets":"yes","washing_machine":"yes","website":"https://www.nittenau.de/"}},"113738460":{"location":[49.168902,11.9644641],"ct":"DE","tp":"CS","ts":"2023-11-03T05:13:06Z","tX":546,"tY":350,"tags":{"capacity":"200","caravans":"yes","description":"Hauptsächlich für Jugendgruppen. Einzelpersonen und Kleingruppen sind aber auch erlaubt.","email":"jugendarbeit@landratsamt-regensburg.de","fee":"yes","internet_access":"no","name":"Jugendzeltplatz Zaar","operator":"Kreisjugendamt Regensburg","payment:cash":"yes","payment:debit_cards":"no","reservation":"required","tents":"yes","website":"https://www.landkreis-regensburg.de/freizeit-tourismus/unterkunft-finden/jugendzeltplatz-zaar-kallmuenz/"}},"390989003":{"location":[49.222016,12.058225],"ct":"DE","tp":"CS","ts":"2025-01-05T22:08:31Z","tX":546,"tY":350,"tags":{"name":"Campingplatz Pilz"}},"538064830":{"location":[49.3318606,12.1020983],"ct":"DE","tp":"CR","ts":"2024-03-30T22:28:15Z","tX":546,"tY":350,"tags":{"addr:city":"Schwandorf","addr:country":"DE","addr:postcode":"92421","addr:street":"Angerring","capacity":"30","caravan_site":"motorhome_stopover","caravan_site:type":"river","caravans":"no","fee":"no","internet_access":"no","name":"Festplatz Schwandorf","power_supply":"yes","sanitary_dump_station":"yes","tents":"no","toilets":"no","water_point":"yes","website":"https://www.schwandorf.de/Kultur-Tourismus/Freizeit/Wohnmobil-Stellplatz/"}},"699420156":{"location":[49.2902992,12.1597248],"ct":"DE","tp":"CR","ts":"2019-06-24T13:50:22Z","tX":546,"tY":350,"tags":{"website":"http://www.wildwakeski.de/"}},"703099844":{"location":[49.2817319,12.1735526],"ct":"DE","tp":"CR","ts":"2025-06-09T16:54:00Z","tX":546,"tY":350,"tags":{"addr:city":"Steinberg am See","addr:housenumber":"6","addr:postcode":"92449","addr:street":"Am Steinberger See","capacity":"49","contact:phone":"+49 9431 759243","fee":"yes","internet_access":"wlan","internet_access:fee":"no","name":"Wohnmobilstellplatz Steinberger See","power_supply":"yes","sanitary_dump_station":"yes","tents":"no","toilets":"yes","water_point":"yes","website":"https://wohnmobil-stellplatz-steinberger-see.de"}},"1056146122":{"location":[49.2759949,12.3020267],"ct":"DE","tp":"CS","ts":"2024-05-24T17:33:20Z","tX":546,"tY":350,"tags":{"caravans":"yes","fax":"+49 9434 4143","name":"Campingplatz Tröbner","phone":"+49 9434 1247","tents":"yes"}},"1056146123":{"location":[49.2766298,12.3001253],"ct":"DE","tp":"CS","ts":"2024-05-24T17:34:52Z","tX":546,"tY":350,"tags":{"caravans":"yes","drinking_water":"yes","email":"info@campingweichselbrunn.de","fax":"+49 9434 90071","internet_access":"wlan","name":"Campingplatz Weichselbrunn","opening_hours":"Apr 01-Oct 14 07:00-13:00, 15:00-22:00","phone":"+49 9434 90070","power_supply":"yes","sanitary_dump_station":"yes","shower":"yes","tents":"yes","toilets":"yes","toilets:wheelchair":"limited","website":"http://www.campingweichselbrunn.de/","wheelchair":"limited"}},"1218088995":{"location":[49.3480221,12.211808],"ct":"DE","tp":"CR","ts":"2025-01-05T22:27:14Z","tX":546,"tY":350,"tags":{"caravan_site":"motorhome_stopover","caravan_site:type":"lake","charge":"18 EUR","charge:conditional":"10 EUR@(Nov-Mar)","check_out":"14:00","email":"info@see-camping.de","fee":"yes","name":"Stellplatz Murner See Seite","phone":"+49 9431 999 68 22","power_supply":"no","website":"https://www.wohnmobilpark-oberpfaelzer-seenland.de/"}},"1218088997":{"location":[49.3473826,12.2116484],"ct":"DE","tp":"CR","ts":"2025-01-05T22:27:14Z","tX":546,"tY":350,"tags":{"capacity":"50","caravan_site":"motorhome_stopover","caravan_site:type":"lake","charge":"18 EUR","charge:conditional":"10 EUR@(Nov-Mar)","check_out":"14:00","email":"info@see-camping.de","fee":"yes","laundry":"yes","name":"Stellplatz Brückelsee Seite","phone":"+49 9431 999 68 22","power_supply":"yes","power_supply:charge":"0.70 EUR/KWh","power_supply:fee":"yes","reservation":"no","sanitary_dump_station":"yes","website":"https://www.wohnmobilpark-oberpfaelzer-seenland.de/"}},"3596922235":{"location":[49.1570857,12.1458146],"ct":"DE","tp":"CS","ts":"2019-06-22T19:14:27Z","tX":546,"tY":350,"tags":{"caravans":"no","drinking_water":"yes","fee":"yes","name":"Zeltplatz Ramspau","tents":"yes"}},"6564932624":{"location":[49.2228869,12.1765258],"ct":"DE","tp":"CS","ts":"2023-08-18T08:07:56Z","tX":546,"tY":350,"tags":{"caravans":"no","drinking_water":"no","name":"Zeltplatz Marienthal","power_supply":"no","shower":"no","tents":"yes","toilets":"yes"}},"10099074560":{"location":[49.2084069,12.0346959],"ct":"DE","tp":"CR","ts":"2024-03-18T08:27:18Z","tX":546,"tY":350,"tags":{"addr:street":"Friedhofstraße","description":"Stellplatz für 3 Mobile. Strom 1€, V&E frei","name":"Wohnmobilstellplatz Burglengenfeld"}},"5208917340":{"location":[49.331803,12.1020585],"ct":"DE","tp":"SD","ts":"2017-11-03T18:12:14Z","tX":546,"tY":350,"tags":{"water_point":"yes"}},"5714142992":{"location":[49.2814418,12.1733028],"ct":"DE","tp":"SD","ts":"2022-06-11T19:39:56Z","tX":546,"tY":350,"tags":{}}}