{"10513933":{"location":[48.9320182,11.9975507],"ct":"DE","tp":"CS","ts":"2019-12-30T16:01:01Z","tX":546,"tY":351,"tags":{"addr:city":"Bad Abbach","addr:housenumber":"22","addr:postcode":"93077","addr:street":"Kanalstraße","addr:suburb":"Poikam","name":"Campingplatz Donaulände Poikam","phone":"+49 9405 4431","website":"https://donaulände.de/"}},"113120360":{"location":[49.028523,12.1039263],"ct":"DE","tp":"CR","ts":"2025-04-09T12:25:07Z","tX":546,"tY":351,"tags":{"addr:housenumber":"18","addr:postcode":"93059","addr:street":"Holzgartenstraße","description":"3 Stellplätze, Frischwasserversorgung, Waschmaschine und Trockner im Nebengebäude\n10 € für Camper > 6m 5€ für Camper < 6m","mobile":"01714654466","operator":"Michael Löw","power_supply":"yes","sanitary_dump_station":"no","source":"https://stellplatz.info/wohnmobilstellplatz/holzgartenstraße-18"}},"176431514":{"location":[49.0284877,12.0581817],"ct":"DE","tp":"CS","ts":"2023-08-08T00:49:18Z","tX":546,"tY":351,"tags":{"addr:city":"Regensburg","addr:country":"DE","addr:housenumber":"40","addr:postcode":"93049","addr:street":"Weinweg","caravans":"yes","dog":"yes","drinking_water":"yes","dryer":"yes","email":"regensburg@azur-camping.de","fax":"+49 941 299432","name":"AZUR Camping Regensburg","operator":"AZUR Freizeit GmbH","phone":"+49 941 270025","power_supply":"yes","sanitary_dump_station":"yes","shower":"yes","tents":"yes","toilets":"yes","washing_machine":"yes","website":"https://www.azur-camping.com/regensburg/"}},"176435897":{"location":[49.0592982,11.959279],"ct":"DE","tp":"CS","ts":"2019-09-26T12:44:08Z","tX":546,"tY":351,"tags":{"cabins":"yes","caravans":"yes","dog":"yes","email":"camping.pielenhofen@t-online.de","fax":"+49 9409 723","name":"Campingplatz Naabtal Pielenhofen","phone":"+49 9409 373","power_supply":"yes","tents":"yes","website":"https://www.camping-pielenhofen.de/"}},"215814547":{"location":[48.9275528,12.0406403],"ct":"DE","tp":"CR","ts":"2024-04-25T14:03:03Z","tX":546,"tY":351,"tags":{"capacity":"34","caravan_site":"motorhome_stopover","caravan_site:type":"swimming_pool","charge":"20.60 EUR","fee":"yes","name":"Wohnmobilstellplatz Kaisert-Therme","phone":"+49 9405 95 17-0","power_supply":"yes","reservation":"no","shower":"yes","toilets":"yes","water_point":"yes","water_point:charge":"0.10 EUR/10 liter","website":"https://www.kaiser-therme.de/wohnmobilstellplatz"}},"327135995":{"location":[49.092965,12.1069702],"ct":"DE","tp":"CS","ts":"2021-08-22T13:17:00Z","tX":546,"tY":351,"tags":{"addr:city":"Zeitlarn","addr:housenumber":"8","addr:postcode":"93197","addr:street":"Waldheimstraße","addr:suburb":"Regendorf","bbq":"yes","caravans":"no","email":"verwalter@burg-regeldorff.de","firepit":"yes","group_only":"yes","name":"Burg Regeldorff","operator":"Pfadfindergemeinschaft St. Wolfgang e. V.","phone":"+49 941 993429","scout":"yes","shower":"yes","source":"Bing","tents":"no","toilets":"yes","website":"http://www.burg-regeldorff.de"}},"345671118":{"location":[48.9370871,12.0194691],"ct":"DE","tp":"CS","ts":"2023-11-02T14:14:16Z","tX":546,"tY":351,"tags":{"name":"Campingplatz Freizeitinsel","website":"https://www.campingplatz-freizeitinsel.de/"}},"715395530":{"location":[48.9309876,11.9876719],"ct":"DE","tp":"CS","ts":"2021-03-05T19:13:42Z","tX":546,"tY":351,"tags":{"addr:city":"Kelheim","addr:country":"DE","addr:housenumber":"3","addr:postcode":"93309","addr:street":"Bootsweg","addr:suburb":"Kapfelberg","caravans":"yes","dog":"yes","name":"Campingplatz Kapfelberg","phone":"+49 9405 5335","power_supply":"yes","shower":"yes","tents":"yes","toilets":"yes","website":"https://www.kelheim.de/poi/campingplatz_kapfelberg-1003/"}},"751576884":{"location":[48.9727269,12.2261095],"ct":"DE","tp":"CR","ts":"2025-04-09T12:01:08Z","tX":546,"tY":351,"tags":{"description":"15 befestigte Stellplätze\nTagesentgelt  13,00 €\n· Für Frischwasser wird ein Entgelt von\n1,00 € pro 100 Liter erhoben.\n· Für den Bezug von Strom wird\n1,00 € pro KWh erhoben.\n· Die Abwasserentsorgung ist im Tagesentgelt enthalten.\nGrillplätze, Toilletten, D","email":"naherholungsverein@landratsamt regensburg.de","name":"Wohnmobilstellplatz Guggenberger See","opening_hours":"01. Mai bis 15. September","operator":"Verein für Naherholung im Raum Regensburg e.V.","parking":"surface","phone":"0941/4009615","power_supply":"yes","sanitary_dump_station":"yes","website":"https://www.naherholungsverein-regensburg.de/media/75652/guggi_see_wohnmobilstellplatz.pdf"}},"1204039363":{"location":[49.0280487,12.2052582],"ct":"DE","tp":"CR","ts":"2023-08-31T21:49:23Z","tX":546,"tY":351,"tags":{"description":"12€=24h=Mindestgebühr (19.07.2022). Gesamt 31 Plätze, 21 davon mit PKW geteilt, 2 davon mit Behindertenausweis, 10 für Wohnmobile reserviert.","fee":"yes","name":"Parkplatz und Wohnmobilstellplatz","power_supply":"yes"}},"1285282690":{"location":[48.9676651,11.9627556],"ct":"DE","tp":"CS","ts":"2024-08-14T05:49:27Z","tX":546,"tY":351,"tags":{"addr:city":"Saxberg","addr:housenumber":"7","addr:postcode":"93161","addr:street":"Zum Kirchholz","capacity:pitches":"6","fee":"yes","name":"Naturcamping - Camping mit Aussicht","operator":"Familie Ortmann","phone":"+49 176 70422873","shower":"yes","toilets":"yes","website":"https://www.instagram.com/camping_mitaussicht"}},"3528216051":{"location":[49.0293998,12.0705239],"ct":"DE","tp":"CS","ts":"2024-09-04T20:17:14Z","tX":546,"tY":351,"tags":{"caravans":"no","drinking_water":"yes","name":"Zeltplatz Regensburger Kanu-Club e.V.","operator":"Regensburger Kanu-Club e.V.","power_supply":"yes","shower":"yes","tents":"yes","toilets":"yes","website":"https://regensburger-kanuclub.de/zeltplatz/"}},"6019344463":{"location":[48.9278907,12.0406758],"ct":"DE","tp":"SD","ts":"2018-10-28T12:56:05Z","tX":546,"tY":351,"tags":{}},"11265051770":{"location":[49.0281507,12.0589739],"ct":"DE","tp":"SD","ts":"2023-10-15T17:44:43Z","tX":546,"tY":351,"tags":{}}}