{"98197696":{"location":[48.1023574,12.2049875],"ct":"DE","tp":"CS","ts":"2020-09-28T10:32:04Z","tX":546,"tY":355,"tags":{"addr:city":"Soyen","addr:country":"DE","addr:housenumber":"28","addr:postcode":"83564","addr:street":"Seestraße","caravans":"yes","email":"campingplatz@soyensee.de","fax":"+49 8071 51969","name":"Campingplatz Soyensee","opening_hours":"Apr 1-Oct 31","phone":"+49 8071 3860","power_supply":"yes","tents":"yes","website":"http://www.soyensee.de/"}},"778386661":{"location":[48.050861,12.2264901],"ct":"DE","tp":"CR","ts":"2023-11-21T00:33:18Z","tX":546,"tY":355,"tags":{"access":"yes","capacity":"4","fee":"no","maxstay":"3 days","name":"Wohnmoblie","name:en":"Camper","park_ride":"yes","parking":"surface","supervised":"no"}},"1230107940":{"location":[48.052963,11.970023],"ct":"DE","tp":"CR","ts":"2023-12-10T16:46:23Z","tX":546,"tY":355,"tags":{"access":"yes","description":"Wohnmobilstellplätze","fee":"yes","park_ride":"no","parking":"surface","surface":"compacted","traffic_sign":"DE:314,1048-17"}},"11661402192":{"location":[48.0624886,12.2260303],"ct":"DE","tp":"CR","ts":"2024-02-25T00:58:30Z","tX":546,"tY":355,"tags":{"addr:street":"Schopperstattweg","capacity":"2","description":"Diese Stellplätze direkt im Zentrum sind in erster Linie für Tagesgäste der Altstadt vorgesehen.","name":"Wohnmobilparkplatz Unter der Rampe","power_supply":"no","sanitary_dump_station":"no","water_supply":"no"}},"11661415367":{"location":[48.0612183,12.2356997],"ct":"DE","tp":"CR","ts":"2024-02-25T00:58:09Z","tX":546,"tY":355,"tags":{"addr:housenumber":"6","addr:street":"Max-Emanuel-Platz","capacity":"2","description":"Diese Stellplätze direkt im Zentrum sind in erster Linie für Tagesgäste der Altstadt vorgesehen.","name":"Wohnmobilparkplätze am Gries","opening_hours":"24/7","power_supply":"no","sanitary_dump_station":"no","water_point":"no"}}}