{"31472378":{"location":[47.8844692,12.2684394],"ct":"DE","tp":"CS","ts":"2024-03-28T14:57:16Z","tX":546,"tY":356,"tags":{"addr:city":"Bad Endorf","addr:country":"DE","addr:housenumber":"10","addr:postcode":"83093","addr:street":"See","caravans":"yes","drinking_water":"yes","email":"info@camping-stein.de","fax":"+49 8053 798745","internet_access":"wlan","name":"Camping Stein","opening_hours":"Apr 1-Oct 15","operator":"Mathilde Stein","phone":"+49 8053 9349","power_supply":"yes","sanitary_dump_station":"yes","shower":"yes","tents":"yes","toilets":"yes","website":"https://www.camping-stein.de/"}},"36374177":{"location":[47.7883546,12.0068639],"ct":"DE","tp":"CS","ts":"2021-04-11T18:57:06Z","tX":546,"tY":356,"tags":{"addr:city":"Bad Feilnbach","addr:country":"DE","addr:housenumber":"2","addr:postcode":"83075","addr:street":"Reithof","caravans":"yes","dog":"yes","email":"info@kaiser-camping.com","fax":"+49 8066 8844029","internet_access":"wlan","name":"Kaiser Camping Outdoor Resort","phone":"+49 8066 884400","power_supply":"yes","stars":"4","tents":"yes","website":"https://www.kaiser-camping.com/","wheelchair":"yes"}},"38889393":{"location":[47.9246175,12.1367657],"ct":"DE","tp":"CS","ts":"2019-03-11T23:18:29Z","tX":546,"tY":356,"tags":{"addr:city":"Schechen","addr:country":"DE","addr:housenumber":"61","addr:postcode":"83135","addr:street":"Rosenheimer Straße","caravans":"yes","email":"campingplatz-erlensee@t-online.de","fax":"+49 8039 9416","name":"Campingplatz Erlensee","phone":"+49 8039 1695","power_supply":"yes","source":"Bing","tents":"yes","website":"https://www.camping-erlensee.de/"}},"266640871":{"location":[47.8324554,12.0634359],"ct":"DE","tp":"CS","ts":"2019-03-11T23:12:42Z","tX":546,"tY":356,"tags":{"addr:city":"Kolbermoor","addr:housenumber":"5","addr:postcode":"83059","addr:street":"Oberhart","area":"yes","caravans":"no","group_only":"yes","name":"Zeltplatz Oberhart","openfire":"yes","operator":"Pfadfinderförderung St. Franziskus Kolbermoor e.V.","phone":"+49 8031 7980917","tents":"yes","website":"https://www.zeltplatz-oberhart.de/"}},"312630995":{"location":[47.8189871,12.2578581],"ct":"DE","tp":"CS","ts":"2016-08-19T20:32:28Z","tX":546,"tY":356,"tags":{"access":"private"}},"345079189":{"location":[47.8958893,12.2430974],"ct":"DE","tp":"CS","ts":"2015-05-14T17:55:17Z","tX":546,"tY":356,"tags":{"addr:city":"Söchtenau","addr:country":"DE","addr:housenumber":"2","addr:postcode":"83139","addr:street":"Grölking","name":"Camping Sebastian Huber","phone":"+49 8053 3726"}},"780415139":{"location":[47.8562733,12.0063276],"ct":"DE","tp":"CR","ts":"2024-12-28T01:27:27Z","tX":546,"tY":356,"tags":{"capacity":"31","caravan_site":"motorhome_stopover","caravan_site:type":"river","caravans":"no","charge":"15 EUR/day","dog":"yes","fee":"yes","internet_access":"wlan","internet_access:fee":"no","maxstay":"3 days","motorhome":"designated","name":"Wohnmobilstellplatz an der Therme Bad Aibling","opening_hours":"24/7","operator":"Therme Bad Aibling","phone":"+49 8061 90 60 200","power_supply":"yes","power_supply:capacity":"28","power_supply:fee":"no","sanitary_dump_station":"yes","water_point":"yes","water_point:charge":"1 EUR/80 liter","water_point:fee":"yes","website":"https://www.therme-bad-aibling.de/service/wohnmobilplatz"}},"887800212":{"location":[47.9609181,12.1162902],"ct":"DE","tp":"CS","ts":"2023-02-27T20:31:38Z","tX":546,"tY":356,"tags":{"name":"Jugendzeltplatz Stöbersberg"}},"9893215667":{"location":[47.7951192,12.2879476],"ct":"DE","tp":"CR","ts":"2022-07-17T12:37:08Z","tX":546,"tY":356,"tags":{"addr:housenumber":"3","addr:street":"Lederstubenstraße","name":"Wohnmobilstellplatz Lederstube"}},"11018630540":{"location":[47.8561313,12.0061162],"ct":"DE","tp":"SD","ts":"2023-07-01T19:56:26Z","tX":546,"tY":356,"tags":{"access":"yes","fee":"no"}}}