{"38887429":{"location":[47.5891985,12.1161394],"ct":"AT","tp":"CS","ts":"2023-11-11T13:31:11Z","tX":546,"tY":357,"tags":{"addr:city":"Thiersee","addr:country":"AT","addr:housenumber":"2","addr:postcode":"6335","addr:street":"Seebauern","caravans":"yes","email":"info@hiasenhof-thiersee.at","fee":"yes","name":"Campingplatz Hiasenhof","operator":"Daniel Kaindl","permanent_camping":"yes","phone":"+43 5376 5252","shower":"yes","source":"knowledge","tents":"yes","toilets":"yes","website":"https://hiasenhof-thiersee.at/"}},"57373266":{"location":[47.5180931,12.0655318],"ct":"AT","tp":"PK","ts":"2023-05-23T10:04:55Z","tX":546,"tY":357,"tags":{"capacity":"84","caravan":"yes","description":"LKW","hgv":"designated","parking":"street_side"}},"61114589":{"location":[47.6999782,12.1584744],"ct":"DE","tp":"CS","ts":"2022-08-08T19:45:08Z","tX":546,"tY":357,"tags":{"addr:city":"Flintsbach am Inn","addr:country":"DE","addr:housenumber":"40","addr:postcode":"83126","addr:street":"Kranzhornweg","caravans":"yes","description":"Camping Erholungsverein Bayern e.V.","name":"Inntal-Camping","permanent_camping":"yes","phone":"+49 8034 2869","power_supply":"yes","tents":"yes","website":"https://inntal-camping-bayern.de/"}},"68421418":{"location":[47.5877689,12.1176069],"ct":"AT","tp":"CS","ts":"2022-09-23T08:51:02Z","tX":546,"tY":357,"tags":{"addr:city":"Thiersee","addr:country":"AT","addr:housenumber":"8","addr:postcode":"6335","addr:street":"Seebauern","caravans":"yes","email":"email@rueppenhof.com","fee":"yes","internet_access":"wlan","name":"Campingplatz Rueppenhof","operator":"Familie Atzl","permanent_camping":"yes","phone":"+43 5376 5694","shower":"yes","tents":"yes","toilets":"yes","website":"http://www.rueppenhof.com/"}},"120134242":{"location":[47.5655031,12.1255702],"ct":"AT","tp":"CS","ts":"2023-03-23T13:38:52Z","tX":546,"tY":357,"tags":{"addr:city":"Langkampfen","addr:country":"AT","addr:housenumber":"38","addr:postcode":"6336","addr:street":"Kufsteiner Straße","caravans":"yes","fax":"+43 5332 72966-35","fee":"yes","internet_access":"wlan","name":"Campingplatz Hager","operator":"Familie Hager","phone":"+43 5332 72966","shower":"yes","source":"local_knowledge","tents":"yes","toilets":"yes","toilets:wheelchair":"yes","website":"http://camping.hager.tirol/","wheelchair":"limited"}},"344894993":{"location":[47.5174759,12.0670897],"ct":"AT","tp":"PK","ts":"2023-05-23T10:04:55Z","tX":546,"tY":357,"tags":{"capacity":"23","caravan":"yes","description":"LKW","hgv":"designated","parking":"street_side"}},"352638037":{"location":[47.6718769,12.0099804],"ct":"DE","tp":"CR","ts":"2024-10-22T18:09:01Z","tX":546,"tY":357,"tags":{"capacity":"20","fee":"yes","name":"Am Seeberg","operator":"Gemeinde Bayrischzell","power_supply":"yes","sanitary_dump_station":"yes","sanitary_dump_station:grey_water":"yes","water_point":"yes","water_supply":"yes","website":"https://www.bayrischzell.de/camping","wheelchair":"yes"}},"455756357":{"location":[47.587195,12.1680161],"ct":"AT","tp":"CR","ts":"2022-09-23T09:43:05Z","tX":546,"tY":357,"tags":{"addr:city":"Kufstein","addr:housenumber":"22","addr:postcode":"6330","addr:street":"Fischergries","capacity:caravans":"6","caravans":"yes","email":"office@immobilien.kufstein.at","fee":"yes","internet_access":"no","name":"Wohnmobilstellplatz Parkplatz Kufstein Arena","parking":"surface","phone":"+43 5372 602 921","shower":"no","tents":"no","toilets":"yes"}},"458898441":{"location":[47.552617,12.1585198],"ct":"AT","tp":"CS","ts":"2022-09-23T09:48:41Z","tX":546,"tY":357,"tags":{"addr:city":"Schwoich","addr:country":"AT","addr:housenumber":"54","addr:postcode":"6330","addr:street":"Egerbach","caravans":"yes","fax":"+43 5372 58352","fee":"yes","internet_access":"wlan","internet_access:fee":"no","name":"Campingplatz Maier Schwoich","operator":"Manfred Maier","phone":"+43 5372 58352","shower":"yes","source":"knowledge","tents":"yes","toilets":"yes","website":"https://www.camping-maier.com/"}},"702274998":{"location":[47.6110798,12.1919516],"ct":"DE","tp":"CR","ts":"2024-12-28T01:27:27Z","tX":546,"tY":357,"tags":{"addr:city":"Kiefersfelden","addr:housenumber":"40","addr:postcode":"83088","addr:street":"Bahnhofstraße","capacity":"16","caravan_site":"motorhome_stopover","caravan_site:type":"railway_station","charge":"8 EUR","fee":"yes","name":"Wohnnmobilstellplatz Bahnhofstraße","phone":"+49 8033 976527","power_supply":"yes","power_supply:charge":"1 EUR","power_supply:fee":"yes","sanitary_dump_station":"yes","water_point":"yes","water_point:charge":"1 EUR","water_point:fee":"yes","website":"https://www.tourismus-kiefersfelden.de/wohnmobilstellplaetze/"}},"1330196864":{"location":[47.5239568,12.248219],"ct":"AT","tp":"CS","ts":"2024-11-02T16:31:59Z","tX":546,"tY":357,"tags":{"caravans":"yes","tents":"no"}},"1344758677":{"location":[47.6763479,12.0211811],"ct":"DE","tp":"CR","ts":"2024-12-27T23:45:36Z","tX":546,"tY":357,"tags":{"capacity":"20","caravan_site":"motorhome_stopover","caravan_site:type":"village","fee":"yes","name":"Wohnmobilstellplatz Bayrischzell","operator":"Gemeinde Bayrischzell","website":"https://www.bayrischzell.de/wohnmobilstellplatz-bayrischzell"}},"1346773633":{"location":[47.6612199,12.1688041],"ct":"DE","tp":"CR","ts":"2024-12-28T01:27:27Z","tX":546,"tY":357,"tags":{"capacity":"5","caravan_site":"motorhome_stopover","caravan_site:type":"farm","caravans":"yes","email":"martingruber@t-online.de","fee":"yes","name":"Wohnmobilstellplatz Pechlerhof am Auerbach","phone":"+49 80 33 34 62","power_supply":"yes","water_point":"yes","website":"https://www.urlaub-bauernhof-oberaudorf.de/wohnmobile/"}},"1346773636":{"location":[47.6287921,12.1893605],"ct":"DE","tp":"CR","ts":"2024-12-28T01:27:27Z","tX":546,"tY":357,"tags":{"caravan_site":"motorhome_stopover","caravan_site:type":"water_skiing","fee":"yes","maxstay":"2 nights","name":"Wasserskilift Hödenauer See Wetsports","phone":"+49 8033-6648","sanitary_dump_station":"yes","seasonal":"no","website":"https://www.tourismus-kiefersfelden.de/wohnmobilstellplaetze/"}},"12111396549":{"location":[47.6107899,12.1915513],"ct":"DE","tp":"SD","ts":"2024-08-14T20:07:34Z","tX":546,"tY":357,"tags":{"access":"yes","fee":"no","sanitary_dump_station:chemical_toilet":"yes","sanitary_dump_station:gravity":"yes","sanitary_dump_station:grey_water":"yes"}},"9884562286":{"location":[47.5878871,12.1172986],"ct":"AT","tp":"SD","ts":"2022-07-13T08:19:48Z","tX":546,"tY":357,"tags":{"access":"permit","fee":"no","operator":"Campiungplatz Rueppenhof","water_point":"no"}},"12457508142":{"location":[47.6731642,12.0842546],"ct":"DE","tp":"CR","ts":"2024-12-28T01:27:27Z","tX":546,"tY":357,"tags":{"caravan_site":"motorhome_stopover","caravan_site:type":"hotel","dog":"yes","email":"servus@tatzlwurm.de","fee":"no","name":"Wohnmobilstellplatz Feuriger Tatzlwurm","phone":":+49 803430080","power_supply":"no","sanitary_dump_station":"no","website":"https://www.chiemsee-alpenland.de/entdecken/alle-sehenswuerdigkeiten/wohnmobilstellplatz-feuriger-tatzlwurm-410b82b56f"}}}