{"68810645":{"location":[47.4672922,12.1404276],"ct":"AT","tp":"CS","ts":"2025-02-06T06:40:57Z","tX":546,"tY":358,"tags":{"addr:city":"Itter","addr:housenumber":"11","addr:postcode":"6305","addr:street":"Brixentaler Straße","caravans":"yes","email":"info@camping-itter.at","fee":"yes","name":"Camping Schlossberg Itter","phone":"+43 5335 2181","shower":"yes","tents":"yes","toilets":"yes","url":"http://www.camping-itter.at","website":"https://www.camping-wilder-kaiser.at"}},"69357590":{"location":[47.5085533,12.188787],"ct":"AT","tp":"CS","ts":"2023-04-24T20:36:50Z","tX":546,"tY":358,"tags":{"addr:city":"Söll","addr:housenumber":"37","addr:postcode":"6306","addr:street":"Dorfbichl","caravans":"yes","email":"info@franzlhof.com","fee":"yes","internet_access":"wlan","name":"Camping Franzlhof","operator":"Familie Mödlinger","phone":"+43 5333 5117","shower":"yes","tents":"yes","toilets":"yes","website":"https://franzlhof.com/camping"}},"150622046":{"location":[47.4457384,12.258611],"ct":"AT","tp":"CS","ts":"2023-11-04T16:33:18Z","tX":546,"tY":358,"tags":{"addr:city":"Brixen im Thale","addr:housenumber":"9","addr:postcode":"6364","addr:street":"Badhausweg","caravans":"yes","drinking_water":"yes","email":"info@camping-brixen.at","fax":"+43 5334 8469","fee":"yes","internet_access":"wlan","name":"Campingwelt Brixen","operator":"Familie Widauer","phone":"+43 5334 8113","power_supply":"yes","shower":"yes","tents":"yes","toilets":"yes","website":"https://www.camping-brixen.at/de/"}},"157670616":{"location":[47.4320179,12.2024612],"ct":"AT","tp":"CS","ts":"2022-09-23T12:50:34Z","tX":546,"tY":358,"tags":{"addr:city":"Westendorf","addr:housenumber":"70","addr:postcode":"6363","addr:street":"Mühltal","caravans":"yes","email":"info@panoramacamping.at","fax":"+43  5334 6843","fee":"yes","name":"Panoramacamping Westendorf","phone":"+43  5334 6166","shower":"yes","tents":"yes","toilets":"yes","website":"https://www.panoramacamping.at/"}},"220464902":{"location":[47.4306288,12.1499906],"ct":"AT","tp":"CS","ts":"2023-08-07T14:37:10Z","tX":546,"tY":358,"tags":{"addr:city":"Hopfgarten im Brixental","addr:housenumber":"49","addr:place":"Kelchsauer Straße","addr:postcode":"6361","caravans":"yes","description":"Familienfreundlicher Campingplatz im Herzen der Tiroler Alpen, direkt an einen Bach gelegen mit angrenzenden Badesee.","email":"welcome@campingreiterhof.at","fee":"yes","internet_access":"wlan","internet_access:fee":"yes","name":"Reiterhof Camping","phone":"+43 5335 3512","shower":"yes","tents":"yes","toilets":"yes","website":"https://campingreiterhof.at/index.html"}}}