{"127984199":{"location":[47.243197,12.2111401],"ct":"AT","tp":"CS","ts":"2022-10-24T13:46:50Z","tX":546,"tY":359,"tags":{"caravans":"yes","name":"S.N.P. Camping","phone":"+43 6565 8446 0","website":"http://www.snp-camping.at"}},"141562425":{"location":[47.218186,12.174735],"ct":"AT","tp":"CS","ts":"2023-11-11T00:20:47Z","tX":546,"tY":359,"tags":{"caravans":"yes","name":"Camping/Wohnmobilstellplatz Hotel Krimmlerfälle","website":"https://www.krimmlerfaelle.at/caravan-camping"}},"234416283":{"location":[47.2421437,12.2111012],"ct":"AT","tp":"CS","ts":"2024-08-08T08:26:32Z","tX":546,"tY":359,"tags":{"addr:city":"Wald im Pinzgau","addr:country":"AT","addr:housenumber":"46","addr:postcode":"5742","addr:street":"Lahn","capacity":"60","caravans":"yes","fee":"yes","internet_access":"yes","internet_access:fee":"yes","name":"Camping Viktoria","operator":"Fam. Kaserer","phone":"+43 664 32 63 528","source":"geoimage.at","tents":"yes","website":"https://www.campingviktoria.at/"}},"371621145":{"location":[47.2267519,12.0553243],"ct":"AT","tp":"CS","ts":"2023-04-29T18:09:17Z","tX":546,"tY":359,"tags":{"addr:city":"Gerlos","addr:housenumber":"242","addr:place":"Gerlos","addr:postcode":"6281","alt_name":"Schönachhof","caravans":"yes","email":"info@schoenachhof-tirol.com","fee":"yes","internet_access":"wlan","mobile":"+43 664 2613162","name":"Alpencamping Gerlos","operator":"Familie Kammerlander","phone":"+43 5284 5273","shower":"yes","tents":"yes","toilets":"yes","website":"https://www.schoenachhof.at/"}},"537116450":{"location":[47.2390534,12.2410635],"ct":"AT","tp":"CR","ts":"2017-10-31T10:46:49Z","tX":546,"tY":359,"tags":{"capacity":"15"}},"9377819913":{"location":[47.2366518,12.1237101],"ct":"AT","tp":"CR","ts":"2021-12-30T00:37:04Z","tX":546,"tY":359,"tags":{"capacity":"6","caravans":"yes","charge":"43 EUR/day","fee":"yes","name":"Caravan Stellplätze - Stadl Lofts","operator":"Familie Gruber-Waltl","power_supply":"yes","reservation":"required","sanitary_dump_station":"no","tents":"no","water_point":"no","website":"https://www.stadllofts.at/de/camping/caravaning.html"}}}