{"170859270":{"location":[45.9909967,12.2328821],"ct":"IT","tp":"CS","ts":"2018-07-20T11:49:00Z","tX":546,"tY":364,"tags":{"caravans":"yes","email":"campingrivadoro@libero.it","fax":"+39 0438 929110","internet_access":"no","maxtents":"75","name":"Camping Riva D'Oro","phone":"+39 0438 929110","stars":"3","website":"http://www.campingrivadoro.com/","wheelchair":"yes"}},"987173500":{"location":[45.9830917,12.2279488],"ct":"IT","tp":"CS","ts":"2024-10-05T14:36:03Z","tX":546,"tY":364,"tags":{"access":"customers","addr:city":"Tarzo","addr:housenumber":"89","addr:postcode":"31020","addr:street":"Località Fratta","cabins":"yes","caravans":"yes","dog":"yes","email":"info@campingallagodilago.it","fee":"yes","internet_access":"wlan","internet_access:fee":"customers","internet_access:ssid":"Camping al Lago di Lago","motorhome":"yes","name":"Camping al Lago di Lago","opening_hours":"10:00-13:00; 15:00-19:00","payment:american_express":"no","payment:coins":"yes","payment:credit_cards":"no","payment:debit_cards":"no","payment:maestro":"no","payment:mastercard":"no","payment:notes":"no","payment:telephone_cards":"no","payment:visa":"no","phone":"+39 0438 586891","power_supply":"yes","power_supply:maxcurrent":"6","socket:cee_blue":"yes","static_caravans":"yes","tents":"yes","website":"https://www.campingallagodilago.it/"}},"1184058234":{"location":[45.8777854,12.3017567],"ct":"IT","tp":"CR","ts":"2023-11-17T21:48:13Z","tX":546,"tY":364,"tags":{"addr:city":"Conegliano","addr:housenumber":"30b","addr:postcode":"31015","addr:street":"Via San Giovanni Bosco","capacity":"30","fee":"yes","internet_access":"no","name":"Conegliano","note":"Aperto tutto l'anno Orario accesso 8:30-20:30 Scarico/acqua: 3 € Pernottamento: 12 €/notte - permanenza max 48h Cani ammessi","operator":"Campeggio Club Conegliano","phone":"+39 346 3903545","power_supply":"yes","sanitary_dump_station:gravity":"yes"}},"1253326990":{"location":[45.8573682,12.165789],"ct":"IT","tp":"CR","ts":"2024-02-21T17:34:43Z","tX":546,"tY":364,"tags":{"name":"Le grave","sanitary_dump_station":"yes"}},"1318104070":{"location":[46.0308807,11.960127],"ct":"IT","tp":"CS","ts":"2024-09-25T12:41:44Z","tX":546,"tY":364,"tags":{"email":"info@areacampervincheto.it","fee":"yes","motorhome":"yes","name":"Campeggio Vincheto","phone":"+39 346 3257105","power_supply":"yes","power_supply:maxcurrent":"6","socket:cee_blue":"yes"}},"1318107880":{"location":[45.9490672,12.1223096],"ct":"IT","tp":"CR","ts":"2024-09-25T13:01:32Z","tX":546,"tY":364,"tags":{"addr:street":"Via Gaspare Paoletti","name":"Parcheggio Camper","power_supply":"no","sanitary_dump_station":"no"}},"11044278902":{"location":[46.0080364,12.1689807],"ct":"IT","tp":"CS","ts":"2023-11-02T11:29:19Z","tX":546,"tY":364,"tags":{"addr:city":"Borgo Valbelluna","addr:postcode":"31030","addr:street":"Via San Boldo","name":"Il Campo Indiano","phone":"+393792109590","website":"https://www.ilcampoindiano.it/"}}}