{"28491597":{"location":[45.4206364,12.2577027],"ct":"IT","tp":"CS","ts":"2025-03-08T16:09:19Z","tX":546,"tY":366,"tags":{"addr:street":"Via Moranzani","caravans":"yes","internet_access":"wlan","internet_access:fee":"no","motorhome":"yes","name":"Camping Fusina","power_supply":"yes","power_supply:maxcurrent":"6","reservation":"yes","sanitary_dump_station":"yes","socket:cee_blue":"yes","tents":"yes","washing_machine":"yes","website":"https://www.camping-fusina.com/","wheelchair":"yes","wikidata":"Q111124074"}},"166670053":{"location":[45.4803036,12.2746528],"ct":"IT","tp":"CS","ts":"2024-10-29T20:18:56Z","tX":546,"tY":366,"tags":{"caravans":"yes","contact:whatsapp":"+393518709703","dog":"yes","drinking_water":"yes","email":"info@veneziavillage.it","fee":"yes","internet_access":"wlan","motorhome":"yes","name":"Camping Venezia Village","phone":"+39 041 5312828","power_supply":"yes","power_supply:maxcurrent":"6","socket:cee_blue":"yes","tents":"yes","toilets":"yes","website":"https://www.veneziavillage.it/"}},"190973021":{"location":[45.4802251,12.276052],"ct":"IT","tp":"SD","ts":"2021-06-22T20:23:15Z","tX":546,"tY":366,"tags":{"fee":"yes","water_point":"yes"}},"284501849":{"location":[45.4723629,12.2118718],"ct":"IT","tp":"CS","ts":"2024-09-25T22:05:12Z","tX":546,"tY":366,"tags":{"addr:city":"Marghera","addr:housenumber":"7","addr:postcode":"30175","addr:street":"Via Giuseppe De Marchi","cabins":"yes","caravans":"yes","dog":"yes","email":"venezia@huopenair.com","fee":"yes","internet_access":"wlan","name":"Jolly","operator":"Human","payment:cash":"yes","payment:credit_cards":"yes","payment:debit_cards":"yes","phone":"+39 041 920312","power_supply":"yes","socket:cee_blue":"yes","tents":"no","website":"https://venezia.huopenair.com"}},"364977852":{"location":[45.4834142,12.2838109],"ct":"IT","tp":"CS","ts":"2024-09-25T21:59:30Z","tX":546,"tY":366,"tags":{"addr:street":"Via Orlanda","area":"yes","caravans":"yes","drinking_water":"yes","email":"info@campingrialto.com","fax":"+39 041 542 0295","fee":"yes","internet_access":"wlan","motorhome":"yes","name":"Camping Rialto","phone":"+39 041 542 0295","power_supply":"yes","shower":"yes","socket:cee_blue":"yea","tents":"yes","toilets":"yes","website":"https://www.campingrialto.it/","wheelchair":"no","wikidata":"Q111124060"}},"371507109":{"location":[45.4537622,12.1837981],"ct":"IT","tp":"CS","ts":"2024-09-26T04:45:45Z","tX":546,"tY":366,"tags":{"addr:housenumber":"334a","addr:street":"Via Padana","cabins":"yes","dog":"leashed","drinking_water":"yes","fee":"yes","name":"Camping Serenissima","power_supply":"yes","power_supply:maxcurrent":"10","sanitary_dump_station":"yes","shower":"yes","socket:cee_blue":"yes","tents":"yes","toilets":"yes","website":"https://www.campingserenissima.com","wikidata":"Q111124062"}},"477169270":{"location":[45.4913595,12.2782773],"ct":"IT","tp":"CR","ts":"2019-03-17T21:11:51Z","tX":546,"tY":366,"tags":{"addr:city":"Venezia","addr:housenumber":"6","addr:postcode":"30173","addr:street":"Via F. Mutinelli","capacity":"50","description":"Il parcheggio veniceutilitypark.com , facilmente accessibile dall’autostrada,  consente di raggiungere, con il nostro Servizio Navetta Gratuito, sia Venezia Porto Terminal Passeggeri,  Venezia Piazzale Roma, Mestre Stazione Ferroviaria , aeroporto Marco P","fee":"yes","name":"Venice Utility Park","opening_hours":"24/7","phone":"+39 3384116439","power_supply":"yes","sanitary_dump_station":"yes","website":"https://www.veniceutilitypark.com/"}},"477169271":{"location":[45.4678891,12.2790639],"ct":"IT","tp":"CR","ts":"2024-09-25T21:44:50Z","tX":546,"tY":366,"tags":{"addr:city":"Venezia","addr:housenumber":"1","addr:postcode":"30173","addr:street":"Via San Giuliano","capacity":"100","charge":"18€ p. 24hours","fee":"yes","internet_access":"no","maxstay":"48 hours","name":"Caravan Park San Giuliano","note":"Coordinate GPS 45° 28.54 N – 012° 16.06 E","phone":"+39 041 532 2106","power_supply":"yes","sanitary_dump_station":"yes","toilets":"yes","website":"http://www.caravanparksangiuliano.com/","wheelchair":"yes"}},"486597688":{"location":[45.4422311,12.0574876],"ct":"IT","tp":"SD","ts":"2023-04-16T10:31:13Z","tX":546,"tY":366,"tags":{"access":"permissive","fee":"no","water_point":"yes"}},"507395710":{"location":[45.4543914,12.1839544],"ct":"IT","tp":"CR","ts":"2024-09-26T04:45:45Z","tX":546,"tY":366,"tags":{"dog":"leashed","drinking_water":"yes","fee":"yes","name":"Serenissima","power_supply":"yes","power_supply:maxcurrent":"10","sanitary_dump_station":"yes","socket:cee_blue":"yew","toilets":"yes"}},"1198412567":{"location":[45.4692737,12.2659593],"ct":"IT","tp":"CR","ts":"2023-08-17T13:23:18Z","tX":546,"tY":366,"tags":{"access":"yes","fee":"yes","internet_access":"no","name":"Park Terminal Service","parking":"surface","toilets":"no","wheelchair":"yes"}},"1318317041":{"location":[45.4615488,12.1858413],"ct":"IT","tp":"CR","ts":"2024-09-26T07:29:29Z","tX":546,"tY":366,"tags":{"addr:housenumber":"19f","addr:postcode":"30034","addr:street":"Via Cà Rubaldi","bbq":"yes","capacity":"15","charge":"30 EUR/Day","contact:whatsapp":"+393534271805","dog":"yes","email":"info@aladincamp.it","fee":"yes","name":"AladinCamp","name:it":"AladinCamp","opening_hours":"24/7","phone":"+393534271805","power_supply":"yes","reservation":"recommended","socket:cee_blue":"yes","start_date":"2021","website":"https://www.aladincamp.it/"}},"2301689132":{"location":[45.5529782,12.068453],"ct":"IT","tp":"CR","ts":"2014-10-26T15:04:44Z","tX":546,"tY":366,"tags":{"name":"Camper area"}},"6794659786":{"location":[45.3760817,12.1342402],"ct":"IT","tp":"CS","ts":"2019-09-14T08:17:56Z","tX":546,"tY":366,"tags":{"name":"Agritourismo La Chioccia","website":"http://www.agriturismolachioccia.it"}},"11068842706":{"location":[45.4611887,12.1854228],"ct":"IT","tp":"CR","ts":"2023-11-17T18:41:45Z","tX":546,"tY":366,"tags":{"addr:housenumber":"19f","addr:postcode":"30034","addr:street":"Via Cà Rubaldi","name":"AladinCamp","name:it":"AladinCamp","opening_hours":"24/7","phone":"+393534271805"}},"11269655214":{"location":[45.4202114,12.257078],"ct":"IT","tp":"SD","ts":"2023-12-14T06:40:20Z","tX":546,"tY":366,"tags":{}},"12200282203":{"location":[45.467565,12.2786482],"ct":"IT","tp":"SD","ts":"2024-09-25T21:44:50Z","tX":546,"tY":366,"tags":{"charge":"10 EUR","fee":"yes","water_point":"yes"}}}