{"14164677":{"location":[45.1930128,12.3041486],"ct":"IT","tp":"CS","ts":"2024-10-03T20:14:36Z","tX":546,"tY":367,"tags":{"addr:housenumber":"73","addr:street":"Viale Agostino Barbarigo","caravans":"yes","fee":"yes","motorhome":"yes","name":"Atlanta Mediterraneo","phone":"+39 041491311","power_supply":"yes","power_supply:maxcurrent":"6","socket:cee_blue":"yes","stars":"4","tents":"yes","website":"https://www.campeggioatlanta.com/"}},"14168265":{"location":[45.1903147,12.3040473],"ct":"IT","tp":"CS","ts":"2024-10-03T20:17:33Z","tX":546,"tY":367,"tags":{"addr:housenumber":"103","addr:street":"Via Agostino Barbarigo","cabins":"yes","caravans":"yes","dog":"yes","name":"Miramare","phone":"+39 041 490610","power_supply":"yes","socket:cee_blue":"yes","stars":"4","tents":"yes","website":"https://www.miramarecamping.com/"}},"38668989":{"location":[45.2114828,12.2966749],"ct":"IT","tp":"CS","ts":"2023-11-06T23:55:19Z","tX":546,"tY":367,"tags":{"addr:city":"Sottomarina Lido","addr:country":"IT","addr:postcode":"30015","addr:street":"Via Lungomare Adriatico","fax":"+39 041 5540300","internet_access":"no","name":"Europa","phone":"+39 041 5540300","stars":"3","website":"https://www.campeggioeuropa.net/"}},"81022316":{"location":[45.221798,12.2956982],"ct":"IT","tp":"CR","ts":"2024-10-03T06:14:14Z","tX":546,"tY":367,"tags":{"addr:city":"Chioggia","addr:housenumber":"400","addr:postcode":"30015","addr:street":"Lungomare Adriatico","capacity":"100","charge":"15-20€ Saisonabhängig","description":"Offen von Anfang März bis Anfang November","dog":"yes","fee":"yes","internet_access":"wlan","name":"Area Sosta Camper 2 Palme","power_supply":"yes","power_supply:maxcurrent":"2","sanitary_dump_station":"yes","sanitary_dump_station:grey_water":"yes","shower":"yes","socket:cee_blue":"yes","toilets":"yes"}},"185804134":{"location":[45.2249982,12.2978285],"ct":"IT","tp":"CS","ts":"2024-10-03T06:14:14Z","tX":546,"tY":367,"tags":{"addr:housenumber":"10G","addr:street":"Viale San Felice","caravans":"yes","dog":"yes","fee":"yes","motorhome":"yes","name":"Al Porto","phone":"+39 041 405715","power_supply":"yes","shower":"yes","socket:cee_blue":"yes","tents":"yes","toilets":"yes","toilets:wheelchair":"yes","website":"https://www.campingalporto.com/","wheelchair":"yes"}},"185817338":{"location":[45.1952708,12.3036173],"ct":"IT","tp":"CS","ts":"2022-05-20T20:47:29Z","tX":546,"tY":367,"tags":{"cabins":"yes","caravans":"yes","name":"Tredue","phone":"+39 041490983","stars":"3","tents":"yes","website":"https://www.campingtredue.it/"}},"289359913":{"location":[45.2228226,12.2955295],"ct":"IT","tp":"CR","ts":"2024-10-03T06:14:14Z","tX":546,"tY":367,"tags":{"addr:city":"Chioggia","addr:housenumber":"10","addr:postcode":"30015","addr:street":"Viale San Marco","capacity":"40","charge":"14-20€ Saisonabhängig","fee":"yes","name":"Area Sosta camper al Padoan","phone":"+39 388 3555625","power_supply":"yes","power_supply:maxcurrent":"2","sanitary_dump_station":"yes","shower":"yes","socket:cee_blue":"yes","toilets":"yes"}},"293668004":{"location":[45.2045433,12.2983835],"ct":"IT","tp":"CS","ts":"2024-07-11T07:13:56Z","tX":546,"tY":367,"tags":{"addr:city":"Sottomarina","addr:street":"Lungomare Adriatico","cabins":"yes","caravans":"yes","fee":"yes","name":"Camping Adriatico","phone":"+39 041 492907","stars":"3","tents":"yes","website":"https://www.campingadriatico.com/"}},"505708878":{"location":[45.227092,12.2980598],"ct":"IT","tp":"CS","ts":"2024-10-03T06:14:14Z","tX":546,"tY":367,"tags":{"addr:city":"Chioggia","addr:housenumber":"10","addr:street":"Viale San Felice","bbq":"yes","cabins":"yes","caravans":"yes","fee":"yes","motorhome":"yes","name":"Camping Tropical","phone":"+39 041 403055","power_supply":"yes","power_supply:maxcurrent":"6","socket:cee_blue":"yes","stars":"4","swimming_pool":"no","tents":"yes","toilets:wheelchair":"yes","washing_machine":"yes","website":"https://www.campingtropical.com","wheelchair":"yes"}},"883897171":{"location":[45.2237599,12.2969508],"ct":"IT","tp":"CS","ts":"2024-10-03T06:14:14Z","tX":546,"tY":367,"tags":{"addr:housenumber":"10I","addr:street":"Viale San Felice","caravans":"yes","fee":"yes","motorhome":"yes","name":"Grande Italia","phone":"+39 041 405664","tents":"yes","website":"https://grandeitaliacamping.com/"}},"993462538":{"location":[45.2078072,12.2774578],"ct":"IT","tp":"CR","ts":"2024-10-03T06:17:15Z","tX":546,"tY":367,"tags":{"addr:street":"Via della Stazione","capacity":"18","drinking_water":"yes","fee":"yes","name":"Area Sosta Camper Chioggia","power_supply":"yes","power_supply:fee":"yes","sanitary_dump_station":"yes","start_date":"2019","website":"https://www.chioggia.org/index.php?area=84&menu=680&page=1718&lingua=4&idnotizia=1171","wheelchair":"yes"}},"9170119102":{"location":[45.2246981,12.2979755],"ct":"IT","tp":"SD","ts":"2021-10-17T12:36:38Z","tX":546,"tY":367,"tags":{"access":"customers","description":"Nur für Campingplatz Al Porto Gäste nutzbar.","water_point":"yes"}},"9178290385":{"location":[45.2079109,12.2771766],"ct":"IT","tp":"SD","ts":"2021-10-17T15:56:23Z","tX":546,"tY":367,"tags":{"access":"customers","water_point":"yes"}}}