{"17542314":{"location":[44.6597153,12.2281855],"ct":"IT","tp":"CR","ts":"2024-05-04T06:55:40Z","tX":546,"tY":369,"tags":{"name":"Area Sosta Camper Residenza le Le Saline","phone":"+390533330885"}},"27061042":{"location":[44.6542927,12.2463078],"ct":"IT","tp":"CS","ts":"2025-06-20T09:38:41Z","tX":546,"tY":369,"tags":{"addr:housenumber":"67","addr:street":"Via delle Acacie","cabins":"yes","camp_site":"deluxe","caravans":"yes","contact:email":"info@campingmarepineta.com","dog":"yes","drinking_water":"yes","internet_access":"wlan","internet_access:fee":"yes","name":"Mare e Pineta","phone":"+39 0533 33 01 10","power_supply":"yes","power_supply:maxcurrent":"10","ref:cin":"IT038006B17TCUP7WY","ref:vatin":"IT00681880399","sanitary_dump_station":"yes","shower":"yes","stars":"4","tents":"yes","toilets":"yes","toilets:wheelchair":"yes","website":"https://www.campingmarepineta.it","wheelchair":"yes"}},"39436778":{"location":[44.6265454,12.257882],"ct":"IT","tp":"CS","ts":"2025-06-20T09:34:21Z","tX":546,"tY":369,"tags":{"addr:city":"Lido di Spina","addr:housenumber":"99","addr:postcode":"44029","addr:street":"Via del campeggio","cabins":"yes","caravans":"yes","contact:email":"spinacampingvillage@clubdelsole.com","dog":"yes","name":"Spina Camping Village","operator":"Club del Sole","phone":"+39 0533 330179","ref:vatin":"IT04205530407","stars":"4","tents":"yes","website":"https://spinacampingvillage.com"}},"87677952":{"location":[44.7262932,12.2388708],"ct":"IT","tp":"CS","ts":"2024-09-08T17:25:43Z","tX":546,"tY":369,"tags":{"addr:housenumber":"22","addr:street":"Via Capanno di Garibaldi","cabins":"yes","caravans":"yes","description":"22/04 - 22/09","name":"Camping Village I Tre Moschettieri","phone":"+39 0533 38 0 376","stars":"4","tents":"yes","website":"https://www.tremoschettieri.com"}},"87678012":{"location":[44.700642,12.2380355],"ct":"IT","tp":"CS","ts":"2025-06-20T10:58:13Z","tX":546,"tY":369,"tags":{"addr:city":"Lido degli Scacchi","addr:housenumber":"199","addr:postcode":"44022","addr:street":"Viale Alpi Centrali","caravans":"yes","contact:phone":"+39 0533 38 01 93","contact:whatsapp":"+39 351 8906661","description":"22/03- 03/12","dog":"yes","fee":"yes","motorhome":"yes","name":"Holiday Village \"Florenz\"","power_supply":"yes","power_supply:maxcurrent":"6;10","ref:cin":"IT038006B2WN5WAI65 \\","ref:vatin":"IT01171240383","stars":"4","tents":"yes","toilets:wheelchair":"yes","website":"https://www.campingflorenz.com/","wheelchair":"yes"}},"87678093":{"location":[44.692155,12.2381882],"ct":"IT","tp":"CS","ts":"2025-06-20T11:04:34Z","tX":546,"tY":369,"tags":{"addr:city":"Porto Garibaldi","addr:housenumber":"62","addr:postcode":"44029","addr:street":"Via dei Mille","cabins":"yes","caravans":"yes","contact:email":"info@campingspiaggiamare.com","dog":"yes","motorhome":"yes","name":"Holiday Park \"Spiaggia e Mare\"","phone":"+39 0533327431","power_supply":"yes","power_supply:maxcurrent":"16","ref:cin":"IT038006B2UTLCFOUA","ref:vatin":"01092090388","stars":"3","static_caravans":"yes","tents":"yes","website":"https://www.campingspiaggiamare.com"}},"230273543":{"location":[44.7325529,12.2297253],"ct":"IT","tp":"CS","ts":"2025-06-20T11:11:23Z","tX":546,"tY":369,"tags":{"addr:housenumber":"133","addr:street":"Viale Libia","cabins":"yes","caravans":"yes","contact:phone":"+390533379500","dog":"yes","name":"Camping Village Tahiti","power_supply":"yes","power_supply:maxcurrent":"10;16","ref:cin":"IT038006B2CZZMQLOJ","ref:vatin":"IT00182250225","stars":"4","tents":"yes","website":"https://www.campingtahiti.com"}},"440864869":{"location":[44.7240493,12.2384359],"ct":"IT","tp":"CS","ts":"2024-09-13T10:15:59Z","tX":546,"tY":369,"tags":{"addr:housenumber":"20","addr:street":"Via Capanno di Garibaldi","cabins":"yes","caravans":"yes","name":"Vigna sul Mar Camping Village","operator":"Club del Sole","phone":"+39 0533 380216","shower":"yes","stars":"4","tents":"yes","website":"https://www.vignasulmarcampingvillage.com"}},"1075554538":{"location":[44.6991924,12.2377902],"ct":"IT","tp":"CS","ts":"2025-06-20T10:58:13Z","tX":546,"tY":369,"tags":{"caravans":"yes","contact:email":"info@campingancora.it","dog":"yes","fee":"yes","motorhome":"yes","name":"Camping Ancora","phone":"+39 0533 381 276","power_supply":"yes","power_supply:maxcurrent":"4","ref:cin":"IT038006B1MC52PH2L","ref:vatin":"IT04698100486","stars":"2","tents":"yes","website":"https://www.campingancora.it"}},"8920023946":{"location":[44.743077,11.9698765],"ct":"IT","tp":"CS","ts":"2021-07-14T16:29:21Z","tX":546,"tY":369,"tags":{"name":"Vallette di Ostellato"}},"5634224821":{"location":[44.6719469,12.2461719],"ct":"IT","tp":"CR","ts":"2018-05-22T06:33:53Z","tX":546,"tY":369,"tags":{}},"6168225487":{"location":[44.7260984,12.2248463],"ct":"IT","tp":"CR","ts":"2018-12-28T13:53:04Z","tX":546,"tY":369,"tags":{"name":"Ariaperta Comacchio","opening_hours":"24/7"}},"10940547513":{"location":[44.6554727,12.2486761],"ct":"IT","tp":"SD","ts":"2023-05-30T20:01:45Z","tX":546,"tY":369,"tags":{"water_point":"yes"}},"11335599437":{"location":[44.7757151,12.185655],"ct":"IT","tp":"SD","ts":"2023-11-09T11:42:42Z","tX":546,"tY":369,"tags":{"access":"yes","fee":"yes","opening_hours":"24/7"}},"12631066840":{"location":[44.7027237,12.1688389],"ct":"IT","tp":"CR","ts":"2025-03-02T18:43:27Z","tX":546,"tY":369,"tags":{"addr:city":"Comacchio","addr:street":"Villaggio San Carlo","fee":"yes","name":"Area sosta camper","opening_hours":"24/7","power_supply":"yes","sanitary_dump_station":"yes"}},"12927845715":{"location":[44.6269869,12.25526],"ct":"IT","tp":"SD","ts":"2025-06-20T09:34:21Z","tX":546,"tY":369,"tags":{"water_point":"yes"}},"12927978138":{"location":[44.7001623,12.2391544],"ct":"IT","tp":"SD","ts":"2025-06-20T10:58:13Z","tX":546,"tY":369,"tags":{"access":"customers"}}}