{"17382091":{"location":[44.5482965,12.1327787],"ct":"IT","tp":"CS","ts":"2024-03-24T18:15:09Z","tX":546,"tY":370,"tags":{"addr:housenumber":"34a","addr:street":"Via Rotta Martinella","cabins":"yes","caravans":"yes","name":"Prato Pozzo","tents":"yes","website":"https://www.pratopozzo.com/"}},"81023285":{"location":[44.5491122,12.278681],"ct":"IT","tp":"CR","ts":"2024-09-16T08:28:43Z","tX":546,"tY":370,"tags":{"power_supply":"yes","sanitary_dump_station":"yes"}},"181624781":{"location":[44.5589293,12.2773642],"ct":"IT","tp":"CS","ts":"2023-12-17T07:44:19Z","tX":546,"tY":370,"tags":{"email":"info@villaggiocampingadria.it","fax":"+39 0544 442014","name":"Camping Adria","phone":"+39 0544 445217","website":"https://www.villaggiocampingadria.it/"}},"226312071":{"location":[44.4314603,12.3009605],"ct":"IT","tp":"CS","ts":"2024-10-04T09:06:38Z","tX":546,"tY":370,"tags":{"addr:housenumber":"58","addr:street":"Via della Fontana","alt_name":"Villaggio dei Pini","cabins":"yes","caravans":"yes","name":"Camping dei Pini","operator":"Club del Sole","phone":"+39 0544 437115","stars":"3","tents":"yes","website":"https://www.clubdelsole.com/it/destinazioni/emilia-romagna-romagna-e-bologna/pini-beach-villagehttps://www.clubdelsole.com/it/destinazioni/emilia-romagna-romagna-e-bologna/pini-beach-village"}},"298432848":{"location":[44.4995896,12.2773505],"ct":"IT","tp":"CS","ts":"2025-02-17T19:10:37Z","tX":546,"tY":370,"tags":{"addr:city":"Marina Romea","addr:country":"IT","addr:housenumber":"59","addr:postcode":"48123","addr:street":"Viale Italia","alt_name":"Club del Sole Marina Romea Easy Camping Village","barrier":"fence","cabins":"yes","caravans":"yes","dog":"no","email":"info@campingvillaggiodelsole.it","fence_type":"chain_link","height":"2","name":"Villaggio del Sole","nudism":"no","operator":"Club del Sole","phone":"+39 0544 446037","power_supply":"cee_17_blue","sanitary_dump_station":"customers","sanitary_dump_station:basin":"yes","stars":"3","static_caravans":"yes","tents":"yes","website":"http://www.campingvillaggiodelsole.it","wheelchair":"yes"}},"354901876":{"location":[44.4956513,12.2800226],"ct":"IT","tp":"CR","ts":"2025-01-28T13:19:04Z","tX":546,"tY":370,"tags":{"addr:city":"Ravenna","addr:street":"Via Giuseppe Guizzetti","capacity":"163","drinking_water":"yes","fee":"yes","internet_access":"no","landuse":"grass","name":"Ancora Blu","operator":"Pro Loco","phone":"+39 0544 446398","power_supply":"yes","sanitary_dump_station":"yes","toilets":"yes","wheelchair":"yes"}},"531004297":{"location":[44.4651103,12.2842858],"ct":"IT","tp":"CS","ts":"2022-05-27T20:10:42Z","tX":546,"tY":370,"tags":{"addr:city":"Ravenna","addr:housenumber":"421","addr:street":"Viale della Pace","cabins":"yes","caravans":"yes","name":"Piomboni","phone":"+39 0544 530230","stars":"3","swimming_pool":"yes","tents":"yes","website":"https://www.campingpiomboni.it"}},"531023751":{"location":[44.4322365,12.2984699],"ct":"IT","tp":"CS","ts":"2022-05-27T21:10:19Z","tX":546,"tY":370,"tags":{"addr:city":"Ravenna","addr:housenumber":"8","addr:street":"Via dei Campeggi","cabins":"yes","caravans":"no","description:en":"according to the website only cabins, no tents or caravans","internet_access":"yes","name":"Marina Camping Village","operator":"Club del Sole","phone":"+39 0544 437353","stars":"3","tents":"no","website":"https://www.marinacampingvillage.com"}},"531023752":{"location":[44.4335494,12.2948255],"ct":"IT","tp":"CS","ts":"2022-05-27T21:01:37Z","tX":546,"tY":370,"tags":{"addr:city":"Ravenna","addr:housenumber":"7","addr:street":"Via dei Campeggi","cabins":"yes","caravans":"yes","internet_access":"yes","name":"Adriano Camping Village","operator":"Club del Sole","phone":"+39 0544 437230","stars":"4","tents":"yes","website":"https://www.adrianocampingvillage.com"}},"675869419":{"location":[44.5407581,12.2790483],"ct":"IT","tp":"CS","ts":"2022-05-27T19:21:29Z","tX":546,"tY":370,"tags":{"addr:housenumber":"15","addr:street":"Via Giovanni Spallazzi","cabins":"yes","caravans":"yes","name":"Pineta","phone":"+39 0544 445152","stars":"2","swimming_pool":"yes","tents":"yes","website":"https://www.campingpineta.ra.it"}},"675869420":{"location":[44.5293457,12.2772712],"ct":"IT","tp":"CS","ts":"2022-05-27T19:28:59Z","tX":546,"tY":370,"tags":{"addr:housenumber":"5","addr:street":"Via Giovanni Spalazzi","cabins":"yes","caravans":"yes","name":"Romea","phone":"+39 0544446311","tents":"yes","website":"https://www.campingromea.it","wheelchair":"yes"}},"675869421":{"location":[44.5349154,12.277978],"ct":"IT","tp":"CS","ts":"2023-04-22T19:40:50Z","tX":546,"tY":370,"tags":{"access":"yes","addr:city":"Casalborsetti RA","addr:housenumber":"11","addr:postcode":"48100","addr:street":"Via Spallazzi","cabins":"yes","caravans":"yes","email":"info@campingreno.it","fee":"yes","name":"Camping Reno","operator":"Camping Reno ACME SRL","payment:cash":"yes","payment:debit_cards":"yes","payment:mastercard":"yes","payment:visa":"yes","phone":"+39 0544 445020","shower":"yes","stars":"3","swimming_pool":"yes","tents":"yes","toilets":"yes","website":"https://www.campingreno.it/","wheelchair":"yes"}},"1064440742":{"location":[44.4719038,12.2823804],"ct":"IT","tp":"CS","ts":"2024-10-04T07:02:11Z","tX":546,"tY":370,"tags":{"addr:city":"Ravenna","addr:housenumber":"301","addr:street":"Viale delle Nazioni","cabins":"yes","caravans":"yes","dog":"yes","motorhome":"yes","name":"Rivaverde","note":"outline approximated from aerial imagery","operator":"Club del Sole","phone":"+39 0544 531084","power_supply":"yes","power_supply:maxcurrent":"6","socket:cee_blue":"yes","stars":"3","tents":"yes","website":"https://www.clubdelsole.com/en/campsites-holiday-accommodation-italy-emilia-romagna/rivaverde-family-camping-village/"}},"1068975092":{"location":[44.5350293,12.2784405],"ct":"IT","tp":"SD","ts":"2022-06-12T21:32:38Z","tX":546,"tY":370,"tags":{"access":"customers","fee":"no","operator":"Camping Reno ACME SRL","water_point":"yes"}},"3801820079":{"location":[44.4956278,12.2795103],"ct":"IT","tp":"SD","ts":"2015-10-25T08:42:18Z","tX":546,"tY":370,"tags":{"access":"customers","water_point":"yes"}},"4202998338":{"location":[44.3780284,12.2349835],"ct":"IT","tp":"CR","ts":"2023-11-10T10:53:05Z","tX":546,"tY":370,"tags":{"charge":"2.25â‚¬","drinking_water":"yes","fee":"yes","internet_access":"no","name:signed":"no","power_supply":"no","toilets":"no","wheelchair":"yes"}},"8435719717":{"location":[44.3886126,12.2457957],"ct":"IT","tp":"CS","ts":"2021-04-24T14:46:38Z","tX":546,"tY":370,"tags":{"addr:housenumber":"12","addr:postcode":"48124","addr:street":"Via Flotta Romana (ex via Montebello)","email":"info@bio-camping.it","name":"Agriturismo Bio Camping","opening_hours":"Mo-Su 11:00-21:30","phone":"+39 333 224 8499","website":"https://www.bio-camping.it/"}},"8429839617":{"location":[44.4143121,12.1883925],"ct":"IT","tp":"CR","ts":"2022-05-21T16:24:14Z","tX":546,"tY":370,"tags":{"addr:postcode":"48121","addr:street":"Piazza della Resistenza","opening_hours":"24/7"}},"8429839717":{"location":[44.4142773,12.1894312],"ct":"IT","tp":"CR","ts":"2022-05-22T00:04:02Z","tX":546,"tY":370,"tags":{"description:en":"Zona de Servicios vaciado y agua"}},"8429839817":{"location":[44.4304927,12.2093574],"ct":"IT","tp":"CR","ts":"2022-05-21T16:24:14Z","tX":546,"tY":370,"tags":{"addr:housenumber":"86","addr:postcode":"48122","addr:street":"Via Chiavica Romea","opening_hours":"24/7"}},"11989802660":{"location":[44.4490991,12.1240192],"ct":"IT","tp":"CR","ts":"2024-06-18T09:39:50Z","tX":546,"tY":370,"tags":{"addr:city":"Ravenna","addr:housenumber":"27","addr:postcode":"48124","addr:street":"Via Reale","name":"Rimessaggio Ravenna","opening_hours":"24/7","phone":"+393498183806","power_supply":"yes","sanitary_dump_station":"no","website":"https://www.rimessaggioravenna.it"}},"10035058827":{"location":[44.3779161,12.2348891],"ct":"IT","tp":"SD","ts":"2022-09-18T21:14:34Z","tX":546,"tY":370,"tags":{"access":"yes","fee":"no","opening_hours":"24/7"}},"12056772890":{"location":[44.4307549,12.2092016],"ct":"IT","tp":"SD","ts":"2024-07-16T08:03:39Z","tX":546,"tY":370,"tags":{"access":"yes","water_point":"yes"}},"12179790424":{"location":[44.5497669,12.2794063],"ct":"IT","tp":"SD","ts":"2024-09-16T08:28:43Z","tX":546,"tY":370,"tags":{}}}