{"647843058":{"location":[43.459126,12.2345146],"ct":"IT","tp":"CR","ts":"2018-11-22T18:12:26Z","tX":546,"tY":374,"tags":{"addr:city":"Città di Castello","addr:street":"Viale Nazario Sauro","capacity":"20","description":"Campeggio non consentito. Rifornimento acqua e pozzetti di scarico wc chimico e acque grigie","fee":"no","name":"Area camper Città di castello","operator":"Comunale","power_supply":"no","sanitary_dump_station":"no"}},"1301932668":{"location":[43.4377455,12.1591712],"ct":"IT","tp":"CS","ts":"2024-07-17T07:45:28Z","tX":546,"tY":374,"tags":{"addr:city":"Monte Santa Maria Tiberina","addr:housenumber":"13","addr:postcode":"06010","addr:street":"Via San Pietro","area":"yes","caravans":"yes","name":"Luna del Monte camping","phone":"+39 340 335 5407","static_caravans":"yes","tents":"yes","website":"https://campinglunadelmonte.nl/"}},"1385763963":{"location":[43.4524344,12.2221031],"ct":"IT","tp":"CS","ts":"2025-05-12T11:15:58Z","tX":546,"tY":374,"tags":{"addr:city":"Città di Castello","addr:housenumber":"3","addr:street":"Via Alice Hallgarten","caravans":"yes","contact:email":"info@umbriacamp.it","contact:phone":"+393332477794","dog":"yes","fee":"yes","fixme":"mappatura area imprecisa","motorhome":"yes","name":"Umbria Camp","power_supply":"yes","power_supply:maxcurrent":"6","socket:cee_blue":"yes","tents":"yes","website":"https://www.umbriacamp.it"}},"2329567527":{"location":[43.5551496,12.1237571],"ct":"IT","tp":"CS","ts":"2023-11-11T09:30:37Z","tX":546,"tY":374,"tags":{"addr:housenumber":"1150","addr:postcode":"50237","addr:street":"Via del Tevere","name":"Podere Violino","phone":"+39 0575 720174","website":"https://www.podereviolino.it/"}},"2520821369":{"location":[43.538854,12.0529667],"ct":"IT","tp":"CR","ts":"2016-09-19T10:20:00Z","tX":546,"tY":374,"tags":{"fee":"no","sanitary_dump_station":"yes","toilets":"no"}},"4942795524":{"location":[43.5364427,12.0511343],"ct":"IT","tp":"CS","ts":"2023-09-24T10:20:48Z","tX":546,"tY":374,"tags":{"addr:housenumber":"8","addr:postcode":"52031","addr:street":"Via della Fossa","caravans":"yes","email":"info@agriturismovaldellapieve.it","internet_access":"wlan","name":"valle di pieve","name:en":"Agriturismo Val Della Pieve","name:it":"Agriturismo Val Della Pieve","phone":"+39 0575 788593","shower":"yes","tents":"yes","website":"https://www.agriturismovaldellapieve.it/agricampeggio.php"}},"10281828035":{"location":[43.4516636,12.2220948],"ct":"IT","tp":"CS","ts":"2022-12-23T07:57:23Z","tX":546,"tY":374,"tags":{"name":"Umbria Camp","website":"https://www.umbriacamp.it"}},"6083322052":{"location":[43.5699088,12.1367555],"ct":"IT","tp":"CR","ts":"2023-10-31T19:40:30Z","tX":546,"tY":374,"tags":{"addr:city":"Sansepolcro","addr:street":"Viale Alessandro Volta","capacity":"10","description":"Parcheggio misto, divieto di campeggio, rifornimento acqua e scarico acque reflue","fee":"no","internet_access":"no","internet_access:fee":"no","name":"Area sosta camper Sansepolcro","operator":"Comunale","power_supply":"no","sanitary_dump_station":"yes","water_supply":"yes"}},"6797203334":{"location":[43.5719479,12.1404493],"ct":"IT","tp":"SD","ts":"2019-09-15T17:41:53Z","tX":546,"tY":374,"tags":{}},"12830089167":{"location":[43.4521428,12.2229528],"ct":"IT","tp":"SD","ts":"2025-05-12T11:15:58Z","tX":546,"tY":374,"tags":{"access":"customers","fee":"yes","water_point":"yes"}}}