{"26859385":{"location":[43.180278,12.016389],"ct":"IT","tp":"CS","ts":"2007-03-28T17:21:41Z","tX":546,"tY":375,"tags":{"created_by":"JOSM","name":"Badiaccia"}},"26859574":{"location":[43.183333,12.150833],"ct":"IT","tp":"CS","ts":"2007-03-28T17:22:08Z","tX":546,"tY":375,"tags":{"created_by":"JOSM","name":"Kursaal"}},"77019122":{"location":[43.1332682,12.045716],"ct":"IT","tp":"CR","ts":"2021-11-04T16:33:04Z","tX":546,"tY":375,"tags":{"fee":"yes","parking":"surface"}},"174753710":{"location":[43.1235242,12.0504837],"ct":"IT","tp":"CR","ts":"2021-10-26T10:36:27Z","tX":546,"tY":375,"tags":{"fee":"yes","internet_access":"no","sanitary_dump_station":"yes","website":"http://touring24.info?STP=191"}},"176335219":{"location":[43.1348933,12.0434972],"ct":"IT","tp":"CS","ts":"2023-11-11T00:22:42Z","tX":546,"tY":375,"tags":{"addr:city":"Castiglione del Lago","addr:country":"IT","addr:postcode":"06061","addr:street":"Via Lungolago","caravans":"yes","email":"listro@listro.it","fax":"+39 075 951193","internet_access":"wlan","internet_access:fee":"yes","name":"Listro","phone":"+39 075 951193","power_supply":"yes","stars":"3","tents":"yes","website":"https://www.listro.it/"}},"287019503":{"location":[43.1231739,12.1665469],"ct":"IT","tp":"CS","ts":"2020-10-04T05:52:17Z","tX":546,"tY":375,"tags":{"name":"Parco dei Pini"}},"496685471":{"location":[43.0825842,12.1414296],"ct":"IT","tp":"CS","ts":"2023-08-20T14:31:38Z","tX":546,"tY":375,"tags":{"addr:city":"Magione","caravans":"yes","fee":"yes","name":"Polvese","tents":"yes","website":"https://polvese.com/"}},"633274194":{"location":[43.1148139,12.1707566],"ct":"IT","tp":"CR","ts":"2024-09-07T15:36:03Z","tX":546,"tY":375,"tags":{"addr:city":"San Feliciano","addr:housenumber":"28","addr:postcode":"06063","addr:street":"Lungolago A. Alicata8","fee":"yes","internet_access":"no","internet_access:fee":"no","power_supply":"yes","sanitary_dump_station":"yes"}},"659484776":{"location":[43.0882366,12.1548878],"ct":"IT","tp":"CS","ts":"2024-08-23T09:04:48Z","tX":546,"tY":375,"tags":{"access":"permissive","addr:city":"Santâ€™Arcangelo","addr:postcode":"06063","addr:street":"Via Martiri di Cefalonia","caravans":"yes","drinking_water":"yes","email":"camping@italgest.com","fee":"yes","name":"Villaggio Italgest","phone":"+39 075 848238","power_supply":"yes","shower":"yes","tents":"yes","website":"https://www.italgest.com/","wheelchair":"limited"}},"691756388":{"location":[43.1801545,12.1639956],"ct":"IT","tp":"CS","ts":"2019-05-22T19:49:14Z","tX":546,"tY":375,"tags":{"name":"Camping Trasimeno","website":"https://www.camping-trasimeno.it/"}},"691759083":{"location":[43.1846558,12.1453871],"ct":"IT","tp":"CR","ts":"2021-09-22T09:18:53Z","tX":546,"tY":375,"tags":{"dog":"leashed","fee":"yes","internet_access":"yes","name":"L'Airone","phone":"+39 347 6613387","power_supply":"yes","sanitary_dump_station":"yes"}},"864148727":{"location":[43.2730253,11.9876073],"ct":"IT","tp":"CR","ts":"2021-09-14T19:52:25Z","tX":546,"tY":375,"tags":{"capacity":"20","name":"Sosta Camper Cortona","power_supply":"no","sanitary_dump_station":"no"}},"985622060":{"location":[43.1831821,12.1494238],"ct":"IT","tp":"CS","ts":"2023-11-11T00:22:35Z","tX":546,"tY":375,"tags":{"addr:city":"Passignano sul Trasimeno","addr:housenumber":"22","addr:street":"Via Europa","caravans":"yes","dog":"leashed","email":"info@campinglaspiaggia.it","internet_access":"yes","internet_access:fee":"no","name":"La Spiaggia","phone":"+39 075 827246","stars":"2","tents":"yes","website":"https://www.campinglaspiaggia.it/"}},"1004666244":{"location":[43.2494988,12.1460064],"ct":"IT","tp":"CR","ts":"2021-11-20T17:53:47Z","tX":546,"tY":375,"tags":{"addr:city":"Lisciano Niccone","addr:street":"Via della Lebbia","capacity":"6","fee":"no","lit":"yes","power_supply":"yes","sanitary_dump_station":"yes","surface":"compacted"}},"1301931424":{"location":[43.1471583,12.1699284],"ct":"IT","tp":"CS","ts":"2024-09-22T13:31:08Z","tX":546,"tY":375,"tags":{"access":"customers","addr:city":"Monte del Lago","addr:housenumber":"28","addr:postcode":"06063","addr:street":"Strada Torricella","area":"yes","caravans":"yes","email":"info@campingcerquestra.it","fee":"yes","name":"Camping Village Cerquestra","phone":"+39 075 8400100","static_caravans":"yes","tents":"yes","website":"https://www.campingcerquestra.it/"}},"1303874925":{"location":[43.189999,12.0760699],"ct":"IT","tp":"CS","ts":"2024-07-26T11:01:44Z","tX":546,"tY":375,"tags":{"access":"private","bbq":"yes","cabins":"yes","capacity":"200","caravans":"yes","check_date":"2024-07-26","drinking_water":"yes","fee":"yes","group_only":"no","internet_access":"yes","internet_access:fee":"customers","name":"Camping Village Punta Navaccia","power_supply":"yes","reservation":"recommended","shower":"yes","swimming_pool":"yes","tents":"yes","toilets":"yes"}},"1317385895":{"location":[43.14819,12.1690569],"ct":"IT","tp":"CS","ts":"2024-09-22T13:31:08Z","tX":546,"tY":375,"tags":{"name":"Camping Village Cerquestra"}},"1944979207":{"location":[43.1246587,12.1666028],"ct":"IT","tp":"CS","ts":"2020-10-04T05:51:17Z","tX":546,"tY":375,"tags":{"name":"Riva verde"}},"7133526463":{"location":[43.2762315,12.0387468],"ct":"IT","tp":"CS","ts":"2020-01-15T15:50:22Z","tX":546,"tY":375,"tags":{"addr:city":"Montanare","addr:postcode":"52044","addr:street":"Valecchie 49 di Cortona","internet_access":"no","name":"Burciano di Sotto","reservation":"required","website":"https://www.natuurcampingburciano.nl/"}},"6492350227":{"location":[43.1794122,12.1635886],"ct":"IT","tp":"SD","ts":"2019-05-22T19:49:06Z","tX":546,"tY":375,"tags":{}},"9269514370":{"location":[43.2494998,12.1458242],"ct":"IT","tp":"SD","ts":"2021-11-20T17:53:47Z","tX":546,"tY":375,"tags":{"access":"yes","fee":"no","sanitary_dump_station:basin":"no"}},"10121712796":{"location":[43.1237331,12.0509237],"ct":"IT","tp":"SD","ts":"2022-10-22T19:22:59Z","tX":546,"tY":375,"tags":{"access":"yes","fee":"yes","opening_hours":"24/7"}}}