{"12702793":{"location":[42.0821782,12.2285829],"ct":"IT","tp":"CS","ts":"2021-05-12T12:32:25Z","tX":546,"tY":379,"tags":{"name":"Il Pioppo"}},"12768241":{"location":[42.139336,12.2850607],"ct":"IT","tp":"CS","ts":"2024-09-08T10:31:03Z","tX":546,"tY":379,"tags":{"addr:city":"Trevignano Romano","addr:housenumber":"13","addr:postcode":"00069","addr:street":"Lungolago di Polline","email":"info@campingsmeraldo.com","fee":"yes","name":"Camping Smeraldo","payment:cash":"yes","payment:mastercard":"yes","payment:visa":"yes","phone":"+39069985298","power_supply":"yes","power_supply:maxcurrent":"4;6","socket:cee_blue":"yes","website":"https://www.campingsmeraldo.com/"}},"12796334":{"location":[42.2492083,12.0610749],"ct":"IT","tp":"CR","ts":"2024-01-23T11:30:32Z","tX":546,"tY":379,"tags":{"addr:city":"Barbarano Romano","addr:country":"IT","addr:postcode":"01010","addr:street":"Viale Santa Barbara","alt_name":"Strada provinciale Barbaranese","capacity:disabled":"yes","fee":"no","lit":"yes","name":"Bandita","opening_hours":"24/7","parking":"surface","power_supply":"no","smoothness":"good","supervised":"no","surface":"asphalt"}},"13441872":{"location":[42.1302233,12.1735901],"ct":"IT","tp":"CS","ts":"2021-11-15T11:52:57Z","tX":546,"tY":379,"tags":{"caravans":"yes","dog":"yes","internet_access":"wlan","internet_access:fee":"yes","name":"Roma Flash","power_supply":"yes","stars":"3","tents":"yes"}},"14349538":{"location":[42.0928662,12.1948514],"ct":"IT","tp":"CS","ts":"2023-02-02T22:14:52Z","tX":546,"tY":379,"tags":{"access":"private","addr:city":"Bracciano","addr:housenumber":"25","addr:street":"Via San Celso","leisure":"summer_camp","name":"Base Scout Agesci","operator":"AGESCI","operator:type":"association"}},"17428760":{"location":[42.2174108,12.1274124],"ct":"IT","tp":"CS","ts":"2024-04-04T18:01:40Z","tX":546,"tY":379,"tags":{"access":"permit","caravans":"no","drinking_water":"yes","name":"B.-P.-Park","phone":"+39 329 322 6923;+39 337 792 815;+39 333 341 1811","power_supply":"yes","scout":"yes","shower":"yes","start_date":"1990-01-01","tents":"yes","toilets":"yes","website":"http://www.bppark.it/"}},"118647668":{"location":[42.1197408,12.1756155],"ct":"IT","tp":"CS","ts":"2024-09-13T11:01:28Z","tX":546,"tY":379,"tags":{"barrier":"fence","bbq":"yes","cabins":"yes","caravans":"yes","dog":"yes","email":"info@campingazzurro.it","fee":"yes","internet_access":"yes","internet_access:fee":"no","motorhome":"yes","name":"Camping Azzurro","payment:cash":"yes","payment:credit_cards":"yes","payment:debit_cards":"yes","phone":"+39 - 0699805846","power_supply":"yes","socket:cee_blue":"yes","tents":"yes","website":"https://www.campingazzurro.it/"}},"128116694":{"location":[42.1212763,12.2826864],"ct":"IT","tp":"CS","ts":"2024-04-05T09:48:11Z","tX":546,"tY":379,"tags":{"addr:city":"Anguillara Sabazia","addr:housenumber":"75","addr:postcode":"00061","addr:street":"Lungolago di Polline","caravans":"yes","drinking_water":"yes","internet_access":"wlan","name":"Parco del Lago","note":"Camping, Bungalow, mobilehomes. Lodge tent","operator":"Lupercalia s.r.l.","phone":"+39 0699802003","power_supply":"yes","sanitary_dump_station":"yes","shower":"yes","tents":"yes","toilets":"yes","website":"https://www.parcodellago.com/","wheelchair":"yes"}},"128508293":{"location":[42.1089207,12.1781597],"ct":"IT","tp":"CR","ts":"2024-09-07T21:02:19Z","tX":546,"tY":379,"tags":{"addr:housenumber":"25","addr:street":"Via del Lago","capacity":"50","email":"nfo@futuralagoparking.eu","fee":"yes","name":"Le Mimose","opening_hours":"24/7","power_supply":"yes","sanitary_dump_station":"customers","socket:cee_blue":"yes","website":"http://www.futuralagoparking.eu/"}},"177109278":{"location":[42.1058769,12.1873321],"ct":"IT","tp":"CS","ts":"2024-09-07T20:41:44Z","tX":546,"tY":379,"tags":{"addr:city":"Bracciano","addr:country":"IT","addr:postcode":"00062","addr:street":"Via del Porticciolo","caravans":"yes","dog":"yes","email":"info@porticciolo.it","fax":"+39 06 99803030","internet_access":"wlan","name":"Camping Porticciolo","phone":"+39 06 998060","power_supply":"yes","power_supply:maxcurrent":"4;6","socket:cee_blue":"yes","stars":"3","tents":"yes","website":"https://www.porticciolo.it/","wheelchair":"no"}},"370727751":{"location":[42.1660242,12.1400664],"ct":"IT","tp":"CR","ts":"2024-03-30T11:35:41Z","tX":546,"tY":379,"tags":{"addr:city":"Oriolo Romano","addr:country":"IT","addr:postcode":"01010","addr:street":"Via degli Artigiani","barrier":"fence","fee":"no","fence_type":"metal","lit":"yes","name":"Area camper Stazione Oriolo Romano","opening_hours":"24/7","power_supply":"yes","sanitary_dump_station":"yes","supervised":"no","surface":"asphalt","water_point":"yes"}},"1308834127":{"location":[42.2832931,12.2164807],"ct":"IT","tp":"CR","ts":"2024-09-09T06:17:47Z","tX":546,"tY":379,"tags":{"addr:city":"Ronciglione","addr:postcode":"01037","addr:street":"Via San Giovanni","capacity":"28","name":"Area Camper \"Raffaele Soldini\"","sanitary_dump_station":"yes","water_supply":"running_water"}},"1309089978":{"location":[42.1594839,12.2264246],"ct":"IT","tp":"CS","ts":"2024-08-20T17:33:00Z","tX":546,"tY":379,"tags":{"caravans":"yes","fee":"yes","name":"Blue Lake Camper","static_caravans":"no","tents":"no"}},"1314136130":{"location":[42.1455402,12.2684574],"ct":"IT","tp":"CS","ts":"2024-09-08T10:31:03Z","tX":546,"tY":379,"tags":{"addr:city":"Trevignano Romano","addr:housenumber":"4","addr:street":"via del Pianoro","cabins":"yes","caravans":"yes","drinking_water":"yes","dryer":"yes","email":"info@campingvillagebracciano.com","internet_access":"wlan","name":"Camping Internazionale","phone":"+39 06 9985032","power_supply":"yes","power_supply:maxcurrent":"6;10","sanitary_dump_station":"yes","shower":"yes","socket:cee_blue":"yes","tents":"yes","toilets":"yes","toilets:wheelchair":"yes","washing_machine":"yes","website":"https://www.campingvillagebracciano.com/","wheelchair":"limited"}},"1314138056":{"location":[42.0803006,12.2351424],"ct":"IT","tp":"CS","ts":"2024-09-08T10:47:24Z","tX":546,"tY":379,"tags":{"caravans":"yes","dog":"yes","fee":"yes","motorhome":"yes","name":"Camping Vigna di Valle","phone":"+39 06.9968645","power_supply":"yes","socket:cee_blue":"yes","static_caravans":"yes","tents":"yes","website":"https://campingvignadivalle.com/"}},"8423200156":{"location":[42.1837525,12.1328994],"ct":"IT","tp":"CS","ts":"2023-04-01T08:21:18Z","tX":546,"tY":379,"tags":{"addr:housenumber":"15","addr:street":"Strada della Castellia","caravans":"yes","description":"Garden Share - Ospitalit√† familiare tende e casetta","motorhome":"yes","name":"Lacastellina15","phone":"+39 3519167433","shower":"yes","tents":"yes","toilets":"yes","website":"https://www.lacastellina15.com/"}},"6845152620":{"location":[42.1839396,12.1327928],"ct":"IT","tp":"CR","ts":"2023-11-06T06:36:24Z","tX":546,"tY":379,"tags":{"addr:city":"Oriolo Romano","addr:country":"IT","addr:housenumber":"15","addr:postcode":"01010","addr:street":"Strada della Castellina","email":"lacastellina15@gmail.com","fee":"yes","internet_access":"yes","internet_access:fee":"no","name":"Lacastellina15","phone":"+39 335 585 2133","power_supply":"no","sanitary_dump_station":"no","tents":"yes","website":"https://www.lacastellina15.com/","wheelchair":"no"}},"12164924201":{"location":[42.2833537,12.2167926],"ct":"IT","tp":"SD","ts":"2024-09-09T06:17:47Z","tX":546,"tY":379,"tags":{"sanitary_dump_station":"yes","water_point":"yes"}}}