{"611237434":{"location":[41.954683,12.0596401],"ct":"IT","tp":"CR","ts":"2024-09-18T09:37:37Z","tX":546,"tY":380,"tags":{"fee":"yes","name":"Rimessaggio Sosta Camper Il covo","phone":"+39 06 99220520","power_supply":"yes","socket:cee_blue":"yes"}},"1316339236":{"location":[41.9578374,12.051127],"ct":"IT","tp":"CR","ts":"2024-09-18T09:52:37Z","tX":546,"tY":380,"tags":{"addr:housenumber":"139","addr:street":"Via Roma","dog":"leashed","fee":"yes","name":"Sosta Camper Riva di Ponente","phone":"+39 338 2594449","power_supply":"yes","sanitary_dump_station":"yes","shower":"yes","socket:cee_blue":"yes","toilets":"yes"}},"1316341590":{"location":[41.9572878,12.0532262],"ct":"IT","tp":"CS","ts":"2024-09-18T09:51:52Z","tX":546,"tY":380,"tags":{"addr:city":"Ladispoli","addr:housenumber":"125/129","addr:postcode":"00055","addr:street":"Via Roma","caravans":"yes","contact:whatsapp":"+39 329 5878 521","email":"camping@gothabeach.it","fee":"yes","motorhome":"yes","name":"Camping Gotha Beach","phone":"+39 329 5878 521","power_supply":"yes","power_supply:maxcurrent":"6","reservation":"yes","socket:cee_blue":"yes","washing_machine":"yes","website":"https://www.gothabeach.it/camping/"}},"11055510507":{"location":[41.7903132,12.2233545],"ct":"IT","tp":"CS","ts":"2023-07-20T09:50:11Z","tX":546,"tY":380,"tags":{"backcountry":"yes","impromptu":"yes"}},"12183680651":{"location":[41.9575265,12.0540826],"ct":"IT","tp":"SD","ts":"2024-09-18T09:51:52Z","tX":546,"tY":380,"tags":{"fee":"yes","water_point":"yes"}}}