{"709679903":{"location":[39.5586694,-107.2923442],"ct":"US","tp":"CS","ts":"2019-08-01T15:20:49Z","tX":206,"tY":389,"tags":{"addr:city":"Glenwood Springs","addr:housenumber":"1308","addr:postcode":"81601","addr:state":"CO","addr:street":"County Road 129","cabins":"yes","caravans":"yes","name":"Glenwood Canyon Resort","phone":"+1 970 9456737","tents":"yes","website":"https://www.glenwoodcanyonresort.com/"}},"6486767085":{"location":[39.6000917,-107.5553579],"ct":"US","tp":"CS","ts":"2020-10-09T19:16:16Z","tX":206,"tY":389,"tags":{"name":"Elk Creek Campground"}},"11175057563":{"location":[39.5884093,-107.3201426],"ct":"US","tp":"CS","ts":"2023-09-07T17:10:11Z","tX":206,"tY":389,"tags":{"backcountry":"yes"}},"11175057568":{"location":[39.5917677,-107.3191384],"ct":"US","tp":"CS","ts":"2023-09-07T17:10:11Z","tX":206,"tY":389,"tags":{"backcountry":"yes"}},"11175057576":{"location":[39.5864807,-107.3109484],"ct":"US","tp":"CS","ts":"2023-09-07T17:10:11Z","tX":206,"tY":389,"tags":{"backcountry":"yes"}},"11175057618":{"location":[39.5786196,-107.3128787],"ct":"US","tp":"CS","ts":"2023-09-07T17:10:11Z","tX":206,"tY":389,"tags":{"backcountry":"yes"}}}