{"369378366":{"location":[60.8321748,24.8193511],"ct":"FI","tp":"CR","ts":"2019-09-29T04:37:39Z","tX":582,"tY":292,"tags":{"name":"Caravan Storage Area","operator":"SFC Vantaan Talli ry"}},"729438594":{"location":[60.8313227,24.8184979],"ct":"FI","tp":"CR","ts":"2024-02-08T06:20:16Z","tX":582,"tY":292,"tags":{"addr:city":"Turkhauta","addr:housenumber":"146","addr:postcode":"12350","addr:street":"Heinäjoentie","capacity":"100","electricity":"yes","name":"SFC Vantaan Talli ry"}},"1269035889":{"location":[60.8393954,24.6931098],"ct":"FI","tp":"CS","ts":"2024-04-05T11:10:51Z","tX":582,"tY":292,"tags":{}},"3119212381":{"location":[60.8317173,24.8189774],"ct":"FI","tp":"CS","ts":"2022-05-19T18:16:13Z","tX":582,"tY":292,"tags":{"addr:city":"Turkhauta","addr:housenumber":"146","addr:postcode":"12350","addr:street":"Heinäjoentie","name":"SFC Vantaan Talli","operator":"SF-Caravan Vantaa ry","phone":"+358 50 522 3902","source":"http://www.sfc-vantaa.fi/index.html","website":"http://www.sfc-vantaa.fi/index.html"}},"9114090798":{"location":[60.8391668,24.6925884],"ct":"FI","tp":"CR","ts":"2021-09-22T15:11:33Z","tX":582,"tY":292,"tags":{"addr:city":"Leppäkoski","addr:housenumber":"788","addr:postcode":"12380","addr:street":"Leppäkoskentie","email":"hameenhelmi@hameenhelmi.com","name":"SFC Hämeenhelmi","operator":"SF-Caravan Ydin-Häme ry","phone":"+358400898792","website":"https://hameenhelmi.com/"}},"7097898953":{"location":[60.8316739,24.8178109],"ct":"FI","tp":"SD","ts":"2019-12-31T09:44:28Z","tX":582,"tY":292,"tags":{}}}