{"970963550":{"location":[46.2335075,24.8025168],"ct":"RO","tp":"CS","ts":"2021-08-06T16:04:32Z","tX":582,"tY":363,"tags":{"backcountry":"yes","barrier":"fence","drinking_water":"yes","group_only":"no","internet_access":"no","nudism":"no","reservation":"yes","shower":"yes","tents":"yes","toilets":"yes","wheelchair":"yes"}},"1110605199":{"location":[46.2234962,24.7970821],"ct":"RO","tp":"CS","ts":"2023-11-24T17:59:45Z","tX":582,"tY":363,"tags":{"check_date":"2022-08-20","fee":"yes","name":"Camping Aquaris","payment:cash":"yes","payment:mastercard":"yes","payment:visa":"yes","power_supply":"yes","website":"https://aquariscamp.net/"}},"7849735375":{"location":[46.2166937,24.663415],"ct":"RO","tp":"CS","ts":"2020-08-27T11:56:33Z","tX":582,"tY":363,"tags":{"name":"Camping Transylvanian"}},"9047191618":{"location":[46.13936,24.7893314],"ct":"RO","tp":"CS","ts":"2022-06-09T06:01:05Z","tX":582,"tY":363,"tags":{"addr:postcode":"547040","addr:street":"111, Şaeş","internet_access":"wlan","name":"Camping Curtea Larga"}},"10961522051":{"location":[46.1611827,24.6622348],"ct":"RO","tp":"CS","ts":"2023-06-07T12:54:45Z","tX":582,"tY":363,"tags":{"email":"contact@labubuintransilvania.ro","name":"La Bubu în Transilvania","phone":"+40 728289268","website":"http://labubuintransilvania.ro/"}},"11020497005":{"location":[46.1611244,24.6621381],"ct":"RO","tp":"CS","ts":"2023-07-02T15:31:19Z","tX":582,"tY":363,"tags":{"addr:housenumber":"28","addr:postcode":"551118","addr:street":"Sat Floresti","email":"contact@labubuintransilvania.ro","internet_access":"wlan","name:en":"La Bubu in Transilvania","website":"http://www.labubuintransilvania.ro"}},"5750763522":{"location":[46.2230502,24.7963866],"ct":"RO","tp":"CR","ts":"2023-11-24T17:59:44Z","tX":582,"tY":363,"tags":{"check_date":"2022-08-20","internet_access":"wlan","internet_access:fee":"no","name:de":"Camping Aquarius","payment:cash":"yes","payment:contactless":"yes","payment:mastercard":"yes","payment:visa":"yes","power_supply":"yes","website":"https://aquariscamp.net/"}}}