{"178154896":{"location":[53.5415662,20.6749613],"ct":"PL","tp":"CS","ts":"2018-01-07T19:28:47Z","tX":570,"tY":330,"tags":{"addr:city":"Dłużek","addr:housenumber":"14","addr:postcode":"12-122","addr:street":"Jaśminowa","alt_name":"Pole Namiotowe Dłużek nr 135","backcountry":"yes","caravans":"yes","email":"biuro@camping-dluzek.pl","name":"Camping Dłużek nr 135","phone":"+48 791 803 583","tents":"yes","website":"http://camping-dluzek.pl"}},"531885261":{"location":[53.5770971,20.603612],"ct":"PL","tp":"CS","ts":"2023-10-30T05:16:00Z","tX":570,"tY":330,"tags":{"fee":"yes","name":"Pole biwakowe Pod Sosnami nad jeziorem Gim","opening_hours":"24/7","phone":"+48 604330949","website":"https://butryny.pl/"}},"1569237688":{"location":[53.5752047,20.6047757],"ct":"PL","tp":"CS","ts":"2011-12-30T14:48:51Z","tX":570,"tY":330,"tags":{"name":"Pod Sosnami"}},"2112802110":{"location":[53.5791343,20.5975992],"ct":"PL","tp":"CS","ts":"2020-09-13T09:00:18Z","tX":570,"tY":330,"tags":{"name":"Baza obozowa Hufca Warmińskiego ZHP"}},"4249000895":{"location":[53.5414618,20.4202871],"ct":"PL","tp":"CS","ts":"2016-06-17T19:46:46Z","tX":570,"tY":330,"tags":{"name":"U Szwagra"}},"6582334086":{"location":[53.5712097,20.4753079],"ct":"PL","tp":"CS","ts":"2019-12-10T11:12:50Z","tX":570,"tY":330,"tags":{"addr:housenumber":"50","addr:place":"Ząbie","addr:postcode":"11-015","name":"Ośrodek szkoleniowo-wypoczynkowy ZHR","name:en":"ZHR training and recreation center","operator":"ZHR"}},"9937621310":{"location":[53.5783317,20.5584821],"ct":"PL","tp":"CS","ts":"2022-08-07T16:48:30Z","tX":570,"tY":330,"tags":{}}}