{"11527130":{"location":[48.0650522,20.5956102],"ct":"HU","tp":"CS","ts":"2024-11-11T12:37:17Z","tX":570,"tY":355,"tags":{"addr:postcode":"3557","addr:street":"Hollóstető","contact:email":"info@holloscamping.hu","contact:mobile":"+36 30 369 1099","contact:phone":"+36 46 390 183","contact:website":"https://www.holloscamping.hu/","name":"Hollóstetői Hegyi Kemping","opening_hours":"May 21-Nov 01: Mo-Su 08:00-22:00"}},"259927535":{"location":[48.1221091,20.5249959],"ct":"HU","tp":"CS","ts":"2025-02-27T14:18:31Z","tX":570,"tY":355,"tags":{"addr:postcode":"3517","addr:street":"Bükk- hegység","contact:fax":"+36 46 401 259","email":"turistapark@gmail.com","name":"Turista Park Kemping","phone":"+36 46 401 259;+36 30 382 4490","source":"turistautak.hu","source:date":"2013-12-02","url":"http://turistautak.hu/poi.php?id=15169","website":"https://turistapark.hu/"}},"673039100":{"location":[48.1404915,20.4626115],"ct":"HU","tp":"CS","ts":"2023-12-21T18:06:37Z","tX":570,"tY":355,"tags":{}},"673039129":{"location":[48.1439279,20.4590535],"ct":"HU","tp":"CS","ts":"2023-12-21T18:06:37Z","tX":570,"tY":355,"tags":{"addr:city":"Nagyvisnyó","addr:housenumber":"1","addr:postcode":"3349","addr:street":"Bán-völgye út","beds":"150","contact:email":"info@borokatabor.hu;nagyvisnyoiifjusagitabor@t-online.hu","contact:mobile":"+36 30 983 2403","contact:phone":"+36 36 351 031","contact:website":"https://borokatabor.hu/","name":"Boróka Tábor"}},"673039145":{"location":[48.1472272,20.4526752],"ct":"HU","tp":"CS","ts":"2020-08-17T19:17:54Z","tX":570,"tY":355,"tags":{"email":"kapcsolat@elmenytabor.com","name":"Bánvölgye Tábor","old_name":"Bán-völgyi Ifjúsági Tábor","phone":"+36 70 322 2828","source":"survey","survey:date":"2020-08-15","url":"http://turistautak.hu/poi.php?id=151274","website":"http://www.elmenytabor.com/"}},"1437250039":{"location":[48.0504051,20.52148],"ct":"HU","tp":"CS","ts":"2023-09-21T07:49:15Z","tX":570,"tY":355,"tags":{"caravans":"yes","drinking_water":"yes","name":"Erdei Kemping és Faházak","phone":"+36 70 240 5602","power_supply":"yes","shower":"yes","tents":"yes","toilets":"yes"}},"1656976938":{"location":[48.1598238,20.6109684],"ct":"HU","tp":"CS","ts":"2012-06-17T10:39:41Z","tX":570,"tY":355,"tags":{}},"3437148025":{"location":[48.1145361,20.6567677],"ct":"HU","tp":"CS","ts":"2019-05-23T21:49:20Z","tX":570,"tY":355,"tags":{"description":"A Majáslis parktól nem messze az erdő tövőben lévő cserkésztábor \"bejárata\".","name":"Bodnár Gábor Cserkésztábor","source":"turistautak.hu","source:date":"2011-07-04","url":"http://turistautak.hu/poi.php?id=1640"}},"3484798414":{"location":[48.213187,20.405733],"ct":"HU","tp":"CS","ts":"2023-11-16T17:57:24Z","tX":570,"tY":355,"tags":{"addr:city":"Borsodbóta","addr:housenumber":"181","addr:postcode":"3658","addr:street":"Rákóczi utca","contact:fax":"+36 48 438 468","email":"info@campingamedi.hu","name":"Amedi Kemping","phone":"+36 48 438 468","source":"turistautak.hu","source:date":"2013-08-20","url":"http://turistautak.hu/poi.php?id=15058","website":"http://www.campingamedi.hu"}},"6496372365":{"location":[48.1144475,20.654875],"ct":"HU","tp":"CS","ts":"2019-05-23T21:49:19Z","tX":570,"tY":355,"tags":{}}}