{"269570985":{"location":[46.8639612,20.5300734],"ct":"HU","tp":"CS","ts":"2022-12-11T14:14:55Z","tX":570,"tY":360,"tags":{"addr:postcode":"5540","addr:street":"Erzsébet Liget","contact:email":"info@szarvas.camp","contact:facebook":"szarvascamp","contact:phone":"+36 66 313 277","contact:website":"https://www.szarvastabor.hu/","name":"Szarvasi Nemzetközi Zsidó Ifjúsági Tábor","name:en":"Szarvas International Jewish Youth Camp","operator":"JDC Magyarország Alapítvány","source":"turistautak.hu","url":"http://turistautak.hu/poi.php?id=17474"}},"283842218":{"location":[46.8603167,20.5387219],"ct":"HU","tp":"CS","ts":"2024-07-30T04:52:09Z","tX":570,"tY":360,"tags":{"name":"Liget kemping"}},"283842219":{"location":[46.8604457,20.5362488],"ct":"HU","tp":"CS","ts":"2025-03-10T22:02:26Z","tX":570,"tY":360,"tags":{"addr:city":"Szarvas","addr:postcode":"5540","addr:street":"Erzsébet Liget","contact:fax":"+36 66 216 141","email":"info@ligetszarvas.hu","fee":"yes","name":"Liget Wellness és Konferencia Hotel","payment:american_express":"yes","payment:cash":"yes","payment:diners_club":"yes","payment:maestro":"yes","payment:mastercard":"yes","payment:visa":"yes","phone":"+36 66 311 954","source":"turistautak.hu","url":"http://turistautak.hu/poi.php?id=15211","website":"https://ligetszarvas.hu/"}},"920565645":{"location":[46.8619907,20.5299048],"ct":"HU","tp":"CS","ts":"2023-11-20T10:14:18Z","tX":570,"tY":360,"tags":{"beds":"52","contact:phone":"+36 70 709 2577","name":"Pedagógusüdülő","rooms":"13"}},"4017893403":{"location":[46.864182,20.529415],"ct":"HU","tp":"CS","ts":"2020-04-13T14:33:10Z","tX":570,"tY":360,"tags":{"addr:postcode":"5540","addr:street":"Erzsébet Liget","fixme":"duplicated POI & multipoly","name":"Lauder-Joint Camping","phone":"+36 66 313 277","source":"turistautak.hu","url":"http://turistautak.hu/poi.php?id=17474"}},"11913927239":{"location":[46.8911371,20.5019098],"ct":"HU","tp":"CS","ts":"2024-05-17T18:19:33Z","tX":570,"tY":360,"tags":{"capacity":"20","caravans":"yes","fee":"no","internet_access":"no","opening_hours":"24/7","reservation":"no","tents":"yes"}},"11913927240":{"location":[46.891401,20.5031115],"ct":"HU","tp":"CS","ts":"2024-05-17T18:19:33Z","tX":570,"tY":360,"tags":{"capacity":"20","caravans":"yes","fee":"no","internet_access":"no","opening_hours":"24/7","reservation":"no","tents":"yes"}},"11913927241":{"location":[46.8917713,20.5047154],"ct":"HU","tp":"CS","ts":"2024-05-17T18:19:33Z","tX":570,"tY":360,"tags":{"capacity":"20","caravans":"yes","fee":"no","internet_access":"no","opening_hours":"24/7","reservation":"no","tents":"yes"}}}