{"514257368":{"location":[41.1549412,20.650969],"ct":"MK","tp":"CS","ts":"2021-04-07T08:37:39Z","tX":570,"tY":383,"tags":{"name":"Camping Rino 1"}},"514257369":{"location":[41.1561079,20.6506358],"ct":"MK","tp":"CS","ts":"2017-08-09T14:34:24Z","tX":570,"tY":383,"tags":{"name":"Camping Rino 2"}},"672181882":{"location":[41.1708981,20.7166455],"ct":"MK","tp":"CR","ts":"2019-02-22T11:06:30Z","tX":570,"tY":383,"tags":{"name":"АС Струга"}},"696944270":{"location":[41.051317,20.6415816],"ct":"AL","tp":"CS","ts":"2023-05-18T19:17:50Z","tX":570,"tY":383,"tags":{"contact:facebook":"https://www.facebook.com/pages/category/Beach/Camping-ERLIN-BEACH-338485189609918/","landuse":"grass","name":"Camping Beach Erlin","phone":"+355 68 406 6666"}},"3750826784":{"location":[40.9987841,20.6361194],"ct":"AL","tp":"CR","ts":"2022-09-22T21:49:10Z","tX":570,"tY":383,"tags":{"internet_access":"wlan","name":"Camping Rei","sanitary_dump_station":"yes","toilets":"yes","toilets:wheelchair":"no"}},"4435035191":{"location":[41.1606721,20.6503978],"ct":"MK","tp":"CS","ts":"2023-11-05T01:55:49Z","tX":570,"tY":383,"tags":{"addr:postcode":"6330","addr:street":"Kalista","email":"campingsunrise.eu@gmail.com","internet_access":"wlan","name":"Sunrise","opening_hours":"24/7","operator":"Dutch Alliance","phone":"+38972586966","website":"https://www.campingsunrise.eu/"}},"5670080623":{"location":[41.1512525,20.6512326],"ct":"MK","tp":"CS","ts":"2018-06-06T17:29:35Z","tX":570,"tY":383,"tags":{"addr:postcode":"6330","addr:street":"Kalista","email":"emitanaskoska@gmail.com","internet_access":"wlan","name":"Camping Lakeside","opening_hours":"24/7","operator":"Emilija Tanaskoska","phone":"+38978271491","website":"https://www.facebook.com/lakeside.mk/"}},"5996037201":{"location":[41.1513926,20.6512019],"ct":"MK","tp":"CS","ts":"2018-10-18T16:24:22Z","tX":570,"tY":383,"tags":{"name":"Camping Lakeside"}},"10908105008":{"location":[41.1128328,20.6362539],"ct":"MK","tp":"CS","ts":"2023-05-18T11:19:36Z","tX":570,"tY":383,"tags":{"internet_access":"wlan","internet_access:fee":"customers","name":"Lakeside 2","survey:date":"2023-05-17"}},"11013862105":{"location":[41.1636494,20.6516772],"ct":"MK","tp":"CS","ts":"2023-06-29T12:10:33Z","tX":570,"tY":383,"tags":{"internet_access":"wlan","name:en":"Camping Lira"}},"4948953621":{"location":[41.1257626,20.6409894],"ct":"MK","tp":"CR","ts":"2017-07-03T13:48:54Z","tX":570,"tY":383,"tags":{"name:en":"Camping Livadista"}},"4394588728":{"location":[41.0681689,20.6296912],"ct":"AL","tp":"CS","ts":"2025-02-17T20:37:47Z","tX":570,"tY":383,"tags":{"addr:street":"SH 3","fee":"yes","name":"Lin","phone":"+355 695 461 388"}},"5373995182":{"location":[41.0516051,20.6413017],"ct":"AL","tp":"CR","ts":"2019-06-13T15:17:33Z","tX":570,"tY":383,"tags":{"name":"Camping Beach Erlin"}}}