{"14884380":{"location":[50.3212025,-115.8641753],"ct":"CA","tp":"CR","ts":"2023-12-11T03:26:52Z","tX":182,"tY":345,"tags":{"addr:city":"Fairmont Hot Springs","addr:postcode":"V0B 1L1","addr:province":"BC","addr:street":"Spruce Grove Frontage Road","capacity:caravans":"137","caravans":"yes","fee":"yes","internet_access":"wlan","laundry":"yes","name":"Spruce Grove RV Park and Campground","power_supply":"yes","sanitary_dump_station":"yes","shower":"yes","tents":"yes","toilets":"yes","website":"https://www.fairmonthotsprings.com/rv/spruce-grove-campground"}},"510061592":{"location":[50.4590089,-115.9901443],"ct":"CA","tp":"CS","ts":"2022-11-13T15:12:00Z","tX":182,"tY":345,"tags":{"name":"Shadybrook Resort","source":"NRCan-CanVec-10.0"}},"762921269":{"location":[50.3103307,-115.8878338],"ct":"CA","tp":"CR","ts":"2023-12-11T05:22:32Z","tX":182,"tY":345,"tags":{"addr:city":"Fairmont Hot Springs","addr:housenumber":"5398","addr:postcode":"V0B 1L1","addr:province":"BC","addr:street":"BC 93","fixme":"Needs survey","name":"Hoodoo Mountain Resort","phone":"+1-250-341-5089","website":"https://www.facebook.com/groups/225569644217944"}},"1112713444":{"location":[50.4754085,-115.9842533],"ct":"CA","tp":"CR","ts":"2022-11-13T15:12:00Z","tX":182,"tY":345,"tags":{"name":"Sun Valley RV Park"}},"1230061530":{"location":[50.3251206,-115.8428272],"ct":"CA","tp":"CR","ts":"2024-03-28T18:52:38Z","tX":182,"tY":345,"tags":{"addr:city":"Fairmont Hot Springs","addr:housenumber":"5225","addr:postcode":"V0B 1L1","addr:province":"BC","addr:street":"Fairmont Resort Road","capacity:caravans":"190","caravans":"yes","email":"resinfo@fairmonthotsprings.com","fee":"yes","internet_access":"wlan","internet_access:fee":"customers","large_vehicles":"yes","laundry":"yes","maxlength":"unknown","mobile_reception":"unknown","name":"Fairmont Hot Springs RV Resort","operator":"Fairmont Hot Springs Resort","phone":"+1-250-345-6033","power_supply":"yes","sanitary_dump_station":"yes","shower":"yes","tents":"yes","toilets":"yes","website":"https://www.fairmonthotsprings.com/rv"}},"11931265559":{"location":[50.3257425,-115.8429498],"ct":"CA","tp":"SD","ts":"2024-05-24T17:58:34Z","tX":182,"tY":345,"tags":{"access":"customers","large_vehicles":"yes","mobile_reception":"limited","water_point":"yes"}}}