{"12003082":{"location":[49.369919,-115.8414676],"ct":"CA","tp":"CS","ts":"2023-11-13T23:00:43Z","tX":182,"tY":350,"tags":{"capacity":"111","email":"info@ekparks.com","fee":"yes","internet_access":"no","name":"Moyie Lake Campground","operator":"EK Parks Ltd.","phone":"+1-250-422-3003","power_supply":"no","sanitary_dump_station":"yes","website":"https://www.env.gov.bc.ca/bcparks/explore/parkpgs/moyie_lk/"}},"367166439":{"location":[49.2616273,-115.8464877],"ct":"CA","tp":"CR","ts":"2024-03-28T16:39:47Z","tX":182,"tY":350,"tags":{"access":"private","addr:city":"Moyie","addr:housenumber":"9880","addr:postcode":"V0B 2A0","addr:province":"BC","addr:street":"BC-95","capacity":"unknown","capacity:caravans":"unknown","caravans":"unknown","description":"This is a private resort for leaseholders only. No rentals.","drinking_water":"unknown","email":"eaglesnestrvresort@gmail.com","fee":"yes","informal":"unknown","large_vehicles":"unknown","laundry":"unknown","maxlength":"unknown","name":"Eagle's Nest RV Resort","operator":"Moyie RV Resorts","phone":"+1-250-417-7292","shower":"unknown","tents":"unknown","toilets":"unknown","water_point":"unknown","website":"http://www.moyiervresorts.ca/eaglesnest/location.php"}},"1121228122":{"location":[49.3789975,-115.8390467],"ct":"CA","tp":"CR","ts":"2022-12-12T13:57:43Z","tX":182,"tY":350,"tags":{"name":"Moyie Vista Trailer Resort"}},"3385463574":{"location":[49.3503633,-115.85429],"ct":"CA","tp":"CS","ts":"2024-07-10T12:24:25Z","tX":182,"tY":350,"tags":{"access":"yes","addr:city":"Moyie","addr:province":"BC","addr:street":"Mineral Lake Road","fixme":"Needs survey","informal":"yes","large_vehicles":"discouraged","name":"Mineral Lake Recreation Site","website":"https://www.sitesandtrailsbc.ca/search/search-result.aspx?site=REC2287&type=Site"}},"3385463575":{"location":[49.3624979,-115.859948],"ct":"CA","tp":"CS","ts":"2024-07-10T12:24:25Z","tX":182,"tY":350,"tags":{"access":"yes","addr:city":"Moyie","addr:postcode":"V1C 6X5","addr:province":"BC","addr:street":"Monroe Lake Road","caravans":"yes","description":"A secluded day-use only site with an \"all to yourself feel\" at a small mountain lake","large_vehicles":"discouraged","name":"Monroe Lake Recreation Site","tents":"yes","website":"https://www.sitesandtrailsbc.ca/search/search-result.aspx?site=REC5131&type=Site"}},"4106673801":{"location":[49.3728018,-115.8432055],"ct":"CA","tp":"SD","ts":"2016-04-07T23:20:57Z","tX":182,"tY":350,"tags":{"water_point":"yes"}},"11110482729":{"location":[49.370026,-115.8421665],"ct":"CA","tp":"CR","ts":"2024-06-11T01:49:30Z","tX":182,"tY":350,"tags":{"addr:city":"Moyie","addr:housenumber":"3208","addr:postcode":"BC V0B 2A0","addr:street":"Brana Rd","capacity":"111","email":"camping@ekparks.ca","fee":"yes","internet_access":"no","name":"Moyie Lake Provincial Park Campground","operator":"Parks Canada","phone":"+1 250 422 3003","reservation":"required","sanitary_dump_station":"yes","tents":"yes","website":"https://bcparks.ca/moyie-lake-park/","wheelchair":"yes"}}}