{"164511199":{"location":[36.133711,-115.9598307],"ct":"US","tp":"CR","ts":"2022-01-15T02:09:34Z","tX":182,"tY":401,"tags":{"name":"Lakeside RV Park"}},"331685577":{"location":[36.3089303,-115.6832234],"ct":"US","tp":"CS","ts":"2019-02-17T04:11:03Z","tX":182,"tY":401,"tags":{"name":"McWilliams Campground","operator":"United States Forest Service","website":"https://www.fs.usda.gov/recarea/htnf/recarea/?recid=65190"}},"404563062":{"location":[36.2047105,-115.9723864],"ct":"US","tp":"CR","ts":"2021-12-23T12:35:28Z","tX":182,"tY":401,"tags":{"source":"Bing"}},"404563081":{"location":[36.2041988,-115.9749265],"ct":"US","tp":"CR","ts":"2016-03-19T14:32:12Z","tX":182,"tY":401,"tags":{"source":"Bing"}},"685750946":{"location":[36.2103984,-115.9810581],"ct":"US","tp":"CR","ts":"2023-11-15T02:29:37Z","tX":182,"tY":401,"tags":{"addr:city":"Pahrump","addr:housenumber":"1801","addr:postcode":"89048","addr:state":"NV","addr:street":"East Crawford Way","internet_access":"wlan","internet_access:fee":"customers","name":"Preferred RV Resort","phone":"+1 (800) 445-7840","power_supply":"yes","reservation":"yes","sanitary_dump_station":"yes","website":"https://www.preferredrv.com/"}},"841780765":{"location":[36.1923372,-115.9448172],"ct":"US","tp":"CR","ts":"2024-05-26T15:38:32Z","tX":182,"tY":401,"tags":{"addr:city":"Pahrump","addr:housenumber":"3800","addr:postcode":"89048","addr:state":"NV","addr:street":"East Winery Road","capacity":"139","email":"info@wineridgervresort.com","fee":"yes","internet_access":"wlan","internet_access:fee":"customers","name":"Wine Ridge RV Resort & Cottages","phone":"+1-775-751-7805","power_supply":"yes","sanitary_dump_station":"yes","website":"https://wineridgervresort.com/"}},"987363312":{"location":[36.141884,-115.9610206],"ct":"US","tp":"CR","ts":"2024-04-26T22:40:11Z","tX":182,"tY":401,"tags":{"addr:city":"Pahrump","addr:housenumber":"2810","addr:postcode":"89048","addr:state":"NV","addr:street":"Lorelie Street","name":"RV Ranch Resort"}},"1272491956":{"location":[36.1440691,-115.9683516],"ct":"US","tp":"CR","ts":"2024-04-26T22:32:36Z","tX":182,"tY":401,"tags":{}},"1277702788":{"location":[36.1121928,-115.9392149],"ct":"US","tp":"CR","ts":"2024-04-28T01:21:51Z","tX":182,"tY":401,"tags":{}}}