{"779202418":{"location":[33.3077092,-115.929623],"ct":"US","tp":"CR","ts":"2020-03-08T00:52:22Z","tX":182,"tY":411,"tags":{"addr:city":"Salton City","addr:housenumber":"336","addr:postcode":"92275","addr:state":"CA","addr:street":"Seaview Drive","name":"Seaview Estates Mobile Home & RV Spa & Resort"}},"844057360":{"location":[33.4253716,-115.688014],"ct":"US","tp":"CR","ts":"2020-09-03T19:46:17Z","tX":182,"tY":411,"tags":{"addr:city":"Niland","addr:housenumber":"10595","addr:state":"CA","addr:street":"Hot Mineral Spa Road","name":"Glamis North Hot Springs Resort","website":"https://glamisnorth.com/"}},"844057580":{"location":[33.4234803,-115.680221],"ct":"US","tp":"CR","ts":"2020-09-03T19:48:19Z","tX":182,"tY":411,"tags":{"addr:city":"Niland","addr:housenumber":"10590","addr:state":"CA","addr:street":"Hot Mineral Spa Road","name":"Bashford's Hot Mineral Spa"}},"4059977610":{"location":[33.3282329,-115.9459894],"ct":"US","tp":"CR","ts":"2016-03-14T15:10:41Z","tX":182,"tY":411,"tags":{"addr:city":"Salton City","addr:housenumber":"559","addr:state":"CA","addr:street":"Sea Garden Avenue","name":"West Shores Marina & RV Park"}},"5470352921":{"location":[33.3320895,-115.9506562],"ct":"US","tp":"CS","ts":"2018-03-11T06:43:10Z","tX":182,"tY":411,"tags":{"name":"Palm Beach Dispersed Camp","name:en":"Palm Beach Dispersed Camp"}}}