{"213907932":{"location":[60.0470487,-151.6690547],"ct":"US","tp":"CR","ts":"2024-10-19T04:32:18Z","tX":80,"tY":297,"tags":{"access":"yes","fee":"yes","name":"Ninilchik View Campground","note":"boundary approximate","operator":"Alaska Department of Natural Resources, Division of Parks & Outdoor Recreation","owner":"State of Alaska","source":"stayed there; 2016-06-13 Added extra data based on personal info and Inernet sources","website":"https://dnr.alaska.gov/parks/aspunits/kenai/ninilvwcamp.htm"}},"230281722":{"location":[60.0514991,-151.6481392],"ct":"US","tp":"CR","ts":"2024-10-19T04:32:18Z","tX":80,"tY":297,"tags":{"access":"yes","fee":"yes","name":"Ninilchik River Campground","note":"boundary approximate","operator":"Alaska Department of Natural Resources, Division of Parks & Outdoor Recreation","owner":"State of Alaska","source":"stayed there; 2016-06-13 Added extra data based on personal info and Inernet sources","website":"https://dnr.alaska.gov/parks/aspunits/kenai/ninilvwcamp.htm"}},"355412257":{"location":[60.0235922,-151.5922541],"ct":"US","tp":"CR","ts":"2023-04-30T19:04:34Z","tX":80,"tY":297,"tags":{"addr:city":"Ninilchik","addr:housenumber":"63960","addr:postcode":"99639","addr:state":"AK","addr:street":"Oil Well Road","capacity":"52","fee":"yes","internet_access":"wlan","internet_access:fee":"no","internet_access:ssid":"All Seasons Campground","name":"All Seasons Campground","note":"boundary is approximate","power_supply":"yes","sanitary_dump_station":"yes","toilets":"yes"}},"4296692889":{"location":[60.0325081,-151.701185],"ct":"US","tp":"CR","ts":"2023-06-17T23:42:14Z","tX":80,"tY":297,"tags":{"addr:housenumber":"136","addr:street":"Sterling Highway","fee":"yes","name":"Deep Creek State Recreation Area","operator":"State of Alaska"}},"5464784613":{"location":[60.0464911,-151.6687637],"ct":"US","tp":"SD","ts":"2018-03-08T14:59:08Z","tX":80,"tY":297,"tags":{}}}