{"285899675":{"location":[48.4912798,-122.2222273],"ct":"US","tp":"CR","ts":"2022-11-02T18:17:13Z","tX":164,"tY":353,"tags":{"addr:housenumber":"1001","addr:street":"River Road","capacity":"27","fee":"yes","name":"Riverfront RV Park","opening_hours":"Apr 01-Nov 01, open; Nov 01-Mar 31, off","payment:cash":"no","payment:credit_cards":"yes","power_supply":"yes","website":"https://www.ci.sedro-woolley.wa.us/departments/parks_and_recreation/facilities.php"}},"426702725":{"location":[48.6605371,-122.3184234],"ct":"US","tp":"CR","ts":"2022-05-29T15:13:36Z","tX":164,"tY":353,"tags":{"access":"private","description":"Private camping club","name":"Whatcom Meadows Camping Association","toilets":"yes","website":"https://whatcommeadows.com/"}},"926422992":{"location":[48.5522834,-122.3313565],"ct":"US","tp":"CR","ts":"2024-09-03T02:00:34Z","tX":164,"tY":353,"tags":{"addr:city":"Burlington","addr:housenumber":"6397","addr:postcode":"98233","addr:state":"WA","addr:street":"North Green Road","alt_name":"KOA Campground","brand":"KOA","brand:wikidata":"Q16988635","caravans":"yes","email":"burlingtonkoa@outlook.com","internet_access":"wlan","name":"Burlington / Anacortes KOA","name:en":"KOA","phone":"+1-360-724-5511","power_supply":"yes","sanitary_dump_station":"yes","short_name":"KOA","shower":"yes","tents":"yes","toilets":"yes","website":"https://koa.com/campgrounds/burlington/map/"}},"926979590":{"location":[48.5083244,-122.2452557],"ct":"US","tp":"CR","ts":"2024-07-28T12:34:52Z","tX":164,"tY":353,"tags":{"capacity":"5","charge":"40 USD","fee":"yes"}},"1062741632":{"location":[48.5055965,-122.2641778],"ct":"US","tp":"CR","ts":"2022-05-22T23:06:33Z","tX":164,"tY":353,"tags":{"addr:city":"Sedro-Woolley","addr:housenumber":"22232","addr:postcode":"98284","addr:street":"Cook Road","name":"Gateway RV Park"}},"1070759009":{"location":[48.5767057,-122.3406843],"ct":"US","tp":"CR","ts":"2023-06-06T16:12:14Z","tX":164,"tY":353,"tags":{"capacity":"262","landuse":"commercial","name":"Thousand Trails Mount Vernon RV Campground","website":"https://thousandtrails.com/washington/mount-vernon-rv-campground/"}},"8639278523":{"location":[48.5819243,-122.3382994],"ct":"US","tp":"CR","ts":"2023-06-06T16:12:14Z","tX":164,"tY":353,"tags":{"access":"private","capacity":"27","name":"Friday Creek Campground","operator":"Thousand Trails"}}}