{"117046753":{"location":[38.6257735,-122.2886883],"ct":"US","tp":"CS","ts":"2019-07-26T12:38:48Z","tX":164,"tY":392,"tags":{"acres":"44.3901176152","name":"Putah Canyon Recreation Area Campground"}},"5678599528":{"location":[38.623481,-122.2867714],"ct":"US","tp":"CS","ts":"2019-07-26T11:44:28Z","tX":164,"tY":392,"tags":{"addr:housenumber":"7600","addr:postcode":"94558","addr:street":"Knoxville Road","name":"Camp Site 56-72","phone":"7079669051"}},"5678599529":{"location":[38.6255469,-122.2882966],"ct":"US","tp":"CS","ts":"2019-07-26T11:44:28Z","tX":164,"tY":392,"tags":{"addr:housenumber":"7600","addr:postcode":"94558","addr:street":"Knoxville Road","name":"Camp Site 36-55","phone":"7079669051"}},"5678599530":{"location":[38.6275047,-122.2876207],"ct":"US","tp":"CS","ts":"2019-07-26T11:44:28Z","tX":164,"tY":392,"tags":{"addr:housenumber":"7600","addr:postcode":"94558","addr:street":"Knoxville Road","name":"Camp Site 73-100","phone":"7079669051"}},"5678618221":{"location":[38.6273589,-122.2887532],"ct":"US","tp":"CS","ts":"2019-07-26T11:44:28Z","tX":164,"tY":392,"tags":{"addr:housenumber":"7600","addr:postcode":"94558","addr:street":"Knoxville Road","name":"Camp Site 1-35","phone":"7079669051"}}}