{"401786891":{"location":[38.4945623,-122.0324911],"ct":"US","tp":"CS","ts":"2023-11-18T01:16:16Z","tX":164,"tY":393,"tags":{"access":"yes","description":"Hiker Biker Camping Allowed","fee":"yes","name":"Solano Lake Campground","operator":"Solano County","website":"https://www.solanocounty.com/depts/rm/countypark/maps.asp"}},"414259227":{"location":[38.2777197,-122.249219],"ct":"US","tp":"CS","ts":"2022-03-31T17:20:48Z","tX":164,"tY":393,"tags":{"name":"Skyline Wilderness Park RV Camp Area"}},"414259228":{"location":[38.2774564,-122.2513179],"ct":"US","tp":"CS","ts":"2022-03-31T17:20:48Z","tX":164,"tY":393,"tags":{"name":"Skyline Wilderness Park Tent Camp Area"}},"1149790410":{"location":[38.2953657,-122.276701],"ct":"US","tp":"CR","ts":"2023-06-07T18:54:13Z","tX":164,"tY":393,"tags":{"name":"Napa Valley Expo RV Park"}},"5678635821":{"location":[38.5226739,-122.2137085],"ct":"US","tp":"CS","ts":"2019-02-17T04:59:59Z","tX":164,"tY":393,"tags":{"addr:housenumber":"4290","addr:postcode":"94558","addr:street":"Knoxville Road","email":"spanishflatcamping@gmail.com","name":"Spanish Flat Camp Site","opening_hours":"24/7","phone":"7079660200","website":"https://www.spanishflatcamping.com/"}},"5678638021":{"location":[38.5246463,-122.2185435],"ct":"US","tp":"CS","ts":"2019-02-17T04:59:59Z","tX":164,"tY":393,"tags":{"addr:housenumber":"4290","addr:postcode":"94558","addr:street":"Knoxville Road","email":"spanishflatcamping@gmail.com","name":"Spanish Flat Camp Site Office","opening_hours":"24/7","phone":"7079660200","website":"https://www.spanishflatcamping.com/"}},"5678638621":{"location":[38.5238147,-122.2157002],"ct":"US","tp":"CS","ts":"2019-02-17T05:00:00Z","tX":164,"tY":393,"tags":{"addr:housenumber":"4290","addr:postcode":"94558","addr:street":"Knoxville Road","email":"spanishflatcamping@gmail.com","name":"Spanish Flat Camp Site","opening_hours":"24/7","phone":"7079660200","website":"https://www.spanishflatcamping.com/"}},"5678644821":{"location":[38.5025765,-122.1989304],"ct":"US","tp":"CS","ts":"2018-06-10T00:53:03Z","tX":164,"tY":393,"tags":{"addr:housenumber":"1605","addr:postcode":"94558","addr:street":"Steele Canyon Road","name":"Steele Canyon Camp Site","phone":"7079669179","website":"http://www.lakeberryessacampgrounds.com"}},"5678646622":{"location":[38.511862,-122.2045605],"ct":"US","tp":"CS","ts":"2018-06-10T00:58:37Z","tX":164,"tY":393,"tags":{"addr:postcode":"94558","addr:street":"Steele Resort Road","name":"Lupine Shores Camp Site","phone":"7079669179","website":"http://www.lakeberryessacampgrounds.com"}},"9627184696":{"location":[38.2781716,-122.2535026],"ct":"US","tp":"CS","ts":"2022-03-31T18:15:06Z","tX":164,"tY":393,"tags":{"name":"Skyline Wilderness Park Horse Camp Area"}},"9627084041":{"location":[38.278559,-122.248601],"ct":"US","tp":"SD","ts":"2022-03-31T17:20:48Z","tX":164,"tY":393,"tags":{}}}