{"85586968":{"location":[35.5317138,138.7640782],"ct":"JP","tp":"CS","ts":"2010-11-17T17:09:19Z","tX":906,"tY":403,"tags":{"name":"ban"}},"304632635":{"location":[35.7112004,138.6599865],"ct":"JP","tp":"CS","ts":"2020-01-15T15:05:08Z","tX":906,"tY":403,"tags":{"addr:city":"山梨県山梨市大工１９４６","addr:postcode":"405-0045","name":"パインウッドキャンプ場"}},"482779258":{"location":[35.5830873,138.6397804],"ct":"JP","tp":"CS","ts":"2020-11-10T10:28:13Z","tX":906,"tY":403,"tags":{"area":"yes","name":"黒坂オートキャンプ場 (第一サイト)"}},"482779259":{"location":[35.5830509,138.6418606],"ct":"JP","tp":"CS","ts":"2020-11-10T10:28:13Z","tX":906,"tY":403,"tags":{"area":"yes","name":"黒坂オートキャンプ場 (第二サイト)"}},"839343556":{"location":[35.5293504,138.5198838],"ct":"JP","tp":"CS","ts":"2020-08-21T13:41:06Z","tX":906,"tY":403,"tags":{}},"1393581393":{"location":[35.6603133,138.7301833],"ct":"JP","tp":"CS","ts":"2025-06-09T15:59:00Z","tX":906,"tY":403,"tags":{"camp_site":"basic","name":"ワインの宿 東夢"}},"2572796427":{"location":[35.6726897,138.5885496],"ct":"JP","tp":"CS","ts":"2013-12-09T11:52:24Z","tX":906,"tY":403,"tags":{}},"4421307391":{"location":[35.5076076,138.7635616],"ct":"JP","tp":"CS","ts":"2023-02-03T02:27:27Z","tX":906,"tY":403,"tags":{"name":"大池公園"}},"4844450422":{"location":[35.5100967,138.7618444],"ct":"JP","tp":"CS","ts":"2024-01-30T13:05:44Z","tX":906,"tY":403,"tags":{"name":"ニューブリッチキャンプ場"}},"5752108946":{"location":[35.5299736,138.5192353],"ct":"JP","tp":"CS","ts":"2018-07-10T15:53:10Z","tX":906,"tY":403,"tags":{"name":"四尾連湖 龍雲荘"}},"6031732496":{"location":[35.4727329,138.5750091],"ct":"JP","tp":"CS","ts":"2022-12-21T14:13:35Z","tX":906,"tY":403,"tags":{"name":"浩庵キャンプ場"}},"7738498475":{"location":[35.7084761,138.6485234],"ct":"JP","tp":"CS","ts":"2020-07-23T00:34:32Z","tX":906,"tY":403,"tags":{"name":"ほったらかしキャンプ場"}},"12812385842":{"location":[35.4762759,138.5930443],"ct":"JP","tp":"CS","ts":"2025-05-05T19:57:49Z","tX":906,"tY":403,"tags":{"addr:city":"富士河口湖町","addr:country":"JA","addr:housenumber":"19","addr:place":"本栖大久","addr:postcode":"401-0337","addr:province":"山梨県","contact:email":"motosulakeside@gmail.com","contact:website:ja":"https://motosulakeside.com/","name":"本栖レークサイドキャンプ場","name:en":"Motosu Lakeside Campsite","name:ja":"本栖レークサイドキャンプ場"}},"12812460479":{"location":[35.5028192,138.6849314],"ct":"JP","tp":"CS","ts":"2025-05-05T20:32:33Z","tX":906,"tY":403,"tags":{"addr:city":"富士河口湖町","addr:country":"JA","addr:housenumber":"1003-2","addr:place":"西湖","addr:postcode":"401-0332","addr:province":"山梨県","contact:phone":"+81 555 82 2857","contact:website:ja":"https://saiko-jiyuu.camp/","name":"西湖自由キャンプ場","name:en":"Saiko Jiyū Campsite","name:ja-Hira":"さいこ じゆう キャンプじょう"}}}