{"267164071":{"location":[35.4516351,138.7487608],"ct":"JP","tp":"CS","ts":"2020-08-14T04:37:58Z","tX":906,"tY":404,"tags":{"name":"創造の森　管理棟","source":"GSI/KIBAN 2500;NARO","source_ref":"http://wiki.osm.org/wiki/GSI_KIBAN"}},"484473842":{"location":[35.387493,138.5868413],"ct":"JP","tp":"CS","ts":"2019-09-16T12:36:29Z","tX":906,"tY":404,"tags":{"landuse":"forest","name":"静岡県立朝霧野外活動センター"}},"515962343":{"location":[35.2989561,138.7007097],"ct":"JP","tp":"CS","ts":"2017-08-30T23:38:29Z","tX":906,"tY":404,"tags":{"addr:city":"富士宮市","addr:neighbourhood":"2745","addr:postcode":"418-0011","addr:province":"静岡県","addr:quarter":"粟倉","name":"PICA表富士","phone":"0544-58-6881","website":"https://www.pica-resort.jp/omotefuji/"}},"640260125":{"location":[35.3985896,138.5646719],"ct":"JP","tp":"CS","ts":"2025-05-05T19:06:17Z","tX":906,"tY":404,"tags":{"addr:city":"富士宮市","addr:country":"JP","addr:housenumber":"156","addr:place":"麓","addr:postcode":"418-0109","addr:province":"静岡県","contact:phone":"+81 544 52 2112","contact:website:en":"https://fumotoppara.net/en/","contact:website:ja":"https://fumotoppara.net/","name":"ふもとっぱらキャンプ場","name:en":"Fumotoppara Camp Site"}},"640270539":{"location":[35.3419315,138.5832543],"ct":"JP","tp":"CS","ts":"2023-04-16T09:38:26Z","tX":906,"tY":404,"tags":{"name":"富士山YMCAグローバル・エコ・ヴィレッジ"}},"688134314":{"location":[35.2927244,138.7823955],"ct":"JP","tp":"CS","ts":"2019-05-06T15:02:24Z","tX":906,"tY":404,"tags":{"name":"PICA富士ぐりんぱ　パークエリア"}},"688134794":{"location":[35.2943986,138.7792736],"ct":"JP","tp":"CS","ts":"2019-05-06T13:44:23Z","tX":906,"tY":404,"tags":{"name":"PICA富士ぐりんぱ グリーンエリア"}},"836980702":{"location":[35.4514812,138.7485344],"ct":"JP","tp":"CS","ts":"2020-08-14T04:37:58Z","tX":906,"tY":404,"tags":{"name":"創造の森デイキャンプ場"}},"836980703":{"location":[35.4535963,138.7483602],"ct":"JP","tp":"CS","ts":"2020-08-14T04:37:58Z","tX":906,"tY":404,"tags":{"name":"創造の森 オートキャンプ場"}},"1244553042":{"location":[35.3412284,138.5579093],"ct":"JP","tp":"CS","ts":"2025-05-14T04:36:15Z","tX":906,"tY":404,"tags":{"caravans":"no","contact:phone":"+81 54-452-0155","contact:website":"https://tanukiko.com/","name":"田貫湖ｷｬﾝﾌﾟ場","name:en":"Tanuki Lake Campground","name:fr":"Terrain de camping du lac Tanuki","name:ja-Hira":"たぬきこ ｷｬﾝﾌﾟじょう","name:ja-Latn":"Tanuki-ko kyanpu-ba","tents":"yes"}},"3703088617":{"location":[35.2337708,138.7251809],"ct":"JP","tp":"CS","ts":"2019-11-19T02:13:25Z","tX":906,"tY":404,"tags":{"name":"丸火自然公園東 西グリーンキャンプ場"}},"4843974225":{"location":[35.385681,138.5799251],"ct":"JP","tp":"CS","ts":"2017-05-09T15:33:49Z","tX":906,"tY":404,"tags":{"name":"朝霧オートキャンプ場","name:ja":"朝霧オートキャンプ場"}},"4844721224":{"location":[35.453378,138.5968098],"ct":"JP","tp":"CS","ts":"2022-12-21T14:13:35Z","tX":906,"tY":404,"tags":{"name":"本栖湖スポーツセンター キャンプサイト","name:ja":"本栖湖スポーツセンター"}},"6003548286":{"location":[35.4590117,138.7699771],"ct":"JP","tp":"CS","ts":"2018-10-21T21:30:19Z","tX":906,"tY":404,"tags":{"name":"PICA富士吉田"}},"6174822789":{"location":[35.4574226,138.6006856],"ct":"JP","tp":"CS","ts":"2020-09-19T03:07:45Z","tX":906,"tY":404,"tags":{"name":"本栖湖キャンプ場"}},"7921773421":{"location":[35.4538967,138.568493],"ct":"JP","tp":"CS","ts":"2025-05-05T19:06:17Z","tX":906,"tY":404,"tags":{"addr:city":"身延町","addr:country":"JP","addr:housenumber":"2035","addr:place":"釜額","addr:postcode":"409-3105","addr:province":"山梨県","contact:phone":"+81 556 38 0559","contact:website:ja":"https://www.motosuko.jp/","name":"本栖湖いこいの森キャンプ場","name:en":"Motosuko Ikoinomori Campsite","name:ja-Hira":"もとすこいこいのもりキャンプじょう","opening_hours":"apr - nov"}},"7921773422":{"location":[35.4515906,138.5709453],"ct":"JP","tp":"CS","ts":"2025-05-05T19:06:17Z","tX":906,"tY":404,"tags":{"addr:country":"JP","addr:housenumber":"2926","addr:place":"中ノ倉","addr:postcode":"409-3104","addr:province":"山梨県","contact:email":"info@kouan-motosuko.com","contact:phone":"+81 556 38 0117","contact:website:en":"https://kouan-motosuko.com/en/","contact:website:ja":"https://kouan-motosuko.com/","name":"浩庵テント村","name:en":"Kōan Tent Village","name:ja-Hira":"こうあんテント村"}},"8061962008":{"location":[35.2587786,138.8626433],"ct":"JP","tp":"CS","ts":"2020-10-29T08:18:15Z","tX":906,"tY":404,"tags":{"name":"大野路ファミリーキャンプ場"}},"11756896540":{"location":[35.373315,138.5974995],"ct":"JP","tp":"CS","ts":"2024-03-24T00:08:35Z","tX":906,"tY":404,"tags":{"access":"customers","caravans":"yes","drinking_water":"yes","fee":"yes","name":"井出トマト農園 富士高原トマトフィールド","operator":"井出トマト農園","power_supply":"no","static_caravans":"yes","tents":"yes","toilets":"yes","website":"https://corp.idetomato.com/experience#fujiplateau"}},"11793983471":{"location":[35.4559273,138.8177431],"ct":"JP","tp":"CS","ts":"2024-05-07T04:04:23Z","tX":906,"tY":404,"tags":{"addr:street":"2834 Shibokusa, Oshino, Minamitsuru District, Yamanashi 401-0511, Japon","name":"グランドーム富士忍野","name:en":"Glamping Oshino","name:fr":"Glamp dôme","phone":"+81 50-3198-5844","website":"https://glamping-oshino.com/"}},"12105612575":{"location":[35.359835,138.5597246],"ct":"JP","tp":"CS","ts":"2025-05-05T19:06:17Z","tX":906,"tY":404,"tags":{"addr:city":"富士宮市","addr:country":"JP","addr:housenumber":"2227","addr:place":"井之頭","addr:postcode":"418-0108","addr:province":"静岡県","contact:instagram":"https://www.instagram.com/fuji_camp_village/","contact:website:ja":"https://www.instagram.com/fuji_camp_village/","name":"fuji camp village","survey:date":"2024-08-12"}},"12812338480":{"location":[35.3560939,138.5526636],"ct":"JP","tp":"CS","ts":"2025-05-05T19:06:17Z","tX":906,"tY":404,"tags":{"addr:city":"富士宮市","addr:country":"JP","addr:housenumber":"2350","addr:place":"猪之頭","addr:postcode":"418-0108","addr:province":"静岡県","contact:phone":"+81 0551 45 9025","contact:website:ja":"https://www.kobitto-asagiri.com/","name":"Kobitto Asagiri Camp Field","name:en":"Foresters Village Kobitto Asagiri Camp Field","name:ja":"あさぎりキャンプフィールド"}},"12812338481":{"location":[35.3493035,138.5656656],"ct":"JP","tp":"CS","ts":"2025-05-05T19:06:17Z","tX":906,"tY":404,"tags":{"addr:city":"富士宮市","addr:country":"JP","addr:housenumber":"2131-4","addr:place":"猪之頭","addr:postcode":"418-0108","addr:province":"静岡県","contact:mobile":"+81 90 2345 0125","contact:phone":"+81 0544 66 5230","contact:website:ja":"https://fujiyamaizumi.com/ja/","name":"FUJIYAMA 泉の森 キャンピングフィールドの世界","name:en":"Fujiyama izumi-no-mori camping field","name:ja":"FUJIYAMA 泉の森 キャンピングフィールドの世界"}},"12812338507":{"location":[35.3383434,138.5579503],"ct":"JP","tp":"CS","ts":"2025-05-05T19:06:17Z","tX":906,"tY":404,"tags":{"contact:phone":"+81 544 54 1543","contact:website:ja":"https://tenshinomori.net/","name":"天子の森オートキャンプ場","name:en":"Tenshi-no-mori car campsite","name:ja-Latn":"Tenshi-no-mori Ōtokyanpu-jō"}},"12812594526":{"location":[35.3924048,138.5651506],"ct":"JP","tp":"CS","ts":"2025-05-05T22:00:45Z","tX":906,"tY":404,"tags":{"addr:city":"富士宮市","addr:country":"JA","addr:housenumber":"624-7","addr:place":"麓","addr:postcode":"418-0109","addr:province":"静岡県","contact:phone":"+81 544 21 3955","contact:website:ja":"https://sorairo-camp.jp/","name":"朝霧Camp Base そらいろ","name:en":"Asagiri Camp Base Sorairo","note":"position estimates"}}}