{"228635693":{"location":[-33.2060247,138.6009679],"ct":"AU","tp":"CR","ts":"2019-02-04T04:17:33Z","tX":906,"tY":612,"tags":{"name":"Jamestown Country Retreat Caravan Park","phone":"+61 8 8664 0077","source":"bing"}},"2990353096":{"location":[-33.3247046,138.5482307],"ct":"AU","tp":"CS","ts":"2020-10-25T01:20:43Z","tX":906,"tY":612,"tags":{"name":"Curnows Hut Campsite"}},"2990359804":{"location":[-33.4189758,138.5356737],"ct":"AU","tp":"CS","ts":"2017-09-18T21:23:33Z","tX":906,"tY":612,"tags":{"name":"Bundaleer Tank Campsite"}},"4310441690":{"location":[-33.2761357,138.5552243],"ct":"AU","tp":"CS","ts":"2016-07-19T07:54:06Z","tX":906,"tY":612,"tags":{"name":"start of forest walk","opening_hours":"24/7"}},"12735323141":{"location":[-33.2789308,138.5729502],"ct":"AU","tp":"CS","ts":"2025-04-06T21:31:58Z","tX":906,"tY":612,"tags":{"access":"customers","addr:housenumber":"31","addr:postcode":"5491","addr:state":"SA","addr:street":"Springs Road","addr:suburb":"Bundaleer North","caravans":"yes","fee":"yes","name":"Bundaleer Campground","operator":"Bundaleer Progress Association","phone":"+61 4 2912 9132","tents":"yes","toilets":"yes"}},"12737554523":{"location":[-33.2015887,138.6030794],"ct":"AU","tp":"CS","ts":"2025-04-07T21:16:08Z","tX":906,"tY":612,"tags":{"access":"customers","camp_site":"standard","caravans":"yes","charge":"$10/n at Foodland","drinking_water":"yes","fee":"yes","name":"Robinson Park Motorhome Reserve - s/c only","operator":"Northern Areas Council","shower":"no","tents":"no","toilets":"yes"}}}