{"238181427":{"location":[60.7519185,-137.5215583],"ct":"CA","tp":"CR","ts":"2017-10-09T17:24:19Z","tX":120,"tY":293,"tags":{"addr:housenumber":"km 1635.9","addr:street":"Alaska Highway","name":"Kluane RV Kampground"}},"1294871541":{"location":[60.7538443,-137.5093154],"ct":"CA","tp":"CR","ts":"2024-06-22T00:37:08Z","tX":120,"tY":293,"tags":{"addr:city":"Haines Junction","addr:housenumber":"996","addr:postcode":"Y0B 1L0","addr:province":"YT","addr:street":"Alaska Highway","capacity":"unknown","capacity:caravans":"unknown","caravans":"yes","drinking_water":"unknown","fee":"yes","informal":"no","internet_access":"wlan","large_vehicles":"yes","laundry":"yes","maxlength":"unknown","mobile_reception":"unknown","name":"Kluane Park Inn and RV Park","phone":"+1-867-634-2261","power_supply":"yes","reservation":"unknown","sanitary_dump_station":"yes","shower":"yes","tents":"unknown","toilets":"yes","water_point":"unknown","website":"http://kluaneparkinn.ca"}},"2460353643":{"location":[60.6838914,-137.4919325],"ct":"CA","tp":"CS","ts":"2023-06-08T09:31:01Z","tX":120,"tY":293,"tags":{"name":"Auriol Trail"}}}