{"426648537":{"location":[35.4557002,-97.6554255],"ct":"US","tp":"CR","ts":"2017-06-07T03:50:28Z","tX":234,"tY":404,"tags":{}},"426648538":{"location":[35.4586616,-97.6336949],"ct":"US","tp":"CR","ts":"2022-11-16T03:59:50Z","tX":234,"tY":404,"tags":{"addr:city":"Oklahoma City","addr:housenumber":"720","addr:postcode":"73128","addr:state":"OK","addr:street":"South Rockwell Avenue","name":"Rockwell RV Park & Campground"}},"495242765":{"location":[35.4174579,-97.4868202],"ct":"US","tp":"CR","ts":"2020-11-04T19:27:14Z","tX":234,"tY":404,"tags":{"addr:city":"Oklahoma City","addr:housenumber":"4740","addr:postcode":"73129","addr:state":"OK","addr:street":"South I-35 Service Road","name":"Roadrunner RV Park"}},"523832658":{"location":[35.2169303,-97.6574278],"ct":"US","tp":"CR","ts":"2017-09-11T18:52:01Z","tX":234,"tY":404,"tags":{"name":"A-AAA RV Park"}},"1206037565":{"location":[35.2346812,-97.4397556],"ct":"US","tp":"CR","ts":"2023-09-08T05:06:50Z","tX":234,"tY":404,"tags":{"name":"Cleveland County Fairgrounds RV Park"}},"3649298000":{"location":[35.2335281,-97.4380896],"ct":"US","tp":"CR","ts":"2015-07-13T17:11:42Z","tX":234,"tY":404,"tags":{"name":"Cleveland County Fair RV Site"}}}