{"1241967949":{"location":[32.1230302,-97.4955968],"ct":"US","tp":"CS","ts":"2024-07-30T05:10:40Z","tX":234,"tY":415,"tags":{"caravans":"yes","ele":"170","gnis:feature_id":"1339114","name":"Kimball Bend Park"}},"1274934009":{"location":[32.0682886,-97.4971338],"ct":"US","tp":"CS","ts":"2024-05-08T15:40:29Z","tX":234,"tY":415,"tags":{"ele":"169","gnis:feature_id":"1344259","name":"Plowman Creek Park","operator":"United States Army Corps of Engineers","operator:wikidata":"Q1049334"}},"10047730337":{"location":[32.2053517,-97.6932641],"ct":"US","tp":"CS","ts":"2024-02-08T03:22:34Z","tX":234,"tY":415,"tags":{"addr:city":"Glen Rose","addr:housenumber":"1232-C","addr:postcode":"76043","addr:state":"TX","addr:street":"County Road 411B","name":"Riverbend Retreat Center","operator":"Riverbend Retreat","phone":"+1 888-269-2363","website":"https://www.riverbend.camp/"}},"11419125798":{"location":[32.1739678,-97.4854175],"ct":"US","tp":"SD","ts":"2023-12-15T02:01:45Z","tX":234,"tY":415,"tags":{"charge":"10 USD","fee":"yes"}},"11837622489":{"location":[32.1223218,-97.4969889],"ct":"US","tp":"SD","ts":"2024-04-22T14:13:27Z","tX":234,"tY":415,"tags":{}},"11837721165":{"location":[32.062297,-97.4971971],"ct":"US","tp":"SD","ts":"2024-04-22T14:47:54Z","tX":234,"tY":415,"tags":{}}}