{"940006936":{"location":[31.919479,-97.6578521],"ct":"US","tp":"CR","ts":"2024-04-09T18:34:10Z","tX":234,"tY":416,"tags":{"addr:city":"Meridian","addr:housenumber":"314","addr:postcode":"76665","addr:state":"TX","addr:street":"River Street","barrier":"fence","capacity":"36","check_date":"2024-04-07","ele":"219","fax":"+1-254-435-2806","fee":"yes","name":"Bosque Bottoms RV Park","note":"Many websites link to www.bosquebottomsrv.com as this RV Park's website.  As of this writing, that website is something that appears to be written in Chinese and has nothing to do with this RV Park.  Do not link to it as it may be compromised.","phone":"+1-254-435-6113","power_supply":"yes","reservation":"required","sanitary_dump_station":"yes","shower":"yes","source":"https://txcountyoffices.org/rv-parks/bosque/bosque-bottoms-rv-park-tx/;https://www.campendium.com/bosque-bottoms-rv-park;https://www.campingroadtrip.com/campgrounds/campground/campground/25334/texas/bosque-bottoms-rv-park","start_date":"2012","toilets":"yes"}},"1259959836":{"location":[31.6678614,-97.4650179],"ct":"US","tp":"CR","ts":"2024-03-10T23:48:53Z","tX":234,"tY":416,"tags":{"addr:city":"Valley Mills","addr:postcode":"76689","addr:state":"TX","addr:street":"County Road 3199","name":"Boy Scout Park RV Park","power_supply":"yes","source":"https://experttexan.com/valley-mills-tx/;https://www.vmtx.us/EclipseReservations"}},"1262020954":{"location":[31.7431374,-97.5564439],"ct":"US","tp":"CR","ts":"2024-03-13T01:13:55Z","tX":234,"tY":416,"tags":{"addr:city":"Clifton","addr:housenumber":"3701","addr:postcode":"76634","addr:state":"TX","addr:street":"TX 6","check_date":"2024-03-12","email":"cliftonrvpark@gmail.com","internet_access":"wlan","internet_access:fee":"customers","laundry":"yes","name":"Clifton RV Park","power_supply":"yes","website":"https://cliftonrvpark.com/"}},"1263564901":{"location":[31.787572,-97.5774964],"ct":"US","tp":"CR","ts":"2024-03-17T20:32:17Z","tX":234,"tY":416,"tags":{"addr:city":"Clifton","addr:housenumber":"403","addr:postcode":"76634","addr:state":"TX","addr:street":"Hackberry Street","capacity":"22","contact:facebook":"https://www.facebook.com/HackberryAcresRVPark/","email":"info@hackberryacresrvpark.com","internet_access":"wlan","internet_access:fee":"customers","name":"Hackberry Acres RV Park","phone":"+1-254-633-3363","power_supply":"yes","sanitary_dump_station":"yes","start_date":"2020","website":"https://hackberryacresrvpark.com/"}},"1270459840":{"location":[31.9140905,-97.6646596],"ct":"US","tp":"CR","ts":"2024-04-06T22:54:01Z","tX":234,"tY":416,"tags":{"addr:city":"Meridian","addr:housenumber":"9307","addr:postcode":"76665","addr:state":"TX","addr:street":"Texas State Highway 6","area":"yes","check_date":"2024-04-06","fax":"+1-254-435-6115","internet_access":"wlan","internet_access:fee":"customers","laundry":"yes","name":"American Inn & RV Park","pets":"yes","phone":"+1-254-435-2851","power_supply":"yes","website":"https://www.americaninnmeridiantx.com/"}},"1274430061":{"location":[31.9405329,-97.4014023],"ct":"US","tp":"CS","ts":"2024-04-20T15:04:02Z","tX":234,"tY":416,"tags":{}}}