{"1190072434":{"location":[31.4436428,-97.4152204],"ct":"US","tp":"CR","ts":"2024-02-28T22:36:23Z","tX":234,"tY":417,"tags":{"addr:city":"McGregor","addr:housenumber":"711","addr:postcode":"76657","addr:state":"TX","addr:street":"West McGregor Drive","name":"Atria Hotel and RV McGregor","phone":"+1-254-840-0444","website":"https://www.magnusonhotels.com/hotel/atria-hotel-and-rv-mcgregor/"}},"1239520365":{"location":[31.4317729,-97.7303156],"ct":"US","tp":"CR","ts":"2024-01-14T00:46:31Z","tX":234,"tY":417,"tags":{"addr:city":"Gatesville","addr:housenumber":"2328","addr:postcode":"76528","addr:state":"TX","addr:street":"Highway 36 Business","name":"Gatesville lRV Park","phone":"+1-254-223-2228"}},"1255099743":{"location":[31.4476907,-97.4017757],"ct":"US","tp":"CR","ts":"2024-02-28T01:40:06Z","tX":234,"tY":417,"tags":{"addr:city":"McGregor","addr:housenumber":"510","addr:postcode":"76657","addr:state":"TX","addr:street":"East McGregor Drive","bbq":"bring_your_own","capacity":"27","check_date":"2024-02-26","dog":"leashed","name":"McGregor RV Park","phone":"+1-254-840-4512","power_supply":"yes","website":"https://www.mcgregorrvpark.com/"}},"1259209208":{"location":[31.5362265,-97.4325724],"ct":"US","tp":"CR","ts":"2024-03-09T01:01:19Z","tX":234,"tY":417,"tags":{"addr:city":"Crawford","addr:housenumber":"8540","addr:postcode":"76638","addr:state":"TX","addr:street":"East 5th Street","check_date":"2024-03-08","contact:facebook":"https://www.facebook.com/pages/Pirate-Field/160513974072263","dog":"leashed","name":"Tonkawa Falls RV Park","phone":"+1-254-486-2125","source":"https://www.chamberofcommerce.com/united-states/texas/crawford/campground/7526457-tonkawa-falls-rv-park"}}}