{"30897634":{"location":[30.5278067,-97.6335132],"ct":"US","tp":"CR","ts":"2024-01-30T00:26:54Z","tX":234,"tY":420,"tags":{"addr:city":"Round Rock","addr:housenumber":"3300","addr:postcode":"78665","addr:state":"TX","addr:street":"Palm Valley Boulevard","name":"Old Settlers Association RV Park - North Lot","operator":"Old Settlers Association of Williamson Couty","phone":"+1-512-388-1733","power_supply":"yes","sanitary_dump_station":"yes","website":"https://wcosa.org/"}},"581654167":{"location":[30.5684281,-97.4242191],"ct":"US","tp":"CR","ts":"2018-04-19T18:03:49Z","tX":234,"tY":420,"tags":{"name":"Berryhill RV Park"}},"581657770":{"location":[30.5562998,-97.3951038],"ct":"US","tp":"CR","ts":"2018-04-19T18:15:58Z","tX":234,"tY":420,"tags":{"addr:city":"Taylor","addr:housenumber":"408","addr:postcode":"76574","addr:state":"TX","addr:street":"Carlos G Parker Boulevard Southeast","name":"Four Winds RV Park"}},"583350324":{"location":[30.4673553,-97.4674505],"ct":"US","tp":"CR","ts":"2018-04-24T19:52:00Z","tX":234,"tY":420,"tags":{"addr:city":"Coupland","addr:housenumber":"6850","addr:postcode":"78615","addr:state":"TX","addr:street":"FM 973","name":"Brushy Creek RV Park"}},"583510607":{"location":[30.6677774,-97.6295774],"ct":"US","tp":"CR","ts":"2018-04-25T14:44:37Z","tX":234,"tY":420,"tags":{"addr:city":"Georgetown","addr:housenumber":"40005","addr:postcode":"78626","addr:state":"TX","addr:street":"Heritage Hollow","name":"San Gabriel River RV Park"}},"583510609":{"location":[30.6621793,-97.6306204],"ct":"US","tp":"CR","ts":"2018-04-25T14:44:37Z","tX":234,"tY":420,"tags":{"addr:city":"Georgetown","addr:housenumber":"40013","addr:postcode":"78626","addr:state":"TX","addr:street":"Heritage Hollow Road","name":"Las Palmas RV Park"}},"583769591":{"location":[30.6919503,-97.6474581],"ct":"US","tp":"CR","ts":"2018-04-26T18:14:32Z","tX":234,"tY":420,"tags":{"addr:city":"Georgetown","addr:housenumber":"131","addr:postcode":"78626","addr:state":"TX","addr:street":"Market Street","name":"Berry Springs RV Park"}},"588806855":{"location":[30.6947002,-97.6265599],"ct":"US","tp":"CR","ts":"2018-05-16T22:24:43Z","tX":234,"tY":420,"tags":{"addr:city":"Georgetown","addr:housenumber":"2907","addr:postcode":"78626","addr:state":"TX","addr:street":"County Road 152","name":"Raw Fun Country RV"}},"866862230":{"location":[30.4728382,-97.6822674],"ct":"US","tp":"CR","ts":"2023-12-06T15:25:29Z","tX":234,"tY":420,"tags":{"addr:city":"Austin","addr:housenumber":"4001","addr:postcode":"78728","addr:state":"TX","addr:street":"Prairie Lane","name":"Austin RV Park North","phone":"+1-512-244-0610","website":"https://austinrvpark.com"}},"1182624977":{"location":[30.6857922,-97.64002],"ct":"US","tp":"CS","ts":"2023-06-17T04:27:42Z","tX":234,"tY":420,"tags":{"caravans":"yes","reservation":"required","tents":"yes"}},"1197563865":{"location":[30.5315521,-97.5982004],"ct":"US","tp":"CR","ts":"2024-07-28T15:03:48Z","tX":234,"tY":420,"tags":{}},"1197830695":{"location":[30.6518513,-97.6241798],"ct":"US","tp":"CR","ts":"2024-10-06T01:36:40Z","tX":234,"tY":420,"tags":{"addr:city":"Georgetown","addr:housenumber":"552","addr:postcode":"78626","addr:state":"TX","addr:street":"Eastview Drive","name":"East View RV Ranch"}},"1215672914":{"location":[30.6755154,-97.6427107],"ct":"US","tp":"CR","ts":"2023-10-15T02:03:13Z","tX":234,"tY":420,"tags":{"addr:city":"Georgetown","addr:housenumber":"1200","addr:postcode":"78626","addr:state":"TX","addr:street":"County Road 152","check_date":"2023-10-14","internet_access":"wlan","internet_access:fee":"customers","name":"New Life RV Park","phone":"+1-512-931-2073","power_supply":"yes","website":"https://newlifervpark.com/"}},"1224928379":{"location":[30.7326244,-97.6264587],"ct":"US","tp":"CR","ts":"2023-11-18T04:31:29Z","tX":234,"tY":420,"tags":{"addr:city":"Georgetown","addr:housenumber":"209","addr:postcode":"78626","addr:state":"TX","addr:street":"County Road 142","charge":"400.00 USD/month","dog":"yes","fee":"yes","internet_access":"wlan","internet_access:fee":"no","name":"Georgetown RV Park","phone":"+1-737-600-1432","power_supply":"yes","sanitary_dump_station":"yes","website":"https://www.georgetowntxrvpark.com/"}},"1244239425":{"location":[30.5250885,-97.6357884],"ct":"US","tp":"CR","ts":"2024-01-30T01:04:49Z","tX":234,"tY":420,"tags":{"addr:city":"Round Rock","addr:housenumber":"3300","addr:postcode":"78665","addr:state":"TX","addr:street":"Palm Valley Boulevard","name":"Old Settlers Association RV Park - South Lot","operator":"Old Settlers Association of Williamson Couty","phone":"+1-512-388-1733","power_supply":"yes","sanitary_dump_station":"yes","website":"https://wcosa.org/"}},"1251202020":{"location":[30.6851537,-97.6417039],"ct":"US","tp":"CS","ts":"2024-02-16T15:37:33Z","tX":234,"tY":420,"tags":{"name":"Historic Campgroud"}},"1251202028":{"location":[30.6844506,-97.6480459],"ct":"US","tp":"CS","ts":"2024-02-16T15:37:33Z","tX":234,"tY":420,"tags":{"name":"Primitive Campsite"}},"1251740512":{"location":[30.6786465,-97.5891897],"ct":"US","tp":"CR","ts":"2024-05-18T23:55:08Z","tX":234,"tY":420,"tags":{"addr:city":"Weir","addr:housenumber":"349","addr:postcode":"78626","addr:state":"TX","addr:street":"FM 1105","name":"Central Texas RV Parks","operator":"Central Texas RV Parks"}},"11667047510":{"location":[30.6958347,-97.387053],"ct":"US","tp":"CS","ts":"2024-02-26T22:37:08Z","tX":234,"tY":420,"tags":{}},"11667047512":{"location":[30.6956803,-97.3872246],"ct":"US","tp":"CS","ts":"2024-02-26T22:37:08Z","tX":234,"tY":420,"tags":{}},"11667047513":{"location":[30.6959996,-97.387194],"ct":"US","tp":"CS","ts":"2024-02-26T22:37:08Z","tX":234,"tY":420,"tags":{}},"11667047523":{"location":[30.696037,-97.3873919],"ct":"US","tp":"CS","ts":"2024-02-26T22:37:08Z","tX":234,"tY":420,"tags":{}},"11667047529":{"location":[30.6957451,-97.3875696],"ct":"US","tp":"CS","ts":"2024-02-26T22:37:08Z","tX":234,"tY":420,"tags":{}},"11667047539":{"location":[30.6960597,-97.3876309],"ct":"US","tp":"CS","ts":"2024-02-26T22:37:08Z","tX":234,"tY":420,"tags":{}},"11667047541":{"location":[30.6957235,-97.3877523],"ct":"US","tp":"CS","ts":"2024-02-26T22:37:08Z","tX":234,"tY":420,"tags":{}},"11667047547":{"location":[30.6957762,-97.3880501],"ct":"US","tp":"CS","ts":"2024-02-26T22:37:08Z","tX":234,"tY":420,"tags":{}},"11667047553":{"location":[30.6960829,-97.3881242],"ct":"US","tp":"CS","ts":"2024-02-26T22:37:08Z","tX":234,"tY":420,"tags":{}},"11667047559":{"location":[30.6961139,-97.3883436],"ct":"US","tp":"CS","ts":"2024-02-26T22:37:08Z","tX":234,"tY":420,"tags":{}},"11667047561":{"location":[30.695782,-97.3882842],"ct":"US","tp":"CS","ts":"2024-02-26T22:37:08Z","tX":234,"tY":420,"tags":{}},"11667050171":{"location":[30.6961635,-97.3885783],"ct":"US","tp":"CS","ts":"2024-02-26T22:37:08Z","tX":234,"tY":420,"tags":{}},"11667050172":{"location":[30.6958189,-97.388506],"ct":"US","tp":"CS","ts":"2024-02-26T22:37:08Z","tX":234,"tY":420,"tags":{}},"11667050182":{"location":[30.6958636,-97.3887634],"ct":"US","tp":"CS","ts":"2024-02-26T22:37:08Z","tX":234,"tY":420,"tags":{}},"11667052135":{"location":[30.6962819,-97.3888885],"ct":"US","tp":"CS","ts":"2024-02-26T22:45:57Z","tX":234,"tY":420,"tags":{}},"11667052136":{"location":[30.6963335,-97.3891356],"ct":"US","tp":"CS","ts":"2024-02-26T22:45:57Z","tX":234,"tY":420,"tags":{}},"11667052138":{"location":[30.6960021,-97.3893572],"ct":"US","tp":"CS","ts":"2024-02-26T22:45:57Z","tX":234,"tY":420,"tags":{}},"11667052152":{"location":[30.6963735,-97.38935],"ct":"US","tp":"CS","ts":"2024-02-26T22:45:57Z","tX":234,"tY":420,"tags":{}},"11667052162":{"location":[30.6960415,-97.3896006],"ct":"US","tp":"CS","ts":"2024-02-26T22:45:57Z","tX":234,"tY":420,"tags":{}},"11667052168":{"location":[30.6963872,-97.3896674],"ct":"US","tp":"CS","ts":"2024-02-26T22:45:57Z","tX":234,"tY":420,"tags":{}},"11667057170":{"location":[30.6960468,-97.3898151],"ct":"US","tp":"CS","ts":"2024-02-26T22:45:57Z","tX":234,"tY":420,"tags":{}},"11667057180":{"location":[30.6960215,-97.3900841],"ct":"US","tp":"CS","ts":"2024-02-26T22:45:57Z","tX":234,"tY":420,"tags":{}},"11667057190":{"location":[30.6963308,-97.3899126],"ct":"US","tp":"CS","ts":"2024-02-26T22:45:57Z","tX":234,"tY":420,"tags":{}},"11667057192":{"location":[30.6963266,-97.3901969],"ct":"US","tp":"CS","ts":"2024-02-26T22:45:57Z","tX":234,"tY":420,"tags":{}},"11667057194":{"location":[30.695997,-97.3903601],"ct":"US","tp":"CS","ts":"2024-02-26T22:45:57Z","tX":234,"tY":420,"tags":{}},"11667057200":{"location":[30.695958,-97.3906193],"ct":"US","tp":"CS","ts":"2024-02-26T22:45:57Z","tX":234,"tY":420,"tags":{}},"11667057206":{"location":[30.6959311,-97.3909221],"ct":"US","tp":"CS","ts":"2024-02-26T22:45:57Z","tX":234,"tY":420,"tags":{}},"11667057208":{"location":[30.6962178,-97.3909392],"ct":"US","tp":"CS","ts":"2024-02-26T22:45:57Z","tX":234,"tY":420,"tags":{}},"11667057214":{"location":[30.6963105,-97.3906341],"ct":"US","tp":"CS","ts":"2024-02-26T22:45:57Z","tX":234,"tY":420,"tags":{}},"11667057220":{"location":[30.6962984,-97.3903883],"ct":"US","tp":"CS","ts":"2024-02-26T22:45:57Z","tX":234,"tY":420,"tags":{}},"5140494649":{"location":[30.7029096,-97.4881624],"ct":"US","tp":"CR","ts":"2017-10-01T02:29:09Z","tX":234,"tY":420,"tags":{"addr:city":"Granger","addr:housenumber":"12801","addr:postcode":"76530","addr:state":"TX","addr:street":"Farm-to-Market Road 971","capacity":"83","internet_access":"wlan","name":"Retreat at 971 RV Park","power_supply":"yes"}},"12228677456":{"location":[30.6472846,-97.6260041],"ct":"US","tp":"CR","ts":"2024-10-06T01:13:56Z","tX":234,"tY":420,"tags":{"addr:city":"Georgetown","addr:housenumber":"375","addr:postcode":"78626","addr:state":"TX","addr:street":"Eastview Drive","name":"uPark RV Parking/Storage"}}}