{"581715734":{"location":[30.211444,-97.6890466],"ct":"US","tp":"CR","ts":"2018-04-19T22:25:38Z","tX":234,"tY":421,"tags":{"addr:city":"Austin","addr:housenumber":"2705","addr:postcode":"78744","addr:state":"TX","addr:street":"Hoeke Lane","name":"Pecan Park Mobile Homes"}},"583973548":{"location":[30.1690704,-97.4068102],"ct":"US","tp":"CR","ts":"2018-04-27T15:25:57Z","tX":234,"tY":421,"tags":{"addr:city":"Bastrop","addr:housenumber":"1124","addr:postcode":"78602","addr:state":"TX","addr:street":"Farm to Market Road 969","name":"Colorado RV Park"}},"587567973":{"location":[30.3416795,-97.6101369],"ct":"US","tp":"CR","ts":"2018-05-11T21:05:44Z","tX":234,"tY":421,"tags":{"addr:city":"Austin","addr:housenumber":"7400","addr:postcode":"78754","addr:state":"TX","addr:street":"Blue Goose Road","name":"Evergreen RV Park"}},"590272932":{"location":[30.2915018,-97.6516577],"ct":"US","tp":"CR","ts":"2018-05-22T20:52:39Z","tX":234,"tY":421,"tags":{"addr:city":"Austin","addr:housenumber":"5701","addr:postcode":"78724","addr:state":"TX","addr:street":"Johnny Morris Road","name":"Pecan Park Mobile Homes"}},"590272933":{"location":[30.2968971,-97.6488831],"ct":"US","tp":"CR","ts":"2018-05-22T20:52:39Z","tX":234,"tY":421,"tags":{"addr:city":"Austin","addr:housenumber":"6403","addr:postcode":"78724","addr:state":"TX","addr:street":"Johnny Morris Road","name":"Walnut Creek Home Park"}},"592800725":{"location":[30.2441634,-97.6881801],"ct":"US","tp":"CR","ts":"2018-06-01T16:44:29Z","tX":234,"tY":421,"tags":{"addr:city":"Austin","addr:housenumber":"101","addr:postcode":"78742","addr:state":"TX","addr:street":"Hergotz Lane","name":"Aero Mobile Home and RV Park"}},"896805884":{"location":[30.3858114,-97.6861664],"ct":"US","tp":"CR","ts":"2021-04-12T11:53:36Z","tX":234,"tY":421,"tags":{"addr:city":"Austin","addr:housenumber":"11606","addr:postcode":"78758","addr:state":"TX","addr:street":"North Lamar Boulevard","name":"Mobile Home Haven","phone":"+1-512-836-4191","static_caravans":"yes"}},"904599754":{"location":[30.1768012,-97.7299967],"ct":"US","tp":"CS","ts":"2021-02-07T01:01:44Z","tX":234,"tY":421,"tags":{"access":"yes","group_only":"yes","name":"Youth Group Camping Area"}},"1179829032":{"location":[30.1915296,-97.5932815],"ct":"US","tp":"CR","ts":"2023-06-05T19:03:17Z","tX":234,"tY":421,"tags":{}},"1217808305":{"location":[30.244713,-97.4217922],"ct":"US","tp":"CR","ts":"2023-10-23T15:30:25Z","tX":234,"tY":421,"tags":{}},"1220319227":{"location":[30.2768809,-97.6104738],"ct":"US","tp":"CR","ts":"2023-11-02T16:08:31Z","tX":234,"tY":421,"tags":{}},"1221029156":{"location":[30.350195,-97.4568833],"ct":"US","tp":"CR","ts":"2024-08-06T01:00:49Z","tX":234,"tY":421,"tags":{"addr:city":"Elgin","addr:housenumber":"16421","addr:postcode":"78621","addr:state":"TX","addr:street":"East US Highway 290","check_date":"2024-08-05","dog":"leashed","email":"staff@EastAustinRVPark.com","laundry":"yes","name":"East Austin RV Park","phone":"+1-737-717-0166","power_supply":"yes","sanitary_dump_station":"yes","website":"https://eastaustinrvpark.com/"}},"1221646945":{"location":[30.2833988,-97.6356152],"ct":"US","tp":"CR","ts":"2024-03-17T15:27:33Z","tX":234,"tY":421,"tags":{"name":"Oak Forest RV Resort","website":"https://www.robertsresorts.com/resorts/oak-forest/"}},"1222275746":{"location":[30.3235838,-97.6823581],"ct":"US","tp":"CR","ts":"2023-11-09T15:38:30Z","tX":234,"tY":421,"tags":{"name":"Patton Courts R.V. Park"}},"1305843013":{"location":[30.3469997,-97.4495078],"ct":"US","tp":"CR","ts":"2024-08-06T01:00:49Z","tX":234,"tY":421,"tags":{"addr:city":"Elgin","addr:housenumber":"16740","addr:postcode":"78621","addr:state":"TX","addr:street":"Albert Voelker Road","check_date":"2024-08-05","dog":"yes","email":"manager.elgin@greatescapesrvresorts.com","internet_access":"wlan","internet_access:fee":"customers","laundry":"yes","name":"Great Escapes Elgin RV Park","pets":"yes","power_supply":"yes","sanitary_dump_station":"yes","smoking":"no","start_date":"2024","website":"https://www.greatescapeselgin.com/"}},"8401078939":{"location":[30.1806308,-97.725711],"ct":"US","tp":"SD","ts":"2021-02-07T01:01:44Z","tX":234,"tY":421,"tags":{"access":"yes","description":"Site per McKinney Falls State Park map found at  http://sc16.supercomputing.org/wp-content/uploads/2015/08/Park2BBlog2B2.png"}}}