{"472233081":{"location":[26.3241923,-97.4548889],"ct":"US","tp":"CR","ts":"2019-07-25T13:07:28Z","tX":234,"tY":434,"tags":{"name":"SeaWay Village"}},"831868223":{"location":[26.2037824,-97.7236795],"ct":"US","tp":"CR","ts":"2020-07-29T17:00:13Z","tX":234,"tY":434,"tags":{"addr:city":"Harlingen","addr:housenumber":"1201","addr:postcode":"78552","addr:state":"TX","addr:street":"North Expressway 77","internet_access":"wlan","name":"Paradise Park RV Resort","phone":"+1-877-570-2267","power_supply":"yes","website":"https://rvonthego.com/texas/paradise-park-rv-resort/"}},"831868224":{"location":[26.2292519,-97.6804108],"ct":"US","tp":"CR","ts":"2020-07-29T17:00:13Z","tX":234,"tY":434,"tags":{"addr:city":"Harlingen","addr:housenumber":"1501","addr:postcode":"78550","addr:state":"TX","addr:street":"North Loop 499","internet_access":"wlan","name":"Tropic Winds RV Resort","power_supply":"yes","website":"https://rvonthego.com/texas/tropic-winds-rv-resort/"}},"831868227":{"location":[26.1399414,-97.6722674],"ct":"US","tp":"CR","ts":"2020-07-29T17:00:13Z","tX":234,"tY":434,"tags":{"addr:city":"San Benito","addr:housenumber":"1400","addr:postcode":"78586","addr:state":"TX","addr:street":"Zillock Road","internet_access":"wlan","name":"Fun-N-Sun RV Resort","phone":"+1-877-570-2267","power_supply":"yes","website":"https://rvonthego.com/texas/fun-n-sun-rv-resort/"}},"1327886319":{"location":[26.3294692,-97.5034468],"ct":"US","tp":"CR","ts":"2024-10-24T14:59:22Z","tX":234,"tY":434,"tags":{}}}