{"206227296":{"location":[51.1148431,20.3635891],"ct":"PL","tp":"CS","ts":"2024-04-08T18:28:58Z","tX":569,"tY":342,"tags":{}},"1214112129":{"location":[51.1092214,20.3533713],"ct":"PL","tp":"CS","ts":"2023-10-08T17:34:39Z","tX":569,"tY":342,"tags":{"barrier":"fence","fence_type":"wire","height":"2","opening_hours":"closed"}},"1301448773":{"location":[51.1162256,20.3608568],"ct":"PL","tp":"CS","ts":"2024-07-15T07:39:50Z","tX":569,"tY":342,"tags":{"addr:city":"Sielpia Wielka","addr:housenumber":"17","addr:postcode":"26-200","addr:street":"Spacerowa","caravans":"yes","email":"wynajem@atmosfera-sielpia.pl","leisure":"resort","name":"Ośrodek wypoczynkowy Atmosfera","phone":"+48 519 176 087","reservation":"recommended","resort":"recreation_center","tents":"yes","washing_machine":"yes","website":"www.atmosfera-sielpia.pl"}},"10906307804":{"location":[51.1146163,20.367769],"ct":"PL","tp":"CS","ts":"2023-11-12T13:29:37Z","tX":569,"tY":342,"tags":{"addr:city":"Sielpia Wielka","addr:country":"PL","addr:housenumber":"26","addr:postcode":"26-200","addr:street":"Dorzeczna","caravans":"yes","email":"nadczarna.sielpia@gmail.com","fee":"yes","mobile":"+48 510 060 975","name":"Nad Czarną","source":"nadczarna.pl","tents":"yes","website":"https://nadczarna.pl/"}},"11407341877":{"location":[51.1158483,20.3627125],"ct":"PL","tp":"CS","ts":"2023-12-10T12:43:04Z","tX":569,"tY":342,"tags":{"mobile":"+48 793 382 717","name":"Camping"}}}