{"282555731":{"location":[49.4882037,20.3406789],"ct":"PL","tp":"CS","ts":"2024-07-24T14:31:33Z","tX":569,"tY":349,"tags":{"capacity":"40","description":"Otwarte: 23.06-31.08. Ceny: 10 zł, pole namiotowe 5 zł; rabaty: PTTK, SKPx, Unia Baz","email":"luban@skpg.krakow.pl","fee":"yes","internet_access":"no","name":"Baza namiotowa na Lubaniu","opening_hours":"Jul-Aug","operator":"Studenckie Koło Przewodników Górskich w Krakowie","phone":"+48 692 054 445, +48 509 654 309","smoking":"separated","website":"https://bazaluban.pttk.pl/","wheelchair":"no"}},"418491167":{"location":[49.4045588,20.3343603],"ct":"PL","tp":"CS","ts":"2016-05-16T07:44:08Z","tX":569,"tY":349,"tags":{"name":"Polana Sosny"}},"606683826":{"location":[49.5577513,20.2473418],"ct":"PL","tp":"CS","ts":"2023-11-05T08:28:19Z","tX":569,"tY":349,"tags":{"capacity":"48","description":"Otwarte: 02.07-02.09. Ceny: 10 zł, pole namiotowe 5 zł; rabaty: PTTK, SKPx, kadra PTTK","email":"gorc@skpg.krakow.pl","fee":"yes","name":"Baza namiotowa Gorc","opening_hours":"Jul-Aug","operator":"Studenckie Koło Przewodników Górskich przy OA PTTK, Kraków","phone":"+48 506 790 072","website":"https://bazagorc.pttk.pl/","website:1":"http://bazagorc.blogspot.com/","wikidata":"Q9347289","wikipedia":"pl:Studencka baza namiotowa na Gorcu"}},"608507478":{"location":[49.4414582,20.2476965],"ct":"PL","tp":"CS","ts":"2021-07-15T00:50:20Z","tX":569,"tY":349,"tags":{}},"832881838":{"location":[49.579374,20.088685],"ct":"PL","tp":"CS","ts":"2024-08-09T11:00:14Z","tX":569,"tY":349,"tags":{"access":"yes","caravans":"no","drinking_water":"no","name":"Polana Oberówka","operator":"Gorczański Park Narodowy","power_supply":"no","shower":"no","tents":"yes","toilets":"yes","wheelchair":"yes"}},"964081196":{"location":[49.4242421,20.3093129],"ct":"PL","tp":"CS","ts":"2023-07-18T06:47:49Z","tX":569,"tY":349,"tags":{"addr:city":"Niedzica-Zamek","addr:postcode":"34-441","addr:street":"Nad Zalewem","caravans":"yes","drinking_water":"yes","fee":"yes","motor_vehicle":"yes","name":"U Anny","openfire":"no","payment:blik":"yes","payment:cash":"yes","phone":"+48693618546","power_supply":"yes","shower":"yes","tents":"yes","toilets":"yes","website":"http://www.niedzicazamek.pl/index.html"}},"1176293514":{"location":[49.6074216,20.2381174],"ct":"PL","tp":"CS","ts":"2023-05-26T14:46:56Z","tX":569,"tY":349,"tags":{"name":"Pole biwakowe Szczawa Wiatrówki"}},"1176293516":{"location":[49.6068523,20.239289],"ct":"PL","tp":"CS","ts":"2023-05-26T14:46:56Z","tX":569,"tY":349,"tags":{"name":"Pole biwakowe Szczawa Wiatrówki"}},"1284212174":{"location":[49.5437248,20.1187415],"ct":"PL","tp":"CS","ts":"2024-11-21T15:19:21Z","tX":569,"tY":349,"tags":{"access":"customers","operator":"Schronisko PTTK na Turbaczu"}},"1754756170":{"location":[49.4585294,20.2121677],"ct":"PL","tp":"CS","ts":"2023-08-31T14:43:31Z","tX":569,"tY":349,"tags":{"addr:city":"Frydman","addr:postcode":"34-435","addr:street":"Nowotarska","caravans":"yes","dog":"leashed","fee":"yes","group_only":"no","internet_access":"wlan","internet_access:fee":"no","name":"Camping Łęg","openfire":"yes","opening_hours":"Mo-Su 09:00-20:00","phone":"+48 507 337 019","power_supply":"yes","reservation":"no","sanitary_dump_station":"yes","shower":"yes","tents":"yes","toilets":"yes","website":"https://www.frydman.pl/"}},"2406422319":{"location":[49.4079495,20.303665],"ct":"PL","tp":"CS","ts":"2023-04-07T22:03:54Z","tX":569,"tY":349,"tags":{"addr:city":"Niedzica","caravans":"yes","email":"polana.sosny@niedzica.pl","fax":"18 334 77 63","fixme":"position","phone":"+48 18 334 77 60","ref:pfcc":"38","stars":"2","tents":"yes","website":"http://www.niedzica.pl/noclegi/polana-sosny/camping"}},"3335700855":{"location":[49.4039158,20.3344384],"ct":"PL","tp":"SD","ts":"2022-06-03T23:12:11Z","tX":569,"tY":349,"tags":{"access":"customers"}},"11066956959":{"location":[49.4741569,20.1877099],"ct":"PL","tp":"CS","ts":"2023-07-25T12:26:00Z","tX":569,"tY":349,"tags":{"caravans":"yes","name":"Knurów","nudism":"no","reservation":"no","tents":"yes","wheelchair":"yes"}}}