{"1101450668":{"location":[47.5783183,20.1671755],"ct":"HU","tp":"CS","ts":"2025-05-16T19:02:42Z","tX":569,"tY":357,"tags":{"name":"Napsugár Kemping"}},"1108356570":{"location":[47.5889458,20.1881635],"ct":"HU","tp":"CS","ts":"2022-10-30T19:38:10Z","tX":569,"tY":357,"tags":{"name":"Ronatik Park Kemping"}},"3487687975":{"location":[47.652096,20.157614],"ct":"HU","tp":"CS","ts":"2023-05-16T12:20:36Z","tX":569,"tY":357,"tags":{"addr:city":"Tarnaméra","addr:housenumber":"2/A","addr:postcode":"3284","addr:street":"Dobó István út","contact:email":"tarnafurdo@gmail.com","contact:phone":"+36 30 429 3947","name":"Tarnamérai Strandfürdő-Kemping","source":"turistautak.hu","source:date":"2008-12-02","url":"http://turistautak.hu/poi.php?id=15224"}},"3490663519":{"location":[47.5806135,20.1711112],"ct":"HU","tp":"CS","ts":"2023-11-16T17:57:24Z","tX":569,"tY":357,"tags":{"addr:city":"Jászszentandrás","addr:housenumber":"14","addr:postcode":"5136","addr:street":"Mártírok út","contact:fax":"+36 57 446 730","contact:phone":"+36 57 446 025","contact:website":"http://www.jaszszentandras-strand.hu/","name":"Termálfürdő és Kemping","operator":"Andrástermál Kft.","source":"turistautak.hu","source:date":"2008-06-11","url":"http://turistautak.hu/poi.php?id=15136"}}}