{"1328417404":{"location":[46.715153,20.1859078],"ct":"HU","tp":"CS","ts":"2025-02-23T19:09:19Z","tX":569,"tY":361,"tags":{"addr:city":"Csongrád","addr:housenumber":"8","addr:postcode":"6640","addr:street":"Nyárfa sor","capacity:caravans":"30","capacity:tents":"100","caravans":"yes","email":"homokfoveny@csongrad.hu","fee":"yes","name":"Körös-toroki Kemping","payment:cash":"yes","payment:credit_cards":"yes","payment:debit_cards":"yes","phone":"+36 20 586 8558","static_caravans":"yes","tents":"yes","website":"https://csongradikorostorok.hu/koros-toroki-kemping"}},"3458377990":{"location":[46.65137,20.2473896],"ct":"HU","tp":"CS","ts":"2023-11-16T17:57:24Z","tX":569,"tY":361,"tags":{"addr:city":"Szentes","addr:housenumber":"4","addr:postcode":"6600","addr:street":"Csallány Gábor part","contact:fax":"+36 63 314 167","email":"udulohazak@szentes.hu","name":"Termál Kemping","phone":"+36 63 314 167","source":"turistautak.hu","source:date":"2014-02-23","url":"http://turistautak.hu/poi.php?id=15214","website":"https://www.szentesinfo.hu/mozaik"}}}