{"7056473101":{"location":[42.7873816,20.2252913],"ct":"ME","tp":"CS","ts":"2019-12-14T13:17:29Z","tX":569,"tY":377,"tags":{}},"4512104337":{"location":[42.6184336,20.1266533],"ct":"RS","tp":"CS","ts":"2020-10-09T23:43:28Z","tX":569,"tY":377,"tags":{}},"4942458223":{"location":[42.688952,20.1742349],"ct":"RS","tp":"CS","ts":"2017-06-29T15:49:42Z","tX":569,"tY":377,"tags":{"name":"plazhi","name:sq":"plazhi"}},"5037783921":{"location":[42.7051853,20.0484543],"ct":"RS","tp":"CS","ts":"2017-08-15T22:07:19Z","tX":569,"tY":377,"tags":{"addr:postcode":"30000","addr:street":"Rrugicat e Haxhajve","name":"Haxhaj - Lagjja e Ahmet KURTIT","name:en":"Ahmet KURTI Street- Haxhaj","name:sq":"Haxhaj - Lagjja e Ahmet KURTIT","operator":"KURTAJ"}},"11264395069":{"location":[42.5886864,20.1763955],"ct":"RS","tp":"CS","ts":"2023-10-15T10:48:38Z","tX":569,"tY":377,"tags":{"name":"Camping   “Perroi Shqiptar”"}},"11264395070":{"location":[42.5884801,20.1771099],"ct":"RS","tp":"CS","ts":"2023-10-15T10:48:39Z","tX":569,"tY":377,"tags":{"addr:street":"Demë Ali Pozhari","internet_access":"wlan","name":"Camping  “Perroi Shqiptar”","opening_hours":"24/7"}}}