{"1202726215":{"location":[40.0891125,20.1386382],"ct":"AL","tp":"CS","ts":"2023-08-28T08:55:53Z","tX":569,"tY":387,"tags":{"access":"yes","addr:city":"Gjirokastër","addr:postcode":"6017","addr:street":"SH4","name":"Ora RV Camping","phone":"+355686218561"}},"1303646206":{"location":[39.9849154,20.2638122],"ct":"AL","tp":"CS","ts":"2024-07-25T08:04:34Z","tX":569,"tY":387,"tags":{"name":"Life"}},"4389923389":{"location":[40.101185,20.1506434],"ct":"AL","tp":"CS","ts":"2023-09-10T08:53:09Z","tX":569,"tY":387,"tags":{"addr:street":"Rruga Valere","caravans":"yes","drinking_water":"yes","email":"campinggjirokaster@yahoo.com","internet_access":"wlan","internet_access:fee":"no","name":"Kamping Gijrokaster","phone":"+355 69 839 1492","power_supply":"yes","shower":"yes","tents":"yes","toilets":"yes","website":"http://campinggjirokaster.al"}},"7912115785":{"location":[39.9519271,20.1043845],"ct":"AL","tp":"CS","ts":"2020-09-16T07:38:17Z","tX":569,"tY":387,"tags":{"name":"cp4.3"}},"9766481825":{"location":[40.0898079,20.1380349],"ct":"AL","tp":"CS","ts":"2023-08-28T08:55:53Z","tX":569,"tY":387,"tags":{"access":"yes","addr:city":"Gjirokastër","addr:postcode":"6017","addr:street":"SH4","capacity:caravans":"25","fee":"yes","name":"Green Park Camping Gjirokastra","payment:cash":"yes","phone":"+355699546335","website":"https://green-park-gjirokaster.business.site/?utm_source=gmb&utm_medium=referral"}},"9951260508":{"location":[40.0945199,20.1485551],"ct":"AL","tp":"CS","ts":"2023-05-02T16:26:08Z","tX":569,"tY":387,"tags":{"caravans":"yes","drinking_water":"yes","internet_access":"wlan","name":"Family","power_supply":"yes","shower":"yes","tents":"yes","toilets":"yes"}},"5996037200":{"location":[40.0863044,20.1414394],"ct":"AL","tp":"CR","ts":"2023-08-28T09:30:55Z","tX":569,"tY":387,"tags":{"capacity:caravans":"2-3","charge":"15€","check_date":"2022-09-18","fee":"yes","internet_access":"wlan","internet_access:fee":"no","maxheight":"2.3","name":"Camping Late","payment:cash":"yes","phone":"+355692222222","sanitary_dump_station":"no","tents":"no","toilets":"yes","toilets:wheelchair":"no","wheelchair":"no"}}}