{"26859951":{"location":[39.460013,20.2614134],"ct":"GR","tp":"CS","ts":"2020-02-08T19:43:05Z","tX":569,"tY":389,"tags":{"dog":"yes","internet_access":"wlan","name":"Elenas Beach","opening_hours":"Apr-Oct","phone":"+30 2665071414","start_date":"1999","website":"https://campingelena.gr","wheelchair":"yes"}},"26860049":{"location":[39.4438944,20.2580632],"ct":"GR","tp":"CS","ts":"2022-08-10T12:35:55Z","tX":569,"tY":389,"tags":{"int_name":"Nautilos","name":"Ναυτίλος","name:el":"Ναυτίλος","phone":"+30 26650 71416","website":"https://nautiloscamping.gr/"}},"522843250":{"location":[39.5084377,20.2217013],"ct":"GR","tp":"CS","ts":"2020-02-14T03:35:46Z","tX":569,"tY":389,"tags":{"addr:city":"Ηγουμενίτσα","addr:postcode":"46100","addr:street":"Παραλία Δρέπανο","barrier":"fence","bbq":"yes","caravans":"yes","email":"camping@drepano.gr","fax":"+30 26650 26980","fee":"yes","internet_access":"yes","internet_access:fee":"no","motor_vehicle":"yes","name":"CAMPING DREPANOS","phone":"+30 26650 26980","sanitary_dump_station":"yes","tents":"yes","washing_machine":"yes","website":"https://www.drepano.gr/"}},"770901392":{"location":[39.4737597,20.2401598],"ct":"GR","tp":"CS","ts":"2020-02-14T03:28:16Z","tX":569,"tY":389,"tags":{"dog":"yes","internet_access":"wlan","name":"Kalami Beach","opening_hours":"Apr-Oct","phone":"+30 26650 71211","website":"https://www.campingkalamibeach.gr/"}},"1327618649":{"location":[39.3785405,20.2826875],"ct":"GR","tp":"CS","ts":"2024-10-23T20:02:22Z","tX":569,"tY":389,"tags":{"capacity:persons":"100","caravans":"yes","contact:email":"campingsofas@gmail.com","contact:phone":"+30698 4972369;+3026650 91478","contact:website":"https://www.campingsofas.gr/","internet_access":"wlan","motorhome":"yes","name":"Camping Sofas","opening_hours":"Apr 15 - Oct 15","sanitary_dump_station":"yes","shower":"yes","start_date":"1981","tents":"yes","toilets":"yes"}},"4389457690":{"location":[39.6350163,20.1698113],"ct":"GR","tp":"CS","ts":"2019-05-18T22:38:30Z","tX":569,"tY":389,"tags":{"impromptu":"yes","note:cs":"Kemp na divoko","note:en":"Free camping"}},"9738963717":{"location":[39.4439319,20.2726412],"ct":"GR","tp":"CR","ts":"2022-09-28T14:55:47Z","tX":569,"tY":389,"tags":{"addr:postcode":"461 00","addr:street":"Unnamed Road","fee":"yes","internet_access":"wlan","name":"Plataria","power_supply":"yes","toilets":"yes","toilets:wheelchair":"no","wheelchair":"yes"}},"12222195274":{"location":[39.6272934,20.1789038],"ct":"GR","tp":"CR","ts":"2025-02-21T00:59:18Z","tX":569,"tY":389,"tags":{"addr:city":"Sagiada","addr:postcode":"46300","amenity_1":"drinking_water","name":"Κάμπινγκ: Παραλία Σαγιάδας","name:de":"Wohnmobil-Stellplatz: Sagiada Strand","name:el":"Κάμπινγκ: Παραλία Σαγιάδας","power_supply":"no","sanitary_dump_station":"no"}}}