{"320636675":{"location":[57.0539812,-7.4458753],"ct":"GB","tp":"CS","ts":"2024-05-10T20:56:07Z","tX":490,"tY":313,"tags":{"contact:email":"scurrivalcampsite@outlook.com","contact:facebook":"https://www.facebook.com/Scurrival-Campsite-1497925647107612/","name":"Sgùrabhal Campsite","name:en":"Scurrival Campsite","name:gd":"Sgùrabhal Campsite","operator":"Angus John Morrison","shower":"yes"}},"442107178":{"location":[56.985387,-7.4119941],"ct":"GB","tp":"CS","ts":"2024-12-24T09:43:36Z","tX":490,"tY":313,"tags":{"addr:city":"Isle of Barra","addr:city:en":"Isle of Barra","addr:city:gd":"Eilean Bharraigh","addr:country":"GB","addr:housenumber":"183","addr:postcode":"HS9 5UT","name":"Croft 183","website":"http://www.croft183.com/"}},"948465163":{"location":[56.9798605,-7.5125402],"ct":"GB","tp":"CS","ts":"2025-05-07T11:27:25Z","tX":490,"tY":313,"tags":{"caravans":"yes","drinking_water":"yes","fee":"yes","name":"Wavecrest Campsite","payment:cash":"yes","shower":"yes","tents":"yes","toilets":"yes","website":"https://www.wavecrestcampsite.co.uk"}},"948465180":{"location":[56.9788615,-7.5152653],"ct":"GB","tp":"CS","ts":"2023-10-02T08:34:16Z","tX":490,"tY":313,"tags":{"email":"donald@barracamping.co.uk","name":"Borve Camping and Caravan Site","name:en":"Borve Camping and Caravan Site","operator":"Donald MacLean","phone":"+44 1871 810878","website":"https://www.barracamping.co.uk/"}},"1262339626":{"location":[57.0459514,-7.4376872],"ct":"GB","tp":"CS","ts":"2025-06-19T12:21:16Z","tX":490,"tY":313,"tags":{"access":"customers","addr:city":"Isle of Barra","addr:city:en":"Isle of Barra","addr:city:gd":"Eilean Bharraigh","addr:country":"GB","addr:housenumber":"12","addr:postcode":"HS9 5YD","addr:suburb":"Eòlaigearraidh","addr:suburb:en":"Eoligarry","caravans":"yes","fee":"yes","name":"Barra Sands","phone":"+447786422954","static_caravans":"yes","tents":"yes","website":"https://barrasands.weebly.com/"}}}