{"71366774":{"location":[52.0877131,-7.5673477],"ct":"IE","tp":"CR","ts":"2023-11-24T16:53:47Z","tX":490,"tY":337,"tags":{"fee":"yes","name":"Bayview Caravan and Camping Park","power_supply":"yes","stars":"3","tents":"yes","website":"http://www.bayviewcaravancamping.com/"}},"71366779":{"location":[52.0967633,-7.5475082],"ct":"IE","tp":"CR","ts":"2012-02-01T21:05:24Z","tX":490,"tY":337,"tags":{"name":"Casey's Caravan & Camping Park","opening_hours":"Apr 01-Sep 12","phone":"+353 58 41919","source":"Bing Maps"}},"148369307":{"location":[52.092912,-7.5474854],"ct":"IE","tp":"CR","ts":"2021-11-17T18:53:43Z","tX":490,"tY":337,"tags":{"name":"Clonea Park","opening_hours":"Apr 01-Sep 12","phone":"+353 58 41919"}},"816583455":{"location":[52.2639772,-7.6202738],"ct":"IE","tp":"CS","ts":"2020-06-16T17:01:06Z","tX":490,"tY":337,"tags":{"addr:postcode":"E91 D427","name":"Nire Valley Glamping"}},"1206629534":{"location":[52.1335017,-7.6073049],"ct":"IE","tp":"CS","ts":"2024-05-09T13:14:28Z","tX":490,"tY":337,"tags":{"access":"customers","addr:city":"Waterford","addr:place":"Kilnafrehan East","addr:postcode":"X35 RT18","bbq":"yes","cabins":"yes","capacity:caravans":"12","caravans":"yes","contact:facebook":"https://www.facebook.com/thegetaway.ie","contact:instagram":"https://www.instagram.com/the_getaway.ie/","dog":"leashed","drinking_water":"yes","internet_access":"yes","kitchen":"yes","motor_vehicle":"yes","name":"The Getaway","operator":"Hillary Britton","power_supply":"yes","reservation":"recommended","sanitary_dump_station":"yes","shower":"yes","swimming_pool":"no","tents":"yes","toilets":"yes","website":"https://www.thegetaway.ie/"}},"1226564895":{"location":[52.08628,-7.5677703],"ct":"IE","tp":"CR","ts":"2023-11-24T16:53:47Z","tX":490,"tY":337,"tags":{}},"1236637740":{"location":[52.1862313,-7.532313],"ct":"IE","tp":"CS","ts":"2024-01-03T16:39:36Z","tX":490,"tY":337,"tags":{"cabins":"yes","name":"Comeragh Pods"}},"9772787998":{"location":[52.0848759,-7.6212003],"ct":"IE","tp":"CR","ts":"2023-07-21T22:03:33Z","tX":490,"tY":337,"tags":{"description":"48h kostenlos mit VE"}}}