{"223254440":{"location":[42.5366655,-7.7089065],"ct":"ES","tp":"CS","ts":"2013-05-27T10:00:24Z","tX":490,"tY":378,"tags":{}},"951665598":{"location":[42.3747759,-7.417868],"ct":"ES","tp":"CR","ts":"2024-06-29T13:22:40Z","tX":490,"tY":378,"tags":{"access":"yes","addr:city":"Castro Caldelas","addr:postcode":"32760","addr:street":"Travesía da Devesa","capacity":"6","covered":"no","drinking_water":"yes","fee":"no","name":"Área de Autocaravanas de Castro Caldelas","operator":"Concello de Castro Caldelas","power_supply":"no","sanitary_dump_station":"yes","sanitary_dump_station:chemical_toilet":"yes","sanitary_dump_station:grey_water":"yes","sanitary_dump_station:round_drain":"yes","supervised":"no","surface":"asphalt","water_point":"yes"}},"956234398":{"location":[42.5275533,-7.5119445],"ct":"ES","tp":"CR","ts":"2024-05-05T15:10:29Z","tX":490,"tY":378,"tags":{"access":"yes","addr:city":"Monforte de Lemos","addr:postcode":"27400","addr:street":"Rúa María Emilia Casas Baamonde","capacity":"3","caravan_site":"motorhome_stopover","caravan_site:type":"river;town","covered":"no","description:fr":"aire de stationnement pour camping-car. Possibilité de stationner dans la zone sans etre dans l'aire de camping car","drinking_water":"yes","fee":"no","maxstay":"48 hours","name":"Área de Autocaravanas de Monforte de Lemos","operator":"Ayuntamiento de Quiroga","power_supply":"no","sanitary_dump_station":"yes","sanitary_dump_station:chemical_toilet":"yes","sanitary_dump_station:grey_water":"yes","sanitary_dump_station:round_drain":"yes","supervised":"no","surface":"asphalt","water_point":"yes","website":"https://turismo.ribeirasacra.org/area-autocaravanas-monforte-de-lemos"}},"965546834":{"location":[42.4090729,-7.7219819],"ct":"ES","tp":"CR","ts":"2024-05-05T15:08:11Z","tX":490,"tY":378,"tags":{"access":"yes","addr:city":"Luintra","addr:postcode":"32160","addr:street":"Camiño Grupo Escolar","capacity":"10","caravan_site":"motorhome_stopover","caravan_site:type":"village","covered":"no","description":"Área de autocaravanas.","description:fr":"aire de stationnement pour camping-car.","drinking_water":"yes","fee":"no","name":"Área de Autocaravanas de Luíntra","operator":"Ayuntamiento de Luintra","power_supply":"no","sanitary_dump_station":"yes","sanitary_dump_station:chemical_toilet":"yes","sanitary_dump_station:grey_water":"yes","sanitary_dump_station:round_drain":"yes","supervised":"no","surface":"unpaved","water_point":"yes","website":"https://turismo.ribeirasacra.org/area-autocaravanas-luintra-nogueira-de-ramuin"}},"1353326810":{"location":[42.4218124,-7.6028427],"ct":"ES","tp":"CR","ts":"2025-01-22T09:07:37Z","tX":490,"tY":378,"tags":{"addr:street":"Pacios de Bolmente","area":"yes","contact:email":"info@solporcamperpark.com","contact:phone":"+34 613 302 940","contact:website":"https://solporcamperpark.com/","internet_access":"wlan","name":"SolPor Camper Park","opening_hours":"Mo-Su 09:30-13:30","payment:credit_cards":"yes","power_supply":"yes"}},"1353326812":{"location":[42.4213075,-7.6030566],"ct":"ES","tp":"SD","ts":"2025-01-22T09:01:21Z","tX":490,"tY":378,"tags":{"fee":"yes","water_point":"yes"}},"1353326813":{"location":[42.4213435,-7.6029865],"ct":"ES","tp":"SD","ts":"2025-01-22T09:01:21Z","tX":490,"tY":378,"tags":{"fee":"yes","water_point":"yes"}},"3181898861":{"location":[42.3898086,-7.5890007],"ct":"ES","tp":"CS","ts":"2021-06-24T20:26:49Z","tX":490,"tY":378,"tags":{"caravans":"yes","email":"info@canondosilcamping.com","name":"Canón do Sil","phone":"+34 608 537 017","tents":"yes","website":"https://www.canondosilcamping.com/"}},"7566876285":{"location":[42.3825076,-7.5708436],"ct":"ES","tp":"CR","ts":"2020-09-09T11:30:28Z","tX":490,"tY":378,"tags":{"addr:postcode":"32740","addr:street":"Carretera de Castro","name":"Área de autocaravanas Privada Casa Julio","name:es":"Área de autocaravanas Privada Casa Julio","opening_hours":"24/7","phone":"+34988208016"}},"10952108297":{"location":[42.4217666,-7.6031224],"ct":"ES","tp":"CR","ts":"2024-06-27T22:20:27Z","tX":490,"tY":378,"tags":{"addr:street":"Pacios de Bolmente","email":"info@solporcamperpark.com","internet_access":"wlan","name":"SolPor Camper Park","opening_hours":"Mo-Su 09:30-13:30","website":"https://solporcamperpark.com/"}},"8808588587":{"location":[42.3747661,-7.4181519],"ct":"ES","tp":"SD","ts":"2024-06-29T13:22:40Z","tX":490,"tY":378,"tags":{"access":"yes","description":"Estación de vaciado de tanque para autocaravanas","description:fr":"Station de vidange pour Camping-car.","fee":"no","motorhome":"designated","operator":"Concello de Castro Caldelas","sanitary_dump_station":"public","sanitary_dump_station:chemical_toilet":"yes","sanitary_dump_station:fee":"no","sanitary_dump_station:gravity":"yes","sanitary_dump_station:grey_water":"yes","sanitary_dump_station:round_drain":"yes","sanitary_dump_station:suction":"no","water_point":"yes"}},"8849856203":{"location":[42.527722,-7.5121058],"ct":"ES","tp":"SD","ts":"2024-05-05T10:13:36Z","tX":490,"tY":378,"tags":{"access":"yes","fee":"no","motorhome":"designated","name:gl":"Estación de baleirado de tanque para autocaravanas","operator":"Concello de Monforte de Lemos","sanitary_dump_station":"public","sanitary_dump_station:chemical_toilet":"no","sanitary_dump_station:grey_water":"yes","sanitary_dump_station:round_drain":"yes","water_point":"yes"}},"8932303367":{"location":[42.4089082,-7.7219242],"ct":"ES","tp":"SD","ts":"2024-05-05T15:08:11Z","tX":490,"tY":378,"tags":{"access":"yes","fee":"no","motorhome":"designated","operator":"Concello de Nogueira de Ramuín","sanitary_dump_station":"public","sanitary_dump_station:chemical_toilet":"yes","sanitary_dump_station:fee":"no","sanitary_dump_station:gravity":"yes","sanitary_dump_station:grey_water":"yes","sanitary_dump_station:round_drain":"yes","sanitary_dump_station:suction":"no","water_point":"yes"}}}