{"282783265":{"location":[39.4268247,-7.3852824],"ct":"PT","tp":"CS","ts":"2025-04-23T13:57:08Z","tX":490,"tY":389,"tags":{"addr:city":"Beirã-Marvão","addr:postcode":"7330-013","addr:street":"Estrada de Castelo de Vide","contact:website":"https://campscapebeiramarvao.com/","description":"adults only (16+) – check-in before 19:00","minstay":"2 days","name":"Camping Beirã-Marvão","phone":"+351965084474"}},"370210390":{"location":[39.4836728,-7.5471303],"ct":"PT","tp":"CR","ts":"2017-06-22T11:54:16Z","tX":490,"tY":389,"tags":{"name":"Parque de Caravanas"}},"1761479037":{"location":[39.4009719,-7.4864973],"ct":"PT","tp":"CS","ts":"2023-11-10T14:01:12Z","tX":490,"tY":389,"tags":{"name":"Quinta do Pomarinho","website":"https://www.pomarinho.com/"}},"6427468628":{"location":[39.3837264,-7.3831721],"ct":"PT","tp":"CR","ts":"2024-10-19T20:01:19Z","tX":490,"tY":389,"tags":{"addr:city":"Portagem","addr:country":"PT","caravans":"yes","operator":"Estacionamento auto","tents":"yes","toilets":"yes"}},"4930686014":{"location":[39.4837332,-7.5474212],"ct":"PT","tp":"SD","ts":"2017-06-22T11:54:15Z","tX":490,"tY":389,"tags":{}}}