{"4203360":{"location":[37.198885,-7.4149414],"ct":"PT","tp":"CR","ts":"2024-05-17T10:40:35Z","tX":490,"tY":397,"tags":{"addr:city":"Vila Real de Santo António","capacity":"50","caravan_site":"motorhome_stopover","caravan_site:type":"city","charge":"5 EUR","fee":"yes","internet_access":"wlan","name":"Parque de Autocaravanas da Muralha","operator":"VRSA sociedades de Gestão Urbana","parking":"surface","phone":"+351 910 890 140","power_supply":"yes","power_supply:charge":"5€","sanitary_dump_station":"yes","surface":"compacted","water_point":"yes"}},"80652065":{"location":[37.1814727,-7.4430924],"ct":"PT","tp":"CS","ts":"2025-01-02T19:04:13Z","tX":490,"tY":397,"tags":{"addr:city":"Monte Gordo","addr:postcode":"8900-412","addr:street":"Estrada da Mata","caravans":"yes","fee":"yes","name":"Parque de Campismo de Monte Gordo","operator":"Municipal","phone":"+351 281 510970","stars":"1","static_caravans":"yes","tents":"yes","url":"http://pt.camping.info/portugal/algarve/parque-de-campismo-municipal-de-monte-gordo-16424?onMap=1"}},"159473935":{"location":[37.1864749,-7.5485277],"ct":"PT","tp":"CS","ts":"2018-12-13T15:15:15Z","tX":490,"tY":397,"tags":{"name":"Parque de Campismo e Caravanismo O Caliço","url":"http://pt.camping.info/portugal/algarve/parque-de-campismo-e-caravanismo-o-cali%C3%A7o-16433?onMap=1"}},"178406495":{"location":[37.1641118,-7.5219911],"ct":"PT","tp":"CR","ts":"2016-04-14T18:45:00Z","tX":490,"tY":397,"tags":{"access":"customers","addr:city":"Vila Nova de Cacela","addr:street":"Passadiço","capacity":"440","fee":"yes","internet_access":"wlan","name":"Manta Rota","note":"Parque de Estacionamento para Autocaravanas entre 16 de setembro e 14 de junho. Parque para veículos ligeiros entre 15 de junho e 15 de setembro.","opening_hours":"24/7","operator":"VRSA Sociedade de Gestão Urbana","phone":"+351 910 890 140","wheelchair":"yes"}},"206376368":{"location":[37.3316556,-7.4683228],"ct":"PT","tp":"CR","ts":"2013-02-20T13:07:56Z","tX":490,"tY":397,"tags":{}},"502846199":{"location":[37.2198932,-7.4445743],"ct":"PT","tp":"CR","ts":"2017-06-23T09:33:02Z","tX":490,"tY":397,"tags":{"fee":"no"}},"866315017":{"location":[37.2102284,-7.4068173],"ct":"ES","tp":"CR","ts":"2024-03-20T15:11:41Z","tX":490,"tY":397,"tags":{"addr:housenumber":"17","addr:postcode":"21400","addr:street":"Calle de Extremadura","capacity":"27","caravans":"no","name":"Autocaravanas Puerto de Ayamonte","opening_hours":"24/7","phone":"+34959034498","power_supply":"yes","sanitary_dump_station":"yes","shower":"yes","tents":"no","toilets":"yes","water_point":"yes","website":"https://www.puertosdeandalucia.es/actividad/actividad/red-andaluza-de-areas-de-autocaravanas/autocaravanas-puerto-de-ayamonte"}},"5845532201":{"location":[37.1649246,-7.5209185],"ct":"PT","tp":"SD","ts":"2018-08-21T06:15:29Z","tX":490,"tY":397,"tags":{}},"11907900124":{"location":[37.1989819,-7.4150956],"ct":"PT","tp":"SD","ts":"2024-05-15T19:52:50Z","tX":490,"tY":397,"tags":{"sanitary_dump_station:chemical_toilet":"yes","sanitary_dump_station:gravity":"yes","sanitary_dump_station:grey_water":"yes"}},"12449860052":{"location":[37.1915792,-7.4247706],"ct":"PT","tp":"CR","ts":"2024-12-24T17:26:43Z","tX":490,"tY":397,"tags":{}},"12450078326":{"location":[37.188846,-7.4172242],"ct":"PT","tp":"CR","ts":"2024-12-25T09:07:57Z","tX":490,"tY":397,"tags":{"fee":"no","power_supply":"no","sanitary_dump_station":"no","water_supply":"no"}}}