{"1076758756":{"location":[59.36455,25.66091],"ct":"EE","tp":"CS","ts":"2023-05-12T17:02:30Z","tX":584,"tY":300,"tags":{"backcountry":"yes","bbq":"yes","capacity:persons":"24","capacity:tents":"6","drinking_water":"no","name":"Kulli lõkkekoht","openfire":"yes","operator":"RMK","shower":"no","tents":"yes","toilets":"yes","website":"https://loodusegakoos.ee/kuhuminna/puhkealad/aegviidu-korvemaa-puhkeala/1558"}},"1076758858":{"location":[59.517285,25.5143337],"ct":"EE","tp":"CS","ts":"2025-03-29T14:33:59Z","tX":584,"tY":300,"tags":{"backcountry":"yes","bbq":"yes","capacity:persons":"84","capacity:tents":"21","drinking_water":"yes","name":"Tsitre telkimisala","name:en":"RMK Tsitre campsite","name:lv":"RMK Tsitre atpūtas vieta","openfire":"yes","operator":"RMK","power_supply":"no","shower":"no","source":"www.rmk.ee","tents":"yes","toilets":"yes","website":"https://loodusegakoos.ee/kuhuminna/rahvuspargid/lahemaa-rahvuspark/1726"}},"1188784701":{"location":[59.5141625,25.3800712],"ct":"EE","tp":"CS","ts":"2023-12-28T20:49:36Z","tX":584,"tY":300,"tags":{"access":"customers","backcountry":"yes","bbq":"yes","cabins":"yes","capacity":"20","capacity:tents":"3","description":"Camping only for users of the rental hut!","drinking_water":"untreated","fee":"yes","name":"Pedassaare metsamaja","openfire":"yes","operator":"RMK","reservation":"required","shower":"no","tents":"yes","toilets":"yes","website":"https://loodusegakoos.ee/kuhuminna/puhkealad/pohja-eesti-puhkeala/1626"}},"1298341565":{"location":[59.4751734,25.5415894],"ct":"EE","tp":"CR","ts":"2020-12-20T11:02:14Z","tX":584,"tY":300,"tags":{"name":"Hiie talu puhkeküla","name:lv":"Lauku sēta un brīvdienu ciemats “Hiie”"}},"6848015057":{"location":[59.4823186,25.4753633],"ct":"EE","tp":"CS","ts":"2023-10-24T19:26:35Z","tX":584,"tY":300,"tags":{"name":"Jõekääru puhkekeskus","name:en":"Jõekääru Holiday Centre","name:lv":"Brīvdienu centrs “Jõekääru”","phone":"+372 5038148","website":"https://www.perepuhkus.ee/"}},"10895875035":{"location":[59.397519,25.626347],"ct":"EE","tp":"CS","ts":"2023-05-14T11:30:06Z","tX":584,"tY":300,"tags":{"backcountry":"yes","bbq":"yes","capacity:persons":"16","capacity:tents":"4","name":"Oru lõkkekoht","openfire":"yes","operator":"RMK","shower":"no","tents":"yes","toilets":"yes","website":"https://www.loodusegakoos.ee/kuhuminna/puhkealad/aegviidu-korvemaa-puhkeala/1559"}},"10903334805":{"location":[59.512148,25.373571],"ct":"EE","tp":"CS","ts":"2023-05-16T19:41:36Z","tX":584,"tY":300,"tags":{"backcountry":"yes","bbq":"yes","capacity:persons":"12","capacity:tents":"3","name":"Pedassaare lõkkekoht","openfire":"yes","operator":"RMK","shower":"no","tents":"yes","toilets":"yes","website":"https://loodusegakoos.ee/kuhuminna/puhkealad/pohja-eesti-puhkeala/1623"}},"12811181721":{"location":[59.4576455,25.3534048],"ct":"EE","tp":"CS","ts":"2025-05-05T07:59:00Z","tX":584,"tY":300,"tags":{"access":"yes","backcountry":"yes","camp_site":"basic","fee":"no","tents":"yes"}}}