{"265606657":{"location":[58.2717224,25.5915877],"ct":"EE","tp":"CS","ts":"2024-09-09T20:30:31Z","tX":584,"tY":306,"tags":{"access":"yes","backcountry":"yes","capacity:persons":"60","capacity:tents":"15","caravans":"no","check_date":"2024-04-20","covered":"yes","drinking_water":"no","fee":"no","fireplace":"yes","internet_access":"no","name":"Loodi paisjärve lõkkekoht","operator":"RMK","payment:cards":"no","payment:cash":"yes","payment:credit_cards":"no","payment:debit_cards":"no","picnic_table":"yes","power_supply":"no","reservation":"no","sanitary_dump_station":"no","shower":"no","tents":"yes","toilets":"yes","toilets:wheelchair":"no","website":"https://www.loodusegakoos.ee/kuhuminna/puhkealad/sakala-puhkeala/16103","wheelchair":"limited"}},"292816273":{"location":[58.4051858,25.3197964],"ct":"EE","tp":"CS","ts":"2023-05-16T21:16:36Z","tX":584,"tY":306,"tags":{"backcountry":"yes","bbq":"yes","capacity:persons":"8","capacity:tents":"2","name":"Ruunaraipe lõkkekoht","openfire":"yes","operator":"RMK","shower":"no","tents":"yes","toilets":"yes","website":"https://loodusegakoos.ee/kuhuminna/rahvuspargid/soomaa-rahvuspark/1283"}},"1815886241":{"location":[58.3391801,25.5901766],"ct":"EE","tp":"CS","ts":"2022-05-08T03:00:06Z","tX":584,"tY":306,"tags":{"addr:city":"Viljandi","addr:country":"EE","addr:postcode":"70109","name":"Sammuli","phone":"+3725044298","website":"https://www.sammuli.ee/"}},"1815886242":{"location":[58.3378678,25.5886798],"ct":"EE","tp":"CR","ts":"2022-05-08T02:59:55Z","tX":584,"tY":306,"tags":{"addr:city":"Viljandi","addr:country":"EE","addr:postcode":"70109","name":"Sammuli","phone":"+3725044298","website":"https://www.sammuli.ee/"}},"1932681876":{"location":[58.3465778,25.576815],"ct":"EE","tp":"CS","ts":"2018-11-17T21:19:03Z","tX":584,"tY":306,"tags":{"contact:mail":"info@mannimaja.ee","name":"Männimäe Külalistemaja","phone":"+372 435 4845"}},"3274208876":{"location":[58.3774398,25.6135514],"ct":"EE","tp":"CS","ts":"2022-05-08T03:04:40Z","tX":584,"tY":306,"tags":{"name":"Uueveski Puhkekeskus","operator":"Uueveski Puhkekeskus oü","website":"https://www.uueveski.ee/"}},"5893132858":{"location":[58.4377467,25.5867114],"ct":"EE","tp":"CS","ts":"2018-09-08T16:57:45Z","tX":584,"tY":306,"tags":{"addr:city":"Võistre küla","addr:postcode":"71024","name":"Aiku puhkeala","name:de":"Aiku Ferienpark","name:en":"Aiku Holiday Park","phone":"+372 520 3827","website":"http://www.aikupuhkeala.ee/"}},"10907524165":{"location":[58.3034489,25.562927],"ct":"EE","tp":"CS","ts":"2024-07-16T16:51:01Z","tX":584,"tY":306,"tags":{"access":"yes","backcountry":"yes","bbq":"yes","capacity:persons":"24","capacity:tents":"6","caravans":"yes","drinking_water":"no","fee":"no","name":"Sinialliku lõkkekoht","openfire":"yes","opening_hours":"24/7","operator":"RMK","picnic_table":"yes","power_supply":"no","reservation":"no","shower":"no","tents":"yes","toilets":"yes","website":"https://www.loodusegakoos.ee/kuhuminna/puhkealad/sakala-puhkeala/16102","wheelchair":"yes"}}}