{"678831258":{"location":[52.9393561,25.6269584],"ct":"BY","tp":"CR","ts":"2024-11-08T15:48:30Z","tX":584,"tY":333,"tags":{"name":"Колбавічы-2","name:be":"Колбавічы-2","name:ru":"Колбовичи-2"}},"5626961105":{"location":[52.9728159,25.5061474],"ct":"BY","tp":"CS","ts":"2020-03-04T23:40:07Z","tX":584,"tY":333,"tags":{}},"7841367186":{"location":[52.9815805,25.4582218],"ct":"BY","tp":"CS","ts":"2024-11-08T15:48:30Z","tX":584,"tY":333,"tags":{"name":"Аляска","name:be":"Аляска","name:ru":"Аляска"}},"7841367285":{"location":[52.9888575,25.4251075],"ct":"BY","tp":"CS","ts":"2024-11-08T15:48:30Z","tX":584,"tY":333,"tags":{"name":"Каля Дуба","name:be":"Каля Дуба","name:ru":"У Дуба"}},"7841367287":{"location":[52.980487,25.4461307],"ct":"BY","tp":"CS","ts":"2024-11-08T15:48:30Z","tX":584,"tY":333,"tags":{"name":"Затока","name:be":"Затока","name:ru":"Затока"}},"7841367385":{"location":[52.9781873,25.4643342],"ct":"BY","tp":"CS","ts":"2024-11-08T15:48:30Z","tX":584,"tY":333,"tags":{"name":"Рачны","name:be":"Рачны","name:ru":"Речной"}},"7902333386":{"location":[53.0122196,25.3182984],"ct":"BY","tp":"CS","ts":"2024-11-08T15:48:30Z","tX":584,"tY":333,"tags":{"name":"Беларусь","name:be":"Беларусь","name:ru":"Беларусь"}},"7902333487":{"location":[52.9796105,25.4469687],"ct":"BY","tp":"CR","ts":"2024-11-08T15:48:30Z","tX":584,"tY":333,"tags":{"name":"Рыбацкі","name:be":"Рыбацкі","name:ru":"Рыбацкий"}}}