{"376613549":{"location":[46.9780377,25.5690749],"ct":"RO","tp":"CS","ts":"2021-01-24T23:25:50Z","tX":584,"tY":360,"tags":{"addr:city":"Borsec","contact:facebook":"https://www.facebook.com/Camping-Eti-101927951578093/","name":"Camping Eti","name:hu":"Eti Kemping","note":"faházas kemping"}},"636214384":{"location":[46.9771284,25.5718922],"ct":"RO","tp":"CS","ts":"2018-10-20T07:27:51Z","tX":584,"tY":360,"tags":{"addr:city":"Borsec","name":"Camping Irimescu","name:hu":"Irimescu Kemping","note":"faházas kemping"}},"638145118":{"location":[46.9613325,25.4898966],"ct":"RO","tp":"CS","ts":"2018-10-26T07:36:31Z","tX":584,"tY":360,"tags":{}},"794206956":{"location":[46.9776983,25.5696474],"ct":"RO","tp":"CS","ts":"2010-06-28T12:14:08Z","tX":584,"tY":360,"tags":{"name":"Camping Hóvirág"}},"5009373023":{"location":[46.9770723,25.5717766],"ct":"RO","tp":"CS","ts":"2019-01-13T18:11:56Z","tX":584,"tY":360,"tags":{"addr:housenumber":"119","addr:street":"Strada Carpați","name":"Camping Irimescu","name:hu":"Irimescu Kemping"}},"6718197647":{"location":[46.9159128,25.3509117],"ct":"RO","tp":"CS","ts":"2019-08-17T10:57:52Z","tX":584,"tY":360,"tags":{"description":"Camping with tent possible.","fee":"yes","name":"Cabanas"}}}