{"47223334":{"location":[-33.833837,25.6498164],"ct":"ZA","tp":"CS","ts":"2016-03-22T09:11:30Z","tX":584,"tY":614,"tags":{"name":"Wells Estate"}},"342898760":{"location":[-33.9949036,25.3537225],"ct":"ZA","tp":"CS","ts":"2018-12-01T19:36:27Z","tX":584,"tY":614,"tags":{"addr:city":"Port Elizabeth","addr:housenumber":"23","addr:postcode":"6018","addr:street":"Farm Seaview","name":"Oceanview Forest Resort","note":"60 Places","phone":"+27 41 378 1729","website":"http://oceanviewforestresort.co.za"}},"824718337":{"location":[-33.8161597,25.5376774],"ct":"ZA","tp":"CS","ts":"2022-02-04T10:30:45Z","tX":584,"tY":614,"tags":{"capacity":"180","email":"bookings@sumcay.co.za","facebook":"https://www.facebook.com/groups/194286522063/","name":"Sumcay Camping Centre","phone":"+27 41 933 0017","website":"http://www.sumcay.co.za/"}},"1292373226":{"location":[-33.9728741,25.631557],"ct":"ZA","tp":"CR","ts":"2011-05-20T00:48:47Z","tX":584,"tY":614,"tags":{"addr:erf":"1202","addr:subdistrict":"Humewood","addr:ward":"2","name":"Humepark Caravan Park","source":"NMBM"}},"1292373560":{"location":[-33.9973476,25.3185305],"ct":"ZA","tp":"CS","ts":"2015-05-13T08:27:18Z","tX":584,"tY":614,"tags":{"addr:erf":"487","addr:subdistrict":"Farms Uitenhage","addr:ward":"40","name":"Beachview Holiday Resort","source":"NMBM"}},"4155575024":{"location":[-33.9807065,25.4632336],"ct":"ZA","tp":"CS","ts":"2016-04-29T12:34:16Z","tX":584,"tY":614,"tags":{"name":"Kragga Kamma Game Park Camp Site","operator":"Kragga Kamma Game Park"}}}