{"1176749995":{"location":[36.9356479,126.2928148],"ct":"KR","tp":"CS","ts":"2023-05-28T01:07:48Z","tX":871,"tY":398,"tags":{"name":"꾸지나무골 캠핑장"}},"1370092386":{"location":[37.043644,126.525888],"ct":"KR","tp":"CS","ts":"2025-03-21T19:45:46Z","tX":871,"tY":398,"tags":{"camp_site":"serviced","name":"당진왜목오토캠핑장","operator":"당진도시공사","tents":"yes"}},"1379001856":{"location":[36.9643806,126.3379455],"ct":"KR","tp":"CS","ts":"2025-04-20T01:54:58Z","tX":871,"tY":398,"tags":{"addr:city":"서산시","addr:housenumber":"158-48","addr:postcode":"31911","addr:province":"충청남도","addr:street":"벌천포길","addr:subdistrict":"오지리","addr:town":"대산읍","mobile":"+82 10-9466-4697","name":"서해바다캠핑원","name:en":"West Sea Camping One","name:ja":"西海キャンピングワン","name:ja-Hira":"ソヘバダキャンピングワン","name:ko":"서해바다캠핑원"}},"12769422394":{"location":[36.970425,126.3358197],"ct":"KR","tp":"CS","ts":"2025-04-20T01:54:58Z","tX":871,"tY":398,"tags":{"addr:city":"서산시","addr:housenumber":"93-25","addr:postcode":"31911","addr:province":"충청남도","addr:street":"벌천포길","addr:subdistrict":"오지리","addr:town":"대산읍","name":"서산오토캠핑장","name:en":"Seosan Auto Camping Site","name:ja":"瑞山オートキャンプ場","name:ja-Hira":"ソサンオートキャンプじょう","name:ko":"서산오토캠핑장"}}}