{"111151100":{"location":[48.3454208,-70.9914549],"ct":"CA","tp":"CR","ts":"2024-08-02T21:27:30Z","tX":310,"tY":354,"tags":{"source":"NRCan-CanVec-7.0"}},"1022877823":{"location":[48.3072365,-70.9724099],"ct":"CA","tp":"CR","ts":"2022-01-20T13:31:04Z","tX":310,"tY":354,"tags":{"name":"Camping Le Petit Domaine"}},"1038394566":{"location":[48.3231164,-70.9141595],"ct":"CA","tp":"CS","ts":"2022-03-09T00:54:50Z","tX":310,"tY":354,"tags":{"addr:city":"Saguenay","addr:housenumber":"3735","addr:street":"Chemin Saint-Louis","name":"Camping au Jardin de mon p√®re","source":"NRCan-CanVec-7.0"}},"1042255896":{"location":[48.4252664,-70.8197593],"ct":"CA","tp":"CS","ts":"2022-03-21T14:21:23Z","tX":310,"tY":354,"tags":{"addr:city":"Saint-Fulgence","addr:housenumber":"250","addr:street":"Chemin de la Pointe-aux-Pins","name":"Camping Parc Aventure Cap-Jaseux"}},"1267040212":{"location":[48.3071523,-70.9701846],"ct":"CA","tp":"CS","ts":"2011-04-30T12:19:36Z","tX":310,"tY":354,"tags":{"source":"NRCan-CanVec-7.0"}}}