{"104318152":{"location":[46.8374917,-70.9807315],"ct":"CA","tp":"CS","ts":"2022-01-25T19:49:19Z","tX":310,"tY":360,"tags":{"addr:city":"Beaumont","addr:housenumber":"152","addr:street":"Route du Fleuve","name":"Camping Guilmette","source":"NRCan-CanVec-7.0"}},"104322777":{"location":[46.832663,-70.9897236],"ct":"CA","tp":"CR","ts":"2022-01-25T19:49:19Z","tX":310,"tY":360,"tags":{"access":"private","name":"Domaine au fil du fleuve","source":"NRCan-CanVec-7.0"}},"104330027":{"location":[46.8872697,-70.8859968],"ct":"CA","tp":"CS","ts":"2022-01-25T19:49:19Z","tX":310,"tY":360,"tags":{"addr:housenumber":"7","addr:street":"Chemin des Campings","name":"Camping Parc-Saint-Michel","source":"NRCan-CanVec-7.0"}},"104331276":{"location":[46.8507794,-70.7729715],"ct":"CA","tp":"CS","ts":"2022-04-17T15:22:04Z","tX":310,"tY":360,"tags":{"addr:city":"Saint-Vallier","addr:housenumber":"888","addr:street":"Montée de la Station","name":"Camping Domaine Champêtre","source":"NRCan-CanVec-7.0"}},"104577523":{"location":[47.0087628,-70.963386],"ct":"CA","tp":"CR","ts":"2022-01-25T19:14:59Z","tX":310,"tY":360,"tags":{"name":"Camping Lac-aux-Flambeaux","source":"NRCan-CanVec-7.0"}},"265220426":{"location":[47.0222718,-70.9255842],"ct":"CA","tp":"CS","ts":"2022-12-19T21:38:54Z","tX":310,"tY":360,"tags":{"addr:city":"Sainte-Anne-de-Beaupré","addr:housenumber":"9860","addr:street":"Boulevard Sainte-Anne","name":"Camping du Domaine Sainte-Anne"}},"846798152":{"location":[46.9979115,-70.8121727],"ct":"CA","tp":"CS","ts":"2023-07-12T14:31:55Z","tX":310,"tY":360,"tags":{"addr:city":"Saint-François-de-l'Île-d'Orléans","addr:housenumber":"357","addr:postcode":"G0A 3S0","addr:street":"Chemin Royal","caravans":"yes","drinking_water":"yes","name":"Camping Orléans","operator":"camping.orleans@oricom.ca","power_supply":"yes","shower":"yes","source":"NRCan-CanVec-7.0","tents":"yes","toilets":"yes","website":"https://www.campingorleans.com/fr/"}},"1024652809":{"location":[46.8894022,-70.8804049],"ct":"CA","tp":"CS","ts":"2022-01-25T19:49:19Z","tX":310,"tY":360,"tags":{"addr:city":"Saint-Michel-de-Bellechasse","addr:housenumber":"23","addr:street":"Chemin des Campings","name":"Camping Saint-Laurent","source":"NRCan-CanVec-7.0"}},"1024652810":{"location":[46.8893192,-70.8771777],"ct":"CA","tp":"CS","ts":"2022-01-25T19:49:19Z","tX":310,"tY":360,"tags":{"addr:city":"Saint-Michel-de-Bellechasse","addr:housenumber":"25","addr:street":"Chemin des Campings","name":"Camping La Tasserie"}},"1030826970":{"location":[47.019561,-70.8026023],"ct":"CA","tp":"CS","ts":"2022-02-13T02:12:28Z","tX":310,"tY":360,"tags":{"addr:city":"Saint-François-de-l'Île-d'Orléans","addr:housenumber":"334","addr:province":"Québec","addr:street":"Route d'Argentenay","building:levels":"1","name":"Camping de la Pointe","note":"remote area building","source":"NRCan-CanVec-7.0"}}}