{"291410530":{"location":[44.031977,-70.9651245],"ct":"US","tp":"CR","ts":"2024-03-14T15:37:24Z","tX":310,"tY":372,"tags":{"caravan_site":"motorhome_stopover","operator":"Frybeburg Fair"}},"675448562":{"location":[44.0861166,-70.6951795],"ct":"US","tp":"CS","ts":"2023-10-28T17:27:00Z","tX":310,"tY":372,"tags":{"access":"customers","addr:city":"Bridgton","addr:housenumber":"54","addr:postcode":"04009","addr:state":"ME","addr:street":"Lakeside Pines Rd","name":"Lakeside Pines Campground","website":"https://www.lakesidepinescampground.com/"}},"1092345056":{"location":[43.9563347,-70.7824538],"ct":"US","tp":"CS","ts":"2022-09-06T12:25:47Z","tX":310,"tY":372,"tags":{"description":"Campground","name":"Granger Pond Camping Area","website":"http://www.grangerpond.com/"}},"1312526769":{"location":[44.0501979,-70.679114],"ct":"US","tp":"CS","ts":"2024-09-01T02:58:43Z","tX":310,"tY":372,"tags":{"name":"Salmon Point Campground","operator":"Town of Bridgton"}},"7215330781":{"location":[44.0870485,-70.6941455],"ct":"US","tp":"CS","ts":"2021-10-18T23:17:17Z","tX":310,"tY":372,"tags":{"addr:city":"Bridgton","addr:housenumber":"54","addr:postcode":"04009","addr:state":"ME","addr:street":"Lakeside Pines Road"}},"7367557474":{"location":[44.0631772,-70.9487136],"ct":"US","tp":"CS","ts":"2020-04-04T21:24:08Z","tX":310,"tY":372,"tags":{"addr:city":"Fryeburg","addr:housenumber":"2144","addr:postcode":"04037","addr:state":"ME","addr:street":"Main Street"}},"7367558542":{"location":[44.0679209,-70.9093296],"ct":"US","tp":"CS","ts":"2020-06-12T17:08:12Z","tX":310,"tY":372,"tags":{"addr:city":"Fryeburg","addr:housenumber":"13 B11","addr:postcode":"04037","addr:state":"ME","addr:street":"Lovell Road","operator":"Fiddlehead Campground B11"}},"7367558543":{"location":[44.067286,-70.9109512],"ct":"US","tp":"CS","ts":"2020-06-12T17:08:12Z","tX":310,"tY":372,"tags":{"addr:city":"Fryeburg","addr:housenumber":"13 B10","addr:postcode":"04037","addr:state":"ME","addr:street":"Lovell Road","operator":"Fiddlehead Campground B11"}},"7367558544":{"location":[44.0678173,-70.9149765],"ct":"US","tp":"CS","ts":"2020-04-04T21:24:08Z","tX":310,"tY":372,"tags":{"addr:city":"Fryeburg","addr:housenumber":"13 B9","addr:postcode":"04037","addr:state":"ME","addr:street":"Lovell Road","name":"Fiddlehead Campground B9"}},"7367558545":{"location":[44.0663457,-70.9149541],"ct":"US","tp":"CS","ts":"2020-06-12T17:08:12Z","tX":310,"tY":372,"tags":{"addr:city":"Fryeburg","addr:housenumber":"13 B8","addr:postcode":"04037","addr:state":"ME","addr:street":"Lovell Road","operator":"Fiddlehead Campground"}},"7367558546":{"location":[44.0656564,-70.9160556],"ct":"US","tp":"CS","ts":"2020-06-12T17:08:12Z","tX":310,"tY":372,"tags":{"addr:city":"Fryeburg","addr:housenumber":"13 B7","addr:postcode":"04037","addr:state":"ME","addr:street":"Lovell Road","operator":"Fiddlehead Campground"}},"7367558547":{"location":[44.0668721,-70.9208647],"ct":"US","tp":"CS","ts":"2020-06-12T17:08:12Z","tX":310,"tY":372,"tags":{"addr:city":"Fryeburg","addr:housenumber":"13 B6","addr:postcode":"04037","addr:state":"ME","addr:street":"Lovell Road","operator":"Fiddlehead Campground"}},"7367558548":{"location":[44.0659244,-70.9223449],"ct":"US","tp":"CS","ts":"2020-06-12T17:08:12Z","tX":310,"tY":372,"tags":{"addr:city":"Fryeburg","addr:housenumber":"13 B5","addr:postcode":"04037","addr:state":"ME","addr:street":"Lovell Road","operator":"Fiddlehead Campground"}},"7367558549":{"location":[44.0642125,-70.9253611],"ct":"US","tp":"CS","ts":"2020-06-12T17:08:12Z","tX":310,"tY":372,"tags":{"addr:city":"Fryeburg","addr:housenumber":"13 B4","addr:postcode":"04037","addr:state":"ME","addr:street":"Lovell Road","operator":"Fiddlehead Campground"}},"7367558550":{"location":[44.0640678,-70.9323299],"ct":"US","tp":"CS","ts":"2020-06-12T17:08:12Z","tX":310,"tY":372,"tags":{"addr:city":"Fryeburg","addr:housenumber":"13 B3","addr:postcode":"04037","addr:state":"ME","addr:street":"Lovell Road","operator":"Fiddlehead Campground"}},"7367558551":{"location":[44.0604258,-70.934465],"ct":"US","tp":"CS","ts":"2020-06-12T17:08:12Z","tX":310,"tY":372,"tags":{"addr:city":"Fryeburg","addr:housenumber":"13 B2","addr:postcode":"04037","addr:state":"ME","addr:street":"Lovell Road","operator":"Fiddlehead Campground"}},"7367558552":{"location":[44.0573675,-70.9388161],"ct":"US","tp":"CS","ts":"2020-06-12T17:08:12Z","tX":310,"tY":372,"tags":{"addr:city":"Fryeburg","addr:housenumber":"13 B1","addr:postcode":"04037","addr:state":"ME","addr:street":"Lovell Road","operator":"Fiddlehead Campground"}},"7367558553":{"location":[44.0601803,-70.9420355],"ct":"US","tp":"CS","ts":"2020-04-04T21:24:08Z","tX":310,"tY":372,"tags":{"addr:city":"Fryeburg","addr:housenumber":"13","addr:postcode":"04037","addr:state":"ME","addr:street":"Lovell Road","name":"Fiddlehead Campground SHOWERS"}},"7367558554":{"location":[44.0607084,-70.9416907],"ct":"US","tp":"CS","ts":"2020-04-04T21:24:08Z","tX":310,"tY":372,"tags":{"addr:city":"Fryeburg","addr:housenumber":"13","addr:postcode":"04037","addr:state":"ME","addr:street":"Lovell Road","name":"Fiddlehead Campground CHECKIN AND CAMP STORE"}}}