{"709348277":{"location":[43.4412727,-70.7082428],"ct":"US","tp":"CS","ts":"2021-09-23T04:16:22Z","tX":310,"tY":374,"tags":{"addr:city":"Sanford","addr:housenumber":"165","addr:postcode":"04073","addr:state":"ME","addr:street":"Bernier Road","name":"Apache Campground"}},"726094010":{"location":[43.3936595,-70.7548321],"ct":"US","tp":"CS","ts":"2019-09-19T09:47:08Z","tX":310,"tY":374,"tags":{"addr:city":"Sanford","addr:housenumber":"149","addr:postcode":"04073","addr:state":"ME","addr:street":"Sand Pond Road","building":"yes","description":"Jul-Oct. Modern chalets, 'glamping' accomodations or wood and canvas tents.","name":"Huttopia Southern Maine","operator":"Huttopia","phone":"+1-207-324-1752","website":"https://canada-usa.huttopia.com/en/site/southern-maine/"}},"761763284":{"location":[43.5229766,-70.8922809],"ct":"US","tp":"CR","ts":"2020-01-08T15:45:42Z","tX":310,"tY":374,"tags":{"addr:city":"Acton","addr:housenumber":"1053","addr:postcode":"04001","addr:state":"ME","addr:street":"ME 109","name":"Apple Valley Campground","phone":"+1-207-636-2285","website":"https://campapplevalleymaine.com/"}},"765838945":{"location":[43.5047845,-70.6941872],"ct":"US","tp":"CR","ts":"2020-01-22T22:43:25Z","tX":310,"tY":374,"tags":{"name":"Bunganut Lake Camping Area"}},"990269545":{"location":[43.3794902,-70.6888729],"ct":"US","tp":"CR","ts":"2021-10-06T08:35:06Z","tX":310,"tY":374,"tags":{"name":"Yellowstone Park Campground","phone":"+1-207 324-7782","website":"https://yellowstoneme.com/"}},"1866720908":{"location":[43.4581461,-71.0102256],"ct":"US","tp":"CS","ts":"2012-08-15T02:10:08Z","tX":310,"tY":374,"tags":{}},"3897517228":{"location":[43.5562383,-70.9000513],"ct":"US","tp":"CS","ts":"2015-12-18T01:47:32Z","tX":310,"tY":374,"tags":{}},"7185104143":{"location":[43.541156,-70.912021],"ct":"US","tp":"CS","ts":"2020-02-04T19:30:11Z","tX":310,"tY":374,"tags":{"addr:city":"Acton","addr:housenumber":"345","addr:postcode":"04001","addr:state":"ME","addr:street":"H Road"}}}