{"29688439":{"location":[42.8551537,-70.8753527],"ct":"US","tp":"CS","ts":"2018-06-26T03:04:46Z","tX":310,"tY":376,"tags":{"access":"restricted","massgis:ARTICLE97":"0","massgis:ASSESS_ACR":"29.00000000","massgis:ASSESS_LOT":"128","massgis:ASSESS_MAP":"18","massgis:ATT_DATE":"1996/03/12","massgis:BASE_MAP":"259-6","massgis:DCAM_ID":"0","massgis:DEED_ACRES":"0.00000000","massgis:EOEAINVOLV":"0","massgis:FEESYM":"P","massgis:FEE_OWNER":"RUSNIK INCORPORATED","massgis:FY_FUNDING":"0","massgis:LEV_PROT":"N","massgis:OS_DEED_BO":"0","massgis:OS_DEED_PA":"0","massgis:OS_ID":"259-1728","massgis:OWNER_TYPE":"P","massgis:POLY_ID":"1728","massgis:PRIM_PURP":"R","massgis:PUB_ACCESS":"L","massgis:SITE_NAME":"RUSNIK CAMPING AREA","massgis:SOURCE_MAP":"1","massgis:TOWN_ID":"259","name":"Rusnik Campground","owner":"Rusnik Incorporated","ownership":"private","source":"MassGIS OpenSpace (http://www.mass.gov/mgis/osp.htm)"}},"29689786":{"location":[42.8336882,-70.8425462],"ct":"US","tp":"CS","ts":"2018-06-26T03:10:18Z","tX":310,"tY":376,"tags":{"access":"restricted","name":"Pines Camping Area","owner":"Bartlett Robert","website":"http://www.pinescampingarea.com/"}},"29695421":{"location":[42.8731612,-70.8824501],"ct":"US","tp":"CS","ts":"2018-06-26T02:58:59Z","tX":310,"tY":376,"tags":{"access":"restricted","massgis:ARTICLE97":"0","massgis:ASSESS_ACR":"16.50000000","massgis:ASSESS_LOT":"180","massgis:ASSESS_MAP":"19","massgis:ATT_DATE":"1996/03/12","massgis:BASE_MAP":"259-6","massgis:DCAM_ID":"0","massgis:DEED_ACRES":"0.00000000","massgis:EOEAINVOLV":"0","massgis:FEESYM":"P","massgis:FEE_OWNER":"CHOUINARD BRENDA","massgis:FY_FUNDING":"0","massgis:LEV_PROT":"N","massgis:OS_DEED_BO":"0","massgis:OS_DEED_PA":"0","massgis:OS_ID":"259-1714","massgis:OWNER_TYPE":"P","massgis:POLY_ID":"1714","massgis:PRIM_PURP":"R","massgis:PUB_ACCESS":"L","massgis:SITE_NAME":"BLACK BEAR CAMPGROUND","massgis:SOURCE_MAP":"1","massgis:TOWN_ID":"259","name":"Black Bear Campground","owner":"Chouinard Brenda","ownership":"private","source":"MassGIS OpenSpace (http://www.mass.gov/mgis/osp.htm)"}},"224812622":{"location":[42.8244399,-70.820262],"ct":"US","tp":"CS","ts":"2013-06-08T00:55:22Z","tX":310,"tY":376,"tags":{}},"685685950":{"location":[42.8980997,-70.8140657],"ct":"US","tp":"CR","ts":"2019-04-24T16:15:56Z","tX":310,"tY":376,"tags":{"capacity":"28","fee":"yes","name":"Hampton Beach State RV Park","operator":"Hampton Beach State Park","tents":"no"}},"940787132":{"location":[42.9581567,-70.9603226],"ct":"US","tp":"CS","ts":"2021-05-08T18:25:38Z","tX":310,"tY":376,"tags":{"addr:city":"Exeter","addr:country":"US","addr:housenumber":"185","addr:postcode":"03833","addr:state":"NH","addr:street":"Court Street","name":"Green Gate Campground Function Hall","source":"mapillary"}},"1249293176":{"location":[42.9607575,-70.951549],"ct":"US","tp":"CS","ts":"2024-02-11T21:57:23Z","tX":310,"tY":376,"tags":{"addr:city":"Exeter","addr:housenumber":"190","addr:postcode":"03833","addr:state":"NH","addr:street":"Court Street","backcountry":"no","caravans":"yes","dog":"yes","drinking_water":"yes","fee":"yes","name":"Winding Rivers Campground","old_name":"Exeter Elms Family Campground","phone":"+1-603-778-7631","power_supply":"yes","tents":"yes","website":"https://www.windingrivernh.com"}},"1317648793":{"location":[42.8675832,-70.9889965],"ct":"US","tp":"CR","ts":"2024-09-25T13:05:51Z","tX":310,"tY":376,"tags":{"access":"customers","addr:city":"South Hampton","addr:housenumber":"167","addr:postcode":"03827","addr:state":"NH","addr:street":"Campground Road","brand":"Thousand Trails","brand:wikidata":"Q7797073","fixme":"Maybe the campground should be a point and nto an area","internet_access":"wlan","internet_access:fee":"yes","name":"Tuxbury Pond RV Campground","phone":"+1-603-394-7660","website":"https://thousandtrails.com/new-hampshire/tuxbury-pond-rv-resort/"}},"4358911035":{"location":[42.9473287,-70.9167032],"ct":"US","tp":"CS","ts":"2021-04-02T21:33:32Z","tX":310,"tY":376,"tags":{"internet_access":"wlan","name":"Wakeda campground"}},"5748305521":{"location":[42.8242637,-70.8207312],"ct":"US","tp":"CS","ts":"2018-07-09T04:11:49Z","tX":310,"tY":376,"tags":{"name":"Salisbury State Park Reservation"}},"5748305522":{"location":[42.930863,-70.844843],"ct":"US","tp":"CS","ts":"2018-07-09T04:11:50Z","tX":310,"tY":376,"tags":{"name":"Tidewater Campground"}},"10920437980":{"location":[43.0451896,-70.9265864],"ct":"US","tp":"CS","ts":"2023-05-22T23:55:27Z","tX":310,"tY":376,"tags":{"caravans":"yes","name":"Great Bay Camping","reservation":"required","sanitary_dump_station":"yes","tents":"yes","website":"https://www.greatbaycamping.com"}},"5881587099":{"location":[42.9313999,-70.8480648],"ct":"US","tp":"CR","ts":"2019-02-19T13:08:16Z","tX":310,"tY":376,"tags":{"addr:city":"Hampton","addr:country":"US","addr:housenumber":"160","addr:postcode":"03842","addr:state":"NH","addr:street":"Lafayette Road","name":"Tidewater Campground","phone":"+1-603-926-5474","website":"https://tidewatercampgroundnh.com/"}},"10652106704":{"location":[42.9822045,-70.8317837],"ct":"US","tp":"CR","ts":"2023-02-12T16:30:18Z","tX":310,"tY":376,"tags":{"name":"Sea Coast Camping And RV Resort"}}}