{"29690097":{"location":[41.9123174,-70.9070619],"ct":"US","tp":"CR","ts":"2023-11-25T19:36:59Z","tX":310,"tY":380,"tags":{"addr:city":"Middleboro","addr:housenumber":"438","addr:postcode":"02346","addr:street":"Plymouth Street","name":"Boston/Cape Cod KOA","old_name":"Plymouth Rock Campground","owner":"Koa Campgrounds","ownership":"private","phone":"+1-508-947-6435","website":"https://koa.com/campgrounds/boston/"}},"29690104":{"location":[41.8320457,-70.7446389],"ct":"US","tp":"CS","ts":"2014-11-15T20:21:50Z","tX":310,"tY":380,"tags":{"name":"Pinewood Way Campground","owner":"Tinkham S & Williams"}},"64797923":{"location":[41.8464995,-70.6913507],"ct":"US","tp":"CS","ts":"2017-06-23T06:09:42Z","tX":310,"tY":380,"tags":{"operator":"Myles Standish State Forest","ref":"J"}},"4943035022":{"location":[41.9271381,-70.7332466],"ct":"US","tp":"CS","ts":"2017-06-29T21:33:20Z","tX":310,"tY":380,"tags":{"addr:housenumber":"234","addr:postcode":"02360","addr:street":"Pinewood Road","name":"Pinewood Lodge & Campgrounds"}}}