{"243006319":{"location":[-33.7183785,-70.9254115],"ct":"CL","tp":"CS","ts":"2023-06-09T01:13:32Z","tX":310,"tY":613,"tags":{"name":"Camping Millantú"}},"243006438":{"location":[-33.7161003,-70.9112995],"ct":"CL","tp":"CS","ts":"2024-04-09T12:38:48Z","tX":310,"tY":613,"tags":{"addr:housenumber":"31","addr:street":"Camino Las Parcelas","addr:unit":"A","landuse":"recreation_ground","name":"Camping El Trébol"}},"1292954714":{"location":[-33.7095214,-70.9300763],"ct":"CL","tp":"CS","ts":"2024-06-16T23:32:29Z","tX":310,"tY":613,"tags":{"name":"Camping El Bosque","phone":"+56942989259"}},"2504451395":{"location":[-33.7137537,-70.8791408],"ct":"CL","tp":"CS","ts":"2016-10-20T04:07:14Z","tX":310,"tY":613,"tags":{"name":"Granja Educativa Lonquén"}},"2504452965":{"location":[-33.7159705,-70.9080958],"ct":"CL","tp":"CS","ts":"2013-10-21T22:06:25Z","tX":310,"tY":613,"tags":{"addr:housenumber":"Parcela 31B","addr:street":"Camino Las Parcelas","name":"Parque El Oasis"}},"4576612889":{"location":[-33.7190675,-70.9212168],"ct":"CL","tp":"CS","ts":"2016-12-28T03:57:20Z","tX":310,"tY":613,"tags":{"email":"contacto@lagunadelmaipo.cl","name":"Camping Laguna del Maipo","website":"http://lagunadelmaipo.cl"}},"6184111792":{"location":[-33.7153965,-70.8876226],"ct":"CL","tp":"CS","ts":"2022-05-07T11:00:01Z","tX":310,"tY":613,"tags":{"addr:housenumber":"24","addr:street":"Las Parcelas","name":"Camping Los Puentes","website":"https://www.campinglospuentes.cl/"}},"11803792269":{"location":[-33.5734998,-70.779313],"ct":"CL","tp":"CR","ts":"2024-04-09T02:22:23Z","tX":310,"tY":613,"tags":{"name":"La Izuelina"}}}