{"168820512":{"location":[-33.8388044,-70.944525],"ct":"CL","tp":"CS","ts":"2012-06-24T06:24:05Z","tX":310,"tY":614,"tags":{"name":"Camping Los Alamos"}},"1800183531":{"location":[-33.848877,-70.943913],"ct":"CL","tp":"CS","ts":"2022-05-07T09:36:01Z","tX":310,"tY":614,"tags":{"addr:city":"Paine","addr:housenumber":"11","addr:street":"Calle Camino Aculeo","internet_access":"wlan","name":"Camping Pantanal","website":"https://www.pantanal.cl/"}},"1800183618":{"location":[-33.8576136,-70.9251487],"ct":"CL","tp":"CS","ts":"2013-08-25T13:49:47Z","tX":310,"tY":614,"tags":{"name":"Camping Loma Verde"}},"1800183712":{"location":[-33.8488908,-70.8868039],"ct":"CL","tp":"CS","ts":"2013-08-25T13:49:47Z","tX":310,"tY":614,"tags":{"name":"Camping Pintué"}},"1800183854":{"location":[-33.8523746,-70.8843791],"ct":"CL","tp":"CS","ts":"2012-06-24T06:27:18Z","tX":310,"tY":614,"tags":{"name":"Camping Cartagena"}},"11038574526":{"location":[-33.9237947,-70.7217253],"ct":"CL","tp":"CS","ts":"2023-07-11T05:43:04Z","tX":310,"tY":614,"tags":{"addr:city":"Mostazal","addr:housenumber":"km. 57","addr:street":"Ruta 5 Sur","name":"Camping Chitakelindo"}},"4892832696":{"location":[-33.7683804,-70.6642299],"ct":"CL","tp":"SD","ts":"2023-05-22T15:48:52Z","tX":310,"tY":614,"tags":{}},"12403391917":{"location":[-33.8858035,-70.9814352],"ct":"CL","tp":"CS","ts":"2024-12-07T22:15:52Z","tX":310,"tY":614,"tags":{"access":"yes","addr:city":"Paine","addr:street":"Sendero Las Canchas","backcountry":"yes","caravans":"no","fee":"yes","name":"Zona de Campamento Las Canchas","operator":"Corporación Altos de Cantillana","static_caravans":"no","tents":"yes"}}}