{"23999849":{"location":[45.2105713,-93.2773905],"ct":"US","tp":"CS","ts":"2023-04-29T21:31:09Z","tX":246,"tY":367,"tags":{}},"617909953":{"location":[45.3312102,-93.4560762],"ct":"US","tp":"CS","ts":"2022-02-11T20:16:13Z","tX":246,"tY":367,"tags":{"name":"Camping"}},"817358994":{"location":[45.1870146,-93.4516818],"ct":"US","tp":"CS","ts":"2020-06-18T22:21:39Z","tX":246,"tY":367,"tags":{}},"1112096311":{"location":[45.1825978,-93.4375642],"ct":"US","tp":"CS","ts":"2022-11-10T18:25:20Z","tX":246,"tY":367,"tags":{"group_only":"yes","name":"Hayden Lake Camp","operator":"Three Rivers Park District"}},"1196881881":{"location":[45.1490152,-93.459316],"ct":"US","tp":"CS","ts":"2023-08-10T18:57:13Z","tX":246,"tY":367,"tags":{"group_only":"yes"}},"7204753899":{"location":[45.1870636,-93.4519691],"ct":"US","tp":"CS","ts":"2020-02-11T23:00:42Z","tX":246,"tY":367,"tags":{}},"7218517702":{"location":[45.2104639,-93.2777325],"ct":"US","tp":"CS","ts":"2024-12-01T06:45:16Z","tX":246,"tY":367,"tags":{"addr:city":"Coon Rapids","addr:housenumber":"13101","addr:postcode":"55433","addr:state":"MN","addr:street":"County Parkway B","cabins":"yes","charge":"55 USD","description":"$20-$55","fee":"yes","name":"Bunker Hills Campground","phone":"+1-763-324-3330","reservation":"accepted","sanitary_dump_station":"yes","seasonal":"spring;summer;autumn","website":"https://www.anokacounty.us/910/Camping"}},"10853970023":{"location":[45.2191276,-93.4552777],"ct":"US","tp":"CS","ts":"2023-04-28T23:09:02Z","tX":246,"tY":367,"tags":{"backcountry":"yes","name":"Cloquet Island Watercraft Campsite","operator":"Minnesota DNR"}},"10853970024":{"location":[45.2214912,-93.4573437],"ct":"US","tp":"CS","ts":"2023-04-28T23:09:02Z","tX":246,"tY":367,"tags":{"backcountry":"yes","name":"Foster Island Watercraft Campsite","operator":"Minnesota DNR"}},"12885298500":{"location":[45.1095459,-93.2185649],"ct":"US","tp":"SD","ts":"2025-06-04T00:49:04Z","tX":246,"tY":367,"tags":{}}}