{"7160453112":{"location":[43.4849426,-93.4201467],"ct":"US","tp":"CS","ts":"2024-08-26T05:15:41Z","tX":246,"tY":374,"tags":{"addr:city":"Northwood","addr:state":"IA","addr:street":"500th St.","capacity":"8","charge":"10 USD","fee":"yes","name":"Silver Lake Park Campground","power_supply":"20 amp","seasonal":"spring;summer;autumn","toilets":"yes"}},"7160453921":{"location":[43.4127514,-93.4400708],"ct":"US","tp":"CS","ts":"2020-08-31T15:51:41Z","tX":246,"tY":374,"tags":{"addr:city":"Lake Mills","addr:housenumber":"4477-4491","addr:state":"IA","addr:street":"Dogwood Avenue","fee":"no","name":"Elk Creek Marsh WMA"}},"7427885523":{"location":[43.484028,-93.2632784],"ct":"US","tp":"CS","ts":"2024-08-26T05:15:41Z","tX":246,"tY":374,"tags":{"addr:city":"Northwood","addr:state":"IA","capacity":"4","charge":"10 USD","fee":"yes","name":"Ochee Yahola Campround"}},"7428059405":{"location":[43.4761413,-93.4186802],"ct":"US","tp":"CS","ts":"2024-08-26T05:15:41Z","tX":246,"tY":374,"tags":{"addr:city":"Emmons","addr:state":"IA","capacity":"8","charge":"10 USD","drinking_water":"no","fee":"yes","name":"Silver Lake Park Campgrounds","phone":"+1-641-324-1524","power_supply":"yes","toilets":"vault"}}}