{"192305480":{"location":[38.672111,-93.290153],"ct":"US","tp":"CS","ts":"2022-04-18T02:31:36Z","tX":246,"tY":392,"tags":{"addr:city":"Sedalia","addr:housenumber":"21701","addr:state":"MO","addr:street":"21701 Sacajawea Rd","camp_site":"basic","name":"Lazy Liz Horse & RV Campground","phone":"(816) 935-2357"}},"491027461":{"location":[38.6932687,-93.2679981],"ct":"US","tp":"CS","ts":"2025-03-10T14:07:24Z","tX":246,"tY":392,"tags":{"access":"yes","addr:city":"Sedalia","addr:housenumber":"1865","addr:postcode":"65301","addr:state":"MO","addr:street":"Clarendon Road","campsite":"serviced","caravans":"yes","name":"Missouri State Fair Public Campground","operator":"Missouri State Fairgrounds","tents":"yes"}},"11366834479":{"location":[38.6639364,-93.2544538],"ct":"US","tp":"CR","ts":"2023-11-21T16:31:41Z","tX":246,"tY":392,"tags":{}},"11366857201":{"location":[38.7471052,-93.2271641],"ct":"US","tp":"CR","ts":"2023-11-21T16:41:08Z","tX":246,"tY":392,"tags":{"name":"Happy Acres RV Park"}},"12650001511":{"location":[38.6949794,-93.2683585],"ct":"US","tp":"CS","ts":"2025-03-10T14:07:24Z","tX":246,"tY":392,"tags":{"group_only":"yes","name":"White Camp","operator":"Missouri State Fair Campgrounds"}},"12650001557":{"location":[38.6943386,-93.2653775],"ct":"US","tp":"CS","ts":"2025-03-10T14:07:24Z","tX":246,"tY":392,"tags":{"group_only":"yes","name":"Brown Camp","operator":"Missouri State Fair Campgrounds"}},"12650001671":{"location":[38.6938728,-93.2690859],"ct":"US","tp":"CS","ts":"2025-03-10T14:07:24Z","tX":246,"tY":392,"tags":{"group_only":"yes","name":"Yellow Camp","operator":"Missouri State Fair Campgrounds"}},"12650001672":{"location":[38.6925651,-93.2701502],"ct":"US","tp":"CS","ts":"2025-03-10T14:07:24Z","tX":246,"tY":392,"tags":{"group_only":"yes","name":"Green Camp","operator":"Missouri State Fair Campgrounds"}},"12650001673":{"location":[38.6923245,-93.2674078],"ct":"US","tp":"CS","ts":"2025-03-10T14:07:24Z","tX":246,"tY":392,"tags":{"group_only":"yes","name":"Red Camp","operator":"Missouri State Fair Campgrounds"}},"12650001772":{"location":[38.6911731,-93.2672292],"ct":"US","tp":"CS","ts":"2025-03-10T14:07:24Z","tX":246,"tY":392,"tags":{"group_only":"yes","name":"Black Camp","operator":"Missouri State Fair Campground"}},"12650001773":{"location":[38.6924448,-93.2655546],"ct":"US","tp":"CS","ts":"2025-03-10T14:07:24Z","tX":246,"tY":392,"tags":{"group_only":"yes","name":"Gold Camp","operator":"Missouri State Fair Campground"}},"12650001782":{"location":[38.6949107,-93.2665039],"ct":"US","tp":"CS","ts":"2025-03-10T14:07:24Z","tX":246,"tY":392,"tags":{"group_only":"yes","name":"Blue Camp","operator":"Missouri State Fair Campgrounds"}}}