{"1169786515":{"location":[21.3155393,105.8075561],"ct":"VN","tp":"CS","ts":"2023-07-31T15:59:24Z","tX":812,"tY":449,"tags":{"access":"customers","name":"Chom Nui Camping","name:en":"Chom Nui Camping","name:vi":"Khu cắm trại Chòm Núi","phone":"+84 98 776 99 90","website":"https://www.facebook.com/chomnuicamping"}},"1169786523":{"location":[21.3196764,105.8088008],"ct":"VN","tp":"CS","ts":"2023-12-12T07:10:14Z","tX":812,"tY":449,"tags":{"access":"yes","name":"Hoa Son Valley Camping","name:en":"Hoa Son Valley Camping","name:vi":"Thung Lũng Hoa Sơn","operator":"Thung Lũng Hoa Sơn","phone":"+84 98 261 67 12","tents":"yes","website":"https://www.facebook.com/thunglunghoason"}},"9459519908":{"location":[21.304563,105.8024484],"ct":"VN","tp":"CS","ts":"2023-04-26T14:07:36Z","tX":812,"tY":449,"tags":{"fee":"yes","name":"Co Tam Camping","name:en":"Co Tam Camping","name:vi":"Cô Tám Camping","payment:cash":"yes","phone":"+84971576345"}},"9459519910":{"location":[21.3039682,105.7989796],"ct":"VN","tp":"CS","ts":"2022-02-25T04:46:54Z","tX":812,"tY":449,"tags":{"fee":"yes","payment:cash":"yes"}},"9459519911":{"location":[21.3044615,105.8037898],"ct":"VN","tp":"CS","ts":"2023-04-26T14:07:36Z","tX":812,"tY":449,"tags":{"access":"customers","email":"trangpham.7796@gmail.com","fee":"yes","name":"Chu Thien Camping","name:en":"Chu Thien Camping","name:vi":"Du lịch Hồ Hàm Lợn Chú Thiện","operator":"Du lịch Hồ Hàm Lợn Chú Thiện","payment:cash":"yes","phone":"+84367768119","website":"https://www.facebook.com/dulichhamlonchuthien"}},"9459519912":{"location":[21.3060269,105.7990617],"ct":"VN","tp":"CS","ts":"2024-03-06T13:25:23Z","tX":812,"tY":449,"tags":{"access":"customers","fee":"yes","name":"Boar Glamping","operator":"Boar Glamping","payment:cash":"yes","phone":"+84356846226","website":"https://www.facebook.com/BoarGlamping"}},"10266642910":{"location":[21.3247982,105.7723592],"ct":"VN","tp":"CS","ts":"2023-02-20T01:54:11Z","tX":812,"tY":449,"tags":{"backcountry":"yes","ele":"125","fee":"no"}},"10292484880":{"location":[21.3240863,105.7814851],"ct":"VN","tp":"CS","ts":"2022-12-29T03:16:56Z","tX":812,"tY":449,"tags":{"access":"yes","backcountry":"yes","ele":"90","fee":"no"}},"10843754924":{"location":[21.304477,105.8045742],"ct":"VN","tp":"CS","ts":"2023-04-26T14:07:36Z","tX":812,"tY":449,"tags":{"email":"dulichhamlonnamson@gmail.com","name":"Trang Thieu Camping","name:en":"Trang Thieu Camping","name:vi":"Trang Thiều Camping","phone":"+84353513987","website":"https://www.facebook.com/dulichhamlonnamson"}},"11697431975":{"location":[21.3068976,105.7997442],"ct":"VN","tp":"CS","ts":"2024-03-06T13:25:23Z","tX":812,"tY":449,"tags":{"access":"customers","fee":"yes","name":"Lieu Mung Camping","name:en":"Lieu Mung Camping","name:vi":"Liệu Mừng Camping","operator":"Liệu Mừng Camping","payment:cash":"yes","phone":"+84343118878","static_caravans":"no"}}}