{"623983811":{"location":[-25.9684809,-54.5847484],"ct":"AR","tp":"CS","ts":"2024-02-23T12:06:53Z","tX":356,"tY":588,"tags":{"addr:city":"Wanda","addr:postcode":"3376","fee":"yes","name":"Camping Panambi","payment:debit_cards":"yes","payment:electronic_purses":"yes","phone":"+54 3757 518228","tents":"yes"}},"623983812":{"location":[-25.899066,-54.5547461],"ct":"AR","tp":"CS","ts":"2010-01-31T13:35:42Z","tX":356,"tY":588,"tags":{"name":"Camping Municipal Lago Urugua-í"}},"623983813":{"location":[-25.8558694,-54.5480056],"ct":"AR","tp":"CS","ts":"2010-01-31T13:35:42Z","tX":356,"tY":588,"tags":{"name":"Camping Alto Paraná"}},"1371832228":{"location":[-25.9678024,-54.5831545],"ct":"AR","tp":"CS","ts":"2024-02-23T11:44:25Z","tX":356,"tY":588,"tags":{"addr:city":"Wanda","addr:postcode":"3376","fee":"yes","name":"Salto Bonito","payment:electronic_purses":"yes","phone":"+54 376 4610847","tents":"yes"}},"6861773985":{"location":[-25.8403457,-54.5392304],"ct":"AR","tp":"CS","ts":"2019-10-08T22:52:39Z","tX":356,"tY":588,"tags":{"internet_access":"wlan","name":"La cantera","operator":"Jorge","phone":"+3757505427"}},"11405254922":{"location":[-25.9005571,-54.55494],"ct":"AR","tp":"CS","ts":"2023-12-09T12:31:57Z","tX":356,"tY":588,"tags":{}},"11655938359":{"location":[-26.0018587,-54.6076323],"ct":"AR","tp":"CS","ts":"2024-02-23T11:25:50Z","tX":356,"tY":588,"tags":{"addr:city":"Puerto Esperanza","fee":"yes","name":"Camping Familiar","payment:debit_cards":"yes","payment:electronic_purses":"yes","phone":"+54 3757 468935","tents":"yes"}},"11655999617":{"location":[-26.0358915,-54.6410958],"ct":"AR","tp":"CS","ts":"2024-02-23T11:12:42Z","tX":356,"tY":588,"tags":{"addr:city":"Colonia Delicia","fee":"yes","name":"Pileta El Caribe","payment:electronic_purses":"yes","phone":"+54 3757 678858","tents":"yes"}},"11656016388":{"location":[-25.9979569,-54.5790943],"ct":"AR","tp":"CS","ts":"2024-02-23T11:16:57Z","tX":356,"tY":588,"tags":{"addr:city":"Puerto Esperanza","fee":"yes","name":"Terra Nossa","payment:debit_cards":"yes","payment:electronic_purses":"yes","phone":"+54 3757 528443","tents":"yes"}},"11656073997":{"location":[-25.9658796,-54.6041778],"ct":"AR","tp":"CS","ts":"2024-02-23T11:47:27Z","tX":356,"tY":588,"tags":{"addr:city":"Wanda","addr:postcode":"3378","fee":"yes","name":"Riveras del Paraná","payment:debit_cards":"yes","payment:electronic_purses":"yes","phone":"+54 3757 458051","tents":"yes"}},"11656143412":{"location":[-25.9799718,-54.581549],"ct":"AR","tp":"CS","ts":"2024-02-23T12:22:00Z","tX":356,"tY":588,"tags":{"addr:city":"Wanda","name":"Camping  El Mirador","phone":"+54 3757 627538","tents":"yes"}},"11656171920":{"location":[-25.9746092,-54.4957207],"ct":"AR","tp":"CS","ts":"2024-02-23T12:31:15Z","tX":356,"tY":588,"tags":{"addr:city":"wanda","fee":"yes","name":"Complejo Beira Mar","payment:debit_cards":"yes","payment:electronic_purses":"yes","phone":"+54 3757 681705","tents":"yes"}},"12110983701":{"location":[-25.8432482,-54.5364523],"ct":"AR","tp":"CS","ts":"2024-08-14T18:08:03Z","tX":356,"tY":588,"tags":{"name":"Camping la cantera"}},"12110983801":{"location":[-25.8558625,-54.5593921],"ct":"AR","tp":"CS","ts":"2024-08-14T18:08:04Z","tX":356,"tY":588,"tags":{"name":"Camping Luz de Luna"}},"12112979701":{"location":[-25.9811944,-54.5810851],"ct":"AR","tp":"CS","ts":"2024-08-15T17:04:53Z","tX":356,"tY":588,"tags":{"name":"Camping El mirador"}},"12331615307":{"location":[-25.8298834,-54.5366369],"ct":"AR","tp":"CS","ts":"2024-11-11T19:29:05Z","tX":356,"tY":588,"tags":{"name":"PIleta El Trébol"}}}