{"623972038":{"location":[-26.6876606,-54.8085506],"ct":"AR","tp":"CS","ts":"2024-02-19T12:01:28Z","tX":356,"tY":590,"tags":{"addr:city":"El Alcazar","fee":"yes","name":"Camping Paranay - Guazú","payment:electronic_purses":"yes","phone":"+54 3751 15405758","tents":"yes"}},"623972039":{"location":[-26.6574757,-54.7548898],"ct":"AR","tp":"CS","ts":"2021-01-02T21:38:13Z","tX":356,"tY":590,"tags":{"name":"Camping Ecoturismo La Misionerita"}},"623972040":{"location":[-26.6054183,-54.7344456],"ct":"AR","tp":"CS","ts":"2024-02-19T12:34:21Z","tX":356,"tY":590,"tags":{"name":"Camping Parador Los Chila","phone":"+54 3751 15351280","tents":"yes"}},"623972041":{"location":[-26.5164712,-54.7004984],"ct":"AR","tp":"CS","ts":"2024-02-19T12:38:07Z","tX":356,"tY":590,"tags":{"addr:city":"Montecarlo","description":"Camping - Cabañas - Piletas","fee":"yes","name":"Comlejo Turístico Camping Itá- Porá","payment:electronic_purses":"yes","phone":"+54 3751 444399","tents":"yes"}},"623972042":{"location":[-26.4808091,-54.6580046],"ct":"AR","tp":"CS","ts":"2019-01-29T17:31:16Z","tX":356,"tY":590,"tags":{"name":"Camping Piray Jungle"}},"623976782":{"location":[-26.5974428,-54.7043497],"ct":"AR","tp":"CS","ts":"2021-01-12T21:05:34Z","tX":356,"tY":590,"tags":{"addr:street":"Antonio Arredondo","name":"Camping Gran Bal Park Don Leandro"}},"4465607777":{"location":[-26.4330908,-54.6083701],"ct":"AR","tp":"CS","ts":"2016-10-27T00:25:25Z","tX":356,"tY":590,"tags":{}},"4791802425":{"location":[-26.4845248,-54.5848301],"ct":"AR","tp":"CS","ts":"2025-03-28T12:02:55Z","tX":356,"tY":590,"tags":{"addr:city":"Colonia Santa Teresa","facebook":"https://www.facebook.com/cerne.turismo","name":"Cerne Turismo Rural","phone":"+54 9 3751 350095"}},"8306604436":{"location":[-26.4840475,-54.5851449],"ct":"AR","tp":"CS","ts":"2021-01-09T18:02:32Z","tX":356,"tY":590,"tags":{"addr:city":"Colonia Santa Teresa","name":"Complejo Turístico Panambí Howy","phone":"+54 3757 455832"}},"10128764217":{"location":[-26.4845343,-54.5880136],"ct":"AR","tp":"CS","ts":"2024-02-19T12:17:51Z","tX":356,"tY":590,"tags":{"addr:city":"Eldorado","fee":"yes","name":"Balneario municipal Piray Guazu","payment:electronic_purses":"yes","tents":"no"}},"11282354337":{"location":[-26.6765494,-54.8249999],"ct":"AR","tp":"CS","ts":"2024-02-19T12:14:04Z","tX":356,"tY":590,"tags":{"addr:city":"El Alcázar","name":"Camping PH","phone":"+54 3751 400059","tents":"yes"}},"11640789654":{"location":[-26.5703521,-54.7972246],"ct":"AR","tp":"CS","ts":"2024-02-19T11:59:03Z","tX":356,"tY":590,"tags":{"addr:city":"Montecarlo","addr:postcode":"3384","fee":"yes","name":"Club de Pesca Montecarlo","payment:debit_cards":"yes","payment:electronic_purses":"yes","phone":"+54 3751409808","tents":"yes"}},"11640797666":{"location":[-26.6579812,-54.7555561],"ct":"AR","tp":"CS","ts":"2024-02-19T11:46:02Z","tX":356,"tY":590,"tags":{"addr:city":"Caraguatay","addr:milestone":"1509","addr:postcode":"3386","addr:street":"Ruta Nacional 12","contact:whatsapp":"+54 3751 575332","fee":"yes","name":"Los Caceritos Ecoturismo","operator":"Los Caceritos","payment:debit_cards":"yes","payment:electronic_purses":"yes","phone":"01158864283","source":"Dueño","website":"http://www.loscaceritos.com"}},"11640798853":{"location":[-26.6745465,-54.8152451],"ct":"AR","tp":"CS","ts":"2024-02-19T12:10:16Z","tX":356,"tY":590,"tags":{"addr:city":"El Alcazar","fee":"yes","name":"Club de Caza y Pesca Parana-i Guazú","payment:electronic_purses":"yes","phone":"+54 3751 500029","tents":"yes"}}}