{"623959981":{"location":[-27.0208334,-54.6573055],"ct":"AR","tp":"CS","ts":"2023-12-18T12:23:36Z","tX":356,"tY":591,"tags":{"access":"yes","addr:city":"Dos de Mayo","addr:street":"Ruta Nacional 14 - km 957","caravans":"yes","fee":"yes","name":"Camping Los Tres Marinos","payment:debit_cards":"yes","payment:electronic_purses":"yes","phone":"+54 9 3755 496888","tents":"yes"}},"623959983":{"location":[-27.0354647,-54.6762867],"ct":"AR","tp":"CS","ts":"2011-01-29T14:29:10Z","tX":356,"tY":591,"tags":{"name":"Camping Alvarenga"}},"656711638":{"location":[-27.0259906,-54.5626618],"ct":"AR","tp":"CS","ts":"2024-02-05T11:47:19Z","tX":356,"tY":591,"tags":{"addr:city":"San Vicente","caravans":"yes","contact:facebook":"https://es-la.facebook.com/Aguas-Vivas-234380836933458/","fee":"yes","name":"Complejo Aguas Vivas","payment:electronic_purses":"yes","phone":"+54 9 3755596005","resort":"tourist_camp","static_caravans":"yes","tents":"yes"}},"893008820":{"location":[-26.9818058,-54.5049519],"ct":"AR","tp":"CS","ts":"2021-01-07T11:40:39Z","tX":356,"tY":591,"tags":{}},"10177488676":{"location":[-27.0183748,-54.5485968],"ct":"AR","tp":"CS","ts":"2024-02-05T11:50:46Z","tX":356,"tY":591,"tags":{"access":"yes","addr:city":"San Vicente","addr:postcode":"3356","addr:street":"Ruta Nacional 14 km.969","caravans":"yes","fee":"yes","name":"Complejo Tur√≠stico La Rita","payment:electronic_purses":"yes","phone":"+54 9 3764 334310","static_caravans":"yes","tents":"yes"}}}