{"10631182":{"location":[51.081804,2.547333],"ct":"FR","tp":"CS","ts":"2023-04-18T19:30:04Z","tX":519,"tY":342,"tags":{"name":"Camping Le Perroquet","operator":"Nature & Vacances","phone":"+33 3 28 58 37 37","stars":"4","website":"https://www.campingleperroquet.com/"}},"42412275":{"location":[51.158991,2.7628258],"ct":"BE","tp":"CS","ts":"2025-03-01T16:58:57Z","tX":519,"tY":342,"tags":{"alt_name":"Zon en Zee","name":"Vakantiecentrum Zon & Zee"}},"68562236":{"location":[51.079534,2.5241341],"ct":"FR","tp":"CS","ts":"2023-05-18T19:47:01Z","tX":519,"tY":342,"tags":{"addr:housenumber":"222","addr:street":"Avenue de l'Église","name":"Municipal Les Dunes","phone":"+33 3 28 26 61 54","source":"ortho littorale 2000","website":"https://bray-dunes.fr/camping-municipal"}},"68760595":{"location":[51.0464667,2.4912778],"ct":"FR","tp":"CS","ts":"2021-07-19T21:52:05Z","tX":519,"tY":342,"tags":{"name":"Camping Les Palmiers","phone":"+33 3 28 26 65 60","source":"ortho littorale 2000","static_caravans":"only","swimming_pool":"yes","tents":"no","website":"https://www.campinglespalmiers.fr/"}},"68760609":{"location":[51.0502809,2.5133828],"ct":"FR","tp":"CS","ts":"2024-05-08T11:09:57Z","tX":519,"tY":342,"tags":{"addr:city":"Ghyvelde","addr:housenumber":"15","addr:postcode":"59254","addr:street":"Rue du Meul'Houck","name":"Caravaning du Lac","phone":"+33 3 28 26 69 31","source":"ortho littorale 2000","stars":"4","website":"https://caravaningdulac.com"}},"68760623":{"location":[51.0459649,2.5173272],"ct":"FR","tp":"CS","ts":"2021-07-19T21:52:05Z","tX":519,"tY":342,"tags":{"email":"contact@aucampingdespins.fr","internet_access":"wlan","name":"Camping des Pins","phone":"+33 3 28 26 64 74","source":"ortho littorale 2000;expanded based on Bing","stars":"4","static_caravans":"only","swimming_pool":"yes","tents":"no","toilets":"yes","washing_machine":"yes","website":"https://www.aucampingdespins.fr"}},"68783146":{"location":[51.0664559,2.5193363],"ct":"FR","tp":"CS","ts":"2014-05-27T09:42:57Z","tX":519,"tY":342,"tags":{"name":"Les Tilleuls","source":"ortho littorale 2000","stars":"1"}},"68830342":{"location":[51.0535153,2.5370581],"ct":"FR","tp":"CS","ts":"2021-07-19T21:52:05Z","tX":519,"tY":342,"tags":{"capacity":"125","caravans":"yes","name":"Camping La Plaine","phone":"+33 3 28 26 60 55","source":"ortho littorale 2000 + cadastre","stars":"3","static_caravans":"yes","website":"https://www.camping-la-plaine.fr"}},"68830385":{"location":[51.052019,2.5490357],"ct":"FR","tp":"CS","ts":"2023-01-29T21:37:04Z","tX":519,"tY":342,"tags":{"email":"contact@residence-lagarenne.fr","name":"Camping résidentiel de la Garenne","phone":"+33 3 28 26 86 49","source":"ortho littorale 2000","stars":"4","static_caravans":"only","website":"https://residence-lagarenne.fr"}},"68830386":{"location":[51.0582551,2.5609494],"ct":"FR","tp":"CS","ts":"2024-10-08T07:43:41Z","tX":519,"tY":342,"tags":{"addr:city":"Ghyvelde","addr:housenumber":"258","addr:postcode":"59254","addr:street":"Rue de la Frontière","name":"Le Ringsloot"}},"106607801":{"location":[50.9794244,2.5766158],"ct":"FR","tp":"CS","ts":"2024-06-13T08:39:20Z","tX":519,"tY":342,"tags":{"capacity":"95","name":"Camping Le Préjoly","stars":"4","static_caravans":"no","tents":"no","website":"https://www.campingleprejoly.fr/"}},"115431104":{"location":[51.1117301,2.65438],"ct":"BE","tp":"CS","ts":"2023-11-03T16:57:21Z","tX":519,"tY":342,"tags":{}},"118518363":{"location":[51.1362403,2.7144289],"ct":"BE","tp":"CS","ts":"2025-01-25T16:32:11Z","tX":519,"tY":342,"tags":{"name":"Polderdyk","static_caravans":"only"}},"118677974":{"location":[51.1308814,2.7711879],"ct":"BE","tp":"CS","ts":"2025-03-25T22:55:54Z","tX":519,"tY":342,"tags":{"addr:city":"Nieuwpoort","addr:country":"BE","addr:housenumber":"49","addr:postcode":"8620","addr:street":"Brugse Steenweg","addr:suburb":"Sint-Joris","email":"nieuwpoort@kompascamping.be","name":"Kompas Camping Nieuwpoort","phone":"+32 58 23 60 37","website":"https://www.kompascamping.be/nieuwpoort/"}},"128068165":{"location":[51.1695095,2.7845183],"ct":"BE","tp":"CS","ts":"2024-06-04T17:00:37Z","tX":519,"tY":342,"tags":{"access":"private"}},"128070350":{"location":[51.1738855,2.7927274],"ct":"BE","tp":"CS","ts":"2025-01-30T19:25:10Z","tX":519,"tY":342,"tags":{"name":"Mijn Plezier"}},"132343955":{"location":[51.1540607,2.7586731],"ct":"BE","tp":"CS","ts":"2025-02-25T18:39:21Z","tX":519,"tY":342,"tags":{"addr:city":"Middelkerke","addr:housenumber":"81","addr:postcode":"8434","addr:street":"Bassevillestraat","addr:suburb":"Lombardsijde","name":"KACB Camping","name:nl":"KACB Camping"}},"132345052":{"location":[51.1514725,2.7612453],"ct":"BE","tp":"CR","ts":"2016-11-03T13:22:49Z","tX":519,"tY":342,"tags":{}},"132348060":{"location":[51.1559205,2.7683327],"ct":"BE","tp":"CS","ts":"2025-02-27T18:34:28Z","tX":519,"tY":342,"tags":{"addr:city":"Middelkerke","addr:housenumber":"341","addr:postcode":"8434","addr:street":"Westendelaan","addr:suburb":"Westende","name":"Camping Westende"}},"132801927":{"location":[51.1590858,2.7484727],"ct":"BE","tp":"CS","ts":"2025-01-19T20:03:33Z","tX":519,"tY":342,"tags":{"landuse":"military","name":"Militair Vakantiekamp"}},"132803007":{"location":[51.1551418,2.7468043],"ct":"BE","tp":"CS","ts":"2014-08-06T17:17:07Z","tX":519,"tY":342,"tags":{}},"163736100":{"location":[51.0342434,2.5684284],"ct":"FR","tp":"CS","ts":"2012-05-15T19:01:35Z","tX":519,"tY":342,"tags":{}},"163738866":{"location":[51.0221179,2.5729202],"ct":"FR","tp":"CS","ts":"2017-02-22T17:05:20Z","tX":519,"tY":342,"tags":{}},"166571392":{"location":[51.0967044,2.5992979],"ct":"BE","tp":"CS","ts":"2024-08-14T11:46:55Z","tX":519,"tY":342,"tags":{"addr:postcode":"8660","caravans":"yes","drinking_water":"yes","email":"camping.greenpark@telenet.be","fee":"yes","name":"Greenpark","name:en":"Greenpark Camping","phone":"+32 58 42 01 06","power_supply":"yes","sanitary_dump_station":"yes","shower":"yes","tents":"yes","toilets":"yes","website":"http://www.campinggreenpark.be/nl/home/"}},"167227196":{"location":[51.0819135,2.5921416],"ct":"BE","tp":"CS","ts":"2021-11-09T15:50:13Z","tX":519,"tY":342,"tags":{"addr:city":"De Panne","addr:housenumber":"101;103;105","addr:postcode":"8660","addr:street":"Duinhoekstraat","fee":"yes","name":"Plopsa Village","operator":"Plopsa","website":"https://www.plopsavillage.be"}},"168245101":{"location":[51.1351533,2.7105127],"ct":"BE","tp":"CS","ts":"2025-01-25T16:32:11Z","tX":519,"tY":342,"tags":{"name":"Dunepark","static_caravans":"only"}},"186975357":{"location":[51.0762765,2.584214],"ct":"BE","tp":"CS","ts":"2023-10-26T06:41:16Z","tX":519,"tY":342,"tags":{"access":"private","addr:city":"Adinkerke","addr:country":"BE","addr:postcode":"8660","addr:street":"Langgeleedstraat","email":"Info@kindervreugde.be","name":"Camping Kindervreugde","phone":"+32 58 41 15 87","website":"https://www.kindervreugde.be/"}},"282873303":{"location":[51.039726,2.5091528],"ct":"FR","tp":"CS","ts":"2021-07-19T21:52:05Z","tX":519,"tY":342,"tags":{"name":"Camping résidence Ma Campagne","phone":"+33 3 28 26 55 54","source":"cadastre-dgi-fr source : Direction Générale des Impôts - Cadastre. Mise à jour : 2014","stars":"3","website":"https://residence-macampagne.fr/"}},"284525494":{"location":[51.0656271,2.5114319],"ct":"FR","tp":"CS","ts":"2024-02-08T11:38:40Z","tX":519,"tY":342,"tags":{"addr:housenumber":"39","addr:street":"Rue des Marins","name":"Les Pêcheurs","source":"cadastre-dgi-fr source : Direction Générale des Impôts - Cadastre. Mise à jour : 2014","stars":"1","website":"http://campingdespecheurs.free.fr"}},"294767478":{"location":[51.0756683,2.5617556],"ct":"BE","tp":"CR","ts":"2016-11-17T22:29:55Z","tX":519,"tY":342,"tags":{}},"295262564":{"location":[51.1076228,2.6392274],"ct":"BE","tp":"CS","ts":"2025-01-25T16:31:04Z","tX":519,"tY":342,"tags":{"addr:housenumber":"71","addr:street":"Abdijstraat","camp_site":"serviced","name":"Bloemenduin","phone":"+32 58 51 22 39","static_caravans":"only","website":"https://www.campingeureka.be"}},"295269229":{"location":[51.1007167,2.6429073],"ct":"BE","tp":"CR","ts":"2020-10-08T21:21:58Z","tX":519,"tY":342,"tags":{}},"295346064":{"location":[51.1101938,2.6598533],"ct":"BE","tp":"CR","ts":"2014-08-01T10:01:58Z","tX":519,"tY":342,"tags":{}},"295355028":{"location":[51.1112278,2.6665881],"ct":"BE","tp":"CS","ts":"2025-01-25T16:30:35Z","tX":519,"tY":342,"tags":{"name":"Dunedreve","static_caravans":"only"}},"305249680":{"location":[50.9670578,2.7340494],"ct":"BE","tp":"CS","ts":"2024-11-11T18:12:32Z","tX":519,"tY":342,"tags":{"addr:city":"Lo-Reninge","addr:country":"BE","addr:housenumber":"42","addr:postcode":"8647","addr:street":"Pollinkhovestraat","addr:suburb":"Pollinkhove","name":"Hoeve Maedelstede"}},"433003322":{"location":[51.0089763,2.5232613],"ct":"FR","tp":"CS","ts":"2023-02-04T22:35:28Z","tX":519,"tY":342,"tags":{"name":"Le Clos Fleury"}},"433003323":{"location":[51.0081164,2.5194284],"ct":"FR","tp":"CS","ts":"2024-09-02T14:12:46Z","tX":519,"tY":342,"tags":{"addr:city":"Warhem","addr:housenumber":"106","addr:postcode":"59380","addr:street":"Route d'Uxem","caravans":"yes","name":"Le Clos Fleury","static_caravans":"yes","website":"https://www.leclosfleuridhelene.net/"}},"538975706":{"location":[51.1647537,2.7835574],"ct":"BE","tp":"CR","ts":"2017-11-07T11:58:35Z","tX":519,"tY":342,"tags":{"capacity":"500"}},"836535756":{"location":[50.971593,2.5900358],"ct":"FR","tp":"CS","ts":"2024-06-13T08:45:24Z","tX":519,"tY":342,"tags":{"addr:street":"Chemin du Moulin","capacity":"65","caravans":"yes","name":"Camping Au Bon Coin","phone":"+333 28 68 31 89","stars":"2","static_caravans":"yes","tents":"yes"}},"965746961":{"location":[51.0470502,2.4933602],"ct":"FR","tp":"CS","ts":"2021-07-19T21:52:05Z","tX":519,"tY":342,"tags":{"capacity":"29","name":"Camping de la forge","phone":"+33 3 28 26 81 80","stars":"3","static_caravans":"yes","tents":"no"}},"965746962":{"location":[51.047122,2.494054],"ct":"FR","tp":"CS","ts":"2021-07-19T21:52:05Z","tX":519,"tY":342,"tags":{"capacity":"117","caravans":"yes","email":"campingdumeulhouck@gmail.com","name":"Camping du Meul-Houck","phone":"+33 3 28 26 62 12","stars":"2","static_caravans":"yes","tents":"no","website":"https://www.camping-dumeulhouck.com/"}},"1015262372":{"location":[51.081687,2.6613195],"ct":"BE","tp":"CR","ts":"2025-01-12T12:59:28Z","tX":519,"tY":342,"tags":{"capacity":"38","caravan_site":"motorhome_stopover","caravan_site:type":"town","charge":"18 EUR","charge:conditional":"16 EUR @ (Sep-Dec); 14 EUR@(Jan-May)","drinking_water":"yes","email":"camperpark@veurne.be","fee":"yes","name":"camperpark Veurne","phone":"+32 58335531","power_supply":"yes","power_supply:maxcurrent":"10","sanitary_dump_station":"yes","surface":"grass_paver","toilets":"yes","water_point":"yes","water_point:fee":"no","website":"https://camperpark.veurne.be/"}},"1095071270":{"location":[51.1603909,2.7586994],"ct":"BE","tp":"CS","ts":"2025-02-27T22:27:15Z","tX":519,"tY":342,"tags":{"addr:city":"Middelkerke","addr:housenumber":"160","addr:postcode":"8434","addr:street":"Koninklijke Baan","addr:suburb":"Lombardsijde","name":"Albatros"}},"1095071271":{"location":[51.1584304,2.7583252],"ct":"BE","tp":"CS","ts":"2025-02-27T22:27:15Z","tX":519,"tY":342,"tags":{"addr:city":"Westende","addr:housenumber":"141","addr:postcode":"8434","addr:street":"Bassevillestraat","cabins":"yes","caravans":"yes","email":"westende@kompascamping.be","name":"Kompas Westende","phone":"+32 58 22 30 25","shower":"yes","tents":"yes","toilets":"yes","website":"https://www.kompascamping.be/westende"}},"1095071272":{"location":[51.155237,2.7537297],"ct":"BE","tp":"CS","ts":"2025-02-25T18:39:21Z","tX":519,"tY":342,"tags":{"addr:city":"Middelkerke","addr:housenumber":"4","addr:postcode":"8434","addr:street":"Elisabethlaan","addr:suburb":"Lombardsijde","name":"De Lombarde"}},"1095071273":{"location":[51.1562294,2.7517261],"ct":"BE","tp":"CS","ts":"2025-02-25T18:39:21Z","tX":519,"tY":342,"tags":{"addr:city":"Middelkerke","addr:housenumber":"1","addr:postcode":"8434","addr:street":"Elisabethlaan","addr:suburb":"Lombardsijde","name":"Zomerzon"}},"1130834994":{"location":[50.9598475,2.6061987],"ct":"FR","tp":"CS","ts":"2024-06-13T07:47:52Z","tX":519,"tY":342,"tags":{"capacity":"40","caravans":"yes","name":"Camping du Beverhouck","stars":"2","tents":"yes"}},"1143881934":{"location":[50.9788035,2.5044449],"ct":"FR","tp":"CS","ts":"2023-02-11T11:42:10Z","tX":519,"tY":342,"tags":{"name":"Parc résidentiel La Becque"}},"1220568774":{"location":[51.1109931,2.655424],"ct":"BE","tp":"CS","ts":"2023-11-03T16:57:21Z","tX":519,"tY":342,"tags":{}},"1350651999":{"location":[51.057676,2.6919577],"ct":"BE","tp":"CR","ts":"2025-01-12T12:53:02Z","tX":519,"tY":342,"tags":{"caravan_site":"motorhome_stopover","caravan_site:type":"countryside","charge":"15 EUR","dog":"yes","email":"steenkerkerust@gmail.com","facebook":"https://www.facebook.com/p/Camperplaats-Steenkerke-Rust-100077672972758/","fee":"yes","name":"Camperplaats Steenkerke Rust","opening_hours":"Apr-Sep","phone":"+32 495775390","sanitary_dump_station":"yes","surface":"gravel","website":"https://www.toerismewesthoek.be/nl/steenkerke-rust","wheelchair":"yes"}},"1354210999":{"location":[51.1306593,2.7654828],"ct":"BE","tp":"CR","ts":"2025-01-25T16:39:00Z","tX":519,"tY":342,"tags":{"addr:housenumber":"29","addr:postcode":"8620","addr:street":"Brugsesteenweg","bbq":"yes","capacity":"28","caravan_site":"motorhome_stopover","caravan_site:type":"town","charge":"25 EUR","charge:conditional":"23 EUR @ (\"low_season\")","dog":"leashed","email":"de_zwerver@telenet.be","fee":"yes","laundry":"yes","name":"De Zwerver","opening_hours":"24/7","phone":"+32 474 66 95 26","power_supply":"yes","power_supply:fee":"no","reservation":"no","sanitary_dump_station:chemical_toilet":"yes","sanitary_dump_station:fee":"no","sanitary_dump_station:grey_water":"yes","seasonal":"no","shower":"yes","toilets":"yes","water_point":"yes","water_point:fee":"no","website":"https://www.camperparkdezwerver.be/"}},"1363163934":{"location":[51.1553008,2.766499],"ct":"BE","tp":"CS","ts":"2025-02-26T21:32:06Z","tX":519,"tY":342,"tags":{"motorhome":"designated"}},"3128034150":{"location":[51.0630995,2.5218962],"ct":"FR","tp":"CR","ts":"2024-09-10T00:51:30Z","tX":519,"tY":342,"tags":{"caravan_site":"motorhome_stopover","caravan_site:type":"supermarket","fee":"no","name":"Aire Carrefour Bray-Dunes","opening_hours":"20:00-08:30","operator":"Carrefour","surface":"asphalt"}},"3131083418":{"location":[51.0628873,2.522049],"ct":"FR","tp":"SD","ts":"2024-09-10T00:51:30Z","tX":519,"tY":342,"tags":{"access":"yes","fee":"yes","payment:coins":"yes","sanitary_dump_station:accepted":"black_water;grey_water;tank_chemicals","water_point":"yes","water_point:fee":"yes"}},"4292840293":{"location":[51.130071,2.7651636],"ct":"BE","tp":"CR","ts":"2020-10-28T20:11:27Z","tX":519,"tY":342,"tags":{"addr:housenumber":"29","addr:postcode":"8620","addr:street":"Brugsesteenweg","email":"de_zwerver@telenet.be","name":"De Zwerver","phone":"+32 474 66 95 26"}},"10295792909":{"location":[51.0774318,2.5225798],"ct":"FR","tp":"CR","ts":"2024-05-17T20:02:48Z","tX":519,"tY":342,"tags":{"addr:postcode":"59123","addr:street":"Avenue de l'Église","bbq":"no","capacity":"18","caravan_site":"motorhome_stopover","caravan_site:type":"beach","caravans":"no","charge":"19.66 EUR","charge:conditional":"17.66 EUR @ (Oct-May)","fee":"yes","maxlength":"9","name":"Aire CAMPING-CAR PARK de Bray-Dunes","network":"CAMPING-CAR PARK","operator":"CAMPING CAR-Park","power_supply":"yes","power_supply:maxcurrent":"6","sanitary_dump_station":"yes","surface":"grass_paver","tents":"no","trailer":"no","water_point":"yes","website":"https://www.campingcarpark.com/fr_FR/sejour/aire-etape-camping-car/hauts-de-france/59-nord/bray-dunes"}},"5864336035":{"location":[50.9764086,2.5805399],"ct":"FR","tp":"SD","ts":"2022-10-13T21:06:33Z","tX":519,"tY":342,"tags":{"access":"yes","mapillary":"1117829202073906"}},"10961488205":{"location":[51.0575735,2.69211],"ct":"BE","tp":"CR","ts":"2023-06-07T12:27:52Z","tX":519,"tY":342,"tags":{"opening_hours":"Mo-Su 08:00-22:00"}}}