{"7518864":{"location":[50.7844096,2.7585822],"ct":"BE","tp":"CS","ts":"2022-09-07T19:53:40Z","tX":519,"tY":343,"tags":{"addr:city":"Heuvelland","addr:housenumber":"36","addr:postcode":"8954","addr:street":"Rodebergstraat","addr:suburb":"Westouter","internet_access":"wlan","name":"Camping \"De Nachtegaal\"","phone":"+32 57 44 58 19","website":"https://www.indenachtegaal.com/"}},"118938367":{"location":[50.8108002,2.5886247],"ct":"FR","tp":"CS","ts":"2021-04-19T21:15:40Z","tX":519,"tY":343,"tags":{"capacity":"24","name":"Camping Les Ramiers"}},"158417270":{"location":[50.7811811,2.743428],"ct":"FR","tp":"CS","ts":"2024-06-13T07:43:05Z","tX":519,"tY":343,"tags":{"caravans":"yes","name":"Camping Douve","phone":"+32 57 44 45 46","static_caravans":"yes","tents":"yes","website":"https://www.camping.be/fr/camping/camping-douve"}},"282753557":{"location":[50.8986969,2.7101208],"ct":"BE","tp":"CR","ts":"2020-06-27T13:23:07Z","tX":519,"tY":343,"tags":{"capacity":"15","fee":"yes","name":"Camperpunt Sixtusbos","power_supply":"yes","sanitary_dump_station":"yes","website":"https://www.sixtusbos.be/"}},"285202530":{"location":[50.8249004,2.6986678],"ct":"BE","tp":"CS","ts":"2022-09-27T13:20:31Z","tX":519,"tY":343,"tags":{"addr:city":"Poperinge","addr:housenumber":"41","addr:street":"Boescheepseweg","name":"Lyssenthoek Farm"}},"364629847":{"location":[50.8738323,2.5901885],"ct":"FR","tp":"CS","ts":"2015-08-09T07:06:12Z","tX":519,"tY":343,"tags":{"name":"Le Domaine des Chênes","stars":"2"}},"365162319":{"location":[50.8477128,2.5696899],"ct":"FR","tp":"CS","ts":"2025-01-07T10:07:23Z","tX":519,"tY":343,"tags":{"contact:facebook":"https://www.facebook.com/campinglahoublonniere/","email":"la.houblonniere@orange.fr","name":"La Houblonnière","phone":"+33 3 28 40 93 06","stars":"2"}},"367688635":{"location":[50.819382,2.5291515],"ct":"FR","tp":"CS","ts":"2024-04-10T05:52:35Z","tX":519,"tY":343,"tags":{"access":"customers","addr:city":"Steenvoorde","addr:housenumber":"51","addr:postcode":"59114","addr:street":"Rue des Frères Patteyn","caravans":"yes","name":"Camping Le Romantic","stars":"3","static_caravans":"yes","tents":"yes","website":"https://www.campingleromantic.fr"}},"398335130":{"location":[50.7578903,2.4665189],"ct":"FR","tp":"CS","ts":"2021-05-04T21:13:33Z","tX":519,"tY":343,"tags":{"name":"Camping de la Rabaude","stars":"1"}},"477456294":{"location":[50.7939945,2.6741844],"ct":"FR","tp":"CS","ts":"2023-03-13T11:09:42Z","tX":519,"tY":343,"tags":{"caravans":"yes","contact:facebook":"JulieLemaireCamping","name":"Camping des Cinq Chemins Verts","phone":"+33 3 28 49 42 37","stars":"4","static_caravans":"yes","tents":"yes","website":"https://camping5cheminsverts.wixsite.com/boeschepe"}},"478649974":{"location":[50.7845202,2.7085109],"ct":"FR","tp":"CS","ts":"2023-03-13T11:09:42Z","tX":519,"tY":343,"tags":{"caravans":"yes","name":"Camping Les Houblonnières","phone":"+33 3 28 42 52 44","source":"data.gouv.fr:DATAtourisme - 05/2020","tents":"yes","wheelchair":"no"}},"478659604":{"location":[50.7781384,2.7361486],"ct":"FR","tp":"CS","ts":"2024-10-03T07:04:02Z","tX":519,"tY":343,"tags":{"addr:housenumber":"2810","addr:street":"Route du Parc","caravans":"yes","name":"Camping du Mont Noir","phone":"+33328494634","stars":"3","tents":"yes","website":"http://www.campingdumontnoir.fr"}},"478679276":{"location":[50.7609014,2.7485929],"ct":"FR","tp":"CS","ts":"2023-06-12T06:10:15Z","tX":519,"tY":343,"tags":{"name":"Camping de la Ferme des Saules","name:fr":"Camping de la Ferme des Saules","website":"https://www.campingfermedessaules.com/"}},"629202770":{"location":[50.7950385,2.4897619],"ct":"FR","tp":"CR","ts":"2024-06-15T18:27:07Z","tX":519,"tY":343,"tags":{"caravan_site":"motorhome_stopover","caravan_site:type":"village","charge":"11.70 EUR","fee":"yes","internet_access":"wlan","name":"Aire de Camping-Cars Cassel","opening_hours":"24/7","picnic_area":"yes","power_supply":"yes","power_supply:capacity":"18","power_supply:maxcurrent":"16","sanitary_dump_station":"yes","shower":"yes","toilets":"yes","water_point":"yes","website":"https://www.aireparkreservation.com/aires-camping-cars/hauts-de-france/nord/cassel-coeur-de-flandre"}},"646880502":{"location":[50.8908313,2.6960827],"ct":"BE","tp":"CS","ts":"2023-10-26T06:37:27Z","tX":519,"tY":343,"tags":{"access":"yes","addr:city":"Poperinge","addr:housenumber":"8","addr:postcode":"8972","addr:street":"Barlebuizestraat","campers":"yes","capacity":"25","caravans":"yes","fee":"yes","name":"Bardehof","payment:cash":"yes","payment:credit_cards":"yes","website":"https://www.staltbardehof.be/"}},"3178442161":{"location":[50.7399239,2.7320688],"ct":"FR","tp":"CR","ts":"2024-08-29T22:32:43Z","tX":519,"tY":343,"tags":{"caravan_site":"motorhome_stopover","caravan_site:type":"town","fee":"no","name":"Aire Bailleul - Rue du Collège","toilets":"no"}},"11947815769":{"location":[50.7489041,2.7857318],"ct":"BE","tp":"CS","ts":"2024-05-31T13:03:00Z","tX":519,"tY":343,"tags":{"addr:street":"Kelverstraat","contact:facebook":"theuvelhof","contact:instagram":"theuvelhof","email":"info@theuvelhof.be","internet_access":"wlan","name":"Natuurterrein 't Heuvelhof","operator":"Piet Vercruijsse","phone":"+32456101515","website":"https://www.theuvelhof.be/"}},"7671144971":{"location":[50.8141739,2.7678404],"ct":"BE","tp":"CR","ts":"2020-06-30T17:10:24Z","tX":519,"tY":343,"tags":{"name":"Camperpunt Reningelst"}}}