{"26858747":{"location":[48.9125,2.670278],"ct":"FR","tp":"CS","ts":"2007-03-28T17:12:42Z","tX":519,"tY":352,"tags":{"created_by":"JOSM","name":"Le Parc"}},"93253334":{"location":[48.8301675,2.480943],"ct":"FR","tp":"CS","ts":"2025-03-11T08:36:29Z","tX":519,"tY":352,"tags":{"alt_name":"Camping du Tremblay","caravans":"yes","email":"champigny@campingchampigny.fr","fax":"+33 1 48 89 07 94","name":"Camping Paris-Est","phone":"+33 1 43 97 43 97","source":"cadastre-dgi-fr source : Direction Générale des Impôts - Cadastre. Mise à jour : 2011","tents":"yes","website":"https://www.campingchampigny.paris/"}},"137826313":{"location":[48.7339067,2.7617777],"ct":"FR","tp":"CS","ts":"2023-04-15T20:42:12Z","tX":519,"tY":352,"tags":{"addr:city":"Tournan-en-Brie","addr:postcode":"77220","addr:street":"Parc de Combreux","caravans":"yes","email":"fredland@capfun.com","name":"Fredland","operator":"Capfun","phone":"+33 1 64 07 96 44","shower":"yes","stars":"4","tents":"yes","toilets":"yes","website":"https://www.capfun.com/camping-france-ile_de_france-fredland-FR.html"}},"153228071":{"location":[48.7177318,2.5429325],"ct":"FR","tp":"CS","ts":"2024-05-17T14:26:39Z","tX":519,"tY":352,"tags":{"addr:city":"Villecresnes","addr:housenumber":"18","addr:postcode":"94440","addr:street":"rue  du bois d'Auteuil","description":"Le club naturiste le plus proche de Paris,\nAu milieu du bois d’Auteuil, espace de 13 hectares, à Villecresnes (94), à moins de 30mn de Paris en voiture.","email":"cgf-fgc@wanadoo.fr","name":"Club Gymnique de France","nudism":"yes","opening_hours":"Apr-Sep: Mo-Fr 10:00-17:00","phone":"+33 1 45 69 84 84","source":"cadastre-dgi-fr source : Direction Générale des Impôts - Cadastre. Mise à jour : 2012","website":"https://www.cgf-nat.com"}},"230476577":{"location":[48.854216,2.5426015],"ct":"FR","tp":"CS","ts":"2023-11-23T01:13:32Z","tX":519,"tY":352,"tags":{"addr:city":"Neuilly-sur-Marne","addr:country":"FR","addr:postcode":"93330","addr:street":"Chemin de l’Écluse","caravans":"yes","drinking_water":"yes","email":"camping.lesrivesdeparis@neuillysurmarne.fr","name":"Camping Les Rives de Paris - Neuilly-sur-Marne","nudism":"no","phone":"+33 1 43 08 21 21","tents":"yes","website":"https://camping.lesrivesdeparis.fr/"}},"257471390":{"location":[48.8513623,2.7978535],"ct":"FR","tp":"CS","ts":"2024-01-12T13:00:10Z","tX":519,"tY":352,"tags":{"group_only":"yes","name":"Aire d'accueil des gens du voyage de Serris et de Bailly-Romainvilliers","residential":"halting_site"}},"307311591":{"location":[48.9101901,2.7320811],"ct":"FR","tp":"CS","ts":"2025-02-01T23:27:16Z","tX":519,"tY":352,"tags":{"name":"Camping Groupes"}},"307311592":{"location":[48.9131539,2.7339472],"ct":"FR","tp":"CS","ts":"2025-02-01T23:16:58Z","tX":519,"tY":352,"tags":{"name":"Jablines"}},"579383377":{"location":[48.9210641,2.7215816],"ct":"FR","tp":"CS","ts":"2009-12-03T09:37:44Z","tX":519,"tY":352,"tags":{}},"589611423":{"location":[48.8725579,2.7177967],"ct":"FR","tp":"CS","ts":"2023-09-14T15:35:22Z","tX":519,"tY":352,"tags":{"capacity":"10","capacity:caravan":"20","group_only":"yes","name":"Aire d’accueil des gens du voyage de Lagny-sur-Marne","owner":"Communauté d’Agglomération de Marne et Gondoire","residential":"halting_site"}},"589611425":{"location":[48.8800537,2.7814553],"ct":"FR","tp":"CS","ts":"2025-02-02T17:50:29Z","tX":519,"tY":352,"tags":{"alt_name":"Aire de stationnement des gens du voyage","capacity":"10","capacity:caravan":"10","charge":"4 EUR/day","fee":"yes","group_only":"yes","residential":"halting_site"}},"1099375119":{"location":[48.7971411,2.6233631],"ct":"FR","tp":"PK","ts":"2024-08-07T13:57:06Z","tX":519,"tY":352,"tags":{"capacity":"10","description":"long for camping car","motorhome":"yes","parking":"surface"}},"2789868064":{"location":[48.8769075,2.785129],"ct":"FR","tp":"SD","ts":"2024-05-11T19:40:08Z","tX":519,"tY":352,"tags":{"capacity":"3","motorhome":"designated"}},"3669874570":{"location":[48.6947802,2.7397704],"ct":"FR","tp":"CS","ts":"2015-07-28T09:04:48Z","tX":519,"tY":352,"tags":{"backcountry":"yes"}}}