{"35612205":{"location":[48.382252,2.8023959],"ct":"FR","tp":"CS","ts":"2023-07-02T16:44:07Z","tX":519,"tY":354,"tags":{"addr:postcode":"77250","addr:street":"Chemin du Passeur","email":"camping@courtillesdulido.com","name":"Les Courtilles du Lido","phone":"+33 1 60 70 46 05","stars":"3","website":"www.les-courtilles-du-lido.fr"}},"110347007":{"location":[48.3170212,2.6984126],"ct":"FR","tp":"CS","ts":"2024-07-24T07:27:28Z","tX":519,"tY":354,"tags":{"addr:city":"Grez-sur-Loing","addr:housenumber":"1","addr:postcode":"77880","caravans":"yes","drinking_water":"yes","email":"camping.grez@aquadis-loisirs.com","internet_access":"wlan","name":"Camping Les Prés","openfire":"no","opening_hours":"07:00-22:00","operator":"Aquadis Loisirs","phone":"+33 164457275","power_supply":"yes","sanitary_dump_station":"yes","shower":"yes","stars":"2","tents":"yes","toilets":"yes","website":"https://www.aquadis-loisirs.com/camping-les-pres-fontainebleau/","wheelchair":"yes"}},"159332533":{"location":[48.3325144,2.7533621],"ct":"FR","tp":"CS","ts":"2022-09-16T05:58:05Z","tX":519,"tY":354,"tags":{"addr:city":"La Genevraye","addr:housenumber":"12","addr:postcode":"77690","addr:street":"Route de Montigny","email":"contact@camping-parcdugue.com","name":"Le Parc du Gué","phone":"+33 1 64 45 87 79","website":"http://camping-parcdugue.com/"}},"204154225":{"location":[48.2412346,2.7053858],"ct":"FR","tp":"CS","ts":"2023-11-08T07:23:23Z","tX":519,"tY":354,"tags":{"addr:city":"Bagneaux-sur-Loing","addr:postcode":"77167","addr:street":"Chemin des Grèves","email":"camping@bagneauxsurloing.fr","name":"La Rivière Dorée","phone":"+33 1 60 55 80 00","stars":"2","website":"https://www.larivieredoree.com/fr/"}},"291653960":{"location":[48.4226233,2.7481604],"ct":"FR","tp":"CS","ts":"2024-04-29T14:43:29Z","tX":519,"tY":354,"tags":{"addr:city":"Samoreau","addr:country":"FR","addr:housenumber":"11","addr:postcode":"77210","addr:street":"Rue de l'Église","email":"camping@samoreau.fr","mobile":"+33 6 89 16 25 68","name":"Camping Municipal de Samoreau","phone":"+33 1 64 23 71 09","surface":"grass","website":"https://www.camping-samoreau.fr/"}},"483092619":{"location":[48.3184462,2.5706396],"ct":"FR","tp":"CS","ts":"2024-04-29T14:12:20Z","tX":519,"tY":354,"tags":{"caravans":"no","email":"contact@fontaineblhostel.com","fee":"yes","name":"Fontaineblhostel Camping","phone":"+33 1 78 90 12 90","static_caravans":"no","tents":"yes","website":"https://www.fontaineblhostel.com/"}},"585135976":{"location":[48.3947979,2.5027871],"ct":"FR","tp":"CS","ts":"2024-04-29T14:12:20Z","tX":519,"tY":354,"tags":{"access":"customers","addr:city":"Milly-la-Forêt","addr:postcode":"91490","addr:street":"Route des Grandes Vallées","email":"lamusardiere91@orange.fr","fee":"yes","name":"La Musardière","phone":"+33 1 64 98 91 91","website":"https://www.camping-lamusardiere.fr/"}},"617393917":{"location":[48.3980309,2.4805246],"ct":"FR","tp":"CR","ts":"2024-10-17T15:59:07Z","tX":519,"tY":354,"tags":{"capacity":"6","capacity:caravans":"6","caravan_site":"motorhome_stopover","caravan_site:type":"village","fee":"no","name":"Aire de Camping-car Communale de Milly-la-Forêt","power_supply":"no","sanitary_dump_station":"yes","surface":"asphalt","website":"https://www.millylaforet-tourisme.com/fr/fiche/744995/aire-de-camping-car-communale/"}},"900957181":{"location":[48.264309,2.7291825],"ct":"FR","tp":"CS","ts":"2021-01-27T23:19:28Z","tX":519,"tY":354,"tags":{"capacity":"140","caravans":"yes","name":"La Baraude","stars":"2","tents":"yes"}},"977915949":{"location":[48.3545537,2.7168764],"ct":"FR","tp":"CS","ts":"2024-07-30T18:10:45Z","tX":519,"tY":354,"tags":{"access":"yes","backcountry":"yes","capacity":"15","capacity:caravans":"0","drinking_water":"yes","fee":"no","name":"Bivouac de la Grande Vallée","name:ru":"Бивуак в Великой долине","picture":"http://www1.onf.fr/enforet/fontainebleau/explorer/informations_pratiques/20120521-101448-15332/13/++illustration++/++display++w950.jpeg","power_supply":"no","shower":"no","toilets":"pitlatrine"}},"1027354724":{"location":[48.4310106,2.689185],"ct":"FR","tp":"CS","ts":"2023-04-23T17:05:25Z","tX":519,"tY":354,"tags":{"access":"yes","backcountry":"yes","capacity:caravans":"0","drinking_water":"no","fee":"no","name":"Bivouac de l'Hippodrome de la Solle","power_supply":"no","shower":"no","toilets":"no","wheelchair":"yes"}},"1117905317":{"location":[48.4043452,2.676665],"ct":"FR","tp":"CS","ts":"2022-11-28T20:31:47Z","tX":519,"tY":354,"tags":{"access":"yes","backcountry":"yes","capacity:caravans":"0","capacity:tents":"20","fee":"no","lit":"no","name":"Bivouac de la Faisanderie","shower":"no","toilets":"no"}},"1210218815":{"location":[48.2710625,2.6917038],"ct":"FR","tp":"CR","ts":"2024-05-17T21:19:54Z","tX":519,"tY":354,"tags":{"capacity":"22","caravan_site":"motorhome_stopover","caravan_site:type":"river","caravans":"no","charge":"16.18 EUR","charge:service":"6 EUR/5 hours","fee":"yes","internet_access":"wlan","name":"Aire Camping-Car Park De Nemours","network":"CAMPING-CAR PARK","operator":"CAMPING-CAR Park","power_supply":"yes","power_supply:maxcurrent":"6","reservation":"members_only","sanitary_dump_station":"customers","tents":"no","website":"https://www.campingcarpark.com/fr_FR/sejour/aire-etape-camping-car/ile-de-france/77-seine-et-marne/nemours"}},"7383947238":{"location":[48.261952,2.7218279],"ct":"FR","tp":"SD","ts":"2023-10-13T06:03:56Z","tX":519,"tY":354,"tags":{"access":"customers","operator":"APRR","water_point":"yes"}},"9761481882":{"location":[48.3980263,2.4803219],"ct":"FR","tp":"SD","ts":"2022-10-22T19:38:37Z","tX":519,"tY":354,"tags":{"fee":"no","water_point":"yes"}},"11340736796":{"location":[48.2713361,2.6921561],"ct":"FR","tp":"SD","ts":"2023-11-14T20:58:10Z","tX":519,"tY":354,"tags":{"access":"customers","sanitary_dump_station:basin":"yes","sanitary_dump_station:chemical_toilet":"yes","sanitary_dump_station:grey_water":"yes"}},"12072191480":{"location":[48.3173158,2.6967404],"ct":"FR","tp":"SD","ts":"2024-07-24T19:11:14Z","tX":519,"tY":354,"tags":{"fee":"no"}}}