{"33772731":{"location":[48.1783457,2.7294851],"ct":"FR","tp":"CR","ts":"2024-07-02T01:38:40Z","tX":519,"tY":355,"tags":{"addr:city":"Souppes-sur-Loing","addr:postcode":"77460","addr:street":"Chemin des Mariniers","alt_name":"CAMPING de mon Village de Souppes-sur-Loing","area":"yes","bbq":"no","capacity":"49","capacity:pitches":"49","caravan_site":"motorhome_stopover","caravan_site:type":"camp_site","caravans":"yes","caravans:conditional":"no @ (Oct 01-Apr 06)","charge":"17.28 EUR","fee":"yes","maxlength":"none","motorhome":"yes","name":"Les Bords Du Loing","network":"CAMPING-CAR PARK","operator":"CAMPING-CAR PARK","phone":"+33 1 64 29 72 63","power_supply":"yes","power_supply:capacity":"48","power_supply:fee":"no","power_supply:maxcurrent":"6","shower":"yes","shower:conditional":"no @ (Oct 01-Apr 06)","tents:conditional":"no @ (Oct 01-Apr 06)","toilets":"yes","toilets:conditional":"no @ (Oct 01-Apr 06)","trailer":"yes","website":"https://www.souppes.fr/tourisme/le-camping-car-park/"}},"295782106":{"location":[48.0420023,2.7419731],"ct":"FR","tp":"CS","ts":"2024-10-20T09:09:14Z","tX":519,"tY":355,"tags":{"addr:city":"Cepoy","addr:housenumber":"26","addr:postcode":"45120","addr:street":"Avenue du Château","capacity:pitches":"50","caravans":"yes","email":"camping@agglo-montargoise.fr","internet_access":"wlan","internet_access:fee":"yes","name":"Camping Les Rives du Loing","phone":"+33 2 38 85 29 33","shower":"yes","stars":"2","tents":"yes","toilets":"yes"}},"329636198":{"location":[48.1037593,2.597367],"ct":"FR","tp":"CS","ts":"2015-02-22T10:25:54Z","tX":519,"tY":355,"tags":{"source":"cadastre-dgi-fr source : Direction Générale des Impôts - Cadastre. Mise à jour : 2015"}},"642299066":{"location":[48.0923715,2.7853999],"ct":"FR","tp":"CS","ts":"2024-07-06T14:02:29Z","tX":519,"tY":355,"tags":{"addr:city":"Ferrières-en-Gâtinais","addr:postcode":"45210","addr:street":"Place Gaston Lempereur","caravans":"yes","drinking_water":"yes","email":"camping@ferrieresengatinais.fr","name":"Camping Municipal du Perray","phone":"+33671432595","power_supply":"yes","sanitary_dump_station":"yes","shower":"yes","tents":"yes","toilets":"yes","website":"https://www.ferrieresengatinais.fr/camping-municipal-du-perray/"}},"642302722":{"location":[48.0082172,2.7520223],"ct":"FR","tp":"CS","ts":"2024-04-05T15:24:15Z","tX":519,"tY":355,"tags":{"access":"customers","addr:city":"Montargis","addr:housenumber":"38","addr:postcode":"45200","addr:street":"Avenue Louis Maurice Chautemps","capacity:persons":"300","capacity:tents":"90","caravans":"yes","description":"Camping situé dans la forêt. Piscine à 100 mètres. Certifié accueil vélo.","email":"camping@agglo-montargoise.fr","fee":"yes","image":"https://www.francevelotourisme.com/sites/default/files/styles/sit_full/public/sit/cvl/HPACEN0450100051/dsc1258-copier.webp","name":"Camping de la Forêt","phone":"+33 2 38 98 00 20","shower":"yes","stars":"3","tents":"yes","toilets":"yes","website":"https://www.agglo-montargoise.fr/loisirs-et-tourisme/campings-de-l-ame/camping-de-la-foret-a-montargis-11209"}},"3756148367":{"location":[48.0423637,2.7423968],"ct":"FR","tp":"SD","ts":"2019-09-16T08:47:10Z","tX":519,"tY":355,"tags":{"access":"yes","fee":"yes","sanitary_dump_station:basin":"yes"}},"5556592526":{"location":[48.0345835,2.7917018],"ct":"FR","tp":"CR","ts":"2024-05-24T00:08:14Z","tX":519,"tY":355,"tags":{"capacity":"15","caravan_site":"motorhome_stopover","caravan_site:type":"village","charge":"4.75 EUR","fee":"yes","name":"Paucourt Aire Municipale","sanitary_dump_station":"yes","surface":"asphalt","water_point":"yes","website":"https://www.tourismeloiret.com/fr/diffusio/camping-car/aire-de-services-et-stationnement-pour-camping-car-paucourt_TFOACCCEN045V5016PN"}},"9984135464":{"location":[48.034673,2.7912075],"ct":"FR","tp":"SD","ts":"2023-07-02T22:51:52Z","tX":519,"tY":355,"tags":{"fee":"no","power_supply":"no","sanitary_dump_station:chemical_toilet":"yes","sanitary_dump_station:grey_water":"yes","water_point":"no"}},"11026086913":{"location":[48.180028,2.730232],"ct":"FR","tp":"SD","ts":"2023-07-04T17:32:10Z","tX":519,"tY":355,"tags":{}}}