{"198210229":{"location":[47.6435453,2.7233383],"ct":"FR","tp":"CR","ts":"2024-07-07T14:27:12Z","tX":519,"tY":357,"tags":{"capacity":"14","caravan_site":"motorhome_stopover","caravan_site:type":"camp_site","caravans":"no","description:payment":"9€/24h incl. electr.","drinking_water":"yes","fee":"yes","maxstay":"72 hours","name":"Aire de Camping-Car Le Martinet","operator":"Camping Seasonova Le Martinet","phone":"+33 2 38 31 24 50","power_supply":"yes","sanitary_dump_station":"yes","toilets":"yes","website":"https://www.valdeloire-france.com/aires-camping-cars/aire-de-services-pour-camping-car-camping-seasonova-le-martinet/"}},"218798216":{"location":[47.623507,2.4855646],"ct":"FR","tp":"CS","ts":"2024-04-08T12:10:47Z","tX":519,"tY":357,"tags":{"access":"customers","addr:city":"Coullons","addr:postcode":"45720","addr:street":"Route de la Brosse","capacity:caravans":"40","capacity:tents":"55","caravans":"yes","contact:facebook":"https://www.facebook.com/people/Camping-de-la-plancherotte/100057147232738/","fee":"yes","name":"Camping Municipal Plancherotte","phone":"+33 7 86 39 36 68","ref:FR:SIRET":"85126474700011","tents":"yes"}},"232485697":{"location":[47.6833095,2.6217953],"ct":"FR","tp":"CS","ts":"2024-10-14T14:06:31Z","tX":519,"tY":357,"tags":{"addr:city":"Poilly-lez-Gien","addr:housenumber":"1","addr:postcode":"45500","addr:street":"Rue des Iris","award:accueilvelo":"2024","capacity":"200","capacity:tents":"154","caravans":"yes","email":"info@camping-gien.com","fee":"yes","image":"https://www.camping-gien.com/wp-content/uploads/2023/02/0y3a9651-760x520-1.jpg.webp","internet_access":"wlan","internet_access:fee":"yes","name":"Camping Touristique de Gien","phone":"+33 2 38 67 12 50","power_supply":"yes","sanitary_dump_station":"yes","shower":"yes","stars":"3","static_caravans":"yes","tents":"no","toilets":"yes","website":"https://www.camping-gien.com"}},"288088153":{"location":[47.6425725,2.7249856],"ct":"FR","tp":"CS","ts":"2024-07-07T14:27:12Z","tX":519,"tY":357,"tags":{"addr:city":"Briare","addr:postcode":"45250","capacity:tents":"128","caravans":"yes","drinking_water":"yes","fee":"yes","image":"https://cdn.iris-etourism.io/uploads/crt_centre_val_de_loire/sizes/de1/entree-28-800x520.webp","name":"Le Martinet","phone":"+33236810001","power_supply":"yes","sanitary_dump_station":"yes","shower":"yes","stars":"3","static_caravans":"yes","tents":"yes","toilets":"yes","website":"https://vacances-seasonova.com/fr/camping/le-martinet-briare-le-canal/"}},"442818036":{"location":[47.6317693,2.7397916],"ct":"FR","tp":"CR","ts":"2024-04-29T09:11:47Z","tX":519,"tY":357,"tags":{"access":"yes","addr:city":"Briare","addr:postcode":"45250","addr:street":"Rue des Vignes","capacity":"30","caravan_site":"motorhome_stopover","caravan_site:type":"town","caravans":"no","fee":"no","maxstay":"no","name":"Aire de stationnement pour camping-cars Pont des Vignes - Briare","opening_hours":"24/7","operator":"Ville de Briare","power_supply":"yes","sanitary_dump_station":"yes","sanitary_dump_station:chemical_toilet":"yes","sanitary_dump_station:grey_water":"yes","sanitary_dump_station:round_drain":"yes","seasonal":"no","source":"Bing","supervised":"no","tents":"no","water_point":"yes","website":"https://flotbleu.com/loiret/aire-de-service/263"}},"860444640":{"location":[47.6682738,2.8054641],"ct":"FR","tp":"CS","ts":"2024-10-24T06:38:36Z","tX":519,"tY":357,"tags":{"addr:city":"Ouzouer-sur-Trézée","addr:housenumber":"2","addr:postcode":"45250","capacity:pitches":"87","caravans":"yes","email":"campingtrezee@gmail.com","mobile":"+33 6 24 44 14 84","motorhome":"yes","name":"Camping municipal de la Trézée","phone":"+33 2 38 29 68 58","shower":"yes","stars":"2","tents":"yes","toilets":"yes","website":"https://www.ouzouer-sur-trezee.fr/campingaire-de-camping-car"}},"908068406":{"location":[47.6980417,2.5388562],"ct":"FR","tp":"CR","ts":"2024-10-11T17:59:32Z","tX":519,"tY":357,"tags":{"access":"yes","addr:city":"Saint-Gondon","addr:postcode":"36350","addr:street":"Route de Coullons","capacity":"3","caravan_site":"motorhome_stopover","caravan_site:type":"lake;village","description":"Aire de camping-car","dog":"yes","fee":"no","maxstay":"no","name":"Saint-Gondon Pont Janson Aire de camping-car","operator":"Ville de Saint-Gondon","power_supply":"no","sanitary_dump_station":"yes","sanitary_dump_station:chemical_toilet":"yes","sanitary_dump_station:grey_water":"yes","sanitary_dump_station:round_drain":"yes","supervised":"no","water_point":"yes","website":"https://www.valdeloire-france.com/aires-camping-cars/aire-de-services-municipale-pour-camping-car-pont-janson/"}},"908079048":{"location":[47.6467586,2.6800973],"ct":"FR","tp":"CR","ts":"2024-05-21T14:10:12Z","tX":519,"tY":357,"tags":{"access":"yes","addr:city":"Saint-Brisson-sur-Loire","addr:postcode":"45500","addr:street":"D80","capacity":"6","caravan_site":"motorhome_stopover","caravan_site:type":"village","dog":"yes","fee":"no","maxstay":"no","name":"Saint-Brisson-sur-Loire Aire de camping-car","operator":"Ville de Saint-Brisson-sur-Loire","power_supply":"yes","sanitary_dump_station":"yes","sanitary_dump_station:chemical_toilet":"yes","sanitary_dump_station:grey_water":"yes","sanitary_dump_station:round_drain":"yes","seasonal":"no","supervised":"no","water_point":"yes"}},"1075801907":{"location":[47.6010926,2.7611624],"ct":"FR","tp":"CS","ts":"2024-08-06T12:17:57Z","tX":519,"tY":357,"tags":{"addr:city":"Châtillon-sur-Loire","addr:country":"FR","addr:postcode":"45360","addr:street":"Chemin de Loire","email":"camping.chatillonsurloire@orange.fr","name":"Camping l'Ecluse Des Combles","phone":"+33 2 38 36 34 39","website":"https://www.camping.chatillon-sur-loire.com/"}},"1187596806":{"location":[47.6422226,2.612878],"ct":"FR","tp":"CS","ts":"2024-04-04T08:35:18Z","tX":519,"tY":357,"tags":{"addr:city":"Poilly-Lez-Gien","addr:postcode":"45500","caravans":"yes","contact:facebook":"https://www.facebook.com/boisdubardelet","description":"1 week minimum, except transit nights for motorhomes and Loire by bike trips.","dog":"yes","fee":"yes","image":"https://bardelet.com/wp-content/uploads/2020/04/Bardelet_ServicesActivites12.jpg","name":"Les Bois du Bardelet","phone":"+33 2 38 67 47 39","stars":"5","website":"https://bardelet.com/"}},"1232308165":{"location":[47.5918253,2.7594566],"ct":"FR","tp":"CR","ts":"2024-05-23T23:40:49Z","tX":519,"tY":357,"tags":{"addr:postcode":"40420","alt_name":"Nancy Port de Plaisance","capacity":"19","caravan_site":"motorhome_stopover","caravan_site:type":"harbour","caravans":"no","charge":"9 EUR","dog":"yes","fee":"yes","name":"Le Port de Châtillon-sur-Loire","opening_hours":"24/7","power_supply":"yes","power_supply:fee":"no","sanitary_dump_station":"yes","seasonal":"no","shower":"yes","water_point":"yes","water_point:fee":"no","water_supply":"yes","website":"https://chatillon-sur-loire.com/tourisme/aire-pour-camping-cars/"}},"1286141418":{"location":[47.5440676,2.8057815],"ct":"FR","tp":"CR","ts":"2024-10-18T23:39:19Z","tX":519,"tY":357,"tags":{"capacity":"10","caravan_site":"motorhome_stopover","caravan_site:type":"farm_shop","dog":"yes","fee":"no","name":"Aire stationnement – GAEC des Doucets","network":"France Passion","power_supply":"yes","product":"cheese","seasonal":"yes","water_point":"yes","website":"https://www.tourismeloiret.com/fr/diffusio/camping-car/aire-de-stationnement-gaec-des-doucets-beaulieu-sur-loire_TFOACCCEN045V501H5I"}},"1313593955":{"location":[47.6798069,2.6429773],"ct":"FR","tp":"CR","ts":"2024-10-08T17:45:25Z","tX":519,"tY":357,"tags":{"capacity":"8","caravan_site":"motorhome_stopover","caravan_site:type":"parking_lot","fee":"no","maxstay":"no","name":"Aire de Camping-Car Gien","operator":"Ville de Gien","power_supply":"no","supervised":"no","website":"https://www.gien-tourisme.fr/aire-camping-car/aire-de-services-municipale-pour-camping-car-gien/"}},"2516743135":{"location":[47.6999805,2.5432215],"ct":"FR","tp":"SD","ts":"2021-11-20T14:40:26Z","tX":519,"tY":357,"tags":{"description":"Station de vidange pour Camping-car.","fee":"no","operator":"Ville de Saint-Gondon","sanitary_dump_station:chemical_toilet":"yes","sanitary_dump_station:grey_water":"yes","sanitary_dump_station:round_drain":"yes","water_point":"yes"}},"4937660921":{"location":[47.7020977,2.7200155],"ct":"FR","tp":"CS","ts":"2023-11-07T06:45:20Z","tX":519,"tY":357,"tags":{"name":"Bois Girault","name:nl":"Bois Girault"}},"7930969138":{"location":[47.6565427,2.6839309],"ct":"FR","tp":"CS","ts":"2023-08-10T17:42:35Z","tX":519,"tY":357,"tags":{"access":"yes","addr:city":"Saint-Brisson-sur-Loire","addr:postcode":"45500","addr:street":"La patte d'oie","capacity":"6","caravans":"no","charge":"8 €","contact:facebook":"https://www.facebook.com/Le-Refuge-de-La-Patte-dOie-45500-mini-camping-2-roues--255437502049131/","description":"Vélos, 2 roues et marcheurs. Pas de voiture, ni de camping-car, ni de caravane : Situé entre le Pont Canal de Briare et Gien. Sur la route de La Loire à vélo et l'Eurovélo 6, dans le val de Loire (D951). Et en face du château de St Brisson sur Loire. A 5","email":"lerefugedelapattedoie@gmail.com","fee":"yes","motor_vehicle":"no","name":"Le Refuge de La Patte d'Oie - Mini-camping 2 roues","opening_hours:url":"http://campinglerefugedelapattedoie45500.fr/","payment:cash":"yes","payment:visa":"No","shower":"yes","toilets":"yes","website":"http://campinglerefugedelapattedoie45500.fr/"}},"11082974054":{"location":[47.6126736,2.5215911],"ct":"FR","tp":"CS","ts":"2024-04-08T12:52:04Z","tX":519,"tY":357,"tags":{"addr:city":"Coullons","addr:place":"Champ Gault","addr:postcode":"45720","contact:youtube":"https://www.youtube.com/watch?v=pOL0u6K4wLI","name":"Charme Theater Camp","website":"https://charme.nl"}},"11929535563":{"location":[47.6561118,2.7184577],"ct":"FR","tp":"CR","ts":"2024-05-24T01:04:21Z","tX":519,"tY":357,"tags":{"caravan_site":"motorhome_stopover","caravan_site:type":"winery","fee":"no","name":"Aire Domain Poupat","network":"France Passion","website":"https://domaine-poupat.fr/"}},"11930244101":{"location":[47.5927592,2.793176],"ct":"FR","tp":"CR","ts":"2024-05-24T09:47:53Z","tX":519,"tY":357,"tags":{"capacity":"6","caravan_site":"motorhome_stopover","caravan_site:type":"winery","fee":"no","name":"Aire de stationnement camping-cars - le Clos des Cortillaux","seasonal":"no","water_point":"yes"}},"11930360213":{"location":[47.692306,2.5346996],"ct":"FR","tp":"CR","ts":"2024-10-18T17:53:32Z","tX":519,"tY":357,"tags":{"caravan_site":"motorhome_stopover","caravan_site:type":"farm_shop","dog":"yes","fee":"no","name":"Sologne Autruches","network":"France Passion","product":"austrich","website":"https://www.sologne-autruches.fr/"}},"11930824284":{"location":[47.6235986,2.4914034],"ct":"FR","tp":"CR","ts":"2024-05-24T14:37:24Z","tX":519,"tY":357,"tags":{"capacity":"3","caravan_site":"motorhome_stopover","caravan_site:type":"lake;village","fee":"no","maxstay":"48 hours","name":"Aire Plancherotte -Coullons","website":"https://www.valdeloire-france.com/aire-camping-car/aire-de-stationnement-municipale-pour-camping-car/"}},"12228544026":{"location":[47.6999252,2.5433363],"ct":"FR","tp":"CR","ts":"2024-10-05T22:38:16Z","tX":519,"tY":357,"tags":{"capacity":"10","caravan_site":"motorhome_stopover","caravan_site:type":"village","fee":"no","maxstay":"48 hours","name":"Aire de Camping-car de Saint-Gondon Rue du Petit Clou","operator":"Ville de Saint-Gondon","power_supply":"no","sanitary_dump_station":"yes","sanitary_dump_station:chemical_toilet":"yes","sanitary_dump_station:grey_water":"yes","sanitary_dump_station:round_drain":"yes","supervised":"no","surface":"asphalt","water_point":"yes"}},"5434091362":{"location":[47.6468363,2.6802054],"ct":"FR","tp":"SD","ts":"2021-11-20T14:40:26Z","tX":519,"tY":357,"tags":{"description":"Station de vidange pour Camping-car.","fee":"no","operator":"Ville de Saint-Brisson-sur-Loire","sanitary_dump_station:chemical_toilet":"yes","sanitary_dump_station:grey_water":"yes","sanitary_dump_station:round_drain":"yes","water_point":"yes"}},"6694730409":{"location":[47.6435872,2.7236732],"ct":"FR","tp":"SD","ts":"2024-04-29T09:11:47Z","tX":519,"tY":357,"tags":{"fee":"no","operator":"FlotBleuPark"}},"7326120443":{"location":[47.670086,2.8091897],"ct":"FR","tp":"SD","ts":"2020-03-24T17:08:40Z","tX":519,"tY":357,"tags":{"water_point":"yes"}},"8431813312":{"location":[47.6980258,2.5387498],"ct":"FR","tp":"SD","ts":"2021-11-20T14:40:26Z","tX":519,"tY":357,"tags":{"description":"Station de vidange pour Camping-car.","fee":"no","operator":"Ville de Saint-Gondon","sanitary_dump_station:chemical_toilet":"yes","sanitary_dump_station:grey_water":"yes","sanitary_dump_station:round_drain":"yes","water_point":"yes"}},"8431877268":{"location":[47.6799794,2.6428459],"ct":"FR","tp":"SD","ts":"2023-07-04T19:35:36Z","tX":519,"tY":357,"tags":{"access":"yes","fee":"no","operator":"Ville de Gien","sanitary_dump_station:chemical_toilet":"yes","sanitary_dump_station:grey_water":"yes","sanitary_dump_station:round_drain":"yes"}},"8431917507":{"location":[47.6320761,2.7396148],"ct":"FR","tp":"SD","ts":"2024-04-29T09:11:47Z","tX":519,"tY":357,"tags":{"charge":"2 € pour 20 mn","drinking_water":"yes","fee":"yes","operator":"Flot Bleu","sanitary_dump_station:basin":"yes"}},"9999319923":{"location":[47.6417692,2.7253136],"ct":"FR","tp":"SD","ts":"2024-04-04T06:22:11Z","tX":519,"tY":357,"tags":{}},"11930324878":{"location":[47.6200471,2.4933346],"ct":"FR","tp":"SD","ts":"2024-05-24T10:39:35Z","tX":519,"tY":357,"tags":{"access":"yes","sanitary_dump_station:chemical_toilet":"no","sanitary_dump_station:grey_water":"yes"}}}