{"144210367":{"location":[43.973442,2.720609],"ct":"FR","tp":"CR","ts":"2024-08-31T13:45:50Z","tX":519,"tY":372,"tags":{"capacity":"5","caravan_site":"motorhome_stopover","caravan_site:type":"river","charge":"8 EUR","fee":"yes","maxstay":"24 hours","name":"Aire Municipale St-Izaire","water_point":"yes","water_point:fee":"yes","website":"https://www.tourisme-aveyron.com/fr/diffusio/activites/aire-de-camping-cars-municipale-st-izaire_TFO382980372363"}},"314655046":{"location":[43.9252257,2.5468765],"ct":"FR","tp":"CS","ts":"2022-08-04T15:52:43Z","tX":519,"tY":372,"tags":{"alt_name":"Camping municipal","contact:website":"http://www.plaisance12.com/camping.htm","name":"Camping du Moulin de l'Horte","operator":"Mairie de Plaisance","pets":"yes","stars":"2","wheelchair":"yes"}},"451370211":{"location":[44.0502776,2.7637265],"ct":"FR","tp":"CS","ts":"2024-06-29T12:04:36Z","tX":519,"tY":372,"tags":{"access":"customers","capacity:persons":"84","capacity:tents":"28","caravans":"yes","fee":"yes","name":"Camping municipal de la Prade","opening_hours":"2022 Jun 15-2022 Sep 30: open","opening_hours:note":"seams to open late within the year…","payment:cards":"yes","payment:cash":"yes","payment:cheque":"yes","payment:cheques_vacances":"yes","phone":"+33762175835","static_caravans":"yes","tents":"yes","website":"https://www.tourisme-aveyron.com/fr/diffusio/campings/camping-municipal-la-prade-le-truel_TFO18208650200"}},"659716408":{"location":[43.9418864,2.4818106],"ct":"FR","tp":"CS","ts":"2022-08-04T16:11:41Z","tX":519,"tY":372,"tags":{"camp_site":"standard","name":"Camping de l'Amitié"}},"904430814":{"location":[44.0048718,2.6940169],"ct":"FR","tp":"CR","ts":"2024-08-17T11:05:56Z","tX":519,"tY":372,"tags":{"addr:city":"Broquiès","addr:postcode":"12480","addr:street":"Route de Mazies","capacity":"14","caravan_site":"motorhome_stopover","caravan_site:type":"village","charge":"7 EUR","fee":"yes","name":"Aire de camping-car municipale Broquiès","opening_hours":"24/7","operator":"Ville de Broquiès","power_supply":"yes","sanitary_dump_station":"yes","sanitary_dump_station:chemical_toilet":"yes","sanitary_dump_station:grey_water":"yes","sanitary_dump_station:round_drain":"yes","seasonal":"no","tourism:website":"https://www.tourisme-aveyron.com/fr/diffusio/activites/aire-de-camping-car-municipale-broquies_TFO021137024895","water_point":"yes","website":"https://www.broquies.fr/"}},"904435461":{"location":[43.9673982,2.6523506],"ct":"FR","tp":"CR","ts":"2024-10-11T21:54:48Z","tX":519,"tY":372,"tags":{"addr:city":"Montclar","addr:postcode":"12550","addr:street":"D60","capacity":"10","caravan_site":"motorhome_stopover","caravan_site:type":"village","description":"Fermé en hiver","fee":"no","name":"Aire de Camping-Car Municipale Montclar","operator":"Ville de Montclar","power_supply":"yes","sanitary_dump_station":"yes","sanitary_dump_station:chemical_toilet":"yes","sanitary_dump_station:grey_water":"yes","sanitary_dump_station:round_drain":"yes","water_point":"yes","website":"https://montclar.jimdofree.com/tourisme/aire-de-camping-cars/"}},"904437900":{"location":[43.9517896,2.584688],"ct":"FR","tp":"CR","ts":"2024-01-01T16:07:09Z","tX":519,"tY":372,"tags":{"addr:city":"Coupiac","addr:postcode":"12550","addr:street":"D90","capacity":"10","caravan_site":"motorhome_stopover","description":"localisée entre une station service et une usine de charcuterie.","fee":"no","name":"Aire de camping-cars municipale Coupiac","opening_hours":"24/7","operator":"Ville de Coupiac","power_supply":"no","sanitary_dump_station":"yes","sanitary_dump_station:chemical_toilet":"yes","sanitary_dump_station:grey_water":"yes","sanitary_dump_station:round_drain":"yes","seasonal":"no","tents":"yes","water_point":"yes","website":"https://www.tourisme-aveyron.com/fr/diffusio/activites/aire-de-camping-cars-municipale-coupiac_TFO022584486134"}},"1077888766":{"location":[43.8785176,2.603436],"ct":"FR","tp":"CS","ts":"2022-07-25T17:20:46Z","tX":519,"tY":372,"tags":{"fee":"yes"}},"1077888777":{"location":[43.8783096,2.6051038],"ct":"FR","tp":"CS","ts":"2022-07-12T07:49:24Z","tX":519,"tY":372,"tags":{"name":"Camping de la Vallée du Rance"}},"1308447790":{"location":[44.0388672,2.5312022],"ct":"FR","tp":"CR","ts":"2024-10-17T13:32:21Z","tX":519,"tY":372,"tags":{"capacity":"6","caravan_site":"motorhome_stopover","caravan_site:type":"village","fee":"no","name":"Aire de Camping-Cars Municipale de Réquista","opening_hours":"24/7","picnic_area":"yes","picnic_table":"yes","playground":"yes","sanitary_dump_station:chemical_toilet":"yes","seasonal":"no","surface":"pebblestone","toilets":"yes","water_point":"yes","water_point:conditional":"no@(Nov-Apr)","website":"https://www.tourisme-aveyron.com/fr/diffusio/activites/aire-de-camping-cars-municipale-de-requista-requista_TFO022598560415"}},"1308475003":{"location":[43.9898759,2.6998309],"ct":"FR","tp":"CR","ts":"2024-08-17T16:50:48Z","tX":519,"tY":372,"tags":{"capacity":"3","caravan_site":"motorhome_stopover","caravan_site:type":"river","charge":"20 EUR","fee":"yes","name":"Park & Rêve","power_supply":"yes","surface":"pebblestone","website":"https://www.reve-aveyron.com/en/2203368/parkreve"}},"1383539703":{"location":[43.9443762,2.4693641],"ct":"FR","tp":"CS","ts":"2020-10-26T10:05:30Z","tX":519,"tY":372,"tags":{"name":"Camping municipal"}},"1785881834":{"location":[43.9882975,2.6575097],"ct":"FR","tp":"CS","ts":"2023-11-08T15:14:52Z","tX":519,"tY":372,"tags":{"name":"Camping du Batut","phone":"+33665967579","website":"https://www.campingdubatut.com/"}},"1785957847":{"location":[43.996208,2.5602153],"ct":"FR","tp":"CS","ts":"2017-10-08T02:19:23Z","tX":519,"tY":372,"tags":{"name":"Les Chalets du Tarn","note":"close","phone":"+33 6 52 20 93 09"}},"5910992816":{"location":[44.002134,2.4702474],"ct":"FR","tp":"CS","ts":"2023-11-08T15:14:47Z","tX":519,"tY":372,"tags":{"email":"bastidealbignac@hotmail.fr","name":"La Bastide d'Albignac","phone":"+33 5 63 53 48 44","stars":"1","website":"https://albignac.com/"}},"7508819749":{"location":[43.9730911,2.719422],"ct":"FR","tp":"CS","ts":"2022-01-25T08:53:01Z","tX":519,"tY":372,"tags":{"addr:city":"Saint-Izaire","addr:postcode":"12480","addr:street":"de Saint-Affrique","addr:unit":"Route","capacity":"80","fee":"yes","internet_access":"yes","name":"Camping La Planque","operator":"Arnould LECLERCQ"}},"7803435920":{"location":[43.9584162,2.5913452],"ct":"FR","tp":"CS","ts":"2020-08-11T09:35:46Z","tX":519,"tY":372,"tags":{"name":"Le Masnaut","source":"data.gouv.fr:DATAtourisme - 05/2020"}},"8399452868":{"location":[44.005093,2.6934893],"ct":"FR","tp":"SD","ts":"2024-04-28T22:46:18Z","tX":519,"tY":372,"tags":{"access":"yes","fee":"no","operator":"Ville de Broquiès","sanitary_dump_station:chemical_toilet":"yes","sanitary_dump_station:grey_water":"yes","sanitary_dump_station:round_drain":"yes","water_point":"yes"}},"8399525714":{"location":[43.9673217,2.6526533],"ct":"FR","tp":"SD","ts":"2021-11-20T14:40:26Z","tX":519,"tY":372,"tags":{"access":"yes","description":"Station de vidange pour Camping-car","fee":"no","operator":"Ville de Montclar","sanitary_dump_station:chemical_toilet":"yes","sanitary_dump_station:grey_water":"yes","sanitary_dump_station:round_drain":"yes","water_point":"yes"}},"8399668240":{"location":[43.9520817,2.5848954],"ct":"FR","tp":"SD","ts":"2024-01-01T16:07:09Z","tX":519,"tY":372,"tags":{"access":"yes","description":"Station de vidange pour Camping-car","fee":"no","operator":"Ville de Coupiac","sanitary_dump_station:chemical_toilet":"yes","sanitary_dump_station:grey_water":"yes","sanitary_dump_station:round_drain":"yes","water_point":"yes"}}}