{"78343650":{"location":[43.6153224,2.8013149],"ct":"FR","tp":"CS","ts":"2020-10-09T14:28:31Z","tX":519,"tY":373,"tags":{"addr:city":"Fraisse-sur-Agout","addr:postcode":"34330","addr:street":"Domaine de Bélaman","capacity":"6","internet_access":"terminal","internet_access:fee":"no","name":"Camping Bélaman","operator":"Kreitner, Markus"}},"336311351":{"location":[43.7370804,2.5193815],"ct":"FR","tp":"CS","ts":"2023-04-07T07:57:54Z","tX":519,"tY":373,"tags":{"addr":"Le Bourg - 81330 Lacaze","dog":"yes","email":"campinglejardin@gmail.com","internet_access":"yes","name":"Le jardin","phone":"+33 5 63 37 17 08","toilets":"yes","website":"http://www.campinglejardin-tarn.com/"}},"340674772":{"location":[43.6012272,2.6878328],"ct":"FR","tp":"CS","ts":"2023-11-06T15:45:57Z","tX":519,"tY":373,"tags":{"alt_name":"Camping du CCE Calcia","email":"camping.ccecalcia@wanadoo.fr","fax":"+33467975469","name":"Camping des Cèpes","phone":"+33467976345","source":"Bing","stars":"2","website":"https://www.camping-des-cepes.com/"}},"340674774":{"location":[43.601047,2.6847145],"ct":"FR","tp":"CS","ts":"2019-03-05T01:02:36Z","tX":519,"tY":373,"tags":{"email":"camping.bouldouires@wanadoo.fr","fax":"+33467238764","name":"Les Bouldouïres","phone":"+33467973691","source":"Bing","stars":"3","website":"https://www.campingbouldouires.fr/"}},"369505479":{"location":[43.8180948,2.7497232],"ct":"FR","tp":"CS","ts":"2019-10-08T18:10:04Z","tX":519,"tY":373,"tags":{"contact:website":"http://www.campinglevalfleuri.com/","name":"Le Val Fleuri"}},"370252438":{"location":[43.6507052,2.7687211],"ct":"FR","tp":"CS","ts":"2020-08-23T21:32:40Z","tX":519,"tY":373,"tags":{"access":"customers","addr:city":"Nages","addr:postcode":"81320","addr:street":"Carlebou","capacity":"150","capacity:persons":"150","fee":"yes","internet_access":"yes","name":"Camping Les Fées du lac","operator":"SAS Les Fées du lac","payment:cash":"yes","payment:cb":"yes","payment:cheque":"yes","payment:credit_cards":"yes","payment:mastercard":"yes","payment:travellers_cheque":"yes","payment:visa":"yes","payment:visa_debit":"yes","phone":"+33 5 67 29 03 07","price":"10-590€","stars":"3","website":"https://www.lesfeesdulac.com"}},"370690378":{"location":[43.6467279,2.781217],"ct":"FR","tp":"CR","ts":"2024-05-13T13:11:15Z","tX":519,"tY":373,"tags":{"capacity":"20","caravan_site":"motorhome_stopover","caravan_site:type":"lake","charge":"8 EUR","dog":"yes","fee":"yes","name":"Aire de camping-cars de Nages - Base du Laouzas","network":"Réseau AireServices","opening_hours":"24/7","power_supply:maxcurrent":"10","sanitary_dump_station":"yes","water_point":"yes"}},"370695233":{"location":[43.6485445,2.7794128],"ct":"FR","tp":"CS","ts":"2024-09-28T00:17:29Z","tX":519,"tY":373,"tags":{"name":"Camping Tohapi Rieumontagné","note":"C'est le nom \"Tohapi\" qui est utilisé pour parler de ce camping et non pas le nom officiel \"Rieumontagné\" qui est aussi le nom de la localité avec plusieurs camping différents","official_name":"Camping Rieumontagné","operator":"Tohapi","phone":"+33 4 30 63 38 83","short_name":"Tohapi","stars":"4","static_caravans":"yes","website":"https://www.campingrieumontagne.com/"}},"370695235":{"location":[43.6493912,2.7739516],"ct":"FR","tp":"CS","ts":"2020-08-23T21:32:42Z","tX":519,"tY":373,"tags":{"contact:facebook":"https://www.facebook.com/lesrivesdulac81","name":"Les Rives du Lac","phone":"+33 5 63 37 45 76","website":"http://www.lesrivesdulac.com/"}},"375502361":{"location":[43.7323591,2.5944253],"ct":"FR","tp":"CS","ts":"2020-10-26T10:08:29Z","tX":519,"tY":373,"tags":{"name":"Camping municipal La Rabaudié","opening_hours":"Apr-Sep 08:30-11:00;Oct-Mar off","operator":"Mairie de Viane","phone":"+33 5 63 37 50 34","stars":"2","website":"https://viane.fr/camping-de-la-rabaudie/"}},"431779989":{"location":[43.6267843,2.6803815],"ct":"FR","tp":"CS","ts":"2024-04-02T20:20:45Z","tX":519,"tY":373,"tags":{"addr:city":"Salvetat-sur-Agoût","addr:postcode":"34330","addr:street":"Route de Lacaune","email":"info@goudal.com","name":"Goudal","phone":"+33 467 97 6044","website":"https://goudal.com/fr/"}},"561865936":{"location":[43.5899352,2.6012493],"ct":"FR","tp":"CS","ts":"2020-08-23T21:32:42Z","tX":519,"tY":373,"tags":{"addr:city":"Anglès","addr:postcode":"81260","addr:street":"Lac de la Raviège","contact:facebook":"https://www.facebook.com/Camping-La-Ravi%C3%A8ge-186526458841061/","name":"Camping La Raviège","phone":"+33 5 63 70 97 27","stars":"2","website":"https://www.campeole.com/camping/tarn/la-raviege-angles"}},"624540595":{"location":[43.5969556,2.6084609],"ct":"FR","tp":"CS","ts":"2019-10-17T05:20:30Z","tX":519,"tY":373,"tags":{"camp_site":"basic","email":"contact@campingrouquie.fr","name":"Le Rouquié du Lac","phone":"+33 563 709 806","stars":"3","website":"https://www.campingrouquie.fr/"}},"691397317":{"location":[43.6551096,2.7896757],"ct":"FR","tp":"CS","ts":"2020-08-23T21:32:42Z","tX":519,"tY":373,"tags":{"name":"Domaine Lacanal","phone":"+33 5 633 72 510","stars":"2","website":"https://www.lacanal.com/"}},"735392531":{"location":[43.6077335,2.4709556],"ct":"FR","tp":"CS","ts":"2020-12-20T21:01:09Z","tX":519,"tY":373,"tags":{"addr:city":"Le Bez","addr:postcode":"81260","email":"info@leplo.com","name":"Camping Le Plô","phone":"+33 563 740 082","stars":"3","website":"https://www.camping-leplo.fr/"}},"839959744":{"location":[43.6307795,2.493231],"ct":"FR","tp":"CS","ts":"2020-08-24T22:19:58Z","tX":519,"tY":373,"tags":{"contact:facebook":"https://www.facebook.com/Camping-la-Lande-Brassac-Sidobre-Tarn-868746786806114/","name":"Camping La Lande","opening_hours":"Jun 15-Sep 15","short_name":"La Lande","stars":"2","website":"http://brassac.fr/lecamping/"}},"839959779":{"location":[43.6326241,2.7722923],"ct":"FR","tp":"CS","ts":"2020-08-23T21:32:38Z","tX":519,"tY":373,"tags":{"alt_name":"Le Devès de Villelongue","name":"Aire Naturelle de Camping","opening_hours":"May-Sep on;Oct-Apr off","operator":"M. Cauquil","phone":"+33 5 63 37 28 61"}},"839960144":{"location":[43.6485333,2.7768407],"ct":"FR","tp":"CS","ts":"2020-08-23T21:32:38Z","tX":519,"tY":373,"tags":{"contact:facebook":"https://www.facebook.com/lesrivesdulac81","description":"Aire gérée par le camping Les Rives du Lac","name":"Aire naturelle de camping","phone":"+33 5 63 37 45 76","website":"http://www.lesrivesdulac.com/"}},"904495568":{"location":[43.6001013,2.6793048],"ct":"FR","tp":"CR","ts":"2024-01-01T17:18:01Z","tX":519,"tY":373,"tags":{"addr:city":"La Salvetat-sur-Agout","addr:postcode":"34330","addr:street":"Rieumajou","capacity":"10","caravan_site":"motorhome_stopover","fee":"no","name":"Aire de Camping-Car Municipale La Salvetat-sur-Agout","operator":"Ville de La Salvetat-sur-Agout","power_supply":"no","sanitary_dump_station":"yes","sanitary_dump_station:chemical_toilet":"yes","sanitary_dump_station:grey_water":"yes","sanitary_dump_station:round_drain":"yes"}},"904496937":{"location":[43.6059636,2.6995805],"ct":"FR","tp":"CR","ts":"2024-10-06T12:21:09Z","tX":519,"tY":373,"tags":{"addr:city":"La Salvetat-sur-Agout","addr:postcode":"34330","addr:street":"Chemin du Redoundel","capacity":"10","caravan_site":"motorhome_stopover","caravan_site:type":"village","fee":"no","maxstay":"2 days","name":"Aire de Camping-car Le Redoundel","opening_hours":"24/7","operator":"Ville de La Salvetat-sur-Agout","power_supply":"no","sanitary_dump_station":"yes","sanitary_dump_station:chemical_toilet":"yes","sanitary_dump_station:grey_water":"yes","sanitary_dump_station:round_drain":"yes","water_point":"yes"}},"985868686":{"location":[43.6236215,2.7163812],"ct":"FR","tp":"CS","ts":"2021-09-22T14:52:22Z","tX":519,"tY":373,"tags":{"email":"camping@lepeyral.com","name":"Le Peyral","phone":"+33 467 239 528","source":"cadastre-dgi-fr source : Direction Générale des Impôts - Cadastre. Mise à jour : 2011","website":"https://lepeyral.com"}},"985868689":{"location":[43.6006334,2.6365542],"ct":"FR","tp":"CS","ts":"2021-09-22T14:52:22Z","tX":519,"tY":373,"tags":{"addr:city":"Salvetat-sur-Agoût","addr:postcode":"34330","addr:street":"Les Moulières","email":"campingpasteo@gmail.com","name":"Camping Pasteo","phone":"+33 467 957 551","website":"http://www.camping-pasteo.fr"}},"985873370":{"location":[43.6072133,2.7807777],"ct":"FR","tp":"CS","ts":"2021-09-22T15:08:45Z","tX":519,"tY":373,"tags":{"capacity":"20","name":"Le Pioch","phone":"+33683193200","website":"https://www.lepioch.fr"}},"1190853300":{"location":[43.6044842,2.7955713],"ct":"FR","tp":"CR","ts":"2024-10-08T19:40:21Z","tX":519,"tY":373,"tags":{"caravan_site":"motorhome_stopover","caravan_site:type":"street_side","fee":"yes","group_only":"yes","name":"Fraisse-sur-Agout","power_supply":"yes","sanitary_dump_station":"yes","sanitary_dump_station:chemical_toilet":"yes","sanitary_dump_station:grey_water":"yes","water_point":"yes"}},"1282007724":{"location":[43.6037195,2.7037425],"ct":"FR","tp":"CR","ts":"2024-08-19T14:52:11Z","tX":519,"tY":373,"tags":{"capacity":"60","caravan_site":"motorhome_stopover","caravan_site:type":"village","charge":"15 EUR","dog":"yes","fee":"yes","internet_access":"wlan","laundry":"yes","name":"Aire de camping-car La Salvetat","opening_hours":"24/7","power_supply":"yes","shower":"yes","tents":"no","toilets":"yes","water_point":"yes","website":"https://www.herault-tourisme.com/fr/fiche/aire-de-camping-car/aire-de-camping-car-la-salvetat-la-salvetat-sur-agout_TFOACCAMLAR034V528Q2Y/","wheelchair":"yes"}},"1308420121":{"location":[43.8163969,2.7527379],"ct":"FR","tp":"CR","ts":"2024-08-17T11:00:05Z","tX":519,"tY":373,"tags":{"capacity":"3","caravan_site":"motorhome_stopover","caravan_site:type":"village","fee":"no","name":"Aire de camping-car municipale de Belmont","opening_hours":"24/7","picnic_area":"yes","power_supply":"yes","power_supply:charge":"2 EUR","power_supply:fee":"yes","sanitary_dump_station":"yes","seasonal":"no","water_point":"yes","water_point:charge":"2 EUR","water_point:fee":"yes","website":"https://www.tourisme-aveyron.com/fr/diffusio/activites/aire-de-camping-car-municipale-de-belmont-belmont-sur-rance_TFO021136310687"}},"1937822326":{"location":[43.7093473,2.7077289],"ct":"FR","tp":"CS","ts":"2013-07-19T08:19:03Z","tX":519,"tY":373,"tags":{"internet_access":"wlan","internet_access:fee":"no","name":"Sources Chaudes","wheelchair":"yes"}},"8400150813":{"location":[43.6001926,2.6790872],"ct":"FR","tp":"SD","ts":"2021-11-20T14:40:26Z","tX":519,"tY":373,"tags":{"access":"yes","description":"Station de vidange pour Camping-car","fee":"no","operator":"Ville de La Salvetat-sur-Agout","sanitary_dump_station:chemical_toilet":"yes","sanitary_dump_station:grey_water":"yes","sanitary_dump_station:round_drain":"yes","water_point":"yes"}},"8400183424":{"location":[43.6057855,2.6993546],"ct":"FR","tp":"SD","ts":"2024-05-11T18:38:02Z","tX":519,"tY":373,"tags":{"access":"yes","fee":"no","operator":"Ville de La Salvetat-sur-Agout","sanitary_dump_station:chemical_toilet":"yes","sanitary_dump_station:grey_water":"yes","sanitary_dump_station:round_drain":"yes","water_point":"yes"}},"11758927095":{"location":[43.8164482,2.7528571],"ct":"FR","tp":"SD","ts":"2024-03-24T19:33:29Z","tX":519,"tY":373,"tags":{}}}