{"109626932":{"location":[42.7658642,2.6665816],"ct":"FR","tp":"CS","ts":"2023-12-23T16:16:48Z","tX":519,"tY":377,"tags":{"addr:city":"Latour de France","addr:housenumber":"43","addr:postcode":"66720","addr:street":"Avenue du Général de Gaulle","contact:email":"contact@camping-latourdefrance.fr","name":"La Tour de France","phone":"+33 4 68 29 16 10","website":"https://www.camping-latourdefrance.fr/"}},"223992072":{"location":[42.8075554,2.5017521],"ct":"FR","tp":"CS","ts":"2024-07-13T21:24:42Z","tX":519,"tY":377,"tags":{"addr:postcode":"66220","addr:street":"Avenue du 16 Août 1944","camp_site":"serviced","email":"camping@saintpauldefenouillet.fr","internet_access":"wlan","internet_access:fee":"no","name":"Camping de l'Agly","phone":"+33 4 68 59 28 48","ref:FR:SIRET":"21660187200064","stars":"2","website":"http://www.st-paul66.com/hebergement-fiche/HPA/HPALAR0660002449/"}},"224107373":{"location":[42.808097,2.6061498],"ct":"FR","tp":"CS","ts":"2013-11-11T21:20:20Z","tX":519,"tY":377,"tags":{"name":"Camping Le Maurynate"}},"374102774":{"location":[42.6151242,2.5012809],"ct":"FR","tp":"CS","ts":"2024-10-03T03:23:11Z","tX":519,"tY":377,"tags":{"addr:city":"Espira de Conflent","addr:housenumber":"55","addr:postcode":"66210","addr:street":"Route Départementale","caravans":"yes","fee":"yes","name":"Le Canigou","payment:apple_pay":"yes","payment:cash":"yes","payment:contactless":"yes","payment:credit_cards":"yes","payment:google_pay":"yes","payment:maestro":"yes","payment:mastercard":"yes","payment:visa":"yes","static_caravans":"yes","tents":"yes","website":"https://www.camping-canigou.com/fr/"}},"385390346":{"location":[42.6909536,2.6577361],"ct":"FR","tp":"CS","ts":"2023-01-07T16:39:21Z","tX":519,"tY":377,"tags":{"backcountry":"no","email":"contact@camping-lagarenne.fr","group_only":"no","name":"La Garenne","phone":"+33 4 68571576","stars":"3","tents":"yes","website":"https://www.camping-lagarenne.fr/"}},"442529146":{"location":[42.8014682,2.7199915],"ct":"FR","tp":"CS","ts":"2009-07-16T10:21:04Z","tX":519,"tY":377,"tags":{"name":"Mas de l'Alzine"}},"443023725":{"location":[42.6492418,2.5317649],"ct":"FR","tp":"CR","ts":"2024-05-17T22:41:50Z","tX":519,"tY":377,"tags":{"bbq":"no","capacity":"35","caravan_site":"motorhome_stopover","caravan_site:type":"beach","caravans":"no","charge":"15.36 EUR","charge:conditional":"13.86 @ (Oct-Apr)","dog":"leashed","fee":"yes","internet_access":"wlan","maxlength":"none","name":"Aire Vinça Le Lac","network":"CAMPING-CAR PARK","power_supply":"yes","power_supply:capacity":"36","power_supply:fee":"no","power_supply:maxcurrent":"6","sanitary_dump_station":"yes","tents":"no","trailer":"yes","water_point":"yes","website":"https://campingcarpark.com/shop/occitanie/66-pyrenees-orientales/vinca-le-lac/"}},"475428241":{"location":[42.7162626,2.607793],"ct":"FR","tp":"CR","ts":"2024-10-11T20:50:06Z","tX":519,"tY":377,"tags":{"capacity":"25","caravan_site":"motorhome_stopover","caravan_site:type":"village","fee":"yes","name":"Aire de Camping-Cars Belesta","power_supply":"yes","sanitary_dump_station":"no","toilets":"no","water_point":"yes","website":"https://www.tourisme-pyreneesorientales.com/aire-de-stationnement-communale-pour-camping-cars/belesta/accamlar0660000c"}},"618935921":{"location":[42.7806159,2.7909109],"ct":"FR","tp":"CR","ts":"2024-05-10T09:09:45Z","tX":519,"tY":377,"tags":{"alt_name":"Les Portes de l'Agly","bbq":"no","capacity":"21","caravan_site":"motorhome_stopover","caravan_site:type":"village","caravans":"no","charge":"14.85 EUR","dog":"leashed","fee":"yes","internet_access":"wlan","internet_access:fee":"no","maxlength":"none","name":"Aire Cases de Pène","network":"CAMPING-CAR PARK","opening_hours":"24/7","operator":"Camping-Car Park","power_supply":"yes","power_supply:capacity":"24","power_supply:maxcurrent":"6","sanitary_dump_station":"customers","tents":"no","toilets":"no","trailer":"yes","water_point":"yes","website":"https://www.campingcarpark.com/fr_FR/sejour/aire-etape-camping-car/occitanie/66-pyrenees-orientales/cases-de-pene"}},"726105954":{"location":[42.6443749,2.535334],"ct":"FR","tp":"CS","ts":"2023-08-08T16:59:45Z","tX":519,"tY":377,"tags":{"capacity":"114","email":"camping-vinca@orange.fr","mobile":"+33 6 72322707","name":"Lac de Vinça","operator":"SAS Camping les Rives du Lac de Vinça","phone":"+33 4 68058478","stars":"3","website":"https://camping-lac-de-vinca.com"}},"863542401":{"location":[42.6718112,2.629817],"ct":"FR","tp":"CS","ts":"2023-05-21T22:04:53Z","tX":519,"tY":377,"tags":{"addr:street":"Rue du Colonel Fabien","drinking_water":"yes","email":"contact@camping-le-colomer.fr","internet_access":"wlan","name":"Le Colomer","phone":"+33 4 68 56 79 67","stars":"2","swimming_pool":"no","washing_machine":"yes","website":"https://camping-le-colomer.fr","wheelchair":"yes"}},"890930044":{"location":[42.6758105,2.6351375],"ct":"FR","tp":"CR","ts":"2024-10-08T17:42:21Z","tX":519,"tY":377,"tags":{"caravan_site":"motorhome_stopover","caravan_site:type":"supermarket","description":"Stationnement sur le parking de SuperU. Electricité payante. Autre services gratuits","fee":"no","name":"aire de camping-car SUper U Ille-sur-Têt","power_supply":"yes","power_supply:fee":"yes","sanitary_dump_station":"yes","surface":"asphalt","water_point":"yes","water_point:fee":"no","wheelchair":"yes"}},"1159392006":{"location":[42.6353427,2.7598221],"ct":"FR","tp":"CR","ts":"2024-08-19T14:58:04Z","tX":519,"tY":377,"tags":{"capacity":"10","caravan_site":"motorhome_stopover","caravan_site:type":"village","caravans":"no","charge":"11 EUR","fee":"yes","fee:conditional":"no@(Nov-Apr)","name":"Aire de camping-cars Thuir","surface":"asphalt","tents":"no","website":"https://thuir.fr/dynamique/aire-pour-camping-cars/"}},"1169721916":{"location":[42.8100823,2.5991023],"ct":"FR","tp":"CR","ts":"2024-10-05T16:05:52Z","tX":519,"tY":377,"tags":{"caravan_site":"motorhome_stopover","caravans":"designated","charge":"3.50 EUR","fee":"yes","name":"Aire de camping-cars de Maury","power_supply":"yes","power_supply:charge":"3.50 EUR","sanitary_dump_station":"yes","water_point":"yes"}},"1307544696":{"location":[42.7666169,2.6642462],"ct":"FR","tp":"PK","ts":"2024-08-13T17:55:01Z","tX":519,"tY":377,"tags":{"motorhome":"yes","parking":"surface"}},"4488322806":{"location":[42.7346001,2.5753213],"ct":"FR","tp":"CS","ts":"2023-08-08T18:02:56Z","tX":519,"tY":377,"tags":{"addr:city":"Caramany","addr:housenumber":"9000","addr:postcode":"66720","addr:street":"Rue de la Bade","capacity":"35","description":"Camping de 18 emplacements, avec possibilité de location de deux mobil-home équipés pouvant accueillir 6 personnes.","email":"campingdulac.caramany@orange.fr","fee":"yes","name":"Camping du Lac","phone":"+33 468292450"}},"6002016741":{"location":[42.8093589,2.6000717],"ct":"FR","tp":"SD","ts":"2018-10-21T07:37:37Z","tX":519,"tY":377,"tags":{"access":"agricultural","operator":"Mairie de Maury"}},"8280496213":{"location":[42.6757388,2.6354673],"ct":"FR","tp":"SD","ts":"2021-01-01T09:39:59Z","tX":519,"tY":377,"tags":{"access":"yes","fee":"no","operator":"SuperU","water_point":"yes"}},"11569188392":{"location":[42.715439,2.6092876],"ct":"FR","tp":"SD","ts":"2024-01-30T13:19:01Z","tX":519,"tY":377,"tags":{"fee":"yes","operator":"Mairie de Bélesta"}},"12120437024":{"location":[42.6352986,2.7596692],"ct":"FR","tp":"SD","ts":"2024-08-19T14:58:04Z","tX":519,"tY":377,"tags":{}},"12217441135":{"location":[42.6164491,2.5016381],"ct":"FR","tp":"SD","ts":"2024-10-03T03:36:49Z","tX":519,"tY":377,"tags":{"access":"customers"}}}