{"26154879":{"location":[42.4834088,2.7578997],"ct":"FR","tp":"CS","ts":"2023-08-08T16:16:13Z","tX":519,"tY":378,"tags":{"internet_access":"wlan","name":"Camping de Nogarède","operator":"SARL Camping de Nogarède","source":"© 2008 Direction Générale des Impôts - Cadastre"}},"48876194":{"location":[42.4795948,2.6741423],"ct":"FR","tp":"CS","ts":"2023-11-04T13:35:22Z","tX":519,"tY":378,"tags":{"addr:city":"Amélie les Bains","addr:postcode":"66110","addr:street":"Avenue Beausoleil","capacity":"80","contact:phone":"+33468390049","fee":"yes","internet_access":"wlan","name":"Amélia Camping","website":"https://www.camping-amelia.fr/"}},"135451407":{"location":[42.4111641,2.6170625],"ct":"FR","tp":"CS","ts":"2024-07-31T15:39:22Z","tX":519,"tY":378,"tags":{"access":"customers","addr:city":"Saint-Laurent-de-Cerdans","addr:country":"FR","addr:housenumber":"MAS Clols","addr:postcode":"66260","addr:street":"Route Arles sur Tech","contact:phone":"+33468395168","contact:website":"https://www.leclols.com/","fee":"yes","name":"Domaine le Clols","opening_hours":"May 01-Sep 30, PH 00:00-24:00"}},"149408985":{"location":[42.5090787,2.7833825],"ct":"FR","tp":"CS","ts":"2023-10-20T22:33:10Z","tX":519,"tY":378,"tags":{"addr:housenumber":"5","addr:street":"Chemin de l'Ille","caravans":"yes","drinking_water":"yes","email":"jc@campinglescasteillets.com","internet_access":"wlan","name":"Camping *** Les Casteillets","phone":"+33 4 68 83 26 83","power_supply":"yes","shower":"yes","stars":"3","tents":"yes","toilets":"yes","website":"https://www.campinglescasteillets.com/","wheelchair":"yes"}},"165255478":{"location":[42.4671844,2.6509743],"ct":"FR","tp":"CS","ts":"2023-11-04T13:35:25Z","tX":519,"tY":378,"tags":{"email":"info@campingvallespir.com","name":"Camping du Vallespir","phone":"+33 4 68 39 90 00","stars":"3","swimming_pool":"yes","website":"https://www.campingvallespir.com/"}},"205735734":{"location":[42.4909329,2.7636655],"ct":"FR","tp":"CS","ts":"2021-10-11T22:00:54Z","tX":519,"tY":378,"tags":{"name":"Camping Les Cerisiers","phone":"+33970350030","stars":"3","website":"https://www.campingcerisiers.fr/"}},"215784651":{"location":[42.5061669,2.7967378],"ct":"FR","tp":"CS","ts":"2023-12-22T11:08:26Z","tX":519,"tY":378,"tags":{"caravans":"yes","dog":"yes","email":"campingdelavallee@yahoo.fr","fee":"yes","internet_access":"yes","lit":"yes","motorhome":"yes","name":"Camping de la Vallée","phone:FR":"+33 468 832 320","shower":"yes","source":"Bing","stars":"3","static_caravans":"yes","swimming_pool":"yes","tents":"yes","toilets":"yes","website":"https://www.campingdelavallee.com/"}},"368064342":{"location":[42.4921727,2.7937455],"ct":"FR","tp":"CS","ts":"2023-12-26T10:08:05Z","tX":519,"tY":378,"tags":{"access":"permissive","addr:city":"Maureillas-las-Illas","addr:postcode":"66480","addr:street":"Route de Céret","capacity":"95","caravans":"yes","dog":"leashed","fee":"yes","motorhome":"yes","name":"Camping Les Bruyères","openfire":"no","payment:cash":"yes","payment:cheque":"yes","payment:mastercard":"yes","payment:visa":"yes","source":"Bing","stars":"3","static_caravans":"yes","tents":"yes","website":"https://www.camping-lesbruyeres-66.fr/"}},"368064343":{"location":[42.4922705,2.7793973],"ct":"FR","tp":"CS","ts":"2024-02-22T20:14:11Z","tX":519,"tY":378,"tags":{"caravans":"yes","motorhome":"yes","name":"Camping Saint-Georges","phone":"+33 468 870 373","shower":"yes","source":"Bing","static_caravans":"yes","tents":"yes","toilets":"yes","website":"https://www.campingsaintgeorges.fr"}},"368064344":{"location":[42.4921935,2.7824495],"ct":"FR","tp":"CS","ts":"2023-12-26T10:08:05Z","tX":519,"tY":378,"tags":{"caravans":"yes","email":"bienvenue@camping-stmartin.fr","motorhome":"yes","name":"Camping Saint-Martin","phone":"+33 621 504 796","shower":"yes","source":"Bing","stars":"4","static_caravans":"yes","tents":"yes","toilets":"yes","website":"https://www.camping-stmartin.fr"}},"368133988":{"location":[42.5498057,2.753596],"ct":"FR","tp":"CS","ts":"2023-12-22T11:16:37Z","tX":519,"tY":378,"tags":{"capacity":"30","caravans":"yes","dog":"yes","email":"alcomu@wanadoo.fr","internet_access:fee":"yes","motorhome":"yes","name":"Camping Al Comu","operator":"Gijsbert-Jan van Nifterik","phone":"+33 468 394 208","shower":"yes","stars":"1","tents":"yes","toilets":"yes","website":"https://www.camping-al-comu.com","wheelchair":"no"}},"368791489":{"location":[42.457331,2.6268942],"ct":"FR","tp":"CS","ts":"2024-09-10T14:21:15Z","tX":519,"tY":378,"tags":{"addr:city":"ARLES SUR TECH","addr:postcode":"66150","addr:street":"Rue de la Forge","capacity":"160","caravans":"yes","contact:phone":"+33468391106","drinking_water":"yes","fee":"yes","internet_access":"yes","internet_access:fee":"yes","name":"Camping du Riuferrer","opening_hours":"Mar 01-Oct 31","power_supply":"yes","sanitary_dump_station":"yes","shower":"yes","stars":"2","tents":"yes","toilets":"yes","website":"http://www.campingduriuferrer.com","wheelchair":"yes"}},"370208876":{"location":[42.507916,2.7670257],"ct":"FR","tp":"CS","ts":"2023-12-24T14:24:21Z","tX":519,"tY":378,"tags":{"addr:city":"Céret","addr:postcode":"66400","addr:street":"Allée du Château d'Aubiry","capacity":"165","caravans":"yes","email":"campingmasdenmas@orange.fr","fee":"yes","motorhome":"yes","name":"Le Mas d'en Mas","name:ca":"Mas d'en Mas","permanent_camping":"yes","phone":"+33 468 834 601","shower":"yes","stars":"2","static_caravans":"yes","swimming_pool":"yes","tents":"yes","toilets":"yes"}},"532316989":{"location":[42.4813193,2.6835638],"ct":"FR","tp":"CR","ts":"2024-05-10T15:25:06Z","tX":519,"tY":378,"tags":{"bbq":"no","capacity":"44","caravan_site":"motorhome_stopover","caravan_site:type":"forest","caravans":"no","charge":"15.94 EUR","dog":"leashed","fee":"yes","internet_access":"wlan","internet_access:fee":"no","maxlength":"9","motorhome":"designated","name":"Aire Amélie-les-Bains-Palalda, Viure als banys","network":"CAMPING-CAR PARK","power_supply":"yes","power_supply:capacity":"44","power_supply:fee":"no","power_supply:maxcurrent":"6","sanitary_dump_station":"yes","shuttle_bus":"yes","surface":"fine_gravel","tents":"no","trailer":"no","water_point":"yes","website":"https://www.campingcarpark.com/fr_FR/sejour/aire-etape-camping-car/occitanie/66-pyrenees-orientales/amelie-les-bains-palalda"}},"532766930":{"location":[42.5378702,2.6227434],"ct":"FR","tp":"CR","ts":"2024-04-28T22:35:21Z","tX":519,"tY":378,"tags":{"bbq":"yes","capacity":"25","caravan_site":"motorhome_stopover","caravan_site:type":"village","caravans":"no","fee":"yes","motorhome":"designated","name":"Aire de camping car Saint Marsal","name:signed":"no","sanitary_dump_station":"yes","sanitary_dump_station:chemical_toilet":"yes","sanitary_dump_station:grey_water":"yes","tents":"no","water_point":"yes","website":"https://mairie-saintmarsal.fr/fr/rb/575278/aire-de-camping-cars-5"}},"532766935":{"location":[42.5388224,2.6226315],"ct":"FR","tp":"CS","ts":"2017-10-15T17:04:19Z","tX":519,"tY":378,"tags":{}},"533339717":{"location":[42.4097055,2.5660919],"ct":"FR","tp":"CS","ts":"2023-04-10T12:28:01Z","tX":519,"tY":378,"tags":{"addr:city":"Serralongue","addr:postcode":"66230","addr:street":"La Pomarede","capacity":"6","contact:email":"alain.torrailles@sfr.fr","contact:phone":"+33 4 68 39 69 71","facebook":"https://www.facebook.com/lapomaredeserralongue/","fee":"yes","internet_access":"no","mobile":"+33 6 10 53 65 80 ; +33 6 35 42 07 50","name":"La Pomarede","operator":"Alain TORRAILLES","tents":"yes","toilets":"yes"}},"533785435":{"location":[42.4069956,2.4698304],"ct":"FR","tp":"CS","ts":"2023-04-10T12:28:01Z","tX":519,"tY":378,"tags":{"addr:city":"Prats-De-Mollo-La-Preste","addr:postcode":"66230","addr:street":"Route de la Preste","capacity:pitches":"54","caravans":"yes","email":"campingcannadal@orange.fr","internet_access":"yes","mobile":"+33 6 18 36 20 59; +33 6 82 59 69 63","motorhome":"yes","name":"Camping Can Nadal","phone":"+33468397089","shower":"yes","stars":"1","tents":"yes","toilets":"yes","website":"https://campingcannadal.wixsite.com/monsite"}},"534306125":{"location":[42.4689995,2.5790594],"ct":"FR","tp":"CS","ts":"2017-10-22T17:31:20Z","tX":519,"tY":378,"tags":{"addr:city":"Corsavy","addr:postcode":"66150","addr:street":"Route de Batere","addr:unit":"Pla Del La Serre","capacity":"50","contact:email":"info@camping-cortsavi.com","contact:phone":"+33468878924","fee":"yes","internet":"wifi","internet_access":"wlan","name":"Le Cortsavi","website":"https://www.camping-cortsavi.com"}},"535358290":{"location":[42.4819428,2.696242],"ct":"FR","tp":"CS","ts":"2023-12-22T11:21:55Z","tX":519,"tY":378,"tags":{"addr:city":"Amélie-les-Bains","addr:postcode":"66112","addr:unit":"BP3","cabins":"yes","caravans":"yes","email":"info@aloha-camping-amelie.com","fee":"yes","lit":"yes","motorhome":"yes","name":"Aloha Camping Club","phone":"+33468394312; +33468390861","shower":"yes","stars":"3","static_caravans":"yes","tents":"yes","toilets":"yes","website":"https://www.aloha-camping-amelie.com/"}},"535365040":{"location":[42.4792013,2.6743335],"ct":"FR","tp":"CR","ts":"2024-05-10T15:24:43Z","tX":519,"tY":378,"tags":{"capacity":"8","caravan_site":"motorhome_stopover","caravan_site:type":"camp_site","caravans":"no","charge":"8 EUR","fee":"yes","free":"yes","maxstay":"2 nights","name":"Aire de Camping Car du camping Amélia","name:en":"Amélia Campsite Motorhome Area","name:fr":"Aire de Camping Car du camping Amélia","phone":"+33 468390049","sanitary_dump_station":"yes","tents":"no","water_point":"yes","water_point:charge":"5 EUR","water_point:fee":"yes","website":"https://www.camping-amelia.fr/aire-de-camping-car/"}},"875708632":{"location":[42.4032033,2.4927955],"ct":"FR","tp":"CS","ts":"2023-04-10T12:28:01Z","tX":519,"tY":378,"tags":{"addr:city":"Prats-de-Mollo-la-Preste","addr:housenumber":"115","addr:postcode":"66230","addr:street":"Route Départementale","capacity:tents":"72","caravans":"yes","contact:email":"sant.marti@outlook.fr","contact:mobile":"+33 6 79 70 08 80","contact:phone":"+33967421726","contact:website":"http://campingsantmarti.wifeo.com","fee":"yes","internet_access":"no","motorhome":"yes","name":"Camping Saint-Martin","shower":"yes","tents":"yes","toilets":"yes"}},"875709324":{"location":[42.4402918,2.6233734],"ct":"FR","tp":"CS","ts":"2022-06-01T20:54:14Z","tX":519,"tY":378,"tags":{"access":"customers","addr:housenumber":"716","addr:postcode":"66150","addr:street":"El Ventos","capacity":"40","contact:email":"infos@leventousnaturiste.com","contact:phone":"+33 4 68 87 83 38","fee":"yes","internet_access":"wlan","laundry_service":"yes","mobile":"+33 6 21 46 65 22","name":"Le Ventous","note":"Officially no campground but managed recreation area.","nudism":"yes","opening_hours":"Jun 15-Sep 30","operator":"Camping Naturiste Le Ventous","pet":"allowed","pets_allowed":"dogs","swimming_pool":"outdoor","website":"http://www.leventousnaturiste.com/"}},"875709769":{"location":[42.5154635,2.6409338],"ct":"FR","tp":"CS","ts":"2023-11-04T13:35:20Z","tX":519,"tY":378,"tags":{"addr:street":"Route de Taulis (D618)","email":"info@labalma.fr","name":"Mas de la Balma","name:ca":"Mas de la Balma","nudism":"yes","operator":"Mark and Rachel","phone":"+33468390888","website":"https://www.labalma.fr/index.php"}},"875711650":{"location":[42.4774455,2.8025114],"ct":"FR","tp":"CS","ts":"2024-07-31T15:46:38Z","tX":519,"tY":378,"tags":{"addr:city":"Maureillas-las-Illas","addr:postcode":"66480","addr:street":"Route départementale 13","description":"Camping naturiste de 50 hectares situé entre mer et montagne à 150 mètres d’altitude dans l’un des départements les plus ensoleillés, où le confort a su préserver la faune et la flore qui en font un environnement exceptionnel.","fee":"yes","internet_access":"wlan","internet_access:fee":"no","name":"La Clapère","nudism":"yes","phone":"+33468833604","stars":"3","website":"https://www.clapere.com/"}},"1067506618":{"location":[42.4912331,2.7972333],"ct":"FR","tp":"CS","ts":"2022-06-07T09:05:35Z","tX":519,"tY":378,"tags":{"email":"lespinslecongo@hotmail.fr","name":"Les Pins / Le Congo","phone:FR":"09 65 01 13 50","stars":"4","website":"https://www.campinglespinslecongo.com/"}},"1067672971":{"location":[42.4868551,2.806929],"ct":"FR","tp":"CS","ts":"2022-08-01T14:27:28Z","tX":519,"tY":378,"tags":{"email":"info@camping-maureillas.com","name":"Le Maureillas","phone":"+33 448070636","stars":"2","website":"https://www.camping-maureillas.com/"}},"1090327836":{"location":[42.5478224,2.5865702],"ct":"FR","tp":"CS","ts":"2022-08-29T21:47:48Z","tX":519,"tY":378,"tags":{"email":"veroniquebaux@yahoo.com","name":"Camping municipal","operator:type":"public","phone":"+33 4 68 39 40 40","website":"https://la-bastide.info/camping/"}},"1192732137":{"location":[42.4261997,2.7855223],"ct":"FR","tp":"CS","ts":"2023-09-13T20:32:51Z","tX":519,"tY":378,"tags":{"camp_site":"basic"}},"5186631677":{"location":[42.421108,2.6656464],"ct":"FR","tp":"CS","ts":"2022-07-19T12:39:19Z","tX":519,"tY":378,"tags":{"cabins":"yes","capacity:tents":"5","name":"La Solane","picnic_table":"yes","reservation":"recommended","shower":"yes","swimming_pool":"yes","tents":"yes","toilets":"yes","washing_machine":"yes","website":"https://www.solane.info/EN/index.html"}},"7661157885":{"location":[42.3889612,2.606184],"ct":"FR","tp":"CS","ts":"2023-09-07T14:49:14Z","tX":519,"tY":378,"tags":{"name":"Càmping Verte Rive","name:ca":"Càmping Verte Rive","website":"https://www.camping-verterive.com/"}},"10945779646":{"location":[42.5013251,2.5459903],"ct":"FR","tp":"CS","ts":"2023-06-02T07:59:49Z","tX":519,"tY":378,"tags":{"backcountry":"yes","camp_site":"basic","motor_vehicle":"no","name":"Aire de bivouac du Refuge de Batère"}},"11012406299":{"location":[42.4262678,2.7862829],"ct":"FR","tp":"CS","ts":"2023-06-28T13:53:15Z","tX":519,"tY":378,"tags":{"camp_site":"basic","name":"Aire de bivouac","operator":"Bivouac libre"}},"11012417724":{"location":[42.4357201,2.6729822],"ct":"FR","tp":"CS","ts":"2023-06-28T13:53:15Z","tX":519,"tY":378,"tags":{"camp_site":"basic","name":"Camping de la Fargassa","operator":"Gîtes d’étape et de séjour La Fargassa","website":"https://www.lafargassa.com"}},"11012417725":{"location":[42.5179488,2.5260185],"ct":"FR","tp":"CS","ts":"2023-06-28T13:53:15Z","tX":519,"tY":378,"tags":{"camp_site":"basic","name":"Bivouac possible","operator":"Bivouac libre"}},"11012417726":{"location":[42.5339483,2.4643772],"ct":"FR","tp":"CS","ts":"2023-06-28T13:53:15Z","tX":519,"tY":378,"tags":{"camp_site":"basic","name":"Aire de bivouac","operator":"Bivouac libre"}},"7476099086":{"location":[42.4029598,2.4791852],"ct":"FR","tp":"CR","ts":"2024-08-18T16:31:50Z","tX":519,"tY":378,"tags":{"bbq":"yes","caravan_site":"motorhome_stopover","caravan_site:type":"river","fee":"no","name":"Aire Prats-de-Mollo-la-Preste","picnic_area":"yes","seasonal":"no","shadow":"yes","water_point":"yes"}},"9430543482":{"location":[42.3832823,2.6160606],"ct":"FR","tp":"SD","ts":"2022-01-19T10:28:14Z","tX":519,"tY":378,"tags":{"access":"yes","fee":"no","image":"https://i.imgur.com/Ys3lNXC.jpg","sanitary_dump_station:chemical_toilet":"yes","sanitary_dump_station:grey_water":"yes","water_point":"yes"}}}