{"6799183":{"location":[42.1823028,2.793699],"ct":"ES","tp":"CS","ts":"2017-01-08T18:43:23Z","tX":519,"tY":379,"tags":{"name":"Camping Esponellà","source":"Bing"}},"7263630":{"location":[42.1205008,2.7453578],"ct":"ES","tp":"CS","ts":"2023-04-08T15:49:01Z","tX":519,"tY":379,"tags":{"capacity":"300","fee":"yes","name":"El Llac","name:ca":"El Llac","website":"https://www.campingllac.com/"}},"12757385":{"location":[42.0556304,2.5517568],"ct":"ES","tp":"CS","ts":"2023-04-01T09:59:16Z","tX":519,"tY":379,"tags":{"addr:city":"Les Planes d'Hostoles","addr:country":"ES","addr:postcode":"17172","addr:street":"Carretera de les Serres","contact:email":"info@campingalguer.com","contact:phone":"+34 972 44 86 00","contact:website":"http://www.campingalguer.com","name":"Càmping L'Alguer","name:ca":"Càmping L'Alguer","nohousenumber":"yes","tents":"yes"}},"12757397":{"location":[42.063036,2.5505196],"ct":"ES","tp":"CS","ts":"2024-08-06T06:45:09Z","tX":519,"tY":379,"tags":{"addr:milestone":"km. 32","addr:postcode":"17172","addr:street":"Ctra. de les Encies","name":"Càmping Molí de Vilamala","name:ca":"Càmping Molí de Vilamala","phone":"+34 972448288"}},"14283404":{"location":[42.2711616,2.5952705],"ct":"ES","tp":"CS","ts":"2022-11-26T07:28:04Z","tX":519,"tY":379,"tags":{"name":"Càmping Sadernes","name:ca":"Càmping Sadernes"}},"119955856":{"location":[42.1583054,2.5176038],"ct":"ES","tp":"CS","ts":"2023-01-23T01:54:57Z","tX":519,"tY":379,"tags":{"fee":"yes","name":"La Fageda","name:ca":"La Fageda"}},"130533574":{"location":[42.2712017,2.5238575],"ct":"ES","tp":"CS","ts":"2019-02-08T04:55:15Z","tX":519,"tY":379,"tags":{"barrier":"fence","name":"La Soleia d'Oix","source":"SIGPAC"}},"210637900":{"location":[42.1953819,2.689066],"ct":"ES","tp":"CS","ts":"2016-04-23T20:18:19Z","tX":519,"tY":379,"tags":{"name":"Camping Besalú"}},"308319420":{"location":[42.2098264,2.7375063],"ct":"ES","tp":"CS","ts":"2024-07-31T16:11:07Z","tX":519,"tY":379,"tags":{"addr:street":"N260 km60, 17851 Maià de Montcal, Girona (Espanya)","contact:email":"info@cancoromines.com","name":"Can Coromines","name:ca":"Can Coromines","phone":"+34 972 59 11 08","website":"https://www.cancoromines.com/"}},"430480024":{"location":[42.2461107,2.5995166],"ct":"ES","tp":"CS","ts":"2023-11-07T09:19:40Z","tX":519,"tY":379,"tags":{"name":"Càmping Montagut","name:ca":"Càmping Montagut","website":"https://campingmontagut.com/"}},"483201994":{"location":[42.1501969,2.5865212],"ct":"ES","tp":"CS","ts":"2022-11-26T08:29:40Z","tX":519,"tY":379,"tags":{"name":"Càmping Masia Can Patxet","name:ca":"Càmping Masia Can Patxet","website":"http://www.maspatxet.com"}},"570759510":{"location":[42.1511055,2.5464409],"ct":"ES","tp":"CS","ts":"2023-09-28T19:37:38Z","tX":519,"tY":379,"tags":{"caravans":"yes","name":"Camping Lava Ecològic","tents":"yes"}},"704808357":{"location":[42.0823979,2.5114903],"ct":"ES","tp":"CS","ts":"2021-12-26T23:34:06Z","tX":519,"tY":379,"tags":{"access":"customers","addr:city":"Sant Feliu de Pallerols","addr:housenumber":"23","addr:postcode":"17174","addr:street":"Carrer del Volcà Traiter","fee":"yes","name":"Camping La Vall d'Hostoles","payment:cash":"yes","payment:credit_cards":"yes","phone":"+34 972 44 41 04","website":"https://campingvalldhostoles.es/ca/el-camping-vall-hostoles/"}},"728750809":{"location":[42.18179,2.79492],"ct":"ES","tp":"CS","ts":"2010-05-10T18:45:26Z","tX":519,"tY":379,"tags":{"name":"Esponella"}},"763241544":{"location":[42.0675696,2.6084113],"ct":"ES","tp":"CS","ts":"2022-11-28T01:16:24Z","tX":519,"tY":379,"tags":{"access":"private","addr:city":"Sant Aniol de Finestres","barrier":"fence","capacity":"80","charge":"3.20 EUR","fee":"yes","group_only":"yes","name":"Terreny d'acampada La Planta","name:ca":"Terreny d'acampada La Planta","operator":"Municipi de Sant Aniol de Finestres"}},"804374578":{"location":[42.1366238,2.6785092],"ct":"ES","tp":"CS","ts":"2023-03-31T19:40:40Z","tX":519,"tY":379,"tags":{"name":"Càmping La Vall de Campmajor","name:ca":"Càmping La Vall de Campmajor"}},"967902394":{"location":[42.2440294,2.7841098],"ct":"ES","tp":"CS","ts":"2023-11-07T09:19:52Z","tX":519,"tY":379,"tags":{"access":"private","addr:city":"Cabanelles","capacity":"60","charge":"4.50 EUR","fee":"yes","group_only":"yes","name":"Terreny d'acampada El Sacost de Can Coromines","website":"https://campaments.cat/terreny/el-sacost-de-can-coromines"}},"967902395":{"location":[42.2414485,2.787986],"ct":"ES","tp":"CS","ts":"2023-11-07T09:19:54Z","tX":519,"tY":379,"tags":{"access":"private","addr:city":"Cabanelles","capacity":"80","charge":"4.50 EUR","fee":"yes","group_only":"yes","name":"Terreny d'acampada La Tribana de Can Coromines","name:ca":"Terreny d'acampada La Tribana de Can Coromines","website":"https://campaments.cat/terreny/la-tribana-de-can-coromines"}},"981727748":{"location":[42.211532,2.5059831],"ct":"ES","tp":"CR","ts":"2024-04-28T18:26:09Z","tX":519,"tY":379,"tags":{"capacity":"20","caravan_site":"motorhome_stopover","caravan_site:type":"village","fee":"no","internet_access":"no","maxstay":"48 hours","name":"Àrea d'autocaravanes Sant Joan les Fonts","operator":"Ajuntament","power_supply":"no","sanitary_dump_station":"yes","toilets":"no"}},"1067516649":{"location":[42.190029,2.5096679],"ct":"ES","tp":"CS","ts":"2023-10-29T11:31:36Z","tX":519,"tY":379,"tags":{"caravans":"yes","drinking_water":"yes","email":"camping@lestries.com","name":"les Tries","name:ca":"les Tries","phone:ES":"0034 972 26 24 05","power_supply":"yes","shower":"yes","tents":"yes","toilets":"yes","website":"http://www.lestries.com"}},"1204931833":{"location":[42.141915,2.4644131],"ct":"ES","tp":"CS","ts":"2023-09-04T15:02:27Z","tX":519,"tY":379,"tags":{}},"1268505823":{"location":[42.1468963,2.5668946],"ct":"ES","tp":"CR","ts":"2024-04-02T23:10:08Z","tX":519,"tY":379,"tags":{"capacity:caravans":"25","caravan_site":"motorhome_stopover","caravan_site:type":"village","maxstay":"48 hours","name":"Area Municipal Santa Pau","phone":"+34 972 68 03 49","reservation":"required","tents":"no","website":"https://visitsantapau.com/aparcament-autocaravanes-santa-pau/"}},"1304509870":{"location":[42.2432502,2.5822994],"ct":"ES","tp":"CS","ts":"2024-07-29T18:57:19Z","tX":519,"tY":379,"tags":{"addr:housenumber":"14","addr:postcode":"17855","addr:street":"carretera de Sant Eudald de Jou, km 2","email":"info@campingcanbanal.net","internet_access":"wlan","name":"Can Banal-camping i allotjament","name:ca":"Can Banal-camping i allotjament","name:de":"Can Banal-camping und unterkunft","name:en":"Can Banal-camping & lodging","name:es":"Can Banal-camping & hospedaje","name:fr":"Can Banal-camping te hébergement","name:nl":"Can Banal-camping en inwoning","name:sv":"Can Banal-camping och lógica","phone":"+34972687681","website":"http://www.campingcanbanal.net"}},"1314685077":{"location":[42.2712312,2.5949421],"ct":"ES","tp":"CR","ts":"2024-09-12T14:19:34Z","tX":519,"tY":379,"tags":{"drinking_water":"yes","fee":"yes","name":"Càmping Masia Sadernes","toilets":"yes"}},"3489826493":{"location":[42.188836,2.5854949],"ct":"ES","tp":"CS","ts":"2023-03-31T18:23:39Z","tX":519,"tY":379,"tags":{"name":"Càmping Cugulera","name:ca":"Càmping Cugulera"}},"4408365689":{"location":[42.1114285,2.6866738],"ct":"ES","tp":"CS","ts":"2023-11-10T02:42:44Z","tX":519,"tY":379,"tags":{"addr:street":"carretera a Falgons s/n","internet_access":"wlan","name":"Fang Aventura","name:ca":"Fang Aventura","name:es":"Fang Aventrua","website":"https://www.fangaventura.com/"}},"4401467494":{"location":[42.1097413,2.6618632],"ct":"ES","tp":"CR","ts":"2016-09-14T18:30:14Z","tX":519,"tY":379,"tags":{}},"5586940688":{"location":[42.1987828,2.7041311],"ct":"ES","tp":"CR","ts":"2021-12-19T17:23:53Z","tX":519,"tY":379,"tags":{"fee":"no","power_supply":"no","sanitary_dump_station":"yes","toilets":"no"}},"6401943485":{"location":[42.1992714,2.7043096],"ct":"ES","tp":"CR","ts":"2019-04-13T09:25:28Z","tX":519,"tY":379,"tags":{}},"5587557112":{"location":[42.1992342,2.7041332],"ct":"ES","tp":"SD","ts":"2021-12-19T17:23:53Z","tX":519,"tY":379,"tags":{"fee":"no"}},"8928534341":{"location":[42.2113679,2.5059113],"ct":"ES","tp":"SD","ts":"2024-04-28T18:26:16Z","tX":519,"tY":379,"tags":{"sanitary_dump_station:basin":"yes"}}}