{"13039526":{"location":[41.9675881,2.6143829],"ct":"ES","tp":"CS","ts":"2023-11-01T20:06:34Z","tX":519,"tY":380,"tags":{"access":"private","addr:city":"La Cellera de Ter","capacity":"80","charge":"2.80 EUR","fee":"yes","group_only":"yes","name":"Terreny d'acampada La Triassa de Bechdejú","operator":"Campaments.cat","website":"https://campaments.cat/terreny/la-triassa-de-bechdeju"}},"283876487":{"location":[41.8836521,2.5083344],"ct":"ES","tp":"CR","ts":"2024-08-05T23:03:21Z","tX":519,"tY":380,"tags":{"capacity":"79","drinking_water":"yes","fee":"no","internet_access":"wlan","name":"Àrea d'autocaravanes de Sant Hilari Sacalm","name:ca":"Àrea d'autocaravanes de Sant Hilari Sacalm","operator":"Ajuntament de Sant Hilari Sacalm","phone":"+34 972 869 686","power_supply":"yes","sanitary_dump_station":"yes","toilets":"yes","website":"https://www.santhilari.cat/"}},"290633828":{"location":[41.8075376,2.6852696],"ct":"ES","tp":"CS","ts":"2023-11-08T04:43:10Z","tX":519,"tY":380,"tags":{"name":"Càmping Riudarenes","name:ca":"Càmping Riudarenes","website":"https://www.camping-riudarenes.com/"}},"350461082":{"location":[41.9900628,2.8015522],"ct":"ES","tp":"CR","ts":"2023-11-21T00:33:10Z","tX":519,"tY":380,"tags":{"maxstay":"72 hours","parking":"surface","surface":"compacted"}},"358795466":{"location":[41.8451975,2.504318],"ct":"ES","tp":"CS","ts":"2022-11-26T01:13:01Z","tX":519,"tY":380,"tags":{"email":"info@campinglasureda.com","name":"Càmping la Sureda","name:ca":"Càmping la Sureda","phone":"+34 972162665","website":"http://www.campinglasureda.com"}},"378351307":{"location":[42.0305015,2.4649583],"ct":"ES","tp":"CS","ts":"2023-11-10T02:42:54Z","tX":519,"tY":380,"tags":{"name":"Càmping Rupit","name:ca":"Càmping Rupit","website":"https://www.rupit.com/"}},"414088953":{"location":[41.8176143,2.4792496],"ct":"ES","tp":"CS","ts":"2023-04-01T19:21:43Z","tX":519,"tY":380,"tags":{"name":"Càmping La Vall del Vidal","name:ca":"Càmping La Vall del Vidal"}},"632328921":{"location":[41.8393689,2.8117361],"ct":"ES","tp":"CR","ts":"2024-03-26T20:19:35Z","tX":519,"tY":380,"tags":{"capacity":"5","caravans":"no","description":"located in center of nice village with roman bath ruins, 3 supermarkets, several bars and cafes.","fee":"no","maxstay":"72 hours","name":"Area d’autocaravanes de Caldes de Malavella","power_supply":"cee_17_blue","power_supply:capacity":"4","power_supply:fee":"no","power_supply:maxcurrent":"16","sanitary_dump_station":"yes","shower":"no","tents":"no","toilets":"no","water_supply":"yes","water_supply:fee":"no","wikimedia_commons":"Category:Malavella Motorhome Stopover"}},"966487527":{"location":[41.9032049,2.6865035],"ct":"ES","tp":"CS","ts":"2023-11-01T20:05:34Z","tX":519,"tY":380,"tags":{"access":"private","addr:city":"Brunyola","capacity":"50","charge":"3 EUR","fee":"yes","group_only":"yes","name":"Terreny d'acampada Vinya del Rector","name:ca":"Terreny d'acampada Vinya del Rector","operator":"Campaments.cat","website":"https://campaments.cat/terreny/vinya-del-rector"}},"1218505241":{"location":[41.9848444,2.7598254],"ct":"ES","tp":"CR","ts":"2024-05-24T10:40:50Z","tX":519,"tY":380,"tags":{"access":"yes","capacity":"25","capacity:disabled":"0","fee":"no","operator":"Sant Gregori","parking":"surface","surface":"paved"}},"11646237969":{"location":[41.906691,2.7428848],"ct":"ES","tp":"CS","ts":"2024-02-20T17:32:53Z","tX":519,"tY":380,"tags":{}},"11652689969":{"location":[41.9067189,2.7427925],"ct":"ES","tp":"CS","ts":"2024-02-22T12:10:13Z","tX":519,"tY":380,"tags":{}},"4380822563":{"location":[41.8141214,2.5205757],"ct":"ES","tp":"CR","ts":"2024-01-21T17:48:30Z","tX":519,"tY":380,"tags":{"addr:street":"Carrer del Molí","capacity":"4","description":"H20,WC","fee":"no","name":"Area de Arbúcies","name:es":"Area de Arbúcies","nohousenumber":"yes","operator":"MUNICIPAL","sanitary_dump_station":"yes","website":"https://www.areasac.es/arbucies/girona/arbucies_3903_1_ap.html"}},"4380827474":{"location":[41.8846556,2.5079863],"ct":"ES","tp":"CR","ts":"2024-08-05T23:03:33Z","tX":519,"tY":380,"tags":{"fee":"no"}},"4380833988":{"location":[41.8071317,2.7453218],"ct":"ES","tp":"CR","ts":"2023-11-26T18:55:52Z","tX":519,"tY":380,"tags":{"addr:street":"Plaça de l'estació","capacity":"4","description":"Només un estació per descarregar i aparcament sense vigilar","fee":"no","internet_access":"no","name":"AC PUBLIC SILS","operator":"MUNICIPAL","permanent_camping":"no","power_supply":"no","sanitary_dump_station":"yes","toilets":"no"}},"11618780469":{"location":[41.7827566,2.7372111],"ct":"ES","tp":"CR","ts":"2024-02-13T14:37:10Z","tX":519,"tY":380,"tags":{"addr:housenumber":"12","addr:postcode":"17412","addr:street":"Avinguda Torderola","name":"Àrea d'autocaravanes","opening_hours":"24/7"}},"11653310769":{"location":[41.7871396,2.7777963],"ct":"ES","tp":"CR","ts":"2024-02-22T16:41:21Z","tX":519,"tY":380,"tags":{"opening_hours":"24/7"}},"4570372464":{"location":[41.8840643,2.5081839],"ct":"ES","tp":"SD","ts":"2016-12-24T14:06:56Z","tX":519,"tY":380,"tags":{}},"4942729432":{"location":[41.9902811,2.8014653],"ct":"ES","tp":"SD","ts":"2017-06-29T18:35:38Z","tX":519,"tY":380,"tags":{}},"11194504433":{"location":[41.8141136,2.5203999],"ct":"ES","tp":"SD","ts":"2023-12-11T13:06:27Z","tX":519,"tY":380,"tags":{}},"11528472533":{"location":[41.8394547,2.8119166],"ct":"ES","tp":"SD","ts":"2024-01-18T17:55:23Z","tX":519,"tY":380,"tags":{"access":"yes","fee":"no","motorhome":"designated","wikimedia_commons":"File:Malavella sanitary dumping station.jpg"}},"11654442769":{"location":[41.7872194,2.7778581],"ct":"ES","tp":"SD","ts":"2024-02-22T20:49:21Z","tX":519,"tY":380,"tags":{}}}