{"9760926":{"location":[41.6515251,2.7746846],"ct":"ES","tp":"CS","ts":"2023-11-04T08:50:30Z","tX":519,"tY":381,"tags":{"name":"Càmping La Tordera","name:ca":"Càmping La Tordera","website":"https://www.campinglatordera.com/"}},"9760927":{"location":[41.6514285,2.7731113],"ct":"ES","tp":"CS","ts":"2023-09-21T20:26:55Z","tX":519,"tY":381,"tags":{"name":"Càmping Les Nacions","name:ca":"Càmping Les Nacions"}},"9766769":{"location":[41.6075017,2.6400249],"ct":"ES","tp":"CS","ts":"2022-11-26T02:57:03Z","tX":519,"tY":381,"tags":{"name":"Càmping Bona Vista","name:ca":"Càmping Bona Vista","website":"https://www.campingbonavista.com/"}},"9766770":{"location":[41.6080761,2.6366486],"ct":"ES","tp":"CS","ts":"2023-09-21T20:26:55Z","tX":519,"tY":381,"tags":{"name":"Càmping Roca Grossa","name:ca":"Càmping Roca Grossa","website":"https://www.rocagrossa.com/"}},"9766833":{"location":[41.609952,2.6462128],"ct":"ES","tp":"CS","ts":"2024-04-21T19:48:10Z","tX":519,"tY":381,"tags":{"name":"Càmping El Far","name:ca":"Càmping El Far","website":"https://www.campingelfar.com/"}},"14709397":{"location":[41.6643253,2.7777383],"ct":"ES","tp":"CS","ts":"2023-04-01T19:22:04Z","tX":519,"tY":381,"tags":{"name":"Càmping La Masia","name:ca":"Càmping La Masia"}},"14709398":{"location":[41.6639816,2.7820438],"ct":"ES","tp":"CS","ts":"2023-03-31T20:16:54Z","tX":519,"tY":381,"tags":{"name":"Càmping s'Abanell","name:ca":"Càmping s'Abanell","website":"https://campingsabanell.com/"}},"14709399":{"location":[41.6614823,2.7781497],"ct":"ES","tp":"CS","ts":"2023-03-31T20:16:55Z","tX":519,"tY":381,"tags":{"name":"Càmping Solmar","name:ca":"Càmping Solmar","website":"https://www.campingsolmar.com/"}},"14709400":{"location":[41.6539736,2.7779369],"ct":"ES","tp":"CS","ts":"2022-11-26T02:44:05Z","tX":519,"tY":381,"tags":{"name":"Càmping el Pinar","name:ca":"Càmping el Pinar","website":"https://www.campingelpinar.com/"}},"14709401":{"location":[41.658317,2.7787928],"ct":"ES","tp":"CS","ts":"2022-11-26T02:44:00Z","tX":519,"tY":381,"tags":{"name":"Càmping Bella Terra","name:ca":"Càmping Bella Terra"}},"17656761":{"location":[41.5842182,2.5714404],"ct":"ES","tp":"CS","ts":"2024-05-31T11:50:11Z","tX":519,"tY":381,"tags":{"name":"Càmping El Carro","name:es":"Cámping El Carro"}},"17668787":{"location":[41.5856496,2.5726638],"ct":"ES","tp":"CS","ts":"2024-06-02T16:53:22Z","tX":519,"tY":381,"tags":{"caravans":"yes","drinking_water":"yes","name":"Camping Victoria","name:es":"Camping Victòria","power_supply":"yes","shower":"yes","tents":"yes","toilets":"yes","website":"https://www.campingvictoria.cat/","wheelchair":"yes"}},"17704203":{"location":[41.6685208,2.7062699],"ct":"ES","tp":"CR","ts":"2024-06-11T10:27:46Z","tX":519,"tY":381,"tags":{"name":"Caravaning Club Sant Genís"}},"17707448":{"location":[41.630578,2.7133312],"ct":"ES","tp":"CS","ts":"2024-06-12T07:29:25Z","tX":519,"tY":381,"tags":{"caravans":"yes","drinking_water":"yes","internet_access":"wlan","name":"Càmping Oasis","name:ca":"Càmping Oasis","power_supply":"yes","shower":"yes","tents":"yes","toilets":"yes","wheelchair":"limited"}},"38139800":{"location":[41.5512825,2.4829028],"ct":"ES","tp":"CS","ts":"2022-10-18T11:59:09Z","tX":519,"tY":381,"tags":{"name":"Camping Barcelona","toilets:wheelchair":"yes","website":"https://www.campingbarcelona.com","wheelchair":"yes"}},"102360752":{"location":[41.6940721,2.7599389],"ct":"ES","tp":"CR","ts":"2022-05-14T10:19:02Z","tX":519,"tY":381,"tags":{"addr:city":"Tordera","addr:postcode":"08490","addr:street":"Carretera de Tordera","contact:email":"info@caravaningcostabrava.cat","contact:phone":"+34 937 641 076","description":"El Caravaning Internacional Costa Brava, situado donde empieza la Costa Brava, es más que un camping privado.","name":"Caravaning Internacional Costa Brava","website":"https://www.caravaningcostabrava.cat/","wheelchair":"yes"}},"218617432":{"location":[41.6041885,2.608128],"ct":"ES","tp":"CS","ts":"2022-11-26T08:10:09Z","tX":519,"tY":381,"tags":{"name":"Càmping La Maresma","name:ca":"Càmping La Maresma"}},"218657548":{"location":[41.6189782,2.6789214],"ct":"ES","tp":"CS","ts":"2023-11-04T08:50:38Z","tX":519,"tY":381,"tags":{"caravans":"yes","drinking_water":"yes","name":"Càmping Bell-sol","name:ca":"Càmping Bell-sol","power_supply":"yes","shower":"yes","tents":"yes","toilets":"yes","website":"https://campingbellsol.com/"}},"218657549":{"location":[41.6184885,2.6763443],"ct":"ES","tp":"CS","ts":"2023-11-04T08:50:19Z","tX":519,"tY":381,"tags":{"name":"Càmping Caballo de Mar","name:ca":"Càmping Caballo de Mar","website":"https://www.caballodemar.com/"}},"218657550":{"location":[41.6219073,2.6817874],"ct":"ES","tp":"CS","ts":"2024-06-12T17:25:35Z","tX":519,"tY":381,"tags":{"name":"Càmping El Camell","name:ca":"Càmping El Camell","website":"https://www.campingelcamell.com/"}},"218660949":{"location":[41.6218769,2.685144],"ct":"ES","tp":"CS","ts":"2023-11-04T08:50:26Z","tX":519,"tY":381,"tags":{"addr:city":"Pineda de Mar","addr:postcode":"08397","addr:street":"Avinguda Mercè","fee":"yes","name":"Càmping Enmar","name:ca":"Càmping Enmar","website":"https://www.campingenmar.com/"}},"218870642":{"location":[41.6318644,2.7210884],"ct":"ES","tp":"CS","ts":"2024-09-14T06:26:46Z","tX":519,"tY":381,"tags":{"access":"customers","addr:city":"Malgrat","addr:street":"Avinguda dels Pins","caravans":"yes","fee":"yes","name":"Càmping Bon Repòs","name:ca":"Càmping Bon Repòs","power_supply":"yes","shower":"yes","tents":"yes","toilets":"yes","website":"https://www.campingbonrepos.com/"}},"218870643":{"location":[41.629882,2.7178878],"ct":"ES","tp":"CS","ts":"2023-11-04T08:50:16Z","tX":519,"tY":381,"tags":{"addr:city":"Santa Susanna","addr:street":"Avinguda dels Pins","fee":"yes","internet_access":"wlan","internet_access:fee":"no","name":"Càmping El Pinar Platja","website":"https://www.elpinarplaya.com/"}},"224766767":{"location":[41.6196662,2.4679211],"ct":"ES","tp":"CS","ts":"2022-11-26T03:53:52Z","tX":519,"tY":381,"tags":{"name":"Àrea d'acampada del Solell","name:ca":"Àrea d'acampada del Solell"}},"338944037":{"location":[41.6636508,2.484783],"ct":"ES","tp":"CS","ts":"2024-06-12T19:57:43Z","tX":519,"tY":381,"tags":{"name":"Càmping Roquetes"}},"344989558":{"location":[41.5905922,2.5893928],"ct":"ES","tp":"CS","ts":"2023-03-31T18:45:31Z","tX":519,"tY":381,"tags":{"name":"Càmping Costa Dorada","name:ca":"Càmping Costa Dorada"}},"344989560":{"location":[41.5912526,2.5917785],"ct":"ES","tp":"CS","ts":"2023-07-27T20:43:18Z","tX":519,"tY":381,"tags":{"name":"Càmping El Globo","name:ca":"Càmping El Globo"}},"344994941":{"location":[41.5855673,2.56871],"ct":"ES","tp":"CS","ts":"2024-08-01T20:22:19Z","tX":519,"tY":381,"tags":{"caravans":"yes","name":"Càmping El Carlitos","name:ca":"Càmping El Carlitos","tents":"yes"}},"344994942":{"location":[41.5834231,2.568731],"ct":"ES","tp":"CS","ts":"2023-03-31T18:43:03Z","tX":519,"tY":381,"tags":{"name":"Càmping Marcos","name:ca":"Càmping Marcos"}},"344994943":{"location":[41.5827139,2.5671241],"ct":"ES","tp":"CS","ts":"2015-05-14T10:19:28Z","tX":519,"tY":381,"tags":{"name":"Càmping Toro Azul"}},"411508346":{"location":[41.6172006,2.6772559],"ct":"ES","tp":"CS","ts":"2016-04-18T22:12:02Z","tX":519,"tY":381,"tags":{}},"574884710":{"location":[41.5933282,2.5983867],"ct":"ES","tp":"CS","ts":"2023-10-15T11:26:53Z","tX":519,"tY":381,"tags":{"addr:street":"Ctra. N-II, km. 661,5","name":"Càmping Kanguro","phone":"+3493 760 02 05","website":"https://campingkanguro.com/"}},"603990533":{"location":[41.637973,2.7282428],"ct":"ES","tp":"CS","ts":"2022-05-13T22:02:01Z","tX":519,"tY":381,"tags":{"addr:city":"Malgrat de Mar","addr:housenumber":"84","addr:postcode":"08380","addr:street":"Passeig Marítim","fee":"yes","name":"Camping Stella Maris","phone":"+34 93 764 4883","stars":"3","website":"http://www.campingstellamaris.es/"}},"702208965":{"location":[41.6586709,2.7806703],"ct":"ES","tp":"CS","ts":"2024-07-14T15:40:58Z","tX":519,"tY":381,"tags":{"name":"Càmping Blanes","name:ca":"Càmping Blanes","website":"https://www.campingblanes.com"}},"702208973":{"location":[41.6558551,2.779715],"ct":"ES","tp":"CS","ts":"2024-07-14T15:40:58Z","tX":519,"tY":381,"tags":{"addr:city":"Blanes","name":"Càmping Voramar","website":"https://www.campingvoramar.es/"}},"702209452":{"location":[41.6611061,2.7762095],"ct":"ES","tp":"CS","ts":"2022-11-26T02:44:01Z","tX":519,"tY":381,"tags":{"name":"Càmping Blanc","name:ca":"Càmping Blanc","website":"https://campingblanc.com/"}},"702213242":{"location":[41.6630712,2.7785852],"ct":"ES","tp":"CS","ts":"2024-06-30T13:26:13Z","tX":519,"tY":381,"tags":{"name":"Càmping Cavall de Mar","name:ca":"Càmping Cavall de Mar","website":"https://www.cavalldemar.com/"}},"702229746":{"location":[41.6482936,2.7678],"ct":"ES","tp":"CS","ts":"2022-11-26T05:48:05Z","tX":519,"tY":381,"tags":{"name":"Càmping Mar i Sol","name:ca":"Càmping Mar i Sol"}},"702229753":{"location":[41.6489883,2.7706821],"ct":"ES","tp":"CS","ts":"2023-04-01T10:06:26Z","tX":519,"tY":381,"tags":{"name":"Càmping Els Pins","name:ca":"Càmping Els Pins","website":"https://www.campingelspins.es/"}},"709209532":{"location":[41.6296843,2.717172],"ct":"ES","tp":"PK","ts":"2024-03-26T20:16:43Z","tX":519,"tY":381,"tags":{"access":"yes","fee":"no","motorhome":"yes","parking":"surface","surface":"unpaved"}},"709221851":{"location":[41.6223346,2.6891288],"ct":"ES","tp":"CR","ts":"2024-03-25T12:00:37Z","tX":519,"tY":381,"tags":{"addr:city":"Pineda de Mar","addr:housenumber":"24","addr:postcode":"08397","addr:street":"Carrer de Tarragona","capacity":"30","charge":"15 EUR","fee":"yes","internet_access":"wlan","name":"Àrea Pineda de Mar","power_supply":"yes","reservation":"yes","sanitary_dump_station":"yes","shower":"yes","shower:charge":"1 EUR","surface":"gravel","toilets":"yes","water_point":"yes","website":"https://www.areapineda.com/"}},"913672108":{"location":[41.6174823,2.6063722],"ct":"ES","tp":"CS","ts":"2023-03-31T18:41:57Z","tX":519,"tY":381,"tags":{"name":"Càmping La Verneda","name:ca":"Càmping La Verneda"}},"966487524":{"location":[41.6364765,2.5158386],"ct":"ES","tp":"CS","ts":"2022-11-26T09:23:36Z","tX":519,"tY":381,"tags":{"access":"private","addr:city":"Vallgorguina","capacity":"40","charge":"4.50 EUR","fee":"yes","group_only":"yes","name":"Terreny d'acampada Can Plana","name:ca":"Terreny d'acampada Can Plana","operator":"Can Plana"}},"980199945":{"location":[41.7349676,2.6046458],"ct":"ES","tp":"CS","ts":"2021-09-06T18:23:17Z","tX":519,"tY":381,"tags":{"name":"Vila Village","phone":"+34 647 723 001","website":"http://www.campingvilavillage.matchpoint.com.es/"}},"1056465068":{"location":[41.7210713,2.537622],"ct":"ES","tp":"CS","ts":"2022-05-01T16:35:46Z","tX":519,"tY":381,"tags":{"name":"Camping Aqua Alba"}},"1077171489":{"location":[41.5793408,2.5218622],"ct":"ES","tp":"CS","ts":"2022-07-09T16:19:45Z","tX":519,"tY":381,"tags":{"capacity:caravans":"0","name":"Alzines bungalows","name:ca":"Bungalous Alzines","name:es":"Bungalós Alzines","operator":"Eurostage S.L."}},"1090939495":{"location":[41.648786,2.7647876],"ct":"ES","tp":"CS","ts":"2023-11-04T08:50:13Z","tX":519,"tY":381,"tags":{"name":"Càmping El Pla de Mar","name:ca":"Càmping El Pla de Mar","website":"https://www.elplademar.com/"}},"1090939509":{"location":[41.6481433,2.7638807],"ct":"ES","tp":"CS","ts":"2023-11-04T08:50:23Z","tX":519,"tY":381,"tags":{"name":"Càmping del Mar","name:ca":"Càmping del Mar","website":"https://www.campingdelmar.com/"}},"1090939510":{"location":[41.6476815,2.7625592],"ct":"ES","tp":"CS","ts":"2023-03-31T18:46:44Z","tX":519,"tY":381,"tags":{"name":"Càmping La Conca","name:ca":"Càmping La Conca"}},"1090939523":{"location":[41.6481056,2.7670655],"ct":"ES","tp":"CS","ts":"2023-03-31T18:46:47Z","tX":519,"tY":381,"tags":{"name":"Càmping Blaumar","name:ca":"Càmping Blaumar","website":"www.camping-blaumar.com"}},"1105056949":{"location":[41.6609993,2.778827],"ct":"ES","tp":"CS","ts":"2024-08-23T17:03:35Z","tX":519,"tY":381,"tags":{"caravans":"yes","drinking_water":"yes","name":"Càmping Roca","name:ca":"Càmping Roca","power_supply":"yes","shower":"yes","tents":"no","website":"https://campingroca.es"}},"1283273414":{"location":[41.6883818,2.7969845],"ct":"ES","tp":"CS","ts":"2024-05-15T13:24:06Z","tX":519,"tY":381,"tags":{"capacity:pitches":"99","name":"Camping Las Mimosas","phone":"+34 972 35 00 18"}},"1291715243":{"location":[41.6414689,2.7228826],"ct":"ES","tp":"CS","ts":"2024-06-12T10:39:14Z","tX":519,"tY":381,"tags":{"name":"Càmping la Piscina"}},"4380673989":{"location":[41.6223035,2.6862459],"ct":"ES","tp":"CR","ts":"2022-01-17T09:08:04Z","tX":519,"tY":381,"tags":{"addr:street":"Carrer de Pintor Fortuny","fee":"yes","name":"Camping ENMAR","name:es":"Camping ENMAR"}},"6740240470":{"location":[41.6447416,2.7511608],"ct":"ES","tp":"CR","ts":"2019-08-23T20:58:24Z","tX":519,"tY":381,"tags":{"addr:city":"Malgrat de Mar","addr:street":"Camí de la Pomereda","name":"Parking Platja","power_supply":"no","sanitary_dump_station":"no"}},"11653109369":{"location":[41.7055601,2.7179685],"ct":"ES","tp":"CR","ts":"2024-02-22T15:01:46Z","tX":519,"tY":381,"tags":{"opening_hours":"24/7"}},"12208989902":{"location":[41.6883093,2.493888],"ct":"ES","tp":"CR","ts":"2024-09-29T14:01:26Z","tX":519,"tY":381,"tags":{"fee":"no"}},"4972216990":{"location":[41.6226118,2.6888984],"ct":"ES","tp":"SD","ts":"2024-03-25T12:00:37Z","tX":519,"tY":381,"tags":{"access":"yes","charge":"4 EUR","fee":"yes","sanitary_dump_station:chemical_toilet":"yes","water_point":"yes"}},"5660623952":{"location":[41.7055494,2.7181444],"ct":"ES","tp":"SD","ts":"2018-06-03T09:34:36Z","tX":519,"tY":381,"tags":{}},"9706371549":{"location":[41.6629907,2.7765102],"ct":"ES","tp":"SD","ts":"2022-05-01T05:25:13Z","tX":519,"tY":381,"tags":{}},"11278034276":{"location":[41.630889,2.7202675],"ct":"ES","tp":"SD","ts":"2023-10-20T18:03:49Z","tX":519,"tY":381,"tags":{}},"12208966489":{"location":[41.688436,2.4940358],"ct":"ES","tp":"SD","ts":"2024-09-29T14:01:35Z","tX":519,"tY":381,"tags":{"fee":"no"}}}