{"243024186":{"location":[55.32165,28.75955],"ct":"BY","tp":"CS","ts":"2017-01-19T20:15:34Z","tX":593,"tY":322,"tags":{}},"5464284051":{"location":[55.3070412,28.813951],"ct":"BY","tp":"CS","ts":"2024-11-08T15:48:30Z","tX":593,"tY":322,"tags":{"name":"Турбаза ААТ «Полацкі малочны камбінат»","name:be":"Турбаза ААТ «Полацкі малочны камбінат»","name:ru":"Турбаза ОАО «Полоцкий молочный комбинат»","name:uk":"Турбаза ВАТ «Полоцький молочний комбінат»"}},"5464295537":{"location":[55.3054354,28.8050253],"ct":"BY","tp":"CS","ts":"2024-11-08T15:48:30Z","tX":593,"tY":322,"tags":{"name":"Загарадная база «Шчаты»","name:be":"Загарадная база «Шчаты»","name:ru":"Загородная база «Щаты»","name:uk":"Заміська база «Щати»"}},"5464295538":{"location":[55.3050514,28.8109173],"ct":"BY","tp":"CS","ts":"2024-11-08T15:48:30Z","tX":593,"tY":322,"tags":{"name":"Турбаза Полацкага хлебазавода","name:be":"Турбаза Полацкага хлебазавода","name:ru":"Турбаза Полоцкого хлебозавода"}},"5464295626":{"location":[55.3060417,28.8147166],"ct":"BY","tp":"CS","ts":"2024-11-08T15:48:30Z","tX":593,"tY":322,"tags":{"name":"Турбаза ААТ «Полацкі малочны камбінат»","name:be":"Турбаза ААТ «Полацкі малочны камбінат»","name:ru":"Турбаза ОАО «Полоцкий молочный комбинат»","name:uk":"Турбаза ВАТ «Полоцький молочний комбінат»"}},"8931060204":{"location":[55.2123483,28.5000908],"ct":"BY","tp":"CS","ts":"2021-07-18T18:18:51Z","tX":593,"tY":322,"tags":{}}}