{"40437341":{"location":[47.2957387,28.8159212],"ct":"MD","tp":"CS","ts":"2024-11-11T13:37:22Z","tX":593,"tY":358,"tags":{"addr:city":"Ivancea","name":"Centrul de instruire S.A. „Moldtelecom”"}},"199564349":{"location":[47.339242,28.607282],"ct":"MD","tp":"CS","ts":"2017-10-25T18:12:48Z","tX":593,"tY":358,"tags":{"name":"Tabăra pentru copii","name:ru":"Детский лагерь"}},"913262869":{"location":[47.2957024,28.8186872],"ct":"MD","tp":"CS","ts":"2024-11-11T13:37:22Z","tX":593,"tY":358,"tags":{"addr:city":"Ivancea","barrier":"fence","name":"Tabăra de odihnă pentru copii „Andrieș”"}},"1341473132":{"location":[47.3299969,28.806098],"ct":"MD","tp":"CS","ts":"2024-12-10T07:17:24Z","tX":593,"tY":358,"tags":{"addr:city":"Seliște","name":"Complexul Turistic „Codru”"}},"1341515051":{"location":[47.2803902,28.8275287],"ct":"MD","tp":"CS","ts":"2024-12-10T11:22:39Z","tX":593,"tY":358,"tags":{"addr:city":"Ivancea","name":"Bază de odihnă"}},"5839181086":{"location":[47.3959029,28.8129792],"ct":"MD","tp":"CR","ts":"2024-11-14T14:39:09Z","tX":593,"tY":358,"tags":{"addr:street":"Strada C. Negruzzi","name":"Parcare","name:en":"Parking","name:ru":"Парковка","opening_hours":"24/7"}}}