{"817400063":{"location":[47.2358637,28.6230672],"ct":"MD","tp":"CS","ts":"2022-03-22T21:06:53Z","tX":593,"tY":359,"tags":{"addr:city":"Greblești","name":"Fisher Club"}},"892572601":{"location":[47.0529256,28.5732978],"ct":"MD","tp":"CS","ts":"2024-11-05T08:19:11Z","tX":593,"tY":359,"tags":{"addr:city":"Condriţa","barrier":"fence","name":"Tabără de odihnă pentru copii (abandonată)"}},"892572602":{"location":[47.0500034,28.5653],"ct":"MD","tp":"CS","ts":"2024-11-05T08:49:06Z","tX":593,"tY":359,"tags":{"addr:city":"Condrița","addr:street":"Strada Constructor","name":"Tabără de odihnă pentru copii (abandonată)"}},"892572603":{"location":[47.0523894,28.564067],"ct":"MD","tp":"CS","ts":"2024-06-05T09:07:35Z","tX":593,"tY":359,"tags":{"addr:city":"Condriţa","addr:housenumber":"1","addr:street":"Strada Constructor","name":"Tabără de odihnă pentru copii (abandonată)"}},"892572606":{"location":[47.0503389,28.5855513],"ct":"MD","tp":"CS","ts":"2024-11-05T08:19:11Z","tX":593,"tY":359,"tags":{}},"892572607":{"location":[47.0520868,28.591581],"ct":"MD","tp":"CS","ts":"2024-11-05T14:42:08Z","tX":593,"tY":359,"tags":{"addr:city":"Scoreni","name":"Bază de odihnă"}},"905850160":{"location":[47.1235247,28.6913006],"ct":"MD","tp":"CS","ts":"2024-01-18T12:31:50Z","tX":593,"tY":359,"tags":{"abandoned":"yes","addr:city":"Vatra","name":"Tabăra pentru copii \"Romaniţa\""}},"933799614":{"location":[47.0546106,28.773698],"ct":"MD","tp":"CS","ts":"2024-12-19T15:23:00Z","tX":593,"tY":359,"tags":{"addr:city":"Chișinău","addr:housenumber":"2","addr:street":"Strada Pietrăriei","name":"Zona Camping „Sănătate Bună\"","operator":"S.R.L. \"Sănătate Bună\""}},"995418058":{"location":[47.2682169,28.7942592],"ct":"MD","tp":"CS","ts":"2024-06-05T10:52:40Z","tX":593,"tY":359,"tags":{"abandoned":"yes","addr:city":"Peresecina","description":"Abandoned pioneer camp Iuri Gagarin","name":"Tabără de odihnă pentru copii Î.C. „DumbravaCoop”","name:ru":"Детский лагерь отдыха DUMBRAVACOOP","old_name":"Пионерлагерь имени Юрия Гагарина"}},"1136388736":{"location":[47.0624323,28.5283132],"ct":"MD","tp":"CS","ts":"2023-07-25T04:01:04Z","tX":593,"tY":359,"tags":{"addr:city":"Scoreni","addr:street":"Chișinău-Leușeni","name":"Zonă de Camping"}},"1136388737":{"location":[47.0620593,28.5289132],"ct":"MD","tp":"CS","ts":"2023-07-25T04:01:04Z","tX":593,"tY":359,"tags":{"addr:city":"Scoreni","addr:street":"Chișinău-Leușeni","name":"Zonă de Camping"}},"1191965973":{"location":[47.0571719,28.5401275],"ct":"MD","tp":"CS","ts":"2023-07-25T04:07:57Z","tX":593,"tY":359,"tags":{"addr:city":"Scoreni","addr:street":"Chișinău-Leușeni","name":"Zonă de Camping"}},"1228558024":{"location":[47.0484296,28.7274338],"ct":"MD","tp":"CS","ts":"2023-12-04T05:50:45Z","tX":593,"tY":359,"tags":{"addr:city":"Durlești","name":"Zonă de Odihnă"}},"1228558060":{"location":[47.0465033,28.7294542],"ct":"MD","tp":"CS","ts":"2023-12-04T05:50:45Z","tX":593,"tY":359,"tags":{"addr:city":"Durlești","name":"Zonă de Odihnă"}},"1230836125":{"location":[47.0426211,28.7200889],"ct":"MD","tp":"CS","ts":"2023-12-13T12:46:56Z","tX":593,"tY":359,"tags":{"name":"Zona de odihnă a familiei Stati"}},"1240726148":{"location":[47.1272005,28.6658692],"ct":"MD","tp":"CS","ts":"2024-01-18T11:36:39Z","tX":593,"tY":359,"tags":{}},"1240743293":{"location":[47.1178505,28.678687],"ct":"MD","tp":"CS","ts":"2024-06-07T12:28:28Z","tX":593,"tY":359,"tags":{"addr:city":"Vatra","addr:street":"Ungheni-Chișinău"}},"1240743299":{"location":[47.1162166,28.6830942],"ct":"MD","tp":"CS","ts":"2024-06-07T12:28:28Z","tX":593,"tY":359,"tags":{"addr:city":"Vatra","name":"Bază de odihnă","resort":"recreation_center"}},"1240760950":{"location":[47.1106616,28.6929642],"ct":"MD","tp":"CS","ts":"2024-06-07T12:28:28Z","tX":593,"tY":359,"tags":{"addr:city":"Vatra","name":"Bază de odihnă (abandonată)","resort":"recreation_center"}},"1240761001":{"location":[47.1036543,28.7018624],"ct":"MD","tp":"CS","ts":"2024-06-07T12:28:28Z","tX":593,"tY":359,"tags":{"addr:city":"Vatra","name":"Bază de odihnă","resort":"recreation_center"}},"1240761002":{"location":[47.0936978,28.7103672],"ct":"MD","tp":"CS","ts":"2024-06-07T12:28:28Z","tX":593,"tY":359,"tags":{"addr:city":"Vatra","name":"Baza de odihnă „Fenix Club”","resort":"recreation_center"}},"1240768161":{"location":[47.0877421,28.7119906],"ct":"MD","tp":"CS","ts":"2024-06-07T12:28:28Z","tX":593,"tY":359,"tags":{"name":"Bază de odihnă","resort":"recreation_center"}},"1240768165":{"location":[47.0889725,28.7113366],"ct":"MD","tp":"CS","ts":"2024-06-07T12:28:28Z","tX":593,"tY":359,"tags":{"addr:city":"Vatra","addr:street":"Strada Iazului","name":"Bază de odihnă","resort":"recreation_center"}},"1240838989":{"location":[47.0863181,28.7154753],"ct":"MD","tp":"CS","ts":"2024-06-07T12:28:28Z","tX":593,"tY":359,"tags":{"addr:city":"Vatra","addr:street":"Strada Iazului","name":"Baza de odihnă „Pirat”"}},"1240838996":{"location":[47.0858692,28.7161635],"ct":"MD","tp":"CS","ts":"2024-06-07T12:28:28Z","tX":593,"tY":359,"tags":{"addr:city":"Vatra","addr:housenumber":"10","addr:street":"Strada Iazului","name":"Baza de odihnă „Hanul Corsarilor”"}},"1240839008":{"location":[47.0855494,28.7166952],"ct":"MD","tp":"CS","ts":"2024-06-07T12:28:28Z","tX":593,"tY":359,"tags":{"addr:city":"Vatra","addr:street":"Strada Iazului","name":"Bază de odihnă","resort":"recreation_center"}},"1240839038":{"location":[47.0852974,28.7159211],"ct":"MD","tp":"CS","ts":"2024-06-07T12:28:28Z","tX":593,"tY":359,"tags":{"addr:city":"Vatra","addr:street":"Strada Iazului"}},"1241712563":{"location":[47.1401115,28.680236],"ct":"MD","tp":"CS","ts":"2024-01-21T17:46:03Z","tX":593,"tY":359,"tags":{"access":"private","addr:city":"Roșcani","name":"Zona de odihnă „7 lacuri”","phone":"+37268865606","website":"https://www.facebook.com/7lakesroscani/"}},"1289597937":{"location":[47.0497131,28.5680642],"ct":"MD","tp":"CS","ts":"2024-06-05T10:06:49Z","tX":593,"tY":359,"tags":{"addr:city":"Condrița","addr:housenumber":"34","addr:street":"Strada Balcani","name":"Agropensiunea „Natura Parc”"}},"1289628579":{"location":[47.2587793,28.8173437],"ct":"MD","tp":"CS","ts":"2024-06-05T11:28:10Z","tX":593,"tY":359,"tags":{"name":"Tabără de odihnă pentru copii (abandonată)"}},"1290051318":{"location":[47.2687768,28.7936558],"ct":"MD","tp":"CS","ts":"2024-06-06T16:05:18Z","tX":593,"tY":359,"tags":{"addr:city":"Peresecina","addr:street":"Chișinău-Orhei","name":"old soviet camp"}},"1330853165":{"location":[47.0542047,28.5887039],"ct":"MD","tp":"CS","ts":"2024-11-05T08:49:06Z","tX":593,"tY":359,"tags":{"addr:city":"Scoreni","name":"Bază de odihnă (abandonată)"}},"1332060293":{"location":[47.2284357,28.7231739],"ct":"MD","tp":"CS","ts":"2024-11-08T20:42:44Z","tX":593,"tY":359,"tags":{}},"1341515062":{"location":[47.2790657,28.8252865],"ct":"MD","tp":"CS","ts":"2024-12-10T11:22:39Z","tX":593,"tY":359,"tags":{"addr:city":"Ivancea","name":"Bază de odihnă (abandonată)"}},"1341515063":{"location":[47.2790552,28.821761],"ct":"MD","tp":"CS","ts":"2024-12-10T11:22:39Z","tX":593,"tY":359,"tags":{"addr:city":"Ivancea","name":"Bază de odihnă (abandonată)"}},"1361142214":{"location":[47.0817691,28.8268845],"ct":"MD","tp":"CS","ts":"2025-02-28T07:55:31Z","tX":593,"tY":359,"tags":{"addr:city":"Chișinău","addr:housenumber":"36","addr:street":"Șoseaua Balcani","barrier":"fence","name":"Zona de Agrement „Ciocârlia”","name:ru":"Загородный комплекс «Чокырлия»","website":"https://agrement.md"}},"1882246472":{"location":[47.0822974,28.8278254],"ct":"MD","tp":"CS","ts":"2020-11-17T00:15:52Z","tX":593,"tY":359,"tags":{"addr:city":"Chișinău","addr:housenumber":"36","addr:street":"Șoseaua Balcani","name":"Zona de Agrement „Ciocârlia”","name:ru":"Загородный комплекс «Чокырлия»","website":"https://agrement.md"}},"4182467490":{"location":[47.042128,28.7741024],"ct":"MD","tp":"CR","ts":"2021-04-13T18:24:16Z","tX":593,"tY":359,"tags":{"addr:city":"Chișinău"}},"4292650003":{"location":[47.1544629,28.7409508],"ct":"MD","tp":"CS","ts":"2016-07-09T08:39:00Z","tX":593,"tY":359,"tags":{"name":"GoTur"}},"4987825424":{"location":[47.0570059,28.5394557],"ct":"MD","tp":"CR","ts":"2023-07-25T04:07:57Z","tX":593,"tY":359,"tags":{"addr:city":"Scoreni","addr:street":"Chișinău-Leușeni"}},"8355886117":{"location":[47.1288417,28.5452774],"ct":"MD","tp":"CR","ts":"2021-01-23T21:34:54Z","tX":593,"tY":359,"tags":{"name":"Олег"}}}