{"13773569":{"location":[47.0294509,28.7441632],"ct":"MD","tp":"CS","ts":"2022-02-08T08:26:11Z","tX":593,"tY":360,"tags":{"addr:city":"Durlești","name":"Baza de Odihnă „Durlești”"}},"83204544":{"location":[46.9446113,28.7026538],"ct":"MD","tp":"CS","ts":"2024-06-07T12:24:53Z","tX":593,"tY":360,"tags":{"addr:city":"Ruseștii Noi","addr:street":"Chișinău-Hîncești","name":"Tabăra de Odihnă pentru Copii „Poienița Veselă”"}},"907805949":{"location":[46.9889403,28.6757981],"ct":"MD","tp":"CS","ts":"2024-01-29T19:49:02Z","tX":593,"tY":360,"tags":{"addr:city":"Nimoreni","name":"Summer Park"}},"997349091":{"location":[46.951968,28.7397422],"ct":"MD","tp":"CS","ts":"2024-06-07T12:24:53Z","tX":593,"tY":360,"tags":{"addr:city":"Ialoveni","name":"Baza de odihnă „La Bunica”","resort":"recreation_center"}},"997367298":{"location":[46.9338044,28.7428964],"ct":"MD","tp":"CS","ts":"2022-01-09T13:01:55Z","tX":593,"tY":360,"tags":{"addr:city":"Ialoveni"}},"997379133":{"location":[46.9345397,28.7501112],"ct":"MD","tp":"CS","ts":"2021-10-29T09:22:47Z","tX":593,"tY":360,"tags":{}},"1008628478":{"location":[46.9601728,28.7466848],"ct":"MD","tp":"CS","ts":"2024-11-12T06:54:03Z","tX":593,"tY":360,"tags":{"addr:city":"Sociteni","addr:street":"Șoseaua Hâncești","name":"Baza de odihnă „Europarc”"}},"1008691538":{"location":[46.9529215,28.7363036],"ct":"MD","tp":"CS","ts":"2024-06-07T12:24:53Z","tX":593,"tY":360,"tags":{"addr:city":"Sociteni","addr:street":"Șoseaua Hîncești","name":"Bază de odihnă","resort":"recreation_center"}},"1027063458":{"location":[46.9844914,28.7510269],"ct":"MD","tp":"CS","ts":"2022-02-02T15:50:01Z","tX":593,"tY":360,"tags":{"addr:city":"Durlești","name":"Camping & Fishing"}},"1042325808":{"location":[46.9817442,28.7908514],"ct":"MD","tp":"CS","ts":"2022-03-21T15:01:47Z","tX":593,"tY":360,"tags":{"addr:city":"Codru","name":"Tortuga Camping & Fishing"}},"1128434078":{"location":[46.983206,28.7047985],"ct":"MD","tp":"CS","ts":"2023-01-09T11:10:44Z","tX":593,"tY":360,"tags":{"addr:city":"Suruceni","name":"Zona de agrement „Între Lacuri Suruceni-Dănceni”"}},"1130594097":{"location":[47.0349388,28.5234242],"ct":"MD","tp":"CS","ts":"2023-01-10T10:43:01Z","tX":593,"tY":360,"tags":{"addr:city":"Ulmu","name":"Camping Ulmu"}},"1192037394":{"location":[46.8854676,28.7529691],"ct":"MD","tp":"CS","ts":"2024-07-01T08:19:57Z","tX":593,"tY":360,"tags":{"addr:city":"Costești","addr:housenumber":"31","addr:street":"Strada Complexul Turistic Costești","name":"Complexul Turistic „Costești”"}},"1192063325":{"location":[46.8769561,28.7590974],"ct":"MD","tp":"CS","ts":"2023-07-25T11:23:08Z","tX":593,"tY":360,"tags":{}},"1192789671":{"location":[46.8771883,28.7708313],"ct":"MD","tp":"CS","ts":"2023-07-30T14:28:44Z","tX":593,"tY":360,"tags":{"addr:city":"Costești","addr:housenumber":"10","addr:street":"Strada Turnul Alb","name":"Pensiunea „Turnul Alb”","phone":"+37379449911","website":"https://www.turnulalb.md/"}},"1193544001":{"location":[46.8637581,28.783567],"ct":"MD","tp":"CS","ts":"2023-07-31T12:17:34Z","tX":593,"tY":360,"tags":{}},"1228558091":{"location":[47.0329186,28.7118439],"ct":"MD","tp":"CS","ts":"2023-12-04T05:50:45Z","tX":593,"tY":360,"tags":{"addr:city":"Trușeni","name":"Zonă de Odihnă"}},"1228564310":{"location":[47.0282632,28.7037773],"ct":"MD","tp":"CS","ts":"2023-12-04T07:02:58Z","tX":593,"tY":360,"tags":{"name":"Zonă de Odihnă"}},"1243425276":{"location":[46.956913,28.727676],"ct":"MD","tp":"CS","ts":"2024-06-07T12:24:53Z","tX":593,"tY":360,"tags":{"addr:city":"Sociteni","addr:street":"Dănceni-R3","name":"Lago Event Park","resort":"recreation_center"}},"1243425314":{"location":[46.9617116,28.7186253],"ct":"MD","tp":"CS","ts":"2024-06-07T12:24:53Z","tX":593,"tY":360,"tags":{"addr:city":"Dănceni","addr:street":"Strada Olimpicilor","name":"Zona de odihnă „Poiana Pinului”","resort":"recreation_center"}},"1243425329":{"location":[46.9639533,28.7157968],"ct":"MD","tp":"CS","ts":"2024-06-07T12:24:53Z","tX":593,"tY":360,"tags":{"addr:city":"Dănceni","addr:street":"Strada Olimpicilor","name":"Zona de odihnă „Vatra Strămoșească”","resort":"recreation_center"}},"1243425340":{"location":[46.9647591,28.7147181],"ct":"MD","tp":"CS","ts":"2024-06-07T12:24:53Z","tX":593,"tY":360,"tags":{"addr:city":"Dănceni","addr:street":"Strada Olimpicilor","name":"Sala de banchete „Grand Radog”","resort":"recreation_center"}},"1243425368":{"location":[46.9711442,28.7064365],"ct":"MD","tp":"CS","ts":"2024-06-07T12:24:53Z","tX":593,"tY":360,"tags":{"addr:city":"Dănceni","addr:housenumber":"4","addr:street":"Strada Olimpicilor","name":"Zonă de odihnă","resort":"recreation_center"}},"1244034214":{"location":[46.9402552,28.7019607],"ct":"MD","tp":"CS","ts":"2024-01-29T11:24:34Z","tX":593,"tY":360,"tags":{"addr:city":"Bardar","addr:street":"Chișinău-Hîncești","name":"Zona de odihnă „Poienița Muzicii” (la Petru)","phone":"+37369491407"}},"1244886448":{"location":[46.9384179,28.6963655],"ct":"MD","tp":"CS","ts":"2024-06-07T12:24:53Z","tX":593,"tY":360,"tags":{"addr:city":"Ruseștii Noi","name":"Tabăra de Odihnă pentru Copii „Alunelul\""}},"1244920154":{"location":[46.9467511,28.6995122],"ct":"MD","tp":"CS","ts":"2024-06-07T12:24:53Z","tX":593,"tY":360,"tags":{"addr:city":"Ruseștii Noi","name":"Bază de odihnă","resort":"recreation_center"}},"1244920212":{"location":[46.9506479,28.6980816],"ct":"MD","tp":"CS","ts":"2024-06-07T12:24:53Z","tX":593,"tY":360,"tags":{"addr:city":"Ruseștii Noi","name":"Bază de odihnă"}},"1244920213":{"location":[46.9503907,28.6991137],"ct":"MD","tp":"CS","ts":"2024-06-07T12:24:53Z","tX":593,"tY":360,"tags":{"addr:city":"Ruseștii Noi","name":"Zona de odihnă „Bârlogul Ursului”"}},"1299052571":{"location":[46.8966388,28.734307],"ct":"MD","tp":"CS","ts":"2024-07-05T08:14:20Z","tX":593,"tY":360,"tags":{"name":"Bază de odihnă (abandonată)"}},"1305691565":{"location":[46.9083462,28.7852658],"ct":"MD","tp":"CS","ts":"2024-08-05T10:10:14Z","tX":593,"tY":360,"tags":{"addr:city":"Mileștii Mici","addr:street":"Strada Mihai Eminescu","name":"Bază de odihnă"}},"1316388449":{"location":[47.0034473,28.5515167],"ct":"MD","tp":"CS","ts":"2024-11-01T07:40:15Z","tX":593,"tY":360,"tags":{"addr:city":"Ulmu","addr:street":"Strada Ștefan cel Mare și Sfânt","barrier":"fence","name":"Villa Sano"}},"1318106550":{"location":[46.9892404,28.5480772],"ct":"MD","tp":"CS","ts":"2024-09-25T12:54:34Z","tX":593,"tY":360,"tags":{"barrier":"fence","name":"Bază de odihnă"}},"1318106564":{"location":[47.0328806,28.5179697],"ct":"MD","tp":"CS","ts":"2024-09-25T12:54:34Z","tX":593,"tY":360,"tags":{"name":"Bază de odihnă"}},"1318106574":{"location":[47.0365795,28.5110053],"ct":"MD","tp":"CS","ts":"2024-09-25T12:54:34Z","tX":593,"tY":360,"tags":{"name":"Bază de odihnă"}},"1329824858":{"location":[47.002743,28.6309983],"ct":"MD","tp":"CS","ts":"2024-11-01T06:47:37Z","tX":593,"tY":360,"tags":{"name":"Bază de odihnă"}},"1329869736":{"location":[46.879053,28.6636674],"ct":"MD","tp":"CS","ts":"2024-11-01T11:13:02Z","tX":593,"tY":360,"tags":{"addr:city":"Bardar","addr:street":"Chișinău-Hîncești","barrier":"fence","name":"Bază de odihnă „Pădurea Pinului”"}},"1329880042":{"location":[46.9750796,28.6912736],"ct":"MD","tp":"CS","ts":"2024-11-01T12:21:10Z","tX":593,"tY":360,"tags":{"addr:city":"Suruceni","addr:street":"Strada Ion Creangă","barrier":"fence","name":"Bază de odihnă"}},"1329911301":{"location":[46.9873144,28.6592592],"ct":"MD","tp":"CS","ts":"2024-11-01T14:13:41Z","tX":593,"tY":360,"tags":{"name":"Baza de odihnă „Costa Verde”"}},"1330615533":{"location":[47.0035448,28.6721543],"ct":"MD","tp":"CS","ts":"2024-11-04T10:56:16Z","tX":593,"tY":360,"tags":{"addr:city":"Nimoreni","addr:street":"Strada Mitropolit Gurie Grosu","barrier":"fence","name":"Bază de odihnă"}},"1340041807":{"location":[46.8381413,28.5669223],"ct":"MD","tp":"CS","ts":"2024-12-04T10:45:27Z","tX":593,"tY":360,"tags":{"addr:city":"Hîncești","addr:street":"Strada București","barrier":"fence","name":"Baza de odihnă „Ciaglei”"}}}