{"972759169":{"location":[44.2744041,28.6196931],"ct":"RO","tp":"CS","ts":"2021-08-13T07:08:31Z","tX":593,"tY":371,"tags":{"addr:city":"Năvodari","addr:street":"Bulevardul Mamaia","fee":"yes","name":"Camping Holiday GPM Mamaia Nord","website":"http://www.gpm.ro/GPMCamping/index.php"}},"1120839210":{"location":[44.3104252,28.6268924],"ct":"RO","tp":"CS","ts":"2022-12-10T18:52:25Z","tX":593,"tY":371,"tags":{"group_only":"yes","name":"Camping Ena"}},"1160530747":{"location":[44.2641928,28.6191187],"ct":"RO","tp":"CS","ts":"2023-04-07T17:38:04Z","tX":593,"tY":371,"tags":{"name":"Tabăra Turist"}},"2298216575":{"location":[44.2842839,28.6190762],"ct":"RO","tp":"CS","ts":"2022-08-10T09:57:05Z","tX":593,"tY":371,"tags":{"backcountry":"no","dog":"yes","fee":"yes","internet_access":"no","name":"Camping S","openfire":"yes","payment:cash":"yes","payment:credit_cards":"yes","phone":"+40 241 831108","power_supply":"yes","shower":"yes","toilets":"yes"}},"3847111837":{"location":[44.2879847,28.6172756],"ct":"RO","tp":"CS","ts":"2015-11-20T16:52:23Z","tX":593,"tY":371,"tags":{"addr:city":"Năvodari","addr:housenumber":"75","addr:street":"Bulevardul Mamaia Nord","name":"Hanul Piraților","website":"http://www.hanulpiratilor.com/"}},"4446899489":{"location":[44.2832439,28.617352],"ct":"RO","tp":"CS","ts":"2016-10-14T00:06:01Z","tX":593,"tY":371,"tags":{}},"4449274390":{"location":[44.2702184,28.6172765],"ct":"RO","tp":"CS","ts":"2019-07-13T20:27:47Z","tX":593,"tY":371,"tags":{"name":"Samarland","name:en":"Summer land","name:ro":"Samarland"}},"4707138597":{"location":[44.3161584,28.6310096],"ct":"RO","tp":"CS","ts":"2017-02-26T19:38:26Z","tX":593,"tY":371,"tags":{"is_in:city":"Năvodari","name":"Camping La Mal Pirivoli"}},"7698628386":{"location":[44.3240913,28.6354205],"ct":"RO","tp":"CS","ts":"2020-07-09T08:11:57Z","tX":593,"tY":371,"tags":{"name":"Camping Bya","name:en":"Camping BYA","name:ro":"Camping BYA","opening_hours":"24/7"}},"7857457396":{"location":[44.3131631,28.6315361],"ct":"RO","tp":"CS","ts":"2022-12-15T22:06:14Z","tX":593,"tY":371,"tags":{"name":"DM"}}}