{"26860493":{"location":[44.0245331,28.6532944],"ct":"RO","tp":"CS","ts":"2016-07-01T10:18:03Z","tX":593,"tY":372,"tags":{"addr:city":"Eforie Sud","name":"Cosmos"}},"26860499":{"location":[44.0728646,28.6352478],"ct":"RO","tp":"CS","ts":"2014-12-05T19:20:27Z","tX":593,"tY":372,"tags":{"addr:city":"Eforie Nord","addr:housenumber":"82","addr:postcode":"905350","addr:postcode:source":"Date de la Poșta Română, publicate sub Licența pentru Guvernare Deschisă v1.0 la http://date.gov.ro/organization/posta-romana","addr:street":"Strada Sportului","fax":"+40241617390","name":"Meduza","phone":"+40 241 742385"}},"444318758":{"location":[44.0584916,28.6233378],"ct":"RO","tp":"CS","ts":"2017-08-28T08:39:25Z","tX":593,"tY":372,"tags":{"addr:city":"Eforie Nord","alt_name":"Techirghiol","name":"Șincai ( desființat - camparea interzisă de primărie)"}},"1090242226":{"location":[43.9589512,28.6379663],"ct":"RO","tp":"CS","ts":"2022-08-29T13:51:31Z","tX":593,"tY":372,"tags":{"addr:city":"Costinești","addr:housenumber":"126","addr:street":"Strada Tineretului","fee":"yes","name":"Camping KRAUS"}},"1300278469":{"location":[43.9677375,28.6453753],"ct":"RO","tp":"CS","ts":"2024-07-09T16:00:06Z","tX":593,"tY":372,"tags":{"name":"Beach Plase Camping"}},"2297993005":{"location":[43.862177,28.5995379],"ct":"RO","tp":"CS","ts":"2024-09-07T08:44:23Z","tX":593,"tY":372,"tags":{"addr:street":"Strada Trandafirilor","caravans":"no","name":"Neptun","phone":"+40241701244","tents":"yes"}},"2297993011":{"location":[43.8592531,28.5989458],"ct":"RO","tp":"CS","ts":"2023-06-02T23:52:29Z","tX":593,"tY":372,"tags":{"addr:housenumber":"49","addr:street":"Strada Gala Galaction","fax":"+40 241731404","internet_access":"wlan","name":"Popas Zodiac","phone":"+40 241731404","power_supply":"yes","stars":"3","website":"https://popaszodiac.ro/camping-zodiac-jupiter/"}},"4335499816":{"location":[44.0727555,28.6353753],"ct":"RO","tp":"CS","ts":"2016-08-04T14:00:33Z","tX":593,"tY":372,"tags":{"addr:housenumber":"4","addr:postcode":"905350","addr:street":"Strada Sportului","internet_access":"wlan","name":"Meduza"}},"4898814967":{"location":[44.0483537,28.6022669],"ct":"RO","tp":"CS","ts":"2021-12-06T06:39:40Z","tX":593,"tY":372,"tags":{"name":"Camping Otilia"}},"5046592797":{"location":[44.0703107,28.6343403],"ct":"RO","tp":"CS","ts":"2022-08-13T18:25:30Z","tX":593,"tY":372,"tags":{"addr:city":"Eforie Nord","name":"Camping"}},"6694851794":{"location":[44.0704355,28.6350543],"ct":"RO","tp":"CS","ts":"2022-08-13T18:25:30Z","tX":593,"tY":372,"tags":{"addr:city":"Eforie Nord","name":"Grand Corona"}},"8315105157":{"location":[43.9369303,28.630411],"ct":"RO","tp":"CS","ts":"2021-01-12T13:36:49Z","tX":593,"tY":372,"tags":{"contact:website":"https://canastacamping.ro/ro/","group_only":"yes","name":"Canasta Camping"}},"8987105086":{"location":[43.9868235,28.641099],"ct":"RO","tp":"CS","ts":"2021-08-07T05:48:01Z","tX":593,"tY":372,"tags":{"name":"Oneus Camping"}},"11197846737":{"location":[44.0149057,28.6606721],"ct":"RO","tp":"CS","ts":"2023-09-17T15:05:43Z","tX":593,"tY":372,"tags":{"name":"Campare rulote neamenajat","name:en":"Wild camping","name:ro":"Camping rulote neamenajat","opening_hours":"24/7"}}}