{"175038494":{"location":[43.7877727,28.5799726],"ct":"RO","tp":"CS","ts":"2022-05-16T14:46:34Z","tX":593,"tY":373,"tags":{"addr:housenumber":"2","addr:street":"Strada Falezei","email":"rezervari@camping2mai.ro","fee":"yes","name":"Camping 2 Mai","phone":"+40 724 196 505","website":"http://camping2mai.ro/"}},"298416134":{"location":[43.755809,28.5728758],"ct":"RO","tp":"CS","ts":"2019-05-09T20:03:44Z","tX":593,"tY":373,"tags":{"name":"La Rulote","smoking":"outside"}},"298416136":{"location":[43.755018,28.573163],"ct":"RO","tp":"CS","ts":"2022-05-16T14:24:23Z","tX":593,"tY":373,"tags":{"addr:city":"Vama Veche","addr:housenumber":"2","addr:postcode":"907163","addr:street":"Strada Tudor Vladimirescu","email":"rezervari@ozvamaveche.ro","fee":"yes","name":"Oz","phone":"+40 724 278 848","website":"https://ozvamaveche.ro/"}},"479748996":{"location":[43.6978865,28.5669582],"ct":"BG","tp":"CS","ts":"2024-07-17T11:20:20Z","tX":593,"tY":373,"tags":{"caravans":"yes","drinking_water":"yes","name":"Космос","name:en":"Kosmos","tents":"yes"}},"499955894":{"location":[43.6422944,28.5704612],"ct":"BG","tp":"CS","ts":"2011-04-23T17:52:16Z","tX":593,"tY":373,"tags":{"name":"Кравуна","name:en":"Kravuna"}},"503521621":{"location":[43.7552395,28.5693256],"ct":"RO","tp":"CS","ts":"2022-05-16T14:24:23Z","tX":593,"tY":373,"tags":{"addr:city":"Vama Veche","addr:housenumber":"10","addr:postcode":"907163","addr:street":"Strada Nichita Stănescu","fee":"yes","internet_access":"wlan","internet_access:fee":"no","internet_access:ssid":"marinapark.ro","name":"Marina Park Camping","website":"https://camping.marinapark.ro/"}},"688990806":{"location":[43.7487204,28.5756664],"ct":"RO","tp":"CS","ts":"2024-08-27T08:16:54Z","tX":593,"tY":373,"tags":{"fee":"yes","internet_access":"wlan","name":"Sandalandala","website":"https://sandalandala.ro/en/camping.html"}},"837609099":{"location":[43.7521222,28.5730478],"ct":"RO","tp":"CS","ts":"2024-08-27T08:16:54Z","tX":593,"tY":373,"tags":{"barrier":"fence","name":"Camping Tanti Elena"}},"837609103":{"location":[43.7502156,28.5742493],"ct":"RO","tp":"CS","ts":"2020-08-16T16:47:00Z","tX":593,"tY":373,"tags":{"name":"Goa Canabis"}},"837609106":{"location":[43.7506394,28.5741649],"ct":"RO","tp":"CS","ts":"2022-05-16T12:52:05Z","tX":593,"tY":373,"tags":{"name":"PurșiSimplu","website":"https://www.pursisimpluvama.com/"}},"1206787322":{"location":[43.7467556,28.5704621],"ct":"RO","tp":"CR","ts":"2023-09-11T06:53:27Z","tX":593,"tY":373,"tags":{"camping":"yes","description":"RV Park","email":"office@cortinagate.ro","internet_access":"wlan","motorhome":"designated","name":"Cortina Gate","phone":"+40 786 722 701","website":"https://cortinagate.ro/"}},"1214794293":{"location":[43.7906095,28.5788016],"ct":"RO","tp":"CR","ts":"2011-03-23T12:51:13Z","tX":593,"tY":373,"tags":{}},"1263395691":{"location":[43.6980028,28.5674796],"ct":"BG","tp":"CR","ts":"2011-04-28T13:17:26Z","tX":593,"tY":373,"tags":{"name":"Космос","name:en":"Kosmos"}},"2295133061":{"location":[43.7473788,28.5699066],"ct":"RO","tp":"CS","ts":"2023-03-21T10:34:56Z","tX":593,"tY":373,"tags":{"name":"Camping Cezar"}},"3878547924":{"location":[43.7512038,28.5710614],"ct":"RO","tp":"CS","ts":"2022-05-16T13:13:35Z","tX":593,"tY":373,"tags":{"addr:city":"Vama Veche","addr:street":"Strada Mihail Kogălniceanu","contact:facebook":"https://www.facebook.com/lamarianavamaveche/","fee":"yes","name":"Camping La Mariana"}},"4316817889":{"location":[43.6448667,28.5700924],"ct":"BG","tp":"CS","ts":"2016-07-23T10:51:24Z","tX":593,"tY":373,"tags":{"addr:housenumber":"0","name":"loc de cort"}},"6716303297":{"location":[43.7254062,28.5714626],"ct":"BG","tp":"CS","ts":"2019-08-16T18:14:23Z","tX":593,"tY":373,"tags":{"name":"Not a real camping - free to camp in wild"}},"7857267900":{"location":[43.7269077,28.5718936],"ct":"BG","tp":"CS","ts":"2020-08-29T18:13:07Z","tX":593,"tY":373,"tags":{}},"11136624961":{"location":[43.6192368,28.5717015],"ct":"BG","tp":"CS","ts":"2023-08-22T16:12:13Z","tX":593,"tY":373,"tags":{"name":"Camping Narva"}},"4707177319":{"location":[43.8293879,28.5839173],"ct":"RO","tp":"CS","ts":"2023-06-02T23:34:22Z","tX":593,"tY":373,"tags":{"addr:housenumber":"12B","addr:street":"Strada Corneliu Coposu","email":"campingmht@yahoo.de","is_in:city":"Saturn","name":"Camping MHT","phone":"+40 743 329 428","website":"https://camping-mht.ro/"}},"7685448885":{"location":[43.7509335,28.5756419],"ct":"RO","tp":"CS","ts":"2023-07-15T11:12:28Z","tX":593,"tY":373,"tags":{"addr:street":"Strada Midiei","name":"La Căsuțe","phone":"+40 728 442 818","website":"http://www.romania-turistica.ro/Cazare-Vama-Veche/Camping-La-casute"}},"8780977225":{"location":[43.7472725,28.5697912],"ct":"RO","tp":"CS","ts":"2023-03-21T10:34:56Z","tX":593,"tY":373,"tags":{"name":"Misha & Bogdan"}}}