{"428270410":{"location":[39.8922505,-110.9947296],"ct":"US","tp":"CS","ts":"2020-01-14T15:24:22Z","tX":196,"tY":388,"tags":{"access":"private","name":"Crescent Regional Recreational Camp","operator":"LDS Church"}},"1063430344":{"location":[39.6775655,-110.8581396],"ct":"US","tp":"CR","ts":"2023-01-05T22:52:33Z","tX":196,"tY":388,"tags":{"addr:city":"Helper","addr:housenumber":"1020","addr:postcode":"84526","addr:state":"UT","addr:street":"Spring Glen Road","email":"Camp@CastleGateRVpark.com","internet_access":"wlan","internet_access:fee":"customers","name":"Castle Gate RV Park","phone":"+1-435-472-2267","website":"https://castlegatervpark.com"}},"2344691803":{"location":[39.8733333,-110.77],"ct":"US","tp":"CS","ts":"2013-06-14T18:27:34Z","tX":196,"tY":388,"tags":{"name":"Avintaquin Campground","operator":"USFS","source":"www.fs.usda.gov","uuid":"sonora_20130614"}},"4273971760":{"location":[39.8962369,-110.9914169],"ct":"US","tp":"CS","ts":"2020-01-14T15:24:22Z","tX":196,"tY":388,"tags":{"access":"private","name":"Beaver Lake Camp","operator":"LDS Church"}},"4273971761":{"location":[39.8960197,-110.9964284],"ct":"US","tp":"CS","ts":"2020-01-14T15:24:22Z","tX":196,"tY":388,"tags":{"access":"private","name":"Bear Hollow Camp","operator":"LDS Church"}},"4273971762":{"location":[39.89325,-110.9978724],"ct":"US","tp":"CS","ts":"2020-01-14T15:24:22Z","tX":196,"tY":388,"tags":{"access":"private","name":"Crescent Ridge Camp","operator":"LDS Church"}},"4273971763":{"location":[39.892863,-110.9923049],"ct":"US","tp":"CS","ts":"2020-01-14T15:24:22Z","tX":196,"tY":388,"tags":{"access":"private","name":"Granite Park Camp","operator":"LDS Church"}},"4273971764":{"location":[39.8901968,-110.9953938],"ct":"US","tp":"CS","ts":"2020-01-14T15:24:22Z","tX":196,"tY":388,"tags":{"access":"private","name":"Spruces Camp","operator":"LDS Church"}},"4273971765":{"location":[39.8885572,-110.9929238],"ct":"US","tp":"CS","ts":"2020-01-14T15:24:22Z","tX":196,"tY":388,"tags":{"access":"private","name":"Ridge View Camp","operator":"LDS Church"}}}