{"104524289":{"location":[54.5316845,-0.9919401],"ct":"GB","tp":"CR","ts":"2011-03-17T17:44:20Z","tX":509,"tY":326,"tags":{"source:geometry":"Bing"}},"108226357":{"location":[54.4906437,-0.7894292],"ct":"GB","tp":"CR","ts":"2024-01-24T20:29:21Z","tX":509,"tY":326,"tags":{"addr:city":"Whitby","addr:postcode":"YO21 2BG","addr:suburb":"Ugthorpe","name":"Burnt House Caravan Park","source:geometry":"Bing"}},"108333223":{"location":[54.4604582,-0.7382241],"ct":"GB","tp":"CR","ts":"2023-10-17T23:52:12Z","tX":509,"tY":326,"tags":{"addr:city":"Egton","addr:postcode":"YO21 1UA","internet_access":"yes","internet_access:fee":"yes","name":"Lady Cross Plantation","phone":"+44 1947 895 502","power_supply":"yes","reservation":"required","sanitary_dump_station":"yes","source:geometry":"Bing","website":"https://www.ladycrossplantation.co.uk/"}},"207516943":{"location":[54.5394287,-0.7805763],"ct":"GB","tp":"CR","ts":"2013-02-27T21:42:25Z","tX":509,"tY":326,"tags":{"name":"Gatehouse"}},"230747807":{"location":[54.5467518,-0.7749255],"ct":"GB","tp":"CR","ts":"2013-08-11T22:21:52Z","tX":509,"tY":326,"tags":{}},"234889179":{"location":[54.5388031,-0.779091],"ct":"GB","tp":"CR","ts":"2021-05-23T20:10:21Z","tX":509,"tY":326,"tags":{"name":"Serenity"}},"236857573":{"location":[54.555105,-0.79717],"ct":"GB","tp":"CR","ts":"2013-09-06T15:52:10Z","tX":509,"tY":326,"tags":{}},"237839297":{"location":[54.5544463,-1.0296125],"ct":"GB","tp":"CR","ts":"2013-09-13T16:45:29Z","tX":509,"tY":326,"tags":{"name":"s Watermill"}},"253197143":{"location":[54.4913285,-0.8048636],"ct":"GB","tp":"CS","ts":"2019-03-16T12:39:54Z","tX":509,"tY":326,"tags":{"name":"Folly Hall Farm Campsite","website":"https://www.ukcampsite.co.uk/sites/details.asp?revid=10645"}},"253197174":{"location":[54.4896872,-0.7914401],"ct":"GB","tp":"CR","ts":"2024-01-24T20:29:21Z","tX":509,"tY":326,"tags":{"addr:city":"Whitby","addr:postcode":"YO21 2BE","addr:suburb":"Ugthorpe","name":"Ugthorpe Lodge Caravan Park","source:geometry":"Bing"}},"437711952":{"location":[54.5355126,-0.7562153],"ct":"GB","tp":"CR","ts":"2023-09-12T13:57:32Z","tX":509,"tY":326,"tags":{"addr:city":"Saltburn-by-the-Sea","addr:postcode":"TS13 5HR","addr:suburb":"Runswick Bay","name":"Runswick Bay Caravan and Camping Park","tents":"yes","website":"https://runswickbaycaravanandcampingpark.co.uk/"}},"620956693":{"location":[54.3920586,-0.7207461],"ct":"GB","tp":"CR","ts":"2024-01-24T20:29:21Z","tX":509,"tY":326,"tags":{"addr:city":"Whitby","addr:postcode":"YO22 5NP","addr:suburb":"Goathland","name":"Brow House Farm Caravan & Camping Site"}},"835383747":{"location":[54.5613027,-0.9884977],"ct":"GB","tp":"CS","ts":"2020-08-08T22:57:19Z","tX":509,"tY":326,"tags":{"source":"Sign outside, sound fheard outside"}},"846160489":{"location":[54.5476855,-0.7939905],"ct":"GB","tp":"CR","ts":"2020-09-10T16:52:43Z","tX":509,"tY":326,"tags":{}},"846160490":{"location":[54.5474978,-0.7953673],"ct":"GB","tp":"CR","ts":"2020-09-10T16:52:43Z","tX":509,"tY":326,"tags":{}},"1017472372":{"location":[54.3940311,-0.7111257],"ct":"GB","tp":"CS","ts":"2024-01-24T20:29:21Z","tX":509,"tY":326,"tags":{"addr:city":"Whitby","addr:postcode":"YO22 5NH","addr:suburb":"Goathland","name":"Abbots House Farm Campsite"}},"1017594934":{"location":[54.3961973,-0.7053392],"ct":"GB","tp":"CR","ts":"2022-01-02T16:28:45Z","tX":509,"tY":326,"tags":{}},"1161197744":{"location":[54.4465182,-0.8452557],"ct":"GB","tp":"CS","ts":"2023-04-11T15:50:30Z","tX":509,"tY":326,"tags":{}},"1188994927":{"location":[54.5404214,-0.976585],"ct":"GB","tp":"CS","ts":"2023-07-11T20:35:15Z","tX":509,"tY":326,"tags":{"name":"Cherry Tree House Campsite"}},"1200948830":{"location":[54.4524733,-0.8398324],"ct":"GB","tp":"CS","ts":"2023-08-21T21:33:24Z","tX":509,"tY":326,"tags":{"caravans":"yes","name":"Wild Slack","phone":"+44 1947 897420","shower":"yes","tents":"yes","toilets":"yes","website":"https://wildslackfarm.co.uk/"}},"1210342128":{"location":[54.5649617,-0.8972039],"ct":"GB","tp":"CS","ts":"2023-09-23T18:15:21Z","tX":509,"tY":326,"tags":{"name":"Magpie Wood"}},"5005075099":{"location":[54.4389016,-0.7320471],"ct":"GB","tp":"CS","ts":"2017-07-31T12:54:52Z","tX":509,"tY":326,"tags":{"camp_site":"basic","name":"Priory Farm Campsite","operator":"Priory Farm"}},"7369196716":{"location":[54.486384,-0.9802715],"ct":"GB","tp":"CS","ts":"2020-04-05T14:38:04Z","tX":509,"tY":326,"tags":{"name":"Raven Gill Campsite","operator":"Cleveland County Scouts"}}}