{"95949268":{"location":[54.2360455,-0.9764349],"ct":"GB","tp":"CS","ts":"2024-09-03T07:56:23Z","tX":509,"tY":327,"tags":{"access":"customers","addr:city":"York","addr:country":"GB","addr:housename":"Wombleton Caravan & Camping Park","addr:postcode":"YO62 7RY","addr:street":"Moorfields Lane","addr:suburb":"Wombleton","backcountry":"no","caravans":"yes","dog":"yes","email":"info@wombletoncaravanpark.co.uk","fee":"yes","internet_access":"wlan","internet_access:fee":"yes","internet_access:ssid":"WC&CPWiFi","name":"Wombleton Caravan Park","phone":"+44 1751 431684","shower":"yes","stars":"5","tents":"yes","website":"https://www.wombletoncaravanpark.co.uk","wheelchair":"limited"}},"166665635":{"location":[54.2231228,-0.7736514],"ct":"GB","tp":"CR","ts":"2020-05-15T21:17:35Z","tX":509,"tY":327,"tags":{"addr:city":"Pickering","addr:postcode":"YO18 8EA","addr:street":"Malton Road","caravans":"yes","name":"Black Bull Caravan Park","tents":"yes","website":"https://www.blackbullcaravanpark.com/"}},"174295070":{"location":[54.228198,-0.7211099],"ct":"GB","tp":"CR","ts":"2024-01-24T20:29:21Z","tX":509,"tY":327,"tags":{"addr:city":"Pickering","addr:postcode":"YO18 7SE","addr:suburb":"Thornton-le-Dale","name":"Overbrook"}},"185916110":{"location":[54.2131322,-0.7853985],"ct":"GB","tp":"CR","ts":"2020-08-27T10:38:56Z","tX":509,"tY":327,"tags":{"addr:city":"Pickering","addr:postcode":"YO18 8EB","addr:street":"Malton Road","caravans":"yes","name":"Hiblings Farm Camping & Caravan Site","note":"no toilets or showers on site","tents":"yes","toilets":"no","website":"http://www.hiblingsfarm.co.uk"}},"224377352":{"location":[54.2949518,-0.819581],"ct":"GB","tp":"CR","ts":"2023-09-20T15:39:19Z","tX":509,"tY":327,"tags":{"addr:city":"Pickering","addr:postcode":"YO18 8EJ","name":"Hen Flatts Farm"}},"234767315":{"location":[54.3547911,-0.8922627],"ct":"GB","tp":"CR","ts":"2021-08-15T21:44:22Z","tX":509,"tY":327,"tags":{"addr:city":"Rosedale Abbey","addr:postcode":"YO18 8SA","name":"Rosedale Touring Caravan Park"}},"307855099":{"location":[54.1636041,-0.9281446],"ct":"GB","tp":"CR","ts":"2023-11-29T16:30:55Z","tX":509,"tY":327,"tags":{"addr:city":"York","addr:postcode":"YO62 4AP","addr:street":"Green Dyke Lane","addr:suburb":"Slingsby","name":"Robin Hood Caravan Park","phone":"+44 1653 628391","website":"https://www.robinhoodcaravanpark.co.uk/"}},"315975880":{"location":[54.3042782,-0.7498178],"ct":"GB","tp":"CR","ts":"2022-01-02T13:02:37Z","tX":509,"tY":327,"tags":{"addr:postcode":"YO18 8QA","name":"White Swan Campsite"}},"365801707":{"location":[54.3510858,-0.8839886],"ct":"GB","tp":"CR","ts":"2021-08-11T13:10:55Z","tX":509,"tY":327,"tags":{"addr:postcode":"YO18 8SA","addr:street":"Rosedale Abbey","name":"The Howard Rosedale Caravan Club Site","operator":"Caravan Club","phone":"+44 1751 417812","website":"https://www.caravanclub.co.uk/"}},"422952218":{"location":[54.2981484,-0.7124283],"ct":"GB","tp":"CR","ts":"2020-06-07T10:57:28Z","tX":509,"tY":327,"tags":{"addr:city":"Lockton","addr:postcode":"YO18 7PZ","capacity":"5","fee":"yes","internet_access":"no","name":"Ashfield Caravan Site","power_supply":"yes","sanitary_dump_station":"yes"}},"521508840":{"location":[54.2103946,-0.7741394],"ct":"GB","tp":"CS","ts":"2017-09-05T10:43:38Z","tX":509,"tY":327,"tags":{}},"604410332":{"location":[54.1695002,-0.9286962],"ct":"GB","tp":"CR","ts":"2024-05-04T15:42:25Z","tX":509,"tY":327,"tags":{"addr:city":"York","addr:postcode":"YO62 4AN","addr:street":"Railway Street","addr:suburb":"Slingsby","name":"Slingsby Camping and Caravanning Club Site"}},"617849684":{"location":[54.2959374,-0.9196267],"ct":"GB","tp":"CR","ts":"2024-09-03T07:52:08Z","tX":509,"tY":327,"tags":{"addr:city":"York","addr:country":"GB","addr:postcode":"YO62 6UG","addr:suburb":"Hutton-le-Hole","name":"Hutton-le-Hole Caravan Park"}},"642932805":{"location":[54.2456321,-0.995274],"ct":"GB","tp":"CR","ts":"2024-09-03T07:56:23Z","tX":509,"tY":327,"tags":{"addr:city":"York","addr:country":"GB","addr:postcode":"YO62 7SD","addr:street":"Gale Lane","addr:suburb":"Beadlam","name":"Wrens of Ryedale Touring Park"}},"642932809":{"location":[54.2385241,-0.9879774],"ct":"GB","tp":"CR","ts":"2024-09-03T07:56:23Z","tX":509,"tY":327,"tags":{"addr:city":"York","addr:country":"GB","addr:postcode":"YO62 7SD","addr:street":"Gale Lane","addr:suburb":"Wombleton","name":"Foxholme Caravan Park"}},"642932810":{"location":[54.2447471,-0.9952534],"ct":"GB","tp":"CS","ts":"2024-09-03T07:56:23Z","tX":509,"tY":327,"tags":{"addr:city":"York","addr:country":"GB","addr:postcode":"YO62 7SD","addr:street":"Gale Lane","addr:suburb":"Beadlam","name":"Canadian Fields"}},"656790615":{"location":[54.2038009,-0.8618805],"ct":"GB","tp":"CR","ts":"2019-04-27T14:23:55Z","tX":509,"tY":327,"tags":{"addr:city":"Great Barugh","addr:postcode":"YO17 6XD","addr:street":"Barugh Lane","name":"Willow Garth Caravan Site"}},"658120385":{"location":[54.2553784,-0.8485658],"ct":"GB","tp":"CR","ts":"2024-04-02T11:01:47Z","tX":509,"tY":327,"tags":{"addr:city":"York","addr:postcode":"YO62 6SS","addr:suburb":"Sinnington","bbq":"yes","capacity":"30","charge":"27 GBP","charge:conditional":"30 GBP @(PH);24 GBP@(Oct-Apr);35 GBP(Dec 24/Jan 1)","fee":"yes","name":"Cliff Farm Holidays","power_supply":"yes","power_supply:maxcurrent":"16","shower":"yes","toilets":"yes","website":"https://www.clifffarmholidays.com/"}},"707341244":{"location":[54.2171271,-0.8113292],"ct":"GB","tp":"CS","ts":"2019-07-25T15:06:17Z","tX":509,"tY":327,"tags":{"name":"Camping & Touring Field"}},"766784822":{"location":[54.3004988,-0.9164973],"ct":"GB","tp":"CR","ts":"2024-09-03T07:52:08Z","tX":509,"tY":327,"tags":{"addr:city":"York","addr:country":"GB","addr:postcode":"YO62 6UA","addr:suburb":"Hutton-le-Hole","name":"Hutton-le-Hole Caravan Site"}},"767390743":{"location":[54.2905698,-0.843099],"ct":"GB","tp":"CR","ts":"2023-10-17T23:55:06Z","tX":509,"tY":327,"tags":{"addr:city":"Cropton","addr:postcode":"YO18 8HH","capacity":"5","internet_access":"wlan","internet_access:fee":"no","name":"Bank Top Farm Caravan Site","power_supply":"yes","sanitary_dump_station":"yes","source":"Sign on main road;survey","website":"https://banktopfarm.com/caravansite.html"}},"775624491":{"location":[54.2951582,-0.8238657],"ct":"GB","tp":"CR","ts":"2020-05-17T19:21:11Z","tX":509,"tY":327,"tags":{"addr:city":"Cropton","addr:postcode":"YO18 8EJ","name":"Whitehorn CL"}},"823195002":{"location":[54.2890692,-0.841525],"ct":"GB","tp":"CS","ts":"2022-05-01T13:15:19Z","tX":509,"tY":327,"tags":{"access":"customers","addr:city":"Cropton","addr:housename":"The New Inn & Cropton Brewery","addr:postcode":"YO18 8HH","addr:street":"Bull Ing Lane","camp_site":"basic","drinking_water":"yes","fee":"yes","name":"The New Inn Camping 1","operator":"The New Inn","phone":"+44 1751 417 330","tents":"yes","toilets":"yes"}},"838130703":{"location":[54.2465734,-0.7074266],"ct":"GB","tp":"CR","ts":"2020-08-18T08:39:33Z","tX":509,"tY":327,"tags":{}},"923147123":{"location":[54.2889739,-0.8405098],"ct":"GB","tp":"CS","ts":"2022-07-20T18:43:01Z","tX":509,"tY":327,"tags":{"access":"customers","addr:city":"Cropton","addr:housename":"The New Inn & Cropton Brewery","addr:postcode":"YO18 8HH","name":"The New Inn Camping 2","operator":"The New Inn","phone":"+44 1751 417 330"}},"971102495":{"location":[54.1944453,-0.7514933],"ct":"GB","tp":"CS","ts":"2021-08-07T09:26:53Z","tX":509,"tY":327,"tags":{"name":"Deerholme Farm","source:name":"Sign on main road"}},"971111614":{"location":[54.2124572,-0.7272046],"ct":"GB","tp":"CR","ts":"2021-08-07T10:12:57Z","tX":509,"tY":327,"tags":{"name":"High Grundon Farm","source:name":"Sign on main road"}},"971116205":{"location":[54.2196004,-0.7250964],"ct":"GB","tp":"CS","ts":"2021-08-07T10:37:36Z","tX":509,"tY":327,"tags":{"name":"Chester Villa Camping","source:name":"Sign on main road"}},"1033285899":{"location":[54.2062798,-0.7339237],"ct":"GB","tp":"CR","ts":"2023-12-23T00:02:37Z","tX":509,"tY":327,"tags":{"access":"customers","addr:city":"Malton","addr:housename":"Summertree Farm","addr:postcode":"YO17 6UH","addr:street":"Thornton Lane","capacity:caravans":"5","caravan_site:type":"farm","charge":"Â£18 per night","fee":"yes","name":"Summertree Farm Caravan & Motorhome Pitches","operator":"Summertree Farm CL","payment:cash":"yes","payment:cheque":"yes","surface":"grass"}},"1033285900":{"location":[54.2055838,-0.7341176],"ct":"GB","tp":"CS","ts":"2022-02-19T16:43:34Z","tX":509,"tY":327,"tags":{"name":"Midsummer Camping"}},"1034326830":{"location":[54.2593417,-0.8319889],"ct":"GB","tp":"CR","ts":"2023-04-29T09:55:32Z","tX":509,"tY":327,"tags":{"name":"Keld Knowle Caravan Park"}},"1156000268":{"location":[54.2935077,-1.025279],"ct":"GB","tp":"CS","ts":"2023-03-21T10:17:31Z","tX":509,"tY":327,"tags":{"access":"private","capacity:persons":"5","name":"High Farm C&MC CL Site"}},"1187940675":{"location":[54.3093828,-0.7747023],"ct":"GB","tp":"CS","ts":"2023-07-08T05:49:51Z","tX":509,"tY":327,"tags":{"name":"Bank Top Camping"}},"1202038592":{"location":[54.3629734,-0.90032],"ct":"GB","tp":"CS","ts":"2024-07-26T07:36:14Z","tX":509,"tY":327,"tags":{"caravans":"yes","fee":"yes","name":"Low Bell End Farm Campsite","tents":"yes","website":"https://lowbellendfarm.co.uk/accommodation/camping.html"}},"1239732950":{"location":[54.2165007,-0.9601734],"ct":"GB","tp":"CS","ts":"2024-01-14T21:15:19Z","tX":509,"tY":327,"tags":{"designation":"Certificated Location","name":"Riccall House","source":"Sign at north;Bing"}},"1304275263":{"location":[54.2057131,-0.8155846],"ct":"GB","tp":"CS","ts":"2024-07-28T15:12:07Z","tX":509,"tY":327,"tags":{"access":"customers","addr:postcode":"YO17 6UU","addr:street":"Kirby Misperton Road","caravans":"yes","drinking_water":"yes","fee":"yes","name":"Shamrock","power_supply":"yes","sanitary_dump_station":"yes","static_caravans":"no"}},"9882866847":{"location":[54.293769,-0.9602744],"ct":"GB","tp":"CS","ts":"2022-07-12T10:14:02Z","tX":509,"tY":327,"tags":{"access":"members","network":"Camping and Caravaning Club"}},"7709946088":{"location":[54.2355,-0.9768096],"ct":"GB","tp":"SD","ts":"2020-07-13T08:27:21Z","tX":509,"tY":327,"tags":{"fee":"no","water_point":"no"}}}