{"163379112":{"location":[52.9074105,-0.7489902],"ct":"GB","tp":"CS","ts":"2022-05-14T18:31:13Z","tX":509,"tY":334,"tags":{"alt_name":"Rutland Arms","name":"Dirty Duck","tents":"yes"}},"231674953":{"location":[52.8652036,-0.9773654],"ct":"GB","tp":"CR","ts":"2024-02-08T13:50:48Z","tX":509,"tY":334,"tags":{"caravans":"yes","name":"Grove Farm","old_name":"Hortor's Caravan Site"}},"831785330":{"location":[52.8897944,-0.9892047],"ct":"GB","tp":"CS","ts":"2020-07-30T13:41:00Z","tX":509,"tY":334,"tags":{"addr:city":"Owthorpe","addr:housename":"Oddhouse Farm","addr:postcode":"NG12 3SF","addr:street":"Colston Bassett Lane","group_only":"yes","name":"Oddhouse Farm Glamping"}},"945993526":{"location":[52.7839313,-0.9113056],"ct":"GB","tp":"CR","ts":"2021-05-23T10:14:49Z","tX":509,"tY":334,"tags":{}},"1021132468":{"location":[52.8081516,-0.806931],"ct":"GB","tp":"CS","ts":"2022-03-30T08:05:44Z","tX":509,"tY":334,"tags":{"name":"Fair Farm","website":"https://www.fairfarm.co.uk/"}},"1770497334":{"location":[52.7414164,-1.0078329],"ct":"GB","tp":"CS","ts":"2012-05-30T14:40:21Z","tX":509,"tY":334,"tags":{"designation":"Camping for canoe builders","name":"Birchcanoes.com","source":"Birchcanoes.com"}},"1861860374":{"location":[52.7119372,-0.7881402],"ct":"GB","tp":"CR","ts":"2020-11-08T20:05:42Z","tX":509,"tY":334,"tags":{"addr:city":"Oakham","addr:country":"GB","addr:postcode":"LE15 7LB","addr:street":"Pickwell Lane","addr:village":"Whissendine","fhrs:authority":"Rutland","fhrs:id":"1153901","fhrs:local_authority_id":"104973","name":"Greendale Farm Caravan Park"}},"2400162925":{"location":[52.8698026,-0.9946017],"ct":"GB","tp":"CS","ts":"2013-07-29T08:07:14Z","tX":509,"tY":334,"tags":{}},"4200935392":{"location":[52.8908527,-0.9110036],"ct":"GB","tp":"CR","ts":"2016-05-22T21:46:05Z","tX":509,"tY":334,"tags":{"name":"The Landings at Langar","website":"http://www.langarlandings.co.uk/"}},"8682963115":{"location":[52.7645085,-0.9118822],"ct":"GB","tp":"CS","ts":"2021-04-30T10:43:07Z","tX":509,"tY":334,"tags":{"addr:city":"Melton Mowbray","addr:postcode":"LE13 0HW","addr:street":"Asfordby Road","capacity":"49","name":"Sysonby Acres Leisure Park"}}}