{"43066378":{"location":[51.5479514,-0.90643],"ct":"GB","tp":"CS","ts":"2022-03-25T19:47:41Z","tX":509,"tY":340,"tags":{"name":"Swiss Farm Touring and Camping","website":"https://swissfarmcamping.co.uk/"}},"43110579":{"location":[51.5497729,-0.9033595],"ct":"GB","tp":"CR","ts":"2009-10-25T11:31:01Z","tX":509,"tY":340,"tags":{"name":"Four Oaks"}},"59965403":{"location":[51.5480006,-0.8195891],"ct":"GB","tp":"CR","ts":"2024-05-02T14:43:48Z","tX":509,"tY":340,"tags":{"addr:postcode":"SL6 5NE","caravans":"yes","name":"Hurley Riverside Park","tents":"yes","website":"https://hurleyriversidepark.co.uk"}},"448727700":{"location":[51.4097577,-0.9753859],"ct":"GB","tp":"CR","ts":"2009-07-26T22:20:45Z","tX":509,"tY":340,"tags":{"name":"Mereoak Park","place":"hamlet"}},"579650629":{"location":[51.5492514,-0.804858],"ct":"GB","tp":"CR","ts":"2018-05-09T08:46:18Z","tX":509,"tY":340,"tags":{}},"586848182":{"location":[51.5529823,-0.8027531],"ct":"GB","tp":"CR","ts":"2024-09-25T05:02:59Z","tX":509,"tY":340,"tags":{}},"1043859567":{"location":[51.5471326,-0.906328],"ct":"GB","tp":"CR","ts":"2022-03-25T20:02:14Z","tX":509,"tY":340,"tags":{}},"1256843850":{"location":[51.4377705,-0.8082327],"ct":"GB","tp":"CS","ts":"2024-03-02T11:52:29Z","tX":509,"tY":340,"tags":{"caravans":"yes","landuse":"residential","static_caravans":"yes"}},"4248526395":{"location":[51.60397,-0.8428851],"ct":"GB","tp":"CS","ts":"2016-10-24T13:38:24Z","tX":509,"tY":340,"tags":{"addr:postcode":"RG9 6PS","name":"Chiltern retreat"}},"4424005214":{"location":[51.4030153,-0.8918248],"ct":"GB","tp":"CS","ts":"2016-09-29T18:18:04Z","tX":509,"tY":340,"tags":{"fixme":"check location","name":"Camping Berkshire","source":"seen on journey","website":"http://www.camping-berkshire.co.uk/"}},"8449871917":{"location":[51.4358586,-0.7473504],"ct":"GB","tp":"CS","ts":"2023-04-15T20:15:47Z","tX":509,"tY":340,"tags":{"addr:city":"Bracknell","addr:postcode":"RG42 6AJ","addr:street":"Forest Road","name":"Scotlands House Campsite","phone":"+447734488587","website":"https://www.scotlandshouse.co.uk/"}},"9653709327":{"location":[51.5602645,-0.8912221],"ct":"GB","tp":"CS","ts":"2022-04-09T11:45:25Z","tX":509,"tY":340,"tags":{"caravans":"no","dog":"no","name":"Embers Henley","operator":"Embers Camping","tents":"only","website":"https://www.emberscamping.co.uk/campsites/henley-oxfordshire/"}},"11724464484":{"location":[51.4672909,-0.7570989],"ct":"GB","tp":"CR","ts":"2024-03-12T12:45:26Z","tX":509,"tY":340,"tags":{}}}