{"32840734":{"location":[51.2813979,-0.7280453],"ct":"GB","tp":"CR","ts":"2024-07-12T10:21:14Z","tX":509,"tY":341,"tags":{"landuse":"residential","name":"Grove Farm Park Mobile Home Park"}},"36789974":{"location":[51.2858326,-0.7283528],"ct":"GB","tp":"CR","ts":"2024-07-12T10:21:14Z","tX":509,"tY":341,"tags":{"landuse":"residential","name":"Mytchett Farm (Mobile Home Park)"}},"152857816":{"location":[51.1953238,-0.7622319],"ct":"GB","tp":"CS","ts":"2023-04-21T20:30:56Z","tX":509,"tY":341,"tags":{"access":"private","landuse":"grass","name":"Garners Field Campsite","operator":"Farnham District Scouts"}},"183399645":{"location":[51.3691212,-0.8307925],"ct":"GB","tp":"CR","ts":"2023-10-25T00:27:47Z","tX":509,"tY":341,"tags":{"access":"private","barrier":"fence","name":"Heritage Club","nudism":"yes","tents":"yes","website":"https://www.heritageclub.org/"}},"193015137":{"location":[51.3790667,-0.8711482],"ct":"GB","tp":"CR","ts":"2019-09-29T15:40:46Z","tX":509,"tY":341,"tags":{"contact:website":"https://californiapark.webs.com/","name":"California Chalet & Touring Park","tents":"no"}},"234419578":{"location":[51.2646003,-0.7688133],"ct":"GB","tp":"CS","ts":"2023-10-16T12:01:10Z","tX":509,"tY":341,"tags":{"addr:city":"Aldershot","addr:postcode":"GU11 2RE","name":"Runways End Outdoor Centre","note":"Open to youth organisations. Must be pre booked.","operator":"Hampshire County Council","phone":"+44 1252 344421","source":"Bing 2012","website":"https://www3.hants.gov.uk/runwaysend.htm","wheelchair":"yes"}},"448728143":{"location":[51.3833873,-0.9817454],"ct":"GB","tp":"CR","ts":"2009-07-26T22:20:59Z","tX":509,"tY":341,"tags":{}},"510502497":{"location":[51.2573139,-0.9727428],"ct":"GB","tp":"CS","ts":"2023-08-27T11:43:50Z","tX":509,"tY":341,"tags":{"caravans":"yes","drinking_water":"yes","fee":"no","name":"Fox & Goose Campsite","source":"survey, bing","tents":"yes","website":"https://www.foxandgoosehampshire.co.uk/walking-trails-camping-facilities/"}},"630031312":{"location":[51.1840667,-1.0252422],"ct":"GB","tp":"CR","ts":"2018-10-02T20:54:49Z","tX":509,"tY":341,"tags":{}},"630031313":{"location":[51.1895851,-1.0291636],"ct":"GB","tp":"CR","ts":"2018-10-02T20:54:49Z","tX":509,"tY":341,"tags":{"operator":"Lasham Gliding Society"}},"682405922":{"location":[51.3837309,-0.8829885],"ct":"GB","tp":"CR","ts":"2010-04-18T18:44:25Z","tX":509,"tY":341,"tags":{"name":"Bluebell Farm (Caravan Club CL Site"}},"702555502":{"location":[51.2895338,-0.7194122],"ct":"GB","tp":"CR","ts":"2023-04-06T20:02:26Z","tX":509,"tY":341,"tags":{"name":"Basingstoke Canal Caravan and Camp Site","tents":"yes"}},"830770899":{"location":[51.3565784,-0.9489545],"ct":"GB","tp":"CS","ts":"2020-07-27T14:44:08Z","tX":509,"tY":341,"tags":{"name":"Wellington Country Park Campsite","operator":"Wellington Country Park"}},"993339932":{"location":[51.2463037,-0.8623163],"ct":"GB","tp":"CR","ts":"2021-10-16T21:22:38Z","tX":509,"tY":341,"tags":{"addr:housename":"Four Oaks","addr:postcode":"GU10 5RG","addr:street":"Crondall Road","name":"Four Oaks"}},"1156704442":{"location":[51.1969859,-0.7618308],"ct":"GB","tp":"CS","ts":"2023-04-25T17:17:59Z","tX":509,"tY":341,"tags":{"landuse":"grass","name":"Herons Wey Campsite","operator":"Girlguiding Surrey West County"}},"3402795690":{"location":[51.3200588,-0.876525],"ct":"GB","tp":"CR","ts":"2015-03-16T22:31:12Z","tX":509,"tY":341,"tags":{"source":"OS_OpenData_StreetView"}},"12052472193":{"location":[51.2202887,-0.7061234],"ct":"GB","tp":"CS","ts":"2024-07-14T06:23:15Z","tX":509,"tY":341,"tags":{"name":"Waggoners"}}}