{"10926187":{"location":[50.7398526,-0.788208],"ct":"GB","tp":"CR","ts":"2020-03-29T11:04:14Z","tX":509,"tY":343,"tags":{"name":"Green Lawns Caravan Park","operator":"Bunn Leisure"}},"13994340":{"location":[50.7866506,-1.0406633],"ct":"GB","tp":"CR","ts":"2019-03-01T19:29:32Z","tX":509,"tY":343,"tags":{"name":"Southsea Leisure Park","website":"https://www.southsealeisurepark.com"}},"27365554":{"location":[50.8237209,-0.7579841],"ct":"GB","tp":"CR","ts":"2018-05-17T17:26:23Z","tX":509,"tY":343,"tags":{"name":"Chichester Lakeside Park"}},"29023216":{"location":[50.7840749,-0.8391053],"ct":"GB","tp":"CR","ts":"2021-09-26T06:49:39Z","tX":509,"tY":343,"tags":{"name":"Bell Caravan Park"}},"29023459":{"location":[50.768504,-0.8510343],"ct":"GB","tp":"CR","ts":"2023-11-19T14:19:21Z","tX":509,"tY":343,"tags":{"addr:city":"Chichester","addr:country":"GB","addr:postcode":"PO20 8JG","addr:street":"Bracklesham Lane","addr:suburb":"Bracklesham Bay","name":"Holdens Caravan Park.","phone":"+44 1243 670207","static_caravans":"yes","website":"https://islandmeadow.co.uk/parks/holdens/"}},"29042157":{"location":[50.7583542,-0.8471574],"ct":"GB","tp":"CR","ts":"2023-04-01T15:57:24Z","tX":509,"tY":343,"tags":{"addr:city":"Chichester","addr:postcode":"PO20 8JP","addr:street":"East Bracklesham Drive","addr:suburb":"Bracklesham Bay","fhrs:authority":"Chichester","fhrs:id":"1536634","fhrs:local_authority_id":"22/00162/FOOD","internet_access":"no","name":"Bracklesham Caravan and Boat Club","power_supply":"yes","sanitary_dump_station":"yes"}},"29060216":{"location":[50.7372687,-0.809517],"ct":"GB","tp":"CR","ts":"2024-03-10T17:48:55Z","tX":509,"tY":343,"tags":{"name":"West Sands Caravan Park"}},"30452977":{"location":[50.7737441,-0.8760448],"ct":"GB","tp":"CS","ts":"2023-11-19T14:19:21Z","tX":509,"tY":343,"tags":{"addr:city":"Chichester","addr:country":"GB","addr:postcode":"PO20 8ED","addr:street":"Cakeham Road","addr:suburb":"East Wittering","capacity":"750","internet_access":"wlan","internet_access:fee":"no","name":"Scott\"s Farm Camping Site"}},"30453913":{"location":[50.7915296,-0.8537256],"ct":"GB","tp":"CR","ts":"2023-05-08T08:51:21Z","tX":509,"tY":343,"tags":{}},"94016762":{"location":[50.8133922,-0.9651786],"ct":"GB","tp":"CR","ts":"2024-09-12T02:26:41Z","tX":509,"tY":343,"tags":{"addr:city":"Hayling Island","name":"Tye Caravan Park","source":"bing"}},"102220819":{"location":[50.7456216,-0.7951379],"ct":"GB","tp":"CR","ts":"2024-09-09T20:43:08Z","tX":509,"tY":343,"tags":{"name":"Static Holiday Park"}},"105529528":{"location":[50.8107334,-0.9724217],"ct":"GB","tp":"CR","ts":"2020-08-16T10:30:00Z","tX":509,"tY":343,"tags":{"name":"Fleet Farm","wheelchair":"limited"}},"111201196":{"location":[50.7858733,-0.8926101],"ct":"GB","tp":"CR","ts":"2023-05-07T10:17:21Z","tX":509,"tY":343,"tags":{"level":"-1","name":"Walnut Tree Caravan Park"}},"111206572":{"location":[50.7827091,-0.8856371],"ct":"GB","tp":"CR","ts":"2024-04-19T10:47:24Z","tX":509,"tY":343,"tags":{"level":"-1","name":"Nunnington Farm Caravan and Camping"}},"111801993":{"location":[50.8027495,-0.7048997],"ct":"GB","tp":"CR","ts":"2021-08-21T23:12:38Z","tX":509,"tY":343,"tags":{}},"120437798":{"location":[50.8523234,-0.849338],"ct":"GB","tp":"CR","ts":"2023-06-19T16:06:07Z","tX":509,"tY":343,"tags":{"addr:city":"Chichester","addr:postcode":"PO18 8DL","addr:street":"Ratham Lane","addr:suburb":"West Ashling","fhrs:authority":"Chichester","fhrs:id":"773303","fhrs:local_authority_id":"15/00137/FOOD","name":"Concierge Camping"}},"129467156":{"location":[50.7852606,-0.9584343],"ct":"GB","tp":"CR","ts":"2024-05-16T20:14:25Z","tX":509,"tY":343,"tags":{"name":"Woodcot Holiday Park","source":"Bing"}},"129467176":{"location":[50.7822812,-0.9475349],"ct":"GB","tp":"CR","ts":"2021-01-26T11:02:22Z","tX":509,"tY":343,"tags":{"source":"Bing"}},"129467218":{"location":[50.7987803,-0.9797148],"ct":"GB","tp":"CS","ts":"2024-09-12T02:26:41Z","tX":509,"tY":343,"tags":{"access":"customers","addr:city":"Hayling Island","addr:postcode":"PO11 0QX","addr:street":"Manor Road","caravans":"yes","email":"info@theovencampsite.co.uk","fee":"yes","name":"The Oven Campsite","phone":"+44 23 9246 4695","static_caravans":"no","tents":"yes","website":"https://theovencampsite.co.uk/"}},"129467262":{"location":[50.783204,-0.9576041],"ct":"GB","tp":"CS","ts":"2024-09-12T02:26:41Z","tX":509,"tY":343,"tags":{"caravans":"yes","mobile":"+44 7852 340992","name":"Fishery Creek","phone":"+44 23 9246 2164","shower":"yes","source":"Bing","tents":"yes","toilets":"yes","website":"https://www.fisherycreekpark.co.uk"}},"129467286":{"location":[50.7967292,-0.9831946],"ct":"GB","tp":"CR","ts":"2024-09-12T02:26:41Z","tX":509,"tY":343,"tags":{"addr:city":"Hayling Island","addr:country":"GB","addr:postcode":"PO11 0QS","addr:street":"Manor Road","internet_access":"wlan","internet_access:fee":"customers","name":"Hayling Island Holiday Park","operator":"Meadow Bay Village","phone":"+44 23 9355 2796","power_supply":"yes","sanitary_dump_station":"no","website":"https://meadowbay.com/haylingisland/"}},"137198830":{"location":[50.7675194,-0.7489291],"ct":"GB","tp":"CR","ts":"2024-06-26T16:31:31Z","tX":509,"tY":343,"tags":{}},"142995946":{"location":[50.7769673,-0.8665813],"ct":"GB","tp":"CR","ts":"2011-12-28T03:09:27Z","tX":509,"tY":343,"tags":{}},"289136455":{"location":[50.7798553,-0.9010285],"ct":"GB","tp":"CR","ts":"2024-04-18T16:21:17Z","tX":509,"tY":343,"tags":{"name":"Snow Hill Caravan Site","source":"Bing"}},"290117305":{"location":[50.908699,-0.7170832],"ct":"GB","tp":"CR","ts":"2018-12-02T17:37:09Z","tX":509,"tY":343,"tags":{"name":"New House Farm","phone":"+44 1243 811685"}},"427946094":{"location":[50.85524,-0.831387],"ct":"GB","tp":"CR","ts":"2019-05-11T14:54:02Z","tX":509,"tY":343,"tags":{"name":"Ashling Lodge."}},"471111082":{"location":[50.7806768,-0.8389974],"ct":"GB","tp":"CR","ts":"2021-09-26T06:49:39Z","tX":509,"tY":343,"tags":{}},"471111423":{"location":[50.790563,-0.8249543],"ct":"GB","tp":"CR","ts":"2017-02-01T14:07:06Z","tX":509,"tY":343,"tags":{}},"488306709":{"location":[50.7880691,-0.7152714],"ct":"GB","tp":"CR","ts":"2017-04-20T18:00:06Z","tX":509,"tY":343,"tags":{}},"520801555":{"location":[50.7388466,-0.7947173],"ct":"GB","tp":"CR","ts":"2022-07-25T08:10:28Z","tX":509,"tY":343,"tags":{"name":"White Horse Caravan Park","operator":"Bunn Leisure"}},"520801571":{"location":[50.7399041,-0.8023415],"ct":"GB","tp":"CR","ts":"2020-10-11T20:50:07Z","tX":509,"tY":343,"tags":{"name":"Warner's Farm Touring Park","operator":"Bunn Leisure"}},"520802680":{"location":[50.7381034,-0.7962315],"ct":"GB","tp":"CR","ts":"2023-02-13T09:36:27Z","tX":509,"tY":343,"tags":{}},"520802684":{"location":[50.738261,-0.7978107],"ct":"GB","tp":"CR","ts":"2023-02-13T09:36:27Z","tX":509,"tY":343,"tags":{}},"597889783":{"location":[50.789252,-0.8717247],"ct":"GB","tp":"CR","ts":"2024-04-19T10:47:24Z","tX":509,"tY":343,"tags":{"addr:city":"Chichester","addr:postcode":"PO20 8QE","addr:street":"Redlands Lane","addr:suburb":"West Wittering","fhrs:authority":"Chichester","fhrs:id":"147722","fhrs:local_authority_id":"92/00683/FOOD","name":"Wicks Farm Holiday Park."}},"642802485":{"location":[50.839132,-0.8047326],"ct":"GB","tp":"CR","ts":"2023-08-15T16:18:37Z","tX":509,"tY":343,"tags":{"addr:city":"Chichester","addr:housename":"Applegarth","addr:postcode":"PO19 3JG","addr:street":"Clay Lane","capacity":"5","name":"Applegarth Camping and Caravaning","power_supply":"yes","sanitary_dump_station":"yes","website":"https://www.wakefords.co.uk/"}},"691520152":{"location":[50.7411573,-0.7886488],"ct":"GB","tp":"CR","ts":"2020-08-20T20:18:44Z","tX":509,"tY":343,"tags":{"name":"The Oaks","operator":"Bunns","surface":"grass"}},"754699190":{"location":[50.909449,-0.7753269],"ct":"GB","tp":"CS","ts":"2022-02-24T09:31:41Z","tX":509,"tY":343,"tags":{"access":"private","name":"West Dean Campsite","operator":"Chichester Scouts"}},"775810810":{"location":[50.9485947,-1.0106148],"ct":"GB","tp":"CS","ts":"2022-09-06T20:30:50Z","tX":509,"tY":343,"tags":{"access":"private","group_only":"yes","name":"1st Clanfield Scout Group","operator":"1st Clanfield Scout Group"}},"781508542":{"location":[50.8454185,-0.90277],"ct":"GB","tp":"CR","ts":"2023-05-21T07:20:52Z","tX":509,"tY":343,"tags":{"addr:city":"Emsworth","addr:postcode":"PO10 8JH","addr:street":"Main Road","addr:suburb":"Southbourne","fhrs:authority":"Chichester","fhrs:id":"1398033","fhrs:local_authority_id":"21/00248/FOOD","internet_access":"wlan","internet_access:fee":"customers","name":"Camping & Caravan Club Southbourne Site","power_supply":"yes","sanitary_dump_station":"yes"}},"893434851":{"location":[50.814492,-0.7941943],"ct":"GB","tp":"CS","ts":"2023-11-19T14:19:21Z","tX":509,"tY":343,"tags":{"access":"customers","addr:city":"Chichester","addr:country":"GB","addr:housename":"Manor Farm.","addr:postcode":"PO20 7PL","addr:suburb":"Donnington","camp_site":"basic","caravans":"no","fee":"yes","lit":"no","name":"Donnington Wild Camping.","operator":"Manor Farm.","surface":"grass","toilets":"customers"}},"1177465102":{"location":[50.816799,-0.8783673],"ct":"GB","tp":"CR","ts":"2023-05-30T06:10:37Z","tX":509,"tY":343,"tags":{"name":"Cobnor House Caravan and Camping"}},"1204205621":{"location":[50.8510727,-0.7517834],"ct":"GB","tp":"CR","ts":"2023-09-01T16:02:22Z","tX":509,"tY":343,"tags":{"name":"Swallow Beck CL"}},"1205708450":{"location":[50.7748269,-0.8574138],"ct":"GB","tp":"CR","ts":"2024-06-01T20:05:24Z","tX":509,"tY":343,"tags":{"addr:postcode":"PO20 8PJ","addr:street":"Stubcroft Lane","email":"mail@stubcroft.com","name":"Stubcroft Farm Campsite","phone":"+441243 671469","power_supply":"yes","sanitary_dump_station":"yes","website":"https://www.stubcroft.com/"}},"1212706402":{"location":[50.8068151,-0.9731161],"ct":"GB","tp":"CR","ts":"2023-10-03T09:45:28Z","tX":509,"tY":343,"tags":{"name":"Mill Rythe Creek"}},"1297374983":{"location":[50.7835757,-0.7912162],"ct":"GB","tp":"CS","ts":"2024-06-29T14:53:49Z","tX":509,"tY":343,"tags":{"surface":"grass"}},"1320340822":{"location":[50.801953,-0.9631544],"ct":"GB","tp":"CR","ts":"2024-10-03T08:37:03Z","tX":509,"tY":343,"tags":{"name":"Mill Rythe Coastal Village"}},"2936723979":{"location":[50.7838814,-0.7905664],"ct":"GB","tp":"CS","ts":"2014-06-28T10:25:32Z","tX":509,"tY":343,"tags":{"name":"Fieldgatecampsite","source":"http://fieldgatecampsite.wordpress.com"}},"10939012191":{"location":[50.8165022,-0.8788334],"ct":"GB","tp":"CS","ts":"2023-05-30T06:10:37Z","tX":509,"tY":343,"tags":{}},"10989015826":{"location":[50.8434948,-0.8728391],"ct":"GB","tp":"CS","ts":"2023-06-19T08:10:37Z","tX":509,"tY":343,"tags":{}},"10989015825":{"location":[50.8434508,-0.8731127],"ct":"GB","tp":"CR","ts":"2023-06-19T08:10:37Z","tX":509,"tY":343,"tags":{"name":"Orchard Farm"}}}