{"2320517":{"location":[49.0089069,-0.8590707],"ct":"FR","tp":"CS","ts":"2024-10-15T12:28:58Z","tX":509,"tY":351,"tags":{"addr:city":"Saint-Martin-des-Besaces","addr:housenumber":"2","addr:postcode":"14350","addr:street":"Rue Slaugham","capacity":"50","email":"info@sous-les-etoiles.camp","fee":"varies","internet_access":"wlan","leisure":"park","name":"Camping Sous Les Étoiles Normandie","operator":"Steve and Dawn Davis","operator:type":"private","payment:cash":"yes","payment:contactless":"yes","payment:credit_cards":"yes","payment:debit_cards":"yes","phone":"+33 6 37 87 99 53","stars":"2","website":"https://www.sous-les-etoiles.camp/","wheelchair":"yes"}},"183188117":{"location":[49.0288434,-0.9720648],"ct":"FR","tp":"CS","ts":"2020-12-23T10:32:24Z","tX":509,"tY":351,"tags":{"name":"Le Lac des Charmilles"}},"293913411":{"location":[48.9386859,-1.0341213],"ct":"FR","tp":"CS","ts":"2022-07-18T22:51:32Z","tX":509,"tY":351,"tags":{"caravans":"yes","contact:phone":"+33 2 31 68 32 06","contact:website":"https://www.pont-farcy.fr/commune/camping","fee":"yes","internet_access":"wlan","internet_access:fee":"yes","name":"Camping municipal de Pont-Farcy","opening_hours":"Apr 01-Sep 30","operator":"Commune de Pont-Farcy","power_supply":"yes","sanitary_dump_station":"customers","stars":"2","tents":"60"}},"404708908":{"location":[48.9867529,-1.0330498],"ct":"FR","tp":"CS","ts":"2024-07-08T11:06:23Z","tX":509,"tY":351,"tags":{"name":"Camping municipal"}},"419714925":{"location":[49.09123,-0.8158169],"ct":"FR","tp":"CR","ts":"2024-09-23T14:53:59Z","tX":509,"tY":351,"tags":{"caravan_site":"motorhome_stopover","caravan_site:type":"village","dog":"yes","drinking_water":"yes","fee":"no","name":"Aire de camping-car de Caumont-l’Eventé","picnic_area":"yes","sanitary_dump_station":"yes","surface":"asphalt","water_point":"yes","water_point:fee":"yes"}},"923342406":{"location":[49.0033655,-1.0477513],"ct":"FR","tp":"CR","ts":"2024-10-10T14:03:59Z","tX":509,"tY":351,"tags":{"addr:city":"DOMJEAN","addr:postcode":"50420","addr:street":"La Pallière","capacity":"6","caravan_site":"motorhome_stopover","caravan_site:type":"farm","drinking_water":"yes","email":"pallierefermedela@gmail.com","fee":"no","mobile":"+33 6 78826017","name":"aire de la Ferme de la Pallière","operator":"La Ferme de la Pallière","phone":"+33233563344","power_supply":"yes","product":"pork","reservation":"recommended","toilets":"no"}},"1284272539":{"location":[49.0518651,-1.0423598],"ct":"FR","tp":"CR","ts":"2024-05-18T01:12:31Z","tX":509,"tY":351,"tags":{"bbq":"no","capacity":"9","caravan_site":"motorhome_stopover","caravan_site:type":"village","caravans":"no","charge":"13.37 EUR","charge:conditional":"11.37 EUR @ (Oct-Apr)","dog":"leashed","fee":"yes","maxlength":"none","name":"Aire de Condé-sur-Vire","network":"CAMPING-CAR PARK","operator":"CAMPING-CAR PARK","power_supply":"yes","power_supply:capacity":"10","power_supply:fee":"no","power_supply:maxcurrent":"6","sanitary_dump_station":"yes","tents":"no","toilets":"yes","trailer":"no"}},"8265292438":{"location":[49.0912736,-0.8156244],"ct":"FR","tp":"SD","ts":"2020-12-27T22:48:08Z","tX":509,"tY":351,"tags":{"fee":"yes"}}}