{"170743187":{"location":[46.1150529,-0.927221],"ct":"FR","tp":"CS","ts":"2023-11-08T10:51:40Z","tX":509,"tY":363,"tags":{"addr:city":"Aigrefeuille-d'Aunis","addr:housenumber":"3","addr:postcode":"17290","addr:street":"Rue du Bois Gaillard","capacity:tents":"43","caravans":"yes","email":"contact@lataillee.com","name":"Camping la Taillée","phone":"+33 5 46 35 50 88","stars":"3","tents":"yes"}},"235337042":{"location":[46.3120105,-0.7334624],"ct":"FR","tp":"CS","ts":"2023-07-23T15:10:44Z","tX":509,"tY":363,"tags":{"capacity":"106","caravans":"yes","contact:phone":"+33 2 51 87 17 06","internet_access":"wlan","name":"Camping des Conches","source":"survey;Bing","stars":"3","tents":"yes","website":"https://www.camping-des-conches.fr/"}},"244127519":{"location":[46.079239,-0.7835239],"ct":"FR","tp":"CR","ts":"2024-09-18T00:51:22Z","tX":509,"tY":363,"tags":{"capacity":"8","caravan_site":"motorhome_stopover","caravan_site:type":"village","caravans":"no","charge":"6.60 EUR","fee":"yes","maxstay":"72 hours","name":"Aire Camping-car de Saint-Germain-de-Marencennes","opening_hours":"24/7","picnic_area":"yes","power_supply":"yes","sanitary_dump_station":"yes","sanitary_dump_station:chemical_toilet":"yes","sanitary_dump_station:grey_water":"yes","seasonal":"no","tents":"no","water_point":"yes","water_point:fee":"no","website":"https://www.saintpierrelanoue.fr/tourisme-patrimoine/l-aire-de-camping-car/14-l-aire-de-camping-car"}},"334514892":{"location":[46.0762435,-1.0348725],"ct":"FR","tp":"CS","ts":"2024-10-23T14:24:19Z","tX":509,"tY":363,"tags":{"capacity":"23","drinking_water":"yes","name":"Camping Le Moulin de la Pierre","power_supply":"yes","ref:FR:NAF":"5530Z","ref:FR:SIREN":"850189317","ref:FR:SIRET":"85018931700025","sauna":"yes","shower":"yes","source":"cadastre-dgi-fr source : Direction Générale des Impôts - Cadastre. Mise à jour : 2015","stars":"1","swimming_pool":"outdoor","toilets":"yes","website":"http://www.campinglemoulindelapierre.com/"}},"340142072":{"location":[46.2643563,-0.7136516],"ct":"FR","tp":"PK","ts":"2024-05-23T00:12:58Z","tX":509,"tY":363,"tags":{"motorhome":"yes","motorhome:overnight":"yes"}},"379505839":{"location":[46.1015761,-0.7529245],"ct":"FR","tp":"CS","ts":"2024-09-26T18:25:28Z","tX":509,"tY":363,"tags":{"name":"Camping de la Gères","ref:FR:NAF":"5530Z","ref:FR:SIREN":"809451826","ref:FR:SIRET":"80945182600014","source":"INSEE - 2024-09","stars":"3"}},"612775989":{"location":[46.3101202,-0.836477],"ct":"FR","tp":"CR","ts":"2024-07-02T12:06:16Z","tX":509,"tY":363,"tags":{"bbq":"no","camp_site":"basic","caravan_site":"motorhome_stopover","caravan_site:type":"river","caravans:conditional":"12.44 @ (Oct-Apr)","charge":"15.24 EUR","dog":"leashed","fee":"yes","internet_access":"wlan","name":"Aire Taugon","network":"CAMPING-CAR PARK","toilets":"yes","trailer":"yes","water_point":"yes","website":"https://www.campingcarpark.com/fr_FR/sejour/camping/nouvelle-aquitaine/17-charente-maritime/taugon"}},"756053166":{"location":[46.1774279,-1.0539284],"ct":"FR","tp":"CS","ts":"2023-04-10T21:38:26Z","tX":509,"tY":363,"tags":{"addr:city":"Dompierre-sur-Mer","addr:housenumber":"27","addr:postcode":"17139","addr:street":"Rue Jean-Pierre Pigot","capacity":"60","caravans":"yes","email":"contact@campingleverger17.com","internet_access":"wlan","internet_access:fee":"no","name":"Le Verger","opening_hours":"Jul 1-Aug 29","phone":"+33 5 46 34 91 00; +33 6 28 06 20 10","shower":"yes","stars":"2","tents":"yes","toilets":"yes","website":"https://www.campingleverger17.com/"}},"899475188":{"location":[46.2851451,-0.7430108],"ct":"FR","tp":"CS","ts":"2021-01-24T14:29:23Z","tX":509,"tY":363,"tags":{"name":"Le Lidon"}},"899475193":{"location":[46.2757661,-0.7199365],"ct":"FR","tp":"CR","ts":"2024-05-23T00:15:34Z","tX":509,"tY":363,"tags":{"caravan_site":"motorhome_stopover","caravan_site:type":"countryside","fee":"no","maxstay":"1 night","name":"Le Petit Buisson","picnic_area":"yes","power_supply":"no","sanitary_dump_station":"no","surface":"grass","tents":"no","water_point":"no","website":"https://www.niortmaraispoitevin.com/aires-camping-cars/aire-du-petit-buisson/"}},"908996617":{"location":[46.3130513,-0.9935563],"ct":"FR","tp":"CR","ts":"2023-12-23T11:12:07Z","tX":509,"tY":363,"tags":{"access":"yes","addr:city":"La Ronde","addr:postcode":"17170","addr:street":"Rue du Port","capacity":"20","caravan_site":"parking","caravan_site:type":"super_market","fee":"no","maxstay":"no","name":"Aire de camping-car Super U Marans","operator":"Ville de La Ronde","power_supply":"yes","sanitary_dump_station":"yes","sanitary_dump_station:chemical_toilet":"yes","sanitary_dump_station:grey_water":"yes","sanitary_dump_station:round_drain":"yes","supervised":"no","surface":"asphalt","water_point":"yes"}},"908998514":{"location":[46.3051481,-0.8046124],"ct":"FR","tp":"CR","ts":"2024-10-25T18:07:03Z","tX":509,"tY":363,"tags":{"access":"yes","addr:city":"La Ronde","addr:postcode":"17170","addr:street":"Rue du Port","capacity":"15","caravan_site":"motorhome_stopover","caravan_site:type":"forest","description":"Aire de camping-car, parking voiture SuperU","fee":"no","maxstay":"no","name":"Aire de camping-car de La Ronde","operator":"SuperU","picnic_table":"yes","power_supply":"yes","sanitary_dump_station":"yes","sanitary_dump_station:chemical_toilet":"yes","sanitary_dump_station:grey_water":"yes","sanitary_dump_station:round_drain":"yes","supervised":"no","surface":"grass","water_point":"yes","water_point:charge":"2 EUR","water_point:fee":"yes","website":"https://www.aunis-maraispoitevin.com/hebergements/5699790_aire-de-camping-car-de-la-ronde/"}},"1057909057":{"location":[46.3114006,-0.7335949],"ct":"FR","tp":"CR","ts":"2024-05-18T22:06:59Z","tX":509,"tY":363,"tags":{"capacity":"16","caravan_site":"motorhome_stopover","caravan_site:type":"river","caravans":"no","charge":"14.10 EUR","charge:conditional":"13.10 EUR@(Oct-Apr)","fee":"yes","internet_access":"wlan","internet_access:fee":"no","name":"Aire de Damvix","network":"CAMPING-CAR PARK","operator":"CampingCarPark.com","power_supply":"yes","power_supply:capacity":"17","power_supply:maxcurrent":"6","tents":"no","water_point":"yes","website":"https://www.campingcarpark.com/fr_FR/sejour/aire-etape-camping-car/pays-de-la-loire/85-vendee/damvix"}},"1087915077":{"location":[46.3014805,-0.8060799],"ct":"FR","tp":"CS","ts":"2024-07-31T14:19:24Z","tX":509,"tY":363,"tags":{"addr:city":"La Ronde","addr:postcode":"17170","description":"Un havre de paix ,paisible et familial ; un site naturiste qui allie retour à l essentiel et liberté dans le respect de tous.","email":"camping.naturisteduport@orange.fr","name":"Camping naturiste du port","nudism":"yes","phone":"+33546416558","stars":"2","website":"https://www.camping-naturiste-du-port.com/"}},"1233449140":{"location":[46.3129225,-1.0026145],"ct":"FR","tp":"CR","ts":"2023-12-23T02:28:47Z","tX":509,"tY":363,"tags":{"caravan_site":"parking","caravan_site:type":"parking_lot","fee":"no","name":"Aire Camping-Cars Gamm Vert Marans","opening_hours":"24/7","sanitary_dump_station":"yes","sidewalk":"as","water_point":"yes"}},"1233449145":{"location":[46.3148372,-0.9949883],"ct":"FR","tp":"PK","ts":"2024-09-21T00:00:18Z","tX":509,"tY":363,"tags":{"caravan_site":"motorhome_stopover","caravan_site:type":"canal","motorhome":"yes","parking":"surface"}},"1321445041":{"location":[46.2421207,-0.8062054],"ct":"FR","tp":"CR","ts":"2024-10-05T16:13:19Z","tX":509,"tY":363,"tags":{"addr:city":"Courçon","addr:postcode":"17170","addr:street":"Rue du Bourg","capacity":"5","caravan_site":"motorhome_stopover","caravan_site:type":"village","fee":"no","maxstay":"48 hours","name":"Aire de camping-car Courçon","operator":"Ville de Courçon","power_supply":"no","sanitary_dump_station":"yes","sanitary_dump_station:chemical_toilet":"yes","sanitary_dump_station:grey_water":"yes","sanitary_dump_station:round_drain":"yes","supervised":"no","water_point":"yes","website":"https://www.courcon.fr/sport-et-loisirs-2/aire-de-camping/"}},"3705791019":{"location":[46.2533849,-0.7559225],"ct":"FR","tp":"CS","ts":"2024-07-12T16:14:14Z","tX":509,"tY":363,"tags":{"caravans":"no","drinking_water":"yes","name":"Le village des toiles","phone":"+33 5 4 6671477","shower":"yes","tents":"yes","website":"http://lafrenaie.org/eco-camping-nature-marais-poitevin"}},"6726803790":{"location":[46.2407749,-0.8063896],"ct":"FR","tp":"CS","ts":"2019-08-20T14:04:40Z","tX":509,"tY":363,"tags":{"addr:city":"Courçon","addr:housenumber":"14","addr:postcode":"17170","addr:street":"Rue du Collège","name":"La Mouette Rieuse"}},"12158610653":{"location":[46.2130008,-0.7541433],"ct":"FR","tp":"CR","ts":"2024-10-25T18:04:52Z","tX":509,"tY":363,"tags":{"access":"yes","addr:city":"la Laigne","addr:postcode":"17170","addr:street":"Rue de l'Aunis","alt_name":"Aire de camping-car de La Laigne","capacity":"20","caravan_site":"motorhome_stopover","caravan_site:type":"parking_lot;village","description":"Aire de camping-car, parking voiture et camion","fee":"no","maxstay":"no","name":"Aire de repos de la Laigne","operator":"Ville de La Laigne","sanitary_dump_station":"yes","sanitary_dump_station:chemical_toilet":"yes","sanitary_dump_station:grey_water":"yes","sanitary_dump_station:round_drain":"yes","supervised":"no","toilets":"yes","water_point":"yes","website":"https://www.aunis-maraispoitevin.com/hebergements/5699751_aire-de-camping-car-de-la-laigne/"}},"6819168520":{"location":[46.2646804,-0.8751565],"ct":"FR","tp":"SD","ts":"2024-09-21T14:06:40Z","tX":509,"tY":363,"tags":{}},"8437871252":{"location":[46.2130362,-0.7538486],"ct":"FR","tp":"SD","ts":"2024-10-25T18:04:52Z","tX":509,"tY":363,"tags":{"access":"yes","fee":"no","operator":"Ville de La Laigne","sanitary_dump_station:chemical_toilet":"yes","sanitary_dump_station:grey_water":"yes","sanitary_dump_station:round_drain":"yes","water_point":"yes"}},"8437917653":{"location":[46.2417348,-0.8057363],"ct":"FR","tp":"SD","ts":"2021-11-20T14:40:26Z","tX":509,"tY":363,"tags":{"description":"Station de vidange pour Camping-car.","fee":"no","operator":"Ville de Courçon","sanitary_dump_station:chemical_toilet":"yes","sanitary_dump_station:grey_water":"yes","sanitary_dump_station:round_drain":"yes","water_point":"yes"}},"8440178141":{"location":[46.3132341,-0.9933087],"ct":"FR","tp":"SD","ts":"2021-11-20T14:40:26Z","tX":509,"tY":363,"tags":{"description":"Station de vidange pour Camping-car.","fee":"no","operator":"SuperU","sanitary_dump_station:chemical_toilet":"yes","sanitary_dump_station:grey_water":"yes","sanitary_dump_station:round_drain":"yes","water_point":"yes"}},"8440216022":{"location":[46.3051602,-0.8048228],"ct":"FR","tp":"SD","ts":"2024-10-25T18:07:03Z","tX":509,"tY":363,"tags":{"access":"yes","fee":"no","operator":"Ville de La Ronde","sanitary_dump_station:chemical_toilet":"yes","sanitary_dump_station:grey_water":"yes","sanitary_dump_station:round_drain":"yes","water_point":"yes"}},"9720665456":{"location":[46.3115971,-0.7335623],"ct":"FR","tp":"SD","ts":"2022-05-06T14:13:58Z","tX":509,"tY":363,"tags":{"access":"customers","fee":"no","operator":"CampingCarPark.com"}},"12182947407":{"location":[46.078927,-0.7828577],"ct":"FR","tp":"SD","ts":"2024-09-18T00:51:22Z","tX":509,"tY":363,"tags":{"access":"yes","fee":"no","sanitary_dump_station:chemical_toilet":"yes","sanitary_dump_station:grey_water":"yes","water_point":"yes"}},"12189970729":{"location":[46.2695282,-0.8713257],"ct":"FR","tp":"SD","ts":"2024-09-21T14:06:40Z","tX":509,"tY":363,"tags":{"access":"yes"}}}