{"91653793":{"location":[45.5717595,-0.8949972],"ct":"FR","tp":"CS","ts":"2021-06-29T08:38:39Z","tX":509,"tY":366,"tags":{"name":"La Ferme de Chez Filleux"}},"91679706":{"location":[45.5466006,-0.8890402],"ct":"FR","tp":"CS","ts":"2019-08-15T07:51:38Z","tX":509,"tY":366,"tags":{"addr:city":"Arces","addr:postcode":"17120","addr:street":"Le Coudinier","capacity":"50","email":"contact@campingfdc.com","fax":"+33 5 46 97 64 45","fee":"yes","name":"Camping Fleurs des Champs","phone":"+33 5 46 90 40 11","stars":"3","tents":"no","website":"http://www.campingfdc.com/"}},"91712615":{"location":[45.5629511,-0.9364496],"ct":"FR","tp":"CS","ts":"2013-05-24T20:09:24Z","tX":509,"tY":366,"tags":{"name":"Camping La Grange"}},"91735239":{"location":[45.5582552,-0.9460056],"ct":"FR","tp":"CS","ts":"2024-10-02T10:07:37Z","tX":509,"tY":366,"tags":{"addr:city":"Meschers-sur-Gironde","addr:housenumber":"33","addr:postcode":"17132","addr:street":"Allée de la Longée","email":"info@camping-soleillevant.com","name":"Camping Le Soleil levant","phone":"+33 5 46 02 76 62","ref:FR:SIRET":"39073265900011","stars":"4","website":"https://www.camping-soleillevant.com/"}},"91736980":{"location":[45.5658986,-0.948907],"ct":"FR","tp":"CS","ts":"2024-10-30T21:46:18Z","tX":509,"tY":366,"tags":{"email":"contact@camping-escale.fr","fax":"+33 5 46 02 58 30","internet_access":"wlan","name":"L'Escale","phone":"+33 5 46 02 71 53","stars":"2","website":"http://www.camping-escale.fr/"}},"93541537":{"location":[45.5824212,-0.9847273],"ct":"FR","tp":"CS","ts":"2020-06-30T19:33:09Z","tX":509,"tY":366,"tags":{"addr:city":"Saint-Georges-de-Didonne","addr:housenumber":"2","addr:postcode":"17110","addr:street":"Avenue de Suzac","cabins":"yes","caravans":"yes","internet_access":"wlan","internet_access:fee":"yes","name":"Camping du Bois Soleil","phone":"+33 5 46 05 05 94","power_supply":"yes","stars":"5","tents":"yes","website":"https://www.bois-soleil.com/"}},"101525525":{"location":[45.5297635,-0.8809738],"ct":"FR","tp":"CS","ts":"2024-10-06T16:14:05Z","tX":509,"tY":366,"tags":{"addr:city":"Barzan","addr:housenumber":"298 B","addr:postcode":"17120","addr:street":"Route Verte","name":"La Baie de Chant Dorat","phone":"+33 5 46 90 43 95","ref:FR:NAF":"5530Z","ref:FR:SIREN":"914773437","ref:FR:SIRET":"91477343700019","source":"cadastre-dgi-fr source : Direction Générale des Impôts - Cadastre. Mise à jour : 2011","stars":"2","website":"https://www.camping-baiedechandorat.fr/"}},"103004581":{"location":[45.5018126,-0.8362289],"ct":"FR","tp":"CS","ts":"2024-09-17T16:18:44Z","tX":509,"tY":366,"tags":{"capacity":"55","name":"Camping Municipal Le Port","website":"https://www.guide-charente-maritime.com/fr/tourisme/se-loger/camping/campings-mobil-homes/chenac-saint-seurin-d-uzet-434/camping-municipal-le-port-9150.html"}},"104033671":{"location":[45.5264559,-0.8732932],"ct":"FR","tp":"CS","ts":"2020-09-06T17:50:39Z","tX":509,"tY":366,"tags":{"addr:city":"Barzan","addr:housenumber":"220","addr:postcode":"17120","addr:street":"route verte","email":"campingbellevue2@wanadoo.fr","fee":"yes","name":"Camping Bellevue","phone":"+33 5 46 90 45 91","power_supply":"yes","stars":"2","website":"https://campingbellevue17.com/fr/"}},"104072283":{"location":[45.5722702,-0.9605874],"ct":"FR","tp":"CS","ts":"2022-05-01T16:43:53Z","tX":509,"tY":366,"tags":{"name":"Le Birat"}},"104072285":{"location":[45.5611958,-0.9469262],"ct":"FR","tp":"CS","ts":"2024-09-21T12:04:16Z","tX":509,"tY":366,"tags":{"addr:city":"Meschers-sur-Gironde","addr:housenumber":"74","addr:postcode":"17132","addr:street":"Route de Talmont","name":"Camping Les Ribes","phone":"+33 5 46 02 71 41","stars":"4"}},"104072289":{"location":[45.5660024,-0.9581673],"ct":"FR","tp":"CS","ts":"2024-10-04T14:17:24Z","tX":509,"tY":366,"tags":{"name":"Camping les Chênes Verts","ref:FR:NAF":"5530Z","ref:FR:SIREN":"385273859","ref:FR:SIRET":"38527385900020","source":"INSEE - 2024-10","stars":"2"}},"164251879":{"location":[45.5832441,-0.9770748],"ct":"FR","tp":"CS","ts":"2023-09-02T12:16:45Z","tX":509,"tY":366,"tags":{"cabins":"yes","caravans":"yes","name":"Camping Paradis Océan Vacances","stars":"4","static_caravans":"yes","tents":"no","website":"https://www.oceanvacances.com/"}},"217696844":{"location":[45.5666972,-0.9699591],"ct":"FR","tp":"CS","ts":"2024-05-24T13:46:25Z","tX":509,"tY":366,"tags":{"addr:city":"Meschers-sur-Gironde","addr:housenumber":"30","addr:postcode":"17132","addr:street":"Boulevard des Plages","capacity":"62","caravans":"yes","fee":"yes","internet_access":"wlan","name":"GCU Meschers","operator":"Groupement des Campeurs Universitaires","phone":"+33 5 46 02 57 02","sanitary_dump_station":"customers","static_caravans":"no","tents":"yes","website":"https://www.gcu.asso.fr/terrains/meschers-charente-maritime-17","wheelchair":"limited"}},"217696845":{"location":[45.5770782,-0.9806716],"ct":"FR","tp":"CS","ts":"2023-10-25T08:33:45Z","tX":509,"tY":366,"tags":{"addr:city":"Meschers-sur-Gironde","addr:housenumber":"116","addr:postcode":"17132","addr:street":"Boulevard de Suzac","caravans":"no","email":"info@campinglepinfranc.com","name":"Le Pin Franc","phone":"+33 5 46 05 31 96","stars":"2","static_caravans":"yes","tents":"no","website":"https://www.campinglepinfranc.com/"}},"237567794":{"location":[45.5490897,-0.8289293],"ct":"FR","tp":"CS","ts":"2017-08-29T15:29:14Z","tX":509,"tY":366,"tags":{"name":"La clef des Champs"}},"269505478":{"location":[45.5696107,-0.9699734],"ct":"FR","tp":"CS","ts":"2014-03-27T09:49:11Z","tX":509,"tY":366,"tags":{}},"336561061":{"location":[45.5605331,-0.9633624],"ct":"FR","tp":"CS","ts":"2015-04-03T22:07:23Z","tX":509,"tY":366,"tags":{"name":"Camping de la Plage","phone":"+335 45 91 88 62","stars":"2","website":"http://www.camping-plage-meschers.com/"}},"336561063":{"location":[45.5599337,-0.9610309],"ct":"FR","tp":"CS","ts":"2024-10-04T14:17:33Z","tX":509,"tY":366,"tags":{"email":"campinglesnonnes@hotmail.com","fax":"+335 46 02 72 81","name":"Les Nonnes","phone":"+335 46 02 72 81","ref:FR:NAF":"5530Z","ref:FR:SIREN":"343159828","ref:FR:SIRET":"34315982800023","source":"INSEE - 2024-10","stars":"2","website":"https://www.camping-les-nonnes.com/"}},"336561065":{"location":[45.5610036,-0.9625348],"ct":"FR","tp":"CS","ts":"2023-10-25T08:47:24Z","tX":509,"tY":366,"tags":{"email":"contact@camping-des-sables.com","fax":"+33 5 46 02 75 77","name":"Les Sables","phone":"+33 5 46 02 75 77","stars":"2","website":"https://www.camping-des-sables.com/"}},"364182314":{"location":[45.4790444,-1.0419204],"ct":"FR","tp":"CS","ts":"2022-10-19T19:22:57Z","tX":509,"tY":366,"tags":{"contact:email":"contact@camping-lariviere.fr","contact:phone":"+336 26 50 02 04","name":"Camping la Riviere","website":"https://www.camping-lariviere.fr/"}},"373782517":{"location":[45.5710388,-0.9571352],"ct":"FR","tp":"CS","ts":"2024-10-04T14:17:12Z","tX":509,"tY":366,"tags":{"name":"La Plénitude","ref:FR:NAF":"5530Z","ref:FR:SIREN":"818551186","ref:FR:SIRET":"81855118600013","source":"INSEE - 2024-10"}},"418774877":{"location":[45.3987643,-1.0485557],"ct":"FR","tp":"CS","ts":"2024-10-07T23:44:54Z","tX":509,"tY":366,"tags":{"contact:city":"Vensac","contact:housenumber":"15","contact:phone":"+33 5 56 09 45 98","contact:postcode":"33590","contact:street":"Route du Moulin","name":"Camping Vieux Moulin - 3 étoiles en Gironde","opening_hours":"Mo-Su 09:00-12:00, 14:00-18:00","toilets:wheelchair":"yes","website":"https://www.campingduvieuxmoulin.fr/","wheelchair":"yes"}},"540739472":{"location":[45.3818735,-0.7228074],"ct":"FR","tp":"CS","ts":"2022-03-02T10:17:11Z","tX":509,"tY":366,"tags":{"addr:city":"Saint-Thomas-de-Conac","addr:housenumber":"3","addr:postcode":"17150","addr:street":"route de l'estuaire","camp_site":"standard","email":"info@lestuaire.com","name":"Camping l'Estuaire","phone":"+33 5 46 86 08 20","stars":"4","website":"https://www.lestuaire.com/"}},"691035907":{"location":[45.4316798,-0.7521826],"ct":"FR","tp":"CS","ts":"2024-10-12T14:29:42Z","tX":509,"tY":366,"tags":{"addr:city":"Saint-Fort-sur-Gironde","addr:housenumber":"8","addr:postcode":"17240","addr:street":"Rue de Chassillac","email":"bourdieu.jean-luc@wanadoo.fr","name":"Camping Port Maubert","phone":"+33 5 46 04 78 86","ref:FR:NAF":"5530Z","ref:FR:SIREN":"451246524","ref:FR:SIRET":"45124652400024","source":"INSEE - 2024-10","stars":"2","website":"https://www.campingportmaubert.com"}},"699698789":{"location":[45.557384,-0.9475259],"ct":"FR","tp":"CR","ts":"2024-10-08T15:45:50Z","tX":509,"tY":366,"tags":{"capacity":"30","caravan_site":"motorhome_stopover","caravan_site:type":"harbour","caravans":"no","charge":"11.50 EUR","fee":"yes","name":"Aire de Camping-Car de Meschers","opening_hours":"24/7","power_supply":"yes","sanitary_dump_station":"yes","seasonal":"no","tents":"no","water_point":"yes","website":"https://www.royanatlantique.fr/aires-camping-car/car-park-services-meschers-sur-gironde/"}},"713867438":{"location":[45.4791512,-0.79081],"ct":"FR","tp":"CS","ts":"2023-04-14T17:13:03Z","tX":509,"tY":366,"tags":{"addr:city":"Mortagne-sur-Gironde","addr:housenumber":"3","addr:postcode":"17120","addr:street":"Rue Bel Air","contact:mobile":"+33 6 42 01 17 62","email":"camping@mortagnesurgironde.fr","fee":"yes","name":"Camping municipal Bel Air","operator":"Municipal","phone":"+33 5 46 91 48 84","stars":"2","static_caravans":"no","tents":"yes","website":"https://www.mortagne-sur-gironde.fr/en-vacances-a-mortagne-sur-gironde/en-vacances-a-mortagne-sur-gironde-camping/"}},"1097469466":{"location":[45.5614634,-0.9633448],"ct":"FR","tp":"CS","ts":"2022-09-24T11:41:25Z","tX":509,"tY":366,"tags":{"name":"Camping de la Plage","phone":"+335 45 91 88 62","stars":"2","website":"http://www.camping-plage-meschers.com/"}},"1232722254":{"location":[45.4309743,-1.0360327],"ct":"FR","tp":"CR","ts":"2023-12-20T16:56:35Z","tX":509,"tY":366,"tags":{"caravan_site":"parking_lot","caravan_site:type":"village","caravans":"no","fee":"no","name":"Camping Municipal Saint-Vivien-de-Médoc","tents":"no","water_point":"yes"}},"1238176045":{"location":[45.4916626,-0.7875233],"ct":"FR","tp":"CR","ts":"2024-10-23T20:34:30Z","tX":509,"tY":366,"tags":{"caravan_site":"motorhome_stopover","caravan_site:type":"winery","check_in":"19:30","check_in:conditional":"17:30 @ (Nov-Mar)","fee":"no","name":"Domain Imbert","seasonal":"no","tents":"yes","website":"https://domaine-imbert.fr/accueil-camping-car-et-toile-de-tente-v2/"}},"1316182610":{"location":[45.4760888,-0.793422],"ct":"FR","tp":"CR","ts":"2024-09-17T15:51:01Z","tX":509,"tY":366,"tags":{"capacity":"70","caravan_site":"motorhome_stopover","caravan_site:type":"harbour","charge":"9.90 EUR","fee":"yes","internet_access":"no","name":"Aire Port de Mortagne-sur-Gironde","opening_hours":"24/7","picnic_area":"yes","power_supply":"yes","sanitary_dump_station":"yes","sanitary_dump_station:chemical_toilet":"yes","sanitary_dump_station:grey_water":"yes","seasonal":"no","water_point":"yes","website":"https://www.royanatlantique.fr/aires-camping-car/aire-municipale-de-stationnement-du-port-mortagne-sur-gironde/"}},"1316187221":{"location":[45.5010382,-0.8350202],"ct":"FR","tp":"CR","ts":"2024-10-05T16:10:48Z","tX":509,"tY":366,"tags":{"caravan_site":"motorhome_stopover","caravan_site:type":"harbour","fee":"yes","name":"Aire camping-car Chenac-Saint-Seurin-d'Uzet","note":"services temporarily out of order. Might be closed.","website":"http://www.chenacsaintseurinduzet.fr/fr/information/39867/aire-camping-cars"}},"6711526409":{"location":[45.4688783,-0.7781562],"ct":"FR","tp":"CS","ts":"2024-07-17T00:02:35Z","tX":509,"tY":366,"tags":{"addr:city":"Mortagne-sur-Gironde","addr:postcode":"17120","addr:street":"La Gravelle","description":"Gîte et camping dans une ferme bio, Accueil Paysan, Accueil Vélo.","email":"contact@lagravelle.com","name":"Camping à la ferme de la Gravelle","phone":"+33 9 71 47 02 91","website":"https://lagravelle.com/"}},"6711545011":{"location":[45.5144138,-0.8066442],"ct":"FR","tp":"CS","ts":"2024-09-17T16:18:44Z","tX":509,"tY":366,"tags":{"addr:city":"Chenac Saint Seurin d'Uzet","addr:housenumber":"110","addr:postcode":"17120","addr:street":"Route du pineau","email":"camping17120@gmail.com","name":"Camping Maison Cochain","phone":"+33 5 46 90 46 20","website":"https://maison-cochain.com/"}},"8772326827":{"location":[45.4754236,-0.7988315],"ct":"FR","tp":"SD","ts":"2021-05-27T11:38:33Z","tX":509,"tY":366,"tags":{"fee":"yes","operator":"Mairie de Mortagne-Sur-Gironde","water_point":"yes"}},"12181965372":{"location":[45.5461535,-1.0541511],"ct":"FR","tp":"SD","ts":"2024-09-17T11:23:16Z","tX":509,"tY":366,"tags":{"access":"yes","capacity":"2"}}}