{"12762397":{"location":[43.7013278,-1.0143324],"ct":"FR","tp":"CS","ts":"2024-04-30T15:23:22Z","tX":509,"tY":373,"tags":{"access":"customers","addr:housenumber":"33-40","addr:street":"Rue Alphonse Daudet","capacity":"52","caravans":"yes","contact:city":"Narrosse","contact:housenumber":"33-40","contact:postcode":"40180","fee":"yes","internet_access":"wlan","internet_access:fee":"customers","name":"Camping Le Vieux Platane","phone":"+33 5 58 74 20 75","ref:FR:CRTA":"HPAAQU04001WBDS2","stars":"2","tents":"yes","website":"https://www.camping-levieuxplatane.com/"}},"307501004":{"location":[43.7113734,-1.0103821],"ct":"FR","tp":"CS","ts":"2024-04-30T15:19:16Z","tX":509,"tY":373,"tags":{"addr:housenumber":"170","addr:street":"Route de Candresse","name":"Camping Lacrouzade","phone":"+33 5 58 90 11 14","ref:FR:CRTA":"HPAAQU04001WBF2M","website":"https://camping-lacrouzade.fr/"}},"307501006":{"location":[43.7088712,-1.020634],"ct":"FR","tp":"CS","ts":"2024-04-30T15:20:50Z","tX":509,"tY":373,"tags":{"addr:housenumber":"160","addr:street":"Route des Braous","name":"Aire naturelle Lanotte","phone":"+33 5 58 74 09 99","ref:FR:CRTA":"HPAAQU040FS0001D"}},"307501026":{"location":[43.7165926,-1.0137059],"ct":"FR","tp":"CS","ts":"2024-04-30T15:33:57Z","tX":509,"tY":373,"tags":{"addr:housenumber":"903","addr:street":"Route de Saint-Vincent-de-Paul","caravans":"yes","name":"Aire naturelle de camping La Grange","phone":"+33 6 87 33 89 53","ref:FR:CRTA":"HPAAQU04001WBDRO","static_caravans":"no"}},"515264029":{"location":[43.7587489,-0.7547525],"ct":"FR","tp":"CS","ts":"2017-09-05T15:45:36Z","tX":509,"tY":373,"tags":{"fee":"yes","name":"Camping de la Saucille"}},"632136684":{"location":[43.7639939,-0.8953616],"ct":"FR","tp":"CS","ts":"2024-06-28T07:50:40Z","tX":509,"tY":373,"tags":{"access":"customers","addr:city":"Louer","addr:country":"FR","addr:housenumber":"790","addr:postcode":"40380","addr:street":"Route de Laubanère","email":"camping.e.l@orange.fr","name":"Camping L'Étang de Laubanère","operator":"08:00-12:00,15:00-20:00","phone":"+33 5 58 57 25 53","ref:FR:CRTA":"HPAAQU04001WBDQ1","source":"Réseau SIRTAQUI - Comité Régional de Tourisme d'Aquitaine - www.sirtaqui-aquitaine.com - 08/2018","stars":"3","website":"https://www.etang-de-laubanere.com/"}},"632167159":{"location":[43.762574,-0.8963983],"ct":"FR","tp":"CS","ts":"2023-04-01T09:56:13Z","tX":509,"tY":373,"tags":{"addr:city":"Louer","addr:country":"FR","addr:housenumber":"737","addr:postcode":"40380","addr:street":"Route de Laubanère","contact:facebook":"www.facebook.com/camping.entrelesthermes.louer","email":"entrelesthermes@wanadoo.fr","name":"Camping Entre les Thermes","phone":"+33 5 58 57 21 26","ref:FR:CRTA":"HPAAQU040V50BILP","source":"Réseau SIRTAQUI - Comité Régional de Tourisme d'Aquitaine - www.sirtaqui-aquitaine.com - 08/2018","website":"https://www.camping-entrelesthermes-louer.fr"}},"671512596":{"location":[43.7463135,-0.9942237],"ct":"FR","tp":"CS","ts":"2024-04-30T15:13:49Z","tX":509,"tY":373,"tags":{"addr:city":"Saint-Vincent-de-Paul","addr:housenumber":"848","addr:postcode":"40990","addr:street":"Rue du Pouy","bbq":"yes","cabins":"yes","caravans":"yes","fee":"yes","motor_vehicle":"yes","name":"Les Jardins de l'Adour","phone":"+33 5 58 89 99 60","ref:FR:CRTA":"HPAAQU04001WBDQI","stars":"4","swimming_pool":"yes","tents":"yes","washing_machine":"yes","website":"https://www.camping-jardinsdeladour.fr/","wheelchair":"yes"}},"842153140":{"location":[43.7962691,-0.9633517],"ct":"FR","tp":"CS","ts":"2023-11-06T18:33:34Z","tX":509,"tY":373,"tags":{"name":"Le Petit Pontbiel","website":"https://www.petitpontbiel.com/"}},"895943853":{"location":[43.7141612,-1.0492861],"ct":"FR","tp":"CR","ts":"2024-07-22T13:41:41Z","tX":509,"tY":373,"tags":{"capacity":"6","caravan_site":"motorhome_stopover","caravan_site:type":"parking_lot:town","caravans":"no","drinking_water":"yes","fee":"no","maxstay":"72 hours","motorhome":"designated","name":"Aire de camping-cars Dax","operator":"Ville de Dax","power_supply":"yes","ref:FR:CRTA":"ACCAMAQU0400001R","sanitary_dump_station":"yes","sanitary_dump_station:chemical_toilet":"yes","sanitary_dump_station:grey_water":"yes","seasonal":"no","shower":"no","source":"Réseau SIRTAQUI - Comité Régional de Tourisme d'Aquitaine - www.sirtaqui-aquitaine.com - 06/2016","surface":"asphalt","tents":"no","toilets":"no","water_point":"yes","website":"https://www.tourismelandes.com/aire-camping-car/aire-de-camping-cars-dax-accamaqu0400001r/"}},"896081041":{"location":[43.6282676,-0.8287693],"ct":"FR","tp":"CR","ts":"2024-05-12T15:30:51Z","tX":509,"tY":373,"tags":{"access":"yes","addr:city":"Pomarez","addr:housenumber":"137-139","addr:postcode":"40360","addr:street":"Avenue de la Course Landaise","capacity":"7","caravan_site":"motorhome_stopover","caravan_site:type":"sports_centre;village","description":"Aire ouverte toute l'année, cependant fermée pour le marché local entre Dimanche 19h et Lundi 14h","dog":"yes","fee":"no","maxstay":"72 hours","name":"Aire de camping-car Pomarez","operator":"Ville de Pomarez","power_supply":"no","power_supply:charge":"10 EUR/12 hours","sanitary_dump_station":"yes","sanitary_dump_station:chemical_toilet":"yes","sanitary_dump_station:grey_water":"yes","seasonal":"no","surface":"gravel","tents":"no","water_point":"yes","water_point:charge":"3 EUR/100 liter","water_point:fee":"yes","website":"https://www.tourismelandes.com/aire-camping-car/aire-de-camping-car-accamaqu0400000h/"}},"1228874762":{"location":[43.7338976,-1.0344771],"ct":"FR","tp":"CR","ts":"2024-05-17T23:53:47Z","tX":509,"tY":373,"tags":{"access":"customers","bbq":"no","capacity":"49","caravan_site":"motorhome_stopover","caravan_site:type":"town","caravans":"no","charge":"16.40 EUR","dog":"leashed","fee":"yes","internet_access":"wlan","maxlength":"none","name":"Aire Camping-Car Park de Saint-Paul-lès-Dax","network":"CAMPING-CAR PARK","power_supply":"yes","power_supply:maxcurrent":"6","power_supply:socket":"cee_17_blue","power_supply:voltage":"230","sanitary_dump_station":"customers","sanitary_dump_station:chemical_toilet":"yes","sanitary_dump_station:grey_water":"yes","seasonal":"no","shower":"no","surface":"fine_gravel","tents":"no","toilets":"no","trailer":"no","water_point":"customers","website":"https://www.campingcarpark.com/fr_FR/sejour/aire-etape-camping-car/nouvelle-aquitaine/40-landes/saint-paul-les-dax","wikimedia_commons":"File:Aire Camping-Car Park de Saint-Paul-lès-Dax.jpg"}},"1282189353":{"location":[43.7557147,-0.9043246],"ct":"FR","tp":"CR","ts":"2024-05-12T15:02:34Z","tX":509,"tY":373,"tags":{"addr:city":"Préchacq-les-Bains","addr:housenumber":"328","addr:postcode":"40465","addr:street":"Chemin de Chourron","capacity":"12","caravan_site":"motorhome_stopover","caravan_site:type":"farm_shop","charge":"15 EUR","contact:email":"fermecoumet@gmail.com","contact:housenumber":"328","fee":"yes","mobile":"+33 7 61 75 67 90","name":"Ferme Coumet-Aire naturelle","operator":"Aurélie Lalanne","payment:cards":"yes","payment:cash":"yes","payment:cheque":"yes","phone":"+33 7 61 75 67 90","power_supply":"yes","reservation":"yes","sanitary_dump_station":"yes","seasonal":"no","water_point":"yes","website":"https://www.fermecoumet.fr/accueil"}},"1284871154":{"location":[43.5891814,-0.7432348],"ct":"FR","tp":"CR","ts":"2024-05-20T13:43:38Z","tX":509,"tY":373,"tags":{"capacity":"16","caravan_site":"motorhome_stopover","caravan_site:type":"village","caravans":"no","charge":"14.38 EUR","charge:conditional":"11.78 EUR @ (Oct 15-Apr 30)","dog":"yes","fee":"yes","internet_access":"wlan","maxlength":"9","name":"Aire de Amou","network":"CAMPING-CAR PARK","opening_hours":"24/7","operator":"CAMPING CAR-PARK","power_supply":"yes","power_supply:capacity":"16","power_supply:maxcurrent":"6","sanitary_dump_station":"yes","tents":"no","trailer":"yes","water_point":"yes","website":"https://www.campingcarpark.com/fr_FR/sejour/aire-etape-camping-car/nouvelle-aquitaine/40-landes/amou"}},"1323449878":{"location":[43.7125137,-0.9319549],"ct":"FR","tp":"CR","ts":"2024-10-12T16:59:16Z","tX":509,"tY":373,"tags":{"capacity":"2","caravan_site":"motorhome_stopover","caravan_site:type":"farm_shop","name":"La ferme Eslous","network":"France Passion","product":"foie gras","ref:FR:CRTA":"ACCAMAQU040V50BOX8","source":"Réseau SIRTAQUI - Comité Régional de Tourisme d'Aquitaine - www.sirtaqui-aquitaine.com - 08/2018","website":"http://www.ferme-eslous.fr"}},"5878560625":{"location":[43.6521061,-0.8998497],"ct":"FR","tp":"CS","ts":"2018-09-03T13:03:11Z","tX":509,"tY":373,"tags":{"name":"Camping à la ferme Lagareste","ref:FR:CRTA":"HPAAQU040FS0000O","source":"Réseau SIRTAQUI - Comité Régional de Tourisme d'Aquitaine - www.sirtaqui-aquitaine.com - 08/2018"}},"6045977520":{"location":[43.6882982,-1.0392701],"ct":"FR","tp":"CS","ts":"2021-06-13T01:45:34Z","tX":509,"tY":373,"tags":{"addr:housenumber":"20","addr:street":"Route des Chasseurs","name":"Camping à la ferme l'Orée du Bois","phone":"+33 6 77 78 20 48","ref:FR:CRTA":"HPAAQU040FS0000P","source":"Réseau SIRTAQUI - Comité Régional de Tourisme d'Aquitaine - www.sirtaqui-aquitaine.com - 08/2018","website":"https://www.campingdeloreedubois.fr/"}},"8408864000":{"location":[43.761564,-0.8652695],"ct":"FR","tp":"CS","ts":"2023-04-28T12:51:11Z","tX":509,"tY":373,"tags":{"access":"permissive","capacity":"6","capacity:caravans":"8","caravans":"yes","contact:email":"accueil@gites-de-france-landes.com","contact:housenumber":"1242","contact:phone":"+33 5 58 98 92 90","contact:street":"Route des Chênes","dog":"yes","fee":"yes","name":"Camping La ferme Bizençon","operator":"Monsieur Francis CADILLON","payment:cash":"yes","payment:cheque":"yes","website":"http://www.chalosse.fr/dormir/camping/94/Camping-La-ferme-Bizen%C3%A7on.html","wheelchair":"no"}},"11506764683":{"location":[43.7266732,-0.8356369],"ct":"FR","tp":"CS","ts":"2024-01-10T20:33:27Z","tX":509,"tY":373,"tags":{"addr:street":"Chemin la Partence","caravans":"yes","contact:email":"camping.lapartence@orange.fr","contact:housenumber":"300","contact:phone":"+33 5 58 98 52 50","dog":"yes","name":"Camping La Partence","tents":"yes","website":"http://www.lapartence.fr/"}},"6316683327":{"location":[43.6204585,-0.8653996],"ct":"FR","tp":"CR","ts":"2024-10-12T15:00:20Z","tX":509,"tY":373,"tags":{"caravan_site":"motorhome_stopover","caravan_site:type":"farm_shop","fee":"no","name":"La ferme du Grand Castagnet","network":"France Passion","ref:FR:CRTA":"ACCAMAQU040V506T4A","source":"Réseau SIRTAQUI - Comité Régional de Tourisme d'Aquitaine - www.sirtaqui-aquitaine.com - 08/2018"}},"6755781156":{"location":[43.6261941,-0.7792391],"ct":"FR","tp":"CR","ts":"2024-10-12T14:58:22Z","tX":509,"tY":373,"tags":{"caravan_site":"motorhome_stopover","caravan_site:type":"farm_shop","name":"Aire de camping-car à la ferme du Vieux Bourg (réseau France Passion)","product":"sausages","ref:FR:CRTA":"ACCAMAQU040V506T4G","source":"Réseau SIRTAQUI - Comité Régional de Tourisme d'Aquitaine - www.sirtaqui-aquitaine.com - 08/2018","website":"https://fermevieuxbourg.com/"}},"8482918904":{"location":[43.7493113,-0.7584247],"ct":"FR","tp":"CR","ts":"2024-10-08T17:30:39Z","tX":509,"tY":373,"tags":{"access":"yes","addr:city":"Mugron","addr:housenumber":"149","addr:postcode":"40250","addr:street":"Route de Pontonx","capacity":"4","caravan_site":"motorhome_stopover","caravan_site:type":"farm_shop","contact:email":"contact@lafermedufoiegras.fr","contact:housenumber":"149","contact:street":"Route de Pontonx","fee":"no","mobile":"+33 6 75 50 95 42","name":"France passion : Ferme du foie gras","operator":"Joël et Benoît Cabanne","phone":"+33 5 58 97 70 30","sanitary_dump_station":"no","toilets":"yes","website":"https://www.lafermedufoiegras.com/"}},"9681907594":{"location":[43.7498232,-0.7161256],"ct":"FR","tp":"CR","ts":"2024-05-12T15:21:46Z","tX":509,"tY":373,"tags":{"addr:city":"Nerbis","addr:housenumber":"335","addr:postcode":"40250","addr:street":"route de Larrey","caravan_site":"motorhome_stopover","caravan_site:type":"farm_shop","email":"ferme.larrey@gmail.com","fee":"no","internet_access":"no","name":"Aire de camping-car - Ferme Larrey","operator":"Madame et Monsieur Aline et Eric Forsanx","phone":"+33 7 70 01 68 52","product":"foie gras","sanitary_dump_station":"yes","website":"http://www.ferme-larrey.com"}},"9682069900":{"location":[43.709263,-0.7139849],"ct":"FR","tp":"CR","ts":"2024-10-08T17:29:45Z","tX":509,"tY":373,"tags":{"caravan_site":"motorhome_stopover","caravan_site:type":"farm_,shop","contact:housenumber":"130","contact:street":"Route du Haza","description":"Durée de stationnement : 24h","email":"contact@ferme-du-haza.fr","fee":"no","internet_access":"no","name":"Ferme du Haza","phone":"+33 5 58 97 72 35","power_supply":"no","sanitary_dump_station":"no","website":"https://www.ferme-du-haza.fr/"}},"9682103933":{"location":[43.7252615,-0.7490739],"ct":"FR","tp":"CR","ts":"2024-10-08T17:29:45Z","tX":509,"tY":373,"tags":{"addr:city":"Saint-Aubin","addr:housenumber":"385","addr:postcode":"40250","addr:street":"Route de Beyries","caravan_site":"motorhome_stopover","caravan_site:type":"farm_shop","contact:housenumber":"385","contact:street":"Route de Beyries","email":"foiegras-hautpouyet@orange.fr","internet_access":"no","name":"France Passion : Ferme du Haut Pouyet","phone":"+33 6 07 72 20 67","power_supply":"yes","sanitary_dump_station":"no","website":"https://www.foiegras-hautpouyet.com"}},"11020936016":{"location":[43.6102573,-0.9915429],"ct":"FR","tp":"CR","ts":"2024-09-18T12:02:26Z","tX":509,"tY":373,"tags":{"bbq":"no","capacity":"30","caravan_site":"motorhome_stopover","caravan_site:type":"village","charge":"14.58 EUR","charge:conditional":"12.58 EUR@(Oct-May)","dog":"leashed","fee":"yes","maxlength":"9","name":"Camping-car Park Pouillon","network":"CAMPING-CAR PARK","operator":"CAMPING-CAR PARK","power_supply":"yes","power_supply:capacity":"26","power_supply:fee":"no","power_supply:maxcurrent":"6","sanitary_dump_station":"customers","trailer":"yes","water_point":"yes","website":"https://www.campingcarpark.com/fr_FR/sejour/camping/nouvelle-aquitaine/40-landes/pouillon"}},"8328239093":{"location":[43.7140097,-1.0491827],"ct":"FR","tp":"SD","ts":"2021-01-24T18:15:14Z","tX":509,"tY":373,"tags":{"description":"Station de vidange pour Camping-car","fee":"no","operator":"Ville de Dax","sanitary_dump_station:chemical_toilet":"yes","sanitary_dump_station:grey_water":"yes"}},"8329560687":{"location":[43.6282935,-0.8284424],"ct":"FR","tp":"SD","ts":"2024-05-13T00:50:41Z","tX":509,"tY":373,"tags":{"access":"yes","fee":"no","motorhome":"designated","operator":"Ville de Pomarez","sanitary_dump_station:chemical_toilet":"yes","sanitary_dump_station:grey_water":"yes","water_point":"yes"}},"8408737631":{"location":[43.7553163,-0.9024356],"ct":"FR","tp":"SD","ts":"2021-02-09T14:47:51Z","tX":509,"tY":373,"tags":{"access":"permissive","charge":"2 EUR","fee":"yes","operator":"Aurélie Lalanne","payment:cards":"yes","payment:cash":"yes","payment:cheque":"yes","water_point":"yes"}},"11018828204":{"location":[43.7340479,-1.0350195],"ct":"FR","tp":"SD","ts":"2023-12-05T15:55:49Z","tX":509,"tY":373,"tags":{"access":"customers","name":"Saint-Paul-lès-Dax"}}}