{"364390740":{"location":[42.8321543,-0.7087712],"ct":"ES","tp":"CS","ts":"2024-12-25T12:58:05Z","tX":509,"tY":376,"tags":{"name":"Campamento Ramiro el Monje","website":"https://www.ecoaventurapirineos.com/alquiler-de-instalaciones"}},"817144162":{"location":[42.8349538,-0.7117632],"ct":"ES","tp":"CS","ts":"2020-06-18T08:34:33Z","tX":509,"tY":376,"tags":{"addr:street":"Carretera Hecho a Selva de Oza","email":"campingselvadeoza@gmail.com","name":"Camping Selva de Oza","phone":"+34 974 565 515","website":"https://camping-selvadeoza.com/"}},"845489714":{"location":[42.9008255,-0.8826274],"ct":"ES","tp":"CS","ts":"2024-08-06T08:20:56Z","tX":509,"tY":376,"tags":{"access":"yes","bar":"yes","caravans":"yes","check_date":"2024-08-06","description":"Is open, checked on 2024-08-06 (despite website says it is not).","email":"info@asolazecamping.com","name":"Asolaze kanpina","name:es":"Camping Asolaze","name:eu":"Asolaze kanpina","operator":"Asolaze berria SL","phone":"+34 948 89 32 34","tents":"yes","website":"https://asolazecamping.com/","wheelchair":"designated"}},"1115473419":{"location":[42.9012985,-0.8832232],"ct":"ES","tp":"SD","ts":"2022-11-19T11:44:54Z","tX":509,"tY":376,"tags":{"access":"permit","operator":"Asolaze berria SL","water_point":"yes"}},"1279694601":{"location":[42.8587946,-0.9245454],"ct":"ES","tp":"CR","ts":"2024-05-04T16:45:53Z","tX":509,"tY":376,"tags":{"caravan_site":"motorhome_stopover","caravan_site:type":"village","fee":"no","name":"Area Autocaravanas Isaba/Izabako","name:es":"Area Autocaravanas Isaba","opening_hours":"24/7","power_supply":"no","sanitary_dump_station":"yes","tents":"no","water_point":"yes"}},"1282003682":{"location":[42.9790857,-0.7485374],"ct":"FR","tp":"CR","ts":"2024-05-11T18:06:29Z","tX":509,"tY":376,"tags":{"caravan_site":"motorhome_stopover","caravan_site:type":"ski_resort","charge":"16.60 EUR","charge:conditional":"12.60 @ (May-Nov)","fee":"yes","internet_access":"wlan","name":"Aire Arette - La pierre Saint Martin","network":"AirePark","opening_hours":"24/7","power_supply":"yes","reservation":"yes","sanitary_dump_station":"yes","surface":"asphalt","website":"https://www.aireparkreservation.com/aires-camping-cars/nouvelle-aquitaine/pyrenees-atlantique/arette-la-pierre-saint-martin"}},"1296617260":{"location":[42.9290036,-0.8533534],"ct":"ES","tp":"CS","ts":"2024-06-27T12:04:58Z","tX":509,"tY":376,"tags":{"access":"permit","capacity:persons":"40","caravans":"no","email":"txamantxoia@itakaescolapios.org","fee":"yes","name":"Albergue Txamantxoia","operator":"Escolapios","shower":"yes","static_caravans":"no","tents":"no","toilets":"yes"}},"1323300335":{"location":[43.017234,-0.9519514],"ct":"FR","tp":"CS","ts":"2024-07-13T06:54:02Z","tX":509,"tY":376,"tags":{"email":"lysianefilhol@sfr.fr","internet_access":"wlan","internet_access:fee":"no","name":"Ixtila","phone":"+33 5 59 28 63 09","stars":"2","website":"https://www.camping-ixtila.fr/"}},"1336086010":{"location":[43.0368449,-1.0493759],"ct":"FR","tp":"CS","ts":"2024-08-07T06:08:40Z","tX":509,"tY":376,"tags":{"backcountry":"yes","bar":"no","caravans":"yes","internet_access":"no","name":"Camping d'Iraty","swimming_pool":"no","tents":"yes","website":"http://www.chalets-iraty.com/bungalow-meleze-1-2-3-et-4/"}},"1336086059":{"location":[43.015674,-0.8585176],"ct":"FR","tp":"CS","ts":"2023-11-03T20:28:04Z","tX":509,"tY":376,"tags":{"addr:city":"Sainte-Engrace","email":"errecarret.maryse@wanadoo.fr","name":"Camping Ibarra","phone":"+33 5 59 28 73 59","postal_code":"64560","website":"https://www.ibarra-chantina.com/"}},"8933804622":{"location":[43.0681735,-0.8768239],"ct":"FR","tp":"CS","ts":"2021-07-19T18:57:22Z","tX":509,"tY":376,"tags":{"name":"Licq HÃ´tel"}}}