{"203432506":{"location":[42.4299109,-0.9972527],"ct":"ES","tp":"CS","ts":"2023-10-16T19:12:19Z","tX":509,"tY":378,"tags":{"caravans":"yes","email":"info@pigalo.es","name":"Camping del Pigalo","phone":"+34876035476","tents":"yes","website":"https://pigalo.es"}},"525940763":{"location":[42.335263,-0.7435915],"ct":"ES","tp":"CS","ts":"2023-12-08T22:01:35Z","tX":509,"tY":378,"tags":{"addr:city":"Murillo de Gállego","addr:country":"ES","addr:postcode":"22808","cabins":"yes","caravans":"yes","dog":"leashed","email":"armalygal@gmail.com","fee":"yes","fridge":"yes","name":"Camping Armalygal","phone":"+34 974 38 30 05","power_supply":"yes","stars":"2","tents":"yes","website":"https://www.armalygal-camping.com/"}},"1170258504":{"location":[42.3549785,-0.797428],"ct":"ES","tp":"CS","ts":"2023-05-08T15:41:08Z","tX":509,"tY":378,"tags":{"addr:city":"Agüero","alt_name":"Camping Peña Sola","caravans":"yes","dog":"yes","fee":"yes","name":"Camping Agüero","opening_hours":"Jan-Dec","phone":"+34 974 383 143","playground":"yes","power_supply":"yes","swimming_pool":"yes","tents":"yes"}},"10756292071":{"location":[42.3875603,-0.9384805],"ct":"ES","tp":"CR","ts":"2024-04-19T19:38:55Z","tX":509,"tY":378,"tags":{"capacity":"8","caravan_site":"motorhome_stopover","name":"Area de Autocaravanas, Biel","sanitary_dump_station":"yes","water_point":"yes"}}}