{"3932448":{"location":[58.9288631,14.3359684],"ct":"SE","tp":"CS","ts":"2024-08-20T08:50:36Z","tX":552,"tY":303,"tags":{"access":"yes","capacity":"104","contact:email":"camp.skagern@telia.com","contact:phone":"+46 506 33040","contact:website":"http://caravanclub.se/","dog":"yes","internet_access":"wlan","name":"Caravan Club Skagern","operator":"Caravan Club of Sweden","power_supply:maxcurrent":"10","source:info":"caravanclub.se","wheelchair":"yes"}},"362161715":{"location":[58.9094431,14.2887578],"ct":"SE","tp":"CR","ts":"2015-08-12T13:07:23Z","tX":552,"tY":303,"tags":{"addr:city":"Hova","addr:country":"SE","addr:postcode":"54891","fee":"yes","internet_access":"wlan","internet_access:fee":"yes","name":"Otterbergets Bad & Camping","organisation":"ACSI; SCR","power_supply":"yes","sanitary_dump_station":"yes","tents":"yes"}},"9927870169":{"location":[58.8495325,14.128917],"ct":"SE","tp":"CR","ts":"2023-07-23T06:27:30Z","tX":552,"tY":303,"tags":{"addr:city":"Lyrestad","addr:postcode":"54893","addr:street":"Råglanda Lindhagen","capacity:caravans":"3","charge":"200 SEK","ele":"100","email":"Buchung@lindhagens-jordbruk.se","fee":"yes","image":"https://cdn1.park4night.com/images/prettyPhoto/default/sprite_y.png","name":"Lindhagens Jordbruk","payment:american_express":"yes","payment:cash":"yes","payment:credit_cards":"yes","payment:diners_club":"yes","payment:mastercard":"yes","payment:visa":"yes","phone":"+46723978537","power_supply":"yes","reservation":"yes","source":"local knowledge","toilets":"no","website":"https://wordpress.lindhagens-jordbruk.se/worum-es-hier-geht/angebote/stellplatz-fuer-dein-wohnmobil-bei-deinem-urlaub-in-schweden/"}},"12387950558":{"location":[58.9880939,14.0960493],"ct":"SE","tp":"CS","ts":"2024-12-01T11:25:24Z","tX":552,"tY":303,"tags":{"access":"yes","addr:city":"Gullspång","capacity:caravans":"20","caravans":"yes","charge":"160 SEK","fee":"yes","name":"Göta Holme ställplats","operator":"Gullspång kommun"}}}