{"177227748":{"location":[55.9752149,14.4087316],"ct":"SE","tp":"CS","ts":"2014-08-18T19:32:57Z","tX":552,"tY":318,"tags":{"email":"info@landonscamping.se","name":"Landöns Camping","phone":"+46 44 57076","website":"http://landonscamping.se/"}},"203596701":{"location":[56.110315,14.384663],"ct":"SE","tp":"CS","ts":"2024-08-11T10:47:05Z","tX":552,"tY":318,"tags":{"caravans":"yes","contact:email":"reception@ivo-camping.nu","contact:phone":"+46 44 52188","contact:website":"http://ivo-camping.nu/","drinking_water":"yes","name":"Ivö Camping","power_supply":"yes","shower":"yes","tents":"yes"}},"296910992":{"location":[56.0199497,14.1266137],"ct":"SE","tp":"CS","ts":"2018-09-03T11:48:11Z","tX":552,"tY":318,"tags":{"addr:city":"Kristianstad","addr:country":"SE","addr:housenumber":"98","addr:postcode":"291 62","addr:street":"Slättängsvägen","caravans":"yes","email":"info@charlottsborgsvandrarhem.com","fax":"+46 44 200278","internet_access":"wlan","internet_access:fee":"no","name":"Charlottsborgs Camping-Vandrarhem","phone":"+46 44 210767","stars":"2","tents":"yes","website":"http://www.charlottsborgsvandrarhem.com/"}},"1370122594":{"location":[56.1027816,14.3870208],"ct":"SE","tp":"CS","ts":"2024-08-09T16:49:54Z","tX":552,"tY":318,"tags":{"access":"private","capacity":"125","caravans":"yes","contact:email":"sondremark@caravanclub.se","contact:fax":"+46 44 52094","contact:phone":"+46 44 52094","contact:website":"http://caravanclub.se/","dog":"yes","internet_access":"wlan","name":"Caravan Club Söndremark","power_supply:maxcurrent":"10","source:info":"caravanclub.se","source:location":"survey","tents":"yes","wheelchair":"yes"}}}