{"83526546":{"location":[55.381719,14.1291571],"ct":"SE","tp":"CS","ts":"2023-05-12T16:44:07Z","tX":552,"tY":321,"tags":{"addr:city":"Löderup","addr:country":"SE","addr:housenumber":"64","addr:postcode":"27177","addr:street":"Östänvägen","caravans":"yes","fax":"+46 411 52 66 13","motorhome":"yes","name":"Löderups Strandbads camping","phone":"+46 411 14 111","tents":"yes","toilets":"yes","website":"https://www.loderupscamping.se/"}},"83560181":{"location":[55.4343969,14.2313532],"ct":"SE","tp":"CS","ts":"2025-01-01T18:45:35Z","tX":552,"tY":321,"tags":{"caravans":"yes","email":"info@borrbystrandscamping.com","name":"Borrby strands camping","phone":"+46-411-521260","sanitary_dump_station":"yes","tents":"yes","website":"https://www.borrbystrandscamping.com/"}},"334429184":{"location":[55.5549888,14.3546043],"ct":"SE","tp":"PK","ts":"2024-07-09T06:26:42Z","tX":552,"tY":321,"tags":{"motorhome":"yes","motorhome:overnight":"yes","parking":"surface","surface":"asphalt"}},"334429300":{"location":[55.5695931,14.337466],"ct":"SE","tp":"CS","ts":"2023-05-12T16:38:33Z","tX":552,"tY":321,"tags":{"cabins":"yes","camp_site":"serviced","caravans":"yes","email":"info@fritidosterlen.se","fee":"yes","name":"Tobisviks Camping","operator":"Fritid Österlen AB","phone":"+46-0414 - 41 27 70","tents":"yes","website":"https://tobisvikscamping.se/"}},"1290099943":{"location":[55.4906061,14.3069833],"ct":"SE","tp":"CR","ts":"2024-06-06T20:52:19Z","tX":552,"tY":321,"tags":{"capacity":"30","caravan_site":"motorhome_stopover","caravan_site:type":"farm","charge":"150 SEK","fee":"yes","name":"Ställplats Hammarlunda","power_supply":"yes","power_supply:capacity":"30","sanitary_dump_station":"yes","seasonal":"no","toilets":"yes","water_point":"yes"}},"4271602498":{"location":[55.5680335,14.3375475],"ct":"SE","tp":"SD","ts":"2016-06-29T14:07:06Z","tX":552,"tY":321,"tags":{}},"5765855331":{"location":[55.3913653,14.1099885],"ct":"SE","tp":"CR","ts":"2024-06-06T15:48:26Z","tX":552,"tY":321,"tags":{"bbq":"yes","caravan_site":"motorhome_stopover","caravan_site:type":"beach","caravans":"yes","check_out":"14:00","fee":"yes","name":"Solans Mack","phone":"+46 732469494","power_supply:capacity":"40","sanitary_dump_station":"yes","sanitary_dump_station:chemical_toilet":"yes","sanitary_dump_station:grey_water":"yes","shower":"yes","toilets":"yes","water_point":"yes","website":"https://test.solans.se/stallplatser/"}},"11961657405":{"location":[55.4916425,14.1113698],"ct":"SE","tp":"CR","ts":"2024-06-06T22:44:42Z","tX":552,"tY":321,"tags":{"caravan_site":"motorhome_stopover","caravan_site:type":"guest_house","name":"B&B Hannasa Gard","power_supply":"yes"}},"4448464184":{"location":[55.38337,14.06337],"ct":"SE","tp":"SD","ts":"2017-09-23T18:46:13Z","tX":552,"tY":321,"tags":{"access":"yes","addr:place":"Kåseberga","boat":"yes","fee":"no","opening_hours":"24/7","sanitary_dump_station:accepted":"black_water","sanitary_dump_station:pump-out":"yes","seamark:small_craft_facility:category":"pump-out","seamark:type":"small_craft_facility","vehicle":"no","waterway":"sanitary_dump_station","website":"https://hamnkartan.azurewebsites.net"}},"4448464489":{"location":[55.5606549,14.3505186],"ct":"SE","tp":"SD","ts":"2023-09-20T09:21:06Z","tX":552,"tY":321,"tags":{"access":"customers","addr:place":"Simrishamn Marina","boat":"yes","fee":"yes","opening_hours":"24/7","payment:cash":"no","payment:online_payment":"yes","sanitary_dump_station:accepted":"black_water","sanitary_dump_station:pump-out":"yes","seamark:small_craft_facility:category":"pump-out","seamark:type":"small_craft_facility","vehicle":"no","waterway":"sanitary_dump_station","website":"https://hamnkartan.azurewebsites.net"}}}