{"26508095":{"location":[53.9618735,14.1521309],"ct":"DE","tp":"CS","ts":"2022-12-12T18:23:40Z","tX":552,"tY":328,"tags":{"addr:city":"Heringsdorf","addr:housenumber":"10a","addr:postcode":"17424","addr:street":"Triftstraße","caravans":"yes","contact:website":"https://www.mobilcamp-heringsdorf.de/","name":"Mobilcamp","tents":"no"}},"37436928":{"location":[53.9878125,14.1118502],"ct":"DE","tp":"CR","ts":"2022-12-12T22:20:09Z","tX":552,"tY":328,"tags":{"addr:city":"Heringsdorf","addr:country":"DE","addr:housenumber":"1","addr:postcode":"17429","addr:street":"Am Heuberg","addr:suburb":"Bansin","barrier":"fence","capacity":"80","contact:website":"https://ostsee-camping-bansin.de/","ele":"11","fee":"yes","internet_access":"no","name":"Waldparkplatz Bansin","operator":"KDK-Camping GbR","phone":"+49 38378 29248","power_supply":"yes","sanitary_dump_station":"yes","tents":"no"}},"280214565":{"location":[54.005072,14.0888077],"ct":"DE","tp":"CS","ts":"2024-01-03T16:04:44Z","tX":552,"tY":328,"tags":{"addr:city":"Ückeritz","addr:housenumber":"1","addr:postcode":"17459","addr:street":"Auf dem Campingplatz","cabins":"yes","caravans":"yes","contact:phone":"+49 38375 20923","name":"Naturcampingplatz \"Am Strand\"","tents":"yes","website":"https://www.campingplatz-ueckeritz.de/","wikidata":"Q56244360"}},"422008048":{"location":[53.9648007,14.1358342],"ct":"DE","tp":"CR","ts":"2017-03-23T16:08:52Z","tX":552,"tY":328,"tags":{"addr:city":"Heringsdorf","addr:country":"DE","addr:postcode":"17429","addr:street":"Gartenweg","addr:suburb":"Bansin","capacity":"5","fee":"yes","name":"Stellplatz Labahn","power_supply":"yes"}},"1080906913":{"location":[53.9655842,14.1365987],"ct":"DE","tp":"CR","ts":"2022-12-12T19:50:28Z","tX":552,"tY":328,"tags":{"addr:city":"Heringsdorf","addr:country":"DE","addr:housenumber":"30","addr:postcode":"17429","addr:street":"Seestraße","addr:suburb":"Bansin","capacity":"17","email":"info@caravan-bansin.de","fax":"+49 38378 33290","fee":"yes","internet_access":"wlan","internet_access:fee":"yes","name":"Stellplatz Wille Bansin","operator":"Jürgen Wille","phone":"+49 38378 34507","power_supply":"yes","sanitary_dump_station":"yes","tents":"no","water_point":"yes","website":"https://www.promobil.de/stellplatz/stellplatz-juergen-wille-588f1daa721d54a52815dcd9.html"}},"1203943135":{"location":[53.9583388,14.0898294],"ct":"DE","tp":"CS","ts":"2023-08-31T13:42:50Z","tX":552,"tY":328,"tags":{"addr:city":"Heringsdorf","addr:country":"DE","addr:housenumber":"17a","addr:postcode":"17429","addr:street":"Sellin","addr:suburb":"Sellin","contact:phone":"+49 152 338 83226","contact:website":"https://www.nandalee-camping.de/","fee":"yes","name":"Nandalee Camping","note":"Naturcamping am Schmollensee","tents":"yes"}},"1324173627":{"location":[53.9594829,14.1566761],"ct":"DE","tp":"CR","ts":"2015-02-20T13:51:19Z","tX":552,"tY":328,"tags":{"capacity":"3","fee":"yes","name":"Stellplatz Blasendorff","power_supply":"yes"}},"1369049537":{"location":[53.9684725,14.1367174],"ct":"DE","tp":"CR","ts":"2017-03-23T16:08:28Z","tX":552,"tY":328,"tags":{"addr:city":"Heringsdorf","addr:country":"DE","addr:housenumber":"60 A","addr:postcode":"17429","addr:street":"Seestraße","addr:suburb":"Bansin","fee":"yes","name":"Stellplatz Knüppel","power_supply":"yes"}},"5645203111":{"location":[53.9887141,14.1128272],"ct":"DE","tp":"SD","ts":"2018-05-27T05:23:30Z","tX":552,"tY":328,"tags":{"operator":"Waldparkplatz","water_point":"yes"}}}