{"96701896":{"location":[53.4043384,14.1182488],"ct":"DE","tp":"CS","ts":"2025-05-10T11:22:08Z","tX":552,"tY":331,"tags":{"addr:city":"Brüssow","addr:country":"DE","addr:housenumber":"17a","addr:postcode":"17326","addr:street":"Prenzlauer Straße","name":"Campingplatz Brüssow","phone":"+49 160 6 555 333","tents":"yes","website":"https://ls-camping.de/"}},"232717950":{"location":[53.530185,14.0936621],"ct":"DE","tp":"CS","ts":"2021-07-16T18:01:02Z","tX":552,"tY":331,"tags":{"addr:city":"Krugsdorf","addr:housenumber":"4","addr:postcode":"17309","addr:street":"Seeweg","fee":"yes","name":"Zeltplatz Krugsdorf","operator":"Erhard Rutz","phone":"+49 175 4027812","source":"http://www.krugsdorf-zeltplatz.de/","website":"http://www.krugsdorf-zeltplatz.de/"}},"384655027":{"location":[53.4493506,14.2206588],"ct":"DE","tp":"CS","ts":"2025-01-30T10:20:34Z","tX":552,"tY":331,"tags":{"addr:city":"Löcknitz","addr:country":"DE","addr:housenumber":"6a","addr:postcode":"17321","addr:street":"Friedrich-Engels-Straße","email":"info@campingplatz-waldblick.de","name":"Campingplatz „Waldblick“","website":"https://www.campingplatz-waldblick.de/"}},"5857156865":{"location":[53.521289,14.3012613],"ct":"DE","tp":"CS","ts":"2025-01-29T23:35:37Z","tX":552,"tY":331,"tags":{"addr:city":"Blankensee","addr:country":"DE","addr:housenumber":"71","addr:postcode":"17322","addr:street":"Dorfstraße","capacity":"30","internet_access":"wlan","internet_access:ssid":"emma","name":"Zaubermondhof Camp","operator":"Kalanke","website":"http://zaubermondhof.de/"}}}