{"148431293":{"location":[52.7010812,14.4084757],"ct":"DE","tp":"PK","ts":"2024-12-03T17:37:43Z","tX":552,"tY":334,"tags":{"addr:city":"Letschin","addr:country":"DE","addr:housenumber":"11","addr:postcode":"15324","addr:street":"Straße der Freundschaft","addr:suburb":"Groß Neuendorf","capacity":"10","fee":"no","internet_access":"no","motorhome":"yes","parking":"surface","power_supply":"yes","smoking":"yes","wheelchair":"yes"}},"280345299":{"location":[52.8125892,14.1549332],"ct":"DE","tp":"CS","ts":"2020-05-26T12:10:18Z","tX":552,"tY":334,"tags":{"backcountry":"yes","name":"Biwakplatz Paulshof","openfire":"no","shelter":"yes","toilets:disposal":"dry_toilet"}},"394927110":{"location":[52.7599478,14.1271037],"ct":"DE","tp":"CS","ts":"2016-01-30T16:25:06Z","tX":552,"tY":334,"tags":{"backcountry":"yes","fireplace":"yes","name":"Biwakplatz Neugaul"}},"583940539":{"location":[52.8451971,14.127634],"ct":"PL","tp":"CR","ts":"2023-12-31T10:35:37Z","tX":552,"tY":334,"tags":{"capacity:pitches":"32","caravans":"yes","charge":"5 EUR/day","fee":"yes","internet_access":"yes","internet_access:fee":"no","name":"Kemping nad Odrą","name:de":"Camping an der Oder","operator":"Polenmarkt Hohenwutzen","power_supply":"yes","reservation":"no","sanitary_dump_station":"yes","shower":"yes","surface":"grass","tents":"yes","toilets":"yes","website":"https://hohenwutzen.com/camping/"}},"3478490102":{"location":[52.8635002,14.0704619],"ct":"DE","tp":"CR","ts":"2023-11-24T10:27:22Z","tX":552,"tY":334,"tags":{"charge":"12 EUR + 2 EUR/pax","fee":"yes","name":"Marina Oderberg","opening_hours":"May-Sep","operator":"Reinhard Kelle","power_supply:charge":"2 EUR","power_supply:fee":"yes","tents":"yes","water_point":"yes","water_point:charge":"1 EUR / 100 liter","water_point:fee":"yes","website":"https://www.angermuende-tourismus.de/pois/marina-oderberg-caravan-stellplaetze/"}},"3542489129":{"location":[52.8638091,14.070615],"ct":"DE","tp":"CS","ts":"2018-12-26T12:26:45Z","tX":552,"tY":334,"tags":{"contact:email":"info@marina-oderberg.de","contact:phone":"+49 33369 75540","contact:website":"http://www.marina-oderberg.de/","name":"Marina Oderberg","operator":"Reinhard Kelle"}},"11472641605":{"location":[52.8456929,14.1290764],"ct":"PL","tp":"SD","ts":"2023-12-31T10:35:37Z","tX":552,"tY":334,"tags":{"access":"yes","charge":"2 EUR","fee":"yes","opening_hours":"24/7","operator":"Polenmarkt Hohenwutzen","payment:coins":"yes","payment:notes":"no","sanitary_dump_station:basin":"yes","sanitary_dump_station:round_drain":"yes"}}}