{"38914910":{"location":[52.5540076,14.1299598],"ct":"DE","tp":"CS","ts":"2023-10-29T21:52:45Z","tX":552,"tY":335,"tags":{"addr:city":"Müncheberg","addr:housenumber":"5","addr:postcode":"15374","addr:street":"Alte Seestraße","caravans":"yes","fee":"yes","name":"Campingpark Großer Klobichsee e.V.","operator":"Campingpark Großer Klobichsee e.V.","tents":"yes","website":"http://www.campingpark-muenchehofe.de/","wikidata":"Q123239937"}},"169421037":{"location":[52.6761158,14.3993384],"ct":"DE","tp":"CR","ts":"2019-03-26T07:09:21Z","tX":552,"tY":335,"tags":{"fee":"yes","name":"Familie Marth","phone":"+49 33478 4596","website":"https://camping-kienitz.city-map.de/"}},"529922312":{"location":[52.5680787,14.1144881],"ct":"DE","tp":"CS","ts":"2023-11-07T22:26:58Z","tX":552,"tY":335,"tags":{"access":"customers","addr:city":"Buckow","addr:housenumber":"62","addr:postcode":"15377","addr:street":"Königstraße","capacity":"20","email":"info@dreichen.de","fax":"+49334336815","fee":"yes","name":"Drei Eichen Tipidorf","phone":"+4933433201","website":"https://www.dreichen.de/"}},"1151426657":{"location":[52.5697177,14.3364182],"ct":"DE","tp":"CS","ts":"2023-10-30T16:03:35Z","tX":552,"tY":335,"tags":{"addr:city":"Gusow- Platkow","addr:postcode":"15306","caravans":"yes","contact:phone":"+49 16096783770","contact:website":"https://www.strandcamping-oderbruch.de","name":"Strandbad & Camping Oderbruch am Baggersee Gusow","operator":"Strandbad & Camping Oderbruch am Baggersee Gusow e.V.","reservation":"recommended","sanitary_dump_station":"yes","tents":"yes","wikidata":"Q123247159"}},"1263271121":{"location":[52.5447757,14.0842518],"ct":"DE","tp":"CR","ts":"2016-12-11T09:16:18Z","tX":552,"tY":335,"tags":{"fee":"yes","name":"Waldsieversdorf","power_supply":"yes","sanitary_dump_station":"customers","tents":"yes"}},"7713504585":{"location":[52.5116957,14.3251342],"ct":"DE","tp":"CR","ts":"2020-07-14T10:51:34Z","tX":552,"tY":335,"tags":{"name":"Ölmühle Diedersdorf"}},"7829311653":{"location":[52.6453342,14.3591141],"ct":"DE","tp":"CR","ts":"2020-08-20T11:21:19Z","tX":552,"tY":335,"tags":{"addr:city":"Letschin","addr:housenumber":"5","addr:postcode":"15324","addr:street":"Karl-Marx-Straße","capacity":"3","internet_access":"wlan","internet_access:fee":"yes","name":"Wohnwagen des Coworkings","power_supply":"yes","sanitary_dump_station":"no"}}}