{"60914591":{"location":[51.8470144,14.0980762],"ct":"DE","tp":"CS","ts":"2021-07-20T15:18:02Z","tX":552,"tY":338,"tags":{"addr:city":"Burg (Spreewald)","addr:country":"DE","addr:housenumber":"32","addr:postcode":"03096","addr:street":"Schwarze Ecke","cabins":"no","caravans":"no","dog":"no","email":"seyberth@t-online.de","fax":"+49 35603 18778","hot_water":"yes","kitchen":"yes","name":"Zelten am Ostgraben","note:de":"Keine Haustiere erlaubt","openfire":"yes","payment:cash":"yes","payment:credit_cards":"no","payment:girocard":"no","phone":"+49 35603 18773","power_supply":"yes","shower":"hot","static_caravans":"no","tents":"yes","toilets":"yes","washing_machine":"yes","website":"http://www.zelten-in-burg-spreewald.de"}},"123152771":{"location":[51.844212,14.109858],"ct":"DE","tp":"CR","ts":"2024-03-30T19:57:00Z","tX":552,"tY":338,"tags":{"fee":"yes","operational_status":"closed"}},"164985821":{"location":[51.9822191,14.2156083],"ct":"DE","tp":"CS","ts":"2024-05-17T10:16:42Z","tX":552,"tY":338,"tags":{"addr:city":"Schwielochsee","addr:country":"DE","addr:housenumber":"34","addr:postcode":"15913","addr:street":"Lamsfelder Dorfstraße","addr:suburb":"Lamsfeld","caravans":"yes","drinking_water":"yes","internet_access":"wlan","name":"Campingplatz „Am Großen Mochowsee“","phone":"+49 35478 525","power_supply":"yes","sanitary_dump_station":"yes","shower":"yes","source":"extrapolation","tents":"yes","toilets":"yes","website":"https://www.campingplatz-mochowsee.de/","wheelchair":"yes"}},"221393354":{"location":[52.0141968,14.1810954],"ct":"DE","tp":"CS","ts":"2022-02-03T07:29:31Z","tX":552,"tY":338,"tags":{"description":"hauptsächlich Dauercamper","landuse":"forest","leaf_cycle":"mixed","leaf_type":"mixed"}},"357279168":{"location":[51.8438814,14.0976841],"ct":"DE","tp":"CS","ts":"2022-05-25T06:14:41Z","tX":552,"tY":338,"tags":{"addr:city":"Burg (Spreewald)","addr:country":"DE","addr:housenumber":"6","addr:postcode":"03096","addr:street":"Schwarze Ecke","cabins":"no","caravans":"no","contact:email":"info@erleninsel.de","contact:fax":"+49 35603 60543","contact:phone":"+49 35603 60543","contact:website":"http://erleninsel.de/","dog":"no","drinking_water":"yes","fee":"yes","hot_water":"yes","internet_access":"no","kitchen":"yes","name":"Zur Erleninsel","opening_hours":"Mo-Su 07:00-19:00","payment:credit_cards":"no","payment:girocard":"no","picnic_table":"yes","power_supply":"yes","sanitary_dump_station":"no","shower":"hot","static_caravans":"no","tents":"yes","toilets":"yes","washing_machine":"no","waste_disposal":"yes","wheelchair":"no"}},"1095119517":{"location":[51.8470009,14.154569],"ct":"DE","tp":"CR","ts":"2022-09-16T10:47:14Z","tX":552,"tY":338,"tags":{"name":"Wohnmobilstellplatz an der Weidenburg","toilets":"no","wheelchair":"yes"}},"3654767679":{"location":[51.8514373,14.0944173],"ct":"DE","tp":"CR","ts":"2017-10-01T09:41:14Z","tX":552,"tY":338,"tags":{"name":"Stellplatz Gasthof Zur Wildbahn"}},"7626284576":{"location":[51.8634891,14.0834965],"ct":"DE","tp":"CS","ts":"2020-08-09T19:17:21Z","tX":552,"tY":338,"tags":{"name":"Biwakplatz Burg-Kauper 2","phone":"+49 35603 366","waterway":"biwak","website":"www.bootshaus-rehnus.de"}},"7626284577":{"location":[51.8621595,14.1169428],"ct":"DE","tp":"CS","ts":"2020-06-17T08:03:24Z","tX":552,"tY":338,"tags":{"name":"Biwakplatz Burg-Kauper 1","waterway":"biwak","website":"http://wasserwelt-spreewald.de.cloud1-vm182.de-nserver.de/de/interaktive-karte.html"}},"7628432660":{"location":[51.8516452,14.0945153],"ct":"DE","tp":"CS","ts":"2024-05-10T02:00:15Z","tX":552,"tY":338,"tags":{"email":"post@zurwildbahn.de","name":"Biwakplatz Burg-Kolonie 3","operator":"Gudrun Dossow","phone":"+49 35603 293","waterway":"biwak","website":"https://zurwildbahn.de/de/unterkuenfte/artikel-biwak-platz.html"}},"11979222151":{"location":[52.0139952,14.1936734],"ct":"DE","tp":"CS","ts":"2024-11-25T16:31:44Z","tX":552,"tY":338,"tags":{"addr:city":"Schwielochsee","addr:country":"DE","addr:housenumber":"1","addr:postcode":"15913","addr:street":"Geisterschlucht","addr:suburb":"Jessern","caravans":"yes","drinking_water":"yes","email":"jessern-camping-am-schwielochsee@gmx.de","fax":"+4935478179099","fee":"yes","hot_water":"yes","kitchen":"yes","mobile":"+491754652288","motor_vehicle":"yes","motorhome":"yes","name":"Campingplatz \"An der Geisterschlucht\"","opening_hours":"Mo-Su 09:00-13:00, 15:00-18:00; Nov-Mar off","phone":"+4935478608","sanitary_dump_station":"yes","shower":"yes","swimming_pool":"yes","tents":"yes","toilets":"yes","website":"http://www.campingplatz-jessern.de"}}}