{"41848193":{"location":[51.6464976,14.3844794],"ct":"DE","tp":"CS","ts":"2024-07-03T06:48:11Z","tX":552,"tY":339,"tags":{"caravans":"yes","comment":"Campingplatz Klein Döbbern - am Westufer der Talsperre","drinking_water":"yes","name":"SpreeCamp","power_supply":"yes","sanitary_dump_station":"yes","shower":"yes","tents":"yes","toilets":"yes","website":"https://www.spreecamp.de/"}},"76486638":{"location":[51.6922235,14.1009242],"ct":"DE","tp":"CS","ts":"2024-07-21T11:45:07Z","tX":552,"tY":339,"tags":{"addr:housenumber":"1","addr:street":"Inselblick","caravans":"yes","drinking_water":"yes","fee":"yes","name":"Camping Gräbendorfer See","operator":"Uwe Stephan","phone":"+49 1525 5278703","sanitary_dump_station":"no","shower":"yes","tents":"yes","toilets":"yes","website":"https://www.camping-graebendorfersee.de","wheelchair":"limited"}},"123154444":{"location":[51.8256386,14.1374306],"ct":"DE","tp":"CS","ts":"2023-11-02T01:12:07Z","tX":552,"tY":339,"tags":{"addr:city":"Burg (Spreewald)","addr:country":"DE","addr:housenumber":"1a","addr:postcode":"03096","addr:street":"Vetschauer Straße","drinking_water":"yes","email":"info@caravan-kurcamping.de","fax":"+49 35603 754739","internet_access":"wlan","kitchen":"yes","name":"Kneipp-und Erlebniscamping an den Spreewaldfließen","opening_hours":"Mo-Su 07:00-22:00","permanent_camping":"no","phone":"+49 35603 750966","power_supply":"yes","shower":"hot","tents":"yes","washing_machine":"yes","website":"https://caravan-kurcamping.de/","wheelchair":"yes"}},"125423063":{"location":[51.7465207,14.3525748],"ct":"DE","tp":"CR","ts":"2023-04-01T12:27:35Z","tX":552,"tY":339,"tags":{"capacity":"12","caravans":"yes","drinking_water":"yes","fee":"yes","maxstay":"3 days","name":"Caravanstellplatz Spreeauenpark Cottbus","object:city":"Cottbus","object:country":"DE","object:housenumber":"3","object:postcode":"03042","object:street":"Kiekebuscher Straße","operator":"Cottbusser Gartenschau Gesellschaft 1995 mbH","phone":"+49 355 7542372;+49 355 7542368","power_supply":"yes","sanitary_dump_station":"yes","sanitary_dump_station:grey_water":"yes","shower":"no","tents":"no","toilets":"yes","water_point":"yes","website":"https://www.cmt-cottbus.de/veranstaltungsorte/caravanstellplatz-spreeauenpark-cottbus/","wheelchair":"yes"}},"126147044":{"location":[51.7534857,14.3429043],"ct":"DE","tp":"CS","ts":"2024-05-10T01:51:58Z","tX":552,"tY":339,"tags":{"access":"private","caravans":"yes","club":"canoe","description":"This is a very nice canoe club in the center of Cottbus. You can camp on the terrain but reservation is required. The terrain is locked, somebody will have to come to the club to open the gate for you.","fee":"yes","name":"ESV Lok Raw Cottbus e.V.","phone":"+49 178 3318305 oder +49 179 3215080","reservation":"required","shower":"yes","sport":"canoe","tents":"yes","toilets":"yes","website":"https://www.kanu-cottbus.de/#UebernachtungAnfahrt"}},"231810673":{"location":[51.6436351,14.4121136],"ct":"DE","tp":"CS","ts":"2020-07-02T18:57:58Z","tX":552,"tY":339,"tags":{"addr:city":"Neuhausen/Spree","addr:country":"DE","addr:housenumber":"3","addr:postcode":"03058","addr:street":"Stauseestraße","addr:suburb":"Bagenz","email":"spreecamp@web.de","name":"Spree Camp Bagenz","phone":"+49 35697 235","website":"https://spreecamp.de/"}},"985442402":{"location":[51.832164,14.079904],"ct":"DE","tp":"CS","ts":"2023-09-28T07:41:59Z","tX":552,"tY":339,"tags":{"addr:city":"Burg (Spreewald)","addr:housenumber":"42","addr:postcode":"03096","addr:street":"Erste Kolonie","caravans":"no","description":"reiner Zeltplatz, keine Hunde erlaubt","email":"info@wildewiese-Spreewald.de","fee":"yes","internet_access":"wlan","name":"Zeltplatz \"Wilde Wiese\"","phone":"+49 35603 75 65 15","source":"local knowledge","static_caravans":"no","tents":"yes","website":"https://www.wildewiese-spreewald.de/"}},"3550607676":{"location":[51.8270862,14.1371592],"ct":"DE","tp":"CS","ts":"2016-02-13T21:04:08Z","tX":552,"tY":339,"tags":{"tents":"yes","waterway":"biwak","wheelchair":"no"}},"7626284575":{"location":[51.8316552,14.0757681],"ct":"DE","tp":"CS","ts":"2023-04-10T17:37:35Z","tX":552,"tY":339,"tags":{"backcountry":"yes","mobile":"+49 171 6742651","name":"Biwak-Platz Burg-Kolonie 1","phone":"+49 35603 60651","website":"http://wasserwelt-spreewald.de.cloud1-vm182.de-nserver.de/de/interaktive-karte.html"}},"11969912969":{"location":[51.6892458,14.1137987],"ct":"DE","tp":"CS","ts":"2024-06-10T17:25:12Z","tX":552,"tY":339,"tags":{"name":"raus und gut","website":"https://raus.travel/raus-und-gut-casel/"}},"11969913069":{"location":[51.6890177,14.1217039],"ct":"DE","tp":"CS","ts":"2024-07-22T20:37:25Z","tX":552,"tY":339,"tags":{"name":"Camp Casel","website":"https://camp-casel.de/"}},"5754314162":{"location":[51.7713698,14.325956],"ct":"DE","tp":"CR","ts":"2024-05-14T00:24:04Z","tX":552,"tY":339,"tags":{"capacity:caravans":"16","caravan_site":"motorhome_stopover","caravan_site:type":"parking_lot","fee":"yes","name":"Caravan-Lagune","operator":"Lagune Cottbus","power_supply":"yes","sanitary_dump_station":"yes","shower":"no","tents":"no","toilets":"no","water_point":"yes","website":"https://caravan-lagune-cottbus.de"}},"8868691717":{"location":[51.8277662,14.0727322],"ct":"DE","tp":"CR","ts":"2021-09-22T06:58:06Z","tX":552,"tY":339,"tags":{}},"9600918417":{"location":[51.7714444,14.3259908],"ct":"DE","tp":"SD","ts":"2024-05-14T12:52:16Z","tX":552,"tY":339,"tags":{"operator":"Lagune Cottbus","sanitary_dump_station:chemical_toilet":"yes","sanitary_dump_station:grey_water":"yes","water_point":"yes"}}}