{"38177966":{"location":[51.3718183,14.390538],"ct":"DE","tp":"CS","ts":"2023-08-31T22:13:03Z","tX":552,"tY":341,"tags":{"addr:city":"Lohsa","addr:country":"DE","addr:housenumber":"27","addr:postcode":"02999","addr:street":"Am Silbersee","email":"silbersee-lausitz@freenet.de","name":"Campingpark Silbersee","name:hsb":"Campingowanišćo při Slěbornym jězorje","operator":"Falk Nowotnick","phone":"+49 35724 50034","url":"https://www.campingpark-seenland.de/camping-lausitzer-seenland"}},"121172062":{"location":[51.296718,14.3096091],"ct":"DE","tp":"CS","ts":"2024-06-26T15:52:44Z","tX":552,"tY":341,"tags":{"addr:city":"Königswartha","addr:postcode":"02699","addr:suburb":"Niesendorf","caravans":"yes","internet_access":"no","name":"Waldbad Niesendorf","name:hsb":"Lěsna kupjel Niža Wjes","phone":"+49 35931 29900","tents":"yes","toilets:wheelchair":"yes","website":"https://www.campingplatz-niesendorf.de/","wheelchair":"yes"}},"134555482":{"location":[51.3045964,14.1567995],"ct":"DE","tp":"CS","ts":"2023-11-03T02:59:31Z","tX":552,"tY":341,"tags":{"addr:city":"Kamenz","addr:country":"DE","addr:housenumber":"30","addr:postcode":"01917","addr:street":"Großteichstraße","addr:suburb":"Deutschbaselitz","caravans":"yes","name":"Campingplatz Deutschbaselitz","name:hsb":"Campingownišćo Němske Pazlicy","phone":"+49 3578 301489","tents":"yes","website":"https://www.campingplatz-deutschbaselitz.com/"}},"174856478":{"location":[51.2621102,14.2461488],"ct":"DE","tp":"CS","ts":"2022-02-14T07:39:49Z","tX":552,"tY":341,"tags":{"caravans":"yes","landuse":"meadow","name":"Tauchsee Horka","phone":"+49 35796 88477","surface":"grass","tents":"yes","url":"http://tauchsee-horka.de"}},"1131273480":{"location":[51.3030732,14.2853939],"ct":"DE","tp":"CR","ts":"2023-01-12T21:20:22Z","tX":552,"tY":341,"tags":{"addr:city":"Königswartha","addr:postcode":"02699","addr:street":"Am Hof","name":"Campingwiese"}},"12168825042":{"location":[51.1968115,14.1354605],"ct":"DE","tp":"SD","ts":"2024-09-16T16:27:43Z","tX":552,"tY":341,"tags":{"drinking_water":"yes","water_point":"yes"}}}