{"33117627":{"location":[50.9758569,14.1382529],"ct":"DE","tp":"CS","ts":"2021-09-20T19:22:32Z","tX":552,"tY":342,"tags":{"addr:city":"Hohnstein","addr:country":"DE","addr:housenumber":"11","addr:postcode":"01848","addr:street":"Schandauer Straße","caravans":"yes","contact:email":"info@camping-entenfarm.de","contact:fax":"+49 35975 84474","contact:phone":"+49 35975 84455","contact:website":"https://www.camping-entenfarm.de","name":"Touristencamp Entenfarm Hohnstein","operator":"Birgit Roitzsch","tents":"yes"}},"118268904":{"location":[51.1327957,14.4092347],"ct":"DE","tp":"CS","ts":"2024-07-03T20:23:31Z","tX":552,"tY":342,"tags":{"addr:city":"Obergurig","addr:country":"DE","addr:housenumber":"13","addr:postcode":"02692","addr:street":"Schulstraße","designation":"Naturcampingplatz für Radfahrer","name":"Naturcampingplatz \"Alte Wassermühle\"","source":"www.alte-wassermuehle.com/camping/","website":"http://www.campingplatz-radlerhaus.de/"}},"203822047":{"location":[50.9618863,14.2759916],"ct":"DE","tp":"CS","ts":"2024-08-10T10:05:15Z","tX":552,"tY":342,"tags":{"fee":"yes","name":"Touristikzentrum Sebnitz (FIS)","website":"http://www.touristikzentrum-sebnitz.de/"}},"484774823":{"location":[50.9828983,14.2308909],"ct":"DE","tp":"CS","ts":"2024-04-05T06:58:45Z","tX":552,"tY":342,"tags":{"addr:city":"Sebnitz","addr:country":"DE","addr:housenumber":"17","addr:postcode":"01855","addr:street":"Martin-May-Straße","caravans":"yes","drinking_water":"yes","name":"Camping Endler","note":"location approximated to ~200m","power_supply":"yes","sanitary_dump_station":"yes","shower":"yes","tents":"yes","toilets":"yes","website":"http://www.urlaub-endler.de/"}},"495926640":{"location":[51.0492296,14.086365],"ct":"DE","tp":"CR","ts":"2024-01-01T08:45:08Z","tX":552,"tY":342,"tags":{"fee":"yes","name":"Stellplatz Burghotel Stolpen"}},"722012110":{"location":[51.0977679,14.4001766],"ct":"DE","tp":"SD","ts":"2019-09-04T18:23:30Z","tX":552,"tY":342,"tags":{"fee":"no","opening_hours":"24/7"}},"1265666153":{"location":[51.0195925,14.1795654],"ct":"DE","tp":"CR","ts":"2024-03-23T22:49:52Z","tX":552,"tY":342,"tags":{"caravan_site":"motorhome_stopover","caravan_site:type":"swimming_pool","caravans":"yes","charge":"7.5 EUR","fee":"yes","internet_access":"wlan","name":"Waldbad Polenz","power_supply":"yes","power_supply:charge":"2 EUR","tents":"no","water_point":"yes","water_point:charge":"2 EUR","water_point:fee":"yes"}},"11756807287":{"location":[51.0196081,14.1798708],"ct":"DE","tp":"CS","ts":"2024-03-24T10:01:36Z","tX":552,"tY":342,"tags":{"caravans":"no","name":"Waldbad Polenz","opening_hours":"24/7","seasonal":"no","tents":"yes","website":"https://www.waldbad-polenz.de/caravan-und-camping-saechsische-schweiz.html"}},"6959701128":{"location":[51.0979729,14.4005274],"ct":"DE","tp":"CR","ts":"2020-06-11T09:53:51Z","tX":552,"tY":342,"tags":{"capacity":"8","fee":"no","internet_access":"no","name":"Wohnmobilstellplatz an der Schnapsbrennerei","power_supply":"no","sanitary_dump_station":"yes","water_point":"yes","website":"https://www.wilthen.de/"}},"7947422427":{"location":[51.0242393,14.2086797],"ct":"DE","tp":"CR","ts":"2021-12-31T21:32:39Z","tX":552,"tY":342,"tags":{"capacity":"3","contact:phone":"+49 3596 502070","fee":"no","name":"Mariba Freizeitwelt","power_supply":"yes","sanitary_dump_station":"no","water_point":"no","website":"https://www.touristinfo-neustadt.de/details/wohnmobilstellplätze-an-der-mariba-freizeitwelt-in-neustadt.html","wheelchair":"yes"}},"8689730939":{"location":[51.0192741,14.2198368],"ct":"DE","tp":"CR","ts":"2024-03-07T19:12:55Z","tX":552,"tY":342,"tags":{}},"8926963933":{"location":[51.0537733,14.3914204],"ct":"DE","tp":"CR","ts":"2021-07-16T15:58:31Z","tX":552,"tY":342,"tags":{}},"9956232050":{"location":[51.0985216,14.3058881],"ct":"DE","tp":"CR","ts":"2022-08-16T06:18:17Z","tX":552,"tY":342,"tags":{"name":"Wohnmobilstellplatz Neukirch/Lausitz"}}}