{"53521924":{"location":[50.9146388,14.1068858],"ct":"DE","tp":"CR","ts":"2023-05-28T13:47:08Z","tX":552,"tY":343,"tags":{"caravans":"yes","internet_access":"wlan","name":"Caravan Camping „Sächsische Schweiz“","power_supply":"yes","tents":"yes","toilets":"yes","website":"https://caravan-camping-saechsischeschweiz.de"}},"60632580":{"location":[50.9236791,14.0904117],"ct":"DE","tp":"CS","ts":"2024-09-26T18:04:50Z","tX":552,"tY":343,"tags":{"addr:city":"Königstein","addr:country":"DE","addr:housenumber":"1","addr:postcode":"01824","addr:street":"Am alten Sägewerk","cabins":"yes","caravans":"yes","contact:email":"info@camping-koenigstein.de","contact:fax":"+49 32223 723457","contact:phone":"+49 35021 68224","contact:website":"http://www.camping-koenigstein.de/","drinking_water":"yes","hot_water":"yes","internet_access":"wlan","internet_access:fee":"no","name":"Camping Königstein","power_supply":"yes","sanitary_dump_station":"yes","shower":"hot","tents":"yes","toilets":"yes","website":"http://www.camping-koenigstein.de/"}},"67019384":{"location":[50.873772,14.3196456],"ct":"CZ","tp":"CS","ts":"2023-11-06T15:53:03Z","tX":552,"tY":343,"tags":{"caravans":"yes","contact:email":"info@uforta.cz","fee":"yes","name":"Kemp Mezní Louka","power_supply":"yes","shower":"yes","source":"cuzk:km;survey","tents":"yes","toilets":"yes","website":"https://www.npcs.cz/kemp-mezni-louka"}},"82654916":{"location":[50.9250864,14.0751359],"ct":"DE","tp":"CR","ts":"2020-06-08T14:57:15Z","tX":552,"tY":343,"tags":{"capacity":"10","fee":"yes","name":"Reisemobilstellplatz Hotel Lilienstein","power_supply":"yes","sanitary_dump_station":"no","surface":"gravel","water_point":"yes","website":"https://www.hotel-lilienstein.de","wheelchair":"limited"}},"118163713":{"location":[50.9295171,14.1923059],"ct":"DE","tp":"CS","ts":"2024-11-11T17:02:52Z","tX":552,"tY":343,"tags":{"addr:city":"Bad Schandau","addr:country":"DE","addr:postcode":"01814","addr:street":"Kirnitzschtal","capacity":"100","caravans":"yes","dog":"yes","drinking_water":"yes","dryer":"yes","email":"campmuehle@hotmail.com","fax":"+49 35022 50352","internet_access":"wlan","internet_access:fee":"yes","kitchen":"yes","name":"Ostrauer Mühle","operator":"Christoph Hasse","payment:girocard":"yes","phone":"+49 35022 42742","power_supply":"yes","sanitary_dump_station":"yes","shower":"yes","stars":"4","tents":"yes","toilets":"yes","washing_machine":"yes","website":"http://www.ostrauer-muehle.de"}},"118167097":{"location":[50.9229351,14.3498546],"ct":"DE","tp":"CS","ts":"2023-09-03T07:12:08Z","tX":552,"tY":343,"tags":{"addr:city":"Sebnitz","addr:country":"DE","addr:housenumber":"37","addr:postcode":"01855","addr:street":"Schandauer Straße","addr:suburb":"Hinterhermsdorf","caravans":"yes","drinking_water":"yes","fee":"yes","internet_access":"wlan","name":"Thorwaldblick","openfire":"yes","operator":"Petra Peh","phone":"+49 35974 50648;+49 174 7382569","power_supply":"yes","sanitary_dump_station":"yes","shower":"yes","tents":"yes","toilets":"yes","toilets:wheelchair":"limited","water_point":"yes","website":"https://www.thorwaldblick.de/","wheelchair":"limited"}},"256987002":{"location":[50.9353526,14.2115035],"ct":"DE","tp":"CS","ts":"2023-09-03T07:21:14Z","tX":552,"tY":343,"tags":{"addr:city":"Sebnitz","addr:country":"DE","addr:housenumber":"19","addr:postcode":"01855","addr:street":"Obere Straße","addr:suburb":"Mittelndorf","caravans":"yes","email":"berg-oase@t-online.de","fax":"+49 35971 809891","internet_access":"wlan","internet_access:fee":"yes;NS no;HS 4€","kitchen":"yes","mobile":"+49 176 22906538","name":"Kleine Bergoase","power_supply":"yes","shower":"yes","tents":"yes","toilets":"yes","water_point":"yes","website":"https://www.berg-oase.de/"}},"303249949":{"location":[50.8553326,14.3571607],"ct":"CZ","tp":"CS","ts":"2014-09-13T23:17:12Z","tX":552,"tY":343,"tags":{"capacity:cabins":"45","capacity:caravans":"yes","capacity:tents":"yes","name":"Intercamp Mosquito","naturism":"no","quiet_time":"23:00-07:00","surface":"grass","website":"http://www.mosquito.cz/"}},"367394410":{"location":[50.7740901,14.2094927],"ct":"CZ","tp":"CS","ts":"2023-11-05T22:39:22Z","tX":552,"tY":343,"tags":{"email":"recepce@kempdecin.cz","name":"Kemp Děčín s.r.o. & Cyklostop","phone":"+420 774 262 111","website":"https://www.kempdecin.cz/"}},"407794668":{"location":[50.7994773,14.3388307],"ct":"CZ","tp":"CS","ts":"2023-11-05T22:39:11Z","tX":552,"tY":343,"tags":{"caravans":"yes","email":"info@ceskabrana.cz","internet_access":"wlan","internet_access:fee":"no","name":"Autokemp Česká brána","phone":"+420 412 555 094","shower":"yes","tents":"yes","toilets":"yes","website":"https://www.ceskabrana.cz/"}},"408293678":{"location":[50.7940918,14.346725],"ct":"CZ","tp":"CS","ts":"2017-04-25T13:34:04Z","tX":552,"tY":343,"tags":{"addr:city":"Stará Oleška","addr:postcode":"40502","name":"Kemp Vyhlídka"}},"437496415":{"location":[50.8000278,14.3321756],"ct":"CZ","tp":"CS","ts":"2023-03-25T16:18:27Z","tX":552,"tY":343,"tags":{"capacity":"9","caravans":"yes","name":"Rosalka","phone":"+420 739 674 766","shower":"yes","tents":"yes","toilets":"yes","website":"https://www.pension-rosalka.cz/rosalka_en/minicamp.html"}},"452322554":{"location":[50.9255216,14.0933593],"ct":"DE","tp":"CS","ts":"2023-07-15T20:54:14Z","tX":552,"tY":343,"tags":{"addr:city":"Königstein","addr:country":"DE","addr:housenumber":"4","addr:postcode":"01824","addr:street":"Am alten Sägewerk","cabins":"yes","caravans":"yes","fixme":"Genaue Lage unbekannt - ist 2015 neu eingrichtet worden - Eintrag laut Web-Seite","internet_access":"wlan","name":"Campingplatz am Treidlerweg","note":"Campingplatz Laut Web-Seite - ist 2015 neu eingerichtet worden","tents":"yes","website":"https://www.treidlercamping.de/"}},"454932669":{"location":[50.9435501,14.0788948],"ct":"DE","tp":"CR","ts":"2024-05-15T22:37:28Z","tX":552,"tY":343,"tags":{"addr:city":"Kurort Rathen","addr:housenumber":"52","addr:postcode":"01824","addr:street":"Elbweg","caravan_site":"motorhome_stopover","caravan_site:type":"river","charge":"28 EUR","charge:conditional":"20 EUR @ (Nov-Dec)","fee":"yes","name":"Caravanplatz zum Liliensteinblick","opening_hours":"Jan-Feb off","power_supply":"yes","sanitary_dump_station":"yes","seasonal":"yes","shower":"yes","toilets":"yes","website":"https://www.caravanplatz-zum-liliensteinblick.de/index.html"}},"504526935":{"location":[50.9374683,14.0738437],"ct":"DE","tp":"CS","ts":"2023-06-23T09:50:43Z","tX":552,"tY":343,"tags":{"addr:city":"Königstein","addr:country":"DE","addr:housenumber":"51","addr:postcode":"01824","addr:street":"Halbestadt","caravans":"no","contact:email":"info@aktivreiseteam.de","contact:mobile":"+491723603430","name":"Ferdinands Homestay","phone":"+49 35022 54775","tents":"yes","website":"https://aktivhostel-elbsandstein.de","wheelchair":"no"}},"506195846":{"location":[50.9425999,14.1407804],"ct":"DE","tp":"CS","ts":"2019-03-31T17:06:55Z","tX":552,"tY":343,"tags":{"addr:city":"Rathmannsdorf","addr:country":"DE","addr:housenumber":"8","addr:postcode":"01814","addr:street":"Am Sebnitzbach","caravans":"no","group_only":"yes","name":"Campinggelegenheit an der Ochelbaude","phone":"+49 35021 599960","tents":"yes","website":"https://www.ochelbaude.de/"}},"548237907":{"location":[50.8357591,14.1278223],"ct":"DE","tp":"CS","ts":"2020-10-07T08:41:58Z","tX":552,"tY":343,"tags":{"backcountry":"yes","capacity":"5","caravans":"no","drinking_water":"no","fee":"yes","maxtents":"5","name":"Taubenteich-Biwak","name:de":"Taubenteich-Biwak","note":"Trekkingtickets vom Sachsenforst für Übernachtungen","opening_hours":"Apr-Oct","operator":"Sachsenforst","power_supply":"no","shower":"no","tents":"yes","toilets":"yes","website":"https://www.forststeig.sachsen.de/biwakplaetze-3986.html"}},"632655395":{"location":[50.8581336,14.2273892],"ct":"CZ","tp":"CS","ts":"2023-02-11T20:51:02Z","tX":552,"tY":343,"tags":{"backcountry":"yes"}},"832424889":{"location":[50.8377308,14.3562814],"ct":"CZ","tp":"CS","ts":"2010-07-25T08:56:38Z","tX":552,"tY":343,"tags":{"name":"U Ferdinanda"}},"982336792":{"location":[50.9431046,14.1250427],"ct":"DE","tp":"CS","ts":"2021-09-12T22:23:44Z","tX":552,"tY":343,"tags":{"addr:city":"Bad Schandau","addr:country":"DE","addr:housenumber":"2","addr:postcode":"01814","addr:street":"Hauptstraße","addr:suburb":"Porschdorf","alt_name":"Aktivhof Sächsische Schweiz","caravans":"yes","fax":"+49 3715 204713","name":"Aktivhof Porschdorf","operator":"Aktivreiseteam GbR","phone":"+49 3715 204449","tents":"yes","website":"https://www.aktivhof-elbsandstein.de"}},"1229703529":{"location":[50.9435552,14.2317187],"ct":"DE","tp":"CR","ts":"2024-05-05T05:48:51Z","tX":552,"tY":343,"tags":{"name":"Panorama Camping","phone":"+49 35971 839287","website":"https://camping-lichtenhain.de/"}},"1263457800":{"location":[50.7965935,14.08425],"ct":"CZ","tp":"CR","ts":"2024-03-17T12:20:31Z","tX":552,"tY":343,"tags":{"addr:city":"Děčín XXXII","addr:housenumber":"2","addr:postcode":"40711","addr:street":"Kamenná","email":"info@stpl-sneznik.cz","fee":"yes","internet_access":"no","name":"Stellplatz Sněžník","opening_hours":"24/7","operator":"Martin Liesel","power_supply":"yes","sanitary_dump_station":"yes","website":"https://www.stpl-sneznik.cz"}},"1283414724":{"location":[50.9533362,14.0804173],"ct":"DE","tp":"CR","ts":"2024-05-15T22:37:28Z","tX":552,"tY":343,"tags":{"caravan_site":"motorhome_stopover","caravan_site:type":"river","charge":"15 EUR","fee":"yes","name":"Parkplatz Kurort Rathen","note":"caravan 24 EUR/24 h","opening_hours":"24/7","payment:coins":"yes","seasonal":"no"}},"2582377146":{"location":[50.8431942,14.3922157],"ct":"CZ","tp":"CS","ts":"2022-07-09T09:29:48Z","tX":552,"tY":343,"tags":{"addr:housename":"Jetřichovice 117","backcountry":"yes","dog":"yes","fee":"yes","name":"Autokemp Jetřichovice","openfire":"yes","power_supply":"yes","sanitary_dump_station":"yes","shower":"yes","toilets":"yes","website":"https://www.campingplatze.cz/ustecky-kraj/decin/370-autocamp-jetrichovice"}},"2852466345":{"location":[50.738981,14.2998169],"ct":"CZ","tp":"CS","ts":"2014-05-12T09:41:43Z","tX":552,"tY":343,"tags":{}},"4212976062":{"location":[50.7975272,14.3488442],"ct":"CZ","tp":"CS","ts":"2016-05-28T20:40:32Z","tX":552,"tY":343,"tags":{"name":"Camp Pod Lesem"}},"4212980718":{"location":[50.799982,14.3447243],"ct":"CZ","tp":"CS","ts":"2016-05-28T20:39:59Z","tX":552,"tY":343,"tags":{"name":"Autokemp Aljaška"}},"6329436073":{"location":[50.8795473,14.0854704],"ct":"DE","tp":"CS","ts":"2020-10-07T08:41:58Z","tX":552,"tY":343,"tags":{"backcountry":"yes","capacity":"5","caravans":"no","drinking_water":"no","fee":"yes","maxtents":"5","name":"Spitzstein-Biwak","openfire":"no","opening_hours":"Apr-Oct","operator":"Sachsenforst","power_supply":"no","shower":"no","tents":"yes","toilets":"yes","website":"https://www.forststeig.sachsen.de/biwakplaetze-3986.html"}},"6329436074":{"location":[50.8509344,14.1775614],"ct":"DE","tp":"CS","ts":"2020-10-07T08:41:58Z","tX":552,"tY":343,"tags":{"backcountry":"yes","capacity":"5","caravans":"no","drinking_water":"no","fee":"yes","maxtents":"5","name":"Zschirnstein-Biwak","openfire":"no","opening_hours":"Apr-Oct","operator":"Sachsenforst","power_supply":"no","shower":"no","tents":"yes","toilets":"yes","website":"https://www.forststeig.sachsen.de/biwakplaetze-3986.html"}},"7812613234":{"location":[50.9008138,14.0672032],"ct":"DE","tp":"CS","ts":"2020-10-07T08:41:58Z","tX":552,"tY":343,"tags":{"backcountry":"yes","capacity":"5","caravans":"no","charge":"5 EUR","drinking_water":"no","fee":"yes","maxtents":"5","name":"Quirl-Biwak","openfire":"no","opening_hours":"Apr-Oct","operator":"Sachsenforst","power_supply":"no","ref":"5","shower":"no","tents":"yes","toilets":"yes","website":"https://www.forststeig.sachsen.de/biwakplaetze-3986.html"}},"10111913211":{"location":[50.8762867,14.113784],"ct":"DE","tp":"CR","ts":"2022-10-18T18:23:19Z","tX":552,"tY":343,"tags":{"capacity":"6","contact:phone":"+49 174 9709552","contact:website":"https://www.katzsteinbaude-cunnersdorf.de","fee":"yes","internet_access":"wlan","name":"Wohnmobilstellplatz der Katzsteinbaude","operator":"Robby Kirsten","reservation":"required","sanitary_dump_station":"no","smoking":"yes","tents":"yes","toilets:access":"customers","wheelchair":"no"}},"11247670008":{"location":[50.9276227,14.0688768],"ct":"DE","tp":"CR","ts":"2024-01-03T16:18:54Z","tX":552,"tY":343,"tags":{"capacity":"15","charge":"10 €","fee":"yes","internet_access":"no","name":"Ebenheit","operator":"Ferienhof \"Zum Festungsblick\"","payment:cash":"yes","payment:notes":"yes","reservation":"no","sanitary_dump_station":"no","stars":"4","tents":"yes","wheelchair":"yes"}},"11309020904":{"location":[50.9287566,14.1167095],"ct":"DE","tp":"CR","ts":"2024-04-07T18:28:48Z","tX":552,"tY":343,"tags":{"fee":"8","name":"Elbblick"}},"7308509997":{"location":[50.9299384,14.1923498],"ct":"DE","tp":"SD","ts":"2024-04-16T17:45:26Z","tX":552,"tY":343,"tags":{"fee":"yes","source":"from memory while walking through"}},"9144391142":{"location":[50.922391,14.0883271],"ct":"DE","tp":"SD","ts":"2021-10-04T10:41:16Z","tX":552,"tY":343,"tags":{}},"11164427777":{"location":[50.9228141,14.3494182],"ct":"DE","tp":"SD","ts":"2023-09-03T07:12:08Z","tX":552,"tY":343,"tags":{}},"5744291621":{"location":[50.7821203,14.209932],"ct":"CZ","tp":"CR","ts":"2022-12-31T16:13:46Z","tX":552,"tY":343,"tags":{"name:signed":"no","toilets":"no","wheelchair":"yes"}},"4899516262":{"location":[50.7998791,14.3379672],"ct":"CZ","tp":"SD","ts":"2017-06-06T11:35:57Z","tX":552,"tY":343,"tags":{}},"11738741653":{"location":[50.796411,14.0846191],"ct":"CZ","tp":"SD","ts":"2024-03-17T12:20:31Z","tX":552,"tY":343,"tags":{"access":"yes","fee":"yes","operator":"STPL Sněžník","payment:electronic_purses":"yes","water_point":"yes"}}}