{"26861150":{"location":[50.043889,14.284167],"ct":"CZ","tp":"CS","ts":"2024-07-23T17:27:57Z","tX":552,"tY":347,"tags":{"caravans":"yes","dog":"yes","email":"drusus@drusus.com","fee":"yes","hot_water":"yes","internet_access":"wlan","motorhome":"yes","name":"Familiy Camp Drusus","phone":"+420 608 527 229","swimming_pool":"no","tents":"yes","website":"https://www.drusus.com"}},"26861190":{"location":[50.011389,14.150556],"ct":"CZ","tp":"CS","ts":"2010-10-10T01:01:37Z","tX":552,"tY":347,"tags":{"name":"Valek"}},"36854499":{"location":[49.9176433,14.2307125],"ct":"CZ","tp":"CS","ts":"2022-06-10T15:08:10Z","tX":552,"tY":347,"tags":{"area":"yes","capacity:persons":"56","fee":"yes","name":"Kemp Řevnice","operator":"Food Event, s.r.o.","payment:cash":"yes","payment:credit_cards":"yes","payment:debit_cards":"yes"}},"81044094":{"location":[50.0106857,14.1504415],"ct":"CZ","tp":"CR","ts":"2018-08-27T07:53:41Z","tX":552,"tY":347,"tags":{"fee":"yes","internet_access":"yes","power_supply":"yes","smoking":"yes","tents":"yes"}},"116574919":{"location":[49.9337165,14.1711556],"ct":"CZ","tp":"CS","ts":"2023-08-17T06:49:45Z","tX":552,"tY":347,"tags":{"addr:city":"Karlštejn","addr:country":"CZ","addr:place":"Karlštejn","addr:postcode":"26718","email":"info@karlstejn-kemp.cz","name":"Autokemp Karlštejn","phone":"+420 311 681 263","website":"https://www.karlstejn-kemp.cz/"}},"203647375":{"location":[49.9856569,14.0699185],"ct":"CZ","tp":"CR","ts":"2024-12-03T21:50:24Z","tX":552,"tY":347,"tags":{"name":"Autokemp Plešivec","source":"bing:bing"}},"203647376":{"location":[49.969783,14.0745394],"ct":"CZ","tp":"CR","ts":"2014-10-19T14:27:02Z","tX":552,"tY":347,"tags":{"name":"Autocamp Na Hrázi","source":"bing:bing;knowledge"}},"270694970":{"location":[49.9393709,14.1325923],"ct":"CZ","tp":"CS","ts":"2023-08-29T09:07:42Z","tX":552,"tY":347,"tags":{"caravans":"yes","facebook":"https://www.facebook.com/CAMP-Srbsko-597253130421411/","internet_access":"wlan","internet_access:fee":"no","name":"Camp Srbsko","phone":"+420 775 985 576;+420 777 733 363","tents":"yes","website":"https://www.campsrbsko.cz/","wheelchair":"yes"}},"318910971":{"location":[50.0191874,14.3564653],"ct":"CZ","tp":"CS","ts":"2024-08-21T21:27:56Z","tX":552,"tY":347,"tags":{"addr:city":"Praha 5 - Slivenec","addr:housenumber":"25/9","addr:postcode":"15400","addr:street":"Pod rybníkem","capacity:caravans":"30","caravans":"yes","currency:CZK":"yes","currency:EUR":"yes","fee":"yes","free":"no","motorhome":"yes","name":"Camp Slivenec","shower":"hot","surface":"grass/trees","tents":"yes","toilets":"yes"}},"337435408":{"location":[50.0615665,14.413977],"ct":"CZ","tp":"CS","ts":"2023-08-11T17:00:37Z","tX":552,"tY":347,"tags":{"addr:city":"Praha","addr:housenumber":"599","addr:postcode":"15000","addr:street":"Cisařská louka","caravans":"yes","currency:CZK":"yes","currency:EUR":"yes","drinking_water":"yes","email":"caravanpark.cl@gmail.com","fee":"yes","internet_access":"wlan","internet_access:fee":"no","name":"Caravan Park Yacht Club Císarská Louka","openfire":"no","phone":"+420 257 318 387","power_supply":"yes","shower":"hot","tents":"yes","toilets":"yes","website":"http://www.camp-prague.com/"}},"433814461":{"location":[50.0553053,14.4132822],"ct":"CZ","tp":"CS","ts":"2022-08-26T14:12:44Z","tX":552,"tY":347,"tags":{"addr:city":"Praha","addr:housenumber":"162","addr:street":"Císařská louka","caravans":"yes","drinking_water":"yes","name":"Praguecamp","phone":"+420 702 145 150","power_supply":"yes","shower":"hot","source":"cuzk:km","tents":"yes","website":"https://www.praguecamp.cz/"}},"476540137":{"location":[49.9325869,14.3724499],"ct":"CZ","tp":"CS","ts":"2012-04-30T10:44:27Z","tX":552,"tY":347,"tags":{"name":"Matyáš"}},"528283336":{"location":[49.9689889,14.0755419],"ct":"CZ","tp":"CS","ts":"2016-03-24T17:22:45Z","tX":552,"tY":347,"tags":{"name":"Autocamp Na Hrázi"}},"872159038":{"location":[49.9239163,14.273343],"ct":"CZ","tp":"CS","ts":"2016-10-08T20:00:12Z","tX":552,"tY":347,"tags":{"addr:city":"Dobřichovice","addr:country":"CZ","addr:place":"Dobřichovice","addr:postcode":"25229","phone":"+420 733 766 516","website":"http://www.campdobrichovice.cz/"}},"1728784720":{"location":[49.9208785,14.2102963],"ct":"CZ","tp":"CS","ts":"2023-11-02T09:44:17Z","tX":552,"tY":347,"tags":{"addr:city":"Zadní Třebaň","addr:country":"CZ","addr:place":"Zadní Třebaň","addr:postcode":"26729","internet_access":"wlan","internet_access:fee":"no","name":"Autocamp Ostrov - Zadní Třebáň","phone":"+420 777 150 241","website":"https://www.kempostrov.cz/"}},"1729287940":{"location":[50.0323729,14.4036205],"ct":"CZ","tp":"CR","ts":"2019-03-12T02:55:13Z","tX":552,"tY":347,"tags":{"name":"Intercamp Kotva","tents":"yes","website":"https://www.kotvacamp.cz/"}},"2370881967":{"location":[49.9213585,14.2116981],"ct":"CZ","tp":"CR","ts":"2013-07-02T16:25:35Z","tX":552,"tY":347,"tags":{}},"5923936131":{"location":[49.930406,14.3730347],"ct":"CZ","tp":"CS","ts":"2024-08-17T20:03:55Z","tX":552,"tY":347,"tags":{"addr:city":"Vrané nad Vltavou","addr:housenumber":"634","addr:postcode":"25246","addr:street":"Vltavská","caravans":"yes","email":"lavkaskochovice@lavka.cz","name":"Lávka Park Skochovice","operator":"Klub Lávka Skochovice, Vltavská ul.","tents":"yes","website":"https://lavkaskochovice.cz/"}},"7554532472":{"location":[49.884272,14.2352845],"ct":"CZ","tp":"CS","ts":"2020-05-24T18:40:11Z","tX":552,"tY":347,"tags":{}},"11395000589":{"location":[49.8916285,14.235958],"ct":"CZ","tp":"CS","ts":"2024-07-19T18:45:12Z","tX":552,"tY":347,"tags":{"backcountry":"yes","camp_site":"basic","camp_type":"non_designated","description":"bivak","drinking_water":"no","group_only":"no","impromptu":"yes","motor_vehicle":"no","name":"převis Babka","scout":"no","shelter_type":"rock_shelter"}},"11691849450":{"location":[49.8598842,14.1711898],"ct":"CZ","tp":"CS","ts":"2024-05-29T10:16:30Z","tX":552,"tY":347,"tags":{"backcountry":"yes","camp_site":"basic","caravans":"no","drinking_water":"no","fee":"no","impromptu":"yes","lit":"no","motor_vehicle":"no","motorhome":"no","name":"Casablanca","note":"Anyone can access this camp and legally sleep there, BUT no fire and no tents are allowed.","openfire":"no","power_supply":"no","shower":"no","tents":"no","toilets":"no"}},"11744891898":{"location":[49.8922162,14.3597006],"ct":"CZ","tp":"CS","ts":"2024-07-20T18:53:03Z","tX":552,"tY":347,"tags":{"backcountry":"yes","bench":"yes","camp_site":"basic","camp_type":"non_designated","caravans":"no","description":"bivak","drinking_water":"no","fireplace":"yes","group_only":"no","impromptu":"yes","informal":"yes","power_supply":"no","scout":"no","shelter":"no","static_caravans":"no"}},"11691907821":{"location":[49.8454669,14.1864969],"ct":"CZ","tp":"CS","ts":"2025-01-02T19:39:33Z","tX":552,"tY":347,"tags":{"backcountry":"yes","camp_site":"basic","caravans":"no","drinking_water":"no","fee":"no","impromptu":"yes","lit":"no","motor_vehicle":"no","motorhome":"no","name":"Lesná","note":"Anyone can access this camp and legally sleep there, BUT no fire and no tents are allowed.","openfire":"no","power_supply":"no","shower":"no","tents":"no","toilets":"no"}},"11691931908":{"location":[49.8436182,14.1891086],"ct":"CZ","tp":"CS","ts":"2025-01-02T19:12:35Z","tX":552,"tY":347,"tags":{"backcountry":"yes","camp_site":"basic","capacity":"8","caravans":"no","description":"Simple wooden shed with two floors for sleeping.","drinking_water":"no","fee":"no","impromptu":"yes","lit":"no","motor_vehicle":"no","motorhome":"no","name":"Na Mechu","note":"Anyone can access this camp and legally sleep there, BUT no fire and no tents are allowed.","openfire":"no","power_supply":"no","shower":"no","tents":"no","toilets":"no"}},"11840188857":{"location":[49.8670528,14.1837603],"ct":"CZ","tp":"CS","ts":"2025-01-02T19:17:52Z","tX":552,"tY":347,"tags":{"backcountry":"yes","camp_site":"basic","caravans":"no","drinking_water":"no","fee":"no","impromptu":"yes","lit":"no","motor_vehicle":"no","motorhome":"no","name":"Carcaio","note":"Anyone can access this camp and legally sleep there, BUT no fire and no tents are allowed.","openfire":"no","power_supply":"no","shower":"no","tents":"no","toilets":"no"}},"11840213128":{"location":[49.8616969,14.1814922],"ct":"CZ","tp":"CS","ts":"2025-01-02T19:17:52Z","tX":552,"tY":347,"tags":{"backcountry":"yes","camp_site":"basic","caravans":"no","drinking_water":"no","fee":"no","impromptu":"yes","lit":"no","motor_vehicle":"no","motorhome":"no","name":"Vrahův kemp","note":"Anyone can access this camp and legally sleep there, BUT no fire and no tents are allowed.","openfire":"no","power_supply":"no","shower":"no","tents":"no","toilets":"no"}},"11840244569":{"location":[49.8641069,14.1821618],"ct":"CZ","tp":"CS","ts":"2025-01-02T19:16:50Z","tX":552,"tY":347,"tags":{"backcountry":"yes","camp_site":"basic","caravans":"no","drinking_water":"no","fee":"no","impromptu":"yes","lit":"no","motor_vehicle":"no","motorhome":"no","name":"Bílá skála","note":"Anyone can access this camp and legally sleep there, BUT no fire and no tents are allowed.","openfire":"no","power_supply":"no","shower":"no","tents":"no","toilets":"no"}}}