{"26861151":{"location":[48.6558633,14.1702039],"ct":"CZ","tp":"CS","ts":"2022-05-29T14:53:35Z","tX":552,"tY":353,"tags":{"caravans":"yes","motorcar":"yes","name":"Frymburk","openfire":"yes","phone":"+420 380 735 284","power_supply":"yes","sanitary_dump_station":"yes","shower":"yes","tents":"yes","washing_machine":"yes","water_supply":"yes","website":"https://www.campingfrymburk.cz/en"}},"89688025":{"location":[48.6243772,14.305379],"ct":"CZ","tp":"CS","ts":"2024-07-11T07:49:18Z","tX":552,"tY":353,"tags":{"addr:city":"Vyšší Brod","addr:country":"CZ","addr:place":"Vyšší Brod","addr:postcode":"38273","fee":"yes","name":"Kemp Pod Hrází","phone":"+420 775 748 800","tents":"yes","website":"http://www.ingetour.cz/"}},"107755753":{"location":[48.6612832,14.3663388],"ct":"CZ","tp":"CS","ts":"2024-06-27T14:35:28Z","tX":552,"tY":353,"tags":{"name":"U Nojdy","website":"https://kemp-rozmberk.webgarden.cz/rubriky/kemp-u-nojdy"}},"292852141":{"location":[48.6756529,14.1659387],"ct":"CZ","tp":"CS","ts":"2024-07-20T15:02:00Z","tX":552,"tY":353,"tags":{"addr:city":"Frymburk","caravans":"yes","email":"58iamp@seznam.cz","name":"Camp Vřesná","phone":"+420 602 255 733","website":"https://www.camp-lipno.cz/"}},"398278071":{"location":[48.6383735,14.2100859],"ct":"CZ","tp":"CS","ts":"2024-07-05T11:24:44Z","tX":552,"tY":353,"tags":{"addr:city":"Lipno nad Vltavou","addr:postcode":"38278","camp_site":"deluxe","caravans":"yes","email":"info@campinglipno.cz","fee":"yes","motor_vehicle":"yes","name":"Camping Lipno Modřín","openfire":"yes","phone":"+420 731 410 803","power_supply":"yes","sanitary_dump_station":"yes","shower":"yes","tents":"yes","toilets":"yes","water_supply":"yes","website":"https://www.campinglipno.cz/"}},"729077718":{"location":[48.6290996,14.3698526],"ct":"CZ","tp":"CS","ts":"2024-07-01T13:21:29Z","tX":552,"tY":353,"tags":{}},"1064921261":{"location":[48.6384856,14.2243039],"ct":"CZ","tp":"CR","ts":"2024-07-05T13:28:43Z","tX":552,"tY":353,"tags":{"cabins":"no","camp_site":"serviced","capacity":"40","caravans":"yes","contact:email":"markovi@cmail.cz","contact:phone":"+420 380 736 162","contact:website":"http://www.campingpanorama.cz/index.php?lang=cze","drinking_water":"yes","fee":"yes","motor_vehicle":"yes","motorcar":"yes","name":"Camping Panorama","openfire":"yes","power_supply":"cee_17_blue","sanitary_dump_station":"yes","shower":"yes","static_caravans":"no","tents":"yes","washing_machine":"yes"}},"1082345705":{"location":[48.6536761,14.3637923],"ct":"CZ","tp":"CS","ts":"2024-04-26T07:21:32Z","tX":552,"tY":353,"tags":{"addr:city":"Rožmberk nad Vltavou","addr:postcode":"38218","fee":"yes","name":"Minikemp Rožmberk","operator":"Inge tours","payment:cash":"yes","payment:credit_cards":"yes"}},"1083243849":{"location":[48.654602,14.1706562],"ct":"CZ","tp":"CR","ts":"2022-08-02T14:46:28Z","tX":552,"tY":353,"tags":{}},"1087485861":{"location":[48.6573276,14.1692981],"ct":"CZ","tp":"CR","ts":"2022-08-19T13:16:18Z","tX":552,"tY":353,"tags":{"addr:city":"Frymburk","addr:postcode":"38279"}},"10797298276":{"location":[48.5181917,14.2869582],"ct":"AT","tp":"CR","ts":"2023-04-09T17:08:03Z","tX":552,"tY":353,"tags":{"addr:city":"Bad Leonfelden","addr:housenumber":"2","addr:postcode":"4190","addr:street":"Badweg","capacity":"3","fee":"no","internet_access":"no","power_supply":"no","sanitary_dump_station":"no"}},"7749942393":{"location":[48.609751,14.3684994],"ct":"CZ","tp":"CS","ts":"2021-07-10T15:56:38Z","tX":552,"tY":353,"tags":{"fee":"no","name":"Tábořiště 52. přední hlídky Royal Rangers"}},"7750259234":{"location":[48.6179898,14.3445653],"ct":"CZ","tp":"CS","ts":"2020-07-26T12:58:44Z","tX":552,"tY":353,"tags":{}},"5580776921":{"location":[48.6297378,14.3711868],"ct":"CZ","tp":"CR","ts":"2018-04-26T15:53:11Z","tX":552,"tY":353,"tags":{"name":"Autokemp U Tygra","name:en":"Caravan camp U Tygra"}},"9777018698":{"location":[48.6388453,14.2101546],"ct":"CZ","tp":"SD","ts":"2022-08-19T11:30:39Z","tX":552,"tY":353,"tags":{"access":"customers"}},"9777113390":{"location":[48.6388757,14.2091033],"ct":"CZ","tp":"SD","ts":"2022-05-28T19:49:01Z","tX":552,"tY":353,"tags":{"access":"customers","water_point":"yes"}},"9779739822":{"location":[48.6385081,14.2249946],"ct":"CZ","tp":"SD","ts":"2022-05-29T20:26:13Z","tX":552,"tY":353,"tags":{"water_point":"yes"}}}