{"447751320":{"location":[47.7563044,14.3997536],"ct":"AT","tp":"CS","ts":"2024-02-15T16:42:43Z","tX":552,"tY":356,"tags":{"access":"yes","drinking_water":"no","fee":"yes","name":"Biwakplatz Steyrsteg","operator":"Nationalpark Kalkalpen","payment:cash":"yes","payment:money_order":"yes","website":"https://wildniswandern.kalkalpen.at/de/huette/biwakplatz-steyrsteg/10364093"}},"5008032822":{"location":[47.7762156,14.168478],"ct":"AT","tp":"CS","ts":"2024-07-26T06:57:53Z","tX":552,"tY":356,"tags":{"addr:city":"Klaus an der Pyhrnbahn","addr:country":"AT","addr:housenumber":"37","addr:place":"Kniewas","addr:postcode":"4572","name":"Camping Obermayr Elisabethsee","website":"https://www.camping-obermayr.eu"}},"5723425257":{"location":[47.8507256,14.1459757],"ct":"AT","tp":"CS","ts":"2018-06-27T14:49:07Z","tX":552,"tY":356,"tags":{"caravans":"yes","email":"reservierung@schoen-menschen.at","fixme":"exact location?","name":"Camping Sch√∂n","phone":"+43 7582 609 17","tents":"yes","website":"https://www.schoen-menschen.at","wheelchair":"yes"}}}