{"11215736":{"location":[46.5797996,14.1489822],"ct":"AT","tp":"CS","ts":"2023-03-20T20:51:13Z","tX":552,"tY":361,"tags":{"access":"yes","addr:city":"Keutschach am See","addr:housenumber":"10","addr:postcode":"9074","addr:street":"Dobein","cabins":"yes","caravans":"yes","email":"muellerhof@fkk-camping.at","internet_access":"wlan","name":"FKK-Camping Müllerhof","nudism":"obligatory","operator":"Familie Safron","phone":"+43 4273 2517","shower":"yes","tents":"yes","toilets":"yes","website":"https://fkk-camping.at/"}},"30266160":{"location":[46.6824165,14.1756189],"ct":"AT","tp":"CS","ts":"2023-08-18T08:55:22Z","tX":552,"tY":361,"tags":{"addr:postcode":"9062","name":"Naturist Tigringer See","nudism":"yes","source":"plan.at 2009","website":"https://www.meine-ferienregion.de/campingplatz/fkk-camping-tigringer-see"}},"43578192":{"location":[46.6180193,14.2574958],"ct":"AT","tp":"CS","ts":"2023-10-31T14:38:16Z","tX":552,"tY":361,"tags":{"caravans":"yes","drinking_water":"yes","internet_access":"wlan","name":"Campingplatz Klagenfurt am Wörthersee","power_supply":"yes","shower":"yes","tents":"yes","toilets":"yes","website":"https://www.camping-woerthersee.at/"}},"114017039":{"location":[46.6993195,14.1446588],"ct":"AT","tp":"CS","ts":"2012-09-22T15:50:49Z","tX":552,"tY":361,"tags":{"name":"Camping Maltschacher See"}},"114017094":{"location":[46.7055171,14.1446569],"ct":"AT","tp":"CS","ts":"2022-07-18T11:25:42Z","tX":552,"tY":361,"tags":{"cabins":"yes","caravans":"yes","dog":"leashed","fee":"yes","internet_access":"wlan","internet_access:fee":"customers","name":"Camping Seewirt","power_supply":"yes","static_caravans":"yes","tents":"yes","washing_machine":"yes","website":"https://seewirt-spiess.com/de/camping"}},"114102849":{"location":[46.5849198,14.1707354],"ct":"AT","tp":"CS","ts":"2014-11-07T08:49:36Z","tX":552,"tY":361,"tags":{"name":"Strandcamping Süd","naturism":"no","nudism":"no","source":"survey"}},"114102852":{"location":[46.5830993,14.1664923],"ct":"AT","tp":"CS","ts":"2025-04-27T14:20:35Z","tX":552,"tY":361,"tags":{"addr:city":"Keutschach am See","addr:housenumber":"32","addr:postcode":"9074","addr:street":"Dobeinitz","name":"FKK Camping Turkwiese","naturism":"yes","nudism":"obligatory","operator":"Kärntner Lichtbund","website":"http://www.klb.at/"}},"114102867":{"location":[46.5911953,14.1680367],"ct":"AT","tp":"CS","ts":"2024-06-04T12:43:19Z","tX":552,"tY":361,"tags":{"name":"Strandcamping Nord"}},"132609446":{"location":[46.5874861,14.150735],"ct":"AT","tp":"CS","ts":"2013-09-12T08:21:11Z","tX":552,"tY":361,"tags":{"alt_name":"Camping Valentinitsch","name":"Camping West","operator":"Valentinitsch"}},"132609450":{"location":[46.5796595,14.1538908],"ct":"AT","tp":"CS","ts":"2023-03-20T20:51:13Z","tX":552,"tY":361,"tags":{"addr:city":"Keutschach am See","addr:housenumber":"9","addr:postcode":"9074","addr:street":"Dobein","caravans":"yes","name":"FKK-Großcamping Sabotnik","nudism":"obligatory","operator":"Familie Kaufitsch","phone":"+43 4273 2509","shower":"yes","tents":"yes","toilets":"yes","website":"https://www.fkk-sabotnik.at/"}},"696967168":{"location":[46.709525,14.0756483],"ct":"AT","tp":"CS","ts":"2019-06-13T17:15:36Z","tX":552,"tY":361,"tags":{}},"710997596":{"location":[46.6179993,14.1059167],"ct":"AT","tp":"CS","ts":"2024-07-01T13:47:29Z","tX":552,"tY":361,"tags":{"access":"customers","addr:city":"Schiefling am Wörthersee","addr:housenumber":"47","addr:postcode":"9535","addr:street":"Auenstraße","caravans":"yes","check_date":"2024-06-29","contact:email":"reservation-woerthersee@europarcs.at","contact:phone":"+4342742898","contact:website":"https://www.europarcs.at/ferienparks/oesterreich/kaernten/woerthersee?utm_source=gmb&utm_medium=organic&utm_campaign=park","dog":"yes","drinking_water":"yes","fee":"yes","group_only":"no","internet_access":"wlan","internet_access:fee":"no","name":"EuroParcs Wörthersee","operator":"JA Betriebs GmbH","picnic_table":"yes","power_supply":"yes","sanitary_dump_station":"yes","shower":"yes","tents":"yes","toilets":"yes","washing_machine":"yes","wheelchair":"limited"}},"737794176":{"location":[46.5859271,14.2286923],"ct":"AT","tp":"CS","ts":"2019-10-23T07:28:44Z","tX":552,"tY":361,"tags":{"name":"Campingplatz Reautschnighof"}},"838350701":{"location":[46.5815841,14.1497102],"ct":"AT","tp":"CS","ts":"2023-03-20T21:01:01Z","tX":552,"tY":361,"tags":{"access":"permissive","name":"Camping Schwingshakl","nudism":"no","phone":"+43 699 81 36 79 94","website":"https://www.woerthersee.com/dc/detail/poi-camping-schwingshackl"}},"1279026526":{"location":[46.6333544,14.1590048],"ct":"AT","tp":"CR","ts":"2024-05-13T21:25:49Z","tX":552,"tY":361,"tags":{"addr:city":"Pörtschach am Wörther See","addr:postcode":"9210","addr:street":"Klagenfurterstraße","capacity":"15","caravan_site":"motorhome_stopover","caravans":"yes","charge":"12 EUR","description":"In den Sommermonaten - Kostenpflichtig. Rast-Stellplatz Pörtschach - Wohnmobil Stellplatz","fee":"yes","leisure":"park","name":"RAST-PARKPLATZ Pörtschach am Wörthersee","opening_hours":"24/7","operator":"Rast-Stellplatz.at","phone":"+43 650 3047343","seasonal":"yes","website":"https://rast-stellplatz.at/poertschach/"}},"1841680860":{"location":[46.5828913,14.2283274],"ct":"AT","tp":"CS","ts":"2024-07-11T17:27:17Z","tX":552,"tY":361,"tags":{"caravans":"yes","drinking_water":"yes","name":"Reichmann","power_supply":"yes","sanitary_dump_station":"yes","shower":"yes","tents":"yes","toilets":"yes","wheelchair":"yes"}},"2695071960":{"location":[46.671006,14.1986977],"ct":"AT","tp":"CS","ts":"2020-07-02T21:06:28Z","tX":552,"tY":361,"tags":{"addr:city":"Moosburg","addr:country":"AT","addr:housenumber":"1a","addr:place":"Dellach","addr:postcode":"9062","operator":"Dieter Endisch Sudetenhof","phone":"+43 427283473"}},"4232282892":{"location":[46.72588,14.0933487],"ct":"AT","tp":"CS","ts":"2016-07-10T11:58:30Z","tX":552,"tY":361,"tags":{"addr:housenumber":"21","addr:postcode":"9560","addr:street":"Kirchgasse","name":"Otthon"}},"6807088031":{"location":[46.6585653,14.1666003],"ct":"AT","tp":"CS","ts":"2019-09-19T05:28:13Z","tX":552,"tY":361,"tags":{"description":"am Südufer des Mühlteichs, Restaurant, Baden, Fischen (Mitterteich)","name":"Camping Moosburg"}},"5875187286":{"location":[46.618143,14.2573932],"ct":"AT","tp":"CR","ts":"2023-09-20T06:01:35Z","tX":552,"tY":361,"tags":{"internet_access":"wlan","name":"camping Klagenfurt","name:pl":"Camping Klagenfurt","toilets":"yes"}},"9759998817":{"location":[46.6182413,14.3067813],"ct":"AT","tp":"CR","ts":"2024-09-27T06:29:17Z","tX":552,"tY":361,"tags":{"drinking_water":"yes","fee":"yes","name":"Am Messeparkplatz","power_supply":"no","sanitary_dump_station":"yes","toilets":"no"}},"11365238174":{"location":[46.6325366,14.1609022],"ct":"AT","tp":"CR","ts":"2023-11-20T22:49:02Z","tX":552,"tY":361,"tags":{}}}