{"7126685":{"location":[46.3218959,14.205577],"ct":"SI","tp":"CS","ts":"2023-09-09T13:38:51Z","tX":552,"tY":362,"tags":{"access":"customers","addr:city":"Radovljica","addr:postcode":"4240","addr:street":"Globoko","capacity:caravans":"30","capacity:persons":"160","capacity:tents":"50","caravans":"yes","dog":"leashed","drinking_water":"yes","email":"booking@ecorivercamp.com","fee":"yes","internet_access":"wlan","mobile":"+38640943046","name":"ECO River Camp","opening_hours":"07:00-21:00","payment:cash":"yes","payment:credit_cards":"yes","payment:debit_cards":"yes","picnic_table":"yes","power_supply":"yes","raba:id":"1300","sanitary_dump_station":"yes","shower":"yes","source":"RABA-KGZ","source:date":"2017-02-28","static_caravans":"yes","tents":"yes","toilets":"yes","website":"https://ecorivercamp.com/"}},"83187886":{"location":[46.5242497,14.2969703],"ct":"AT","tp":"CR","ts":"2021-12-22T15:52:25Z","tX":552,"tY":362,"tags":{"capacity":">20","fee":"yes","name":"Ferlach-WOMO-Stellplatz","power_supply":"yes"}},"153783782":{"location":[46.5437496,14.387678],"ct":"AT","tp":"CS","ts":"2023-12-28T15:19:50Z","tX":552,"tY":362,"tags":{"addr:city":"Sankt Margareten im Rosental","addr:country":"AT","addr:housenumber":"34","addr:place":"Gotschuchen","addr:postcode":"9173","capacity":"430","fee":"yes","name":"Camping Rosental Rož","operator":"Camping Rosental Rož","payment:cash":"yes","payment:maestro":"yes","wheelchair":"yes"}},"168867597":{"location":[46.3542135,14.1480879],"ct":"SI","tp":"CS","ts":"2024-09-28T20:19:47Z","tX":552,"tY":362,"tags":{"addr:city":"Lesce","addr:country":"SI","addr:housenumber":"25","addr:postcode":"4248","addr:street":"Šobčeva cesta","caravans":"yes","check_date:internet_access":"2021-08-30","drinking_water":"yes","internet_access":"wlan","internet_access:fee":"no","name":"Camping Šobec","operator":"tweede overnachting","phone":"+386 4 5353700","power_supply":"yes","sanitary_dump_station":"yes","shower":"yes","tents":"yes","toilets":"yes","website":"http://sobec.si/","wheelchair":"yes","wikidata":"Q19938125","wikipedia":"en:Šobec Campground"}},"365656359":{"location":[46.5436437,14.3870666],"ct":"AT","tp":"SD","ts":"2015-08-14T09:37:23Z","tX":552,"tY":362,"tags":{"access":"private","fee":"no","operator":"Camping Rosental ROZ","water_point":"yes"}},"365656360":{"location":[46.5436501,14.3902686],"ct":"AT","tp":"SD","ts":"2015-08-14T09:37:23Z","tX":552,"tY":362,"tags":{"access":"private","fee":"no","operator":"Camping Rosental ROZ","water_point":"yes"}},"460186862":{"location":[46.3610358,14.0776965],"ct":"SI","tp":"CS","ts":"2024-07-19T06:21:55Z","tX":552,"tY":362,"tags":{"capacity":"244","caravans":"yes","dog":"yes","drinking_water":"yes","email":"info@camping-bled.com","internet_access":"wlan","internet_access:fee":"no","name":"Camping Bled","name:de":"Campingplatz Bled","phone":"+386 4 575 20 00","power_supply":"yes","power_supply:maxcurrent":"16","reservation":"required","sanitary_dump_station":"yes","shower":"yes","tents":"yes","toilets":"yes","washing_machine":"yes","website":"https://www.camping-bled.com/","wheelchair":"yes"}},"554286888":{"location":[46.3484858,14.1722072],"ct":"SI","tp":"CS","ts":"2024-04-19T10:19:42Z","tX":552,"tY":362,"tags":{"addr:city":"Radovljica","addr:housenumber":"9","addr:postcode":"4240","addr:street":"Kopališka cesta","description":"Embracing the globe hills, where there be peace and cozy atmosphere, is located camp Radovljica.The camp offers 30 modern pitches for caravans and trailers and parceled land for tents.","email":"info@camping-radovljica.com","name":"Camping Radovljica","phone":"+386 4 5315 770","website":"https://www.camping-radovljica.com/"}},"609179917":{"location":[46.5287911,14.1723559],"ct":"AT","tp":"CS","ts":"2018-07-19T10:27:35Z","tX":552,"tY":362,"tags":{"name":"Juritz"}},"734274532":{"location":[46.370334,14.1185098],"ct":"SI","tp":"CR","ts":"2019-10-14T09:58:01Z","tX":552,"tY":362,"tags":{"fee":"yes","name":"Bled","name:de":"Wohnmobilstellpatz Bled","name:en":"Camper site Bled","power_supply":"yes","sanitary_dump_station":"yes"}},"1104152650":{"location":[46.3992503,14.2809835],"ct":"SI","tp":"CS","ts":"2024-01-16T19:39:06Z","tX":552,"tY":362,"tags":{"contact:website":"https://www.camp-podljubelj.com/","name":"Camp Podljubelj"}},"3698887924":{"location":[46.4150287,14.105215],"ct":"SI","tp":"CS","ts":"2024-08-24T05:33:25Z","tX":552,"tY":362,"tags":{"alt_name":"Kamp Lipce","caravans":"yes","drinking_water":"yes","email":"info@perun.si","fee":"yes","name":"Camping Perun Lipce","phone":"+386 40 480 686","power_supply":"yes","shower":"yes","tents":"yes","toilets":"yes","website":"https://www.camping-perun.si/"}},"7826037896":{"location":[46.3187534,14.1939585],"ct":"SI","tp":"CS","ts":"2024-07-26T12:04:09Z","tX":552,"tY":362,"tags":{"addr:city":"Kamna Gorica","addr:housenumber":"75","addr:postcode":"4246","addr:street":"Kamna Gorica","fixme":"Check if really a campsite? wrong tag. no tents or campervans allowed. just cabins","name":"Pr' Matic"}},"12076510045":{"location":[46.3167728,14.2130588],"ct":"SI","tp":"CS","ts":"2024-07-27T08:04:34Z","tX":552,"tY":362,"tags":{"name":"Camping Green Garden Park Mišače"}},"10876108141":{"location":[46.3635563,14.1115065],"ct":"SI","tp":"CR","ts":"2023-05-07T16:26:49Z","tX":552,"tY":362,"tags":{}},"11191332894":{"location":[46.3215053,14.2038389],"ct":"SI","tp":"CR","ts":"2023-09-14T18:16:24Z","tX":552,"tY":362,"tags":{}},"11191332897":{"location":[46.3216179,14.2062422],"ct":"SI","tp":"CR","ts":"2023-09-14T18:19:23Z","tX":552,"tY":362,"tags":{"addr:city":"Radovljica","addr:postcode":"4240","addr:street":"Globoko","email":"booking@ecorivercamp.com","internet_access":"wlan","mobile":"+386 40 943 046","power_supply":"yes"}},"6876288750":{"location":[46.3703941,14.1186145],"ct":"SI","tp":"SD","ts":"2021-10-13T17:56:29Z","tX":552,"tY":362,"tags":{"access":"yes"}},"8990504014":{"location":[46.3574731,14.1482975],"ct":"SI","tp":"SD","ts":"2021-08-08T18:00:45Z","tX":552,"tY":362,"tags":{}},"12174326437":{"location":[46.3663223,14.1365312],"ct":"SI","tp":"SD","ts":"2024-09-13T07:27:37Z","tX":552,"tY":362,"tags":{"access":"customers","sanitary_dump_station:chemical_toilet":"yes","sanitary_dump_station:grey_water":"es","water_point":"yes"}},"12670170479":{"location":[46.3415081,14.2806704],"ct":"SI","tp":"CS","ts":"2025-03-16T15:01:07Z","tX":552,"tY":362,"tags":{"addr:city":"Tržič","addr:housenumber":"23","addr:postcode":"4290","addr:street":"Cesta na Hudo","addr:village":"Kovor","caravans":"no","contact:youtube":"https://www.youtube.com/watch?v=KHNE_WQJ-Y8","description":"Glamping","email":"ekokmetija.slibar@siol.net","fee":"yes","name":"Ekološka kmetija Šlibar","phone":"+386 31 512 199;+386 31 203 597","place":"farm","static_caravans":"no","tents":"no","website":"https://www.kmetija-slibar.eu/"}}}