{"390560512":{"location":[45.7978589,14.1789665],"ct":"SI","tp":"CR","ts":"2024-08-16T22:34:13Z","tX":552,"tY":365,"tags":{"capacity":"30","fee":"18€/24h","internet_access":"wlan","internet_access:fee":"no","name":"Lipa Plac","power_supply":"yes","reservation":"yes","smoking":"outside","swimming_pool":"no","wheelchair":"yes"}},"417578360":{"location":[45.8042805,14.2058536],"ct":"SI","tp":"CS","ts":"2024-03-10T18:56:19Z","tX":552,"tY":365,"tags":{"addr:city":"Postojna","addr:housenumber":"50","addr:postcode":"6230","addr:street":"Veliki Otok","caravans":"yes","drinking_water":"yes","email":"avtokamp.pivka.jama@siol.net","fax":"+386 (0)5 7265 348","name":"Pivka jama","phone":"+386 (0)5 720 39 93","reservation":"no","sanitary_dump_station":"yes","shower":"yes","tents":"yes","toilets":"yes","website":"http://camping-postojna.com/en/"}},"519298974":{"location":[45.6678108,14.1876727],"ct":"SI","tp":"CR","ts":"2024-02-16T20:39:32Z","tX":552,"tY":365,"tags":{}},"704212336":{"location":[45.7804359,14.2036811],"ct":"SI","tp":"CR","ts":"2024-04-15T12:47:30Z","tX":552,"tY":365,"tags":{"charge":"25€/24h","drinking_water":"yes","fee":"yes","parking":"surface","sanitary_dump_station":"yes"}},"1103832941":{"location":[45.6840013,14.2175149],"ct":"SI","tp":"CS","ts":"2024-08-06T18:40:36Z","tX":552,"tY":365,"tags":{"caravans":"yes","charge":"20 EUR","contact:website":"https://pension-nameji.com/sl/kamp","drinking_water":"yes","fee":"yes","internet_access":"wlan","internet_access:fee":"no","name":"Kamp Na Meji","payment:cash":"yes","payment:credit_cards":"yes","payment:debit_cards":"yes","power_supply":"yes","sanitary_dump_station":"no","shower":"yes","tents":"yes","toilets":"yes"}},"1315974080":{"location":[45.7092652,14.1931469],"ct":"SI","tp":"CS","ts":"2024-09-16T17:04:42Z","tX":552,"tY":365,"tags":{"addr:city":"Pivka","addr:housenumber":"66","addr:postcode":"6257","addr:street":"Selce","caravans":"yes","drinking_water":"yes","name":"Camp Plana","name:en":"Camp Plana & Bar 66","name:fr":"Camping plana & Bar 66","name:sl":"Camp Plana & Bar 66","phone":"+38670668668","power_supply":"yes","shower":"yes","tents":"yes","website":"https://camping-plana.com"}}}