{"11187897":{"location":[42.5683663,14.0936508],"ct":"IT","tp":"CS","ts":"2025-04-29T13:17:29Z","tX":552,"tY":377,"tags":{"addr:city":"Silvi","addr:postcode":"64028","addr:suburb":"Contrada Vallescura","check_date":"2024-10-10","contact:email":"bookingsilvi@apuliahotel.it","contact:phone":"+39 085 799 1819","dog":"yes","fee":"yes","name":"Europe Garden","operator":"Apulia Europe Garden Club Eco & Sport Resort","power_supply":"yes","ref:vatin":"IT00429770688","website":"https://www.europegarden.it/","whatsapp":"+39 376 003 8146"}},"359782106":{"location":[42.5887211,14.0836098],"ct":"IT","tp":"CS","ts":"2025-06-12T07:32:56Z","tX":552,"tY":377,"tags":{"name":"Agricamping"}},"1259452499":{"location":[42.5800391,14.0941266],"ct":"IT","tp":"CS","ts":"2024-09-15T13:39:18Z","tX":552,"tY":377,"tags":{"addr:city":"Pineto","addr:postcode":"64025","addr:street":"Via torre Cerrano","caravans":"yes","name":"International Camping Torre Cerrano","tents":"yes","website":"https://www.internationalcamping.it/"}}}