{"239974860":{"location":[40.8289752,14.1378296],"ct":"IT","tp":"CS","ts":"2024-09-09T09:21:46Z","tX":552,"tY":384,"tags":{"abandoned":"yes","addr:city":"Pozzuoli","addr:housenumber":"161","addr:postcode":"80078","addr:street":"Via Solfatara","caravans":"yes","contact:email":"camping@solfatara.it","contact:facebook":"https://www.facebook.com/campeggiovulcanosolfatara","dog":"yes","fee":"yes","name":"Campeggio Internazionale Vulcano Solfatara","phone":"+39 0815267413","sanitary_dump_station":"yes","shower":"yes","tents":"yes","toilets":"yes","website":"https://www.solfatara.it/campeggio-internazionale-vulcano-solfatara/","wheelchair":"yes"}},"1314327045":{"location":[40.8680218,14.205573],"ct":"IT","tp":"CR","ts":"2024-09-09T09:16:56Z","tX":552,"tY":384,"tags":{"addr:housenumber":"4","addr:street":"Strada Comunale Guantai ad Orsolone","capacity":"36","name":"Area attrezzata sosta camper \"Parco dei Camaldoli\"","note":"Closed!","operator":"Camper Club Napoli","power_supply":"yes","power_supply:maxcurrent":"3","sanitary_dump_station":"yes","socket:cee_blue":"yes","website":"https://www.napolisostacamper.it/wp/"}},"2062991728":{"location":[40.8696795,14.1216775],"ct":"IT","tp":"CR","ts":"2012-12-12T11:51:17Z","tX":552,"tY":384,"tags":{}},"2260107102":{"location":[40.8407133,14.0879516],"ct":"IT","tp":"CS","ts":"2016-08-26T17:21:43Z","tX":552,"tY":384,"tags":{"internet_access":"wlan","name":"Camping Averno Damiani","name:it":"Centro Turistico Damiani"}},"10138472886":{"location":[40.7882397,14.4062697],"ct":"IT","tp":"CS","ts":"2022-10-29T20:50:14Z","tX":552,"tY":384,"tags":{"name":"Branditos","website":"https://www.airbnb.com/rooms/677280031865944776"}},"11288171069":{"location":[40.8061218,14.362905],"ct":"IT","tp":"CS","ts":"2023-10-25T08:27:03Z","tX":552,"tY":384,"tags":{"addr:housenumber":"75","addr:street":"Via Cupa Monti","name":"Agricamping Stone Vesuvio","opening_hours":"24/7","website":"http://www.agrisor.it"}},"4487444494":{"location":[40.788343,14.3622028],"ct":"IT","tp":"CR","ts":"2016-11-07T19:15:26Z","tX":552,"tY":384,"tags":{"fee":"yes","name":"Parcheggio Torre Amarea H24","name:en":"Parking Torre Amarea H24","sanitary_dump_station":"no"}},"8255772472":{"location":[40.9063761,14.1257723],"ct":"IT","tp":"CR","ts":"2020-12-23T20:48:44Z","tX":552,"tY":384,"tags":{}},"11166566353":{"location":[40.8696667,14.2462497],"ct":"IT","tp":"CR","ts":"2024-08-09T15:57:25Z","tX":552,"tY":384,"tags":{"addr:city":"Napoli","addr:country":"IT","addr:housenumber":"27","addr:street":"Viale Colli Aminei","alt_name":"Area Camper IPM","name":"Parcheggio IPM","name:es":"√Årea de autocaravanas","power_supply":"yes","sanitary_dump_station":"yes","socket:cee_blue":"yes"}},"11169105998":{"location":[40.8038156,14.3486015],"ct":"IT","tp":"CR","ts":"2024-08-09T15:59:30Z","tX":552,"tY":384,"tags":{"addr:city":"Ercolano","addr:postcode":"80056","addr:street":"Via dei Papiri Ercolanesi","name":"Parcheggio camper Ercolano","power_supply":"no","sanitary_dump_station":"no"}},"11166566351":{"location":[40.8695258,14.2453636],"ct":"IT","tp":"SD","ts":"2023-09-04T09:24:40Z","tX":552,"tY":384,"tags":{"fee":"yes"}},"11166566352":{"location":[40.8695205,14.2454429],"ct":"IT","tp":"SD","ts":"2023-09-04T09:24:40Z","tX":552,"tY":384,"tags":{"fee":"yes"}}}