{"220149268":{"location":[38.0238528,14.1530223],"ct":"IT","tp":"CS","ts":"2024-09-24T06:56:43Z","tX":552,"tY":394,"tags":{"addr:city":"Finale di Pollina","addr:country":"IT","addr:street":"S.S.113","cabins":"yes","caravans":"yes","contact:whatsapp":"+393703510906","drinking_water":"yes","email":"camping@raisgerbi.it","internet_access":"wlan","motorhome":"yes","name":"Camping Rais Gerbi","phone":"+393703510906","power_supply":"yes","power_supply:maxcurrent":"25","sanitary_dump_station":"yes","shower":"yes","socket:cee_blue":"yes","tents":"yes","toilets":"yes","website":"https://www.raisgerbi.it/","wheelchair":"yes"}},"1160644669":{"location":[38.0123203,14.3282405],"ct":"IT","tp":"CR","ts":"2024-09-25T06:04:09Z","tX":552,"tY":394,"tags":{"addr:street":"Via colonna","name":"Oasi park","name:it":"Oasi park","operator":"antonio","phone":"+39 320 8059110","power_supply":"yes","sanitary_dump_station":"yes","shower":"yes"}},"1317811267":{"location":[38.0100269,14.230416],"ct":"IT","tp":"CS","ts":"2024-09-24T07:03:37Z","tX":552,"tY":394,"tags":{"cabins":"yes","caravans":"yes","contact:whatsapp":"+393501416690","dog":"yes","drinking_water":"yes","email":"info@loscoglio.eu","fee":"yes","internet_access":"wlan","motorhome":"yes","name":"Lo Scoglio","phone":"+39 0921 994078","power_supply":"yes","shower":"yes","socket:cee_blue":"yes","tents":"yes","toilets":"yes","website":"https://www.loscoglio.eu/"}}}