{"4395367791":{"location":[12.3769562,14.3221719],"ct":"CM","tp":"CS","ts":"2023-10-14T17:13:55Z","tX":552,"tY":476,"tags":{"addr:housenumber":"15","addr:postcode":"00237","addr:street":"Djokana Fotokol","name":"Djokana Cameroun","name:en":"Djokana Cameroon","name:fr":"Djokana Cameroun"}},"4413923491":{"location":[12.3828734,14.2118898],"ct":"CM","tp":"CS","ts":"2021-04-04T12:02:47Z","tX":552,"tY":476,"tags":{"addr:housenumber":"10","addr:postcode":"00237","addr:street":"Fotokol","name":"Poste Tango","name:en":"Post Tango","name:fr":"Poste Tango"}},"4492989992":{"location":[12.430408,14.3382306],"ct":"CM","tp":"CS","ts":"2023-10-14T17:13:55Z","tX":552,"tY":476,"tags":{"addr:housenumber":"200","addr:postcode":"00237","addr:street":"Fotokol Biamo","name":"Globalement Arabe","name:en":"Globalement Arabe","name:fr":"Globalement Arabe"}},"4492991492":{"location":[12.4374437,14.3354213],"ct":"CM","tp":"CS","ts":"2016-11-10T18:58:57Z","tX":552,"tY":476,"tags":{"addr:street":"Fotokol Biamo","name":"Glo Arabe"}},"4587848693":{"location":[12.426131,14.3609367],"ct":"CM","tp":"CS","ts":"2017-01-03T20:59:04Z","tX":552,"tY":476,"tags":{"addr:housenumber":"100","addr:postcode":"00237","name":"Mafande","name:en":"Mafande","name:fr":"Mafande"}},"4643607290":{"location":[12.3775492,14.3218437],"ct":"CM","tp":"CS","ts":"2017-01-30T06:40:45Z","tX":552,"tY":476,"tags":{"addr:postcode":"00237","name":"Moussa kambo","name:en":"Moussa kambo","name:fr":"Moussa kambo"}}}