{"318475028":{"location":[-35.1077615,173.841231],"ct":"NZ","tp":"CS","ts":"2021-04-29T08:04:28Z","tX":1006,"tY":618,"tags":{"name":"Lonsdale Outdoor Education Park"}},"428111710":{"location":[-34.9939131,173.7073982],"ct":"NZ","tp":"CS","ts":"2024-07-21T05:54:14Z","tX":1006,"tY":618,"tags":{"addr:city":"Mangonui","addr:country":"NZ","addr:hamlet":"Taup≈ç Bay","addr:housenumber":"1070","addr:street":"Taupo Bay Road","email":"taupobay@value.net.nz","name":"Taupo Bay Holiday Park","phone":"+64 9 406 0315","ref:linz:address_id":"1365006","website":"https://www.taupobayholidaypark.co.nz/"}},"514370893":{"location":[-35.028707,173.9152962],"ct":"NZ","tp":"CS","ts":"2022-04-02T12:41:41Z","tX":1006,"tY":618,"tags":{"addr:country":"NZ","addr:hamlet":"Matauri Bay","addr:street":"Matauri Bay Road","cabins":"yes","caravans":"yes","contact:email":"matauribayhp@actrix.co.nz","contact:phone":"+64 (9) 405 0525","contact:website":"http://www.matauribayholidaypark.co.nz/","dryer":"yes","kitchen":"yes","name":"Matauri Bay Holiday Park","payment:cash":"yes","payment:mastercard":"yes","payment:visa":"yes","power_supply":"yes","sanitary_dump_station":"yes","tents":"yes","washing_machine":"yes"}},"888799044":{"location":[-35.0062396,173.7837343],"ct":"NZ","tp":"CR","ts":"2020-12-27T06:18:02Z","tX":1006,"tY":618,"tags":{"cabins":"yes","caravans":"yes","contact:phone":"+64 9 4050436","contact:website":"http://www.taurangabay.co.nz/","dryer":"yes","internet_access":"wlan","kitchen":"yes","name":"Tauranga Bay Holiday Park","power_supply":"yes","tents":"yes","washing_machine":"yes"}},"7834524985":{"location":[-35.0516548,173.7027048],"ct":"NZ","tp":"CR","ts":"2024-12-03T19:24:42Z","tX":1006,"tY":618,"tags":{"email":"ask.us@fndc.govt.nz","name":"Totara North Road Freedom Camping Area","operator":"Far North District Council","phone":"+64 800 920 029","website":"https://www.fndc.govt.nz"}},"8263296021":{"location":[-35.0061274,173.7854269],"ct":"NZ","tp":"SD","ts":"2020-12-27T06:18:02Z","tX":1006,"tY":618,"tags":{"access":"customers"}},"8282153697":{"location":[-35.028169,173.9147323],"ct":"NZ","tp":"SD","ts":"2021-01-02T00:54:34Z","tX":1006,"tY":618,"tags":{}}}