{"246316133":{"location":[42.1884376,-8.5159486],"ct":"ES","tp":"CS","ts":"2013-11-15T14:40:43Z","tX":487,"tY":379,"tags":{"name":"A Freixa"}},"253694109":{"location":[42.2688565,-8.7522343],"ct":"ES","tp":"CS","ts":"2023-02-23T10:28:16Z","tX":487,"tY":379,"tags":{"addr:city":"Moaña","addr:postcode":"36940","cabins":"yes","capacity":"150","caravans":"yes","dog":"no","email":"info@campingtiran.com","fee":"yes","internet_access":"yes","internet_access:fee":"no","internet_access:ssid":"campintiran","motorcar":"yes","name":"Tirán","operator":"Directora: Mabel","power_supply":"yes","start_date":"1979","tents":"yes","washing_machine":"yes","website":"https://www.campingtiran.com"}},"824901713":{"location":[42.2665769,-8.7816406],"ct":"ES","tp":"CR","ts":"2020-07-10T14:59:09Z","tX":487,"tY":379,"tags":{}},"842977081":{"location":[42.2029641,-8.6643783],"ct":"ES","tp":"CR","ts":"2024-04-05T09:49:29Z","tX":487,"tY":379,"tags":{"capacity":"22","caravan_site":"motorhome_stopover","charge":"5 EUR","fee":"yes","name":"Área As Pedriñas","name:es":"Área As Pedriñas","name:gl":"Área As Pedriñas","power_supply:fee":"no","sanitary_dump_station":"yes","toilets":"yes","water_point":"yes","website":"https://www.tameiga.com/area-para-autocaravanas-as-pedrinas/"}},"965558915":{"location":[42.2371423,-8.4595098],"ct":"ES","tp":"CR","ts":"2024-02-16T20:36:27Z","tX":487,"tY":379,"tags":{"access":"yes","addr:city":"Mondariz","addr:postcode":"36875","addr:street":"PO-252","capacity":"10","caravan_site":"motorhome_stopover","covered":"no","drinking_water":"yes","fee":"no","maxstay":"72 hours","name":"Área de Autocaravanas de Mondariz","operator":"Ayuntamiento de Mondariz","power_supply":"yes","sanitary_dump_station":"yes","sanitary_dump_station:chemical_toilet":"yes","sanitary_dump_station:grey_water":"yes","sanitary_dump_station:round_drain":"yes","seasonal":"no","supervised":"no","surface":"asphalt","water_point":"yes"}},"965561912":{"location":[42.0792175,-8.5089163],"ct":"ES","tp":"CR","ts":"2022-10-16T14:29:24Z","tX":487,"tY":379,"tags":{"access":"yes","addr:city":"Salvaterra de Miño","addr:postcode":"36450","addr:street":"Rúa Lodeiro","capacity":"2","covered":"no","description":"Área de autocaravanas.","description:fr":"aire de stationnement pour camping-car.","drinking_water":"yes","fee":"no","maxstay":"no","name":"Área de A Canuda","operator":"Concello de Salvaterra de Miño","power_supply":"no","sanitary_dump_station":"yes","sanitary_dump_station:chemical_toilet":"yes","sanitary_dump_station:grey_water":"yes","sanitary_dump_station:round_drain":"yes","supervised":"no","surface":"asphalt","water_point":"yes"}},"965601072":{"location":[42.0966465,-8.5575643],"ct":"ES","tp":"CR","ts":"2024-05-28T15:05:01Z","tX":487,"tY":379,"tags":{"access":"yes","addr:city":"Salceda de Caselas","addr:postcode":"36470","addr:street":"EP-2505","capacity":"5","covered":"no","drinking_water":"yes","fee":"no","maxstay":"48 hours","name":"Área de autocaravanas Salceda de Caselas","operator":"Concello de Salceda de Caselas","power_supply":"no","sanitary_dump_station":"yes","sanitary_dump_station:chemical_toilet":"yes","sanitary_dump_station:grey_water":"yes","sanitary_dump_station:round_drain":"yes","supervised":"no","surface":"gravel","water_point":"yes"}},"1148675458":{"location":[42.2058314,-8.775949],"ct":"ES","tp":"CS","ts":"2023-02-22T22:33:45Z","tX":487,"tY":379,"tags":{"addr:city":"Vigo","addr:housenumber":"71","addr:street":"Avenida de Samil","cabins":"yes","fee":"yes","name":"Camping Playa samil","phone":"+34 986 240 210","power_supply":"yes","tents":"yes","website":"Camping Playa samil"}},"1154731885":{"location":[42.1565942,-8.6219481],"ct":"ES","tp":"CR","ts":"2024-10-31T09:25:59Z","tX":487,"tY":379,"tags":{"addr:housenumber":"9","addr:postcode":"36400","addr:street":"Cando","fee":"no","name":"Área de autocaravanas O Porriño","operator":"Concello do Porriño","operator:type":"public","power_supply":"no","proposed:tourism":"caravan_site","sanitary_dump_station":"yes","source":"local_knowledge;local knowledge"}},"9084582918":{"location":[42.0433371,-8.6465486],"ct":"ES","tp":"CR","ts":"2024-08-12T12:44:10Z","tX":487,"tY":379,"tags":{"fee":"no"}},"11910861119":{"location":[42.2887175,-8.6115895],"ct":"ES","tp":"CR","ts":"2024-05-22T11:05:57Z","tX":487,"tY":379,"tags":{"caravan_site":"motorhome_stopover","caravan_site:type":"wastewater_plant","caravans":"no","fee":"no","name":"Aparcadoiro de Autocaravanas de Redondela","sanitary_dump_station":"yes","tents":"no","water_point":"yes"}},"8932404056":{"location":[42.2372918,-8.4592667],"ct":"ES","tp":"SD","ts":"2024-02-16T20:36:27Z","tX":487,"tY":379,"tags":{"access":"yes","fee":"no","motorhome":"designated","operator":"Ayuntamiento de Mondariz","sanitary_dump_station":"public","sanitary_dump_station:chemical_toilet":"yes","sanitary_dump_station:fee":"no","sanitary_dump_station:gravity":"yes","sanitary_dump_station:grey_water":"yes","sanitary_dump_station:round_drain":"yes","sanitary_dump_station:suction":"no","water_point":"yes"}},"8932414609":{"location":[42.0792488,-8.5087293],"ct":"ES","tp":"SD","ts":"2023-01-27T08:39:38Z","tX":487,"tY":379,"tags":{"access":"yes","description":"Estación de vaciado de tanque para autocaravanas","description:fr":"Station de vidange pour Camping-car.","fee":"no","operator":"Concello de Salvaterra de Miño","sanitary_dump_station":"public","sanitary_dump_station:chemical_toilet":"yes","sanitary_dump_station:fee":"no","sanitary_dump_station:gravity":"yes","sanitary_dump_station:grey_water":"yes","sanitary_dump_station:round_drain":"yes","sanitary_dump_station:suction":"no","water_point":"yes"}},"8932813223":{"location":[42.09666,-8.5576583],"ct":"ES","tp":"SD","ts":"2024-05-28T15:05:01Z","tX":487,"tY":379,"tags":{"access":"yes","fee":"no","motorhome":"designated","operator":"Concello de Salceda de Caselas","sanitary_dump_station":"public","sanitary_dump_station:chemical_toilet":"yes","sanitary_dump_station:fee":"no","sanitary_dump_station:gravity":"yes","sanitary_dump_station:grey_water":"yes","sanitary_dump_station:round_drain":"yes","sanitary_dump_station:suction":"no","water_point":"yes"}},"8932821571":{"location":[42.2900429,-8.6106387],"ct":"ES","tp":"SD","ts":"2024-05-16T22:10:46Z","tX":487,"tY":379,"tags":{"access":"yes","fee":"no","motorhome":"designated","operator":"Ayuntamiento de Redondela","sanitary_dump_station":"public","sanitary_dump_station:chemical_toilet":"yes","sanitary_dump_station:fee":"no","sanitary_dump_station:gravity":"yes","sanitary_dump_station:grey_water":"yes","sanitary_dump_station:round_drain":"yes","sanitary_dump_station:suction":"no","water_point":"yes"}},"8938128657":{"location":[42.1856763,-8.6111979],"ct":"ES","tp":"SD","ts":"2024-05-17T10:07:21Z","tX":487,"tY":379,"tags":{"access":"yes","fee":"no","operator":"Carburantes El Sol SL","sanitary_dump_station":"public","sanitary_dump_station:chemical_toilet":"yes","sanitary_dump_station:fee":"no","sanitary_dump_station:gravity":"yes","sanitary_dump_station:grey_water":"yes","sanitary_dump_station:round_drain":"yes","sanitary_dump_station:suction":"no","water_point":"yes"}}}