{"4939783816":{"location":[41.667818,-8.6796757],"ct":"PT","tp":"CS","ts":"2017-08-16T08:31:52Z","tX":487,"tY":381,"tags":{"addr:street":"Rua do Divino Salvador","description":"Naturist campsite","name":"NaturViana","nudism":"yes","phone":"+49 15251691991","website":"https://www.naturviana.com/"}},"4831546027":{"location":[41.5384029,-8.7786822],"ct":"PT","tp":"CR","ts":"2017-05-02T20:45:37Z","tX":487,"tY":381,"tags":{}},"4973140521":{"location":[41.6826553,-8.67379],"ct":"PT","tp":"CR","ts":"2023-03-25T23:17:45Z","tX":487,"tY":381,"tags":{"addr:housenumber":"2","addr:street":"Lagro de Agros","description":"Sensationell schöner Platz für 3 nicht zu grosse Camper. Privat, hinter einem blaugrünen Stahltor.","name":"Lima Nature","name:en":"Lima Nature","name:pt":"Lima Nature","nudism":"obligatory","phone":"+351 258 778 183; +351 964 092 101","website":"https://www.limanature.com/"}},"5363912786":{"location":[41.5282937,-8.6154432],"ct":"PT","tp":"CR","ts":"2018-01-26T16:49:23Z","tX":487,"tY":381,"tags":{"capacity":"30","fee":"no","internet_access":"no","name":"Parque de Caravanas de Barcelos","operator":"Câmara Municipal de Barcelos","power_supply":"no","sanitary_dump_station":"no"}},"4883221021":{"location":[41.6801457,-8.7682692],"ct":"PT","tp":"SD","ts":"2017-11-25T12:04:50Z","tX":487,"tY":381,"tags":{}},"10788622702":{"location":[41.7619939,-8.5925249],"ct":"PT","tp":"SD","ts":"2025-02-19T20:44:10Z","tX":487,"tY":381,"tags":{"fee":"no","opening_hours":"24/7"}},"12279293501":{"location":[41.5388361,-8.7789774],"ct":"PT","tp":"SD","ts":"2024-10-22T18:34:30Z","tX":487,"tY":381,"tags":{}}}