{"132723204":{"location":[41.2686943,-8.7202885],"ct":"PT","tp":"CS","ts":"2021-06-10T17:24:57Z","tX":487,"tY":382,"tags":{"addr:city":"Matosinhos","addr:postcode":"4455-039","addr:street":"Rua de Angeiras","email":"infoangeiras@orbitur.pt","name":"Orbitur Angeiras","operator":"Orbitur","phone":"+351 229 270 571","website":"https://www.orbitur.pt/en/destinations/region-north/orbitur-angeiras"}},"154917062":{"location":[41.3363709,-8.7374683],"ct":"PT","tp":"CS","ts":"2023-11-07T20:33:09Z","tX":487,"tY":382,"tags":{"access":"customers","caravans":"yes","drinking_water":"yes","name":"Parque de Campismo Árvore","shower":"yes","tents":"yes","website":"https://www.cnm.org.pt/campismo/"}},"169055248":{"location":[41.2986903,-8.7319472],"ct":"PT","tp":"CS","ts":"2024-04-16T17:14:39Z","tX":487,"tY":382,"tags":{"addr:city":"Vila Chã","addr:housenumber":"150","addr:postcode":"4485-722","addr:street":"Rua do Sol","email":"info@campingvilacha.pt","name":"Parque de Campismo de Vila Chã","note":"confirmar área","phone":"+351 229 283 163","source":"bing","website":"https://campingvilacha.pt/"}},"185322862":{"location":[41.5071705,-8.7778382],"ct":"PT","tp":"CS","ts":"2024-06-30T16:31:18Z","tX":487,"tY":382,"tags":{"addr:city":"Fão","addr:postcode":"4740-380","addr:street":"Rua S. João de Deus","capacity":"350","caravans":"yes","email":"parque@cccbarcelos.com","name":"Parque de Campismo Fão","phone":"+351 253 981 777","tents":"yes","website":"https://www.cccbarcelos.com/","wheelchair":"limited"}},"1058177452":{"location":[41.2789817,-8.5493963],"ct":"PT","tp":"CR","ts":"2022-05-07T18:15:28Z","tX":487,"tY":382,"tags":{"power_supply":"yes","sanitary_dump_station":"yes"}},"1293577227":{"location":[41.4626145,-8.7720603],"ct":"PT","tp":"CS","ts":"2024-06-19T07:47:05Z","tX":487,"tY":382,"tags":{"fax":"+351 252615599","name":"Parque de Campismo Orbitur de Rio Alto","operator":"Orbitur Intercâmbio de Turismo, S.A.","phone":"+351 252615699","website":"https://www.orbitur.pt/camping-orbitur-rio-alto"}},"5566492443":{"location":[41.345247,-8.6316495],"ct":"PT","tp":"CS","ts":"2023-11-07T20:33:04Z","tX":487,"tY":382,"tags":{"name":"Parque de Campismo do Ave","phone":"+351 252 657 732","website":"https://www.campingave.net/"}},"4831546030":{"location":[41.3327677,-8.4769634],"ct":"PT","tp":"CR","ts":"2017-05-02T20:45:41Z","tX":487,"tY":382,"tags":{}},"7466888485":{"location":[41.3450393,-8.7457083],"ct":"PT","tp":"CR","ts":"2025-01-26T18:38:23Z","tX":487,"tY":382,"tags":{"drinking_water":"no","fee":"no","opening_hours":"24/7","power_supply":"no","sanitary_dump_station":"no","seasonal":"no","supervised":"no","surface":"asphalt","water_supply":"no"}},"9723391768":{"location":[41.2783463,-8.5495927],"ct":"PT","tp":"SD","ts":"2022-05-07T18:15:28Z","tX":487,"tY":382,"tags":{}},"12546928457":{"location":[41.2686134,-8.7192349],"ct":"PT","tp":"SD","ts":"2025-01-31T17:42:32Z","tX":487,"tY":382,"tags":{}}}