{"99272541":{"location":[41.1246382,-8.665269],"ct":"PT","tp":"CS","ts":"2023-11-17T17:48:25Z","tX":487,"tY":383,"tags":{"addr:city":"Canidelo","addr:housenumber":"441","addr:postcode":"4400-382","addr:street":"Avenida da Beira Mar","email":"infocanidelo@orbitur.pt","name":"Orbitur Canidelo","operator":"Orbitur","phone":"+351 227 814 730","toilets:wheelchair":"yes","website":"https://www.orbitur.pt/en/destinations/region-north/orbitur-canidelo","wheelchair":"yes"}},"109585506":{"location":[41.0133557,-8.6364116],"ct":"PT","tp":"CS","ts":"2024-06-03T09:22:23Z","tX":487,"tY":383,"tags":{"addr:city":"Espinho","caravans":"yes","drinking_water":"yes","fax":"+351 227 322 680","fee":"yes","name":"Parque Municipal de Campismo de Espinho","phone":"+351 227 335 871","power_supply":"yes","sanitary_dump_station":"yes","source":"Bing","static_caravans":"no","tents":"yes","toilets":"yes"}},"199899057":{"location":[41.1207172,-8.6608644],"ct":"PT","tp":"CS","ts":"2025-04-23T12:03:05Z","tX":487,"tY":383,"tags":{"addr:city":"Canidelo","addr:housenumber":"263","addr:postcode":"4400-397","addr:street":"Rua do Campismo","caravans":"yes","contact:email":"campingsalgueiros@canidelo.net","contact:phone":"+351 227 810 500","drinking_water":"yes","internet_access":"no","minstay":"2 days","name":"Parque de Campismo de Salgueiros","power_supply":"yes","shower":"yes","source":"Bing","tents":"yes","toilets":"yes","website":"http://canidelo.net/campismo.html"}},"199901460":{"location":[41.1101403,-8.6607796],"ct":"PT","tp":"CS","ts":"2024-04-13T14:35:15Z","tX":487,"tY":383,"tags":{"addr:city":"Vila Nova de Gaia","addr:housenumber":"82","addr:postcode":"4400","addr:street":"Rua do Alto das Chaquedas","name":"Parque de Campismo Marisol","phone":"+351 227 135 942","stars":"2","toilets:wheelchair":"yes","website":"https://www.marisolcamping.com","wheelchair":"yes","wheelchair:description:de":"gemütlicher, ruhiger Campingplatz, barrierefreier Zugang zum Meer"}},"299083032":{"location":[41.1429593,-8.648196],"ct":"PT","tp":"PK","ts":"2025-01-13T20:01:10Z","tX":487,"tY":383,"tags":{"access":"yes","caravan":"yes","fee":"no","note":"Estacionamento Autocaravanas","parking":"surface"}},"342297713":{"location":[41.17511,-8.5414836],"ct":"PT","tp":"CR","ts":"2022-10-21T16:03:33Z","tX":487,"tY":383,"tags":{"addr:city":"Rio Tinto","addr:postcode":"4435-124","addr:street":"Rua Professor António Martins Pimenta","capacity:caravans":"30","internet_access":"no","name":"Parque de Caravanas Estação da Venda Nova","power_supply":"yes","sanitary_dump_station":"yes"}},"483668614":{"location":[41.1029841,-8.6595279],"ct":"PT","tp":"CS","ts":"2023-11-18T14:56:36Z","tX":487,"tY":383,"tags":{"caravans":"yes"}},"1081051692":{"location":[41.1635964,-8.5627477],"ct":"PT","tp":"CS","ts":"2022-07-25T04:34:18Z","tX":487,"tY":383,"tags":{"club":"scout","group_only":"yes","leisure":"summer_camp"}},"1081322295":{"location":[41.1085876,-8.6463707],"ct":"PT","tp":"CS","ts":"2023-07-23T14:34:19Z","tX":487,"tY":383,"tags":{"addr:city":"Vila Nova de Gaia","addr:housenumber":"617","addr:postcode":"4405-519","addr:street":"Rua da Cavada","caravans":"yes","contact:email":"istasgarden@gmail.com","contact:phone":"+351 936 678 590","contact:website":"https://istasgarden.com/pt/inicio/","drinking_water":"yes","name":"Istas Garden","power_supply":"yes","shower":"yes","tents":"yes","toilets":"yes"}},"1262161002":{"location":[41.13803,-8.6405769],"ct":"PT","tp":"CR","ts":"2024-03-13T12:23:26Z","tX":487,"tY":383,"tags":{}},"4831546028":{"location":[41.1752917,-8.5416922],"ct":"PT","tp":"CR","ts":"2017-05-02T20:45:38Z","tX":487,"tY":383,"tags":{}},"4831546031":{"location":[41.184387,-8.4805531],"ct":"PT","tp":"CR","ts":"2024-04-03T23:03:19Z","tX":487,"tY":383,"tags":{"caravan_site":"motorhome_stopover","caravan_site:type":"supermarket","caravans":"no","name":"Intermarché de Valongo","tents":"no"}},"9132263620":{"location":[41.0976882,-8.5547365],"ct":"PT","tp":"CR","ts":"2024-05-18T19:53:11Z","tX":487,"tY":383,"tags":{"addr:postcode":"4430-812","addr:street":"Rua da Cunha","name":"Parque de Autocaravanas do Parque Biológico de Gaia","power_supply":"yes","sanitary_dump_station":"yes","tents":"no","website":"https://parquebiologico.pt/"}},"9655594081":{"location":[41.1841967,-8.4811443],"ct":"PT","tp":"SD","ts":"2022-04-10T10:13:46Z","tX":487,"tY":383,"tags":{"access":"yes"}},"10119123744":{"location":[41.1754014,-8.5414961],"ct":"PT","tp":"SD","ts":"2022-10-21T15:54:31Z","tX":487,"tY":383,"tags":{}}}