{"6841899":{"location":[37.1026652,-8.7339817],"ct":"PT","tp":"CS","ts":"2023-04-08T13:13:23Z","tX":487,"tY":398,"tags":{"addr:city":"Lagos","addr:postcode":"8600-109","addr:street":"Estrada Nacional 125","caravans":"yes","contact:website":"http://www.turiscampo.com/","email":"info@turiscampo.com","motor_vehicle":"yes","name":"Camping Turiscampo","operator":"Europe Plein Air SA","phone":"+351282789265","shower":"yes","stars":"4","surface":"ground","tents":"yes","toilets":"yes"}},"115019787":{"location":[37.114384,-8.5074342],"ct":"PT","tp":"CS","ts":"2024-08-13T13:15:34Z","tX":487,"tY":398,"tags":{"membership":"yes","name":"Parque de Campismo de Ferragudo","phone":"+351 282 461121","tents":"not allowed","website":"http://www.clubecampismolisboa.pt"}},"159468496":{"location":[37.1011785,-8.718727],"ct":"PT","tp":"CS","ts":"2017-01-02T09:40:50Z","tX":487,"tY":398,"tags":{"addr:city":"Lagos","addr:postcode":"8600-148","addr:street":"Estrada da Praia da Luz","contact:website":"http://www.orbitur.pt/camping-orbitur-valverde","name":"Parque Orbitur Valverde"}},"159468554":{"location":[37.1343239,-8.5885968],"ct":"PT","tp":"CS","ts":"2023-07-25T22:33:05Z","tX":487,"tY":398,"tags":{"access":"yes","caravans":"yes","email":"info@campingalvor.com","fee":"yes","name":"Parque de Campismo Dourada Alvor","phone":"+351 282459178","shower":"yes","static_caravans":"yes","tents":"yes","toilets":"yes","website":"https://www.campingalvor.com/"}},"159468561":{"location":[37.0938743,-8.6714262],"ct":"PT","tp":"CS","ts":"2014-04-23T19:13:20Z","tX":487,"tY":398,"tags":{"barrier":"wall","name":"Parque de Campismo da Trindade"}},"181434087":{"location":[37.0970508,-8.6700185],"ct":"PT","tp":"CS","ts":"2023-07-27T13:33:06Z","tX":487,"tY":398,"tags":{"access":"private","description":"Camp site for military personnel only.","landuse":"military","name":"Camping Militar"}},"1707514023":{"location":[37.1153648,-8.6789956],"ct":"PT","tp":"CR","ts":"2020-07-24T22:10:01Z","tX":487,"tY":398,"tags":{"highway":"street_lamp"}},"11364409593":{"location":[37.1513991,-8.4635825],"ct":"PT","tp":"CS","ts":"2023-11-20T15:16:13Z","tX":487,"tY":398,"tags":{"addr:street":"Quinta dos Pinheiros, Caminho Vale Formoso, 8400-423 Torrinha, Portugal","description":"+4915120921075","name":"Oasis campsite","website":"https://oasiscamp.de/"}},"6547502385":{"location":[37.1255801,-8.5234844],"ct":"PT","tp":"CR","ts":"2023-07-14T21:25:40Z","tX":487,"tY":398,"tags":{"name:es":"Autocaravanas"}},"9862070017":{"location":[37.1384013,-8.519392],"ct":"PT","tp":"CR","ts":"2022-07-02T11:07:49Z","tX":487,"tY":398,"tags":{"name:es":"Área de Autocaravanas de Pago","opening_hours":"We-Mo 10:00-18:00"}},"9876911518":{"location":[37.1198763,-8.6733903],"ct":"PT","tp":"CR","ts":"2022-07-09T16:57:27Z","tX":487,"tY":398,"tags":{"name:es":"Punto de Servicios para Autocaravanas"}},"10274252509":{"location":[37.1255524,-8.6315923],"ct":"PT","tp":"CR","ts":"2022-12-19T21:07:37Z","tX":487,"tY":398,"tags":{"name":"Meia Praia"}},"10889781242":{"location":[37.0790128,-8.7716097],"ct":"PT","tp":"CR","ts":"2023-05-12T11:51:10Z","tX":487,"tY":398,"tags":{"name":"Rua Maria José Rijo, Quinta Pedagógica Santo Anjo-Luz"}}}