{"738869670":{"location":[40.0434457,-78.5189179],"ct":"US","tp":"CS","ts":"2023-11-11T01:40:09Z","tX":288,"tY":387,"tags":{"addr:housenumber":"348","addr:street":"Friendship Village Road","cabins":"yes","caravans":"yes","fee":"yes","name":"Friendship Village Campground","openfire":"yes","phone":"+18146231677","power_supply":"yes","sanitary_dump_station":"yes","tents":"yes","website":"https://friendshipvillagecampground.com/"}},"744529606":{"location":[40.0541207,-78.6090363],"ct":"US","tp":"CS","ts":"2023-12-03T03:28:38Z","tX":288,"tY":387,"tags":{"addr:city":"Schellsburg","addr:housenumber":"147","addr:state":"PA","addr:street":"Sleepy Hollow Road","cabins":"yes","caravans":"yes","name":"Nature's Getaway RV Park","old_name":"Shawnee Sleepy Hollow Campground","openfire":"yes","phone":"+18147334380","power_supply":"yes","shower":"yes","tents":"yes","toilets":"yes","website":"https://naturesgetaways.com/"}},"748908031":{"location":[40.0131827,-78.5916328],"ct":"US","tp":"CS","ts":"2023-11-30T03:59:16Z","tX":288,"tY":387,"tags":{"addr:housenumber":"209","addr:street":"Choice Campground Road","caravans":"yes","fee":"yes","name":"Choice Camping Court","phone":"+18146235586","power_supply":"yes","sanitary_dump_station":"yes","shower":"yes","tents":"yes","toilets":"yes","website":"https://www.choicecampingcourt.com/"}},"751198954":{"location":[40.0207489,-78.6382471],"ct":"US","tp":"CS","ts":"2019-12-01T04:13:14Z","tX":288,"tY":387,"tags":{"cabins":"yes","caravans":"yes","name":"Shawnee State Park Campground","tents":"yes"}},"1006875789":{"location":[39.9744499,-78.679962],"ct":"US","tp":"CR","ts":"2021-11-28T03:35:35Z","tX":288,"tY":387,"tags":{}},"1079896824":{"location":[39.9330061,-78.5705768],"ct":"US","tp":"CS","ts":"2022-07-20T02:17:07Z","tX":288,"tY":387,"tags":{"name":"Merritt Pond Campground"}},"1084325188":{"location":[40.0264954,-78.647401],"ct":"US","tp":"CS","ts":"2022-08-09T04:26:31Z","tX":288,"tY":387,"tags":{"caravans":"no","group_only":"yes","name":"Organized Group Tenting","tents":"yes","toilets":"yes"}},"1084326873":{"location":[40.0170962,-78.6234764],"ct":"US","tp":"CS","ts":"2022-08-06T23:45:39Z","tX":288,"tY":387,"tags":{"name":"Shellbark Campground"}}}