{"228681605":{"location":[39.5449669,-78.4614028],"ct":"US","tp":"CS","ts":"2024-06-04T20:13:21Z","tX":288,"tY":389,"tags":{"landuse":"grass","name":"Paw Paw Campground"}},"348424581":{"location":[39.4571082,-78.4648868],"ct":"US","tp":"CS","ts":"2023-11-06T13:07:25Z","tX":288,"tY":389,"tags":{"addr:city":"Paw Paw","addr:country":"US","addr:housenumber":"223","addr:postcode":"25434","addr:state":"WV","addr:street":"Avalon Lane","backcountry":"no","caravans":"yes","group_only":"no","name":"Avalon Resort","nudism":"customary","phone":"+1 304 947 5600","tents":"yes","website":"https://avalon-resort.com/"}},"417627143":{"location":[39.4142169,-78.6758722],"ct":"US","tp":"CS","ts":"2023-10-28T15:36:54Z","tX":288,"tY":389,"tags":{"addr:city":"Springfield","addr:housenumber":"1971","addr:postcode":"26763","addr:street":"Milleson Road","name":"Milleson's Walnut Grove Campground","phone":"+1 304 822 5284","website":"https://www.millesonscampground.com/"}},"1003189900":{"location":[39.3926251,-78.7384074],"ct":"US","tp":"CS","ts":"2021-11-16T18:32:05Z","tX":288,"tY":389,"tags":{}},"4190448303":{"location":[39.5877638,-78.7357022],"ct":"US","tp":"CS","ts":"2016-05-16T20:14:21Z","tX":288,"tY":389,"tags":{"backcountry":"yes","fee":"no","name":"Irons Mountain Hiker Biker Campsite","operator":"National Park Service","tents":"yes"}},"4190448306":{"location":[39.5388662,-78.6506632],"ct":"US","tp":"CS","ts":"2016-05-16T20:14:21Z","tX":288,"tY":389,"tags":{"backcountry":"yes","fee":"no","name":"Pigmans Ferry Hiker Biker Campsite","operator":"National Park Service","tents":"yes"}},"4190448307":{"location":[39.5305678,-78.5884397],"ct":"US","tp":"CS","ts":"2016-05-16T20:14:22Z","tX":288,"tY":389,"tags":{"backcountry":"yes","fee":"no","name":"Potomac Forks Hiker Biker Campsite","operator":"National Park Service","tents":"yes"}},"4190448309":{"location":[39.5639495,-78.7152613],"ct":"US","tp":"CS","ts":"2016-05-16T20:14:22Z","tX":288,"tY":389,"tags":{"cabins":"no","caravans":"no","fee":"yes","name":"Spring Gap","operator":"National Park Service","tents":"yes"}},"5026820201":{"location":[39.612512,-78.44376],"ct":"US","tp":"CS","ts":"2017-08-10T17:17:30Z","tX":288,"tY":389,"tags":{"name":"Site 88"}},"5026820980":{"location":[39.6169425,-78.4401638],"ct":"US","tp":"CS","ts":"2017-08-10T17:17:30Z","tX":288,"tY":389,"tags":{"name":"Site 87"}},"5026821853":{"location":[39.6092342,-78.4440195],"ct":"US","tp":"CS","ts":"2017-08-10T17:17:30Z","tX":288,"tY":389,"tags":{"name":"Site 89"}},"6970338154":{"location":[39.5710283,-78.4525806],"ct":"US","tp":"CS","ts":"2019-11-12T22:29:36Z","tX":288,"tY":389,"tags":{"backcountry":"yes","name":"Sorrel Ridge Hiker Biker Campsite","operator":"National Park Service","tents":"yes"}},"6970338169":{"location":[39.5351068,-78.4644493],"ct":"US","tp":"CS","ts":"2019-11-12T22:29:36Z","tX":288,"tY":389,"tags":{"backcountry":"yes","name":"Purslane Run Hiker Biker Campsite","operator":"National Park Service","tents":"yes"}},"7924325888":{"location":[39.5241503,-78.5387546],"ct":"US","tp":"CS","ts":"2023-07-04T18:51:40Z","tX":288,"tY":389,"tags":{"caravans":"no","name":"Town Creek Hiker Biker Camp Site","static_caravans":"no","tents":"yes"}},"8014092092":{"location":[39.6227141,-78.4134807],"ct":"US","tp":"CS","ts":"2020-10-16T17:44:02Z","tX":288,"tY":389,"tags":{"backcountry":"yes","name":"Devils Alley Hiker Biker Campsite","operator":"National Park Service","tents":"yes"}},"8599200217":{"location":[39.5808302,-78.4135276],"ct":"US","tp":"CS","ts":"2021-04-06T12:44:36Z","tX":288,"tY":389,"tags":{"access":"yes","group_only":"yes","name":"River access campsite"}},"9523092918":{"location":[39.5995752,-78.4489641],"ct":"US","tp":"CS","ts":"2022-02-21T01:54:04Z","tX":288,"tY":389,"tags":{}},"9523093017":{"location":[39.6372462,-78.4389419],"ct":"US","tp":"CS","ts":"2022-02-21T01:54:04Z","tX":288,"tY":389,"tags":{}},"12270829428":{"location":[39.6171897,-78.732746],"ct":"US","tp":"CS","ts":"2024-10-20T11:44:11Z","tX":288,"tY":389,"tags":{"access":"yes","backcountry":"yes","caravans":"no","fee":"no","name":"Evitts Creek Hiker / Biker Campsite","operator":"National Park Service","static_caravans":"no","tents":"yes"}}}