{"507806473":{"location":[39.2181903,-78.4572249],"ct":"US","tp":"CS","ts":"2019-12-08T01:41:08Z","tX":288,"tY":390,"tags":{"addr:city":"High View","addr:housenumber":"436","addr:postcode":"26808","addr:state":"WV","addr:street":"Reflection Lane","contact:facebook":"https://www.facebook.com/CampSandyCove","contact:instagram":"https://www.instagram.com/theofficial_campsandycove","email":"campinfo@sandycove.org","facebook":"https://www.facebook.com/CampSandyCove","fax":"+1 304 856 1683","instagram":"https://www.instagram.com/theofficial_campsandycove/","leisure":"summer_camp","name":"Camp Sandy Cove","phone":"+1 304 856 2959","website":"https://www.campsandycove.org/"}},"753601393":{"location":[39.2308251,-78.4650262],"ct":"US","tp":"CS","ts":"2019-12-08T01:42:06Z","tX":288,"tY":390,"tags":{}},"753603455":{"location":[39.276738,-78.4448534],"ct":"US","tp":"CS","ts":"2019-12-08T02:08:52Z","tX":288,"tY":390,"tags":{}},"1270399110":{"location":[39.1164017,-78.4994603],"ct":"US","tp":"CS","ts":"2017-03-13T16:27:00Z","tX":288,"tY":390,"tags":{"fee":"no","internet_access":"no","name":"Hawk Campground","operator":"US Forest Service","website":"https://www.fs.usda.gov/recarea/gwj/recarea/?recid=73739"}}}