{"1378094179":{"location":[36.6187321,-78.5067007],"ct":"US","tp":"CR","ts":"2025-04-16T20:25:10Z","tX":288,"tY":399,"tags":{"addr:city":"Clarksville","addr:housenumber":"1670","addr:postcode":"23927","addr:state":"VA","addr:street":"Panhandle Road","bbq":"yes","capacity":"11","fee":"yes","name":"Equestrian Campground","operator":"Virginia Department of Conservation and Recreation","operator:wikidata":"Q7934237","operator:wikipedia":"https://en.wikipedia.org/wiki/Virginia_Department_of_Conservation_and_Recreation","power_supply":"yes","power_supply:maxcurrent":"50","website":"https://www.dcr.virginia.gov/state-parks/occoneechee#equestrian"}},"1378094183":{"location":[36.6269522,-78.5334727],"ct":"US","tp":"CS","ts":"2025-04-16T15:51:13Z","tX":288,"tY":399,"tags":{"alt_name":"Campground B","name":"Iron Bow Campground","operator":"Virginia Department of Conservation and Recreation","operator:wikidata":"Q7934237","operator:wikipedia":"https://en.wikipedia.org/wiki/Virginia_Department_of_Conservation_and_Recreation"}},"1378094186":{"location":[36.6264583,-78.5298497],"ct":"US","tp":"CS","ts":"2025-04-16T15:51:13Z","tX":288,"tY":399,"tags":{"alt_name":"Campground C","name":"Atlatl Campground","operator":"Virginia Department of Conservation and Recreation","operator:wikidata":"Q7934237","operator:wikipedia":"https://en.wikipedia.org/wiki/Virginia_Department_of_Conservation_and_Recreation"}},"2599650904":{"location":[36.6186963,-78.5067757],"ct":"US","tp":"CS","ts":"2013-12-29T14:07:56Z","tX":288,"tY":399,"tags":{"name":"Equestrian Campground"}},"12760256616":{"location":[36.6277745,-78.5275722],"ct":"US","tp":"SD","ts":"2025-04-16T18:05:25Z","tX":288,"tY":399,"tags":{}}}