{"1078914697":{"location":[33.8463529,-78.6681945],"ct":"US","tp":"CR","ts":"2024-08-15T00:57:54Z","tX":288,"tY":409,"tags":{"name":"North Myrtle Beach RV Resort"}},"1103538230":{"location":[33.8045076,-78.7277486],"ct":"US","tp":"CS","ts":"2022-10-13T14:02:00Z","tX":288,"tY":409,"tags":{"name":"Barefoot RV Resort"}},"1308050775":{"location":[33.797418,-78.7499661],"ct":"US","tp":"CR","ts":"2024-08-15T23:54:23Z","tX":288,"tY":409,"tags":{"addr:city":"Myrtle Beach","addr:housenumber":"10495","addr:postcode":"29572","addr:state":"SC","addr:street":"North Kings Highway","name":"Briarcliffe RV Resort","website":"https://briarcliffervresort.com/Home.aspx"}},"1789557296":{"location":[33.9763891,-78.4980115],"ct":"US","tp":"CR","ts":"2024-06-23T22:26:18Z","tX":288,"tY":409,"tags":{"email":"wpnr@atmc.net","internet_access":"wlan","name":"Whispering Pines Nudist Resort","nudism":"yes","phone":"910-287-6404","power_supply":"yes","shower":"yes","tents":"yes","website":"https://www.whisperingpinesnudistresort.com/"}},"2692160166":{"location":[33.9823148,-78.7104816],"ct":"US","tp":"CR","ts":"2014-02-27T03:21:18Z","tX":288,"tY":409,"tags":{"name":"Willow Tree RV Resort"}},"3591094205":{"location":[33.8891694,-78.5557711],"ct":"US","tp":"CS","ts":"2015-06-13T02:39:25Z","tX":288,"tY":409,"tags":{"name":"Captain Andy's Campground"}},"4346507444":{"location":[33.900597,-78.6931583],"ct":"US","tp":"CS","ts":"2016-08-11T21:28:54Z","tX":288,"tY":409,"tags":{"addr:housenumber":"1704","addr:postcode":"29568","addr:street":"Fairwinds Drive","name":"Lee Ches's Beach House"}},"4346735889":{"location":[33.8392323,-78.6070996],"ct":"US","tp":"CS","ts":"2016-08-12T03:18:09Z","tX":288,"tY":409,"tags":{"name":"Nice walk up beach"}},"12423371004":{"location":[33.934887,-78.5073555],"ct":"US","tp":"CR","ts":"2024-12-14T21:19:13Z","tX":288,"tY":409,"tags":{}}}