{"4844636351":{"location":[35.8345446,76.509271],"ct":"PK","tp":"CS","ts":"2019-05-03T14:42:09Z","tX":729,"tY":402,"tags":{"backcountry":"yes","ele":"4965","name":"K2 Base Camp"}},"4844644047":{"location":[35.8043896,76.5171271],"ct":"PK","tp":"CS","ts":"2019-05-03T14:42:09Z","tX":729,"tY":402,"tags":{"backcountry":"yes","ele":"4823","name":"Broad Peak Base Camp"}},"8333608341":{"location":[35.8660027,76.5360937],"ct":"PK","tp":"CS","ts":"2023-08-10T16:37:11Z","tX":729,"tY":402,"tags":{"access":"yes","fee":"no","name":"کیمپ 1","name:de":"Camp 1","name:en":"Camp 1","name:fr":"Camp 1","name:pa":"ਕੈਂਪ 1","name:ur":"کیمپ 1"}},"8333608342":{"location":[35.8684937,76.5329501],"ct":"PK","tp":"CS","ts":"2023-08-10T16:37:11Z","tX":729,"tY":402,"tags":{"fee":"no","name":"کیمپ 2","name:de":"Camp 2","name:en":"Camp 2","name:fr":"Camp 2","name:pa":"ਕੈਂਪ 2","name:ur":"کیمپ 2"}},"8333608343":{"location":[35.872406,76.5316412],"ct":"PK","tp":"CS","ts":"2023-08-10T16:37:11Z","tX":729,"tY":402,"tags":{"fee":"no","name":"کیمپ 3","name:de":"Camp 3","name:en":"Camp 3","name:fr":"Camp 3","name:pa":"ਕੈਂਪ 3","name:ur":"کیمپ 3"}},"9032093035":{"location":[35.7870224,76.40754],"ct":"PK","tp":"CS","ts":"2021-08-24T11:58:03Z","tX":729,"tY":402,"tags":{"description":"Nice and warm place to camp, with flat areas for Tents, water and lake. There are flowers and grass.","name":"Russian Muztagh Tower Expedition - Base Camp"}}}