{"798763122":{"location":[9.2505714,76.538722],"ct":"IN","tp":"CS","ts":"2020-06-15T06:25:12Z","tX":729,"tY":485,"tags":{"backcountry":"yes","group_only":"yes","name":"koodickal gardens","operator":"2"}},"921724298":{"location":[9.4466625,76.5677835],"ct":"IN","tp":"CS","ts":"2021-03-24T13:52:02Z","tX":729,"tY":485,"tags":{"group_only":"yes"}},"923039344":{"location":[9.3957537,76.35634],"ct":"IN","tp":"CS","ts":"2021-03-28T07:34:01Z","tX":729,"tY":485,"tags":{}},"923052587":{"location":[9.3918617,76.3603063],"ct":"IN","tp":"CS","ts":"2021-03-28T09:25:37Z","tX":729,"tY":485,"tags":{}},"923052601":{"location":[9.4369727,76.3517943],"ct":"IN","tp":"CS","ts":"2021-03-28T09:25:37Z","tX":729,"tY":485,"tags":{}},"923052603":{"location":[9.4410293,76.3443921],"ct":"IN","tp":"CS","ts":"2021-03-28T09:25:37Z","tX":729,"tY":485,"tags":{}},"923052607":{"location":[9.4443417,76.3466096],"ct":"IN","tp":"CS","ts":"2021-03-28T09:25:37Z","tX":729,"tY":485,"tags":{}},"7469046805":{"location":[9.2897041,76.5251719],"ct":"IN","tp":"CS","ts":"2020-05-01T02:59:13Z","tX":729,"tY":485,"tags":{"backcountry":"yes"}},"8345433452":{"location":[9.3207441,76.6157114],"ct":"IN","tp":"CS","ts":"2021-01-21T13:45:07Z","tX":729,"tY":485,"tags":{"name":"Municipality Ground"}},"8563043837":{"location":[9.3893858,76.3648507],"ct":"IN","tp":"CS","ts":"2021-03-26T08:48:17Z","tX":729,"tY":485,"tags":{"addr:city":"ambalaPUZHA","addr:street":"kochuparamp","group_only":"yes","name":"che boys"}},"8563043854":{"location":[9.3821091,76.3671159],"ct":"IN","tp":"CS","ts":"2021-03-26T08:48:17Z","tX":729,"tY":485,"tags":{"group_only":"yes","name":"college grond"}},"8568575346":{"location":[9.3960523,76.3566746],"ct":"IN","tp":"CS","ts":"2021-03-28T07:34:01Z","tX":729,"tY":485,"tags":{}},"8568704194":{"location":[9.4392331,76.3502727],"ct":"IN","tp":"CS","ts":"2021-03-28T09:25:37Z","tX":729,"tY":485,"tags":{}},"9122293018":{"location":[9.3705043,76.4886627],"ct":"IN","tp":"CS","ts":"2021-09-25T12:38:35Z","tX":729,"tY":485,"tags":{"group_only":"yes","name":"Arilchira colony"}},"9312598065":{"location":[9.4411636,76.5418683],"ct":"IN","tp":"CS","ts":"2021-12-05T15:23:38Z","tX":729,"tY":485,"tags":{"backcountry":"yes","name":"Thottuparambil Colony Lein Changanessry"}},"11637194496":{"location":[9.1147323,76.50307],"ct":"IN","tp":"CS","ts":"2024-02-18T06:08:24Z","tX":729,"tY":485,"tags":{"addr:city":"Kollam","addr:district":"Kollam","addr:housenumber":"Priyadershni activity group  Rose","addr:street":"Varavila p.o karunagappally","group_only":"yes","name":"Priyadershni activity group  Rose"}},"11637194510":{"location":[9.1321263,76.5127068],"ct":"IN","tp":"CS","ts":"2024-02-18T06:08:24Z","tX":729,"tY":485,"tags":{"addr:city":"Kollam","addr:district":"Kollam","addr:housenumber":"Hima Activity Group","addr:street":"Hima Activity GroupChanfabkylangara southOachira","building":"industrial","name":"Hima Activity Group"}},"11637194512":{"location":[9.1321257,76.5127111],"ct":"IN","tp":"CS","ts":"2024-02-18T06:08:24Z","tX":729,"tY":485,"tags":{"addr:city":"Kollam","addr:district":"Kollam","addr:housenumber":"Theerdham Activity Group","addr:street":"Theerdham Activity GroupVayanakamOachir","building":"industrial","name":"Theerdham Activity Group"}},"11637501391":{"location":[9.1260712,76.6034858],"ct":"IN","tp":"CS","ts":"2024-02-18T09:31:49Z","tX":729,"tY":485,"tags":{"addr:city":"Kollam","addr:district":"Kollam","addr:housenumber":"FRIENDS .ACtivity .Group","addr:street":"PalamooduPavumba .South .Pavumba","group_only":"yes","name":"FRIENDS .ACtivity .Group"}},"11637501392":{"location":[9.1237599,76.5952008],"ct":"IN","tp":"CS","ts":"2024-02-18T09:31:49Z","tX":729,"tY":485,"tags":{"addr:city":"Kollam","addr:district":"Kollam","addr:housenumber":"Souhritham Activity Group","addr:street":"Souhritham Activity GroupChirakkalThazhava","group_only":"yes","name":"Souhritham Activity Group"}},"11637501394":{"location":[9.1191474,76.5958202],"ct":"IN","tp":"CS","ts":"2024-02-18T09:31:49Z","tX":729,"tY":485,"tags":{"addr:city":"Kollam","addr:district":"Kollam","addr:housenumber":"Thanima Activity Group","addr:street":"hanima Activity GroupPavumba NorthThazhava","group_only":"yes","name":"Thanima Activity Group"}},"11637501401":{"location":[9.1216445,76.5923938],"ct":"IN","tp":"CS","ts":"2024-02-18T09:31:49Z","tX":729,"tY":485,"tags":{"addr:city":"Kollam","addr:district":"Kollam","addr:housenumber":"OmShakthy Activity Group","addr:street":"Om Shakthy Activity GroupPavumba NorthThazhava","group_only":"yes","name":"OmShakthy Activity Group"}},"11637937315":{"location":[9.1094555,76.5634699],"ct":"IN","tp":"CS","ts":"2024-02-18T13:30:53Z","tX":729,"tY":485,"tags":{"addr:city":"Kollam","addr:district":"Kollam","addr:housenumber":"Pavizam activity group","addr:street":"Pavizam activity vadakummurikizaku manappally","group_only":"yes","name":"Pavizam activity group"}}}