{"7484097006":{"location":[9.0638234,76.5816167],"ct":"IN","tp":"CS","ts":"2020-05-05T06:20:13Z","tX":729,"tY":486,"tags":{"addr:city":"kollam,mynagappally","addr:postcode":"690519","addr:street":"karoorkadav road","group_only":"yes"}},"8559588483":{"location":[9.0062282,76.5362797],"ct":"IN","tp":"CS","ts":"2021-03-25T08:52:53Z","tX":729,"tY":486,"tags":{}},"11638005672":{"location":[9.0891728,76.5613409],"ct":"IN","tp":"CS","ts":"2024-02-18T13:59:09Z","tX":729,"tY":486,"tags":{"addr:city":"Kollam","addr:district":"Kollam","addr:housenumber":"Soubgya activity group","addr:street":"Soubhagya activity group ..karutheri","building":"industrial","name":"Soubgya activity group"}},"11638005681":{"location":[9.0892107,76.5611219],"ct":"IN","tp":"CS","ts":"2024-02-18T13:59:09Z","tX":729,"tY":486,"tags":{"addr:city":"Kollam","addr:district":"Kollam","addr:housenumber":"Surya haritha karma sena","addr:street":"Surya haritha karma senaThazhava","group_only":"yes","name":"Surya haritha karma sena"}},"11638005682":{"location":[9.089194,76.5611349],"ct":"IN","tp":"CS","ts":"2024-02-18T13:59:09Z","tX":729,"tY":486,"tags":{"addr:city":"Kollam","addr:district":"Kollam","addr:housenumber":"Haritham  Haritha karma sena","addr:street":"Haritham Haritha karma senaThazhava","group_only":"yes","name":"Haritham  Haritha karma sena"}},"11638005683":{"location":[9.0891612,76.5610841],"ct":"IN","tp":"CS","ts":"2024-02-18T13:59:09Z","tX":729,"tY":486,"tags":{"addr:city":"Kollam","addr:district":"Kollam","addr:housenumber":"Karunya haritha karma sena","addr:street":"Karunya haritha karma senaThazhava","group_only":"yes","name":"Karunya haritha karma sena"}},"11638005685":{"location":[9.0891729,76.5611048],"ct":"IN","tp":"CS","ts":"2024-02-18T13:59:09Z","tX":729,"tY":486,"tags":{"addr:city":"Kollam","addr:district":"Kollam","addr:housenumber":"Harithamrutham haritha karma sena","addr:street":"Harithamrutham Haritha karma senaThazhava","group_only":"yes","name":"Harithamrutham haritha karma sena"}},"11638005686":{"location":[9.0891693,76.5611081],"ct":"IN","tp":"CS","ts":"2024-02-18T13:59:09Z","tX":729,"tY":486,"tags":{"addr:city":"Kollam","addr:district":"Kollam","addr:housenumber":"Nanma Haritha karma sena","group_only":"yes","name":"Nanma Haritha karma sena"}}}