{"4293258793":{"location":[41.9277155,75.1142797],"ct":"KG","tp":"CS","ts":"2018-09-13T14:20:31Z","tX":725,"tY":380,"tags":{"name":"Yurt Camp"}},"4356038314":{"location":[41.7745466,75.1564526],"ct":"KG","tp":"CS","ts":"2018-09-13T14:20:33Z","tX":725,"tY":380,"tags":{"name":"Ak-Sai Yurts Camp"}},"4894633823":{"location":[41.9862981,75.181862],"ct":"KG","tp":"CS","ts":"2018-09-13T14:20:31Z","tX":725,"tY":380,"tags":{"name:en":"Yurt Camp"}},"4894633824":{"location":[41.9158214,75.1439053],"ct":"KG","tp":"CS","ts":"2018-09-13T14:20:32Z","tX":725,"tY":380,"tags":{"description":"very good. nice lady's","name:en":"Second yurt camp"}},"4910754422":{"location":[41.9153922,75.1436984],"ct":"KG","tp":"CS","ts":"2018-09-13T14:20:33Z","tX":725,"tY":380,"tags":{"description":"very good nice lady's","name:en":"Yurt Camp"}},"4910782321":{"location":[41.9200051,75.1381401],"ct":"KG","tp":"CS","ts":"2019-08-13T08:41:27Z","tX":725,"tY":380,"tags":{"internet_access":"no","name:en":"Yurt Camp"}},"4989277221":{"location":[41.9821342,75.1531187],"ct":"KG","tp":"CS","ts":"2017-07-24T05:30:39Z","tX":725,"tY":380,"tags":{}},"5062613421":{"location":[41.9894065,75.1585714],"ct":"KG","tp":"CS","ts":"2023-04-06T05:56:18Z","tX":725,"tY":380,"tags":{"name":"CBT Kilemche","name:en":"CBT Kilemche"}},"5657848723":{"location":[41.9867328,75.1592345],"ct":"KG","tp":"CS","ts":"2018-06-02T05:41:20Z","tX":725,"tY":380,"tags":{"name:en":"kliemche"}},"5843652789":{"location":[41.8946772,75.2011488],"ct":"KG","tp":"CS","ts":"2018-08-20T10:50:24Z","tX":725,"tY":380,"tags":{"name:en":"Yurt"}},"5895968685":{"location":[41.9115148,75.1887607],"ct":"KG","tp":"CS","ts":"2018-09-10T10:01:29Z","tX":725,"tY":380,"tags":{"name:ca":"Campament de yurta","name:en":"Yurt camp"}},"6594454847":{"location":[41.9038633,75.0426148],"ct":"KG","tp":"CS","ts":"2019-07-07T12:28:03Z","tX":725,"tY":380,"tags":{"name":"Yurt Camp"}},"6612941785":{"location":[41.9047909,75.0414564],"ct":"KG","tp":"CS","ts":"2019-07-14T12:37:54Z","tX":725,"tY":380,"tags":{"name:en":"Yurt"}},"6613646134":{"location":[41.904932,75.0412144],"ct":"KG","tp":"CS","ts":"2019-07-14T14:55:08Z","tX":725,"tY":380,"tags":{"name:en":"Yurt"}},"6633202117":{"location":[41.9193419,75.1168011],"ct":"KG","tp":"CS","ts":"2023-03-28T07:59:11Z","tX":725,"tY":380,"tags":{}},"6640125186":{"location":[41.9180828,75.1922587],"ct":"KG","tp":"CS","ts":"2019-07-23T10:31:29Z","tX":725,"tY":380,"tags":{"name:en":"Yurt camp"}},"6705262056":{"location":[41.922694,75.1384036],"ct":"KG","tp":"CS","ts":"2019-08-13T08:41:27Z","tX":725,"tY":380,"tags":{"name":"Yurt camp"}},"6732430486":{"location":[41.919273,75.1229371],"ct":"KG","tp":"CS","ts":"2019-08-21T16:34:21Z","tX":725,"tY":380,"tags":{"name:en":"Yurt camp"}},"6732430585":{"location":[41.8984337,75.0356187],"ct":"KG","tp":"CS","ts":"2019-08-21T16:34:16Z","tX":725,"tY":380,"tags":{"name:en":"Yurt camp"}},"6732430586":{"location":[41.9125121,75.0513559],"ct":"KG","tp":"CS","ts":"2019-08-21T16:34:17Z","tX":725,"tY":380,"tags":{"name:en":"Yurt camp"}},"6732430587":{"location":[41.9167594,75.0692159],"ct":"KG","tp":"CS","ts":"2019-08-21T16:34:18Z","tX":725,"tY":380,"tags":{"name:en":"Yurt camp"}},"6732430588":{"location":[41.9279501,75.0897469],"ct":"KG","tp":"CS","ts":"2019-08-21T16:34:19Z","tX":725,"tY":380,"tags":{"name:en":"Yurt camp"}},"6732430589":{"location":[41.9274529,75.1144823],"ct":"KG","tp":"CS","ts":"2019-08-21T16:34:20Z","tX":725,"tY":380,"tags":{"name:en":"Yurt camp"}},"6741747311":{"location":[41.9116436,75.1924787],"ct":"KG","tp":"CS","ts":"2019-08-24T06:51:34Z","tX":725,"tY":380,"tags":{"name:en":"Ethno Camp Muras"}},"6771160295":{"location":[41.9040026,75.0428706],"ct":"KG","tp":"CS","ts":"2019-09-04T07:11:48Z","tX":725,"tY":380,"tags":{"name:en":"Yurt Camp"}},"6771160397":{"location":[41.8712795,75.0125749],"ct":"KG","tp":"CS","ts":"2019-09-04T07:11:48Z","tX":725,"tY":380,"tags":{"name:en":"Yurt Camping"}},"6771160398":{"location":[41.9224696,75.1710791],"ct":"KG","tp":"CS","ts":"2019-09-04T07:11:49Z","tX":725,"tY":380,"tags":{"name:en":"Yurt camp"}},"6804596088":{"location":[41.9115322,75.1887013],"ct":"KG","tp":"CS","ts":"2019-09-18T04:57:27Z","tX":725,"tY":380,"tags":{"name:en":"CBT associated yurt"}},"8556603721":{"location":[41.8941677,75.0349972],"ct":"KG","tp":"CS","ts":"2021-03-24T10:08:50Z","tX":725,"tY":380,"tags":{}},"8556604617":{"location":[41.8713161,75.0126678],"ct":"KG","tp":"CS","ts":"2021-03-24T10:08:51Z","tX":725,"tY":380,"tags":{"name:en":"Tulpar Tash"}},"8865673317":{"location":[41.8884953,75.216974],"ct":"KG","tp":"CS","ts":"2021-06-25T10:59:48Z","tX":725,"tY":380,"tags":{"addr:street":"Jaman Echki","name":"Рима Юрточный Лагерь","name:en":"Rima Yurt Camp","opening_hours":"24/7","phone":"0708420400","website":"https://www.facebook.com/rimayurtcamp/"}},"8982498117":{"location":[41.8721065,75.0124937],"ct":"KG","tp":"CS","ts":"2021-08-05T07:21:53Z","tX":725,"tY":380,"tags":{"name":"CBT yurt"}},"11088642607":{"location":[41.7737475,75.1501132],"ct":"KG","tp":"CS","ts":"2023-08-04T07:34:20Z","tX":725,"tY":380,"tags":{"name":"Номад Дримс","name:en":"Nomad Dreams"}},"11298070169":{"location":[41.9185223,75.1367621],"ct":"KG","tp":"CS","ts":"2024-07-25T06:12:31Z","tX":725,"tY":380,"tags":{"name:en":"Shepherds Life yurt camp"}}}