{"116981745":{"location":[46.6537997,-60.3991339],"ct":"CA","tp":"CS","ts":"2016-12-27T20:48:20Z","tX":340,"tY":361,"tags":{"addr:housenumber":"37437","addr:street":"Cabot Trail","capacity":"60","fee":"yes","name":"Ingonish Beach Campground","openfire":"yes","power_supply":"no","shower":"yes","source":"NRCan-CanVec-7.0"}},"116983043":{"location":[46.7061858,-60.361916],"ct":"CA","tp":"CS","ts":"2018-10-25T16:23:06Z","tX":340,"tY":361,"tags":{"addr:city":"Ingonish","addr:housenumber":"35597","addr:street":"Cabot Trail","name":"Ceilidh's Variety","opening_hours":"08:00-18:00","phone":"+1-902-285-2882","source":"NRCan-CanVec-7.0","website":"https://www.facebook.com/Ceilidhs-Variety-Tralier-Court-Electronics-731388657007986/"}},"639795534":{"location":[46.7112666,-60.3585889],"ct":"CA","tp":"CS","ts":"2022-01-03T10:54:52Z","tX":340,"tY":361,"tags":{"caravans":"yes","fee":"yes","laundry":"yes","name":"Broad Cove Campground","opening_hours":"May-Oct","phone":"+1-902-285-2524","power_supply":"yes","sanitary_dump_station":"customers","shower":"yes","source":"NRCan-CanVec-7.0","tents":"yes","toilets":"yes","website":"https://reservation.pc.gc.ca/CapeBretonHighlands%2fBroadCove%3fMap"}},"1120249622":{"location":[46.7113103,-60.3602787],"ct":"CA","tp":"CR","ts":"2017-08-16T14:27:48Z","tX":340,"tY":361,"tags":{"name":"Campground"}},"3755305789":{"location":[46.7114244,-60.3627121],"ct":"CA","tp":"CR","ts":"2017-08-16T14:27:50Z","tX":340,"tY":361,"tags":{}},"9896749817":{"location":[46.7098039,-60.3674157],"ct":"CA","tp":"CS","ts":"2022-07-19T06:41:01Z","tX":340,"tY":361,"tags":{"name":"Broad Cove Campground"}}}