{"8740383":{"location":[-33.3590792,-60.2660689],"ct":"AR","tp":"CS","ts":"2018-10-04T20:08:28Z","tX":340,"tY":612,"tags":{"camp_site":"deluxe","contact:phone":"+54 336 4439316","landuse":"recreation_ground","leisure":"sports_centre"}},"8740785":{"location":[-33.4074998,-60.1868512],"ct":"AR","tp":"CS","ts":"2018-09-25T21:14:52Z","tX":340,"tY":612,"tags":{"camp_site":"deluxe","club":"social","landuse":"recreation_ground","name":"Camping Club de Cazadores y Pescadores Deportivos de San Nicolás"}},"617063177":{"location":[-33.3378942,-60.238467],"ct":"AR","tp":"CS","ts":"2024-07-18T16:47:31Z","tX":340,"tY":612,"tags":{"addr:city":"San Nicolás de los Arroyos","addr:country":"AR","addr:housenumber":"375","addr:postcode":"2900","addr:province":"Buenos Aires","addr:street":"San Luis","alt_name":"Camping de ASIMRA","camp_site":"deluxe","contact:phone":"+54 336 4421321","landuse":"recreation_ground","name":"Camping Ciudad del Acuerdo","operator":"Asociación de Supervisores de la Industria Metalmecánica de la República Argentina (ASIMRA)"}},"617468893":{"location":[-33.3786102,-60.2238251],"ct":"AR","tp":"CS","ts":"2025-01-10T22:05:06Z","tX":340,"tY":612,"tags":{"camp_site":"deluxe","name":"Camping de Luz y Fuerza San Nicolás","operator":"Sindicato de Luz y Fuerza San Nicolás","surface":"grass"}},"629483824":{"location":[-33.3784041,-60.1716277],"ct":"AR","tp":"CS","ts":"2018-10-01T12:03:51Z","tX":340,"tY":612,"tags":{"addr:place":"Club Somisa","tents":"yes"}},"635705281":{"location":[-33.4291751,-60.1868914],"ct":"AR","tp":"CS","ts":"2019-11-29T21:02:12Z","tX":340,"tY":612,"tags":{"addr:city":"Ramallo","addr:country":"AR","addr:housenumber":"Km 222","addr:postcode":"B2915","addr:province":"Buenos Aires","addr:street":"Autopista Pedro Eugenio Aramburu","alt_name":"Camping de la UOM San Nicolás","camp_site":"deluxe","name":"Camping Nuestra Señora de Itatí","operator":"Unión Obrera Metalúrgica (UOM) Seccional San Nicolás"}},"900175708":{"location":[-33.227601,-60.4278016],"ct":"AR","tp":"CS","ts":"2021-01-26T00:23:46Z","tX":340,"tY":612,"tags":{"name":"Camping 8 de Noviembre"}},"900175709":{"location":[-33.2253698,-60.424554],"ct":"AR","tp":"CS","ts":"2021-01-26T00:23:46Z","tX":340,"tY":612,"tags":{"name":"Balneario Fighiera"}}}