{"428999220":{"location":[-27.0034253,-49.0973248],"ct":"BR","tp":"CS","ts":"2017-10-20T22:26:19Z","tX":372,"tY":591,"tags":{"addr:housenumber":"4269","addr:street":"Rua Santa Maria","building":"yes","contact:facebook":"https://www.facebook.com/Recanto-Silvestre-526253317402569/","contact:phone":"+55 47 3336-5447;+55 47 3336-5895","name":"Recanto Silvestre"}},"831598348":{"location":[-26.7617807,-49.2125018],"ct":"BR","tp":"CS","ts":"2022-07-26T13:15:07Z","tX":372,"tY":591,"tags":{"name":"Camping Morro Azul"}},"6578973110":{"location":[-26.7638954,-49.1700786],"ct":"BR","tp":"CS","ts":"2025-01-19T04:08:10Z","tX":372,"tY":591,"tags":{"addr:housenumber":"3090","addr:street":"Rua XV de Novembro","camp_site":"basic","contact:email":"betinaeb@hotmail.com","contact:phone":"+55 47 99967-2434","name":"Manga Camping","opening_hours":"Mo-Su 09:00-21:00","pets":"yes"}},"9910787287":{"location":[-26.8320495,-49.1449557],"ct":"BR","tp":"CS","ts":"2024-08-08T11:31:13Z","tX":372,"tY":591,"tags":{"addr:housenumber":"416","addr:street":"Rua Vale do Selke","contact:facebook":"campingrecantodovalle","contact:instagram":"campingrecantodovale","contact:phone":"+55 47 99638-3216","name":"Recanto do Vale"}},"11408524184":{"location":[-26.7464846,-49.1752566],"ct":"BR","tp":"CR","ts":"2025-06-12T21:27:49Z","tX":372,"tY":591,"tags":{"contact:phone":"+55 47 99244-1515","fee":"yes","name":"Parkstelle"}}}