{"31304084":{"location":[52.2846552,4.5059405],"ct":"NL","tp":"CS","ts":"2023-05-30T12:24:53Z","tX":524,"tY":336,"tags":{"caravans":"yes","email":"info@sollasi.com","name":"Camping Sollasi","phone":"+31 252 376 437","shower":"yes","tents":"yes","toilets":"yes","website":"https://sollasi.nl/camping-sollasi/"}},"31304412":{"location":[52.2815447,4.4847028],"ct":"NL","tp":"CS","ts":"2024-01-05T12:15:45Z","tX":524,"tY":336,"tags":{"addr:city":"Noordwijk","addr:housenumber":"43","addr:postcode":"2204BC","addr:street":"Langevelderlaan","email":"info@leparage.nl","name":"Camping Le Parage","phone":"+31 252 375 671","website":"https://www.sollasi.nl/camping-le-parage"}},"31859224":{"location":[52.2686292,4.471438],"ct":"NL","tp":"CR","ts":"2023-03-07T22:10:39Z","tX":524,"tY":336,"tags":{"caravans":"no","name":"Camping de Duinpan","permanent_camping":"yes","phone":"+31 252 371 726","static_caravans":"yes","tents":"no","website":"https://www.campingdeduinpan.com/"}},"32278346":{"location":[52.2732762,4.4775743],"ct":"NL","tp":"CS","ts":"2023-05-30T12:24:53Z","tX":524,"tY":336,"tags":{"caravans":"yes","name":"Camping de Wulp","phone":"+31 252 372 826","shower":"yes","tents":"yes","toilets":"yes","website":"https://www.dewulp.com/"}},"32443543":{"location":[52.2715528,4.4758898],"ct":"NL","tp":"CS","ts":"2023-05-30T12:24:53Z","tX":524,"tY":336,"tags":{"cabins":"yes","caravans":"yes","name":"De Carlton","phone":"+31 252 372 783","shower":"yes","tents":"yes","toilets":"yes","website":"https://www.campingdecarlton.nl/"}},"103043482":{"location":[52.2745092,4.4754821],"ct":"NL","tp":"CR","ts":"2023-03-07T22:10:39Z","tX":524,"tY":336,"tags":{"caravans":"no","name":"The Relaxing Crow","permanent_camping":"yes","phone":"+31 252 373 467","static_caravans":"yes","tents":"no","website":"https://the-relaxing-crow.jouwweb.nl"}},"157330224":{"location":[52.402883,4.5592607],"ct":"NL","tp":"CS","ts":"2024-04-26T14:08:06Z","tX":524,"tY":336,"tags":{"addr:city":"Overveen","addr:country":"NL","addr:housenumber":"72","addr:postcode":"2051EC","addr:street":"Zeeweg","area":"yes","contact:email":"info@campingbloemendaal.nl","contact:phone":"+31235732178","layer":"-1","name":"Camping Bloemendaal","website":"https://www.campingbloemendaal.nl"}},"204597364":{"location":[52.4091518,4.5567616],"ct":"NL","tp":"CS","ts":"2024-08-03T17:26:36Z","tX":524,"tY":336,"tags":{"addr:city":"Overveen","addr:country":"NL","addr:housenumber":"60","addr:postcode":"2051EC","addr:street":"Zeeweg","area":"yes","caravans":"yes","contact:email":"info@campingdelakens.nl","contact:facebook":"https://www.facebook.com/CampingdeLakens","contact:phone":"+31 23 541 1570","drinking_water":"yes","name":"Camping de Lakens","operator":"De Kennemerduincampings","shower":"yes","tents":"yes","website":"https://www.campingdelakens.com/"}},"362831355":{"location":[52.272005,4.470971],"ct":"NL","tp":"CS","ts":"2009-03-22T18:18:07Z","tX":524,"tY":336,"tags":{"name":"Bungalowpark AM Smit"}},"398345895":{"location":[52.2944795,4.5152076],"ct":"NL","tp":"CS","ts":"2023-05-30T22:10:49Z","tX":524,"tY":336,"tags":{"name":"Natuurkampeerterrein Ruigenhoek","operator":"Stichting Goedkamp","website":"https://www.goedkamp.nl/ruigenhoek/ruigenhoek"}},"480219826":{"location":[52.3675487,4.5530605],"ct":"NL","tp":"CR","ts":"2017-08-30T20:26:40Z","tX":524,"tY":336,"tags":{"name":"Sandevoerde","website":"http://www.kennemerpark.nl"}},"555568506":{"location":[52.2816383,4.4910776],"ct":"NL","tp":"CS","ts":"2023-03-07T22:10:39Z","tX":524,"tY":336,"tags":{"name":"Over 't Bruggetje","phone":"+31 6 27342687"}},"668132974":{"location":[52.3220342,4.564623],"ct":"NL","tp":"CS","ts":"2024-10-30T17:11:51Z","tX":524,"tY":336,"tags":{"brand":"MarinaParken","caravans":"yes","description":"camping wordt omgevormd tot bungalowpark, tot voltooiing is een gedeelte van de camping boekbaarâ€¦","email":"lobby@marinaparken.nl","fee":"yes","name":"MarinaPark Residentie Bloemendaal","permanent_camping":"yes","phone":"+31 23 584 7014","shower":"yes","static_caravans":"yes","tents":"yes","toilets":"yes","website":"https://www.marinaparkenverkoop.nl/residentie-bloemendaal","website:map":"https://www.marinaparken.nl/residentie-bloemendaal/plattegrond"}},"1122077269":{"location":[52.2722119,4.4770256],"ct":"NL","tp":"CR","ts":"2023-03-07T22:10:39Z","tX":524,"tY":336,"tags":{"name":"Stacaravanpark Rik van Soeren","permanent_camping":"yes","static_caravans":"yes","tents":"no"}},"1177575470":{"location":[52.2730796,4.4804989],"ct":"NL","tp":"CR","ts":"2023-05-30T11:45:48Z","tX":524,"tY":336,"tags":{"name":"Camperplaats De Guldenroede"}},"1268835934":{"location":[52.3871635,4.5344664],"ct":"NL","tp":"CR","ts":"2024-04-03T21:32:25Z","tX":524,"tY":336,"tags":{"addr:city":"Zandvoort","addr:postcode":"2041JA","addr:street":"Boulevard Barnaart","capacity":"14","fee":"yes","name":"Camperparkeerterrein Zandvoort","power_supply":"no","surface":"asphalt","tents":"no","toilets":"yes"}},"1268837371":{"location":[52.3901674,4.5392326],"ct":"NL","tp":"CR","ts":"2024-10-17T20:03:45Z","tX":524,"tY":336,"tags":{"fee":"yes","name":"Camping Caravanpark De Duinrand","power_supply":"yes","power_supply:maxcurrent":"16","sanitary_dump_station":"yes","shower":"yes","tents":"no","toilets":"yes","water_point":"yes","website":"https://campingdeduinrand.nl/"}}}