{"6315938":{"location":[52.2113971,4.4083113],"ct":"NL","tp":"CS","ts":"2024-11-07T09:24:58Z","tX":524,"tY":337,"tags":{"caravans":"yes","internet_access":"yes","internet_access:fee":"yes","name":"Molecaten Park Noordduinen","phone":"+31 71 402 5295","shower":"yes","tents":"yes","toilets":"yes","website":"https://www.molecaten.com/en/noordduinen","website:map":"https://www.molecaten.nl/Molecaten/media/Molecaten/Plattegronden/Plattegronden%20parkpagina/1033_groot.png"}},"15532611":{"location":[52.1462859,4.3844009],"ct":"NL","tp":"CS","ts":"2023-02-25T14:41:07Z","tX":524,"tY":337,"tags":{"caravans":"yes","name":"Camping Duinrell","shower":"yes","tents":"yes","toilets":"yes","website":"https://www.duinrell.nl/vakantiepark/camping"}},"15674568":{"location":[52.2357714,4.5392133],"ct":"NL","tp":"CS","ts":"2023-06-13T05:57:47Z","tX":524,"tY":337,"tags":{"capacity":"5","facebook":"https://www.facebook.com/pages/Camping%20Het%20Engeltje/126182707472744/","mobile":"+31 6 18080942","name":"Camping Het Engeltje","phone":"+31 252 216 770"}},"24520881":{"location":[52.1929773,4.3865039],"ct":"NL","tp":"CS","ts":"2023-05-30T22:10:51Z","tX":524,"tY":337,"tags":{"area":"yes","caravans":"yes","drinking_water":"yes","internet_access":"yes","internet_access:fee":"no","name":"Zuidduinen","phone":"+31 71 401 4750","shower":"yes","surface":"grass","tents":"yes","toilets":"yes","website":"https://www.zuidduinen.nl"}},"24901566":{"location":[52.1526018,4.4335056],"ct":"NL","tp":"CS","ts":"2023-05-31T19:05:31Z","tX":524,"tY":337,"tags":{"bar":"no","big_rigs":"yes","camp_type":"established","caravans":"yes","contact:city":"Wassenaar","contact:country":"NL","dish_washing":"yes","dryer":"no","fee":"19","fenced":"no","fireplace":"no","general_room":"no","guarded":"no","internet_access":"no","kitchen":"no","laundry":"manual","name":"Camping Maaldrift Wassenaar","payment:credit_cards":"yes","pets":"yes","phone":"+31 70 511 3688","picnic_benches":"no","power_supply":"yes","restaurant":"no","sanitary_dump_station":"yes","shop":"no","shower":"hot","swimming_pool":"no","tents":"yes","toilets:disposal":"flush","toilets:position":"sitting","water:location":"central","water:quality":"potable","website":"https://www.campingmaaldrift.nl/"}},"25444533":{"location":[52.2502619,4.4386755],"ct":"NL","tp":"PK","ts":"2023-12-24T09:51:06Z","tX":524,"tY":337,"tags":{"access":"yes","fee":"yes","hgv":"no","motor_vehicle":"yes","motorhome":"yes","name":"Wantveld","parking":"surface","tourist_bus":"yes"}},"30177442":{"location":[52.2082078,4.5163748],"ct":"NL","tp":"CS","ts":"2022-06-02T20:06:02Z","tX":524,"tY":337,"tags":{"name":"De Wasbeek"}},"30177443":{"location":[52.2080807,4.5133985],"ct":"NL","tp":"CR","ts":"2020-09-06T17:56:12Z","tX":524,"tY":337,"tags":{"name":"Rianto","website":"https://www.rianto.nl"}},"30788047":{"location":[52.2492521,4.462585],"ct":"NL","tp":"CS","ts":"2024-07-28T11:49:27Z","tX":524,"tY":337,"tags":{"addr:city":"Noordwijkerhout","addr:housenumber":"76","addr:postcode":"2211XR","addr:street":"Westeinde","caravans":"yes","email":"info@campingophoopvanzegen.nl","fee":"yes","name":"Op Hoop van Zegen","payment:cash":"yes","payment:credit_cards":"yes","payment:debit_cards":"yes","phone":"+31 252 375 491","shower":"yes","tents":"yes","toilets":"yes","website":"https://www.campingophoopvanzegen.nl/"}},"31744671":{"location":[52.2664829,4.4746736],"ct":"NL","tp":"CS","ts":"2022-12-05T13:11:04Z","tX":524,"tY":337,"tags":{"name":"Camping de Wijde Blick"}},"62088788":{"location":[52.2629882,4.4623371],"ct":"NL","tp":"CR","ts":"2022-12-05T14:57:24Z","tX":524,"tY":337,"tags":{"name":"Bungalowpark Bos, Zee en Duin"}},"62088789":{"location":[52.2632041,4.4597419],"ct":"NL","tp":"CR","ts":"2022-06-15T02:12:00Z","tX":524,"tY":337,"tags":{"name":"Bungalowpark 'Puik en Duin'","url":"www.puikenduin.nl"}},"164683218":{"location":[52.1422209,4.4944263],"ct":"NL","tp":"CS","ts":"2022-08-20T21:54:44Z","tX":524,"tY":337,"tags":{"name":"Camping Stochemhoeve","source":"3dShapes","wheelchair":"limited"}},"268014960":{"location":[52.1230563,4.4637773],"ct":"NL","tp":"CS","ts":"2024-03-06T19:24:15Z","tX":524,"tY":337,"tags":{"addr:city":"Leidschendam","addr:housenumber":"11","addr:postcode":"2266BM","addr:street":"Rietpolderweg","name":"Camping Vlietland","phone":"+31 71 561 2200","website":"https://www.campingvlietland.nl"}},"530911203":{"location":[52.220755,4.5544156],"ct":"NL","tp":"CS","ts":"2023-05-30T12:25:29Z","tX":524,"tY":337,"tags":{"caravans":"yes","internet_access":"yes","internet_access:fee":"no","name":"De Hof van Eeden","phone":"+31 252 212 573","shower":"yes","tents":"yes","toilets":"yes","website":"https://www.dehofvaneeden.nl/kamperen-accomodatie/"}},"531008264":{"location":[52.1984222,4.5560435],"ct":"NL","tp":"CS","ts":"2023-05-30T12:25:29Z","tX":524,"tY":337,"tags":{"caravans":"yes","name":"De Boekhorst","phone":"+31 6 12826744","static_caravans":"yes","website":"https://campingdeboekhorst.nl/"}},"531011339":{"location":[52.2003751,4.5507864],"ct":"NL","tp":"CS","ts":"2024-06-04T15:33:14Z","tX":524,"tY":337,"tags":{"caravans":"yes","email":"info@de-horizon-warmond.nl","name":"De Horizon","static_caravans":"yes","website":"https://nl-nl.facebook.com/Camping-de-Horizon-1413419775612017/"}},"578231015":{"location":[52.1104327,4.3464173],"ct":"NL","tp":"CS","ts":"2023-05-30T12:25:29Z","tX":524,"tY":337,"tags":{"caravans":"yes","name":"Duinhorst","phone":"+31 70 324 2270","shower":"yes","tents":"yes","website":"https://www.duinhorst.nl/"}},"623761257":{"location":[52.1061624,4.4104256],"ct":"NL","tp":"CS","ts":"2023-02-11T11:54:33Z","tX":524,"tY":337,"tags":{"caravans":"yes","motorhome":"yes","name":"S.V.R. Camping Noorthey","shower":"yes","tents":"yes","toilets":"yes","website":"https://www.campingnoorthey.nl/"}},"688300026":{"location":[52.1122467,4.4766687],"ct":"NL","tp":"CR","ts":"2024-03-28T23:34:46Z","tX":524,"tY":337,"tags":{"name":"Camping Leiden-Zoeterwoude"}},"700835304":{"location":[52.1046168,4.5355165],"ct":"NL","tp":"CS","ts":"2023-07-30T07:27:12Z","tX":524,"tY":337,"tags":{"caravans":"yes","email":"info@veldhoevezuivel.nl","internet_access":"yes","internet_access:fee":"no","name":"Veldhoeve","phone":"+31 6 51374686","shower":"yes","tents":"yes","toilets":"yes","website":"https://veldhoevezuivel.nl"}},"700851724":{"location":[52.1110434,4.5019915],"ct":"NL","tp":"CS","ts":"2024-06-03T21:29:32Z","tX":524,"tY":337,"tags":{"capacity:pitches":"25","caravans":"yes","internet_access":"yes","internet_access:fee":"no","name":"Hoeve Rustdam","operator":"Camping Boerderij Rustdam","phone":"+31 6 26716725","shower":"yes","tents":"yes","toilets":"yes","website":"https://hoeverustdam.nl/"}},"702136358":{"location":[52.1061163,4.4562335],"ct":"NL","tp":"CS","ts":"2024-03-26T16:09:01Z","tX":524,"tY":337,"tags":{"caravans":"yes","internet_access":"yes","internet_access:fee":"no","mobile":"+31 6 24711288","name":"De Merenburger","phone":"+31 70 327 3848","shower":"yes","tents":"yes","toilets":"yes","website":"https://demerenburger.nl/nl/overige-diensten/camping"}},"718205246":{"location":[52.0603461,4.4324628],"ct":"NL","tp":"CS","ts":"2023-11-01T09:07:18Z","tX":524,"tY":337,"tags":{"caravans":"yes","drinking_water":"yes","email":"mail@dedriemorgen.nl","name":"De Drie Morgen","phone":"+31 79 351 5107","shower":"yes","tents":"yes","toilets":"yes","website":"https://www.dedriemorgen.nl/"}},"838325753":{"location":[52.2002501,4.4587297],"ct":"NL","tp":"CS","ts":"2023-02-25T14:41:07Z","tX":524,"tY":337,"tags":{"access":"customers","addr:city":"Rijnsburg","addr:housenumber":"9","addr:postcode":"2231NW","addr:street":"Elsgeesterweg","caravans":"yes","name":"Vakantiepark Koningshof","shower":"yes","tents":"yes","toilets":"yes","website":"https://www.koningshofholland.com/nl/"}},"844813777":{"location":[52.2063774,4.5161992],"ct":"NL","tp":"CS","ts":"2023-05-30T22:11:16Z","tX":524,"tY":337,"tags":{"name":"Kagerzoom","website":"https://www.campingkagerzoom.nl"}},"844813778":{"location":[52.2072343,4.5171469],"ct":"NL","tp":"CS","ts":"2022-06-02T20:06:02Z","tX":524,"tY":337,"tags":{"name":"Dukdalf","website":"http://www.campingdukdalf.nl"}},"844813779":{"location":[52.2085804,4.5136636],"ct":"NL","tp":"CS","ts":"2022-06-02T20:06:02Z","tX":524,"tY":337,"tags":{"name":"Oosterwoud"}},"844813780":{"location":[52.2059274,4.5144153],"ct":"NL","tp":"CR","ts":"2022-10-29T00:10:47Z","tX":524,"tY":337,"tags":{"name":"Zonnekamp","power_supply":"yes","website":"https://www.zonnekamp.com"}},"844813781":{"location":[52.209284,4.5175879],"ct":"NL","tp":"CS","ts":"2022-05-30T11:54:01Z","tX":524,"tY":337,"tags":{"name":"Hoflee"}},"1128221589":{"location":[52.0953492,4.5046765],"ct":"NL","tp":"CS","ts":"2023-05-30T12:25:35Z","tX":524,"tY":337,"tags":{"caravans":"no","internet_access":"yes","internet_access:fee":"no","name":"Boerderij 't Geertje","note":"minicamping, geopend van half april tot half oktober","phone":"+31 71 580 2642","shower":"yes","tents":"yes","toilets":"yes","url":"https://hetgeertje.nl"}},"1128256570":{"location":[52.1985208,4.5548501],"ct":"NL","tp":"CS","ts":"2023-05-30T22:11:17Z","tX":524,"tY":337,"tags":{"cabins":"yes","caravans":"yes","name":"'t Haasje","phone":"+31 71 501 8288","shower":"yes","static_caravans":"yes","tents":"yes","toilets":"yes","website":"https://www.facebook.com/campinghethaasje"}},"1159231265":{"location":[52.2366537,4.4996126],"ct":"NL","tp":"CS","ts":"2023-05-30T12:25:36Z","tX":524,"tY":337,"tags":{"cabins":"yes","caravans":"yes","email":"Jenkvandijk@live.nl","landcover":"grass","mobile":"+31 6 27537912","name":"Camping Jachtlust","phone":"+31 252 215 920","shower":"yes","tents":"yes","toilets":"yes","website":"https://www.jachtlust-bollenstreek.nl/"}},"1171781663":{"location":[52.1424377,4.5466449],"ct":"NL","tp":"CS","ts":"2023-05-30T12:25:36Z","tX":524,"tY":337,"tags":{"capacity:pitches":"10","caravans":"yes","motorhome":"yes","name":"Hoeve Dijkzicht","phone":"+31 6 42605609","shower":"yes","tents":"yes","toilets":"yes","website":"https://boerencamping-hoevedijkzicht.nl/"}},"1191402332":{"location":[52.1877889,4.5227416],"ct":"NL","tp":"CS","ts":"2023-08-06T22:18:32Z","tX":524,"tY":337,"tags":{"club":"scout","name":"Zeeverkennerscentrum Kagerplassen","scout":"sea","website":"https://kagerplassen.scouting.nl/"}},"3556697813":{"location":[52.0577006,4.3773911],"ct":"NL","tp":"CR","ts":"2022-06-06T15:27:34Z","tX":524,"tY":337,"tags":{"addr:city":"'s-Gravenhage","addr:housenumber":"1","addr:postcode":"2496ZA","addr:street":"Valutapad","capacity":"100","name":"Camperpark Den Haag","operator":"Erik Romijn","phone":"+31 6 22003744","power_supply":"yes","power_supply:maxcurrent":"10","power_supply:voltage":"230","website":"https://www.camperparkdenhaag.nl"}},"10780349486":{"location":[52.2099792,4.5592149],"ct":"NL","tp":"CS","ts":"2023-04-02T20:10:15Z","tX":524,"tY":337,"tags":{"cabins":"yes","email":"boerderijcampingkaag@hotmail.com","name":"Boerderij camping Kaag"}},"10876543463":{"location":[52.1676726,4.5485668],"ct":"NL","tp":"CS","ts":"2023-05-07T21:04:14Z","tX":524,"tY":337,"tags":{"capacity":"22","caravans":"yes","internet_access":"no","name":"Ons Wijland","tents":"yes","website":"https://www.onswijland.nl/"}},"9356377678":{"location":[52.1690438,4.4821716],"ct":"NL","tp":"CR","ts":"2022-06-06T15:37:39Z","tX":524,"tY":337,"tags":{"addr:city":"Leiden","addr:housenumber":"4","addr:postcode":"2334EN","addr:street":"Boerhaavelaan","camping":"camping","capacity":"10","description":"Open from friday 18pm untill monday 8am. Parking lot that is used as camping spot, perfect location next to Leiden city center. Reserving and paying can be done in the small building at the back of the property. When not around, pay later.","fee":"yes","internet_access":"wlan","internet_access:fee":"customers","name":"Boerhaaveplaats","note":"Opening hours: Friday 6pm untill monday 8 am.","opening_hours":"Sa-Su 00:00-24:00","parking":"parking","payment:cash":"yes","phone":"+31 6 53482844","power_supply":"yes","reservation":"accepted","sanitary_dump_station":"no"}},"9981805217":{"location":[52.2257122,4.5328525],"ct":"NL","tp":"CR","ts":"2022-08-28T15:14:41Z","tX":524,"tY":337,"tags":{"designation":"campers"}},"11003463637":{"location":[52.1803789,4.4514964],"ct":"NL","tp":"CR","ts":"2023-06-24T18:29:52Z","tX":524,"tY":337,"tags":{"name":"Caravanstalling Buitenlust","website":"https://caravanstallingbuitenlust.nl/"}},"11915762120":{"location":[52.1569374,4.4791777],"ct":"NL","tp":"CR","ts":"2024-05-18T12:02:15Z","tX":524,"tY":337,"tags":{"charge":"25â‚¬","fee":"yes"}},"7703797211":{"location":[52.2119753,4.408924],"ct":"NL","tp":"SD","ts":"2020-07-10T22:32:25Z","tX":524,"tY":337,"tags":{}},"7888029532":{"location":[52.2004364,4.4581889],"ct":"NL","tp":"SD","ts":"2020-09-08T18:59:43Z","tX":524,"tY":337,"tags":{"access":"customers","fee":"no","water_point":"yes"}},"9524109002":{"location":[52.0603966,4.4330886],"ct":"NL","tp":"SD","ts":"2022-02-21T11:28:53Z","tX":524,"tY":337,"tags":{"access":"customers","operator":"De Drie Morgen"}},"10648454066":{"location":[52.1058561,4.4109754],"ct":"NL","tp":"SD","ts":"2023-02-11T11:54:33Z","tX":524,"tY":337,"tags":{}}}