{"19838528":{"location":[51.9306553,4.4450572],"ct":"NL","tp":"CS","ts":"2024-07-01T05:09:43Z","tX":524,"tY":338,"tags":{"internet_access":"wlan","internet_access:fee":"no","name":"Stadscamping Rotterdam","website":"https://www.stadscamping-rotterdam.nl"}},"41615233":{"location":[52.0314625,4.4143376],"ct":"NL","tp":"CS","ts":"2020-08-21T19:15:09Z","tX":524,"tY":338,"tags":{"caravans":"no","name":"Scoutingkampeerterrein Bieslandse Bos","scout":"yes","tents":"yes","url":"http://www.bieslandsebos.nl/"}},"134622995":{"location":[51.9552837,4.2872266],"ct":"NL","tp":"CS","ts":"2023-05-30T12:25:03Z","tX":524,"tY":338,"tags":{"contact:phone":"+31 10 591 2775","name":"Hoeve Bouwlust","website":"https://hoevebouwlust.nl/overnachten/camping/#verblijf"}},"138163977":{"location":[52.0048623,4.2842722],"ct":"NL","tp":"CS","ts":"2023-07-29T22:11:42Z","tX":524,"tY":338,"tags":{"cabins":"yes","capacity:cabins":"5","caravans":"yes","email":"info@minicampingzwetzone.nl","fee":"yes","internet_access":"wlan","landcover":"grass","motorhome":"yes","name":"Zwetzone","phone":"+31 6 12930247","shower":"yes","tents":"yes","toilets":"yes","website":"https://www.minicampingzwetzone.nl/"}},"138581041":{"location":[51.9710273,4.3051192],"ct":"NL","tp":"CS","ts":"2024-04-26T14:10:03Z","tX":524,"tY":338,"tags":{"addr:city":"Schipluiden","addr:housenumber":"24","addr:postcode":"2636AJ","addr:street":"Gaagweg","contact:email":"info@het-zonneveld.nl","contact:phone":"+31153808053","name":"Het Zonneveld","website":"https://www.het-zonneveld.nl/"}},"149256611":{"location":[51.9777041,4.3881457],"ct":"NL","tp":"CS","ts":"2025-01-22T22:07:48Z","tX":524,"tY":338,"tags":{"access":"customers","motorhome":"yes","name":"Naturisten Camping Abtswoudse Hoeve (NAVAH)","nudism":"designated","permanent_camping":"yes","phone":"+31 6 2028 7393","tents":"yes","website":"https://www.navah.nl"}},"416448731":{"location":[52.0140824,4.5341807],"ct":"NL","tp":"CR","ts":"2025-01-15T13:22:59Z","tX":524,"tY":338,"tags":{"capacity":"2","caravan_site":"motorhome_stopover","caravan_site:type":"parking_lot","fee":"no","maxstay":"48 hours","name":"Camperplaats Bleiswijk","power_supply":"no","sanitary_dump_station":"no","seasonal":"no","water_point":"no"}},"467911601":{"location":[52.0450434,4.2232663],"ct":"NL","tp":"CS","ts":"2023-11-24T07:05:38Z","tX":524,"tY":338,"tags":{"access":"private","addr:city":"'s-Gravenhage","addr:housenumber":"21","addr:postcode":"2553RA","addr:street":"Monsterseweg","description":"Dit kampeerterrein is alleen toegankelijk voor leden van de NTKC","dog":"leashed","internet_access":"no","name":"NTKC De Haan","opening_hours":"week 01-53","operator":"Nederlandse Toeristen Kampeer Club","power_supply":"yes","website":"https://www.kampeerclub.nl/terrein/kampeerterrein-de-haan"}},"503870361":{"location":[52.01882,4.378906],"ct":"NL","tp":"CS","ts":"2024-07-07T18:58:12Z","tX":524,"tY":338,"tags":{"caravans":"yes","name":"vakantiepark DelftseHout","source":"survey","tents":"yes"}},"708004436":{"location":[52.0082458,4.5633561],"ct":"NL","tp":"CS","ts":"2023-01-08T13:23:27Z","tX":524,"tY":338,"tags":{"cabins":"yes","caravans":"yes","name":"Camping De Koornmolen","shower":"yes","static_caravans":"yes","tents":"yes","toilets":"yes"}},"708004437":{"location":[51.9782356,4.5216445],"ct":"NL","tp":"CS","ts":"2023-06-14T19:06:45Z","tX":524,"tY":338,"tags":{"cabins":"no","capacity":"20","caravans":"yes","drinking_water":"yes","name":"Camping Het Lansingerland","shower":"yes","static_caravans":"no","tents":"yes","website":"https://www.boerderijhetlansingerland.nl/nl/camping-1065/"}},"1274391833":{"location":[51.9290627,4.56886],"ct":"NL","tp":"CS","ts":"2024-04-20T11:45:33Z","tX":524,"tY":338,"tags":{"addr:city":"Capelle aan den IJssel","addr:housenumber":"101","addr:postcode":"2902LE","addr:street":"'s-Gravenweg","email":"info@scoutcentrumrotterdam.nl","name":"Scoutcentrum Rotterdam","scout":"yes","tents":"yes","website":"https://scoutcentrumrotterdam.nl/"}},"1351431217":{"location":[51.914725,4.2504719],"ct":"NL","tp":"CR","ts":"2025-02-26T17:09:11Z","tX":524,"tY":338,"tags":{"capacity":"10","caravan_site":"motorhome_stopover","caravan_site:type":"river;town","check_in":"12:00","check_out":"12:00","internet_access":"no","maxlength":"8","maxstay":"72 hours","name":"Camperplaatsen Veerpont","power_supply":"yes","sanitary_dump_station":"yes","seasonal":"no","surface":"asphalt","water_point":"yes","website":"https://www.ervaarmaassluis.nl/nl/locaties-overzicht/3417502509/camperplaatsen-veerpont"}},"1351431219":{"location":[51.9162852,4.2452884],"ct":"NL","tp":"CR","ts":"2025-01-15T00:03:08Z","tX":524,"tY":338,"tags":{"capacity":"2","caravan_site":"motorhome_stopover","caravan_site:type":"river;town","charge":"20 EUR","check_in":"12:00","check_out":"12:00","fee":"yes","internet_access":"no","maxlength":"8","maxstay":"72 hours","name":"Camperplaatsen Haven Maassluis","opening_hours":"24/7","power_supply":"yes","sanitary_dump_station":"no","seasonal":"no","water_point":"no","website":"https://www.ervaarmaassluis.nl/nl/locaties-overzicht/633115137/camperplaats"}},"1351437501":{"location":[51.9192644,4.3937362],"ct":"NL","tp":"CR","ts":"2025-01-22T22:05:11Z","tX":524,"tY":338,"tags":{"capacity":"6","caravan_site":"motorhome_stopover","caravan_site:type":"town","charge":"7.40 EUR","description":"practical maximum length is 7 metres","fee":"yes","fee:conditional":"no @ (Su,Mo-Sa 20:00-09:00)","maxlength:practical":"7","name":"Noordvest Schiedam","website":"https://www.sdam.nl/zien-doen/ct/horeca-slapen-en-vergaderen/info/camperplaatsen"}},"1351848675":{"location":[51.8546397,4.3408362],"ct":"NL","tp":"CR","ts":"2025-01-16T15:37:01Z","tX":524,"tY":338,"tags":{"addr:city":"Spijkenisse","addr:street":"Hongerlandsedijk","capacity:caravans":"8","caravan_site":"motorhome_stopover","caravan_site:type":"river","fee":"yes","maxstay":"72 hours","name":"Camperstandplaats Hongerlandsedijk","website":"https://www.opvoorneputten.nl/plan-je-bezoek/overnachten/campings/camping-overzicht/1104398614/camperstandplaats-hongerlandsedijk"}},"1353141425":{"location":[51.8479249,4.3236842],"ct":"NL","tp":"CR","ts":"2025-01-21T12:31:58Z","tX":524,"tY":338,"tags":{"capacity:caravans":"3","caravan_site":"motorhome_stopover","caravan_site:type":"town","fee":"yes","maxstay":"72 hours","name":"Camperplaats Vredehofstraat Spijkenisse","power_supply":"no","sanitary_dump_station":"no","surface":"paving_stones","water_point":"no"}},"1353525303":{"location":[51.919615,4.4009685],"ct":"NL","tp":"CR","ts":"2025-01-22T22:05:11Z","tX":524,"tY":338,"tags":{"capacity":"2","caravan_site":"motorhome_stopover","caravan_site:type":"town","fee":"7.80 euro","maxstay":"72 hours","name":"Doelenplein","power_supply":"no","reservation":"no","sanitary_dump_station":"no","surface":"paving_stones","water_point":"no","website":"https://www.sdam.nl/zien-doen/ct/horeca-slapen-en-vergaderen/info/camperplaatsen"}},"1411136350":{"location":[51.9770273,4.5367654],"ct":"NL","tp":"CS","ts":"2023-01-08T12:06:07Z","tX":524,"tY":338,"tags":{"group_only":"yes","name":"Outdoor Valley"}},"2058527938":{"location":[51.9192703,4.3937347],"ct":"NL","tp":"CR","ts":"2022-11-18T10:52:44Z","tX":524,"tY":338,"tags":{"capacity":"6","charge":"7,40 EUR","description":"practical maximum length is 7 metres","fee":"no","fee:conditional":"yes @ (Mo-Sa  09:00-20:00)","name":"Noordvest"}},"2058538271":{"location":[51.9195798,4.4009609],"ct":"NL","tp":"CR","ts":"2012-12-09T18:27:38Z","tX":524,"tY":338,"tags":{"capacity":"2","fee":"6,60 euro","name":"Doelenplein"}},"2339593506":{"location":[51.9672317,4.371996],"ct":"NL","tp":"CS","ts":"2021-06-19T05:08:59Z","tX":524,"tY":338,"tags":{"access":"members","addr:city":"Schipluiden","addr:housenumber":"27a","addr:postcode":"2636EE","addr:street":"Abtswoude","capacity":"25","name":"De Grutto","note":"Leden NIVON of Groene Koepel","operator":"NIVON","source":"BAG","source:date":"2014-02-11","website":"https://www.natuurkampeerterreinen.nl/terreinen/zuid-holland/de-grutto/"}},"3011138155":{"location":[51.9161922,4.2453446],"ct":"NL","tp":"CR","ts":"2014-08-11T20:01:00Z","tX":524,"tY":338,"tags":{}},"4862556481":{"location":[52.0131462,4.5520195],"ct":"NL","tp":"CS","ts":"2017-05-18T20:18:41Z","tX":524,"tY":338,"tags":{"fee":"no","name":"Dagcamping Bleiswijk","note":"alleen zomers geopend","opening_hours":"Mo-Su 09:00-21:00"}},"5569072394":{"location":[51.9743086,4.3828774],"ct":"NL","tp":"CS","ts":"2022-11-04T13:15:05Z","tX":524,"tY":338,"tags":{"addr:city":"Delft","addr:housenumber":"166","addr:street":"Schieweg","internet_access":"wlan","name":"Delflandhoeve","phone":"+31 15 212 9003;+31 6 12236658","url":"https://www.delflandhoeve.nl/"}},"10711834761":{"location":[51.9588594,4.3531434],"ct":"NL","tp":"CS","ts":"2023-04-11T10:31:43Z","tX":524,"tY":338,"tags":{"access":"customers","capacity":"10","caravans":"no","email":"info@buitengoedtafete.nl","name":"Natuurkampeerterrein Ta FÃªte","note":"Natuurkampeerterrein","phone":"+31 6 22405572","tents":"yes","toilets":"yes","website":"https://buitengoedtafete.nl/camping/"}},"6683412285":{"location":[51.8546838,4.3407119],"ct":"NL","tp":"CR","ts":"2022-08-29T09:33:38Z","tX":524,"tY":338,"tags":{"addr:city":"Spijkenisse","addr:street":"Hongerlandsedijk","capacity:caravans":"6","fee":"no","name":"Camperstandplaats Hongerlandsedijk"}},"9985495562":{"location":[51.8479829,4.3236326],"ct":"NL","tp":"CR","ts":"2023-12-27T20:21:38Z","tX":524,"tY":338,"tags":{"capacity:caravans":"3","fee":"yes","name":"Camperplaats Vredehofstraat"}},"9945949059":{"location":[52.0181793,4.378173],"ct":"NL","tp":"SD","ts":"2024-07-07T18:58:12Z","tX":524,"tY":338,"tags":{"access":"customers","fee":"no","water_point":"yes"}}}