{"143029971":{"location":[51.8327288,4.5514459],"ct":"NL","tp":"CS","ts":"2024-06-30T22:31:44Z","tX":524,"tY":339,"tags":{"caravans":"yes","email":"info@recreatieparkdeoudemaas.nl","name":"Recreatiepark De Oude Maas","phone":"+31 78 677 2445","tents":"yes","website":"https://www.recreatieparkdeoudemaas.nl/"}},"331090683":{"location":[51.7550456,4.4275605],"ct":"NL","tp":"CS","ts":"2025-01-21T01:44:32Z","tX":524,"tY":339,"tags":{"addr:city":"Numansdorp","addr:housenumber":"12","addr:postcode":"3281KV","addr:street":"Volgerlandseweg","email":"info@volgerland.nl","fee":"yes","name":"'t Volgerland","phone":"+31 186 571 452","power_supply":"yes","sanitary_dump_station":"yes","shower":"yes","static_caravans":"yes","tents":"yes","toilets":"yes","website":"https://www.volgerland.nl/"}},"432869025":{"location":[51.7934223,4.3873247],"ct":"NL","tp":"CS","ts":"2023-08-03T21:01:22Z","tX":524,"tY":339,"tags":{"capacity":"29","caravans":"yes","name":"Kriekenboogerd","phone":"+31 186 615 732","tents":"yes","toilets":"yes","website":"https://www.kriekenboogerd.nl/accommodaties/plattelandscamping"}},"432871569":{"location":[51.7337306,4.3563574],"ct":"NL","tp":"CS","ts":"2023-09-02T06:40:54Z","tX":524,"tY":339,"tags":{"addr:city":"Zuid-Beijerland","addr:housenumber":"1","addr:postcode":"3284BE","addr:street":"Tiengemeten","capacity":"10","name":"Glamping Cast Away eiland Tiengemeten","operator":"Tinyparks","website":"https://www.tinyparks.nl/parken/cast-away"}},"432871570":{"location":[51.7326605,4.3562581],"ct":"NL","tp":"CS","ts":"2022-02-22T21:32:34Z","tX":524,"tY":339,"tags":{"addr:city":"Zuid-Beijerland","addr:housenumber":"1","addr:postcode":"3284BE","addr:street":"Tiengemeten","capacity":"15","caravans":"no","dog":"yes","email":"vraag@herbergtiengemeten.nl","name":"Kampeerterrein Tiengemeten","operator":"Herberg Tiengemeten","phone":"+31 186 660 238","shower":"yes","tents":"yes","toilets":"yes","website":"https://www.herbergtiengemeten.nl/camping"}},"432881718":{"location":[51.7473466,4.5605862],"ct":"NL","tp":"CS","ts":"2025-01-21T01:43:08Z","tX":524,"tY":339,"tags":{"addr:city":"Strijen","addr:housenumber":"76a","addr:postcode":"3291CL","addr:street":"Oud Bonaventurasedijk","capacity":"6","email":"bonaventura@planet.nl","fee":"yes","name":"Bonaventura","phone":"+31 78 674 2614","power_supply":"yes","sanitary_dump_station":"yes","static_caravans":"only","tents":"yes","water_supply":"yes"}},"432887457":{"location":[51.8125702,4.3908039],"ct":"NL","tp":"CS","ts":"2025-01-21T12:18:38Z","tX":524,"tY":339,"tags":{"addr:housenumber":"182","addr:postcode":"3262BH","addr:street":"Zinkweg","capacity":"1","fee":"yes","name":"De Kreek","phone":"+31 186 640 047","power_supply":"yes","sanitary_dump_station":"yes","static_caravans":"yes"}},"513725109":{"location":[51.8232939,4.2342156],"ct":"NL","tp":"CS","ts":"2023-04-02T16:13:34Z","tX":524,"tY":339,"tags":{"addr:city":"Zuidland","addr:housenumber":"4","addr:postcode":"3214LL","addr:street":"Ramshilseweg","caravans":"yes","email":"info@janbeukelman.nl","name":"natuurkampeerterrein de Kersegaard","phone":"+31 6 20364680","shower":"yes","tents":"yes","toilets":"yes","website":"http://de-kersengaard.nl/"}},"515568347":{"location":[51.6983801,4.2662331],"ct":"NL","tp":"CS","ts":"2023-05-30T12:25:28Z","tX":524,"tY":339,"tags":{"brand":"SVR","cabins":"yes","caravans":"yes","email":"info@campingdelagewerf.nl","mobile":"+31 6 23144455","name":"De Lage Werf","phone":"+31 187 643 306","shower":"yes","static_caravans":"yes","tents":"yes","toilets":"yes","website":"https://www.campingdelagewerf.nl/"}},"923527056":{"location":[51.8211193,4.5220137],"ct":"NL","tp":"CS","ts":"2025-01-20T17:52:05Z","tX":524,"tY":339,"tags":{"name":"De Groene Oase","operator":"Coöperatie De Groene Oase U.A.","permanent_camping":"only"}},"1060517345":{"location":[51.6434357,4.4196679],"ct":"NL","tp":"CS","ts":"2023-05-30T12:22:04Z","tX":524,"tY":339,"tags":{"brand":"SVR","caravans":"yes","email":"info@campingmariendreef.nl","name":"Mariëndreef","phone":"+31 6 22166935;+31 6 53696209","shower":"yes","tents":"yes","toilets":"yes","website":"https://www.campingmariendreef.nl"}},"1128256572":{"location":[51.7215363,4.2313683],"ct":"NL","tp":"CS","ts":"2023-05-30T22:11:17Z","tX":524,"tY":339,"tags":{"addr:city":"Stad aan 't Haringvliet","addr:housenumber":"2","addr:postcode":"3243LD","addr:street":"Oostmoerse Scheidweg","cabins":"yes","caravans":"yes","internet_access":"wlan","name":"Camping 't Vogelnest","phone":"+31 187 611 252","static_caravans":"yes","tents":"yes","toilets":"yes","website":"https://www.campinghetvogelnest.nl"}},"1150568579":{"location":[51.6760804,4.3023623],"ct":"NL","tp":"CS","ts":"2023-03-08T22:09:36Z","tX":524,"tY":339,"tags":{"brand":"SVR","caravans":"yes","email":"kastanjehoeve.go@gmail.com","name":"Kastanjehoeve","phone":"+31 6 33688539","shower":"yes","tents":"yes","toilets":"yes","website":"https://kastanjehoevego.nl/"}},"1152783117":{"location":[51.7027564,4.2933406],"ct":"NL","tp":"CS","ts":"2023-03-09T09:01:20Z","tX":524,"tY":339,"tags":{"cabins":"yes","capacity":"10","caravans":"yes","name":"De Schaapskooi","phone":"+31 187 632 000","shower":"yes","static_caravans":"yes","tents":"yes","toilets":"yes","website":"https://www.deschaapswei.nl/"}},"1351255507":{"location":[51.8218933,4.2738808],"ct":"NL","tp":"CR","ts":"2025-03-25T13:59:00Z","tX":524,"tY":339,"tags":{"caravan_site":"motorhome_stopover","caravan_site:type":"beach","fee":"no","maxstay":"72 hours","maxweight":"3","name":"Camperplaats Stompaardsedijk Bernisse","website":"https://www.opvoorneputten.nl/locaties/989583686/camperplaats-stompaardsedijk-bernisse"}},"1352982268":{"location":[51.7424463,4.2429811],"ct":"NL","tp":"CR","ts":"2025-01-20T19:15:37Z","tX":524,"tY":339,"tags":{"capacity":"10","caravan_site":"motorhome_stopover","caravan_site:type":"harbour","charge":"18 EUR","email":"info@jachthaven-atlantica.nl","fee":"yes","name":"Jachthaven Atlantica","phone":"+31 187 61 25 24","power_supply:charge":"0.75 EUR/kWh","power_supply:fee":"yes","seasonal":"no","toilets":"yes","website":"https://www.jachthaven-atlantica.nl/nl-blog/overnacht-met-uw-camper-bij-jachthaven-atlantica-b-v"}},"10940346371":{"location":[51.716808,4.4386762],"ct":"NL","tp":"CS","ts":"2023-05-30T17:46:29Z","tX":524,"tY":339,"tags":{"name":"Camping Fort Buitensluis","website":"https://www.fortbuitensluis.nl/camping/"}},"7876567185":{"location":[51.7426424,4.2426386],"ct":"NL","tp":"CR","ts":"2020-09-04T20:21:17Z","tX":524,"tY":339,"tags":{"name":"Jachthaven Atlantica"}},"9985495561":{"location":[51.8219013,4.273889],"ct":"NL","tp":"CR","ts":"2022-08-29T09:33:38Z","tX":524,"tY":339,"tags":{"fee":"no"}}}