{"3845140":{"location":[51.5091327,4.5642316],"ct":"NL","tp":"CR","ts":"2023-08-19T14:23:41Z","tX":524,"tY":340,"tags":{"facebook":"https://www.facebook.com/witteplas/","name":"De Witte Plas","phone":"+31 6 23732664","static_caravans":"only"}},"6826532":{"location":[51.4223879,4.3434446],"ct":"NL","tp":"CS","ts":"2017-09-01T15:33:47Z","tX":524,"tY":340,"tags":{"landuse":"grass","name":"minicamping Aan de Groene Papegaai"}},"16195335":{"location":[51.482351,4.3933595],"ct":"NL","tp":"CS","ts":"2023-08-13T08:44:55Z","tX":524,"tY":340,"tags":{"capacity:motorhome":"6","caravans":"yes","email":"info@mygetaway.nl","landcover":"grass","motorhome":"yes","name":"Getaway","phone":"+31 6 57731054","shower":"yes","static_caravans":"yes","tents":"yes","toilets":"yes","website":"https://mygetaway.nl/"}},"26400254":{"location":[51.4688253,4.44006],"ct":"NL","tp":"CS","ts":"2021-04-24T08:05:45Z","tX":524,"tY":340,"tags":{"addr:city":"Wouwse Plantage","addr:housenumber":"2","addr:postcode":"4725PZ","addr:street":"Ottermeerweg","name":"Natuurkampeerterrein De Ottermeerhoeve","website":"https://www.natuurkampeerterreinen.nl/terreinen/noord-brabant/ottermeerhoeve/"}},"32399921":{"location":[51.4223044,4.3665453],"ct":"NL","tp":"CS","ts":"2023-05-30T12:21:40Z","tX":524,"tY":340,"tags":{"addr:city":"Huijbergen","addr:country":"NL","addr:housenumber":"30","addr:postcode":"4635RT","addr:street":"Putsebaan","name":"Staartse duinen","phone":"+31 164 643 232","website":"https://www.staartseduinen.nl"}},"39325995":{"location":[51.4874143,4.3693741],"ct":"NL","tp":"CS","ts":"2009-08-19T20:49:29Z","tX":524,"tY":340,"tags":{"name":"Camping Zoomland"}},"41484561":{"location":[51.4543665,4.4632814],"ct":"BE","tp":"CS","ts":"2020-10-21T15:04:19Z","tX":524,"tY":340,"tags":{"name":"De Berk"}},"69368728":{"location":[51.5093935,4.3351023],"ct":"NL","tp":"CR","ts":"2022-01-30T20:34:59Z","tX":524,"tY":340,"tags":{"name":"De Bergse Hoeve","website":"http://www.bergsehoeve.nl/"}},"69412731":{"location":[51.4606541,4.3363618],"ct":"NL","tp":"CR","ts":"2010-07-24T18:52:11Z","tX":524,"tY":340,"tags":{"name":"De Nieuwe Drenck","website":"http://www.denieuwedrenck.nl"}},"69687898":{"location":[51.4664454,4.3245441],"ct":"NL","tp":"CS","ts":"2023-05-30T12:21:41Z","tX":524,"tY":340,"tags":{"addr:city":"Bergen op Zoom","addr:housenumber":"56","addr:postcode":"4625DD","addr:street":"Heimolen","caravans":"yes","email":"info@campinguitenthuis.nl","name":"Camping Uit en Thuis","phone":"+31 164 233 391","tents":"yes","website":"https://www.campinguitenthuis.nl"}},"72118373":{"location":[51.4189109,4.2522186],"ct":"NL","tp":"CS","ts":"2023-08-26T22:08:18Z","tX":524,"tY":340,"tags":{"caravans":"yes","email":"info@deboerezwaluw.nl","landcover":"grass","mobile":"+31 6 51001799","name":"De Boere Zwaluw","opening_hours":"Apr 1 - Oct 15","phone":"+31 164 615 745","shower":"yes","tents":"yes","toilets":"yes","website":"https://www.deboerezwaluw.nl"}},"75185184":{"location":[51.4152706,4.3488806],"ct":"NL","tp":"CS","ts":"2023-05-30T12:21:41Z","tX":524,"tY":340,"tags":{"cabins":"yes","caravans":"yes","email":"recreatie@familyland.nl","landcover":"grass","name":"Familyland","phone":"+31 164 613 155","shower":"yes","tents":"yes","toilets":"yes","website":"https://familyland.nl/wp/accommodaties/kampeerplaatsen/"}},"75621541":{"location":[51.4378198,4.3743697],"ct":"NL","tp":"CS","ts":"2023-05-30T12:21:41Z","tX":524,"tY":340,"tags":{"cabins":"yes","caravans":"yes","email":"info@costakabrita.nl","landcover":"grass","name":"Costa Kabrita","phone":"+31 164 642 395","shower":"yes","tents":"yes","toilets":"yes","website":"https://www.costakabrita.nl/"}},"75736096":{"location":[51.4267703,4.3042809],"ct":"NL","tp":"CS","ts":"2021-08-18T09:04:16Z","tX":524,"tY":340,"tags":{"name":"boerderijcamping Beijaartshoeve","source":"3dShapes","wheelchair":"yes"}},"76515272":{"location":[51.4463211,4.5599922],"ct":"NL","tp":"CS","ts":"2023-06-13T05:55:56Z","tX":524,"tY":340,"tags":{"cabins":"yes","caravans":"yes","landcover":"grass","mobile":"+31 6 51498666","name":"Camping De Ossewei","phone":"+31 76 532 3781","shower":"yes","tents":"yes","toilets":"yes","website":"https://www.campingdeossewei.nl/"}},"76517634":{"location":[51.4524033,4.5301039],"ct":"BE","tp":"CS","ts":"2023-04-22T15:14:52Z","tX":524,"tY":340,"tags":{"cabins":"yes","capacity:pitches":"14","caravans":"yes","email":"info@camping-grensland.be","fee":"yes","landcover":"grass","name":"Naturistencamping Grensland","nudism":"yes","opening_hours":"Apr 1 - Sep 30","phone":"+32 474 54 15 07","shower":"yes","tents":"yes","toilets":"yes","website":"https://camping-grensland.be/"}},"94023726":{"location":[51.5463919,4.3154627],"ct":"NL","tp":"CR","ts":"2020-03-11T15:45:47Z","tX":524,"tY":340,"tags":{"fee":"yes","name":"De Dassenplas","power_supply":"yes","sanitary_dump_station":"yes","smoking":"outside","source":"3dShapes","tents":"yes","tourism_1":"camp_site","website":"https://dassenplas.nl/"}},"152603296":{"location":[51.5086465,4.3303797],"ct":"NL","tp":"CS","ts":"2019-12-29T19:54:52Z","tX":524,"tY":340,"tags":{"camp_site":"basic","name":"DÃ¤neborg"}},"284320715":{"location":[51.5079955,4.3166386],"ct":"NL","tp":"CS","ts":"2016-12-30T09:38:19Z","tX":524,"tY":340,"tags":{"name":"Camping \"Ons Buiten\""}},"284320717":{"location":[51.507441,4.3170317],"ct":"NL","tp":"CS","ts":"2016-12-30T09:38:19Z","tX":524,"tY":340,"tags":{"name":"Camping \"Op de Tuin\""}},"325028907":{"location":[51.4826548,4.3957647],"ct":"NL","tp":"CR","ts":"2024-03-31T23:59:33Z","tX":524,"tY":340,"tags":{"email":"info@campingwouwseplantage.nl","name":"Wouwse Plantage","phone":"+31 6 57731054","static_caravans":"only","website":"https://campingwouwseplantage.nl/"}},"412477050":{"location":[51.5715987,4.501826],"ct":"NL","tp":"CS","ts":"2023-05-31T16:08:12Z","tX":524,"tY":340,"tags":{"addr:city":"Oud Gastel","addr:housenumber":"3","addr:postcode":"4751TM","addr:street":"Noordhoeksestraat","capacity":"50","description":"Kleinschalige camping voor kampeerders en eco bungalows","fee":"yes","name":"40+ Camping De Nieuwe Riet","source":"3dShapes","website":"http://www.denieuweriet.nl"}},"520582626":{"location":[51.4456522,4.3809417],"ct":"NL","tp":"CS","ts":"2023-05-30T20:11:02Z","tX":524,"tY":340,"tags":{"name":"Boerderijcamping De Meet","website":"https://www.boerderijcampingdemeet.nl"}},"572664937":{"location":[51.5714641,4.5666691],"ct":"NL","tp":"CS","ts":"2023-07-21T16:43:27Z","tX":524,"tY":340,"tags":{"access":"customers","addr:city":"Hoeven","addr:housenumber":"81B","addr:postcode":"4741SG","addr:street":"Oude Antwerpsepostbaan","contact:email":"bosbadhoeven@molecaten.nl","contact:phone":"+31 165 502 570","contact:website":"https://www.molecaten.nl/","fee":"yes","name":"Molecaten Park Bosbad Hoeven"}},"810715216":{"location":[51.5754172,4.2390743],"ct":"NL","tp":"CS","ts":"2023-11-22T14:17:13Z","tX":524,"tY":340,"tags":{"addr:city":"Nieuw-Vossemeer","addr:housenumber":"1b","addr:postcode":"4681SM","addr:street":"Moorseweg","email":"bijdekreek@gmail.com","name":"Natuurkampeerterrein De Kreek","phone":"+31 167 503 480","website":"http://bijdekreek.nl"}},"833000740":{"location":[51.4845875,4.3993819],"ct":"NL","tp":"CS","ts":"2023-07-09T14:28:38Z","tX":524,"tY":340,"tags":{"alt_name":"In de Wei","capacity:motorhome":"10","capacity:pitches":"47","caravans":"yes","contact:email":"info@t-schouwke.nl","contact:facebook":"https://www.facebook.com/Camping-t-Schouwke-664908826975273/","contact:phone":"+31 6 24326238","contact:website":"https://t-schouwke.nl/","contact:whatsapp":"+31 6 24326238","motorhome":"yes","name":"'t Schouwke","shower":"yes","tents":"yes","toilets":"yes"}},"1085487934":{"location":[51.5764312,4.5683209],"ct":"NL","tp":"CR","ts":"2023-08-29T21:05:23Z","tX":524,"tY":340,"tags":{"access":"customers","addr:city":"Hoeven","addr:housenumber":"19-24","addr:postcode":"4741SH","addr:street":"Haspelstraat","contact:email":"info@dehaspel.com","contact:phone":"+31 165 502 114","contact:website":"https://dehaspel.com/","fee":"yes","name":"Caravan-chaletpark De Haspel","static_caravans":"only"}},"1152961094":{"location":[51.5926865,4.3741312],"ct":"NL","tp":"CS","ts":"2023-11-20T14:27:44Z","tX":524,"tY":340,"tags":{"caravans":"no","landuse":"grass","name":"Buiten aan de Baak","old_name":"De Baakermat","tents":"no","website":"https://buitenaandebaak.nl/"}},"1152977120":{"location":[51.5254238,4.3432892],"ct":"NL","tp":"CS","ts":"2023-05-30T12:22:04Z","tX":524,"tY":340,"tags":{"caravans":"yes","contact:facebook":"https://www.facebook.com/people/Minicamping-de-Heemshoeve/100063717093418/","email":"heemshoeve.ellie@live.nl","landuse":"grass","mobile":"+31 6 49939845","name":"de Heemshoeve","phone":"+31 165 302 072","shower":"yes","tents":"yes","toilets":"yes"}},"1162785251":{"location":[51.5006588,4.5686613],"ct":"NL","tp":"CS","ts":"2023-05-30T12:22:04Z","tX":524,"tY":340,"tags":{"capacity:pitches":"24","caravans":"yes","drinking_water":"yes","email":"carlaveeke@gmail.com","name":"De Schijvenaer","phone":"+31 6 15951581","power_supply":"no","shower":"yes","start_date":"2005","tents":"yes","toilets":"yes","website":"https://www.deschijvenaer.nl"}},"1176518757":{"location":[51.525729,4.5443641],"ct":"NL","tp":"CS","ts":"2023-05-30T12:22:05Z","tX":524,"tY":340,"tags":{"cabins":"yes","caravans":"yes","email":"info@campingdeposthoorn.nl","internet_access":"wlan","internet_access:fee":"no","name":"Camping de Posthoorn","opening_hours":"Apr 1 - Sep 30","phone":"+31 165 341 688","shower":"yes","static_caravans":"yes","tents":"yes","toilets":"yes","website":"https://www.campingdeposthoorn.nl/"}},"1189833345":{"location":[51.5174638,4.3768196],"ct":"NL","tp":"CR","ts":"2023-07-17T18:01:42Z","tX":524,"tY":340,"tags":{"capacity:motorhome":"15","caravans":"no","contact:whatsapp":"+31 6 11271582","motorhome":"designated","name":"Het Beekdal","opening_hours":"week 01-53","phone":"+31 6 11271582","reservation":"recommended","sanitary_dump_station":"customers","shower":"no","start_date":"Apr 2021","toilets":"no","website":"https://www.camperplaatswouwhetbeekdal.nl/"}},"1236408983":{"location":[51.5317059,4.2238499],"ct":"NL","tp":"CR","ts":"2024-03-21T13:13:57Z","tX":524,"tY":340,"tags":{"capacity":"5","caravans":"no","direction":"east","laundry":"yes","lit":"yes","name":"WSV De Kogge","power_supply":"yes","sanitary_dump_station":"yes","sanitary_dump_station:chemical_toilet":"yes","sanitary_dump_station:grey_water":"no","shower":"yes","surface":"asphalt","tents":"no","toilets":"yes","water_point":"yes","website":"http://www.wsvdekogge.nl/campers/"}},"1268410262":{"location":[51.4839966,4.2795094],"ct":"NL","tp":"CR","ts":"2024-04-02T15:53:49Z","tX":524,"tY":340,"tags":{"capacity":"6","caravan_site":"motorhome_stopover","caravan_site:type":"harbour","caravans":"no","fee":"no","internet_access":"no","name":"Bergen op Zoom De Boulevard","power_supply":"no","sanitary_dump_station":"no","tents":"no"}},"1268410263":{"location":[51.4871883,4.2770592],"ct":"NL","tp":"CR","ts":"2024-04-02T15:53:49Z","tX":524,"tY":340,"tags":{"capacity":"5","caravan_site":"motorhome_stopover","caravan_site:type":"harbour","caravans":"no","description:nl":"24-uur Camperparkeerplaats","fee":"yes","internet_access":"no","name":"Bergen op Zoom De Boulevard Noord","opening_hours":"24/7","power_supply":"no","sanitary_dump_station":"yes","surface":"asphalt","tents":"no"}},"1303847077":{"location":[51.5644638,4.5524609],"ct":"NL","tp":"CS","ts":"2024-07-26T08:31:42Z","tX":524,"tY":340,"tags":{"contact:email":"info@landgoeddewildert.nl","name":"Landgoed de Wildert","phone":"+31 6 53298082","website":"https://www.landgoeddewildert.nl/"}},"1306169089":{"location":[51.5251454,4.5562185],"ct":"NL","tp":"CS","ts":"2024-08-07T13:28:57Z","tX":524,"tY":340,"tags":{"addr:city":"Rucphen","addr:housenumber":"19","addr:street":"Kerkstraat","caravans":"no","email":"info@vorenseinde.nl","mobile":"+31 (0)6-51479219","name":"De Heerlijkheid Vorenseinde","reservation":"required","tents":"no","website":"https://www.vorenseinde.nl/"}},"1306169117":{"location":[51.5258455,4.5567945],"ct":"NL","tp":"CR","ts":"2024-08-07T13:28:57Z","tX":524,"tY":340,"tags":{"email":"info@vorenseinde.nl","mobile":"+31 (0)6-51479219","name":"Camperplaats 't Zonnetje","operator":"De Heerlijkheid Vorenseinde","surface":"gravel","website":"https://www.vorenseinde.nl/Camperplaatsen/"}},"1316894817":{"location":[51.5742954,4.5501418],"ct":"NL","tp":"CR","ts":"2024-11-12T16:05:59Z","tX":524,"tY":340,"tags":{"capacity":"30","caravan_site":"motorhome_stopover","contact:email":"info@miekeshof.nl","fee":"yes","name":"Mieke's hof","phone":"+31 6 5192 6888","sanitary_dump_station:chemical_toilet":"yes","sanitary_dump_station:grey_water":"yes","shower":"yes","toilets":"yes","water_point":"no","website":"https://miekeshof.nl/"}},"2789501729":{"location":[51.5246826,4.5287156],"ct":"NL","tp":"CS","ts":"2023-01-31T12:41:55Z","tX":524,"tY":340,"tags":{"access":"private","addr:city":"Rucphen","addr:housenumber":"7A","addr:postcode":"4715PJ","addr:street":"Posthoorn","capacity":"25","capacity:caravans":"25","capacity:persons":"50","email":"zwp.kampeerz@zonenleven.nl","fee":"yes","name":"De Posthoek","nudism":"yes","operator":"Zon En Leven","phone":"+31 6 25457925","sanitary_dump_station":"yes","shower":"yes","source":"BAG","source:date":"2014-03-24","website":"https://www.zonenleven.nl/de-posthoek"}},"7914199485":{"location":[51.4709355,4.4639703],"ct":"BE","tp":"CR","ts":"2025-01-12T13:47:55Z","tX":524,"tY":340,"tags":{"capacity":"1","caravan_site":"motorhome_stopover","caravan_site:type":"town","fee":"no","maxstay":"24 hours","name":"Parking Grensstraat","water_point":"yes","website":"https://www.kempen.be/camperplaatsen"}},"4960264145":{"location":[51.4248551,4.3641043],"ct":"NL","tp":"CS","ts":"2022-11-04T12:11:20Z","tX":524,"tY":340,"tags":{"addr:city":"Huijbergen","addr:country":"NL","addr:housenumber":"16","addr:postcode":"4635RT","addr:street":"Abdijlaan","name":"'t Akkerenven","phone":"+31 164 642 483","website":"http://www.akkerenven.nl/"}},"5369019890":{"location":[51.6162236,4.5281038],"ct":"NL","tp":"CS","ts":"2023-05-31T16:08:08Z","tX":524,"tY":340,"tags":{"addr:city":"Standdaarbuiten","addr:housenumber":"2","addr:postcode":"4758SB","addr:street":"Molendijk","contact:mobile":"+31 6 38030287","name":"Camping Markdal","phone":"+31 165 312 169","website":"https://www.campingmarkdal.nl"}},"6188019987":{"location":[51.494466,4.4850922],"ct":"NL","tp":"CS","ts":"2019-01-06T16:19:54Z","tX":524,"tY":340,"tags":{"name":"Camping Zonneland"}},"6188040286":{"location":[51.5701573,4.5600431],"ct":"NL","tp":"CS","ts":"2019-01-06T16:19:55Z","tX":524,"tY":340,"tags":{"name":"Molecaten Park Bosbad Hoeven"}},"6557015319":{"location":[51.5636942,4.3204286],"ct":"NL","tp":"CS","ts":"2023-05-28T06:38:58Z","tX":524,"tY":340,"tags":{"name":"Oudlandse Hoeve","website":"https://www.oudlandsehoeve.nl"}},"7810807129":{"location":[51.5126459,4.3061189],"ct":"NL","tp":"CS","ts":"2020-08-13T19:15:49Z","tX":524,"tY":340,"tags":{"addr:city":"Halsteren","addr:housenumber":"11","addr:postcode":"4661AL","addr:street":"Buitenlust","name":"Scoutingkampeerterrein Buitenlust","scout":"yes"}},"6188040285":{"location":[51.6100201,4.2727743],"ct":"NL","tp":"CR","ts":"2021-11-02T11:31:16Z","tX":524,"tY":340,"tags":{"cabins":"yes","caravans":"yes","name":"Camping De Uitwijk","tents":"yes","website":"https://campingdeuitwijk.nl"}}}