{"32907782":{"location":[51.2339406,4.3935342],"ct":"BE","tp":"CS","ts":"2024-11-17T19:14:13Z","tX":524,"tY":341,"tags":{"access":"permit","addr:city":"Antwerpen","addr:housenumber":"6","addr:postcode":"2050","addr:street":"Jachthavenweg","area":"yes","camp_site":"standard","camper":"yes","camping":"yes","capacity":"100","caravans":"yes","description":"Camping for campers, caravans and tents. Near the historic city of Antwerp","email":"welcome@citycampingantwerp.be","facebook":"https://www.facebook.com/CitycampingAntwerp","fee":"yes","name":"City Camping Antwerp","operator":"werkmmaat vzw","payment:credit_cards":"yes","payment:debit_cards":"yes","payment:maestro":"yes","phone":"+32 3 219 81 79","stars":"3","tents":"yes","website":"https://www.citycampingantwerp.be/"}},"50088904":{"location":[51.2859173,4.5029721],"ct":"BE","tp":"CR","ts":"2025-01-26T11:43:42Z","tX":524,"tY":341,"tags":{"addr:housenumber":"17","addr:street":"Elshoutbaan","capacity":"15","caravan_site":"motorhome_stopover","caravan_site:type":"forest","maxstay":"72 hours","name":"Sporthal centrum Brasschaat","power_supply":"yes","sanitary_dump_station":"yes"}},"50842819":{"location":[51.1902288,4.4012138],"ct":"BE","tp":"CR","ts":"2025-01-26T12:44:27Z","tX":524,"tY":341,"tags":{"addr:city":"Antwerpen","addr:postcode":"2020","addr:street":"Vogelzanglaan","capacity":"115","caravan_site":"motorhome_stopover","caravan_site:type":"sports_centre;city","caravans":"no","charge":"20 EUR","check_in":"09:00-20:00; Jun-Sep 09:00-21:00","check_out":"17:00","dog":"leashed","email":"david@nocterra.com","fee":"yes","name":"Camperpark Vogelzang Antwerpen","note":"\"Groene parking\" voor motorhomes, op gras en op asfalt.","phone":"+32 471308530","power_supply":"yes","power_supply:charge":"1 EUR/kWh","power_supply:fee":"yes","power_supply:maxcurrent":"16","reservation":"no","sanitary_dump_station":"yes","sanitary_dump_station:chemical_toilet":"yes","sanitary_dump_station:fee":"no","sanitary_dump_station:grey_water":"yes","tents":"no","water_point":"yes","water_point:fee":"yes","website":"https://camperparkvogelzang.be"}},"71359016":{"location":[51.3763044,4.3394634],"ct":"NL","tp":"CS","ts":"2023-05-30T12:21:41Z","tX":524,"tY":341,"tags":{"access":"private","addr:city":"Ossendrecht","addr:housenumber":"15","addr:postcode":"4641SR","addr:street":"Zandvlietseweg","caravans":"yes","contact:email":"ossendrecht@naturisme-athena.org","contact:phone":"+31 164 672 489","fee":"yes","name":"Athena Ossendrecht","nudism":"designated","tents":"yes","website":"https://www.naturisme-athena.org/ossendrecht/"}},"71386211":{"location":[51.373755,4.4008734],"ct":"NL","tp":"CS","ts":"2024-09-19T20:41:25Z","tX":524,"tY":341,"tags":{"addr:housenumber":"6","addr:postcode":"4645RT","addr:street":"1e Verdelingsweg","alt_name":"Recreatiecentrum Hazeduinen; Hazenduinen","name":"Hazeduinen","phone":"+31 164 60 25 35","website":"https://www.hazeduinen.nl/"}},"393284170":{"location":[51.3607291,4.3388462],"ct":"BE","tp":"CS","ts":"2020-10-20T08:48:05Z","tX":524,"tY":341,"tags":{"addr:housenumber":"251","addr:postcode":"2040","addr:street":"Putsebaan","alt_name":"Jeugdverblijfscentrum Ruige Heide; JVC Ruige Heide/Grote Heide","name":"Ruige Heide","operator":"CJT Centrum voor Jeugdtoerisme","url":"http://www.cjt.be/boekingscentrale/fiche.aspx?nr=2071"}},"407664247":{"location":[51.3457986,4.5477611],"ct":"BE","tp":"CS","ts":"2019-03-25T15:44:34Z","tX":524,"tY":341,"tags":{"name":"Camping Keienven","tents":"yes","website":"https://www.keienven.be/"}},"2600547952":{"location":[51.3769661,4.4494328],"ct":"BE","tp":"CR","ts":"2025-01-26T00:58:22Z","tX":524,"tY":341,"tags":{"bbq":"no","capacity":"4","caravan_site":"motorhome_stopover","caravan_site:type":"parking_lot","ele":"2.2","maxstay":"48 hours","motorhome":"designated","name":"Kampeerautoplaatsen Parking Kalmthoutse Heide Nord","name:de":"Wohnmobil-parkplätze Kalmthoutse heide Nord","name:en":"Camper Van Spaces in the Kalmthoutse Heide Parking Area Nord","name:nl":"Kampeerautoplaatsen Parking Kalmthoutse Heide Nord","picnic_area":"yes","power_supply":"yes","power_supply:fee":"yes","sanitary_dump_station":"no","services:charge":"1 EUR: water,power_supply","toilets":"yes","water_point":"yes","water_point:fee":"yes","website":"https://visitkalmthout.be/en/places-to-stay/camper-spots-kalmthoutse-heide"}},"2829622144":{"location":[51.3831683,4.3367921],"ct":"NL","tp":"CS","ts":"2023-05-31T16:08:06Z","tX":524,"tY":341,"tags":{"addr:city":"Ossendrecht","addr:housenumber":"4","addr:postcode":"4641SP","addr:street":"Laagstraat","alt_name":"Camping De Boskeelen","email":"info@deboskeelen.nl","name":"Kampeerboerderij De Boskeelen","operator":"Fam Veraart","phone":"+31 164 674 401","source":"BAG","source:date":"2014-03-24","website":"https://www.deboskeelen.nl"}},"8513237952":{"location":[51.2336313,4.3926502],"ct":"BE","tp":"CS","ts":"2021-08-15T14:45:28Z","tX":524,"tY":341,"tags":{"access":"permit","addr:city":"Antwerpen","addr:housenumber":"6","addr:postcode":"2050","addr:street":"Jachthavenweg","capacity":"100","facebook":"https://www.facebook.com/CitycampingAntwerp","fee":"yes","name":"City Camping Antwerp","note":"Camping for campers, caravans and tents.","operator":"werkmmaat vzw","payment:credit_cards":"yes","payment:debit_cards":"yes","payment:maestro":"yes","stars":"3","website":"https://www.citycampingantwerp.be/"}},"8828053821":{"location":[51.3506985,4.3135507],"ct":"BE","tp":"CS","ts":"2021-06-12T18:18:58Z","tX":524,"tY":341,"tags":{"bench":"yes","camp_site":"basic","capacity:persons":"8","caravans":"no","drinking_water":"yes","fee":"yes","motor_vehicle":"no","name":"Kamp Molenzicht","power_supply":"yes","toilets":"yes","url":"https://campspace.com/nl/s/kamp-molenzicht_4613","website":"https://www.buitenmolen.be/kamp-molenzicht/"}},"9809582857":{"location":[51.3760513,4.4502358],"ct":"BE","tp":"CR","ts":"2025-01-25T23:46:57Z","tX":524,"tY":341,"tags":{"bbq":"no","capacity:motorhome":"2","caravan_site":"motorhome_stopover","caravan_site:type":"town","maxstay":"48 hours","motorhome":"designated","name":"Kampeerautoplaatsen Parking Kalmthoutse Heide","name:de":"Wohnmobil-parkplätze Kalmthoutse heide","name:en":"Camper Van Spaces in the Kalmthoutse Heide Parking Area","name:nl":"Kampeerautoplaatsen Parking Kalmthoutse Heide","picnic_table":"yes","power_supply":"yes","sanitary_dump_station":"no","toilets":"yes","water_point":"yes","water_point:seasonal":"yes","website":"https://visitkalmthout.be/en/places-to-stay/camper-spots-kalmthoutse-heide"}},"8513164313":{"location":[51.2341498,4.3937566],"ct":"BE","tp":"SD","ts":"2021-03-13T12:35:16Z","tX":524,"tY":341,"tags":{}}}