{"73483562":{"location":[50.8565267,4.4825048],"ct":"BE","tp":"CR","ts":"2023-07-26T12:03:06Z","tX":524,"tY":343,"tags":{"access":"private","addr:city":"Wezembeek-Oppem","addr:country":"BE","addr:housenumber":"52","addr:postcode":"1970","addr:street":"Warandeberg","name":"Royal Camping Caravaning Club","note":"Activiteit stopgezet vanaf 01/01/2023","office":"camping","phone":"+32 2 782 10 09","power_supply":"no","sanitary_dump_station":"no"}},"342549770":{"location":[50.9343243,4.3824806],"ct":"BE","tp":"CS","ts":"2024-05-02T16:41:35Z","tX":524,"tY":343,"tags":{"caravans":"yes","internet_access":"wlan","internet_access:fee":"no","name":"Camping Grimbergen","phone":"+32 479 76 03 78","tents":"yes","website":"http://www.camping-grimbergen.webs.com/"}},"608863621":{"location":[50.7400995,4.2713744],"ct":"BE","tp":"CS","ts":"2022-12-17T14:31:45Z","tX":524,"tY":343,"tags":{"addr:housenumber":"27","addr:street":"Reiberg","caravans":"yes","contact:email":"camping.oasis@skynet.be","description":"Camping met voornamelijk vaste staanplaatsen. Dicht bij de autoweg.","email":"camping.oasis@skynet.be","name":"Camping Oasis","opening_hours":"Apr-Sep","permanent_camping":"yes","phone":"+32 475 44 28 11","power_supply":"yes","sanitary_dump_station":"no","shower":"yes","static_caravans":"yes","tents":"yes","toilets":"yes"}},"1022619242":{"location":[50.8261897,4.2979505],"ct":"BE","tp":"CR","ts":"2024-05-14T18:41:01Z","tX":524,"tY":343,"tags":{"capacity":"24","contact:email":"campinbrussels@gmail.com","contact:mobile":"+32 486 83 26 10","contact:website":"https://www.campinbrussels.com;https://www.campinbrussels.com/","name":"Camp in Brussels","opening_hours":"24/7"}},"1138952110":{"location":[50.8189344,4.5348853],"ct":"BE","tp":"CR","ts":"2023-02-07T17:46:40Z","tX":524,"tY":343,"tags":{"capacity:caravans":"3"}},"1317128109":{"location":[50.7606016,4.5486104],"ct":"BE","tp":"CS","ts":"2024-09-21T14:13:31Z","tX":524,"tY":343,"tags":{"addr:city":"Overijse","addr:housenumber":"80","addr:postcode":"3090","addr:street":"Nijvelsebaan","caravans":"yes","email":"info@campingdruivenland.be","internet_access":"wlan","internet_access:fee":"yes","name":"Camping Druivenland","phone":"+32 2 687 93 68","sanitary_dump_station":"yes","tents":"yes","website":"https://www.campingdruivenland.be/nl"}},"4417578749":{"location":[50.777391,4.5491566],"ct":"BE","tp":"CS","ts":"2022-12-17T15:08:45Z","tX":524,"tY":343,"tags":{"addr:city":"Overijse","addr:housenumber":"104","addr:postcode":"3090","addr:street":"Kouterstraat","caravans":"yes","contact:mobile":"+32 477 53 09 01","description":"Verblijfcamping met voornamelijke vaste staanplaatsen. 8 plaatsen voor tenten, 4 voor trekkers.","email":"campingwelcomeoverijse@gmail.com","name":"Welcome","permanent_camping":"yes","phone":"+32 2 687 75 77","source":"https://www.overijse.be/campings","stars":"2","static_caravans":"yes","tents":"yes"}},"8289052672":{"location":[50.955774,4.2401982],"ct":"BE","tp":"CR","ts":"2021-01-04T09:43:44Z","tX":524,"tY":343,"tags":{"capacity":"3","power_supply":"yes"}},"8743425217":{"location":[50.8531142,4.3348097],"ct":"BE","tp":"CR","ts":"2024-12-31T03:00:57Z","tX":524,"tY":343,"tags":{"addr:housenumber":"4","addr:street":"Rue de l'Éléphant - Olifantstraat","capacity":"5","charge":"30 EUR / vehicle / night","fee":"yes","internet_access":"yes","internet_access:fee":"no","operator":"Auberge de Jeunesse Bruxelles Generation Europe","permanent_camping":"no","power_supply":"yes","sanitary_dump_station":"yes","shower":"yes","toilets":"yes","website":"https://www.lesaubergesdejeunesse.be/en/contact/motorhome-camper-van-site-center-brussels"}},"9880660826":{"location":[50.853273,4.3348816],"ct":"BE","tp":"SD","ts":"2024-10-28T20:58:43Z","tX":524,"tY":343,"tags":{"access":"customers","panoramax":"18fad215-c429-424a-b0c5-13a9b253c9b3","panoramax:0":"4e7d6acc-f118-4229-98c3-f6f2c0c67f10"}}}