{"39093900":{"location":[50.0451491,4.3078286],"ct":"BE","tp":"CS","ts":"2024-03-26T21:43:24Z","tX":524,"tY":347,"tags":{"addr:city":"Chimay","addr:housenumber":"1","addr:postcode":"6460","addr:street":"Allée des Princes","capacity:pitches":"38","caravans":"yes","email":"camping@ville-de-chimay.be","name":"Camping communal de chimay","note":"extra 100 pitches for permanent residents","operator":"Ville de Chimay","permanent_camping":"yes","phone":"+32 476 99 85 80","tents":"yes","toilets":"yes","website":"https://www.ville-de-chimay.be/loisirs/tourisme/le-site-du-camping-communal"}},"626877144":{"location":[50.0325118,4.318089],"ct":"BE","tp":"CS","ts":"2022-11-25T22:47:14Z","tX":524,"tY":347,"tags":{"access":"yes","backcountry":"yes","caravans":"no","description":"Nice basic campsite in the woods","drinking_water":"no","fee":"no","motor_vehicle":"no","name":"Bivouac des Crayats","openfire":"yes","operator":"Foret du Pays de Chimay","reservation":"required","tents":"yes","toilets":"no","website":"https://www.cm-tourisme.be/fr/a/aire-de-bivouac-des-crayats-anciennement-taille-des-sarts"}},"627986451":{"location":[49.9192565,4.2510378],"ct":"FR","tp":"CS","ts":"2023-11-19T14:41:18Z","tX":524,"tY":347,"tags":{"addr:city":"La Neuville-aux-Joûtes","addr:postcode":"08380","addr:street":"Le Pavillon","capacity":"25","caravans":"yes","description":"Camping à la ferme","drinking_water":"yes","name":"Camping Du Pavillon","phone":"+33 7 83 48 72 42; +33 7 86 18 07 49","shower":"yes","tents":"yes","toilets":"yes","website":"https://campingdupavillon.weebly.com"}},"703829388":{"location":[49.9752789,4.3080929],"ct":"BE","tp":"CS","ts":"2022-11-23T16:48:55Z","tX":524,"tY":347,"tags":{"access":"customers","addr:city":"Rièzes","addr:housenumber":"102","addr:postcode":"6464","addr:street":"Ferme du Poteau","contact:email":"paulmennen@taalfabet.be","name":"Ferme du Poteau - prairie","scout":"yes","website":"https://votrecamp.be/endroit_de_camp/ferme-du-poteau-prairie"}},"825939877":{"location":[49.9240871,4.5167091],"ct":"FR","tp":"CR","ts":"2024-07-01T20:49:14Z","tX":524,"tY":347,"tags":{"caravan_site":"motorhome_stopover","caravan_site:type":"village","fee":"no","internet_access":"no","name":"Aire de camping-cars Rocroi","opening_hours":"24/7","power_supply":"no","sanitary_dump_station":"no","water_point":"yes","water_point:connector":"female","water_point:fee":"yes","website":"https://rocroi.fr/aire-de-camping-cars/"}},"916667377":{"location":[49.9892818,4.2689511],"ct":"BE","tp":"CS","ts":"2023-08-25T09:48:13Z","tX":524,"tY":347,"tags":{"addr:city":"Forge-Philippe","addr:housenumber":"8","addr:postcode":"6596","addr:street":"Rue des Combles","contact:email":"jeanfrancoisbrayeur@skynet.be","contact:phone":"+32 60 51 35 53","name":"Camping Brayeur-Gérain","operator":"Jean-François Brayeur"}},"920224614":{"location":[49.8995366,4.5345982],"ct":"FR","tp":"CS","ts":"2024-10-20T17:27:21Z","tX":524,"tY":347,"tags":{"name":"La Murée","phone":"+33 3 24 54 24 45","stars":"4"}},"1160454659":{"location":[49.9127737,4.2863868],"ct":"FR","tp":"CS","ts":"2023-04-07T14:05:41Z","tX":524,"tY":347,"tags":{"addr:city":"Signy-le-Petit","addr:postcode":"08380","alt_name":"Domaine de la Motte - Base de loisirs Le Pré Hugon","cabins":"yes","caravans":"yes","email":"contact@domainedelamotte.eu","name":"Domaine de la Motte","phone":"+33 3 24 53 54 73","shower":"yes","stars":"3","tents":"yes","toilets":"yes","website":"https://www.domainedelamotte.eu/"}},"1238371037":{"location":[50.0455841,4.3101335],"ct":"BE","tp":"CR","ts":"2024-01-09T17:07:23Z","tX":524,"tY":347,"tags":{"caravan_site":"motorhome_stopover","charge":"10 EUR","fee":"yes","name":"Camping communal de Chimay Aire de Mobilhome","power_supply":"yes","services:charge":"5 EUR","website":"https://www.chimayville.be/loisirs/tourisme/le-site-du-camping-communal"}},"1265620586":{"location":[49.9611537,4.4568926],"ct":"BE","tp":"CR","ts":"2024-05-09T18:35:51Z","tX":524,"tY":347,"tags":{"bbq":"no","capacity":"20","caravan_site":"motorhome_stopover","caravan_site:type":"village","caravans":"no","charge":"12 EUR","dog":"leashed","fee":"yes","internet_access":"wlan","internet_access:fee":"no","maxlength":"9","name":"CAMPING-CAR PARK Couvin","network":"CAMPING-CAR PARK","opening_hours":"24/7","power_supply":"yes","power_supply:maxcurrent":"6","sanitary_dump_station":"yes","tents":"no","trailer":"no"}},"1314653074":{"location":[49.8444933,4.3912696],"ct":"FR","tp":"CR","ts":"2024-09-10T14:08:10Z","tX":524,"tY":347,"tags":{"caravan_site":"motorhome_stopover","caravan_site:type":"village","fee":"no","name":"Aire camping-car Girondelle","power_supply":"no","sanitary_dump_station":"no","surface":"gravel","tents":"no","water_point":"no"}},"3660711596":{"location":[50.0566712,4.5700286],"ct":"BE","tp":"CS","ts":"2024-09-12T19:32:26Z","tX":524,"tY":347,"tags":{"backcountry":"yes","camp_site":"basic","fee":"no","name":"Bivouac des Trois Fontanes","name:nl":"Bivakzone Trois Fontaines","reservation":"required","website":"https://www.cm-tourisme.be/fr/a/aire-de-bivouac-de-la-roche-trouee"}},"7711506483":{"location":[49.9236683,4.5172594],"ct":"FR","tp":"SD","ts":"2024-07-01T20:35:38Z","tX":524,"tY":347,"tags":{"access":"yes","fee":"no","sanitary_dump_station:chemical_toilet":"yes","sanitary_dump_station:grey_water":"yes","water_point":"yes","water_point:fee":"yes"}},"11988900070":{"location":[50.0604367,4.3671446],"ct":"BE","tp":"CS","ts":"2024-07-10T06:47:22Z","tX":524,"tY":347,"tags":{"name":"bivouac de la vallee des oiseaux"}},"12144117960":{"location":[50.0356808,4.5302081],"ct":"BE","tp":"CS","ts":"2024-08-29T12:44:30Z","tX":524,"tY":347,"tags":{"capacity":"2","caravans":"no","drinking_water":"no","fee":"no","motor_vehicle":"no","name":"Bivakzone Ry de Rome","note":"see condition to stay use","operator":"CM","power_supply":"no","reservation":"required","surface":"grass","tents":"yes","website":"https://www.cm-tourisme.be/fr/c/se-loger?subcategory=aires-de-bivouac"}},"12312177491":{"location":[50.0094412,4.4333296],"ct":"BE","tp":"CS","ts":"2024-11-04T14:44:53Z","tX":524,"tY":347,"tags":{"backcountry":"yes","camp_site":"basic","motor_vehicle":"no","name":"Martin Pêcheur"}}}