{"161683775":{"location":[48.3032401,4.3374113],"ct":"FR","tp":"CS","ts":"2023-08-25T14:44:11Z","tX":524,"tY":354,"tags":{"alt_name":"Les Rives du Lac","cabins":"yes","capacity":"190","caravans":"yes","drinking_water":"yes","email":"contact@campingauxrivesdulac.com","fee":"yes","motorhome":"yes","name":"Aux Rives du Lac","phone":"+33 3 25 41 24 36","shower":"yes","tents":"yes","toilets":"yes","website":"https://www.campingauxrivesdulac.com/"}},"183214981":{"location":[48.2556442,4.3410854],"ct":"FR","tp":"CR","ts":"2024-09-24T11:44:29Z","tX":524,"tY":354,"tags":{"capacity":"70","caravan_site":"motorhome_stopover","caravan_site:type":"lake","caravans":"no","fee":"no","name":"Aire aménagée camping car de Mesnil Saint-Père","opening_hours":"24/7","sanitary_dump_station":"yes","seasonal":"no","surface":"asphalt","tents":"no","water_point":"yes","website":"https://www.bienvenue-en-champagne.com/poi/aire-amenagee-camping-car-de-mesnil-saint-pere/"}},"228979970":{"location":[48.2622214,4.3483019],"ct":"FR","tp":"CS","ts":"2023-09-20T08:06:51Z","tX":524,"tY":354,"tags":{"name":"Le Lac d'Orient","phone":"+33 3 25 40 61 85","source":"Bing","stars":"4","website":"https://www.camping-lacdorient.com/"}},"293868240":{"location":[48.4257094,4.4124207],"ct":"FR","tp":"CS","ts":"2019-03-05T05:47:12Z","tX":524,"tY":354,"tags":{"name":"Les Gravières","operator":"Municipalité","phone":"+33 3 25 92 20 77","source":"gps, survey","website":"https://www.aube-champagne.com/fr/aire-naturelle-les-gravieres.html"}},"320443521":{"location":[48.2621017,4.3463936],"ct":"FR","tp":"CS","ts":"2023-11-09T20:09:37Z","tX":524,"tY":354,"tags":{"addr:city":"Mesnil-Saint-Père","addr:country":"FR","addr:housenumber":"15","addr:postcode":"10140","addr:street":"Rue du Lac","capacity":"51","caravans":"yes","internet_access":"yes","name":"Camping GCU de Mesnil-Saint-Père","operator":"Groupement des Campeurs Universitaires","phone":"+33 3 25 41 55 00","stars":"2","tents":"yes","website":"https://www.gcu.asso.fr/terrains/mesnil-saint-p%C3%A8re-aube-10","wheelchair":"yes"}},"344532683":{"location":[48.3493369,4.5279107],"ct":"FR","tp":"CS","ts":"2023-11-10T20:32:24Z","tX":524,"tY":354,"tags":{"access":"customers","name":"Camping du Tertre","operator":"Frédéric Sebban","phone":"+33 3 25 92 26 50","source":"Bing","stars":"3","website":"https://www.campingdutertre.fr/"}},"344532703":{"location":[48.3585383,4.5006406],"ct":"FR","tp":"CS","ts":"2024-08-04T17:55:26Z","tX":524,"tY":354,"tags":{"caravans":"yes","drinking_water":"yes","name":"Le Garillon","phone":"+33 3 25 92 21 46","power_supply":"yes","sanitary_dump_station":"yes","shower":"yes","source":"Bing","stars":"2","tents":"yes","toilets":"yes","website":"https://www.campinglegarillon.fr/"}},"344532714":{"location":[48.3471655,4.5277244],"ct":"FR","tp":"CR","ts":"2024-10-06T13:41:02Z","tX":524,"tY":354,"tags":{"capacity":"11","caravan_site":"motorhome_stopover","caravan_site:type":"lake","dog":"yes","fee":"no","name":"Stationnement de Camping-car de Port Dienville","opening_hours":"24/7","phone":"+33 3 25 92 27 69","picnic_area":"yes","power_supply":"yes","power_supply:charge":"2 EUR","power_supply:fee":"yes","sanitary_dump_station":"yes","seasonal":"no","surface":"asphalt","water_point":"yes","website":"https://grandslacsdechampagne.fr/fr/fiches-ts/stationnement-de-camping-car-de-port-dienville/","wheelchair":"yes"}},"393770760":{"location":[48.2903829,4.2822715],"ct":"FR","tp":"CS","ts":"2023-04-07T15:44:32Z","tX":524,"tY":354,"tags":{"caravans":"yes","mobile":"+33 6 80 32 92 35","name":"La Fromentelle","phone":"+33 3 25 41 52 67","shower":"yes","source":"Bing","tents":"yes","toilets":"yes","website":"https://www.aube-champagne.com/fr/ou-dormir-,camping-la-fromentelle.html"}},"1185690454":{"location":[48.3481205,4.5318194],"ct":"FR","tp":"CS","ts":"2024-09-06T15:18:47Z","tX":524,"tY":354,"tags":{"caravans":"yes","dog":"yes","fee":"yes","internet_access":"wlan","name":"Domaine Le Colombier","phone":"+33 3 25 92 23 47","shower":"yes","static_caravans":"yes","swimming_pool":"no","tents":"yes","toilets":"yes","website":"https://domaine-le-colombier.fr/"}},"1274571131":{"location":[48.3585287,4.334634],"ct":"FR","tp":"CR","ts":"2024-04-21T08:17:35Z","tX":524,"tY":354,"tags":{"caravan_site":"motorhome_stopover","caravan_site:type":"village","caravans":"no","fee":"yes","name":"Aire aménagée pour Camping Car de Piney","sanitary_dump_station":"yes","services:charge":"2.50 EUR/ 100 liter water,1 hour power_supply","tents":"no","water_point":"yes","website":"https://www.aube-champagne.com/fr/poi/aire-amenagee-pour-camping-car-de-piney/"}},"1274573629":{"location":[48.2372785,4.4663153],"ct":"FR","tp":"CR","ts":"2024-07-15T01:45:29Z","tX":524,"tY":354,"tags":{"capacity":"5","caravan_site":"motorhome_stopover","caravan_site:type":"village;parking_lot","caravans":"no","fee":"no","name":"Stationnement de Camping car de Vendeuvre sur Barse","power_supply":"yes","sanitary_dump_station:grey_water":"yes","seasonal":"no","services:charge":"3 EUR","tents":"no","toilets":"yes","water_point":"yes","website":"https://grandslacsdechampagne.fr/fr/fiches-ts/stationnement-de-camping-car-de-vendeuvre-sur-barse/"}},"3087666228":{"location":[48.312016,4.3337114],"ct":"FR","tp":"CS","ts":"2019-03-07T11:13:07Z","tX":524,"tY":354,"tags":{"name":"L'Européen","phone":"+33 3 25 41 26 82","website":"https://www.campingfrance.com/Recherchez-votre-camping/Champagne-Ardenne/Aube/GERAUDOT/AIRE-NATURELLE-L-EUROPEEN"}},"3087759994":{"location":[48.2580639,4.3425545],"ct":"FR","tp":"CS","ts":"2014-09-20T15:58:13Z","tX":524,"tY":354,"tags":{"name":"Base de Loisirs Départementale","phone":"+33 3 25 41 28 12","website":"www.bases-aepa.fr/siteMesnil.php"}},"10003924617":{"location":[48.2536823,4.2731937],"ct":"FR","tp":"CR","ts":"2024-04-20T21:14:56Z","tX":524,"tY":354,"tags":{"caravan_site":"motorhome_stopover","fee":"no","name":"Parking Lusigny-sur-Barse Route du Lac","seasonal":"no"}},"5612186749":{"location":[48.2554823,4.3407556],"ct":"FR","tp":"SD","ts":"2024-04-21T08:09:02Z","tX":524,"tY":354,"tags":{"capacity":"2","sanitary_dump_station:chemical_toilet":"yes","sanitary_dump_station:fee":"yes","sanitary_dump_station:gravity":"yes","sanitary_dump_station:grey_water":"yes","sanitary_dump_station:suction":"no"}},"11251964815":{"location":[48.3959158,4.5316545],"ct":"FR","tp":"SD","ts":"2023-10-09T23:00:50Z","tX":524,"tY":354,"tags":{}},"11834507030":{"location":[48.3585892,4.3345711],"ct":"FR","tp":"SD","ts":"2024-04-21T08:17:35Z","tX":524,"tY":354,"tags":{"access":"yes","fee":"no","sanitary_dump_station:chemical_toilet":"yes","sanitary_dump_station:grey_water":"yes"}},"12158266159":{"location":[48.3470407,4.5276305],"ct":"FR","tp":"SD","ts":"2024-09-05T18:20:31Z","tX":524,"tY":354,"tags":{}}}