{"1075987323":{"location":[48.109498,4.3702254],"ct":"FR","tp":"CS","ts":"2022-08-05T18:28:17Z","tX":524,"tY":355,"tags":{"leisure":"park","name":"Domaine du Bel Air"}},"1482767965":{"location":[47.9928409,4.3649517],"ct":"FR","tp":"CR","ts":"2024-10-10T21:10:09Z","tX":524,"tY":355,"tags":{"addr:city":"Les Riceys","addr:country":"FR","addr:postcode":"10340","addr:street":"Rue du Parc Saint-Vincent","caravan_site":"motorhome_stopover","caravan_site:type":"village;river","fee":"no","internet_access":"no","name":"Aire de Camping-Car des Riceys","operator":"Municipalit√©","phone":"+33 3 25 29 30 32","power_supply":"yes","power_supply:charge":"2 EUR/1 hour","power_supply:fee":"yes","sanitary_dump_station":"yes","smoking":"yes","water_point":"yes","water_point:charge":"2 EUR/100 liter","water_point:fee":"yes","website":"https://www.aube-champagne.com/fr/poi/aire-de-camping-car/","wheelchair":"yes"}},"2296026268":{"location":[48.0671177,4.5003954],"ct":"FR","tp":"CR","ts":"2024-10-10T21:14:32Z","tX":524,"tY":355,"tags":{"capacity":"10","caravan_site":"motorhome_stopover","caravan_site:type":"winery","caravans":"no","email":"champagne.richardot@orange.fr","fee":"no","internet_access":"no","maxstay":"2 nights","name":"Champagne Richardot","operator":"Champagne Richardot","phone":"+33 3 25297120","power_supply":"no","product":"champagne","tents":"no","website":"https://www.aube-champagne.com/en/poi/aire-de-stationnement-champagne-richardot/"}},"9177595568":{"location":[47.9944667,4.3626932],"ct":"FR","tp":"CR","ts":"2024-10-05T23:58:15Z","tX":524,"tY":355,"tags":{"addr:city":"Les Riceys","addr:country":"FR","addr:housenumber":"7","addr:postcode":"10340","addr:street":"Rue de la Presle","caravan_site":"motorhome_stopover","caravan_site:type":"winery","description":"Free site at winemaker","email":"contact@champagne-walczak.fr","fee":"no","name":"Aire de Camping-Car Champagne Walzac","network":"France Passion","phone":"+33 3 25 29 39 85","power_supply":"yes","power_supply:fee":"no","product":"champagne","water_point":"yes","water_point:fee":"no","website":"https://champagne-walczak.fr/en/campsite/"}},"12215050433":{"location":[48.0548113,4.3926014],"ct":"FR","tp":"CR","ts":"2024-10-01T21:45:39Z","tX":524,"tY":355,"tags":{"capacity":"4","caravan_site":"motorhome_stopover","caravan_site:type":"village","caravans":"no","fee":"no","name":"Aire de camping-car Buxeuil","opening_hours":"Oct 01-Aug 14","picnic_table":"yes","power_supply":"yes","power_supply:fee":"yes","sanitary_dump_station":"yes","tents":"no","water_point":"yes","water_point:fee":"yes","website":"https://www.aube-champagne.com/fr/poi/aire-de-camping-car-4/"}},"9306522429":{"location":[48.2142067,4.2416663],"ct":"FR","tp":"SD","ts":"2021-12-02T14:53:36Z","tX":524,"tY":355,"tags":{"access":"yes","fee":"no","opening_hours":"24/7"}}}