{"467607804":{"location":[46.4390869,4.2802471],"ct":"FR","tp":"CR","ts":"2024-10-08T23:31:30Z","tX":524,"tY":362,"tags":{"capacity":"10","caravan_site":"motorhome_stopover","caravan_site:type":"river","charge":"3 EUR","fee":"yes","name":"Camping Charolles Aire Camping Car","power_supply":"yes","power_supply:charge":"3 EUR/12 hours","power_supply:fee":"yes","sanitary_dump_station":"yes","seasonal":"no","tents":"no","water_point:charge":"2 EUR","water_point:fee":"yes","website":"https://www.campingcharolles.fr/general-6"}},"707206033":{"location":[46.4844324,4.4440742],"ct":"FR","tp":"CS","ts":"2020-10-26T10:00:07Z","tX":524,"tY":362,"tags":{"addr:city":"Saint-Bonnet-de-Joux","addr:postcode":"71220","addr:street":"Rue de la Pépinière","capacity":"26","name":"Camping municipal de Saint-Bonnet-de-Joux","phone":"+33 3 85 24 73 87","website":"https://stbonnetdejoux.fr/decouvrir/camping"}},"780574320":{"location":[46.3647115,4.4745888],"ct":"FR","tp":"CS","ts":"2023-11-03T14:04:24Z","tX":524,"tY":362,"tags":{"addr:city":"Dompierre-les-Ormes","addr:postcode":"71520","email":"villagedesmeuniers@yahoo.fr","internet_access":"wlan","internet_access:fee":"yes","name":"Le Village des Meuniers","phone":"+33 3 85 50 36 60","stars":"4","website":"https://www.villagedesmeuniers.com/","wheelchair":"limited"}},"859466463":{"location":[46.3943043,4.3944547],"ct":"FR","tp":"CS","ts":"2024-11-03T14:38:23Z","tX":524,"tY":362,"tags":{"addr:city":"Beaubery","addr:postcode":"71220","addr:street":"Route de Beaubery","caravans":"no","drinking_water":"yes","email":"contact@gitelaforet.fr","fee":"yes","name":"Domaine de la Forêt","phone":"+33 3 85 24 83 58","power_supply":"yes","shower":"yes","tents":"yes","toilets":"yes","website":"https://www.gitelaforet.fr","wheelchair":"no"}},"963893300":{"location":[46.3250174,4.3751494],"ct":"FR","tp":"CR","ts":"2024-06-29T01:01:43Z","tX":524,"tY":362,"tags":{"access":"yes","addr:city":"Gibles","addr:postcode":"71800","addr:street":"Aux Dards","capacity":"7","caravan_site":"motorhome_stopover","caravan_site:type":"village","covered":"no","drinking_water":"yes","fee":"no","maxstay":"no","name":"Gibles Aire de Camping-Car","operator":"Villes de Gibles","power_supply":"yes","sanitary_dump_station":"yes","sanitary_dump_station:chemical_toilet":"yes","sanitary_dump_station:grey_water":"yes","sanitary_dump_station:round_drain":"yes","supervised":"no","surface":"unpaved","water_point":"yes","website":"https://www.bourgogne-tourisme.com/aires-de-camping-car/aire-de-camping-car"}},"1297214115":{"location":[46.4742473,4.5102833],"ct":"FR","tp":"CR","ts":"2024-06-29T01:28:15Z","tX":524,"tY":362,"tags":{"capacity":"2","caravan_site":"motorhome_stopover","caravan_site:type":"village;church","fee":"no","name":"Aire camping-car Pressy-sous-Dondin","power_supply":"no","sanitary_dump_station":"no","website":"https://www.cluny-tourisme.com/aire-camping-cars/aire-de-camping-car-12/"}},"1842966093":{"location":[46.3366778,4.3847111],"ct":"FR","tp":"CS","ts":"2012-07-29T17:01:07Z","tX":524,"tY":362,"tags":{"name":"Château de Montrouant"}},"2215584541":{"location":[46.4398508,4.2812167],"ct":"FR","tp":"CS","ts":"2024-05-27T13:22:59Z","tX":524,"tY":362,"tags":{"addr:city":"Charolles","addr:postcode":"71120","addr:street":"Route de Viry","bar":"yes","email":"camping@ville-charolles.fr","internet_access":"wlan","internet_access:fee":"no","name":"Camping Municipal de Charolles","opening_hours":"Apr 01-Oct 05","phone":"+33 3 85 24 04 90","stars":"3","swimming_pool":"yes","website":"https://www.campingcharolles.fr/"}},"11991805586":{"location":[46.407219,4.5588313],"ct":"FR","tp":"CR","ts":"2024-06-19T10:38:12Z","tX":524,"tY":362,"tags":{"capacity":"3","caravan_site":"motorhome_stopover","caravan_site:type":"park","description":"at Acro'bath tracks and ziplines","fee":"no","name":"Aire Acro'bath Bergesserin","picnic_area":"yes","power_supply":"no","sanitary_dump_station":"no","water_point":"yes","website":"https://www.acrobath.com/fr/"}},"11991847811":{"location":[46.429568,4.5357107],"ct":"FR","tp":"CR","ts":"2024-06-19T10:57:29Z","tX":524,"tY":362,"tags":{"capacity":"3","caravan_site":"motorhome_stopover","caravan_site:type":"village","fee":"no","name":"Aire de Camping-car Buffières","power_supply":"no","sanitary_dump_station":"no","surface":"fine_gravel","website":"https://www.cluny-tourisme.com/aire-camping-cars/aire-de-camping-car-4/#capacite"}},"11991867282":{"location":[46.4947409,4.528525],"ct":"FR","tp":"CR","ts":"2024-06-19T11:14:40Z","tX":524,"tY":362,"tags":{"caravan_site":"motorhome_stopover","caravan_site:type":"village;parking_lot","fee":"no","name":"Parking de la salle communale Saint-André-le-Désert","sanitary_dump_station":"no","website":"https://www.cluny-tourisme.com/aire-camping-cars/aire-de-camping-car-14/"}},"11991867299":{"location":[46.4952026,4.5299077],"ct":"FR","tp":"CR","ts":"2024-06-19T11:14:40Z","tX":524,"tY":362,"tags":{"capacity":"4","caravan_site":"motorhome_stopover","caravan_site:type":"village","fee":"no","name":"Aire de camping-car Saint-André-le-Désert","power_supply":"no","website":"https://www.cluny-tourisme.com/aire-camping-cars/aire-de-camping-car-13/"}},"11991877224":{"location":[46.4255423,4.4944556],"ct":"FR","tp":"CR","ts":"2024-06-19T11:19:39Z","tX":524,"tY":362,"tags":{"capacity":"4","caravan_site":"motorhome_stopover","caravan_site:type":"village","fee":"no","name":"Aire de Camping-car Sivignon","power_supply":"no","sanitary_dump_station":"no","surface":"fine_gravel","website":"https://www.cluny-tourisme.com/aire-camping-cars/aire-de-camping-car-18/"}},"11997773381":{"location":[46.541372,4.5343119],"ct":"FR","tp":"CR","ts":"2024-06-20T20:28:56Z","tX":524,"tY":362,"tags":{"capacity":"1","caravan_site":"motorhome_stopover","caravan_site:type":"village","fee":"no","name":"Aire de Camping car Passy","power_supply":"no","sanitary_dump_station":"no","website":"https://www.cluny-tourisme.com/aire-camping-cars/aire-de-camping-car-11/"}},"8915902580":{"location":[46.3249448,4.3754937],"ct":"FR","tp":"SD","ts":"2024-05-07T16:30:22Z","tX":524,"tY":362,"tags":{"access":"yes","fee":"no","operator":"Ville de Gibles","sanitary_dump_station":"public","sanitary_dump_station:chemical_toilet":"no","sanitary_dump_station:grey_water":"yes","sanitary_dump_station:round_drain":"yes","water_point":"yes"}},"10188254079":{"location":[46.4006646,4.4445236],"ct":"FR","tp":"SD","ts":"2022-11-16T11:12:40Z","tX":524,"tY":362,"tags":{}}}