{"92278407":{"location":[44.6055406,4.4181397],"ct":"FR","tp":"CS","ts":"2022-02-24T07:23:13Z","tX":524,"tY":369,"tags":{"addr:housenumber":"44","addr:street":"Route de Montélimar","contact:facebook":"https://www.facebook.com/Camping-Le-Verger-de-Jastres-117237263060012/","contact:instagram":"https://www.instagram.com/campinglevergerdejastres/","email":"contact@camping-levergerdejastres.com","name":"Camping le Verger de Jastres","operator":"Camping le Verger de Jastres","phone":"+33 4 75 35 25 80","ref":"61 478","stars":"3","swimming_pool":"yes","website":"https://www.camping-levergerdejastres.com/"}},"95091667":{"location":[44.64509,4.3878753],"ct":"FR","tp":"CS","ts":"2023-07-03T16:11:43Z","tX":524,"tY":369,"tags":{"addr:city":"Ucel","addr:housenumber":"6","addr:postcode":"07200","addr:street":"Route du Moulin","caravans":"yes","contact:email":"campinglepastural@hotmail.fr","contact:facebook":"https://www.facebook.com/Camping-le-pastural-175370845824593/","contact:instagram":"campinglepastural","contact:mobile":"+33 6 07 30 33 59","contact:phone":"+33 4 75 37 60 28","contact:tripadvisor":"https://www.tripadvisor.fr/Hotel_Review-g4976017-d8586372-Reviews-Camping_Le_Pastural-Ucel_Aubenas_Ardeche_Auvergne_Rhone_Alpes.html","contact:website":"https://www.campinglepastural.com/","drinking_water":"yes","internet_access":"wlan","layer":"1","name":"Camping le Pastural","operator":"Camping le Pastural","phone":"+33 4 75 37 60 28","ref":"88 155","shower":"yes","stars":"4","swimming_pool":"yes","tents":"yes","toilets":"yes","website":"https://www.campinglepastural.com"}},"96853694":{"location":[44.7360714,4.2520809],"ct":"FR","tp":"CS","ts":"2024-08-07T17:03:45Z","tX":524,"tY":369,"tags":{"caravans":"yes","drinking_water":"yes","internet_access":"no","name":"Camping municipal Rieu Sépoux","operator":"Burzet","power_supply":"yes","sanitary_dump_station":"yes","shower":"yes","tents":"yes","toilets":"yes","website":"https://www.burzet.fr/hebergement/camping-municipal-rieu-sepoux"}},"97003924":{"location":[44.6678927,4.28301],"ct":"FR","tp":"CS","ts":"2023-08-05T15:28:21Z","tX":524,"tY":369,"tags":{"addr:housenumber":"213","addr:street":"Route du Puy-en-Velay","caravans":"yes","contact:facebook":"https://www.facebook.com/ventadour07/","email":"info@leventadour.com","internet_access":"wlan","name":"Camping le Ventadour","operator":"SARL Ventadour","phone":"+33 4 75 94 18 15","ref":"119 572","stars":"3","tents":"yes","website":"https://www.leventadour.com"}},"126710215":{"location":[44.6487842,4.389721],"ct":"FR","tp":"CS","ts":"2022-02-24T07:34:29Z","tX":524,"tY":369,"tags":{"addr:housenumber":"35","addr:street":"Route de Bréchignac","contact:facebook":"https://www.facebook.com/campinglespinsducel","contact:phone":"+33 4 75 37 49 20","name":"Les Pins d'Ucel","stars":"3","swimming_pool":"yes","website":"https://www.campinglespinsducel.com"}},"135633198":{"location":[44.6419753,4.3792039],"ct":"FR","tp":"CS","ts":"2022-02-24T07:34:29Z","tX":524,"tY":369,"tags":{"addr:housenumber":"91","addr:street":"Route de Vals","email":"resa@domaine-de-gil.com;info@domaine-de-gil.com","name":"Camping Domaine de Gil","operator":"Camping Domaine de Gil","phone":"+33 4 75 94 63 63","ref":"119 689","stars":"4","swimming_pool":"yes","website":"https://www.domaine-de-gil.com"}},"146797053":{"location":[44.6508928,4.3246967],"ct":"FR","tp":"CS","ts":"2024-06-30T16:41:21Z","tX":524,"tY":369,"tags":{"addr:street":"Allée de Vals","contact:facebook":"https://www.facebook.com/lepontdesissoux","contact:mobile":"+33 4 27 52 96 64","email":"campingparadisfamilydesissoux@gmail.com","name":"Camping Paradis Family des Issoux","old_name":"Camping municipal","operator":"Camping le Pont des Issoux","phone":"+33 6 20 03 09 41","ref":"73 752","ref:FR:SIREN":"511375396","ref:FR:SIRET":"51137539600047","stars":"3","swimming_pool":"yes","website":"https://www.sud-ardeche-camping.fr/"}},"148361355":{"location":[44.6590839,4.3141536],"ct":"FR","tp":"CS","ts":"2022-02-24T07:23:13Z","tX":524,"tY":369,"tags":{"addr:place":"Quartier le Perdu","contact:facebook":"https://www.facebook.com/Camping-%C3%80-lOmbre-des-Sycomores-1724241424497593","contact:mobile":"+33 6 89 21 89 71","email":"nadege.bury11@gmail.com","internet_access":"wlan","name":"Camping À l'ombre des Sycomores","operator":"Camping À l'ombre des Sycomores","phone":"+33 4 75 38 02 35","ref":"151 107","stars":"3","website":"https://camping-ombredessycomores.com"}},"148477191":{"location":[44.6220924,4.3679106],"ct":"FR","tp":"CS","ts":"2015-01-25T15:55:47Z","tX":524,"tY":369,"tags":{"name":"Camping Les Pins"}},"149144811":{"location":[44.810682,4.2886438],"ct":"FR","tp":"CR","ts":"2024-05-29T00:04:49Z","tX":524,"tY":369,"tags":{"capacity":"6","caravan_site":"motorhome_stopover","caravan_site:type":"mountains","fee":"no","name":"Aire de camping-cars Lachamp-Raphaël","opening_hours":"24/7","seasonal":"no","services:charge":"5 EUR","surface":"gravel","water_point":"yes","website":"https://en.ardeche-guide.com/accommodation/camping-sites/motorhomes-welcomed/aire-de-service-camping-car-859276"}},"238332617":{"location":[44.6648089,4.293793],"ct":"FR","tp":"CS","ts":"2022-02-24T07:23:13Z","tX":524,"tY":369,"tags":{"contact:facebook":"https://www.facebook.com/Camping.la.charderie","email":"la.charderie@wanadoo.fr","name":"Camping la Charderie","operator":"Camping la Charderie","phone":"+33 4 75 38 00 52","ref":"119 577","stars":"3","website":"https://www.camping-lacharderie.com/"}},"330906921":{"location":[44.6724983,4.2190587],"ct":"FR","tp":"CR","ts":"2024-10-05T15:17:36Z","tX":524,"tY":369,"tags":{"access":"yes","capacity":"10","caravan_site":"motorhome_stopover","caravan_site:type":"village","fee":"no","internet_access":"no","name":"Aire camping-car Thueyts","opening_hours":"24/7","power_supply":"yes","power_supply:fee":"yes","sanitary_dump_station":"yes","seasonal":"no","water_point":"yes"}},"330954539":{"location":[44.6743494,4.2327241],"ct":"FR","tp":"CS","ts":"2023-11-02T17:27:55Z","tX":524,"tY":369,"tags":{"addr:housenumber":"255","addr:street":"Les Champs de Mercier","contact:mobile":"+33 4 75 36 46 08","email":"info@campingpontdumercier.fr","name":"Camping du Pont de Mercier","operator":"Camping du Pont de Mercier","phone":"+33 6 86 74 70 02","ref":"119 694","stars":"3","website":"https://campingpontdumercier.fr/"}},"339618030":{"location":[44.6185109,4.4317324],"ct":"FR","tp":"CS","ts":"2022-02-24T07:34:31Z","tX":524,"tY":369,"tags":{"addr:street":"Route de Lussas","email":"info@campingleplandeau.fr","name":"Camping le Plan d'Eau","operator":"Camping le Plan d'Eau","phone":"+33 4 75 35 44 98","ref":"119 663","stars":"3","website":"http://www.campingleplandeau.fr"}},"468128138":{"location":[44.6057469,4.4728832],"ct":"FR","tp":"CS","ts":"2022-02-24T07:34:31Z","tX":524,"tY":369,"tags":{"addr:housenumber":"70","addr:street":"Chemin de Bourgeon","contact:email":"contact@ludocamping.com","email":"contact@ludocamping.com","name":"Camping Ludocamping","operator":"Camping Ludocamping","phone":"+33 4 84 80 01 89","ref":"94 664","stars":"3","website":"https://www.ardeche-camping.fr/"}},"516212134":{"location":[44.6796726,4.2690987],"ct":"FR","tp":"CR","ts":"2024-08-08T01:33:24Z","tX":524,"tY":369,"tags":{"capacity":"10","caravan_site":"motorhome_stopover","caravan_site:type":"village","fee":"no","maxstay":"48 hours","name":"Aire camping-car Meyras","sanitary_dump_station":"yes"}},"721868845":{"location":[44.7816047,4.518747],"ct":"FR","tp":"CS","ts":"2019-09-04T10:07:53Z","tX":524,"tY":369,"tags":{"name":"Le Moulinage Chez Soie"}},"761095501":{"location":[44.6691059,4.3625794],"ct":"FR","tp":"CS","ts":"2022-02-24T07:34:34Z","tX":524,"tY":369,"tags":{"addr:housenumber":"4","addr:street":"Chemin du Stade","contact:mobile":"+33 6 19 46 02 65","email":"camping.aufildelavolane@wanadoo.fr","name":"Camping au Fil de la Volane","operator":"Camping au Fil de la Volane","phone":"+33 4 75 37 46 85","ref":"119 681","stars":"3"}},"761095503":{"location":[44.6484515,4.2679962],"ct":"FR","tp":"CS","ts":"2023-11-02T17:27:38Z","tX":524,"tY":369,"tags":{"addr:housenumber":"165","addr:street":"Chemin de Bonneval","contact:mobile":"+33 4 75 93 27 09","email":"bonneval.camping@wanadoo.fr","name":"Camping Bonneval","operator":"Camping Bonneval","phone":"+33 6 83 52 81 75","ref":"119 535","source:geometry":"BDTopo IGN","stars":"4","website":"https://www.campingbonneval.com/"}},"761095517":{"location":[44.8134726,4.4839078],"ct":"FR","tp":"CS","ts":"2023-11-02T17:27:45Z","tX":524,"tY":369,"tags":{"addr:street":"le Puausson","capacity":"30","caravans":"yes","contact:mobile":"+33 6 30 86 84 18","email":"camping-pre-coulet@orange.fr","internet_access":"yes","internet_access:fee":"no","mobile_phone:repair":"+33 6 30 86 84 18","name":"Camping du Pré Coulet","operator":"Mme Faure","phone":"+33 4 75 66 65 68","ref":"119 670","stars":"2","tents":"yes","website":"https://camping-pre-coulet.fr/"}},"761095524":{"location":[44.6715123,4.269382],"ct":"FR","tp":"CS","ts":"2023-11-02T17:27:44Z","tX":524,"tY":369,"tags":{"addr:housenumber":"25","addr:street":"Rue des Magnaneries","contact:mobile":"+33 4 75 38 03 78","email":"info@camping-lebarutel.com","name":"Camping le Barutel","operator":"Camping le Barutel","phone":"+33 6 86 64 19 91","ref":"91 058","stars":"3","website":"https://www.camping-lebarutel.com"}},"761112793":{"location":[44.8290185,4.5227514],"ct":"FR","tp":"CS","ts":"2023-11-06T23:08:49Z","tX":524,"tY":369,"tags":{"addr:place":"Le Chambon","email":"ardechois.camping@wanadoo.fr","name":"Camping l'Ardéchois","operator":"Camping l'Ardéchois","phone":"+33 4 75 66 61 87","ref":"89 643","stars":"5","website":"https://www.ardechois-camping.fr/"}},"781700153":{"location":[44.6495934,4.2868104],"ct":"FR","tp":"CS","ts":"2022-02-24T07:34:34Z","tX":524,"tY":369,"tags":{"name":"L'Estival","website":"https://www.campinglestival.com/"}},"855657179":{"location":[44.7032669,4.2231636],"ct":"FR","tp":"CS","ts":"2022-02-24T07:34:34Z","tX":524,"tY":369,"tags":{"addr:street":"Quartier la Châtaigneraie","email":"info@camping-la-chataigneraie.fr","name":"Camping la Châtaigneraie","operator":"Camping la Châtaigneraie","phone":"+33 4 75 88 02 11","ref":"91 411","stars":"2"}},"857464737":{"location":[44.6261257,4.2345931],"ct":"FR","tp":"CS","ts":"2020-10-10T08:49:25Z","tX":524,"tY":369,"tags":{"source":"BDOrtho IGN"}},"894052715":{"location":[44.7159292,4.3190101],"ct":"FR","tp":"CS","ts":"2021-01-10T22:33:13Z","tX":524,"tY":369,"tags":{"name":"La Besorgues","source":"BDTopo IGN"}},"894052734":{"location":[44.695111,4.3500484],"ct":"FR","tp":"CS","ts":"2021-01-10T22:33:13Z","tX":524,"tY":369,"tags":{"name":"Domaine du Vernadel","source":"BDTopo IGN"}},"894052737":{"location":[44.6260715,4.2887843],"ct":"FR","tp":"CS","ts":"2021-01-10T22:33:13Z","tX":524,"tY":369,"tags":{"name":"À la Source de Ganvié","source":"BDTopo IGN"}},"894052742":{"location":[44.7361535,4.2968304],"ct":"FR","tp":"CS","ts":"2021-01-22T22:32:21Z","tX":524,"tY":369,"tags":{"name":"Moulin de Charrier","source:geometry":"BDTopo IGN","website":"https://www.moulindecharrier.com/camping/"}},"894052750":{"location":[44.6725799,4.2599873],"ct":"FR","tp":"CS","ts":"2022-02-24T07:34:34Z","tX":524,"tY":369,"tags":{"addr:housenumber":"2435","addr:street":"Route du Puy-en-Velay","contact:mobile":"+33 6 21 12 07 75","email":"contact@lecampingdelaplage.com","internet_access":"wlan","name":"Camping Domaine de la Plage","operator":"Camping de la Plage","phone":"+33 4 75 36 40 59","ref":"119 584","source:geometry":"BDTopo IGN","stars":"5","website":"https://www.lecampingdelaplage.com/"}},"894052751":{"location":[44.5957661,4.4162909],"ct":"FR","tp":"CS","ts":"2021-01-10T22:33:13Z","tX":524,"tY":369,"tags":{"name":"Domaine du Rocher de Jastres","source:geometry":"BDTopo IGN"}},"894052760":{"location":[44.7213386,4.349621],"ct":"FR","tp":"CS","ts":"2021-01-10T22:33:13Z","tX":524,"tY":369,"tags":{"name":"Camping municipal","source:geometry":"BDTopo IGN"}},"894052766":{"location":[44.6329929,4.5089301],"ct":"FR","tp":"CS","ts":"2024-06-30T04:06:43Z","tX":524,"tY":369,"tags":{"addr:street":"Route départementale 258","email":"info@campinglescharmilles.fr","name":"Camping les Charmilles","operator":"Camping les Charmilles","phone":"+33 4 75 88 56 27","ref":"85 864","source:geometry":"BDTopo IGN","stars":"3","website":"https://www.campinglescharmilles.fr/"}},"894052771":{"location":[44.8123217,4.3992104],"ct":"FR","tp":"CS","ts":"2022-07-27T15:19:43Z","tX":524,"tY":369,"tags":{"name":"Gourjatoux","source":"BDTopo IGN","wheelchair":"limited"}},"894052778":{"location":[44.7069735,4.2203758],"ct":"FR","tp":"CS","ts":"2021-01-10T22:33:13Z","tX":524,"tY":369,"tags":{"name":"La Famille du Cheminot","source":"BDTopo IGN"}},"894052781":{"location":[44.7702774,4.4718701],"ct":"FR","tp":"CS","ts":"2023-01-20T10:39:12Z","tX":524,"tY":369,"tags":{"addr:city":"Saint-Julien-du-Gua","addr:postcode":"07190","email":"lefolastere@gmail.com","internet_access":"wlan","internet_access:fee":"no","name":"Camping Rural Le Folastère","payment:cash":"yes","payment:credit_cards":"no","payment:debit_cards":"no","payment:electronic_purses":"no","phone":"+33 4 75 66 85 04","smoking":"outside","source:geometry":"BDTopo IGN","website":"https://www.le-folastere.fr/"}},"894052782":{"location":[44.6772565,4.4585751],"ct":"FR","tp":"CS","ts":"2023-11-02T17:27:43Z","tX":524,"tY":369,"tags":{"addr:housenumber":"55","addr:street":"Chemin du Camping","contact:mobile":"+33 7 61 89 70 00","email":"campingleschenes@gmail.com","name":"Camping les Chênes","operator":"Camping les Chênes","phone":"+33 9 66 92 15 89","ref":"119 676","source:geometry":"BDTopo IGN","stars":"2","website":"https://www.camping-des-chenes.fr/"}},"894052789":{"location":[44.6478238,4.5046653],"ct":"FR","tp":"CS","ts":"2023-11-08T13:51:18Z","tX":524,"tY":369,"tags":{"addr:place":"Le Village","email":"sarl.leslavandes@online.fr","name":"Camping les Lavandes","operator":"Camping les Lavandes","phone":"+33 4 75 94 20 65","ref":"94 667","source:geometry":"BDTopo IGN","stars":"3","website":"https://www.les-lavandes-darbres.com/"}},"1287496319":{"location":[44.6225857,4.3853558],"ct":"FR","tp":"CR","ts":"2024-05-28T20:36:30Z","tX":524,"tY":369,"tags":{"capacity":"2","caravan_site":"motorhome_stopover","caravan_site:type":"parking_lot;town","fee":"no","name":"Parking du Belvédère Aubenas","opening_hours":"24/7","power_supply":"no","sanitary_dump_station":"yes","seasonal":"no","services:charge":"2 EUR","website":"https://en.ardeche-guide.com/accommodation/camping-sites/motorhomes-welcomed/aire-de-service-communale-pour-camping-car-404262"}},"1287513597":{"location":[44.8352576,4.3011595],"ct":"FR","tp":"CR","ts":"2024-05-28T21:51:11Z","tX":524,"tY":369,"tags":{"capacity":"2","caravan_site":"motorhome_stopover","caravan_site:type":"countryside","fee":"no","name":"Aire de stationnement camping-cars du Chambon"}},"7116236385":{"location":[44.728339,4.3012852],"ct":"FR","tp":"CS","ts":"2020-01-08T08:21:35Z","tX":524,"tY":369,"tags":{"internet_access":"yes","name":"Moulin des Charrier","survey:date":"2020-01-02"}},"8304751379":{"location":[44.7421402,4.4062968],"ct":"FR","tp":"CS","ts":"2021-01-09T00:39:08Z","tX":524,"tY":369,"tags":{"name":"La Ferme de la Croze","website":"http://www.camping-ferme-de-la-croze.com/camping-ferme-croze-ardeche.php"}},"8309613304":{"location":[44.6943704,4.4334213],"ct":"FR","tp":"CS","ts":"2021-01-10T22:33:12Z","tX":524,"tY":369,"tags":{"source":"BDTopo IGN"}},"7803366122":{"location":[44.6789784,4.5483985],"ct":"FR","tp":"CR","ts":"2024-05-28T08:52:44Z","tX":524,"tY":369,"tags":{"addr:street":"Lichemaille","capacity":"6","caravan_site":"motorhome_stopover","caravan_site:type":"farm_shop","fee":"no","name":"La Châtaigne","phone":"+33 4 75 64 51 81","picnic_area":"yes","sanitary_dump_station":"yes","tents":"yes","website":"http://couleurchataigne.fr/camping-car-ferme.html"}}}