{"14603230":{"location":[44.4292613,4.3522349],"ct":"FR","tp":"CS","ts":"2023-02-05T20:19:32Z","tX":524,"tY":370,"tags":{"addr:city":"Sampzon","addr:country":"FR","addr:housenumber":"3342","addr:postcode":"07120","addr:street":"Route du Rocher","email":"soleilvivarais@sandaya.fr","fax":"+33 4 75 39 64 69","name":"Sandaya Le Soleil Vivarais","operator":"Sandaya","phone":"+33 4 75 39 67 56","ref":"179 158","stars":"5","swimming_pool":"yes","website":"https://www.soleil-vivarais.com/"}},"35446228":{"location":[44.4638962,4.2728522],"ct":"FR","tp":"CS","ts":"2022-04-13T16:16:14Z","tX":524,"tY":370,"tags":{"contact:facebook":"https://www.facebook.com/CAMPING-ARLEBLANC-ARDECHE-116922328331158/","email":"info@arleblanc.com","internet_access":"wlan","name":"Camping Arleblanc","operator":"Camping Arleblanc","phone":"+33 4 75 39 53 11","ref":"94 803","stars":"4","swimming_pool":"yes","website":"https://www.arleblanc.com"}},"97095613":{"location":[44.4768222,4.3582549],"ct":"FR","tp":"CS","ts":"2022-02-24T07:34:29Z","tX":524,"tY":370,"tags":{"addr:street":"Chemin de l'Ardèche","area":"yes","contact:facebook":"https://www.facebook.com/coudoulets/","email":"camping@coudoulets.com","name":"Camping les Coudoulets","operator":"Camping les Coudoulets","phone":"+33 4 75 93 94 95","ref":"102 503","stars":"4","swimming_pool":"yes","website":"https://www.coudoulets.com"}},"98321680":{"location":[44.448066,4.3355768],"ct":"FR","tp":"CS","ts":"2024-03-25T15:21:56Z","tX":524,"tY":370,"tags":{"addr:street":"Route de St Alban Auriolles","contact:facebook":"https://www.facebook.com/CampingDePeyroche","email":"info@camping-peyroche.com","fax":"+33 4 75 39 79 40","internet_access":"wlan","name":"Camping De Peyroche | Camping Ruoms","opening_hours":"Mo-Su 08:30-12:30, 14:30-18:30","operator":"Camping de Peyroche","phone":"+33 4 75 39 79 39","ref":"83 276","smoking":"yes","stars":"2","website":"https://www.camping-peyroche.com","wheelchair":"no"}},"111605202":{"location":[44.4848241,4.3720535],"ct":"FR","tp":"CS","ts":"2022-02-24T07:34:29Z","tX":524,"tY":370,"tags":{"addr:street":"Chemin des Digues","contact:facebook":"https://www.facebook.com/camping-la-digue-262557979627/","contact:mobile":"+33 4 75 39 63 57","email":"info@camping-la-digue.fr","internet_access":"wlan","name":"Camping la Digue","operator":"Camping la Digue","phone":"+33 6 62 98 92 12","ref":"94 861","stars":"4","swimming_pool":"yes","website":"https://www.camping-la-digue.fr","wheelchair":"yes"}},"115787592":{"location":[44.5747138,4.5044462],"ct":"FR","tp":"CS","ts":"2024-03-14T13:30:39Z","tX":524,"tY":370,"tags":{"addr:housenumber":"75","addr:street":"Rue des Pommiers","contact:facebook":"https://www.facebook.com/cielavillage.lepommier","contact:instagram":"https://www.instagram.com/campinglepommieraquardeche/","contact:phone":"+33 4 75 94 82 81","email":"lepommier@cielavillage.com","name":"Camping Le Pommier","opening_hours":"Mo-Fr 09:00-18:00; Sa 09:00-13:00","operator":"Ciela Village","phone":"+33 4 75 94 82 81","ref":"144 456","ref:FR:SIRET":"31481332000012","stars":"5","swimming_pool":"yes","website":"https://campinglepommier.com/"}},"125693637":{"location":[44.4240065,4.314136],"ct":"FR","tp":"CS","ts":"2022-11-18T15:12:05Z","tX":524,"tY":370,"tags":{"area":"yes","contact:facebook":"https://www.facebook.com/Camping-Le-Chassezac-748806761802975/","contact:mobile":"+33 4 75 39 60 71","email":"campinglechassezac@wanadoo.fr","fax":"+33 4 75 39 76 35","internet_access":"wlan","internet_access:fee":"yes","name":"Camping le Chassezac","operator":"Camping le Chassezac","phone":"+33 6 81 96 68 76","ref":"212 892","stars":"3","swimming_pool":"yes","website":"https://www.camping-lechassezac-ardeche.com"}},"131482757":{"location":[44.4052951,4.3786263],"ct":"FR","tp":"CS","ts":"2022-02-24T07:23:13Z","tX":524,"tY":370,"tags":{"addr:street":"Route de Ruoms","contact:facebook":"https://www.facebook.com/Roubine.Ardeche","contact:instagram":"https://www.instagram.com/camping.la.roubine/","email":"roubine.ardeche@wanadoo.fr","internet_access":"wlan","name":"Camping la Roubine","operator":"Camping la Roubine","phone":"+33 4 75 88 04 56","ref":"156 382","stars":"5","swimming_pool":"yes","website":"https://www.camping-roubine.com"}},"143832363":{"location":[44.5130238,4.3851109],"ct":"FR","tp":"CS","ts":"2022-02-24T07:34:29Z","tX":524,"tY":370,"tags":{"addr:place":"Les Salles","email":"camping.falaise@wanadoo.fr","internet_access":"wlan","name":"Camping de la Falaise","operator":"Camping la Falaise","phone":"+33 4 75 37 74 27","ref":"83 619","stars":"3","website":"https://www.camping-balazuc.com"}},"144965050":{"location":[44.4807316,4.378426],"ct":"FR","tp":"CS","ts":"2022-02-24T07:34:29Z","tX":524,"tY":370,"tags":{"addr:place":"Pradons","contact:facebook":"https://www.facebook.com/campinglaborie/","contact:mobile":"+33 6 43 24 90 76","email":"camping-de-laborie@wanadoo.fr","fax":"+33 4 75 39 72 26","internet_access":"wlan","name":"Camping Laborie","operator":"Camping Laborie","phone":"+33 9 66 81 18 37","ref":"98 478","stars":"3","swimming_pool":"yes","website":"https://www.campingdelaborie.com"}},"145085562":{"location":[44.5076174,4.3810168],"ct":"FR","tp":"CS","ts":"2022-02-24T07:34:29Z","tX":524,"tY":370,"tags":{"email":"retourtier@hotmail.com","name":"Camping le Retourtier","operator":"Camping le Retourtier","phone":"+33 4 75 37 77 67","ref":"90 730","stars":"2","swimming_pool":"yes","website":"https://www.campingleretourtier.com"}},"147175610":{"location":[44.4766588,4.3622531],"ct":"FR","tp":"CS","ts":"2022-02-24T07:34:29Z","tX":524,"tY":370,"tags":{"addr:place":"La Coustace","contact:mobile":"+33 4 75 39 66 07","email":"contact@camping-international-07.fr","name":"Camping International","operator":"Camping International","phone":"+33 6 31 54 99 05","ref":"119 580","stars":"3","swimming_pool":"yes","website":"https://www.camping-international-07.fr"}},"147193400":{"location":[44.4736684,4.3526844],"ct":"FR","tp":"CS","ts":"2022-02-24T07:34:29Z","tX":524,"tY":370,"tags":{"addr:housenumber":"225A","addr:street":"Route du Cirque de Gens","area":"yes","contact:facebook":"https://www.facebook.com/campingdupontpradons/","contact:instagram":"https://www.instagram.com/explore/locations/295849566/camping-du-pont-en-ardeche-du-sud","contact:mobile":"+33 4 75 93 93 98","email":"campingdupont07@wanadoo.fr","name":"Camping du Pont","operator":"Camping du Pont","phone":"+33 6 08 93 99 30","ref":"119 576","stars":"4","swimming_pool":"yes","website":"https://www.campingdupontardeche.com/"}},"148029648":{"location":[44.5072548,4.4040932],"ct":"FR","tp":"CS","ts":"2022-02-24T07:23:13Z","tX":524,"tY":370,"tags":{"addr:place":"Mas de Chaussy","contact:facebook":"https://www.facebook.com/campinglechamadou/","contact:mobile":"+33 4 75 37 00 56","email":"infos@camping-le-chamadou.com","name":"Camping le Chamadou","operator":"SAS Camping le Chamadou","phone":"+33 7 87 64 34 77","ref":"214 251","stars":"4","swimming_pool":"yes","website":"https://www.camping-le-chamadou.com/"}},"151893090":{"location":[44.4519532,4.3364328],"ct":"FR","tp":"CR","ts":"2024-05-10T17:27:38Z","tX":524,"tY":370,"tags":{"addr:place":"Mairie","bbq":"no","capacity":"100","caravan_site":"motorhome_stopover","caravan_site:type":"river;village","caravans":"yes","caravans:conditional":"no @ (Oct-Apr)","charge":"16.24 EUR","charge:conditional":"13.64 @ (Oct-Apr)","dog":"leashed","email":"camping-muni-ruoms@wanadoo.fr","fee":"yes","internet_access":"wlan","internet_access:fee":"no","name":"Aire Ruoms","network":"CAMPING-CAR PARK","opening_hours":"24/7","operator":"CAMPING-CAR PARK","power_supply":"yes","power_supply:fee":"no","power_supply:maxcurrent":"6","sanitary_dump_station":"yes","seasonal":"no","shower":"yes","shower:conditional":"no @ (Oct-Apr)","tents":"yes","tents:conditional":"no @ (Oct-Apr)","toilets":"yes","toilets:conditional":"no @ (Oct-Apr)","toilets:seasonal":"yes","trailer":"yes","water_point":"yes","website":"https://www.campingcarpark.com/fr_FR/sejour/camping/auvergne-rhone-alpes/07-ardeche/ruoms"}},"159393432":{"location":[44.3966722,4.3844298],"ct":"FR","tp":"CS","ts":"2023-08-30T05:04:08Z","tX":524,"tY":370,"tags":{"addr:housenumber":"100","addr:street":"Chemin de la Plage","caravans":"yes","contact:facebook":"https://www.facebook.com/Campingdelardeche/","email":"campingvallonpontdarc@gmail.com","fax":"+33 4 75 88 11 76","name":"Camping de l'Ardèche - Vallon Pont d'Arc","operator":"Camping de l'Ardèche - Vallon Pont d'Arc","phone":"+33 4 75 88 04 73","ref":"651 802","stars":"2","tents":"yes","website":"https://www.campingdelardeche-vallonpontdarc.com/"}},"163934679":{"location":[44.4569099,4.2773558],"ct":"FR","tp":"CS","ts":"2023-05-04T19:40:49Z","tX":524,"tY":370,"tags":{"addr:place":"La Charve","caravans":"yes","drinking_water":"yes","email":"camping.lesplatanes@laposte.net","name":"Camping les Platanes","operator":"Camping les Platanes","phone":"+33 4 75 39 52 31","ref":"145 795","shower":"yes","stars":"3","swimming_pool":"yes","tents":"yes","website":"https://www.campinglesplatanesardeche.com/"}},"164571252":{"location":[44.4577148,4.2790585],"ct":"FR","tp":"CS","ts":"2022-02-24T07:23:13Z","tX":524,"tY":370,"tags":{"addr:housenumber":"3600","addr:street":"Route de la Charve","contact:facebook":"https://www.facebook.com/Camping-Les-Platanes-103146767809996/","name":"Camping Les Platanes","stars":"3","swimming_pool":"yes","website":"https://www.campinglesplatanesardeche.com/"}},"174946260":{"location":[44.3961714,4.3998241],"ct":"FR","tp":"CS","ts":"2022-02-24T07:34:31Z","tX":524,"tY":370,"tags":{"addr:street":"Route des Gorges","contact:facebook":"https://www.facebook.com/rivesdarc","contact:instagram":"https://www.instagram.com/rivesdarc","email":"contact@rivesdarc.com","fax":"+33 4 75 88 02 00","name":"Rives d'Arc","operator":"Rives d'Arc","phone":"+33 4 75 88 00 48","ref":"154 115","stars":"4","swimming_pool":"yes","website":"https://www.rivesdarc.com/fr/"}},"174946268":{"location":[44.3966618,4.3973676],"ct":"FR","tp":"CS","ts":"2023-08-30T05:02:40Z","tX":524,"tY":370,"tags":{"addr:street":"Route des Gorges","cabins":"yes","caravans":"yes","contact:facebook":"https://www.facebook.com/CampingNatureParcArdechois/","contact:instagram":"https://www.instagram.com/campingnatureparclardechois/","drinking_water":"yes","email":"info@ardechois-camping.com","motorhome":"yes","name":"Camping Nature Parc l'Ardéchois","opening_hours":"Apr 1-Sep 30","operator":"Camping Nature Parc l'Ardéchois","phone":"+33 4 75 88 06 63","power_supply":"yes","ref":"156 387","shower":"yes","stars":"5","swimming_pool":"yes","tents":"yes","toilets":"yes","website":"https://www.ardechois-camping.com/"}},"174962432":{"location":[44.3929274,4.4014216],"ct":"FR","tp":"CS","ts":"2023-04-08T13:57:29Z","tX":524,"tY":370,"tags":{"addr:place":"Mezelet","alt_name":"L'Ile Sur Mezelet","contact:facebook":"https://www.facebook.com/campingdelile","email":"contact@camping-delile.com","motorhome":"yes","name":"Camping l'Île","operator":"Camping l'Ile","phone":"+33 4 75 88 05 44","ref":"153 844","stars":"2","tents":"yes","website":"https://www.camping-delile.com/"}},"174962433":{"location":[44.3897211,4.4057216],"ct":"FR","tp":"CS","ts":"2023-08-14T19:36:33Z","tX":524,"tY":370,"tags":{"addr:street":"Route des Gorges","caravans":"yes","contact:facebook":"https://www.facebook.com/campingdestunnels","contact:mobile":"+33 6 89 14 18 27","drinking_water":"yes","email":"azurcanoes@gmail.com","name":"Camping des Tunnels","operator":"Azur Canoës","phone":"+33 4 75 88 00 22","power_supply":"yes","ref":"153 902","shower":"yes","stars":"2","tents":"yes","toilets":"yes","website":"https://www.ardeche-vacance.com"}},"174977952":{"location":[44.3757846,4.4205343],"ct":"FR","tp":"CS","ts":"2022-02-24T07:34:31Z","tX":524,"tY":370,"tags":{"addr:street":"Route des Gorges","contact:mobile":"+33 4 75 88 02 15","email":"thierryvincent07@yahoo.fr","name":"Camping du Midi","operator":"Camping du Midi","phone":"+33 4 75 88 06 78","ref":"154 140","stars":"3","website":"https://www.camping-ardeche-midi.fr/"}},"176515328":{"location":[44.387418,4.4052966],"ct":"FR","tp":"CS","ts":"2023-05-12T19:31:20Z","tX":524,"tY":370,"tags":{"addr:place":"Les Blachas","contact:facebook":"https://www.facebook.com/domainedesblachas","email":"contact@lesblachas.com;contact@ternelia.com","name":"Domaine des Blachas","operator":"SASU Domaine les Blachas","phone":"+33 4 75 88 02 07","ref":"152 143","source":"cadastre-dgi-fr source : Direction Générale des Impôts - Cadastre. Mise à jour : 2012","stars":"4","swimming_pool":"yes","website":"https://www.lesblachas.com/"}},"177476470":{"location":[44.396333,4.3833057],"ct":"FR","tp":"CS","ts":"2023-10-31T00:05:30Z","tX":524,"tY":370,"tags":{"addr:housenumber":"40","addr:street":"Chemin de la Plage","contact:facebook":"https://www.facebook.com/campinglechauvieux/","contact:instagram":"https://www.instagram.com/camping_le_chauvieux/","email":"mail@camping-le-chauvieux.com","internet_access":"wlan","name":"Camping le Chauvieux","operator":"Camping le Chauvieux","phone":"+33 4 75 88 05 37","ref":"152 006","stars":"3","swimming_pool":"yes","website":"https://www.camping-le-chauvieux.com/"}},"177477925":{"location":[44.3985098,4.3825962],"ct":"FR","tp":"CS","ts":"2023-10-31T00:04:38Z","tX":524,"tY":370,"tags":{"contact:mobile":"+33 6 73 05 35 84","email":"inter.camp@wanadoo.fr","name":"Camping International","operator":"Camping International","phone":"+33 4 75 88 00 99","ref":"152 022","stars":"4","swimming_pool":"yes","website":"https://www.international-camping-ardeche.com/"}},"195527229":{"location":[44.3914119,4.504668],"ct":"FR","tp":"CS","ts":"2022-02-24T07:23:13Z","tX":524,"tY":370,"tags":{"addr:housenumber":"120","addr:street":"Rue de la Batteuse","contact:facebook":"https://www.facebook.com/CAMPINGLARESIDENCE/","email":"mail@campinglaresidence.com","internet_access":"wlan","name":"Camping la Résidence d'Été","operator":"Camping la Résidence d'Été","phone":"+33 4 75 04 26 87","ref":"141 358","stars":"3","swimming_pool":"yes","website":"https://campinglaresidence.com/"}},"200187100":{"location":[44.5066169,4.3692676],"ct":"FR","tp":"CS","ts":"2019-02-16T16:56:39Z","tX":524,"tY":370,"tags":{"name":"La Croix du Bois"}},"201372336":{"location":[44.5214613,4.3455519],"ct":"FR","tp":"CS","ts":"2022-02-24T07:23:13Z","tX":524,"tY":370,"tags":{"addr:place":"Jeu de la Paume","contact:facebook":"https://www.facebook.com/campingbeaumegiraud/","contact:mobile":"+33 6 87 85 69 03","email":"contact@campingbeaumegiraud.com","internet_access":"wlan","name":"Camping Beaume Giraud","operator":"Camping Beaume Giraud","phone":"+33 4 75 89 09 36","ref":"94 912","stars":"3","swimming_pool":"yes","website":"https://www.campingbeaumegiraud.com"}},"201395146":{"location":[44.4914154,4.3665204],"ct":"FR","tp":"CS","ts":"2023-11-08T13:51:17Z","tX":524,"tY":370,"tags":{"addr:place":"Les Grandes Terres","email":"beaussement@wanadoo.fr","name":"Camping Beaussement","operator":"Camping Beaussement","phone":"+33 4 75 39 72 06","ref":"122 972","stars":"2","website":"https://www.beaussement.com/"}},"213544871":{"location":[44.4323112,4.3292513],"ct":"FR","tp":"CS","ts":"2022-02-24T07:23:13Z","tX":524,"tY":370,"tags":{"contact:facebook":"https://www.facebook.com/lachapouliere/","email":"camping@lachapouliere.com;communication@lachapouliere.com","fax":"+33 4 75 39 64 98","internet_access":"wlan","internet_access:fee":"no","name":"Camping la Chapoulière","operator":"Camping la Chapoulière","phone":"+33 4 75 39 64 98","ref":"214 268","stars":"4","swimming_pool":"yes","website":"https://www.lachapouliere.com/"}},"232151439":{"location":[44.3409388,4.5016458],"ct":"FR","tp":"CS","ts":"2023-10-31T00:06:48Z","tX":524,"tY":370,"tags":{"addr:street":"Route touristique des Gorges","email":"plage-templiers@orange.fr","name":"Camping la Plage des Templiers","nudism":"yes","operator":"Camping la Plage des Templiers","phone":"+33 4 75 04 28 58","ref":"86 731","stars":"3","website":"https://www.camping-templiers-ardeche.com/"}},"232267672":{"location":[44.4232592,4.3239332],"ct":"FR","tp":"CS","ts":"2022-02-24T07:34:31Z","tX":524,"tY":370,"tags":{"addr:housenumber":"111","addr:street":"Route d'Alès","area":"yes","email":"bastide@rcn.fr","name":"Camping RCN la Bastide en Ardèche","operator":"Camping RCN la Bastide en Ardèche","phone":"+33 4 75 39 64 72","ref":"152 128","stars":"4","website":"http://www.rcn.fr"}},"233390878":{"location":[44.5345574,4.4069072],"ct":"FR","tp":"CS","ts":"2022-02-24T07:34:31Z","tX":524,"tY":370,"tags":{"addr:place":"Vogüé","contact:facebook":"https://www.facebook.com/Domaine-du-Cros-dAuzon-113896487033187/","email":"reservation@crosdauzon.fr;commercial@crosdauzon.fr","name":"Camping Domaine du Cros d'Auzon","operator":"Domaine du Cros d'Auzon","phone":"+33 4 75 37 75 86","ref":"119 397","stars":"4","swimming_pool":"yes","website":"https://www.domaine-cros-auzon.com/"}},"236520776":{"location":[44.5901635,4.40677],"ct":"FR","tp":"CS","ts":"2022-02-24T07:23:13Z","tX":524,"tY":370,"tags":{"addr:housenumber":"7","addr:place":"Quartier St Pierre","contact:facebook":"https://www.facebook.com/Camping-La-Chareyrasse-2154494194602587/","email":"lachareyrasse@hotmail.fr","name":"Camping la Chareyrasse","operator":"Camping la Chareyrasse","phone":"+33 6 61 89 28 04","ref":"61 459","stars":"3","swimming_pool":"yes","website":"http://www.camping-la-chareyrasse.com"}},"238465672":{"location":[44.5249117,4.3286074],"ct":"FR","tp":"CS","ts":"2022-02-24T07:23:13Z","tX":524,"tY":370,"tags":{"addr:place":"Le Saut","contact:facebook":"https://www.facebook.com/camping.lesacacias.7/","contact:mobile":"+33 4 75 36 86 91","email":"michel.vanniere@wanadoo.fr","name":"Camping les Acacias","operator":"Camping à la ferme les Acacias - le Saut","phone":"+33 4 75 36 88 75","ref":"100 512","stars":"3","swimming_pool":"yes","website":"http://www.camping-lesacacias.com"}},"238613071":{"location":[44.5368153,4.404312],"ct":"FR","tp":"CS","ts":"2022-02-24T07:23:13Z","tX":524,"tY":370,"tags":{"addr:housenumber":"240","addr:street":"Route de Vogüé","contact:facebook":"https://www.facebook.com/Camping-de-lArche-388399014554387/","email":"contact@camping-de-larche.fr","name":"Camping de l'Arche","operator":"Camping de l'Arche","phone":"+33 4 75 37 79 15","ref":"214 255","stars":"3","swimming_pool":"yes","website":"https://www.camping-de-larche.fr/"}},"239207423":{"location":[44.5181046,4.3040844],"ct":"FR","tp":"CS","ts":"2018-08-22T21:25:26Z","tX":524,"tY":370,"tags":{"internet_access":"no","name":"Camping Le Moulinage"}},"239456821":{"location":[44.449405,4.3618283],"ct":"FR","tp":"CS","ts":"2023-10-31T00:06:19Z","tX":524,"tY":370,"tags":{"addr:place":"Le Petit Chaussy","contact:facebook":"https://www.facebook.com/ardechelombrage/","contact:mobile":"+33 4 75 39 74 14","email":"contact@campinglombrage.com","name":"Camping l'Ombrage","operator":"Camping l'Ombrage","phone":"+33 4 75 39 74 14","ref":"145 750","source":"http://www.campinglombrage.com/","stars":"3","swimming_pool":"yes","website":"https://www.campinglombrage.com/"}},"239456980":{"location":[44.4620523,4.3360185],"ct":"FR","tp":"CS","ts":"2023-02-01T23:38:58Z","tX":524,"tY":370,"tags":{"addr:housenumber":"87","addr:street":"Rue du Petit Bois","email":"vacances@campinglepetitbois.fr","name":"Sites et Paysages le Petit Bois","operator":"Camping le Petit Bois","phone":"+33 4 75 39 60 72","ref":"214 284","stars":"3","website":"https://www.campinglepetitbois.fr/"}},"239749382":{"location":[44.481256,4.2543577],"ct":"FR","tp":"CS","ts":"2023-09-21T21:18:57Z","tX":524,"tY":370,"tags":{"capacity:pitches":"50","caravans":"yes","contact:email":"campinglemoulin@orange.fr","contact:phone":"+33 6 80 81 86 44","contact:website":"https://www.camping-le-moulin.fr","fee":"yes","motorhome":"yes","name":"Camping Le Moulin","shower":"yes","static_caravans":"yes","survey:date":"2023-09-04","tents":"yes","toilets":"yes"}},"239917002":{"location":[44.4158133,4.3787025],"ct":"FR","tp":"CS","ts":"2022-02-24T07:23:13Z","tX":524,"tY":370,"tags":{"addr:street":"Chemin du Fez St Martin","contact:facebook":"https://www.facebook.com/DomaineEsquiras/","contact:instagram":"https://www.instagram.com/yvdomaine_esquiras/","email":"esquiras@orange.fr","internet_access":"wlan","name":"Camping l'Esquiras","operator":"Camping l'Esquiras","phone":"+33 4 75 88 04 16","ref":"154 132","stars":"4","swimming_pool":"yes","website":"https://www.camping-esquiras.com","wheelchair":"yes"}},"240248052":{"location":[44.4829013,4.2537169],"ct":"FR","tp":"CS","ts":"2022-02-24T07:23:13Z","tX":524,"tY":370,"tags":{"addr:place":"Le Grillou","contact:facebook":"https://www.facebook.com/CAMPING-LE-GRILLOU-127301780686416/","contact:mobile":"+33 4 75 39 51 50","email":"reception@camping-legrillou.fr","internet_access":"wlan","name":"Camping le Grillou","operator":"Camping le Grillou","phone":"+33 6 83 05 86 29","ref":"119 316","stars":"3","swimming_pool":"yes","website":"https://www.camping-legrillou.fr/"}},"280506817":{"location":[44.4049995,4.3971049],"ct":"FR","tp":"CR","ts":"2024-10-03T21:32:52Z","tX":524,"tY":370,"tags":{"caravan_site":"motorhome_stopover","caravan_site:type":"village","caravans":"no","charge":"9.80 EUR","fee":"yes","maxstay":"nights","name":"Aire de Vallon Pont d'Arc","opening_hours":"24/7","power_supply":"yes","sanitary_dump_station":"yes","seasonal":"no","tents":"no","toilets":"no","water_point":"yes","website":"https://www.gorges-ardeche-pontdarc.fr/hotellerie-plein-air/aire-de-service-accueil-camping-car-communale-vallon-pont-darc/"}},"281297309":{"location":[44.5526298,4.4498268],"ct":"FR","tp":"CS","ts":"2024-04-26T22:54:50Z","tX":524,"tY":370,"tags":{"addr:street":"le Village","name":"Le Bardou","opening_hours":"Mo-Su 07:00-19:30","phone":"+33 4 75 37 71 91","website":"https://www.lebardou.com/"}},"285718156":{"location":[44.3514803,4.4540672],"ct":"FR","tp":"CS","ts":"2023-08-21T14:01:59Z","tX":524,"tY":370,"tags":{"addr:housenumber":"4089","addr:street":"Route du Mas de Serret","caravans":"yes","contact:phone":"+33 4 75 38 42 77","contact:website":"http://www.campingmilletoiles.com","drinking_water":"yes","email":"nadine@campingmilletoiles.com","internet_access":"wlan","name":"Camping Mille Étoiles","nudism":"no","openfire":"no","operator":"Camping Mille Etoiles","phone":"+33 4 75 38 42 77","power_supply":"yes","ref":"145 763","shower":"hot","source":"Bing","source:geometry":"BDTopo IGN","stars":"2","swimming_pool":"no","tents":"yes","toilets":"yes","washing_machine":"yes","website":"http://www.campingmilletoiles.com","wheelchair":"limited"}},"361246610":{"location":[44.5890087,4.5264702],"ct":"FR","tp":"CS","ts":"2022-02-24T07:34:31Z","tX":524,"tY":370,"tags":{"addr:street":"Route de Mirabel","capacity":"144","contact:mobile":"+33 6 08 74 90 82","email":"info@camping-les-arches.com","fee":"no","internet_access":"yes","internet_access:fee":"yes","name":"Camping Les Arches","operator":"Camping Les Arches","phone":"+33 4 75 36 75 19","ref":"119 367","stars":"4","website":"https://www.camping-les-arches.com/","wheelchair":"yes"}},"364877476":{"location":[44.3956405,4.2213734],"ct":"FR","tp":"CS","ts":"2023-10-31T00:06:27Z","tX":524,"tY":370,"tags":{"addr:street":"la rouveyrolle","email":"info@campingrouveyrolle.fr","name":"Camping la Rouveyrolle","operator":"Camping la Rouveyrolle","phone":"+33 4 75 39 00 67","ref":"119 545","stars":"4","website":"https://www.campingrouveyrolle.fr/"}},"364877477":{"location":[44.3904855,4.2319366],"ct":"FR","tp":"CS","ts":"2023-10-31T00:05:51Z","tX":524,"tY":370,"tags":{"addr:place":"Les Lèbres","contact:mobile":"+33 6 75 09 20 54","email":"camping.pontdemaisonneuve@wanadoo.fr","name":"Camping Pont de Maisonneuve","operator":"Camping Pont de Maisonneuve","phone":"+33 4 75 39 39 25","ref":"119 552","stars":"3","website":"https://www.camping-pontdemaisonneuve.com/"}},"364882507":{"location":[44.4053907,4.2194494],"ct":"FR","tp":"CS","ts":"2023-10-31T00:06:05Z","tX":524,"tY":370,"tags":{"email":"campingchauletvillage@wanadoo.fr","name":"Camping Chaulet Village","operator":"Camping Chaulet Village","phone":"+33 4 75 39 31 39","ref":"86 716","stars":"2","website":"https://www.camping-chauletvillage.com/"}},"435116757":{"location":[44.5678686,4.3184137],"ct":"FR","tp":"CS","ts":"2023-11-08T13:51:21Z","tX":524,"tY":370,"tags":{"addr:housenumber":"955","addr:street":"Route de Lande","camp_site":"serviced","capacity":"50","caravans":"yes","contact:mobile":"+33 6 88 32 39 21","drinking_water":"yes","email":"campinglechaudebry@orange.fr","fee":"yes","name":"Camping le Chaudebry","operator":"Camping le Chaudebry","phone":"+33 4 75 36 80 87","ref":"83 418","shower":"yes","stars":"2","tents":"yes","toilets":"yes","website":"https://www.camping-lechaudebry.com/"}},"437195370":{"location":[44.4120462,4.3536105],"ct":"FR","tp":"CS","ts":"2023-10-31T00:05:12Z","tX":524,"tY":370,"tags":{"contact:email":"info@campinglesmazes.com","name":"Les Mazes","phone":"+33 475 371 552","website":"https://www.campinglesmazes.com/"}},"440255964":{"location":[44.4833697,4.240929],"ct":"FR","tp":"CS","ts":"2019-01-24T21:23:04Z","tX":524,"tY":370,"tags":{"name":"Camping le Sablas"}},"440255965":{"location":[44.4854147,4.2391751],"ct":"FR","tp":"CS","ts":"2023-11-08T13:51:19Z","tX":524,"tY":370,"tags":{"addr:place":"Ribeyre - Bouchet","contact:mobile":"+33 6 48 72 60 83","email":"contact@acacias-camp.com","name":"Camping Acacias","operator":"Camping Acacias","phone":"+33 6 87 39 27 55","ref":"119 313","stars":"3","website":"https://www.camping-ardeche-acacias.com/"}},"440255968":{"location":[44.4846362,4.2353762],"ct":"FR","tp":"CS","ts":"2023-11-08T13:51:48Z","tX":524,"tY":370,"tags":{"addr:place":"Quartier la Nouzarède","contact:mobile":"+33 6 81 47 32 16","email":"campingnouzarede@wanadoo.fr","name":"Camping la Nouzarède","operator":"Camping la Nouzaréde","phone":"+33 4 75 39 92 01","ref":"86 602","stars":"3","website":"https://www.camping-nouzarede.fr/"}},"442804915":{"location":[44.5383951,4.4106838],"ct":"FR","tp":"CS","ts":"2023-11-08T13:51:54Z","tX":524,"tY":370,"tags":{"contact:mobile":"+33 6 81 04 66 37","email":"oasisdesgarrigues@wanadoo.fr","name":"Camping l'Oasis des Garrigues","operator":"Camping l'Oasis des Garrigues","phone":"+33 4 75 37 03 27","ref":"61 455","stars":"3","website":"https://www.oasisdesgarrigues.com/"}},"442804917":{"location":[44.5366578,4.4086158],"ct":"FR","tp":"CS","ts":"2024-08-24T08:56:40Z","tX":524,"tY":370,"tags":{"addr:housenumber":"350","addr:street":"Chemin de l'Auzon","caravans":"yes","drinking_water":"yes","email":"girard.jean-jacques@club-internet.fr","name":"Camping les Peupliers","operator":"Camping les Peupliers","phone":"+33 4 75 37 71 47","power_supply":"yes","ref":"119 448","sanitary_dump_station":"yes","shower":"yes","stars":"3","tents":"yes","toilets":"yes","website":"http://www.ardeche-lespeupliers.fr"}},"478068990":{"location":[44.4880811,4.2393231],"ct":"FR","tp":"CS","ts":"2023-11-08T13:51:07Z","tX":524,"tY":370,"tags":{"addr:place":"Ribeyre - Bouchet","camp_site":"basic","email":"campingleshortensias@orange.fr","name":"Camping les Hortensias","operator":"Camping les Hortensias","phone":"+33 4 75 39 91 38","ref":"119 328","stars":"3","website":"https://www.leshortensias.com/"}},"478068991":{"location":[44.4943155,4.2382798],"ct":"FR","tp":"CS","ts":"2021-01-10T22:33:13Z","tX":524,"tY":370,"tags":{"camp_site":"standard","name":"Les Galets","source:geometry":"BDTopo IGN"}},"478068994":{"location":[44.4961786,4.2204773],"ct":"FR","tp":"CS","ts":"2022-02-24T07:34:31Z","tX":524,"tY":370,"tags":{"addr:street":"Route de Valgorge","camp_site":"serviced","contact:mobile":"+33 6 66 34 57 80","email":"bois-simonet@orange.fr","name":"Camping Bois Simonet","operator":"Camping Bois Simonet","phone":"+33 4 75 39 58 60","ref":"119 570","stars":"4","website":"https://www.camping-4-etoiles-ardeche.com/"}},"478068999":{"location":[44.492215,4.2214436],"ct":"FR","tp":"CS","ts":"2019-05-25T20:01:46Z","tX":524,"tY":370,"tags":{"camp_site":"standard"}},"478069006":{"location":[44.4990406,4.2324669],"ct":"FR","tp":"CS","ts":"2023-03-29T20:49:36Z","tX":524,"tY":370,"tags":{"camp_site":"standard","name":"Moulin de Chamandre","phone":"+33 475394313"}},"478069008":{"location":[44.5055565,4.2348931],"ct":"FR","tp":"CS","ts":"2023-03-29T20:53:58Z","tX":524,"tY":370,"tags":{"camp_site":"basic","capacity":"23","caravans":"yes","email":"faure07@wanadoo.fr","name":"L'Escourby","phone":"+33 4 75 39 43 56; +33 6 25 52 87 82","shower":"yes","tents":"yes","toilets":"yes","website":"https://www.camping-escourby-ardeche.com/"}},"478069011":{"location":[44.5081083,4.2242048],"ct":"FR","tp":"CS","ts":"2019-05-25T20:01:48Z","tX":524,"tY":370,"tags":{"camp_site":"basic"}},"478069012":{"location":[44.5208638,4.2332472],"ct":"FR","tp":"CS","ts":"2021-01-10T22:33:13Z","tX":524,"tY":370,"tags":{"camp_site":"basic","name":"Rochepierre"}},"478069013":{"location":[44.4750229,4.2619597],"ct":"FR","tp":"CS","ts":"2023-11-08T13:51:55Z","tX":524,"tY":370,"tags":{"email":"jacques.silhol@wanadoo.fr","name":"Camping le Sous Perret","operator":"Camping le Sous Perret","phone":"+33 4 75 39 50 54","ref":"119 569","stars":"3","website":"https://www.campinglesousperret.com/"}},"478069014":{"location":[44.4740633,4.2660888],"ct":"FR","tp":"CS","ts":"2022-04-13T16:16:14Z","tX":524,"tY":370,"tags":{"addr:housenumber":"210","addr:street":"Impasse des Vernades","camp_site":"basic","fee":"yes","name":"Camping Les Vernades"}},"478069015":{"location":[44.447876,4.3206136],"ct":"FR","tp":"CS","ts":"2024-08-19T17:44:50Z","tX":524,"tY":370,"tags":{"addr:housenumber":"670","addr:street":"Chemin de Chavetourte","camp_site":"standard","caravans":"yes","email":"camping.chavetourte@sfr.fr","name":"Camping le Mas de Chavetourte","operator":"SAS CAMPING DE CHAVETOURTE","phone":"+33 4 75 93 95 83","ref":"98 480","stars":"3","tents":"yes","website":"https://www.chavetourte.com/"}},"478069016":{"location":[44.4485652,4.331863],"ct":"FR","tp":"CS","ts":"2022-09-16T13:01:59Z","tX":524,"tY":370,"tags":{"camp_site":"basic"}},"478069017":{"location":[44.4463162,4.3696049],"ct":"FR","tp":"CS","ts":"2024-12-02T08:17:29Z","tX":524,"tY":370,"tags":{"addr:place":"Quartier le Petit Chaussy","camp_site":"standard","dog":"yes","email":"accchaussy@tohapi.fr","internet_access":"wlan","leisure":"resort","name":"Camping Domaine de Chaussy","operator":"Camping Domaine de Chaussy","phone":"+33 4 75 93 99 66","ref":"214 295","stars":"5","swimming_pool":"yes","washing_machine":"yes","website":"https://www.domainedechaussy.com/"}},"478069018":{"location":[44.4441508,4.3649682],"ct":"FR","tp":"CS","ts":"2024-08-04T14:39:54Z","tX":524,"tY":370,"tags":{"addr:street":"Route de Lagorce","camp_site":"deluxe","caravans":"yes","contact:facebook":"https://www.facebook.com/sunelia.alunavacances/","drinking_water":"yes","email":"contact@alunavacances.fr","name":"Camping Aluna Vacances","operator":"Sunêlia","phone":"+33 4 75 93 93 15","power_supply":"yes","ref":"119 411","sanitary_dump_station":"yes","shower":"yes","source":"https://www.campingfrance.com/recherchez-votre-camping/auvergne-rhone-alpes/ardeche/ruoms/aluna-vacances","stars":"5","swimming_pool":"yes","tents":"yes","toilets":"yes","wash":"yes","website":"https://www.alunavacances.fr/"}},"478069019":{"location":[44.4279503,4.3547625],"ct":"FR","tp":"CS","ts":"2024-06-10T13:44:56Z","tX":524,"tY":370,"tags":{"addr:city":"Sampzon","addr:housenumber":"3319","addr:postcode":"07120","addr:street":"Route du Rocher","caravans":"yes","dog":"yes","email":"leriviera@wanadoo.fr","fee":"yes","internet_access":"wlan","name":"Flower Camping le Riviéra","operator":"Camping le Riviéra","phone":"+33 4 75 39 67 57","ref":"152 124","source":"https://www.campingfrance.com/recherchez-votre-camping/auvergne-rhone-alpes/ardeche/sampzon/le-riviera","stars":"4","static_caravans":"yes","swimming_pool":"yes","tents":"yes","washing_machine":"yes","website":"https://www.campingleriviera.com/"}},"478069022":{"location":[44.4282295,4.3532886],"ct":"FR","tp":"CS","ts":"2022-02-24T07:34:31Z","tX":524,"tY":370,"tags":{"addr:housenumber":"10","addr:street":"Chemin des Pibous","contact:mobile":"+33 4 75 39 76 12","email":"sun.camping@sfr.fr","name":"Camping Sun Camping","operator":"Camping Sun Camping","phone":"+33 6 72 71 42 68","ref":"152 085","source":"https://www.suncamping.com/","stars":"3","website":"https://www.suncamping.com/"}},"478069023":{"location":[44.4257944,4.3529478],"ct":"FR","tp":"CS","ts":"2023-10-31T00:04:54Z","tX":524,"tY":370,"tags":{"contact:mobile":"+33 6 08 98 85 03","email":"reception@campingalohaplage.fr","name":"Camping Aloha Plage - Hip Village","operator":"Camping Aloha Plage","phone":"+33 4 75 39 67 62","ref":"154 005","source":"www.campingalohaplage.fr","stars":"4","swimming_pool":"yes","website":"https://www.campingalohaplage.fr/"}},"478069024":{"location":[44.4119968,4.3492764],"ct":"FR","tp":"CS","ts":"2024-10-09T07:16:48Z","tX":524,"tY":370,"tags":{"addr:place":"Les Mazes","camp_site":"serviced","email":"camping.arcenciel@wanadoo.fr","name":"Camping Arc en Ciel","opening_hours":"Mo-Fr 09:00-18:00; Sa 09:00-13:00","operator":"Ciela Village","phone":"+33 4 75 88 04 65","ref":"154 081","ref:FR:SIRET":"41955534700014","stars":"3","website":"https://www.campingarcencielardeche.com/"}},"478069025":{"location":[44.4081446,4.3539518],"ct":"FR","tp":"CS","ts":"2024-06-24T22:38:22Z","tX":524,"tY":370,"tags":{"addr:street":"Les Mazes","caravans":"yes","contact:email":"info@laplagefleurie.com","contact:phone":"+33 4 75 88 01 15","contact:website":"https://www.laplagefleurie.com/","email":"info@laplagefleurie.com","name":"Camping la Plage Fleurie","operator":"Camping la Plage Fleurie","phone":"+33 4 75 88 01 15","ref":"144 455","stars":"5","swimming_pool":"yes","tents":"yes","website":"https://www.laplagefleurie.com/"}},"478069026":{"location":[44.4061543,4.363771],"ct":"FR","tp":"CS","ts":"2023-10-31T00:05:40Z","tX":524,"tY":370,"tags":{"addr:place":"Les Mazes","camp_site":"standard","email":"campingbeaurivage@wanadoo.fr","name":"Camping Beau Rivage","operator":"Camping Beau Rivage","phone":"+33 4 75 88 03 54","ref":"154 074","stars":"4","website":"https://www.beaurivage-camping.fr/"}},"499846422":{"location":[44.4049762,4.386809],"ct":"FR","tp":"CS","ts":"2022-02-24T07:34:31Z","tX":524,"tY":370,"tags":{"capacity":"25","contact:email":"campingletorrent@gmail.com","internet_access":"no","name":"Camping le Torrent","operator":"Camping ferme VINCENT","phone":"+33 4 75 88 02 22","website":"https://camping-letorrent.com/"}},"505923411":{"location":[44.3568365,4.3829776],"ct":"FR","tp":"CS","ts":"2023-10-31T00:05:15Z","tX":524,"tY":370,"tags":{"addr:place":"La Goule","contact:mobile":"+33 4 75 38 61 24","email":"campinglagoule@gmail.com","name":"Camping la Goule","operator":"Camping la Goule","phone":"+33 6 29 91 53 34","ref":"188 115","stars":"3","website":"https://www.campinglagoule.com/"}},"515980157":{"location":[44.4255689,4.4235784],"ct":"FR","tp":"CS","ts":"2022-02-24T07:34:31Z","tX":524,"tY":370,"tags":{"addr:place":"Vallée de l'Ibie","contact:mobile":"+33 4 75 37 16 61","email":"dominiqueroume@wanadoo.fr;camping.coucouzac@wanadoo.fr","fee":"yes","internet_access":"wlan","name":"Camping le Coucouzac","operator":"Camping à la ferme de Coucouzac","phone":"+33 6 29 57 93 85","ref":"145 786","stars":"2","website":"https://www.domainedecoucouzac.fr/"}},"562242056":{"location":[44.4011826,4.2216628],"ct":"FR","tp":"CS","ts":"2023-06-01T20:06:20Z","tX":524,"tY":370,"tags":{"addr:place":"Casteljau","caravans":"yes","contact:mobile":"+33 6 75 08 76 13","drinking_water":"yes","email":"info@pousadou.fr","name":"Camping le Pousadou","operator":"Camping le Pousadou","phone":"+33 4 75 39 04 05","power_supply":"yes","ref":"309 840","shower":"yes","stars":"2","tents":"yes","toilets":"yes","website":"http://www.pousadou.fr"}},"563953566":{"location":[44.5065889,4.3221438],"ct":"FR","tp":"CS","ts":"2023-11-08T13:51:13Z","tX":524,"tY":370,"tags":{"addr:place":"Quartier Fontane","contact:mobile":"+33 6 75 07 05 96","email":"camping-la-turelure@orange.fr","name":"Camping la Turelure","operator":"Camping la Turelure","phone":"+33 4 75 89 29 21","ref":"147 446","stars":"3","website":"https://www.camping-la-turelure.com/"}},"575116201":{"location":[44.5206974,4.3039203],"ct":"FR","tp":"CS","ts":"2020-10-24T21:03:00Z","tX":524,"tY":370,"tags":{"email":"raoul.arroyo@orange.fr","fax":"+33 4 75 36 83 54","internet_access":"yes","internet_access:fee":"no","name":"Camping La Prade","phone":"+33 4 75 36 83 54","smoking":"yes","stars":"2","website":"http://www.camping-laprade-ardeche.com/","wheelchair":"yes"}},"619504456":{"location":[44.459125,4.3409571],"ct":"FR","tp":"CS","ts":"2023-10-31T00:06:56Z","tX":524,"tY":370,"tags":{"addr:street":"Chemin de l'Espédes","contact:mobile":"+33 684154285","email":"contact@campinglespaillotes.com","name":"Camping les Paillotes en Ardèche","operator":"Camping les Paillotes","phone":"+33 4 75 39 62 05","ref":"100 487","stars":"4","website":"https://www.campinglespaillotes.com/"}},"619507226":{"location":[44.4241169,4.3321836],"ct":"FR","tp":"CS","ts":"2022-02-24T07:34:31Z","tX":524,"tY":370,"tags":{"email":"grandterre@wanadoo.fr","name":"Camping la Grand'Terre","operator":"Camping la Grand' Terre","phone":"+33 4 75 39 64 94","ref":"119 332","source":"https://www.campingfrance.com/recherchez-votre-camping/auvergne-rhone-alpes/ardeche/ruoms/la-grandterre#gen-service-1","stars":"3","website":"http://www.camping-lagrandterre.com"}},"619508187":{"location":[44.4263761,4.3362438],"ct":"FR","tp":"CS","ts":"2023-10-31T00:04:27Z","tX":524,"tY":370,"tags":{"email":"info@yellohvillage-la-plaine.com","internet_access":"wlan","name":"Camping Yelloh Village la Plaine","operator":"Camping Yelloh Village La Plaine","phone":"+33 4 75 39 65 83","ref":"179 156","stars":"5","website":"https://www.camping-la-plaine.com/"}},"619509138":{"location":[44.4259777,4.3279498],"ct":"FR","tp":"CS","ts":"2023-10-31T00:04:42Z","tX":524,"tY":370,"tags":{"addr:housenumber":"10","addr:street":"Chemin Fay et Carpenty","email":"contact@lecarpenty.com","internet_access":"wlan","name":"Camping le Carpenty","operator":"Camping le Carpenty","phone":"+33 4 75 39 74 29","ref":"98 507","source":"https://www.campingfrance.com/recherchez-votre-camping/auvergne-rhone-alpes/ardeche/ruoms/le-carpenty","stars":"3","washing_machine":"yes","website":"https://www.camping-ruoms-ardeche.com/"}},"619889457":{"location":[44.4729572,4.270023],"ct":"FR","tp":"CS","ts":"2023-10-31T00:06:12Z","tX":524,"tY":370,"tags":{"addr:place":"Les Vernades","contact:mobile":"+33 6 78 26 42 19","name":"Camping les Oliviers","operator":"Camping les Oliviers","phone":"+33 4 75 39 55 42","ref":"119 330","stars":"2","website":"https://www.camping-lesoliviers.fr/"}},"621297940":{"location":[44.4861554,4.2667818],"ct":"FR","tp":"CS","ts":"2023-11-08T13:51:41Z","tX":524,"tY":370,"tags":{"contact:mobile":"+33 6 08 04 15 10","email":"campinglaplaine@orange.fr","name":"Camping la Plaine","operator":"Camping la Plaine","phone":"+33 4 75 39 51 35","ref":"119 317","stars":"4","website":"https://www.campinglaplaine.fr/"}},"623080001":{"location":[44.4048609,4.2209578],"ct":"FR","tp":"CS","ts":"2022-02-24T07:34:31Z","tX":524,"tY":370,"tags":{"access":"customers","capacity":"12","internet_access":"no","name":"Camping rural les Amandiers"}},"624488529":{"location":[44.3912253,4.5126497],"ct":"FR","tp":"CS","ts":"2022-02-24T07:34:31Z","tX":524,"tY":370,"tags":{"addr:place":"Quartier Gourdaud","email":"carrefourardeche@yahoo.fr","name":"Camping Carrefour de l'Ardèche","operator":"Camping Carrefour de l'Ardèche","phone":"+33 4 75 04 15 75","ref":"145 861","stars":"3","website":"http://www.ardechecamping.net"}},"624717979":{"location":[44.4369069,4.3407274],"ct":"FR","tp":"CS","ts":"2019-08-28T16:52:52Z","tX":524,"tY":370,"tags":{"name":"Le Mas du Barry","phone":"+33442542925","source":"https://www.campingfrance.com/recherchez-votre-camping/auvergne-rhone-alpes/ardeche/ruoms/le-mas-du-barry","washing_machine":"yes"}},"626204164":{"location":[44.4469534,4.3294716],"ct":"FR","tp":"CS","ts":"2018-09-17T13:05:55Z","tX":524,"tY":370,"tags":{"caravans":"yes","name":"Camping du Vieux Pont","tents":"yes"}},"626212370":{"location":[44.4343755,4.3140677],"ct":"FR","tp":"CS","ts":"2022-02-24T07:34:31Z","tX":524,"tY":370,"tags":{"contact:mobile":"+33 4 75 89 19 95","email":"masdusartre@wanadoo.fr","name":"Camping le Mas du Sartre","operator":"Camping le Mas du Sartre","phone":"+33 4 75 39 71 74","ref":"163 193","stars":"3","website":"http://www.camping-mas-du-sartre-07.com"}},"629185050":{"location":[44.5590949,4.2864463],"ct":"FR","tp":"CS","ts":"2022-03-11T14:12:43Z","tX":524,"tY":370,"tags":{"addr:street":"Route de Rocher","email":"reception@lesranchisses.fr","fax":"+33 4 75 88 32 73","name":"Camping Domaine Les Ranchisses","operator":"Sunêlia","phone":"+33 4 75 88 31 97","ref":"172 112","stars":"5","website":"https://www.lesranchisses.fr/"}},"631270498":{"location":[44.5000456,4.3058369],"ct":"FR","tp":"CS","ts":"2024-08-13T15:48:18Z","tX":524,"tY":370,"tags":{"addr:housenumber":"610","addr:street":"Chemin de Saint-Amant","caravans":"yes","drinking_water":"yes","email":"st-amand@wanadoo.fr","name":"Flower Camping Saint Amand","operator":"Camping Saint Amand","phone":"+33 4 75 36 84 45","ref":"119 598","shower":"yes","stars":"3","tents":"yes","website":"https://www.campingsaintamand.com/"}},"682727483":{"location":[44.3756287,4.4214944],"ct":"FR","tp":"CS","ts":"2023-10-31T00:06:52Z","tX":524,"tY":370,"tags":{"addr:street":"Route des Gorges","caravans":"yes","drinking_water":"yes","email":"ardbat@yahoo.fr","name":"Camping la Rouvière","operator":"Camping La Rouvière","phone":"+33 4 75 37 10 07","power_supply":"yes","ref":"154 126","shower":"yes","stars":"3","tents":"yes","toilets":"yes","website":"https://www.campinglarouviere.com/"}},"685389625":{"location":[44.3848267,4.406461],"ct":"FR","tp":"CS","ts":"2023-07-09T15:31:41Z","tX":524,"tY":370,"tags":{"capacity":"100","name":"Les Blacha","shower":"yes"}},"729827410":{"location":[44.5333711,4.4112137],"ct":"FR","tp":"CS","ts":"2023-11-08T13:51:58Z","tX":524,"tY":370,"tags":{"addr:housenumber":"725","addr:street":"Chemin de l'Auzon","capacity":"76","caravans":"yes","internet_access":"wlan","name":"Camping GCU de Saint-Maurice-d'Ardèche","operator":"Groupement des Campeurs Universitaires","phone":"+33 4 75 37 79 52","stars":"2","tents":"yes","website":"https://www.gcu.asso.fr/","wheelchair":"yes"}},"761095500":{"location":[44.4858633,4.3735331],"ct":"FR","tp":"CS","ts":"2023-11-08T13:51:42Z","tX":524,"tY":370,"tags":{"addr:housenumber":"1050","addr:street":"Chemin des Digues","contact:mobile":"+33 4 75 39 78 73","email":"campinglecoincharmant@orange.fr","name":"Camping le Coin Charmant","operator":"Camping le Coin Charmant","phone":"+33 6 46 41 48 03","ref":"94 656","stars":"3","website":"https://www.camping-lecoincharmant-ardeche.com/"}},"761095502":{"location":[44.4109246,4.3502951],"ct":"FR","tp":"CS","ts":"2023-10-31T00:04:23Z","tX":524,"tY":370,"tags":{"addr:place":"Les Mazes","email":"reza@camping-bonhomme.com","name":"Camping Bonhomme","operator":"Camping Bonhomme","phone":"+33 4 75 88 04 62","ref":"154 104","stars":"3","website":"https://www.camping-bonhomme.com/"}},"761095504":{"location":[44.3763207,4.4261397],"ct":"FR","tp":"CS","ts":"2023-10-31T00:06:41Z","tX":524,"tY":370,"tags":{"addr:street":"Route des Gorges","email":"campdgorge@aol.com","name":"Camping le Camp des Gorges","operator":"Camping Camp des Gorges","phone":"+33 4 75 88 00 05","ref":"153 981","stars":"2","website":"https://www.camping-camp-des-gorges.com/"}},"761095513":{"location":[44.4073471,4.517084],"ct":"FR","tp":"CS","ts":"2023-10-31T00:05:48Z","tX":524,"tY":370,"tags":{"addr:street":"Route de Gras","contact:mobile":"+33 6 16 58 58 13","email":"contact@campingdebriange.com","name":"Camping Domaine de Briange","operator":"Camping Domaine de Briange","phone":"+33 4 75 04 14 43","ref":"145 924","stars":"3","website":"https://www.campingdebriange.com/"}},"761095514":{"location":[44.4666828,4.4141053],"ct":"FR","tp":"CS","ts":"2024-06-18T19:52:34Z","tX":524,"tY":370,"tags":{"addr:place":"Quartier Chadeyron","caravans":"yes","contact:mobile":"+33 6 78 56 56 69","drinking_water":"yes","email":"infos@campingchadeyron.com","name":"Camping Domaine de Chadeyron","operator":"Camping Domaine de Chadeyron","phone":"+33 4 75 88 04 81","power_supply":"yes","ref":"214 287","sanitary_dump_station":"yes","shower":"yes","stars":"4","tents":"yes","toilets":"yes","website":"https://www.campingchadeyron.com/"}},"761095518":{"location":[44.4368719,4.4298848],"ct":"FR","tp":"CS","ts":"2023-10-31T00:05:01Z","tX":524,"tY":370,"tags":{"addr:place":"Vallée de l'Ibie","email":"contact@camping-ibie.com","name":"Camping Ibie","operator":"Camping Ibie","phone":"+33 4 75 88 01 26","ref":"145 796","stars":"3","website":"https://www.camping-ibie.com/"}},"761095519":{"location":[44.4083019,4.2947497],"ct":"FR","tp":"CS","ts":"2022-02-24T07:34:34Z","tX":524,"tY":370,"tags":{"email":"oasiscamping@yahoo.fr","name":"Camping l'Oasis","operator":"Camping l'Oasis","phone":"+33 4 75 89 72 01","ref":"153 652","stars":"2"}},"761095522":{"location":[44.567226,4.2301937],"ct":"FR","tp":"CS","ts":"2023-11-08T13:51:15Z","tX":524,"tY":370,"tags":{"addr:street":"Route de Valgorge","capacity":"55","email":"reception@lamarette.com","name":"Camping la Marette","operator":"Camping la Marette","phone":"+33 4 75 88 38 88","ref":"133 320","stars":"3","website":"https://www.lamarette.com/"}},"761095523":{"location":[44.3425952,4.347614],"ct":"FR","tp":"CS","ts":"2023-10-31T00:04:58Z","tX":524,"tY":370,"tags":{"addr:place":"La Rouvière","email":"campinglarouvierelespins@gmail.com","name":"Camping la Rouvière les Pins","operator":"Camping la Rouvière les Pins","phone":"+33 4 75 38 61 41","ref":"153 989","stars":"3","website":"https://www.rouviere07.com/"}},"761095525":{"location":[44.3960654,4.3793365],"ct":"FR","tp":"CS","ts":"2023-10-31T00:04:46Z","tX":524,"tY":370,"tags":{"addr:housenumber":"580","addr:street":"Route de Barjac","contact:mobile":"+33 6 81 29 46 25","email":"casqueroi@orange.fr","name":"Camping Casque Roi","operator":"Camping le Casque Roi","phone":"+33 4 75 88 04 23","ref":"152 021","stars":"3","website":"https://www.camping-casqueroi.com/"}},"761095528":{"location":[44.4223877,4.3469884],"ct":"FR","tp":"CS","ts":"2023-10-31T00:04:30Z","tX":524,"tY":370,"tags":{"addr:place":"Les Trouillères","email":"camping.masdelasource@wanadoo.fr","name":"Camping le Mas de la Source","operator":"Camping le Mas de la Source","phone":"+33 4 75 39 67 98","ref":"152 080","stars":"3","website":"https://www.campingmasdelasource.com/"}},"761095531":{"location":[44.3910804,4.3978445],"ct":"FR","tp":"CS","ts":"2023-10-31T00:05:33Z","tX":524,"tY":370,"tags":{"addr:place":"Le Cros","contact:mobile":"+33 6 72 43 78 54","email":"info@lepequelet.com","name":"Camping le Pequelet","operator":"Camping le Pequelet","phone":"+33 4 75 88 04 49","ref":"152 105","source":"cadastre-dgi-fr source : Direction Générale des Impôts - Cadastre. Mise à jour : 2010","stars":"3","website":"https://www.lepequelet.com/"}},"761095533":{"location":[44.5591395,4.2385782],"ct":"FR","tp":"CS","ts":"2023-11-08T13:51:34Z","tX":524,"tY":370,"tags":{"addr:street":"Route de Valgorge","email":"campingleroubreau@gmail.com","name":"Camping le Roubreau","operator":"Camping le Roubreau","phone":"+33 4 75 88 32 07","ref":"133 319","stars":"3","website":"https://www.leroubreau.com/"}},"761095534":{"location":[44.4998572,4.2724854],"ct":"FR","tp":"CS","ts":"2024-06-30T04:06:36Z","tX":524,"tY":370,"tags":{"addr:place":"Le Saut du loup","contact:mobile":"+33 6 82 37 01 17","email":"contact@campinglesautduloup.com","name":"Camping le Saut du Loup","operator":"Camping le Saut du Loup","phone":"+33 4 75 35 05 23","ref":"119 314","stars":"2","website":"https://www.campinglesautduloup.com/"}},"761095536":{"location":[44.4900646,4.4746455],"ct":"FR","tp":"CS","ts":"2024-06-30T04:07:16Z","tX":524,"tY":370,"tags":{"addr:street":"Les Plots","contact:mobile":"+33 6 75 54 87 80","email":"camping.lesousbois@wanadoo.fr","name":"Camping le Sous Bois","operator":"SARL JMS Loisirs","phone":"+33 4 75 94 86 95","ref":"156 572","stars":"3","website":"https://www.le-sous-bois.fr/"}},"761095538":{"location":[44.5447612,4.4200404],"ct":"FR","tp":"CS","ts":"2023-11-08T13:51:28Z","tX":524,"tY":370,"tags":{"addr:place":"Champ Redon","contact:mobile":"+33 6 75 87 99 12","email":"chenesverts2@wanadoo.fr","name":"Camping les Chênes Verts","operator":"Camping les Chênes Verts","phone":"+33 4 75 37 71 54","ref":"102 481","stars":"3","website":"https://camping-chenesverts.com/"}},"761095542":{"location":[44.3487851,4.3776468],"ct":"FR","tp":"CS","ts":"2022-02-24T07:34:34Z","tX":524,"tY":370,"tags":{"contact:mobile":"+33 6 86 95 79 22","email":"info@camping-parc-st-sauvayre.com","name":"Camping Parc St Sauvayre","operator":"Camping Parc St Sauvayre","phone":"+33 4 75 38 61 51","ref":"153 996","stars":"2","website":"https://www.camping-parc-st-sauvayre.com"}},"761343763":{"location":[44.3677094,4.3708701],"ct":"FR","tp":"CS","ts":"2022-02-24T07:34:34Z","tX":524,"tY":370,"tags":{"addr:housenumber":"145","addr:street":"Route d'Orgnac","description":"Village de vacances avec cabanes, huttes...","name":"Huttopia Sud Ardèche","operator":"Huttopia","phone":"+33 4 75 38 77 27","stars":"3","website":"https://europe.huttopia.com/site/village-sud-ardeche/"}},"761344175":{"location":[44.3937984,4.3954563],"ct":"FR","tp":"CS","ts":"2022-02-24T07:34:34Z","tX":524,"tY":370,"tags":{"addr:housenumber":"280","addr:street":"Chemin de la Vernède","email":"contact@camping-le-clapas.com","name":"Camping le Clapas","operator":"Camping le Clapas","phone":"+33 4 75 37 14 76","ref":"152 003","stars":"3","website":"https://www.camping-le-clapas.com/"}},"761349340":{"location":[44.4001771,4.4018637],"ct":"FR","tp":"CS","ts":"2023-10-31T00:05:22Z","tX":524,"tY":370,"tags":{"addr:street":"Route des Gorges","email":"campingvieuxvallon07@gmail.com","name":"Camping le Vieux Vallon","operator":"Camping le Vieux Vallon","phone":"+33 4 75 88 01 47","ref":"153 850","stars":"3","website":"https://www.campingvieuxvallon.com/"}},"761350528":{"location":[44.4758285,4.420495],"ct":"FR","tp":"CS","ts":"2022-02-24T07:34:34Z","tX":524,"tY":370,"tags":{"email":"info@camping-les-silhols.com","internet_access":"yes","name":"Camping les Silhols","operator":"Camping les Silhols","phone":"+33 4 75 87 50 64","ref":"145 909","stars":"2","swimming_pool":"yes","website":"http://www.camping-les-silhols.com"}},"894052703":{"location":[44.5127039,4.3754909],"ct":"FR","tp":"CS","ts":"2021-01-10T22:33:13Z","tX":524,"tY":370,"tags":{"description":"Aire naturelle","name":"Camping aire naturelle Servière","short_name":"Servière","source:geometry":"BDTopo IGN"}},"894052705":{"location":[44.3943784,4.4921178],"ct":"FR","tp":"CS","ts":"2021-01-10T22:33:13Z","tX":524,"tY":370,"tags":{"name":"Camping du Bourboulet","short_name":"BDTopo IGN"}},"894052706":{"location":[44.3418982,4.4696967],"ct":"FR","tp":"CS","ts":"2022-07-25T16:36:53Z","tX":524,"tY":370,"tags":{"name":"Bivouac de Gournier","source":"BDTopo IGN"}},"894052708":{"location":[44.3901164,4.4982201],"ct":"FR","tp":"CS","ts":"2021-01-10T22:33:13Z","tX":524,"tY":370,"tags":{"name":"Camping du Lavoir","source":"BDTopo IGN"}},"894052710":{"location":[44.3587526,4.452514],"ct":"FR","tp":"CS","ts":"2022-06-20T19:30:15Z","tX":524,"tY":370,"tags":{"name":"Bivouac de Gaud","source:geometry":"BDTopo IGN"}},"894052712":{"location":[44.397401,4.2916628],"ct":"FR","tp":"CS","ts":"2021-01-10T22:33:13Z","tX":524,"tY":370,"tags":{"name":"Les Chadenèdes","source":"BDTopo IGN"}},"894052713":{"location":[44.4232033,4.3490687],"ct":"FR","tp":"CS","ts":"2021-01-10T22:33:13Z","tX":524,"tY":370,"tags":{"description":"Aire naturelle","name":"Camping aire naturelle Les Trouillères","short_name":"Les Trouillères","source:geometry":"BDTopo IGN"}},"894052714":{"location":[44.418204,4.4002353],"ct":"FR","tp":"CS","ts":"2021-01-10T22:33:13Z","tX":524,"tY":370,"tags":{"description":"Aire naturelle","name":"Aire Naturelle de l'Abeille","source":"BDTopo IGN"}},"894052716":{"location":[44.4010706,4.3807558],"ct":"FR","tp":"CS","ts":"2022-06-08T11:45:51Z","tX":524,"tY":370,"tags":{"name":"Camping Le Moulin","source:geometry":"BDTopo IGN"}},"894052717":{"location":[44.3944872,4.3929541],"ct":"FR","tp":"CS","ts":"2024-12-04T12:35:35Z","tX":524,"tY":370,"tags":{"description":"Aire naturelle","name":"Aire Naturelle la Vernède","source":"BDTopo IGN"}},"894052720":{"location":[44.4946017,4.2444099],"ct":"FR","tp":"CS","ts":"2021-01-10T22:33:13Z","tX":524,"tY":370,"tags":{"description":"Aire naturelle","name":"Aire naturelle Le Bosc","source":"BDTopo IGN"}},"894052726":{"location":[44.5481839,4.4216279],"ct":"FR","tp":"CS","ts":"2023-09-18T15:49:31Z","tX":524,"tY":370,"tags":{"caravans":"no","name":"Les Roulottes de Saint-Cerice","source":"BDTopo IGN","tents":"no"}},"894052729":{"location":[44.3749092,4.2684536],"ct":"FR","tp":"CS","ts":"2021-01-10T22:33:13Z","tX":524,"tY":370,"tags":{"name":"Les Terrasses du Rouret","source":"BDTopo IGN"}},"894052735":{"location":[44.5038067,4.2948405],"ct":"FR","tp":"CS","ts":"2023-11-08T13:52:01Z","tX":524,"tY":370,"tags":{"addr:housenumber":"515","addr:street":"Route de Rabette","contact:mobile":"+33 6 30 81 66 38","email":"chataigniers07@orange.fr","name":"Camping les Châtaigniers","operator":"Camping les Châtaigniers","phone":"+33 4 75 36 86 26","ref":"119 597","source:geometry":"BDTopo IGN","stars":"3","website":"https://www.chataigniers-laurac.com/"}},"894052736":{"location":[44.4298671,4.3173322],"ct":"FR","tp":"CS","ts":"2021-01-10T22:33:13Z","tX":524,"tY":370,"tags":{"name":"Le Confluent","source":"BDTopo IGN"}},"894052739":{"location":[44.414142,4.2727408],"ct":"FR","tp":"CS","ts":"2024-08-26T19:14:47Z","tX":524,"tY":370,"tags":{"addr:housenumber":"500","addr:street":"Chemin du Ranc Davaine","email":"contact@rancdavaine.fr","name":"Yelloh! Village Le Ranc Davaine","operator":"Yelloh! Village","phone":"+33 4 75 39 60 55","ref":"119 413","source:geometry":"BDTopo IGN","stars":"5","website":"https://www.camping-ranc-davaine.fr/"}},"894052740":{"location":[44.442586,4.3364287],"ct":"FR","tp":"CS","ts":"2021-01-10T22:33:13Z","tX":524,"tY":370,"tags":{"name":"La Savane","source":"BDTopo IGN"}},"894052744":{"location":[44.5228816,4.3014751],"ct":"FR","tp":"CS","ts":"2021-01-10T22:33:13Z","tX":524,"tY":370,"tags":{"email":"domainedejossoin@gmail.com","name":"Camping Domaine de Jossoin","phone":"+33 4 75 89 22 86","source:geometry":"BDTopo IGN","website":"http://www.campingenardeche.com"}},"894052745":{"location":[44.4002433,4.3730193],"ct":"FR","tp":"CS","ts":"2021-01-10T22:33:13Z","tX":524,"tY":370,"tags":{"name":"Le Micocoulier","source":"BDTopo IGN"}},"894052747":{"location":[44.5674737,4.2475637],"ct":"FR","tp":"CS","ts":"2021-01-10T22:33:13Z","tX":524,"tY":370,"tags":{"name":"La Combe","source":"BDTopo IGN"}},"894052753":{"location":[44.5637608,4.4619744],"ct":"FR","tp":"CS","ts":"2024-08-10T19:01:27Z","tX":524,"tY":370,"tags":{"addr:housenumber":"505","addr:street":"Route du Viaduc","email":"sarlcampinglesrivesdauzon@bbox.fr","name":"Camping les Rives d'Auzon","operator":"Camping les Rives d'Auzon","phone":"+33 4 75 94 70 64","ref":"91 433","source:geometry":"BDTopo IGN","stars":"3","website":"https://www.camping-ardeche-07.fr/"}},"894052754":{"location":[44.5382918,4.2490362],"ct":"FR","tp":"CS","ts":"2021-01-10T22:33:13Z","tX":524,"tY":370,"tags":{"source":"BDTopo IGN"}},"894052756":{"location":[44.4085248,4.4014636],"ct":"FR","tp":"CS","ts":"2021-01-10T22:33:13Z","tX":524,"tY":370,"tags":{"name":"Le Razal","source":"BDTopo IGN"}},"894052758":{"location":[44.5005276,4.3183988],"ct":"FR","tp":"CS","ts":"2022-02-24T07:34:34Z","tX":524,"tY":370,"tags":{"addr:housenumber":"915","addr:street":"Route de Ruoms","contact:phone":"+33 4 75 89 99 24","name":"Le Moulinage","source":"BDTopo IGN","website":"https://www.ardeche-camping.com/"}},"894052759":{"location":[44.4099745,4.5161155],"ct":"FR","tp":"CS","ts":"2021-01-10T22:33:13Z","tX":524,"tY":370,"tags":{"name":"Bois & Cailloux","source":"BDTopo IGN"}},"894052761":{"location":[44.4904395,4.3629122],"ct":"FR","tp":"CS","ts":"2023-11-08T13:51:23Z","tX":524,"tY":370,"tags":{"addr:housenumber":"420","addr:street":"Route du Boulodrome","email":"leschenes07@gmail.com","name":"Camping les Chênes","operator":"Camping les Chênes","phone":"+33 6 72 71 52 69","ref":"88 997","source:geometry":"BDTopo IGN","stars":"2","website":"https://www.campingleschenes07.com/"}},"894052765":{"location":[44.4007635,4.2735562],"ct":"FR","tp":"CS","ts":"2021-01-10T22:33:13Z","tX":524,"tY":370,"tags":{"source":"BDTopo IGN"}},"894052774":{"location":[44.5429059,4.4149164],"ct":"FR","tp":"CS","ts":"2023-11-08T13:52:03Z","tX":524,"tY":370,"tags":{"addr:place":"Quartier Bausson","email":"contact@campinglesroches.fr","name":"Camping les Roches","operator":"Camping les Roches","phone":"+33 4 75 37 70 45","ref":"303 394","source:geometry":"BDTopo IGN","stars":"1","website":"https://www.campinglesroches.fr/"}},"894052776":{"location":[44.4254096,4.3014496],"ct":"FR","tp":"CS","ts":"2021-01-10T22:33:13Z","tX":524,"tY":370,"tags":{"name":"Camping graverolles","source":"local knowledge","source:geometry":"BDTopo IGN"}},"906828566":{"location":[44.3954126,4.5060293],"ct":"FR","tp":"CR","ts":"2024-10-03T21:27:49Z","tX":524,"tY":370,"tags":{"access":"yes","addr:street":"La Boulade","capacity":"6","caravan_site":"motorhome_stopover","caravan_site:type":"winery","caravans":"no","fee":"no","motorcar":"yes","name":"Aire de service à Saint-Remèze","operator":"Ville de Saint-Remèze","power_supply":"no","sanitary_dump_station":"yes","sanitary_dump_station:chemical_toilet":"yes","sanitary_dump_station:grey_water":"yes","sanitary_dump_station:round_drain":"yes","supervised":"no","water_point":"yes"}},"1090854656":{"location":[44.4283336,4.3005024],"ct":"FR","tp":"CR","ts":"2024-10-05T22:38:55Z","tX":524,"tY":370,"tags":{"caravan_site":"motorhome_stopover","caravan_site:type":"village","fee":"no","name":"Aire camping-car Saint-Alban-Auriolles","opening_hours":"24/7","sanitary_dump_station":"no","seasonal":"no","water_point":"yes"}},"1123542660":{"location":[44.5626333,4.5038978],"ct":"FR","tp":"CR","ts":"2024-06-27T13:36:03Z","tX":524,"tY":370,"tags":{"capacity":"10","caravan_site":"motorhome_stopover","caravan_site:type":"village","fee":"no","name":"Aire de camping-cars Villeneuve-de-Berg","power_supply":"no","sanitary_dump_station":"yes","surface":"gravel"}},"1284261535":{"location":[44.4425142,4.4115096],"ct":"FR","tp":"CR","ts":"2024-05-17T23:36:22Z","tX":524,"tY":370,"tags":{"bbq":"no","capacity":"16","caravan_site":"motorhome_stopover","caravan_site:type":"countryside","caravans":"no","charge":"12.66 EUR","dog":"leashed","fee":"yes","internet_access":"wlan","maxlength":"none","name":"Aire de Lagorce","network":"CAMPING-CAR PARK","operator":"CAMPING-CAR PARK","power_supply":"yes","power_supply:capacity":"20","power_supply:maxcurrent":"6","sanitary_dump_station":"yes","tents":"no","trailer":"no","water_point":"yes","website":"https://www.campingcarpark.com/en_GB/stay/stopover-site-motorhome/auvergne-rhone-alpes/07-ardeche/lagorce"}},"1285646440":{"location":[44.4263338,4.3452034],"ct":"FR","tp":"CR","ts":"2024-05-22T15:30:54Z","tX":524,"tY":370,"tags":{"bbq":"no","caravan_site":"motorhome_stopover","caravan_site:type":"countryside","caravans":"no","charge":"14.66 EUR","charge:conditional":"12.96 @ (Oct-Mar)","dog":"leashed","fee":"32","internet_access":"wlan","maxlength":"none","name":"Aire Camping-Car Park Sampzon","network":"CAMPING-CAR PARK","power_supply":"yes","power_supply:capacity":"32","power_supply:maxcurrent":"6","sanitary_dump_station":"yes","tents":"no","trailer":"yes","water_point":"yes","website":"https://www.campingcarpark.com/fr_FR/sejour/aire-etape-camping-car/auvergne-rhone-alpes/07-ardeche/sampzon"}},"1304332929":{"location":[44.415029,4.2791878],"ct":"FR","tp":"CS","ts":"2024-08-25T02:45:08Z","tX":524,"tY":370,"tags":{"access":"private","caravans":"yes","description":"Aire de camping pour les bénévoles de l’archéosite.","openfire":"no","operator":"Randa Ardesca","tents":"yes"}},"1474176890":{"location":[44.4194281,4.295966],"ct":"FR","tp":"CS","ts":"2020-12-20T21:03:03Z","tX":524,"tY":370,"tags":{"name":"Camping de la Barque"}},"1475096650":{"location":[44.4191092,4.2953501],"ct":"FR","tp":"CS","ts":"2021-01-10T22:33:13Z","tX":524,"tY":370,"tags":{"name":"Camping de la Barque","source":"local knowlegde"}},"2266896814":{"location":[44.538389,4.2918284],"ct":"FR","tp":"CR","ts":"2024-10-31T10:31:44Z","tX":524,"tY":370,"tags":{"caravan_site":"motorhome_stopover","caravan_site:type":"supermarket","drinking_water":"no","fee":"no","internet_access":"no","name":"Carrefour - Largentière","power_supply":"no","sanitary_dump_station":"yes","seasonal":"no","surface":"asphalt","toilets":"yes","website":"https://www.tourisme-valdeligne.fr/camping/aire-de-service-communal-pour-camping-car/"}},"3627403687":{"location":[44.4501379,4.3341391],"ct":"FR","tp":"CS","ts":"2018-08-24T17:10:56Z","tX":524,"tY":370,"tags":{"name":"Camping l'Adrénaline"}},"7110872222":{"location":[44.5120563,4.378911],"ct":"FR","tp":"CS","ts":"2023-11-08T13:52:02Z","tX":524,"tY":370,"tags":{"addr:place":"Le Servière","email":"leserviere@free.fr","name":"Le Servière - Cabanes Lodges","operator":"Camping Le Servière - Lodges","phone":"+33 6 48 06 85 11","ref":"4 646 142","stars":"2","website":"https://www.le-serviere.com/"}},"7110872224":{"location":[44.506178,4.222183],"ct":"FR","tp":"CS","ts":"2022-02-24T07:34:28Z","tX":524,"tY":370,"tags":{"addr:place":"La Place","email":"laubezou@gmail.com","name":"Camping Mas de l'Aubezon","operator":"Camping Mas de l'Aubezon","phone":"+33 4 75 39 51 20","ref":"119 679","website":"http://www.aubezon.fr"}},"8309613314":{"location":[44.4522898,4.4008908],"ct":"FR","tp":"CS","ts":"2021-01-10T22:33:12Z","tX":524,"tY":370,"tags":{"name":"Lou Carretou","source":"BDTopo IGN","website":"http://loucarretou.chez-alice.fr/"}},"5046531621":{"location":[44.5394633,4.3244498],"ct":"FR","tp":"CR","ts":"2024-10-08T14:56:01Z","tX":524,"tY":370,"tags":{"capacity":"2","caravan_site":"motorhome_stopover","caravan_site:type":"village","fee":"no","name":"Aire de camping-cars Vinezac","power_supply":"yes","sanitary_dump_station":"yes","water_point":"yes","website":"https://en.ardeche-guide.com/accommodation/camping-sites/motorhomes-welcomed/aire-de-serviceaccueil-camping-car-communale-93578"}},"11938208529":{"location":[44.4387306,4.3156716],"ct":"FR","tp":"CR","ts":"2024-05-27T20:42:47Z","tX":524,"tY":370,"tags":{"capacity":"11","caravan_site":"motorhome_stopover","caravan_site:type":"museum","fee":"no","name":"Parking Musée Alphonse Daudet","website":"https://www.tourisme-valdeligne.fr/musee-village-monument/mas-daudet-musee-parc/"}},"11938454726":{"location":[44.4321461,4.5287865],"ct":"FR","tp":"CR","ts":"2024-05-27T23:47:59Z","tX":524,"tY":370,"tags":{"capacity":"5","caravan_site":"motorhome_stopover","caravan_site:type":"winery","fee":"no","name":"Aire Domaine du Brechon","power_supply":"no","sanitary_dump_station":"no","tents":"no","water_point":"yes"}},"11938500869":{"location":[44.3847804,4.4761308],"ct":"FR","tp":"CR","ts":"2024-05-29T01:07:03Z","tX":524,"tY":370,"tags":{"caravan_site":"motorhome_stopover","caravan_site:type":"museum","dog":"yes","fee":"no","name":"Aire de camping-cars Maison de la Lavande","power_supply":"no","sanitary_dump_station":"no","website":"https://www.lamaisondelalavande.com/preparer-votre-visite/infos-pratiques"}},"11940361458":{"location":[44.4833869,4.5488656],"ct":"FR","tp":"CR","ts":"2024-05-28T19:16:14Z","tX":524,"tY":370,"tags":{"caravan_site":"motorhome_stopover","caravan_site:type":"winery","fee":"no","name":"Aire de camping-car Mas d'Intras","opening_hours":"Su off; PH off","power_supply":"no","sanitary_dump_station":"no","toilets":"yes","website":"https://www.sud-ardeche-tourisme.com/sejourner/ou-dormir/aires-camping-cars/94832_aire-de-service-accueil-camping-car-mas-dintras/"}},"12219472814":{"location":[44.5060916,4.3731044],"ct":"FR","tp":"CR","ts":"2024-10-03T21:26:34Z","tX":524,"tY":370,"tags":{"caravan_site":"motorhome_stopover","caravan_site:type":"parking_lot;museum","caravans":"no","fee":"no","name":"Parking Champgelly","opening_hours":"Oct-Mar","picnic_area":"yes","power_supply":"no","sanitary_dump_station":"no","tents":"no"}},"6426169220":{"location":[44.4051646,4.3970217],"ct":"FR","tp":"SD","ts":"2024-10-03T21:32:52Z","tX":524,"tY":370,"tags":{"access":"yes","sanitary_dump_station:chemical_toilet":"yes","sanitary_dump_station:fee":"no","sanitary_dump_station:gravity":"yes","sanitary_dump_station:grey_water":"yes","sanitary_dump_station:suction":"no"}},"8420626933":{"location":[44.3952732,4.5057565],"ct":"FR","tp":"SD","ts":"2021-11-20T14:40:26Z","tX":524,"tY":370,"tags":{"description":"Station de vidange pour Camping-car","fee":"no","operator":"Ville de Saint-Remèze","sanitary_dump_station:chemical_toilet":"yes","sanitary_dump_station:grey_water":"yes","sanitary_dump_station:round_drain":"yes","water_point":"yes"}},"9566501828":{"location":[44.452148,4.3366114],"ct":"FR","tp":"SD","ts":"2022-03-09T17:22:45Z","tX":524,"tY":370,"tags":{"access":"customers","fee":"yes","water_point":"yes"}},"9566503016":{"location":[44.3898285,4.2296926],"ct":"FR","tp":"SD","ts":"2022-03-09T17:20:26Z","tX":524,"tY":370,"tags":{"access":"permissive"}}}