{"39691848":{"location":[44.2140751,4.4693005],"ct":"FR","tp":"CS","ts":"2023-11-06T15:29:13Z","tX":524,"tY":371,"tags":{"addr:street":"2 Avenue Chemin du lavoir","capacity":"50","name":"La Grenouille","ref:CD30":"47","stars":"3","website":"https://www.camping-la-grenouille.com/"}},"44973353":{"location":[44.2191895,4.4796348],"ct":"FR","tp":"CS","ts":"2022-07-30T13:10:45Z","tX":524,"tY":371,"tags":{"addr:postcode":"30630","addr:street":"La Verune et Camer","capacity":"120","email":"les.amerines@wanadoo.fr","internet_access":"wlan","name":"Les Amarines","name:fr":"Les Amarines","phone":"+33466822492","ref:CD30":"124","source":"cadastre-dgi-fr source : Direction Générale des Impôts - Cadastre. Mise à jour : 2009","stars":"3","website":"http://www.campinglesamerines.com"}},"160544681":{"location":[44.222307,4.4625584],"ct":"FR","tp":"CS","ts":"2022-08-17T14:51:02Z","tX":524,"tY":371,"tags":{"addr:street":"Route de Frigoulet","capacity":"160","internet_access":"wlan","internet_access:fee":"no","name":"Le Saint-Michelet","opening_hours":"Apr 25-Sep 30","ref:CD30":"192","source":"Bing","stars":"3","wheelchair":"yes"}},"179576431":{"location":[44.187717,4.5247038],"ct":"FR","tp":"CS","ts":"2019-03-05T01:29:35Z","tX":524,"tY":371,"tags":{"addr:street":"RD106 village","capacity":"136","internet_access":"wlan","name":"Les Cascades","ref:CD30":"126","stars":"4","website":"https://www.campinglescascades.com/","wheelchair":"yes"}},"189945112":{"location":[44.1834295,4.2276951],"ct":"FR","tp":"CS","ts":"2023-07-15T05:59:15Z","tX":524,"tY":371,"tags":{"alt_name":"Cap Fun les Fumades","capacity":"251","caravans":"yes","email":"fumades@capfun.com","internet_access":"wlan","internet_access:fee":"no","name":"Domaine des Fumades","operator":"Capfun","phone":"+33 4 66 24 80 78","ref:CD30":"22","shower":"yes","stars":"4","tents":"yes","toilets":"yes","website":"https://www.domaine-des-fumades.com"}},"211192765":{"location":[44.3059861,4.3432981],"ct":"FR","tp":"CR","ts":"2024-10-05T22:50:31Z","tX":524,"tY":371,"tags":{"capacity":"10","caravan_site":"motorhome_stopover","caravan_site:type":"village","fee":"no","name":"Aire de camping-car Le Pradet","ref:CD30":"225","surface":"grass"}},"211192769":{"location":[44.3102059,4.3464262],"ct":"FR","tp":"PK","ts":"2024-10-04T03:32:00Z","tX":524,"tY":371,"tags":{"motorhome":"yes","motorhome:overnight":"yes","parking":"surface"}},"239453571":{"location":[44.3032822,4.5666232],"ct":"FR","tp":"CR","ts":"2024-05-22T13:45:09Z","tX":524,"tY":371,"tags":{"addr:city":"Saint Martin d'Ardèche","addr:postcode":"07700","bbq":"no","capacity":"54","caravan_site":"motorhome_stopover","caravan_site:type":"camp_site","caravans":"yes","caravans:conditional":"no @ (Sep 16-Apr 18)","charge":"17 EUR","charge:conditional":"14 EUR @ (Sep 16-Apr 18)","dog":"leashed","fee":"yes","internet_access":"wlan","internet_access:fee":"no","maxlength":"none","name":"Camping de mon Village de Saint-Martin-d'Ardèche","network":"CAMPING-CAR PARK","operator":"CampingCarPark.com","power_supply":"yes","power_supply:capacity":"54","power_supply:maxcurrent":"6","sanitary_dump_station":"yes","shower":"yes","shower:conditional":"no @ (Sep 16-Apr 18)","tents":"yes","tents:conditional":"no @ (Sep 16-Apr 18)","toilets":"yes","toilets:conditional":"no @ (Sep 16-Apr 18)","trailer":"yes","water_point":"yes","website":"https://www.campingcarpark.com/fr_FR/sejour/camping/auvergne-rhone-alpes/07-ardeche/saint-martin-d-ardeche"}},"276165748":{"location":[44.3003628,4.2497329],"ct":"FR","tp":"CS","ts":"2023-10-31T00:05:08Z","tX":524,"tY":371,"tags":{"addr:place":"La Digue","contact:mobile":"+33 6 48 75 03 14","email":"camping.claysse@wanadoo.fr","name":"Camping de la Claysse","operator":"Camping de la Claysse","phone":"+33 4 75 35 40 65","ref":"179 006","stars":"4","website":"https://www.campingdelaclaysse.com/"}},"285722032":{"location":[44.3110606,4.5554055],"ct":"FR","tp":"CS","ts":"2024-07-15T18:04:54Z","tX":524,"tY":371,"tags":{"addr:street":"Chemin de Sauze","caravans":"yes","check_date":"2024-05-25","contact:email":"info@camping-des-gorges.com","contact:phone":"+33 4 75 04 61 09","contact:website":"http://www.camping-des-gorges.com","drinking_water":"yes","email":"info@camping-des-gorges.com","name":"Camping des Gorges","operator":"Camping des Gorges","phone":"+33 4 75 04 61 09","power_supply":"yes","ref":"89 931","sanitary_dump_station":"yes","shower":"yes","stars":"4","tents":"yes","toilets":"yes","website":"https://www.camping-des-gorges.com/"}},"305411446":{"location":[44.2104182,4.258164],"ct":"FR","tp":"CS","ts":"2023-11-06T15:29:15Z","tX":524,"tY":371,"tags":{"addr:city":"Allègre-Les-Fumades","addr:housenumber":"30","addr:postcode":"30500","addr:street":"Montée du Boudifle","capacity":"178","caravans":"yes","contact:facebook":"https://www.facebook.com/chateau.de.boisson","email":"chateauboisson@clicochic.com","fee":"yes","internet_access":"wlan","name":"Camping de Boisson","operator":"Les Castels","phone":"+ 33 4 66 24 85 61","ref:CD30":"16","stars":"4","static_caravans":"yes","tents":"yes","website":"https://www.chateaudeboisson.com/"}},"358592156":{"location":[44.3143942,4.3659765],"ct":"FR","tp":"CS","ts":"2025-03-06T10:17:28Z","tX":524,"tY":371,"tags":{"addr:city":"Barjac","addr:housenumber":"2530","addr:postcode":"30430","addr:street":"Route d'Orgnac","capacity":"100","contact:phone":"+33 4 66 60 07 00","name":"Camping Koawa La Buissière","ref:CD30":"37","stars":"3","website":"https://www.camping-la-buissiere.fr/fr"}},"358625294":{"location":[44.2112817,4.3416153],"ct":"FR","tp":"CS","ts":"2017-07-22T20:35:58Z","tX":524,"tY":371,"tags":{"addr:street":"Méjannes","capacity":"92","name":"Résidence Club des Dolmens","old_name":"Dolmen des Fées","phone":"+33 9 64032536","ref:CD30":"87","stars":"3","website":"http://lesdolmens.com"}},"453382756":{"location":[44.2984275,4.5652849],"ct":"FR","tp":"CS","ts":"2020-02-04T15:03:06Z","tX":524,"tY":371,"tags":{"addr:street":"Lieu dit \"Pont Saint-Martin\"","capacity":"36","name":"Les Cigales","ref:CD30":"130","stars":"1"}},"463594530":{"location":[44.3052706,4.552199],"ct":"FR","tp":"CR","ts":"2024-11-12T17:33:15Z","tX":524,"tY":371,"tags":{"bbq":"no","capacity":"30","caravan_site":"motorhome_stopover","caravan_site:type":"village","charge":"5 EUR","description":"Someone from the municipality might come along to cover the charge. Or not.","fee":"yes","maxstay":"1 night","maxweight":"3.5","name":"Aire de repos à Aiguèze","panoramax":"b7765a88-4cbd-4677-a8e1-8873012ea53c","power_supply":"no","sanitary_dump_station":"no","seasonal":"no","toilets":"no","website":"https://www.tourismegard.com/fr/fiche/commerce-et-service/aire-de-stationnement-camping-cars-aigueze_TFO345604/"}},"507795767":{"location":[44.1855231,4.3317106],"ct":"FR","tp":"CR","ts":"2024-08-18T22:55:23Z","tX":524,"tY":371,"tags":{"addr:street":"Place des Ecoles","capacity":"8","caravan_site":"motorhome_stopover","caravan_site:type":"village","fee":"no","name":"Aire de camping-car intercommunale Fons","power_supply":"yes","ref:CD30":"259","seasonal":"no","water_point":"yes","water_point:charge":"2 EUR","water_point:fee":"yes","website":"https://www.tourismegard.com/fr/fiche/hotellerie-plein-air/aire-de-camping-car-de-fons-sur-lussan-fons-sur-lussan_TFO5636453/"}},"507796253":{"location":[44.2010242,4.5083772],"ct":"FR","tp":"CS","ts":"2022-08-21T20:16:17Z","tX":524,"tY":371,"tags":{"addr:city":"Cornillon","addr:housenumber":"1044","addr:postcode":"30630","addr:street":"Chemin des Campings","capacity":"45","email":"contact@lesbordsdeceze.com","fee":"yes","name":"Les bords de Cèze","phone":"+33 4 66 82 90 27","ref:CD30":"163","website":"https://www.lesbordsdeceze.com"}},"507897644":{"location":[44.2102684,4.5310181],"ct":"FR","tp":"CR","ts":"2024-10-03T21:39:39Z","tX":524,"tY":371,"tags":{"addr:street":"route de Bagnols","capacity":"6","caravan_site":"motorhome_stopover","caravan_site:type":"winery","caravans":"no","fee":"no","maxstay":"48 hours","name":"Aire de Camping-Car Saint-Laurent-de-Carnols","power_supply":"yes","power_supply:fee":"yes","ref:CD30":"233","sanitary_dump_station":"yes","sanitary_dump_station:chemical_toilet":"yes","sanitary_dump_station:grey_water":"yes","seasonal":"no","tents":"no","water_point":"yes","water_point:fee":"yes","website":"https://www.provenceoccitane.com/saint-laurent-de-carnols/aire-de-service-et-de-repos-a-saint-laurent-de-carnols.html"}},"508489262":{"location":[44.3019376,4.5520062],"ct":"FR","tp":"CS","ts":"2017-07-18T18:26:32Z","tX":524,"tY":371,"tags":{"addr:street":"rue Galinier","camp_site:type:FR":"Aire Naturelle","capacity":"15","name":"Le Galinier","ref:CD30":"213"}},"509491965":{"location":[44.2411759,4.445749],"ct":"FR","tp":"CS","ts":"2022-08-17T14:41:13Z","tX":524,"tY":371,"tags":{"addr:street":"La Saraillère","camp_site:type:FR":"Aire Naturelle","capacity":"25","name":"La Saraillère","ref:CD30":"59"}},"509503137":{"location":[44.2899115,4.5333239],"ct":"FR","tp":"CS","ts":"2017-07-22T22:16:43Z","tX":524,"tY":371,"tags":{"addr:street":"Quartier la Roquette","camp_site:type:FR":"Aire Naturelle","capacity":"25","name":"La Roquette","ref:CD30":"57"}},"509504597":{"location":[44.2532742,4.5413974],"ct":"FR","tp":"CS","ts":"2018-06-02T10:18:09Z","tX":524,"tY":371,"tags":{"addr:city":"Salazac","addr:postcode":"30760","addr:street":"Quartier Carberesse","capacity":"55","name":"Camping Cabaresse","ref:CD30":"10"}},"509504972":{"location":[44.2257934,4.3504574],"ct":"FR","tp":"CR","ts":"2024-08-18T22:58:54Z","tX":524,"tY":371,"tags":{"addr:street":"parking de la mairie","capacity":"10","caravan_site":"motorhome_stopover","caravan_site:type":"village","charge":"4 EUR","fee":"yes","name":"Aire de camping-car Méjannes","ref:CD30":"264","sanitary_dump_station":"yes","water_point":"yes","website":"https://www.tourismegard.com/fr/fiche/hotellerie-plein-air/aire-de-camping-car-mejannes-le-clap_TFO6101830/"}},"509641490":{"location":[44.2418455,4.2296301],"ct":"FR","tp":"CS","ts":"2024-11-21T09:17:39Z","tX":524,"tY":371,"tags":{"addr:street":"Domaine de l'abeiller","capacity":"216","name":"Domaine de l'Abeiller","ref:CD30":"69","stars":"4"}},"509641708":{"location":[44.2370047,4.2732246],"ct":"FR","tp":"CS","ts":"2020-02-29T22:14:33Z","tX":524,"tY":371,"tags":{"addr:street":"Chemin de Belbuis","capacity":"90","name":"L'Universal","ref:CD30":"193","stars":"4"}},"509642068":{"location":[44.2586776,4.2808022],"ct":"FR","tp":"CS","ts":"2017-07-23T15:56:23Z","tX":524,"tY":371,"tags":{"addr:street":"750 route du Moulin de Caveirac","capacity":"30","name":"Le Moulin de Caveirac","ref:CD30":"98"}},"509642162":{"location":[44.2585497,4.3002208],"ct":"FR","tp":"CS","ts":"2021-01-10T22:33:13Z","tX":524,"tY":371,"tags":{"addr:street":"Carriere de Barry 230 chemin de la Guinguette","capacity":"10","name":"L'Oliveraie - Carrière du Barry","ref:CD30":"159","source:geometry":"BDTopo IGN","stars":"2"}},"509645424":{"location":[44.1926239,4.2429453],"ct":"FR","tp":"CS","ts":"2017-07-23T16:13:18Z","tX":524,"tY":371,"tags":{"addr:street":"Arlinde","camp_site:type:FR":"Aire Naturelle","capacity":"25","name":"Le Lavoir d'Arlinde","ref:CD30":"73"}},"509647204":{"location":[44.2727359,4.3495947],"ct":"FR","tp":"CS","ts":"2021-11-03T20:48:19Z","tX":524,"tY":371,"tags":{"addr:street":"Les Lacs","capacity":"88","name":"Domaine le Clos des Capitelles","old_name":"Mas de la Cabane","ref:CD30":"210","stars":"4"}},"509647886":{"location":[44.2660233,4.356177],"ct":"FR","tp":"CS","ts":"2022-03-29T17:41:29Z","tX":524,"tY":371,"tags":{"addr:street":"Mas Sablière","capacity":"504","name":"Domaine naturiste de la Sablière","nudism":"obligatory","ref:CD30":"58","stars":"4","website":"https://www.villagesabliere.com/"}},"509648306":{"location":[44.2663984,4.3679588],"ct":"FR","tp":"CS","ts":"2024-08-06T11:48:26Z","tX":524,"tY":371,"tags":{"addr:street":"Méjannes","capacity":"490","name":"Domaine naturiste La Genèse","nudism":"obligatory","phone":"+33533092095","ref:CD30":"46","stars":"3","website":"https://www.lagenese.com/"}},"509648579":{"location":[44.269657,4.3744606],"ct":"FR","tp":"CS","ts":"2022-03-29T17:41:29Z","tX":524,"tY":371,"tags":{"addr:city":"Saint-Privat-de-Champclos","addr:postcode":"30430","addr:street":"Ran de Mas Chabrier","capacity":"200","contact:phone":"+33 4 662 451 55","description":"Camping libertin","fee":"yes","internet_access":"wlan","min_age":"18","name":"Le Ran du Chabrier","nudism":"obligatory","operator":"Alain Cogno","ref:CD30":"111","stars":"2","website":"https://campinglibertin.com/"}},"509648644":{"location":[44.2687983,4.365999],"ct":"FR","tp":"CS","ts":"2024-11-13T13:49:31Z","tX":524,"tY":371,"tags":{"addr:street":"hameau de Saint Privat","capacity":"100","name":"Le Château de Fereyrolles","nudism":"yes","phone":"+33 4 66 24 51 64","ref:CD30":"83","stars":"1","website":"http://www.camping-fereyrolles.com/"}},"509648714":{"location":[44.2791409,4.3836829],"ct":"FR","tp":"CS","ts":"2022-04-10T19:31:52Z","tX":524,"tY":371,"tags":{"addr:street":"Linde","camp_site:type:FR":"Aire Naturelle","capacity":"25","name":"Le Mas de Linde","ref:CD30":"32","stars":"2"}},"509653596":{"location":[44.3151548,4.3188307],"ct":"FR","tp":"CR","ts":"2024-09-28T00:28:46Z","tX":524,"tY":371,"tags":{"addr:street":"Mas Reboul - route de Vans","camp_site:type:FR":"Aire Naturelle","capacity":"100","caravan_site":"motorhome_stopover","caravan_site:type":"camp_site","charge":"14 EUR","fee":"yes","name":"La Combe","power_supply":"yes","power_supply:charge":"5.50 EUR","power_supply:fee":"yes","ref:CD30":"41","surface":"grass","website":"https://www.campinglacombe.com/"}},"509653597":{"location":[44.3158866,4.3201189],"ct":"FR","tp":"CS","ts":"2022-02-22T18:10:40Z","tX":524,"tY":371,"tags":{"addr:street":"Mas Reboul - route de Vans","capacity":"100","email":"camping.lacombe@orange.fr","name":"La Combe","phone":"+33 4 66245121","ref:CD30":"41","stars":"3","website":"https://www.campinglacombe.com/"}},"509654419":{"location":[44.32404,4.3288625],"ct":"FR","tp":"CS","ts":"2017-07-23T17:00:27Z","tX":524,"tY":371,"tags":{"addr:street":"Le Mas neuf","camp_site:type:FR":"Aire Naturelle","capacity":"20","name":"Le Mas Neuf","ref:CD30":"96"}},"509655428":{"location":[44.245897,4.4502368],"ct":"FR","tp":"CS","ts":"2017-07-23T17:11:01Z","tX":524,"tY":371,"tags":{"addr:street":"Courau","capacity":"80","name":"La Plage","ref:CD30":"182","stars":"2"}},"509657560":{"location":[44.2108669,4.46903],"ct":"FR","tp":"CR","ts":"2024-10-08T17:48:57Z","tX":524,"tY":371,"tags":{"addr:street":"Route d'Uzès","bbq":"no","capacity":"31","caravan_site":"motorhome_stopover","caravan_site:type":"village","caravans":"no","charge":"15.11 EUR","charge:conditional":"13.61 EUR @ (Oct-Apr)","dog":"leashed","fee":"yes","internet_access":"wlan","internet_access:fee":"no","maxlength":"9","name":"La Gambionne","network":"CAMPING-CAR PARK","power_supply":"yes","power_supply:capacity":"48","power_supply:fee":"no","power_supply:maxcurrent":"6","sanitary_dump_station":"yes","sanitary_dump_station:chemical_toilet":"yes","sanitary_dump_station:fee":"no","sanitary_dump_station:grey_water":"yes","tents":"no","trailer":"no","water_point":"yes","website":"https://www.campingcarpark.com/fr_FR/sejour/aire-etape-camping-car/occitanie/30-gard/goudargues"}},"509657879":{"location":[44.2008567,4.4760995],"ct":"FR","tp":"CS","ts":"2024-12-20T09:32:15Z","tX":524,"tY":371,"tags":{"addr:street":"Mas de Rome","camp_site:type:FR":"Aire Naturelle","capacity":"25","name":"Mas de Rome","ref:CD30":"171"}},"509657880":{"location":[44.2008264,4.4774491],"ct":"FR","tp":"CS","ts":"2017-07-23T17:27:06Z","tX":524,"tY":371,"tags":{"addr:street":"Le Mas de Rome","capacity":"55","name":"Le Mas de Rome","ref:CD30":"93"}},"509658337":{"location":[44.1917573,4.5025706],"ct":"FR","tp":"CS","ts":"2022-08-21T20:16:17Z","tX":524,"tY":371,"tags":{"addr:city":"Saint Gély-Cornillon","addr:housenumber":"2319","addr:postcode":"30630","addr:street":"Chemin des Campings","capacity":"50","email":"post@campingleslibellules.com","name":"Les Libellules","phone":"+33 4 66 82 20 04","power_supply":"yes","ref:CD30":"145","reservation":"yes","sanitary_dump_station":"yes","shower":"yes","stars":"2","toilets":"yes","website":"https://www.campingleslibellules.com/","wheelchair":"limited"}},"509678676":{"location":[44.1958284,4.5227814],"ct":"FR","tp":"CR","ts":"2024-05-18T01:47:18Z","tX":524,"tY":371,"tags":{"addr:street":"route de Saint-Laurent de Carnols","bbq":"no","capacity":"28","caravan_site":"motorhome_stopover","caravan_site:type":"river","caravans":"no","charge":"15.41 EUR","charge:conditional":"12.81 EUR @ (Oct-Apr)","dog":"leashed","fee":"yes","maxlength":"none","name":"Aire de camping-car Park Roque sur Cèze","network":"CAMPING-CAR PARK","power_supply":"yes","power_supply:capacity":"24","power_supply:fee":"no","power_supply:maxcurrent":"6","ref:CD30":"266","tents":"no","trailer":"yes","website":"https://www.campingcarpark.com/fr_FR/sejour/aire-etape-camping-car/occitanie/30-gard/la-roque-sur-ceze"}},"509680453":{"location":[44.1810399,4.5346913],"ct":"FR","tp":"CS","ts":"2025-02-06T13:14:20Z","tX":524,"tY":371,"tags":{"addr:street":"Devois de Cocol route de Donat","capacity":"140","contact:phone":"+33 4 66 79 08 89","name":"Slow Village La Roque-sur-Cèze","opening_hours":"Mo-Th 08:30-12:00, 14:00-17:00; Fr-Sa 08:30-12:00, 14:00-19:00; Su 08:30-12:00, 14:00-17:00","ref:CD30":"66","stars":"4","website":"https://www.slow-village.com/destinations/occitanie/la-roque-sur-ceze/"}},"587883593":{"location":[44.305958,4.5602592],"ct":"FR","tp":"CS","ts":"2023-04-22T16:41:29Z","tX":524,"tY":371,"tags":{"capacity:pitches":"65","caravans":"yes","contact:mobile":"+33 6 45 79 65 51","dog":"leashed","fee":"yes","internet_access":"wlan","internet_access:fee":"no","internet_access:ssid":"WIFI EXTERIEUR","name":"Le Castelas","opening_hours":"Mar 12 - Nov 12","power_supply":"yes","sanitary_dump_station":"yes","shower":"yes","tents":"yes","toilets":"yes"}},"832221128":{"location":[44.3141503,4.4317147],"ct":"FR","tp":"CS","ts":"2020-09-06T18:16:00Z","tX":524,"tY":371,"tags":{"name":"Camping municipal","source":"data.gouv.fr:DATAtourisme - 05/2020","website":"https://www.orgnacvillage.com/camping-orgnac-ardeche.html"}},"894052746":{"location":[44.3043968,4.5623505],"ct":"FR","tp":"CS","ts":"2024-04-08T10:00:03Z","tX":524,"tY":371,"tags":{"name":"La Révire","source:geometry":"BDTopo IGN","website":"https://www.campinglarevire.com"}},"894052752":{"location":[44.3254201,4.5420583],"ct":"FR","tp":"CS","ts":"2021-01-10T22:33:13Z","tX":524,"tY":371,"tags":{"name":"Camping des Grottes","source:geometry":"BDTopo IGN"}},"894052772":{"location":[44.3378893,4.5295866],"ct":"FR","tp":"CS","ts":"2021-01-22T22:32:21Z","tX":524,"tY":371,"tags":{"alt_name":"Le Mazet","name":"Centre équestre Le Mazet","phone":"+33 4 75 98 85 51","short_name":"BDTopo IGN"}},"1285614201":{"location":[44.2668376,4.4278658],"ct":"FR","tp":"CR","ts":"2024-05-22T13:49:19Z","tX":524,"tY":371,"tags":{"capacity":"22","caravan_site":"motorhome_stopover","caravan_site:type":"countryside","caravans":"no","charge":"14.61 EUR","charge:conditional":"12.61 @ (Oct-Apr)","dog":"leashed","fee":"yes","internet_access":"wlan","maxlength":"none","name":"Aire Camping-car Park Montclus","network":"CAMPING-CAR PARK","opening_hours":"24/7","power_supply":"yes","power_supply:capacity":"24","power_supply:maxcurrent":"6","sanitary_dump_station":"yes","tents":"no","trailer":"yes","water_point":"yes","website":"https://www.campingcarpark.com/fr_FR/sejour/aire-etape-camping-car/occitanie/30-gard/montclus"}},"1285616632":{"location":[44.3140322,4.4301778],"ct":"FR","tp":"CR","ts":"2024-05-22T13:54:01Z","tX":524,"tY":371,"tags":{"bbq":"no","capacity":"26","caravan_site":"motorhome_stopover","caravan_site:type":"countryside","caravans":"no","charge":"14.32 EUR","dog":"leashed","fee":"yes","internet_access":"wlan","maxlength":"none","name":"Aire de Orgnac l'Aven","network":"CAMPING-CAR PARK","opening_hours":"24/7","power_supply":"yes","power_supply:capacity":"26","power_supply:maxcurrent":"6","sanitary_dump_station":"yes","tents":"no","trailer":"no","website":"https://www.campingcarpark.com/fr_FR/sejour/aire-etape-camping-car/auvergne-rhone-alpes/07-ardeche/orgnac-l-aven"}},"1286659579":{"location":[44.3117322,4.554348],"ct":"FR","tp":"CR","ts":"2024-10-11T13:56:05Z","tX":524,"tY":371,"tags":{"addr:street":"Route de Sauze","caravan_site":"motorhome_stopover","caravan_site:type":"parking_lot","charge":"40 EUR","drinking_water":"yes","fee":"yes","maxstay":"24 hours","maxweight":"3.5","name":"Parking Saint-Martin-d'Ardèche","name:signed":"no","power_supply":"no","toilets":"yes"}},"4173372142":{"location":[44.2258949,4.3506817],"ct":"FR","tp":"SD","ts":"2024-11-12T17:33:15Z","tX":524,"tY":371,"tags":{"access":"yes","fee":"no","panoramax":"baee83db-34af-4cd5-bdf4-f68ae6c4cb02","sanitary_dump_station:chemical_toilet":"no","sanitary_dump_station:gravity":"yes","sanitary_dump_station:grey_water":"yes","sanitary_dump_station:suction":"no","water_point":"yes"}},"8420593099":{"location":[44.3041047,4.4328481],"ct":"FR","tp":"SD","ts":"2021-11-20T14:40:26Z","tX":524,"tY":371,"tags":{"description":"Station de vidange pour Camping-car","fee":"no","operator":"Ville de Orgnac-l'Aven","sanitary_dump_station:chemical_toilet":"yes","sanitary_dump_station:grey_water":"yes","sanitary_dump_station:round_drain":"yes","water_point":"yes"}},"9312960631":{"location":[44.1855363,4.331561],"ct":"FR","tp":"SD","ts":"2021-12-05T19:01:35Z","tX":524,"tY":371,"tags":{"access":"yes","fee":"no","opening_hours":"24/7","sanitary_dump_station:round_drain":"yes"}},"9327065216":{"location":[44.3058637,4.3436739],"ct":"FR","tp":"SD","ts":"2024-10-04T03:32:00Z","tX":524,"tY":371,"tags":{"charge":"3 EUR","fee":"yes","opening_hours":"24/7","sanitary_dump_station:basin":"yes"}}}