{"35156701":{"location":[43.4492356,4.4010144],"ct":"FR","tp":"CS","ts":"2023-08-02T11:55:27Z","tX":524,"tY":374,"tags":{"barrier":"fence","contact:phone":"+334 90 97 85 99","fence_type":"wire","internet_access":"wlan","landuse":"tourism","name":"Camping Le Clos du Rhône","operator":"Sunêlia","power_supply":"cee_17_blue","stars":"4","website":"https://www.camping-leclos.fr/"}},"35269162":{"location":[43.4557048,4.4276988],"ct":"FR","tp":"CR","ts":"2024-05-27T10:47:32Z","tX":524,"tY":374,"tags":{"capacity":"100","caravan_site":"motorhome_stopover","caravan_site:type":"town","charge":"15 EUR","fee":"yes","name":"Aire Municipale Saintes-Maries-de-la-Mer (Centre)","sanitary_dump_station":"yes","seasonal":"no","surface":"asphalt","water_point":"yes"}},"287390130":{"location":[43.4493517,4.4058392],"ct":"FR","tp":"CR","ts":"2024-05-27T10:47:32Z","tX":524,"tY":374,"tags":{"capacity":"100","caravan_site":"motorhome_stopover","caravan_site:type":"beach","caravans":"no","charge":"15 EUR","fee":"yes","name":"Camperpark Plage Ouest","opening_hours":"24/7","sanitary_dump_station":"yes","seasonal":"no","tents":"no","water_point":"yes","website":"https://www.saintesmaries.com/annuaire/aire-de-camping-cars-plage-ouest"}},"489588644":{"location":[43.5230092,4.4061566],"ct":"FR","tp":"CS","ts":"2024-09-12T14:15:01Z","tX":524,"tY":374,"tags":{"addr:city":"Saintes-Maries-de-la-Mer","addr:country":"FR","addr:place":"Frigoulés","addr:postcode":"13460","addr:street":"route de Cacharel","caravans":"yes","drinking_water":"yes","landuse":"tourism","name":"Camping du Clos-Peyron","operator":"Camping à la ferme","phone":"+33 4 90 97 56 31","power_supply":"yes","sanitary_dump_station":"no","shower":"yes","tents":"yes","toilets":"yes","website":"http://mill.free.fr/camarguecamping/"}},"620060150":{"location":[43.4562035,4.4392387],"ct":"FR","tp":"CS","ts":"2024-10-13T17:56:42Z","tX":524,"tY":374,"tags":{"access":"customers","addr:city":"Saintes-Maries-de-la-Mer","addr:postcode":"13460","fee":"yes","internet_access":"yes","landuse":"tourism","name":"La Brise","opening_hours":"Mo-Su 07:00-23:00","phone":"+33490978467","stars":"3","website":"https://www.camping-labrise.fr"}},"1237366939":{"location":[43.5734152,4.3140272],"ct":"FR","tp":"CR","ts":"2024-01-05T20:55:18Z","tX":524,"tY":374,"tags":{"caravan_site":"motorhome_stopover","caravan_site:type":"winery","fee":"no","name":"Domaine de Montcalm","opening_hours":"24/7","seasonal":"no","website":"https://domainedemontcalm.com/"}},"5967014702":{"location":[43.4547857,4.437552],"ct":"FR","tp":"SD","ts":"2018-10-08T16:57:59Z","tX":524,"tY":374,"tags":{"access":"customers","fee":"no","water_point":"yes"}},"5979543833":{"location":[43.4550094,4.4366428],"ct":"FR","tp":"SD","ts":"2018-10-12T18:01:04Z","tX":524,"tY":374,"tags":{"access":"customers","fee":"no","operator":"Camping La Brise","water_point":"yes"}},"5979545518":{"location":[43.4552869,4.436742],"ct":"FR","tp":"SD","ts":"2018-10-12T18:01:48Z","tX":524,"tY":374,"tags":{"access":"customers","fee":"no","operator":"Campin La Brise","water_point":"yes"}},"6031006216":{"location":[43.4573221,4.4418578],"ct":"FR","tp":"SD","ts":"2018-11-02T01:40:26Z","tX":524,"tY":374,"tags":{"access":"customers","water_point":"yes"}},"7299246498":{"location":[43.4560131,4.427792],"ct":"FR","tp":"SD","ts":"2020-03-16T13:46:47Z","tX":524,"tY":374,"tags":{}}}