{"112572906":{"location":[45.8372473,-73.3252207],"ct":"CA","tp":"CS","ts":"2018-02-12T04:15:02Z","tX":303,"tY":364,"tags":{"addr:city":"Saint-Sulpice","addr:housenumber":"1630","addr:postcode":"J5W 3V5","addr:street":"Rue Notre-Dame","name":"Camping Le Marquis","phone":"+1-450-589-5147","source":"NRCan-CanVec-7.0"}},"113964737":{"location":[45.8950102,-73.1493738],"ct":"CA","tp":"CS","ts":"2023-10-22T19:05:55Z","tX":303,"tY":364,"tags":{"addr:housenumber":"2426","addr:postcode":"J0G 1P0","addr:street":"Chemin des Patriotes","email":"domainedelapaix@gmail.com","name":"Camping Domaine de la Paix","name:fr":"Camping Domaine de la Paix","phone":"+1-450-785-2421","source":"NRCan-CanVec-7.0","website":"https://www.domainedelapaix.ca/"}},"113964738":{"location":[45.923722,-73.159244],"ct":"CA","tp":"CS","ts":"2024-05-09T12:32:46Z","tX":303,"tY":364,"tags":{"name":"Camping Snowbird","source":"NRCan-CanVec-7.0"}},"113964745":{"location":[45.931535,-73.1496256],"ct":"CA","tp":"CR","ts":"2021-05-05T13:44:41Z","tX":303,"tY":364,"tags":{"name":"Camping Parc Bellerive","source":"NRCan-CanVec-7.0"}},"113964764":{"location":[45.9016792,-73.1484679],"ct":"CA","tp":"CR","ts":"2023-03-29T01:31:56Z","tX":303,"tY":364,"tags":{"name":"Camping Au Cheval Gris","source":"NRCan-CanVec-7.0"}},"113964786":{"location":[45.9016254,-73.1589478],"ct":"CA","tp":"CS","ts":"2023-03-29T01:31:56Z","tX":303,"tY":364,"tags":{"name":"Domaine des Erables","source":"NRCan-CanVec-7.0"}},"517013748":{"location":[45.9293771,-73.2426885],"ct":"CA","tp":"CS","ts":"2017-08-25T13:22:07Z","tX":303,"tY":364,"tags":{"name":"Camping Chez Denise"}},"9911696242":{"location":[45.9563526,-73.4076348],"ct":"CA","tp":"CS","ts":"2022-07-26T12:37:58Z","tX":303,"tY":364,"tags":{"name":"Camping Au soleil St-Paul De Joliette"}}}