{"8201696":{"location":[45.3937507,-73.1784269],"ct":"CA","tp":"CS","ts":"2021-05-02T01:12:10Z","tX":303,"tY":366,"tags":{"caravans":"yes","name":"Camping les Jardins d'Eau"}},"19896210":{"location":[45.3637265,-73.4507059],"ct":"CA","tp":"CS","ts":"2022-06-30T11:55:52Z","tX":303,"tY":366,"tags":{"addr:city":"Saint-Philippe","addr:housenumber":"415","addr:street":"Montée Saint-Claude","name":"Camping La Clé des Champs - Complexe VR"}},"79448930":{"location":[45.5203312,-73.1480514],"ct":"CA","tp":"CS","ts":"2021-05-03T11:29:13Z","tX":303,"tY":366,"tags":{"name":"Camping Domaine de Rouville","source":"CanVec 6.0 - NRCan"}},"79448973":{"location":[45.5250552,-73.1725253],"ct":"CA","tp":"CS","ts":"2010-09-30T03:43:51Z","tX":303,"tY":366,"tags":{"source":"CanVec 6.0 - NRCan"}},"82551126":{"location":[45.3794748,-73.3617642],"ct":"CA","tp":"CS","ts":"2019-02-19T14:16:07Z","tX":303,"tY":366,"tags":{"name":"Camping Joie de vivre","source":"Yahoo + observation locale","website":"https://www.campingjoiedevivre.com/index.php"}},"115088056":{"location":[45.4947344,-73.1668605],"ct":"CA","tp":"CS","ts":"2022-03-10T01:23:17Z","tX":303,"tY":366,"tags":{"access":"yes","addr:city":"Saint-Jean-Baptiste","addr:housenumber":"5715","addr:street":"Rang de la Rivière Nord","name":"Camping Lac du Repos","source":"NRCan-CanVec-7.0","website":"campinglacdurepos.com"}},"8519243152":{"location":[45.5776756,-73.3094548],"ct":"CA","tp":"SD","ts":"2021-03-15T00:51:16Z","tX":303,"tY":366,"tags":{}}}