{"83698812":{"location":[45.3005585,-73.4165755],"ct":"CA","tp":"CS","ts":"2018-03-11T17:00:43Z","tX":303,"tY":367,"tags":{"addr:housenumber":"397","addr:postcode":"J0J","addr:street":"Chemin du Ruisseau","name":"Camping du Lac Mineur","source":"CanVec 6.0 - NRCan","website":"http://www.campingdulacmineur.com/fr.php"}},"114669441":{"location":[45.2972435,-73.332849],"ct":"CA","tp":"CS","ts":"2022-03-08T00:13:26Z","tX":303,"tY":367,"tags":{"addr:housenumber":"658","addr:street":"route 219","internet_access":"wlan","name":"Camping Les Cèdres","source":"NRCan-CanVec-7.0"}},"114937068":{"location":[45.1354826,-73.2296505],"ct":"CA","tp":"CS","ts":"2024-06-09T21:44:57Z","tX":303,"tY":367,"tags":{"name":"Camping Bomont","source":"NRCan-CanVec-7.0"}},"114992790":{"location":[45.1976332,-73.4183953],"ct":"CA","tp":"CR","ts":"2023-01-16T20:21:43Z","tX":303,"tY":367,"tags":{"name":"Camping des Arpents-Verts","source":"NRCan-CanVec-7.0"}},"114992835":{"location":[45.2397836,-73.2518001],"ct":"CA","tp":"CS","ts":"2022-09-21T01:30:57Z","tX":303,"tY":367,"tags":{"addr:housenumber":"121","name":"Camping Du Haut Richelieu","source":"NRCan-CanVec-7.0"}},"114992905":{"location":[45.1383681,-73.2622942],"ct":"CA","tp":"CS","ts":"2023-01-15T12:50:58Z","tX":303,"tY":367,"tags":{"name":"Caming Domaine Riviera","source":"NRCan-CanVec-7.0"}},"114996019":{"location":[45.1152467,-73.3610786],"ct":"CA","tp":"CS","ts":"2025-05-25T13:24:01Z","tX":303,"tY":367,"tags":{"addr:city":"Lacolle","addr:housenumber":"347","addr:postcode":"J0J 1J0","addr:province":"Québec","addr:street":"Route 221","name":"Camping Grégoire","source":"NRCan-CanVec-7.0","wikidata":"Q134571894"}},"397008016":{"location":[45.1713065,-73.2674382],"ct":"CA","tp":"CS","ts":"2023-01-15T13:51:00Z","tX":303,"tY":367,"tags":{"name":"Camping Jardins de la Rive"}},"1132165586":{"location":[45.1115609,-73.4630703],"ct":"CA","tp":"CS","ts":"2023-01-15T12:34:48Z","tX":303,"tY":367,"tags":{"name":"Camping du Lac Cristal"}},"1290332326":{"location":[45.1092907,-73.2726144],"ct":"CA","tp":"CR","ts":"2024-06-07T20:39:05Z","tX":303,"tY":367,"tags":{"name":"Camping Oasis du Richelieu"}}}