{"152761806":{"location":[44.9211386,-73.2772111],"ct":"US","tp":"CR","ts":"2022-03-24T23:37:06Z","tX":303,"tY":368,"tags":{"addr:city":"North Hero","addr:housenumber":"526","addr:street":"U.S. Route 2 South","name":"Goose Point Campground"}},"152762377":{"location":[44.9653256,-73.2424919],"ct":"US","tp":"CR","ts":"2024-08-27T23:43:14Z","tX":303,"tY":368,"tags":{"alt_name":"Alburg Travel Trailer Park","ele":"33","gnis:feature_id":"1918506","import_uuid":"bb7269ee-502a-5391-8056-e3ce0e66489c","name":"Alburgh Travel Trailer Park"}},"1043578431":{"location":[44.9520897,-73.3749622],"ct":"US","tp":"CS","ts":"2022-03-24T22:14:53Z","tX":303,"tY":368,"tags":{"addr:city":"Champlain","addr:housenumber":"769","addr:street":"Lake Street","name":"Lakeview Campsites"}},"1043589831":{"location":[44.8570306,-73.3337101],"ct":"US","tp":"CR","ts":"2022-03-24T23:37:06Z","tX":303,"tY":368,"tags":{"name":"Sunset Rock RV Park"}},"1043589832":{"location":[44.8570731,-73.3286771],"ct":"US","tp":"CR","ts":"2022-03-24T23:37:06Z","tX":303,"tY":368,"tags":{"name":"Summer Place Lakeside Campground"}},"1043589845":{"location":[44.8730644,-73.1782191],"ct":"US","tp":"CR","ts":"2022-03-24T23:37:06Z","tX":303,"tY":368,"tags":{"addr:housenumber":"600","addr:street":"Maquam Shore Road","name":"Champlain Valley Campground"}},"1292359187":{"location":[44.9899252,-73.1720801],"ct":"US","tp":"CR","ts":"2024-07-11T22:05:11Z","tX":303,"tY":368,"tags":{"name":"Campbellâ€™s Bay Campground"}},"1300537514":{"location":[44.9289516,-73.2144182],"ct":"US","tp":"CR","ts":"2024-07-27T21:17:23Z","tX":303,"tY":368,"tags":{"drinking_water":"yes","fee":"yes","name":"Lakewood Campground"}},"5781799257":{"location":[44.9302903,-73.2139652],"ct":"US","tp":"CS","ts":"2024-07-11T20:59:09Z","tX":303,"tY":368,"tags":{"addr:housenumber":"122","addr:street":"Champlain Street","name":"Lakewood campground","name:en":"Lakewood campgrounds"}},"4346347856":{"location":[44.8428391,-73.3430544],"ct":"US","tp":"CR","ts":"2016-08-11T18:26:56Z","tX":303,"tY":368,"tags":{"name":"Lakehurst Campground and Marina"}}}