{"43436497":{"location":[41.5133472,-73.4660567],"ct":"US","tp":"CS","ts":"2022-04-15T17:01:50Z","tX":303,"tY":381,"tags":{"description":"Private, Members Or Owners Only","landuse":"recreation_ground","leisure":"nature_reserve","magic:CATEGORY":"General Recreation","name":"Southwestern Ct. Girl Scouts Council-Camp Topside","source":"University of Connecticut (http://magic.lib.uconn.edu/connecticut_data.html)"}},"871515488":{"location":[41.6987338,-73.2830503],"ct":"US","tp":"CS","ts":"2022-07-07T16:14:38Z","tX":303,"tY":381,"tags":{"name":"Camp Chinqueka"}},"3545198705":{"location":[41.7152705,-73.2629871],"ct":"US","tp":"CS","ts":"2022-10-02T22:09:07Z","tX":303,"tY":381,"tags":{"addr:city":"Litchfield","addr:housenumber":"1312","addr:postcode":"06750","addr:state":"CT","addr:street":"Bantam Road","name":"Cozy Hill Campground"}},"4128171745":{"location":[41.6138597,-73.3251851],"ct":"US","tp":"CS","ts":"2020-11-15T00:22:03Z","tX":303,"tY":381,"tags":{"name":"SR1"}},"4128171746":{"location":[41.6133197,-73.327528],"ct":"US","tp":"CS","ts":"2022-05-02T17:28:46Z","tX":303,"tY":381,"tags":{"name":"SR2"}},"4137480108":{"location":[41.6049941,-73.334967],"ct":"US","tp":"CS","ts":"2020-11-15T00:22:03Z","tX":303,"tY":381,"tags":{"name":"SR3"}},"4137480109":{"location":[41.6093712,-73.3373099],"ct":"US","tp":"CS","ts":"2020-11-15T00:22:03Z","tX":303,"tY":381,"tags":{"name":"SR4"}}}