{"4882549321":{"location":[7.2869957,-73.1711249],"ct":"CO","tp":"CS","ts":"2017-05-29T02:56:26Z","tX":303,"tY":491,"tags":{"name":"FINCA DE ROBERTO","name:es":"FINCA DE ROBERTO"}},"5729225422":{"location":[7.2115253,-73.1711521],"ct":"CO","tp":"CS","ts":"2018-07-02T20:23:46Z","tX":303,"tY":491,"tags":{"addr:street":"14 colmenas","name":"Remolino","name:en":"Remolino 14C","name:es":"Remolino 14C"}},"5729227721":{"location":[7.2095121,-73.179441],"ct":"CO","tp":"CS","ts":"2018-07-03T01:48:46Z","tX":303,"tY":491,"tags":{"addr:street":"17 colmenas","name":"La Cascada","name:en":"La Cascada 17C","name:es":"La Cascada 17C"}},"5729227821":{"location":[7.3150449,-73.1354796],"ct":"CO","tp":"CS","ts":"2018-07-02T20:24:04Z","tX":303,"tY":491,"tags":{"addr:street":"12 colmenas","name":"El Cable","name:en":"El Cable 12C","name:es":"El Cable 12C"}},"5730609323":{"location":[7.2028695,-73.147249],"ct":"CO","tp":"CS","ts":"2018-07-03T01:48:47Z","tX":303,"tY":491,"tags":{"name":"El Gato","name:en":"El Gato 7C","name:es":"El Gato 7C"}},"5730866524":{"location":[7.1868956,-73.1341197],"ct":"CO","tp":"CS","ts":"2018-07-03T01:48:47Z","tX":303,"tY":491,"tags":{"name":"Don Polo","name:en":"Don Polo 15C","name:es":"Don Polo 15C"}},"5761487655":{"location":[7.2668385,-73.4764314],"ct":"CO","tp":"CS","ts":"2018-07-15T11:43:27Z","tX":303,"tY":491,"tags":{"name":"donde Hernano Tito"}},"9627460798":{"location":[7.2871355,-73.4716461],"ct":"CO","tp":"CS","ts":"2022-03-31T20:18:36Z","tX":303,"tY":491,"tags":{"name":"Campamento Payoa"}}}