{"637343188":{"location":[-39.8089971,-73.2678663],"ct":"CL","tp":"CS","ts":"2024-08-24T04:51:52Z","tX":303,"tY":635,"tags":{"addr:city":"Valdivia","addr:street":"Los Cipreses","name":"Camping Isla Teja"}},"963751793":{"location":[-39.8623819,-73.3546358],"ct":"CL","tp":"CS","ts":"2023-11-06T12:29:33Z","tX":303,"tY":635,"tags":{"name":"Camping y Cabañas Agua del Obispo","phone":"+56 9 88196804","website":"http://campingaguadelobispo.cl/"}},"1913583458":{"location":[-39.8325493,-73.4038531],"ct":"CL","tp":"CS","ts":"2018-02-05T20:15:52Z","tX":303,"tY":635,"tags":{"name":"Don Lalo"}},"1913583531":{"location":[-39.8364762,-73.4010856],"ct":"CL","tp":"CS","ts":"2017-08-02T15:13:20Z","tX":303,"tY":635,"tags":{"name":"La Cascada"}},"3426984482":{"location":[-39.7028893,-73.3106075],"ct":"CL","tp":"CS","ts":"2023-10-09T21:53:47Z","tX":303,"tY":635,"tags":{}},"4228983950":{"location":[-39.72989,-73.394353],"ct":"CL","tp":"CS","ts":"2020-01-28T16:18:29Z","tX":303,"tY":635,"tags":{"name":"Camping Don Mario","shower":"cold"}},"4581700989":{"location":[-39.8130486,-73.2266667],"ct":"CL","tp":"CS","ts":"2021-12-14T19:13:13Z","tX":303,"tY":635,"tags":{"addr:city":"Valdivia","addr:country":"CL","addr:district":"Valdivia","addr:housenumber":"125","addr:state":"Región de Los Ríos","addr:street":"Bombero Hernández","name":"Camping Mi Amigo","name:es":"Camping Mi Amigo"}},"5033185499":{"location":[-39.8666368,-73.3943746],"ct":"CL","tp":"CS","ts":"2020-02-06T01:42:14Z","tX":303,"tY":635,"tags":{"name":"Camping Conde de Castellar"}},"5262772324":{"location":[-39.8605591,-73.348995],"ct":"CL","tp":"CS","ts":"2017-12-03T23:03:20Z","tX":303,"tY":635,"tags":{"name":"Camping","name:es":"Camping"}},"5322001721":{"location":[-39.8624695,-73.3555361],"ct":"CL","tp":"CS","ts":"2021-07-12T19:32:16Z","tX":303,"tY":635,"tags":{"name":"Camping Don Agustin"}},"5322338022":{"location":[-39.7338993,-73.3816194],"ct":"CL","tp":"CS","ts":"2021-05-26T03:51:47Z","tX":303,"tY":635,"tags":{"name":"Mallacan complejo Ecoturistico"}},"5431854021":{"location":[-39.7874766,-73.2161657],"ct":"CL","tp":"CS","ts":"2021-12-14T19:13:13Z","tX":303,"tY":635,"tags":{"addr:city":"Valdivia","addr:country":"CL","addr:district":"Valdivia","addr:state":"Región de Los Ríos","addr:street":"Los Maitenes","name":"Camping Renacer"}},"8914205035":{"location":[-39.8614259,-73.3531693],"ct":"CL","tp":"CS","ts":"2021-07-12T15:44:49Z","tX":303,"tY":635,"tags":{"name":"Camping Los Arrayanes","phone":"+56 9 5403 2517"}},"10679561505":{"location":[-39.8252014,-73.2513644],"ct":"CL","tp":"CS","ts":"2023-02-20T01:00:40Z","tX":303,"tY":635,"tags":{"addr:housenumber":"N23","addr:street":"E. Lillo","internet_access":"wlan","name:en":"Camping and Cabañas Orilla Verde","phone":"+56975624832"}}}