{"1030017886":{"location":[6.5522634,72.9554898],"ct":"MV","tp":"SD","ts":"2024-01-19T09:42:13Z","tX":719,"tY":493,"tags":{"addr:city":"Vaikaradhoo","addr:postcode":"02140","addr:street":"Burandha Hingun","construction":"service","landuse":"construction","name":"Pumping Station 3 (SPS3)"}},"1031605538":{"location":[6.5513238,72.9492217],"ct":"MV","tp":"SD","ts":"2024-01-19T09:42:13Z","tX":719,"tY":493,"tags":{"access":"permissive","addr:city":"Vaikaradhoo","addr:postcode":"02140","addr:street":"Vinares Hingun","construction":"service","landuse":"construction","name":"Pumping Station 4 (SPS4)"}},"1031632275":{"location":[6.5481029,72.950317],"ct":"MV","tp":"SD","ts":"2024-01-19T09:42:13Z","tX":719,"tY":493,"tags":{"access":"permissive","addr:block_number":"48","addr:city":"Vaikaradhoo","addr:street":"Handhuvaree Hingun","construction":"service","landuse":"construction","name":"Pumping Station 1 (SPS1)"}},"1167526029":{"location":[6.5492193,72.9539926],"ct":"MV","tp":"SD","ts":"2024-10-24T07:08:52Z","tX":719,"tY":493,"tags":{"addr:city":"Vaikaradhoo","addr:postcode":"02140","addr:street":"Burandha Hingun","construction":"service","landuse":"construction","name":"Pumping Station 2 (SPS2)","operator":"Fenaka"}}}