{"14323444":{"location":[43.923972,-77.1827018],"ct":"CA","tp":"CR","ts":"2022-07-05T02:09:00Z","tX":292,"tY":372,"tags":{"name":"Cherry Beach Resort","source":"CanVec 6.0 - NRCan"}},"72840463":{"location":[44.0778984,-77.0176409],"ct":"CA","tp":"CS","ts":"2010-08-17T04:50:52Z","tX":292,"tY":372,"tags":{"source":"CanVec 6.0 - NRCan"}},"80308751":{"location":[43.938091,-77.01774],"ct":"CA","tp":"CR","ts":"2013-02-17T20:50:33Z","tX":292,"tY":372,"tags":{"name":"Smugglers Cove Family Campground","note":"www.smugglerscove.ca","source":"CanVec 6.0 - NRCan"}},"80309358":{"location":[43.986713,-77.015625],"ct":"CA","tp":"CS","ts":"2010-10-03T23:19:01Z","tX":292,"tY":372,"tags":{"source":"CanVec 6.0 - NRCan"}},"80309824":{"location":[43.9422347,-77.159687],"ct":"CA","tp":"CS","ts":"2010-10-03T23:36:34Z","tX":292,"tY":372,"tags":{"source":"CanVec 6.0 - NRCan"}},"80310241":{"location":[43.9535954,-77.2451567],"ct":"CA","tp":"CR","ts":"2022-07-05T02:09:00Z","tX":292,"tY":372,"tags":{"name":"Hideaway Trailer Park","source":"CanVec 6.0 - NRCan"}},"80310885":{"location":[43.9104836,-77.1927866],"ct":"CA","tp":"CR","ts":"2022-07-05T02:09:00Z","tX":292,"tY":372,"tags":{"addr:housenumber":"820","addr:street":"County Road 18","name":"Sunset Shores Campground","phone":"+16134764512"}},"80311196":{"location":[43.8956207,-77.2006492],"ct":"CA","tp":"CR","ts":"2021-02-18T20:10:45Z","tX":292,"tY":372,"tags":{"addr:housenumber":"37","addr:street":"Lake Avenue Lane","internet_access":"yes","name":"Lake Avenue RV Resort & Campground","power_supply":"yes","sanitary_dump_station":"yes","website":"https://www.sunrvresorts.com/resorts/true-north/ontario/lake-avenue/"}},"80311338":{"location":[43.9370195,-77.1590397],"ct":"CA","tp":"CS","ts":"2022-07-12T12:50:09Z","tX":292,"tY":372,"tags":{"addr:city":"Prince Edward","addr:housenumber":"89","addr:street":"Sandy Lane","name":"Lakecroft","source":"CanVec 6.0 - NRCan"}},"80312455":{"location":[43.9131076,-77.270504],"ct":"CA","tp":"CS","ts":"2022-07-12T12:50:09Z","tX":292,"tY":372,"tags":{"addr:city":"Prince Edward","addr:housenumber":"2028","addr:street":"County Road 12","name":"West Lake Willows","phone":"+1-613-393-3213","smoking":"separated","source":"CanVec 6.0 - NRCan"}},"80312565":{"location":[43.9355678,-77.2667439],"ct":"CA","tp":"CR","ts":"2022-07-05T02:09:00Z","tX":292,"tY":372,"tags":{"name":"Edgewater Family Camping Resort"}},"125810062":{"location":[43.8993682,-77.274267],"ct":"CA","tp":"CS","ts":"2023-10-28T13:10:03Z","tX":292,"tY":372,"tags":{"name":"Sandbanks - Richardson's Campground","website":"https://www.ontarioparks.com/park/sandbanks"}},"125812959":{"location":[43.9072871,-77.2477133],"ct":"CA","tp":"CR","ts":"2023-10-28T13:01:55Z","tX":292,"tY":372,"tags":{"capacity":"139","fee":"yes","name":"Sandbanks - Woodlands Campground","power_supply":"yes","sanitary_dump_station":"yes","website":"https://www.ontarioparks.com/park/sandbanks"}},"226260264":{"location":[43.8745921,-77.2105892],"ct":"CA","tp":"CR","ts":"2020-08-31T11:04:09Z","tX":292,"tY":372,"tags":{"addr:housenumber":"237","addr:street":"Salmon Point Road","name":"Quinte's Isle Campark","power_supply":"yes","sanitary_dump_station":"yes"}},"300949457":{"location":[43.9219937,-77.26352],"ct":"CA","tp":"CR","ts":"2022-07-12T12:50:09Z","tX":292,"tY":372,"tags":{"addr:housenumber":"1818","addr:street":"County Road 12","name":"Sandbanks Beach Resort","website":"http://sandbanksbeachresort.com/"}},"369598635":{"location":[43.9014825,-77.2255502],"ct":"CA","tp":"CR","ts":"2020-07-20T23:22:40Z","tX":292,"tY":372,"tags":{"addr:housenumber":"1854","addr:street":"County Road 18","internet_access":"yes","internet_access:fee":"yes","name":"Sandbanks River County Campground","power_supply":"yes","sanitary_dump_station":"yes"}},"829243987":{"location":[43.908954,-77.2654112],"ct":"CA","tp":"CR","ts":"2020-09-21T05:54:26Z","tX":292,"tY":372,"tags":{"name":"Sandbanks - West Lake Campground","power_supply":"yes","sanitary_dump_station":"yes"}},"829777006":{"location":[43.9020475,-77.2301155],"ct":"CA","tp":"CS","ts":"2023-10-28T13:00:11Z","tX":292,"tY":372,"tags":{"fee":"yes","name":"Sandbanks - Cedars Campground","website":"https://www.ontarioparks.com/park/sandbanks"}},"849668620":{"location":[43.8876077,-77.2147766],"ct":"CA","tp":"CS","ts":"2023-10-28T13:01:27Z","tX":292,"tY":372,"tags":{"name":"Sandbanks - Outlet River Campground A","website":"https://www.ontarioparks.com/park/sandbanks"}},"849668631":{"location":[43.8948419,-77.2169042],"ct":"CA","tp":"CS","ts":"2023-10-28T13:03:21Z","tX":292,"tY":372,"tags":{"name":"Sandbanks - Outlet River Campground B","website":"https://www.ontarioparks.com/park/sandbanks"}},"907906675":{"location":[43.8628496,-77.1988797],"ct":"CA","tp":"CR","ts":"2021-02-17T00:17:04Z","tX":292,"tY":372,"tags":{}},"937265078":{"location":[43.8572857,-77.2429745],"ct":"CA","tp":"CS","ts":"2010-10-03T22:54:41Z","tX":292,"tY":372,"tags":{"source":"CanVec 6.0 - NRCan"}},"1076150355":{"location":[43.9579744,-77.3132849],"ct":"CA","tp":"CR","ts":"2022-07-05T18:33:35Z","tX":292,"tY":372,"tags":{"name":"Ray's Cottages & Camping"}},"1076434692":{"location":[44.0630286,-77.0016048],"ct":"CA","tp":"CS","ts":"2022-07-06T21:22:42Z","tX":292,"tY":372,"tags":{"name":"Adolphustown Park Campground"}},"1115714399":{"location":[43.9468814,-77.2894721],"ct":"CA","tp":"CR","ts":"2022-11-20T13:48:03Z","tX":292,"tY":372,"tags":{}},"2177284336":{"location":[43.8641016,-77.1960872],"ct":"CA","tp":"CS","ts":"2013-02-27T15:26:16Z","tX":292,"tY":372,"tags":{}},"2701619589":{"location":[44.0619138,-77.0055748],"ct":"CA","tp":"CR","ts":"2014-09-11T11:14:34Z","tX":292,"tY":372,"tags":{"name":"U.E.L Heritage Center & Park","power_supply":"yes","website":"http://uel.ca"}},"3733727445":{"location":[43.8999537,-77.2268654],"ct":"CA","tp":"SD","ts":"2018-09-15T12:59:37Z","tX":292,"tY":372,"tags":{"access":"yes","fee":"no","operator":"Sandbanks Provincial Park"}},"5871590785":{"location":[43.946273,-77.2888116],"ct":"CA","tp":"CS","ts":"2018-08-31T16:39:12Z","tX":292,"tY":372,"tags":{"name":"Wesley Arces Christian Retreat  Centre & Campground"}},"5874028485":{"location":[43.9358014,-77.0121889],"ct":"CA","tp":"CS","ts":"2018-10-24T17:49:52Z","tX":292,"tY":372,"tags":{"addr:housenumber":"3225","addr:street":"County Road 13","name":"Johnson's RV Park","phone":"+1-613-476-5285"}},"8513483997":{"location":[43.8763796,-77.2117675],"ct":"CA","tp":"CS","ts":"2022-06-01T16:21:33Z","tX":292,"tY":372,"tags":{"access":"customers","addr:city":"Cherry Valley","addr:housenumber":"237","addr:postcode":"K0K 1P0","addr:province":"ON","addr:street":"Salmon Point Road","name":"Quinte's Isle Campark","operator":"Quinte's Isle Campark"}},"11993275928":{"location":[43.9192633,-77.1832245],"ct":"CA","tp":"CS","ts":"2024-06-20T06:30:54Z","tX":292,"tY":372,"tags":{}},"12190961001":{"location":[43.9517119,-77.2383131],"ct":"CA","tp":"CS","ts":"2024-09-21T20:10:32Z","tX":292,"tY":372,"tags":{"addr:housenumber":"1024","addr:postcode":"K0K2T0","addr:street":"County Road 12","name":"Hideaway Trailer Park","phone":"6133932267","website":"http://hideawaytrailerpark.com"}},"7741688075":{"location":[43.9053243,-77.2456445],"ct":"CA","tp":"SD","ts":"2020-07-23T19:48:58Z","tX":292,"tY":372,"tags":{}},"8044287311":{"location":[43.9085347,-77.2660877],"ct":"CA","tp":"SD","ts":"2020-10-25T14:46:22Z","tX":292,"tY":372,"tags":{}}}