{"445103229":{"location":[39.8015861,-77.2260474],"ct":"US","tp":"CS","ts":"2023-12-25T11:50:38Z","tX":292,"tY":388,"tags":{"caravans":"yes","drinking_water":"yes","fee":"yes","name":"Artillery Ridge Campground & Gettysburg Horse Park","openfire":"yes","phone":"+17173341288","sanitary_dump_station":"yes","shower":"yes","tents":"yes","toilets":"yes","website":"https://www.artilleryridge.com/"}},"795552756":{"location":[39.7794038,-77.2571641],"ct":"US","tp":"CS","ts":"2024-07-05T23:16:55Z","tX":292,"tY":388,"tags":{"cabins":"yes","caravans":"yes","check_date":"2024-07-05","drinking_water":"yes","fee":"yes","name":"Gettysburg Battlefield Resort","openfire":"yes","operator":"Gettysburg Battlefield Resort","payment:cash":"yes","payment:credit_cards":"yes","payment:debit_cards":"yes","phone":"8555844056","power_supply":"yes","sanitary_dump_station":"yes","shower":"yes","tents":"yes","toilets":"yes","website":"https://www.travelresorts.com/locations/gettysburg-battlefield-resort/"}},"1119998097":{"location":[39.7772096,-77.2343906],"ct":"US","tp":"CS","ts":"2024-01-02T15:51:02Z","tX":292,"tY":388,"tags":{"cabins":"yes","caravans":"yes","drinking_water":"yes","fee":"yes","name":"Round Top Campground","openfire":"yes","phone":"+17173349565","power_supply":"yes","sanitary_dump_station":"yes","shower":"yes","tents":"yes","toilets":"yes","website":"http://roundtopcamp.com/"}},"1119998142":{"location":[39.8309633,-77.1938568],"ct":"US","tp":"CS","ts":"2024-01-02T15:33:16Z","tX":292,"tY":388,"tags":{"cabins":"yes","caravans":"yes","drinking_water":"yes","fee":"yes","name":"Drummer Boy Camping Resort","openfire":"yes","phone":"+17173343277","power_supply":"yes","sanitary_dump_station":"yes","shower":"yes","tents":"yes","toilets":"yes","website":"https://thousandtrails.com/pennsylvania/drummer-boy-camping-resort/"}},"1119998180":{"location":[39.8022538,-77.3330162],"ct":"US","tp":"CS","ts":"2024-02-08T08:13:16Z","tX":292,"tY":388,"tags":{"cabins":"yes","caravans":"yes","drinking_water":"yes","fee":"yes","name":"Granite Hill Camping Resort","openfire":"yes","phone":"+17176428749","power_supply":"yes","sanitary_dump_station":"yes","shower":"yes","tents":"yes","toilets":"yes","website":"https://www.granitehillcampingresort.com/"}},"1120098962":{"location":[39.8162778,-77.2859025],"ct":"US","tp":"CS","ts":"2024-02-08T08:13:20Z","tX":292,"tY":388,"tags":{"cabins":"yes","caravans":"yes","drinking_water":"yes","fee":"yes","name":"Gettysburg Campground","openfire":"yes","phone":"+17173343304","power_supply":"yes","sanitary_dump_station":"yes","shower":"yes","tents":"yes","toilets":"yes","website":"https://www.gettysburgcampground.com/"}},"1120298982":{"location":[39.828071,-77.3291586],"ct":"US","tp":"CR","ts":"2024-04-27T03:20:22Z","tX":292,"tY":388,"tags":{"addr:housenumber":"20","addr:street":"Knox Road","brand":"KOA","brand:wikidata":"Q16988635","cabins":"yes","caravans":"yes","description":"Gettysburg/Battlefield Kampgrounds of America","drinking_water":"yes","name":"Gettysburg / Battlefield KOA Holiday","openfire":"yes","phone":"+1 717 642 5713","power_supply":"yes","sanitary_dump_station":"yes","short_name":"KOA","shower":"yes","tents":"yes","toilets":"yes","website":"https://koa.com/campgrounds/gettysburg/"}},"1162285036":{"location":[39.8925423,-77.071275],"ct":"US","tp":"CS","ts":"2011-03-11T22:03:34Z","tX":292,"tY":388,"tags":{"name":"Camp Conewago - Boy Scouts of America"}},"6364137827":{"location":[39.8214687,-77.250527],"ct":"US","tp":"CS","ts":"2022-02-16T17:34:31Z","tX":292,"tY":388,"tags":{"access":"yes","addr:city":"Gettysburg","addr:postcode":"17325","addr:state":"PA","addr:street":"Youth Group Campground Entrance Road","dog":"leashed","highway":"trailhead","name":"Mcillian Woods Youth Campground","natural":"land","opening_hours":"24/7","operator":"Gettysburg Natioinal Military Park"}}}