{"78343467":{"location":[38.9632004,-77.3217599],"ct":"US","tp":"CS","ts":"2019-12-12T19:40:28Z","tX":292,"tY":391,"tags":{"bbq":"yes","capacity":"55","caravans":"yes","drinking_water":"yes","fee":"yes","name":"Lake Fairfax Campground A","openfire":"yes","operator":"Fairfax County Parks Authority","payment:coins":"yes","payment:cryptocurrencies":"no","payment:electronic_purses":"no","payment:mastercard":"yes","payment:notes":"yes","payment:visa":"yes","payment:visa_debit":"yes","power_supply":"yes","reservation":"recommended","sanitary_dump_station":"yes","tents":"yes","website":"https://www.fairfaxcounty.gov/parks/lake-fairfax/camping"}},"411220571":{"location":[39.0310999,-77.244391],"ct":"US","tp":"CS","ts":"2022-05-27T13:54:08Z","tX":292,"tY":391,"tags":{"access":"yes","backcountry":"yes","caravans":"no","fee":"no","group_only":"no","internet_access":"no","leisure":"park","name":"Lock 21 “Swains” Campground","operator":"National Park Service","operator:short":"NPS","operator:type":"public","operator:wikidata":"Q308439","reservation":"no","sanitary_dump_station":"no","shower":"no","tents":"yes","toilets":"yes","website":"https://www.nps.gov/choh/planyourvisit/camping.htm"}},"679336587":{"location":[38.9626728,-77.3182717],"ct":"US","tp":"CS","ts":"2019-12-12T19:40:28Z","tX":292,"tY":391,"tags":{"bbq":"yes","fee":"yes","group_only":"yes","name":"Group camping area G-10","openfire":"yes","opening_hours":"Mar 1-Nov 30","operator":"Fairfax County Parks Authority","payment:coins":"yes","payment:cryptocurrencies":"no","payment:electronic_purses":"no","payment:mastercard":"yes","payment:notes":"yes","payment:visa":"yes","payment:visa_debit":"yes","reservation":"recommended","shower":"no","tents":"yes","website":"https://www.fairfaxcounty.gov/parks/lake-fairfax/camping"}},"679336588":{"location":[38.9634361,-77.3188296],"ct":"US","tp":"CS","ts":"2019-12-12T19:40:28Z","tX":292,"tY":391,"tags":{"bbq":"yes","fee":"yes","group_only":"yes","name":"Group camping area G-9","openfire":"yes","opening_hours":"Mar 1-Nov 30","operator":"Fairfax County Parks Authority","payment:coins":"yes","payment:cryptocurrencies":"no","payment:electronic_purses":"no","payment:mastercard":"yes","payment:notes":"yes","payment:visa":"yes","payment:visa_debit":"yes","reservation":"recommended","shower":"no","tents":"yes","website":"https://www.fairfaxcounty.gov/parks/lake-fairfax/camping"}},"679336594":{"location":[38.9646051,-77.3205234],"ct":"US","tp":"CS","ts":"2019-12-12T19:40:28Z","tX":292,"tY":391,"tags":{"bbq":"yes","fee":"yes","group_only":"yes","name":"Group camping area G-1","openfire":"yes","opening_hours":"Mar 1-Nov 30","operator":"Fairfax County Parks Authority","payment:coins":"yes","payment:cryptocurrencies":"no","payment:electronic_purses":"no","payment:mastercard":"yes","payment:notes":"yes","payment:visa":"yes","payment:visa_debit":"yes","reservation":"recommended","shower":"no","tents":"yes","website":"https://www.fairfaxcounty.gov/parks/lake-fairfax/camping"}},"679336602":{"location":[38.9601002,-77.3220456],"ct":"US","tp":"CS","ts":"2019-12-12T19:40:28Z","tX":292,"tY":391,"tags":{"bbq":"yes","capacity":"48","caravans":"yes","drinking_water":"yes","fee":"yes","group_only":"yes","name":"Lake Fairfax Campground C","openfire":"yes","operator":"Fairfax County Parks Authority","payment:coins":"yes","payment:cryptocurrencies":"no","payment:electronic_purses":"no","payment:mastercard":"yes","payment:notes":"yes","payment:visa":"yes","payment:visa_debit":"yes","power_supply":"yes","reservation":"recommended","sanitary_dump_station":"yes","tents":"yes","website":"https://www.fairfaxcounty.gov/parks/lake-fairfax/camping"}},"985630981":{"location":[39.0397447,-77.1500999],"ct":"US","tp":"CS","ts":"2022-10-17T15:36:47Z","tX":292,"tY":391,"tags":{"backcountry":"yes","caravans":"no","email":"ParkPermits@mongomeryparks.org","group_only":"no","name":"Robert C. McDonell Campground","operator":"Montgomery County","phone":"+1 301 495 2525","reservation":"required","tents":"yes","website":"https://montgomeryparks.org/parks-and-trails/cabin-john-regional-park/campground/"}},"3595467542":{"location":[39.0448585,-77.310283],"ct":"US","tp":"CS","ts":"2022-05-26T21:58:56Z","tX":292,"tY":391,"tags":{"addr:city":"Great Falls","addr:housenumber":"101","addr:postcode":"22066","addr:state":"VA","addr:street":"Springvale Rd","name":"Camp Fraser","source":"https://www.livingclassrooms.org/camp_fraser.php"}},"7924309412":{"location":[38.9772928,-77.2164814],"ct":"US","tp":"CS","ts":"2022-10-17T15:30:27Z","tX":292,"tY":391,"tags":{"addr:street":"Potomac, MD 20854","backcountry":"yes","caravans":"no","description":"6 group campsites","fee":"yes","group_only":"yes","name":"Marsden Tract Group Campsite","reservation":"required","tents":"yes","website":"https://recreation.gov/camping/campgrounds/251544"}},"7052901985":{"location":[38.9634121,-77.3223165],"ct":"US","tp":"SD","ts":"2019-12-12T19:40:28Z","tX":292,"tY":391,"tags":{"access":"customers"}}}