{"384750441":{"location":[-12.0707573,-77.0833612],"ct":"PE","tp":"CS","ts":"2018-08-08T21:35:38Z","tX":292,"tY":546,"tags":{"internet_access":"no","landuse":"grass"}},"4541648591":{"location":[-12.0466841,-77.131017],"ct":"PE","tp":"CS","ts":"2016-12-06T17:45:54Z","tX":292,"tY":546,"tags":{}},"10034845017":{"location":[-12.0155696,-77.0764874],"ct":"PE","tp":"CR","ts":"2024-04-15T21:50:38Z","tX":292,"tY":546,"tags":{"addr:housenumber":"933","addr:postcode":"15103","addr:street":"Jir√≥n Melchor Cumpa","contact:facebook":"https://www.facebook.com/eltipviajero","description":"Apartments and rooms for travelers, near Lima Airport, Airbnb, also Urban Camping Overlander, Motorhomes and vehicle storage, TIP - CIT Suspension Aduanas, legal advice.","email":"gerenteeltipviajero@gmail.com","image":"https://lh4.googleusercontent.com/njJcoFGJD659feuTpk0mF2rFVHL7L9TecPbsMQxhh1c40Uufo6VHeLusg3pbGqGbFWZ5lr-KxtkwppZuQmSS0sbe6M9rWaH_3Mm7FefSzZewnKZOR9Daop15II4p6wgDHg=w1280","internet_access":"wlan","internet_access:fee":"customers","mobile":"+51941483585","name":"Camping Overlander and Airbnb El Tip Viajero","name:en":"Campamento Overlander y alojamiento El Tip Viajero","opening_hours":"24/7","payment:cash":"yes","payment:mastercard":"yes","payment:visa":"yes","power_supply":"yes","reservation":"yes","smoking":"outside","website":"https://www.eltipviajero.com"}}}