{"73337559":{"location":[34.5197049,135.5612056],"ct":"JP","tp":"CS","ts":"2021-05-20T19:50:03Z","tX":897,"tY":407,"tags":{"name":"青少年野外活動広場"}},"77966409":{"location":[34.4673275,135.4692388],"ct":"JP","tp":"CS","ts":"2010-09-18T04:51:07Z","tX":897,"tY":407,"tags":{"name":"バーベキュービーチ"}},"751237209":{"location":[34.4101322,135.6788102],"ct":"JP","tp":"CS","ts":"2019-12-01T09:19:33Z","tX":897,"tY":407,"tags":{"name":"ちはや園地金剛山キャンプ場","name:en":"Chihayaenchi Kongosan Campground"}},"751328641":{"location":[34.4122553,135.5295883],"ct":"JP","tp":"CS","ts":"2019-12-01T16:57:03Z","tX":897,"tY":407,"tags":{"name":"キャンプ場","name:en":"Camp Site"}},"753912967":{"location":[34.4894582,135.4484339],"ct":"JP","tp":"CS","ts":"2019-12-09T11:34:01Z","tX":897,"tY":407,"tags":{"name":"大阪市立青少年野外活動センターキャンプ場"}},"804085443":{"location":[34.4922975,135.4460078],"ct":"JP","tp":"CS","ts":"2025-03-15T12:24:30Z","tX":897,"tY":407,"tags":{"name":"大阪市立青少年センター"}},"1119786430":{"location":[34.4926995,135.511477],"ct":"JP","tp":"CS","ts":"2022-12-06T08:23:11Z","tX":897,"tY":407,"tags":{"addr:county":"堺市南区若松台","addr:neighbourhood":"２丁５","addr:postcode":"590-0116","addr:province":"大阪府","operator":"DesignOhasuDays キャンプパーク"}},"4517261533":{"location":[34.5808924,135.6932786],"ct":"JP","tp":"CS","ts":"2016-11-23T15:27:14Z","tX":897,"tY":407,"tags":{"name":"菩提キャンプ場"}},"7046245320":{"location":[34.4488449,135.5517712],"ct":"JP","tp":"CS","ts":"2019-12-10T09:45:07Z","tX":897,"tY":407,"tags":{"name":"赤峰キャンプ場","name:en":"Akamine Camp Site"}}}