{"427538861":{"location":[34.3016946,135.5818558],"ct":"JP","tp":"CR","ts":"2016-06-27T01:55:59Z","tX":897,"tY":408,"tags":{"name":"管理棟エリア"}},"427538953":{"location":[34.3013159,135.5817485],"ct":"JP","tp":"CR","ts":"2016-06-27T01:59:26Z","tX":897,"tY":408,"tags":{}},"1108571439":{"location":[34.1510171,135.451045],"ct":"JP","tp":"CS","ts":"2022-10-31T14:25:05Z","tX":897,"tY":408,"tags":{"name":"毛原オートキャンプ場"}},"1334967855":{"location":[34.2215789,135.4761767],"ct":"JP","tp":"CS","ts":"2024-11-18T05:37:52Z","tX":897,"tY":408,"tags":{"addr:block_number":"92","addr:city":"紀の川市","addr:neighbourhood":"鳥渕谷","addr:province":"和歌山県","addr:quarter":"上鞆渕","charge":"5500円~","dog":"yes","fee":"yes","name":"フォーシーズンズキノカワ","opening_hours":"13:00-18:00","power_supply":"yes","sanitary_dump_station":"no","shower":"yes","tents":"yes","toilets":"yes","website":"https://fskinokawa.jp/"}},"4432308137":{"location":[34.1159295,135.6177611],"ct":"JP","tp":"CS","ts":"2016-10-05T08:55:06Z","tX":897,"tY":408,"tags":{"name":"北今西キャンプ場"}},"4432308138":{"location":[34.1170399,135.6146171],"ct":"JP","tp":"CS","ts":"2016-10-05T08:55:06Z","tX":897,"tY":408,"tags":{"name":"宮の向いキャンプ場"}}}