{"44723000":{"location":[65.8374246,24.1428467],"ct":"SE","tp":"CS","ts":"2023-10-25T23:14:43Z","tX":580,"tY":260,"tags":{"addr:city":"Haparanda","addr:country":"SE","addr:housenumber":"22","addr:postcode":"95332","addr:street":"Strandgatan","name":"Haparanda Camping","phone":"+46 922 130 01","source":"GPS","surface":"paved","website":"https://www.haparandacamping.se/"}},"68574034":{"location":[65.831221,24.2050748],"ct":"FI","tp":"CR","ts":"2020-07-26T19:15:17Z","tX":580,"tY":260,"tags":{"access":"yes","addr:city":"Tornio","addr:country":"FI","addr:housenumber":"49","addr:postcode":"95420","addr:street":"Matkailijantie","bbq":"yes","cabins":"yes","cafe":"yes","capacity":"99","caravans":"yes","email":"camping.tornio@co.inet.fi","fee":"yes","kitchen":"yes","name":"Camping Tornio","phone":"+358 16 445945","playground":"yes","power_supply":"yes","reservation":"yes","sauna":"yes","shower":"yes","tents":"yes","toilets":"yes","washing_machine":"yes","website":"http://www.campingtornio.com/"}},"431824664":{"location":[65.81995,24.14463],"ct":"SE","tp":"CS","ts":"2023-10-25T23:14:40Z","tX":580,"tY":260,"tags":{"addr:country":"SE","addr:housenumber":"1","addr:street":"Sundholmen","name":"Cape East","website":"https://capeeast.se/"}},"3590078719":{"location":[65.92372,24.1106691],"ct":"SE","tp":"CS","ts":"2025-01-29T15:44:02Z","tX":580,"tY":260,"tags":{"alt_name":"Pettersbergs Gård","fixme":"Finns fortfarande den här camping platsen? En recesion från 2011. websidan är nera och det ser inte ut som mycket från satelit foton","name":"Revonsaari Camping","power_supply":"yes","website":"http://www.revonsaaricamping.com"}},"4226417862":{"location":[65.8103557,23.932706],"ct":"SE","tp":"SD","ts":"2024-05-08T17:47:35Z","tX":580,"tY":260,"tags":{}}}