{"394455811":{"location":[53.8040983,24.1838769],"ct":"BY","tp":"CS","ts":"2023-12-14T04:23:32Z","tX":580,"tY":329,"tags":{"name":"Турбаза «Хімік»","name:be":"Турбаза «Хімік»","name:ru":"Турбаза «Химик»","name:uk":"Турбаза «Хімік»"}},"407313919":{"location":[53.8875681,24.2014073],"ct":"BY","tp":"CS","ts":"2023-05-21T19:31:38Z","tX":580,"tY":329,"tags":{"alt_name":"Далекое","alt_name:be":"Далёкае","alt_name:ru":"Далекое","int_name":"Zona adpačynku Dalniaja","name":"Зона адпачынку Дальняя","name:be":"Зона адпачынку Дальняя","name:ru":"Зона отдыха Дальняя","name:uk":"Дальня зона"}},"640917528":{"location":[53.8781352,24.2120724],"ct":"BY","tp":"CS","ts":"2023-05-21T19:31:38Z","tX":580,"tY":329,"tags":{"int_name":"Baza Rybaka Hłušnievo","name":"База Рыбака Глушнева","name:be":"База Рыбака Глушнева","name:ru":"База Рыбака Глушнево","name:uk":"База Рибалки Глушневе"}},"8894278316":{"location":[53.8033313,24.2154245],"ct":"BY","tp":"CS","ts":"2021-07-05T07:30:46Z","tX":580,"tY":329,"tags":{}}}