{"26859989":{"location":[39.9875802,23.9869424],"ct":"GR","tp":"CS","ts":"2020-07-03T22:14:36Z","tX":580,"tY":387,"tags":{"addr:district":"Toroni","cabins":"yes","caravans":"yes","dog":"yes","internet_access":"wlan","name":"Καλαμίτσι","name:de":"Kalamitsi","name:el":"Καλαμίτσι","name:en":"Kalamitsi","name:fr":"Kalamitsi","phone":"+30 23750 41410","website":"https://www.thalattacamp.gr/en"}},"387316007":{"location":[40.153555,23.9155713],"ct":"GR","tp":"CS","ts":"2024-09-13T02:53:45Z","tX":580,"tY":387,"tags":{"addr:city":"Σάρτη","addr:municipality":"Σιθωνία","addr:province":"Χαλκιδική","addr:region":"Κεντρική Μακεδονία","fee":"yes","int_name":"Armenistis","name":"Αρμενιστής","phone":"+30 23750 91487;+30 2310 850 463","website":"https://www.armenistis.gr"}},"788140270":{"location":[40.0454135,23.9838605],"ct":"GR","tp":"CS","ts":"2025-02-21T01:00:36Z","tX":580,"tY":387,"tags":{"caravans":"yes","fee":"yes","name":"Κάμπινγκ Μελίσση","name:el":"Κάμπινγκ Μελίσση","name:en":"Camping Melissi","phone":"+30 23750 41650","tents":"yes","website":"https://www.camping-melissi.gr"}},"1072699992":{"location":[40.1175762,23.9764633],"ct":"GR","tp":"CS","ts":"2025-02-21T01:00:53Z","tX":580,"tY":387,"tags":{"int_name":"Platanitsi","name":"Πλατανίτσι","name:el":"Πλατανίτσι","name:en":"Platanitsi","phone":"+30 23750 94535","website":"http://platanitsi.gr/en/home/"}},"1235495179":{"location":[40.0373154,23.9862561],"ct":"GR","tp":"CS","ts":"2023-12-30T12:38:44Z","tX":580,"tY":387,"tags":{}},"1306169383":{"location":[40.0466054,23.9841493],"ct":"GR","tp":"CS","ts":"2024-08-17T20:05:42Z","tX":580,"tY":387,"tags":{"area":"yes","capacity:tents":"30","caravans":"yes","email":"xanna75@gmail.com","fee":"yes","mobile":"+30 6972696138","name":"Κάμπινγκ ΠΙΤΣΩΝΗ","name:el":"Κάμπινγκ ΠΙΤΣΩΝΗ","name:en":"Camping Pitsoni","name:sr":"Камп Питсони","name:sr-Latn":"Kamp Pitsoni","phone":"+30 2375041686","power_supply":"yes","shower":"yes","tents":"yes","toilets":"yes","website":"https://www.camping-pitsoni.gr"}},"1406912608":{"location":[40.0506586,23.9905378],"ct":"GR","tp":"CS","ts":"2024-08-25T19:54:56Z","tX":580,"tY":387,"tags":{"caravans":"yes","name":"Katerina","tents":"yes"}},"1406954281":{"location":[40.0242539,24.0169361],"ct":"GR","tp":"CS","ts":"2011-08-21T11:38:22Z","tX":580,"tY":387,"tags":{"name":"Christina Kriaritsi"}},"1406954284":{"location":[40.0253138,24.0169414],"ct":"GR","tp":"CS","ts":"2024-09-24T11:26:55Z","tX":580,"tY":387,"tags":{"caravans":"yes","name":"Paradisos","tents":"yes"}},"3082510772":{"location":[39.9916785,23.9920153],"ct":"GR","tp":"CS","ts":"2015-08-26T17:47:25Z","tX":580,"tY":387,"tags":{"name":"Camping Porto"}},"3712350592":{"location":[39.9911134,23.9888636],"ct":"GR","tp":"CS","ts":"2023-01-10T14:33:32Z","tX":580,"tY":387,"tags":{"addr:place":"Kalamitsi","addr:street":"Περιμετρική Οδός Σιθωνίας","name":"Jovanka rooms"}},"3712616240":{"location":[39.9928088,23.9922998],"ct":"GR","tp":"CS","ts":"2023-08-14T08:39:25Z","tX":580,"tY":387,"tags":{"cabins":"yes","caravans":"yes","mobile":"+30 693 285 4529; +30 699 713 2462","motorhome":"yes","name":"Καλαμίτσι","name:el":"Καλαμίτσι","name:en":"Kalamitsi","phone":"+30 2375 042086","shower":"yes","tents":"yes","toilets":"yes","website":"https://www.tsitreli.gr"}},"5056224222":{"location":[40.1265519,23.9679764],"ct":"GR","tp":"CS","ts":"2017-08-24T12:37:32Z","tX":580,"tY":387,"tags":{"name:en":"Free Camping"}},"5559957725":{"location":[40.1254714,23.9641004],"ct":"GR","tp":"CS","ts":"2018-04-17T19:19:00Z","tX":580,"tY":387,"tags":{}}}