{"26860088":{"location":[38.1316705,24.0072169],"ct":"GR","tp":"CS","ts":"2018-09-02T18:23:56Z","tX":580,"tY":394,"tags":{"addr:city":"Μαραθώνας","addr:postcode":"19007","name":"Octopus","phone":"+30 22940 55855","website":"http://ramnous.gr/"}},"825427163":{"location":[38.0633694,23.9869378],"ct":"GR","tp":"CS","ts":"2020-07-12T15:07:05Z","tX":580,"tY":394,"tags":{"addr:city":"Νέα Μάκρη","addr:postcode":"19005","name":"Τα Κονάκια, Σώμα Ελληνικού Οδηγισμού","operator":"Σώμα Ελληνικού Οδηγισμού"}},"4498209390":{"location":[38.0634816,23.9925513],"ct":"GR","tp":"CS","ts":"2025-02-21T00:59:09Z","tX":580,"tY":394,"tags":{"access":"private","addr:postcode":"19005","addr:street":"Λεωφ. Ποσειδω´νος","name":"Προσκοπικό Εκπαιδευτικό Κέντρο \"Άγιος Ανδρέας\"","name:el":"Προσκοπικό Εκπαιδευτικό Κέντρο \"Άγιος Ανδρέας\"","name:en":"Scouting Training Campsite \"Saint Andrew\"","opening_hours":"Fr-Su","phone":"+30 22 94097005"}},"6455509807":{"location":[38.0922482,23.974369],"ct":"GR","tp":"CS","ts":"2020-02-11T23:08:23Z","tX":580,"tY":394,"tags":{"addr:city":"Nea Makri","addr:housenumber":"156","addr:street":"Leof. Marathonos","name":"Camping Nea Makri","opening_hours":"Jan-Dec","phone":"+30 22940 92719","website":"www.campingneamakri.gr"}}}