{"101895928":{"location":[46.6251074,-71.2342369],"ct":"CA","tp":"CS","ts":"2011-02-27T03:14:28Z","tX":309,"tY":361,"tags":{"source":"NRCan-CanVec-7.0"}},"101910974":{"location":[46.7112178,-71.1127118],"ct":"CA","tp":"CS","ts":"2011-02-27T04:54:31Z","tX":309,"tY":361,"tags":{"source":"NRCan-CanVec-7.0"}},"101912292":{"location":[46.6868918,-71.3285265],"ct":"CA","tp":"CS","ts":"2022-03-23T19:26:31Z","tX":309,"tY":361,"tags":{"addr:housenumber":"1012","addr:street":"Chemin Olivier","name":"Camping Bernières","source":"NRCan-CanVec-7.0"}},"143914609":{"location":[46.7012494,-71.3041104],"ct":"CA","tp":"CR","ts":"2021-12-23T02:29:35Z","tX":309,"tY":361,"tags":{"addr:housenumber":"684","addr:postcode":"G7A 2N6","addr:street":"Chemin Olivier","brand":"KOA","brand:wikidata":"Q16988635","brand:wikipedia":"en:Kampgrounds of America","name":"KOA Quebec City","phone":"+1-418-831-1813","short_name":"KOA","source":"NRCan-CanVec-8.0"}},"487158602":{"location":[46.6698829,-71.2445457],"ct":"CA","tp":"CR","ts":"2022-03-24T10:22:45Z","tX":309,"tY":361,"tags":{"name":"Boisé de la Chaudière - Camping Caravaning"}},"1043264909":{"location":[46.6249423,-71.2413502],"ct":"CA","tp":"CR","ts":"2022-03-23T21:39:19Z","tX":309,"tY":361,"tags":{"name":"Camping Remous de la Chaudière"}},"1043264913":{"location":[46.5632538,-71.2011509],"ct":"CA","tp":"CR","ts":"2022-03-23T21:39:19Z","tX":309,"tY":361,"tags":{"addr:housenumber":"1635","addr:street":"Rue des Érables","name":"Camping Le Ruisseau Bleu"}},"9873205888":{"location":[46.7552334,-71.1798291],"ct":"CA","tp":"SD","ts":"2022-07-07T20:46:39Z","tX":309,"tY":361,"tags":{}}}