{"750530530":{"location":[45.355582,-71.0673661],"ct":"CA","tp":"CS","ts":"2019-11-28T16:52:45Z","tX":309,"tY":366,"tags":{"addr:housenumber":"178","addr:street":"Route de l'Église","name":"Camping Kassyopée"}},"969578350":{"location":[45.5248939,-71.2713004],"ct":"CA","tp":"CS","ts":"2022-03-10T02:18:42Z","tX":309,"tY":366,"tags":{"addr:city":"Scotstown","addr:housenumber":"11","addr:street":"Rue du Parc","name":"Camping de la Rivière Étoilée","shower":"yes","website":"https://campingriviereetoilee.com/"}},"971037505":{"location":[45.5254081,-71.2733165],"ct":"CA","tp":"CR","ts":"2024-07-23T00:29:40Z","tX":309,"tY":366,"tags":{"name":"Zone VR"}},"1014884950":{"location":[45.4833601,-71.2067208],"ct":"CA","tp":"CS","ts":"2024-02-05T18:30:29Z","tX":309,"tY":366,"tags":{"name":"Camping de Franceville","operator":"SEPAQ"}},"1017673875":{"location":[45.4428806,-71.084424],"ct":"CA","tp":"CS","ts":"2022-09-06T03:07:59Z","tX":309,"tY":366,"tags":{"addr:city":"Val-Racine","addr:housenumber":"4149","addr:street":"Chemin de la Montagne","capacity":"50","name":"Camping La Cédrière de la Montagne","website":"http://www.camping-mont-megantic.com/"}},"3732169627":{"location":[45.481397,-71.2105818],"ct":"CA","tp":"SD","ts":"2015-09-06T20:28:25Z","tX":309,"tY":366,"tags":{}},"6268800650":{"location":[45.3612864,-71.1583561],"ct":"CA","tp":"CS","ts":"2019-02-09T22:35:34Z","tX":309,"tY":366,"tags":{"backcountry":"yes","name":"Camping de la Rivière au Saumon"}},"7139468124":{"location":[45.4420071,-71.1358023],"ct":"CA","tp":"CS","ts":"2020-12-31T14:16:09Z","tX":309,"tY":366,"tags":{"access":"customers","backcountry":"yes","capacity":"16","fee":"yes","name":"Camping sauvage Grande-Ourse (13 plate-formes)","operator":"SEPAQ"}},"9129931977":{"location":[45.4229273,-71.1288798],"ct":"CA","tp":"CS","ts":"2022-12-14T17:03:34Z","tX":309,"tY":366,"tags":{"camp_site":"standard","caravans":"no","fee":"yes","lit":"no","motor_vehicle":"no","name":"Camping cyclistes ASTROLab","operator":"Parc national du Mont-Mégantic","reservation":"no","tents":"yes","website":"https://www.sepaq.com/pq/mme/"}},"9386754756":{"location":[45.4393212,-71.084456],"ct":"CA","tp":"SD","ts":"2022-01-02T22:12:00Z","tX":309,"tY":366,"tags":{}},"10170253479":{"location":[45.3922009,-71.0737956],"ct":"CA","tp":"SD","ts":"2022-11-08T23:53:32Z","tX":309,"tY":366,"tags":{}}}