{"40596944":{"location":[43.0805427,-71.1523061],"ct":"US","tp":"CS","ts":"2024-08-09T20:01:00Z","tX":309,"tY":375,"tags":{"landuse":"forest","leaf_cycle":"mixed","leaf_type":"mixed","name":"Horse Island Campground","place":"islet","wikidata":"Q49641477"}},"465280209":{"location":[43.185587,-71.0280245],"ct":"US","tp":"CS","ts":"2023-11-02T22:39:42Z","tX":309,"tY":375,"tags":{"addr:housenumber":"7","addr:street":"Barrington Shore Drive","fee":"yes","internet_access":"wlan","internet_access:fee":"no","internet_access:ssid":"Campers","name":"Barrington Shores Campground","phone":"+1 603 664 9333","website":"https://www.barringtonshores.com/"}},"608141791":{"location":[43.1149096,-71.3276611],"ct":"US","tp":"CS","ts":"2024-06-18T04:21:32Z","tX":309,"tY":375,"tags":{"caravans":"yes","name":"Bear Brook State Park Campground","operator":"New Hampshire State Park","sanitary_dump_station":"customers","tents":"yes"}},"611288780":{"location":[43.0860893,-71.1464889],"ct":"US","tp":"CS","ts":"2023-08-02T02:11:05Z","tX":309,"tY":375,"tags":{"name":"Big Island Campground","operator":"Pawtuckaway State Park"}},"611288781":{"location":[43.0871317,-71.1601533],"ct":"US","tp":"CS","ts":"2018-07-31T20:36:35Z","tX":309,"tY":375,"tags":{"name":"Youth Group Campground"}},"612764282":{"location":[43.0850402,-71.1582982],"ct":"US","tp":"CS","ts":"2024-06-30T01:28:30Z","tX":309,"tY":375,"tags":{"caravans":"yes","internet_access":"no","name":"Neal's Cove Camping Area","tents":"yes"}},"731561542":{"location":[43.1018188,-71.2405774],"ct":"US","tp":"CS","ts":"2019-10-04T11:09:38Z","tX":309,"tY":375,"tags":{"name":"Campground"}},"1151075996":{"location":[43.323113,-71.0349571],"ct":"US","tp":"CR","ts":"2023-03-03T22:14:38Z","tX":309,"tY":375,"tags":{}},"2288160631":{"location":[43.1816843,-71.1805669],"ct":"US","tp":"CR","ts":"2021-10-30T15:54:49Z","tX":309,"tY":375,"tags":{"name":"Saddleback Campground"}},"2448382361":{"location":[43.0781771,-71.1719444],"ct":"US","tp":"CR","ts":"2014-03-22T01:30:40Z","tX":309,"tY":375,"tags":{"name":"Pawtuckaway State Park"}},"4582611320":{"location":[43.2856965,-71.0680856],"ct":"US","tp":"CS","ts":"2021-04-02T05:27:50Z","tX":309,"tY":375,"tags":{"addr:housenumber":"79","addr:postcode":"03884","addr:street":"First Crown Point Road","name":"KOA - Stratford / Lake Winnipesaukee South"}},"5789663053":{"location":[43.0833242,-71.1487256],"ct":"US","tp":"CS","ts":"2024-06-30T01:28:30Z","tX":309,"tY":375,"tags":{"backcountry":"yes","name":"Remote Campsite","ref":"R1","tents":"yes"}},"9854433394":{"location":[43.2082825,-71.2391044],"ct":"US","tp":"CS","ts":"2022-06-28T23:44:48Z","tX":309,"tY":375,"tags":{"name":"Boy Scouts Camp Wah-Tut-Ca"}},"11944486957":{"location":[43.2487423,-71.0491373],"ct":"US","tp":"CS","ts":"2024-05-30T09:06:01Z","tX":309,"tY":375,"tags":{"addr:city":"Barrington","addr:postcode":"03825","addr:state":"NH","addr:street":"497 Washington St","country":"USA","name":"Ayers Lake Farm Campground & Cottages","opening_hours":"Mo-Su 10:00-20:00","payment:american_express":"yes","payment:cash":"yes","payment:cheque":"yes","payment:discover_card":"yes","payment:mastercard":"yes","payment:visa":"yes","phone":"603-335-1110","website":"https://ayerslakecampground.com","year":"1961"}},"5762310606":{"location":[43.1162596,-71.3282713],"ct":"US","tp":"SD","ts":"2018-07-21T20:38:19Z","tX":309,"tY":375,"tags":{"fee":"yes","sanitary_dump_station:round_drain":"yes"}}}