{"328605346":{"location":[42.6074699,-71.0869044],"ct":"US","tp":"CS","ts":"2020-05-26T19:43:23Z","tX":309,"tY":377,"tags":{"name":"Camp Evergreen","operator":"Jim Lescatoff"}},"610689081":{"location":[42.6074374,-71.0962377],"ct":"US","tp":"CS","ts":"2025-06-20T18:31:40Z","tX":309,"tY":377,"tags":{"addr:city":"Andover Ma.","addr:housenumber":"133","addr:postcode":"01810","addr:street":"Jenkins Road","alt_name":"Loraine Campground","name":"Lorraine Campground","phone":"+1 978-475-7972"}},"762767759":{"location":[42.6385193,-71.1511421],"ct":"US","tp":"CS","ts":"2021-12-21T06:03:47Z","tX":309,"tY":377,"tags":{"addr:city":"Andover","addr:housenumber":"141","addr:state":"MA","addr:street":"Abbot Street","name":"Camp Maude Eaton","operator":"Girl Scouts of Eastern Massachusetts"}},"808542708":{"location":[42.6061383,-71.0882079],"ct":"US","tp":"CS","ts":"2020-05-26T19:43:56Z","tX":309,"tY":377,"tags":{"name":"Camp Evergreen"}},"4333165632":{"location":[42.7346035,-71.2615316],"ct":"US","tp":"CS","ts":"2024-09-29T22:44:15Z","tX":309,"tY":377,"tags":{"backcountry":"yes"}}}