{"855215618":{"location":[42.2313949,-71.2456942],"ct":"US","tp":"CS","ts":"2023-09-14T17:00:22Z","tX":309,"tY":379,"tags":{"addr:city":"Dover","addr:housenumber:en":"294","addr:state":"MA","addr:street":"Powissett Street","contact:phone":"+1 781 329 9300","contact:website":"https://www.bostonjcc.org/summer-and-vacation-camps/camp-grossman","description":"Summer Camp","name":"JCC Camp Grossman","source":"local knowledge"}},"1340746737":{"location":[42.0384699,-71.2840969],"ct":"US","tp":"CS","ts":"2024-12-07T13:30:58Z","tX":309,"tY":379,"tags":{"addr:city":"Foxborough","addr:housenumber":"72","addr:postcode":"02035","addr:state":"MA","addr:street":"West Street","mobile":"+1 866 673 2767","name":"Normandy Farms Campground","website":"https://normandyfarms.com"}},"1822216893":{"location":[42.1931093,-71.0865663],"ct":"US","tp":"CS","ts":"2023-11-04T16:59:36Z","tX":309,"tY":379,"tags":{"heritage":"2","heritage:operator":"nrhp","name":"Ponkapoag Camp of Appalachian Mountain Club","nrhp:inscription_date":"1980-09-25","operator":"Appalachian Mountain Club","ref:nrhp":"80000657","start_date":"1920","website":"https://ponkapoagcamp.org/","wikidata":"Q7227869","wikipedia":"en:Ponkapoag Camp of Appalachian Mountain Club"}},"1965999424":{"location":[42.2240845,-71.285667],"ct":"US","tp":"CS","ts":"2012-10-15T00:30:56Z","tX":309,"tY":379,"tags":{}},"6639156922":{"location":[42.1947076,-71.0876244],"ct":"US","tp":"CS","ts":"2019-07-23T00:38:54Z","tX":309,"tY":379,"tags":{"name":"Spang Camp Site"}},"6639156928":{"location":[42.1912319,-71.0877258],"ct":"US","tp":"CS","ts":"2019-07-23T00:38:54Z","tX":309,"tY":379,"tags":{"name":"Missionary Point"}},"6641268910":{"location":[42.1990602,-71.1053743],"ct":"US","tp":"CS","ts":"2019-07-23T16:46:07Z","tX":309,"tY":379,"tags":{"name":"YMCA Camp"}},"8394289374":{"location":[42.1314352,-71.0826756],"ct":"US","tp":"CS","ts":"2021-02-11T02:25:54Z","tX":309,"tY":379,"tags":{"name":"Camp Christina Entrance"}}}