{"836965232":{"location":[-40.1237524,-71.2928218],"ct":"AR","tp":"CS","ts":"2024-11-15T15:56:13Z","tX":309,"tY":636,"tags":{"addr:city":"San Martín de los Andes","addr:postcode":"8370","addr:street":"Callejón de GinGins","name":"Camping Amigos de la Naturaleza"}},"1128278744":{"location":[-39.9509452,-71.065231],"ct":"AR","tp":"CS","ts":"2023-12-04T15:19:38Z","tX":309,"tY":636,"tags":{"group_only":"yes","name":"Planta de Campamentos Educativos N°2"}},"1359707432":{"location":[-40.1378802,-71.2966581],"ct":"AR","tp":"CS","ts":"2025-02-13T21:57:01Z","tX":309,"tY":636,"tags":{"addr:city":"La Vega","addr:housenumber":"140","addr:postcode":"Q8370","addr:street":"Callejón de Bello","camp_site":"deluxe","caravans":"yes","contact:facebook":"https://www.facebook.com/profile.php?id=100046132793927#","contact:instagram":"https://www.instagram.com/travellers.camping.dorms/","email":"info@travellers.com.ar","fee":"yes","mobile":"+54 9 294 495 3197","name":"Travellers Camping & Dorms","phone":"+54 297 242-5167","static_caravans":"no","tents":"no","website":"https://travellers.com.ar/"}},"1365668831":{"location":[-40.1238386,-71.29245],"ct":"AR","tp":"CS","ts":"2025-03-09T05:33:36Z","tX":309,"tY":636,"tags":{"access":"customers","addr:city":"La Vega","addr:housenumber":"1553","addr:postcode":"Q8370","addr:street":"Callejón de Gin Gins","camp_site":"serviced","caravans":"no","contact:facebook":"https://www.facebook.com/campingamigosnatu/","contact:instagram":"https://www.instagram.com/campingamigosnatu/","fee":"yes","name":"Camping Amigos de la Naturaleza","phone":"+54 297 242-7249","static_caravans":"no","tents":"yes"}},"1378826211":{"location":[-40.138413,-71.2901159],"ct":"AR","tp":"CS","ts":"2025-04-19T04:16:41Z","tX":309,"tY":636,"tags":{"addr:city":"Los Faldeos","addr:housenumber":"Km 2217,9","addr:postcode":"Q8370","addr:street":"Ruta Nacional 40","camp_site":"basic","fee":"yes","name":"Camping El Molino","tents":"yes"}},"2012735742":{"location":[-40.0211645,-71.3612524],"ct":"AR","tp":"CS","ts":"2024-08-04T18:58:07Z","tX":309,"tY":636,"tags":{"backcountry":"yes","informal":"yes","name":"Lago Lolog – Bush Camp"}},"3277237422":{"location":[-39.9647278,-71.0760571],"ct":"AR","tp":"CS","ts":"2023-05-16T21:47:27Z","tX":309,"tY":636,"tags":{"access":"no","name":"Toscas Blancas"}},"4098615885":{"location":[-40.0616624,-71.3207065],"ct":"AR","tp":"CS","ts":"2016-07-27T19:54:21Z","tX":309,"tY":636,"tags":{}},"4798952022":{"location":[-40.1495292,-71.3537906],"ct":"AR","tp":"CS","ts":"2021-11-05T18:58:24Z","tX":309,"tY":636,"tags":{"name":"Camping Parra family","name:es":"Camping Parra family","opening_hours":"Mo-Su 09:00-22:00","operator":"Angélica & Luis","phone":"+5492944131915"}},"5282675822":{"location":[-40.1380344,-71.2903978],"ct":"AR","tp":"CS","ts":"2018-04-12T20:56:25Z","tX":309,"tY":636,"tags":{"addr:housenumber":"2118","addr:street":"Ruta Nacional 40","internet_access":"wlan","name":"Camping El Molino"}},"8245186617":{"location":[-40.1378354,-71.2961473],"ct":"AR","tp":"CS","ts":"2020-12-20T15:51:26Z","tX":309,"tY":636,"tags":{"addr:housenumber":"140","addr:postcode":"8370","addr:street":"Callejón de Bello","email":"travellers.camping.dorms@gmail.com","internet_access":"wlan","name":"TRAVELLERS CAMPING & DORMS","opening_hours":"Mo-Su 08:30-23:30","operator":"ERI & MAX","phone":"+5492944953197","website":"http://www.travellers.com"}},"9081327958":{"location":[-39.9539438,-71.06435],"ct":"AR","tp":"CS","ts":"2021-09-11T04:28:08Z","tX":309,"tY":636,"tags":{"name":"Camping La Isla"}},"9081327969":{"location":[-39.9538102,-71.0656482],"ct":"AR","tp":"CS","ts":"2021-09-11T04:28:08Z","tX":309,"tY":636,"tags":{"name":"Camping Laura Vicuña"}},"9435344117":{"location":[-40.1534454,-71.3327708],"ct":"AR","tp":"CS","ts":"2024-11-27T11:37:29Z","tX":309,"tY":636,"tags":{"addr:housenumber":"2176","addr:postcode":"8370","addr:street":"Avenida Rodolfo Koessler","internet_access":"wlan","name":"A.C.A.","opening_hours":"24/7","phone":"02972429430","website":"http://www.complejoaca.com/"}},"9498140729":{"location":[-40.1457445,-71.3488948],"ct":"AR","tp":"CS","ts":"2022-02-11T14:00:57Z","tX":309,"tY":636,"tags":{"name":"Camping Bandurrias"}},"10225904032":{"location":[-39.9162216,-71.098793],"ct":"AR","tp":"CS","ts":"2022-11-29T15:43:06Z","tX":309,"tY":636,"tags":{"name":"Camping santa lucia"}},"12366425188":{"location":[-40.1584019,-71.3275388],"ct":"AR","tp":"CS","ts":"2024-11-23T04:09:54Z","tX":309,"tY":636,"tags":{}},"12608623090":{"location":[-40.1596861,-71.360821],"ct":"AR","tp":"CR","ts":"2025-02-21T23:23:49Z","tX":309,"tY":636,"tags":{"internet_access":"yes","internet_access:fee":"no","power_supply":"no","sanitary_dump_station":"no"}}}