{"84417019":{"location":[45.113061,-63.4066782],"ct":"CA","tp":"CS","ts":"2023-06-26T06:01:02Z","tX":331,"tY":367,"tags":{"addr:city":"Shubenacadie","addr:housenumber":"14201","addr:postcode":"B0N 2H0","addr:street":"Highway 215","caravans":"yes","name":"Whispering Winds Family Campground","phone":"+1 902-758-2177","source":"CanVec 6.0 - NRCan","tents":"yes","website":"https://www.whisperingwindscampground.ca/"}},"240199093":{"location":[45.2861231,-63.2867939],"ct":"CA","tp":"CS","ts":"2023-03-09T00:22:01Z","tX":331,"tY":367,"tags":{"addr:city":"Hilden","addr:housenumber":"1911","addr:postcode":"B0N 1CO","addr:province":"Nova Scotia","addr:street":"Highway 2","caravans":"yes","internet_access":"wlan","internet_access:fee":"no","name":"Scotia Pine Campground","phone":"+1 902-893-3666","source":"NRCan-CanVec-10.0","tents":"yes","website":"https://scotiapine.ca/"}},"414479193":{"location":[45.1440027,-63.4502893],"ct":"CA","tp":"CS","ts":"2016-04-29T18:28:53Z","tX":331,"tY":367,"tags":{}},"478310894":{"location":[45.2342151,-63.4449043],"ct":"CA","tp":"CS","ts":"2018-06-20T14:47:30Z","tX":331,"tY":367,"tags":{"name":"Wide Open Wilderness","phone":"+1-902-261-2228"}},"520715405":{"location":[45.10083,-63.3886055],"ct":"CA","tp":"CS","ts":"2023-06-25T03:41:45Z","tX":331,"tY":367,"tags":{"addr:city":"Shubenacadie","addr:housenumber":"20961","addr:province":"Nova Scotia","addr:street":"Highway 2","caravans":"yes","email":"wildnaturecampground@outlook.com","internet_access":"wlan","internet_access:fee":"no","name":"Wild Nature Campground","phone":"+1 902-758-1631","tents":"yes","website":"https://www.wildnaturecampground.com/"}},"1137475950":{"location":[45.1935843,-63.5553077],"ct":"CA","tp":"CS","ts":"2023-02-03T04:05:50Z","tX":331,"tY":367,"tags":{"addr:city":"Georgefield","addr:housenumber":"1745","addr:postcode":"B0N 2L0","addr:province":"Nova Scotia","addr:street":"Georgefield Road","caravans":"yes","email":"stay@shenaniganscamping.ca","name":"Shenanigans Campground and RV Park","phone":"+1 902-957-1293","tents":"yes","website":"http://www.shenaniganscamping.ca/"}}}