{"82696947":{"location":[44.7063381,-63.5536668],"ct":"CA","tp":"CS","ts":"2024-07-02T03:08:27Z","tX":331,"tY":369,"tags":{"addr:city":"Dartmouth","addr:housenumber":"30","addr:postcode":"B2X 2V4","addr:province":"Nova Scotia","addr:street":"John Brenton Drive","name":"Shubie Park Campground","opening_hours":"06:00-22:00","operator":"Halifax Regional Municipality","operator:type":"public","operator:wikidata":"Q2141","owner":"Halifax Regional Municipality","ownership":"municipal","phone":"+1 902-435-8328","source":"Halifax Regional Municipality","website":"https://www.shubiecampground.com"}},"958299106":{"location":[44.6883402,-63.2950985],"ct":"CA","tp":"CS","ts":"2021-06-25T21:59:08Z","tX":331,"tY":369,"tags":{}},"958299107":{"location":[44.6908574,-63.2949055],"ct":"CA","tp":"CS","ts":"2021-06-25T21:59:08Z","tX":331,"tY":369,"tags":{}},"958299108":{"location":[44.686488,-63.2907025],"ct":"CA","tp":"CS","ts":"2021-06-25T21:59:08Z","tX":331,"tY":369,"tags":{}},"1058957640":{"location":[44.8256008,-63.5904003],"ct":"CA","tp":"CS","ts":"2024-02-18T08:18:40Z","tX":331,"tY":369,"tags":{"addr:city":"Fall River","addr:housenumber":"108","addr:province":"Nova Scotia","addr:street":"Sanctuary Court","name":"Miller Lake Camp","operator":"Nova Scotia United Pentecostal Church"}},"1287054401":{"location":[44.7062323,-63.5545231],"ct":"CA","tp":"CR","ts":"2011-05-16T00:25:49Z","tX":331,"tY":369,"tags":{}},"1710870481":{"location":[44.6865419,-63.2907944],"ct":"CA","tp":"CS","ts":"2012-04-11T02:05:36Z","tX":331,"tY":369,"tags":{"source":"NRCan-CanVec-8.0"}},"2396079973":{"location":[44.7069245,-63.5537918],"ct":"CA","tp":"CS","ts":"2024-07-13T17:38:47Z","tX":331,"tY":369,"tags":{"addr:city":"Dartmouth","addr:housenumber":"30","addr:postcode":"B2X 2V4","addr:province":"Nova Scotia","addr:street":"John Brenton Drive","caravans":"yes","name":"Shubie Campground","phone":"+1 902-435-8328","tents":"yes","website":"https://www.shubiecampground.com"}},"7797131591":{"location":[44.6135364,-63.5277632],"ct":"CA","tp":"CS","ts":"2020-08-09T01:37:13Z","tX":331,"tY":369,"tags":{}}}