{"14074202":{"location":[-35.9295435,147.7096538],"ct":"AU","tp":"CS","ts":"2025-03-17T18:24:11Z","tX":932,"tY":621,"tags":{"access":"yes","camp_site":"basic","caravans":"yes","fee":"no","name":"Pebble Beach - Murray River Reserve","note":"boundary is approximate","operator":"Parks Victoria","source:name":"Sign at entrance seen in March 2022","tents":"yes","toilets":"no"}},"176980568":{"location":[-35.954745,147.737324],"ct":"AU","tp":"CR","ts":"2025-03-17T17:55:50Z","tX":932,"tY":621,"tags":{"addr:housenumber":"110","addr:postcode":"3709","addr:state":"VIC","addr:street":"River Road","addr:suburb":"Walwa","cabins":"yes","contact:facebook":"https://www.facebook.com/WalwaRiversideCaravanPark/","email":"stay@walwariversidecaravanpark.com.au","internet_access":"yes","kitchen":"yes","laundry":"yes","name":"Walwa Riverside Caravan Park","phone":"+61 2 6037 1388","power_supply":"yes","source":"bing","tents":"yes","website":"https://www.walwariversidecaravanpark.com.au/"}},"277724944":{"location":[-35.9291853,147.7034063],"ct":"AU","tp":"CS","ts":"2025-03-17T20:56:24Z","tX":932,"tY":621,"tags":{"access":"yes","caravans":"yes","fee":"no","fixme":"maxstay?","name":"Jingellic Reserve","note":"Toilet/Shower provided by hotel.","operator":"Snowy Valleys Council","tents":"yes","toilets":"yes"}},"1083769201":{"location":[-35.8118092,147.9795266],"ct":"AU","tp":"CS","ts":"2024-11-23T02:25:51Z","tX":932,"tY":621,"tags":{"name":"Lake Mannus Campground"}},"1808392745":{"location":[-36.0233946,147.9129861],"ct":"AU","tp":"CS","ts":"2025-03-17T10:31:32Z","tX":932,"tY":621,"tags":{"access":"yes","camp_site":"basic","caravans":"yes","dog":"no","fee":"no","name":"Clarke Lagoon Reserve","operator":"Parks Victoria","tents":"yes","toilets":"no"}},"1811181833":{"location":[-35.8121504,147.979906],"ct":"AU","tp":"CS","ts":"2023-08-07T08:17:49Z","tX":932,"tY":621,"tags":{"name":"Lake Mannus","operator":"Manus State Forest","tents":"yes"}},"4700607200":{"location":[-35.7784653,147.9411643],"ct":"AU","tp":"CS","ts":"2023-08-07T08:17:49Z","tX":932,"tY":621,"tags":{"name":"Mannus Campsite","operator":"Manus State Forest","source":"LPI Base Map Feb 2017","tents":"yes"}},"4700607450":{"location":[-35.8186874,147.8480407],"ct":"AU","tp":"CS","ts":"2023-08-07T08:17:49Z","tX":932,"tY":621,"tags":{"name":"Mundaroo Campsite","operator":"Mundaroo State Forest","source":"LPI Base Map Feb 2017","tents":"yes"}},"9787066157":{"location":[-35.974416,147.8141302],"ct":"AU","tp":"CS","ts":"2022-06-02T00:11:25Z","tX":932,"tY":621,"tags":{"name":"Neils Bend"}},"12673939679":{"location":[-35.9271564,147.6985384],"ct":"AU","tp":"CS","ts":"2025-03-17T19:51:21Z","tX":932,"tY":621,"tags":{"access":"customers","addr:housenumber":"3211","addr:postcode":"2642","addr:state":"NSW","addr:street":"River Road","addr:suburb":"Jingellic","caravans":"yes","contact:facebook":"https://www.facebook.com/Jingellic/","fee":"yes","name":"Jingellic Showground","payment:caretaker":"yes","power_supply":"yes","shower":"yes","tents":"yes","toilets":"yes","website":"https://www.jingellic.org.au/camping"}},"12672790746":{"location":[-35.9620822,147.7366719],"ct":"AU","tp":"SD","ts":"2025-03-17T10:31:32Z","tX":932,"tY":621,"tags":{"access":"yes"}}}