{"54690308":{"location":[-37.8918842,147.6812455],"ct":"AU","tp":"CR","ts":"2022-11-27T04:53:34Z","tX":932,"tY":628,"tags":{"name":"Eagle Point Caravan Park"}},"170693276":{"location":[-37.8175081,147.6570949],"ct":"AU","tp":"CR","ts":"2019-03-04T23:27:13Z","tX":932,"tY":628,"tags":{"brand":"Big 4","name":"Bairnsdale Holiday Park: Big 4","website":"https://www.big4.com.au/caravan-parks/vic/bairnsdale"}},"189992738":{"location":[-37.9129069,147.7263455],"ct":"AU","tp":"CR","ts":"2022-11-26T08:04:49Z","tX":932,"tY":628,"tags":{"fee":"yes","name":"Allawah Caravan and Boat Park","power_supply":"yes"}},"189992752":{"location":[-37.8161453,147.7381313],"ct":"AU","tp":"CR","ts":"2021-01-14T07:49:22Z","tX":932,"tY":628,"tags":{"name":"Nicholson River Tourist Park","website":"https://nicholsonriver.com.au/"}},"189992759":{"location":[-37.8809068,147.9776169],"ct":"AU","tp":"CR","ts":"2012-11-10T07:52:46Z","tX":932,"tY":628,"tags":{"name":"North Arm Tourist Park"}},"189992765":{"location":[-37.9173258,147.7138775],"ct":"AU","tp":"CR","ts":"2020-08-02T11:40:16Z","tX":932,"tY":628,"tags":{"name":"Resthaven Caravan Park"}},"220543137":{"location":[-37.8218692,147.8697484],"ct":"AU","tp":"CR","ts":"2017-05-19T03:18:52Z","tX":932,"tY":628,"tags":{"name":"Swan Reach Gardens Tourist Park","source":"survey"}},"220543760":{"location":[-37.8694203,147.9565741],"ct":"AU","tp":"CR","ts":"2013-05-08T23:54:03Z","tX":932,"tY":628,"tags":{"name":"Lakes Caravilla Caravan Park"}},"310463369":{"location":[-37.8780784,147.9895487],"ct":"AU","tp":"CR","ts":"2025-03-05T03:10:44Z","tX":932,"tY":628,"tags":{"addr:housenumber":"33","addr:postcode":"3909","addr:street":"Church Street","addr:suburb":"Lakes Entrance","name":"Woodbine Tourist Park","website":"https://woodbinetouristpark.com.au/"}},"310463370":{"location":[-37.8781952,147.9902596],"ct":"AU","tp":"CR","ts":"2025-03-05T03:10:44Z","tX":932,"tY":628,"tags":{"addr:housenumber":"35","addr:postcode":"3909","addr:street":"Church Street","addr:suburb":"Lakes Entrance","name":"El Torito Flats & Caravan Park"}},"353201849":{"location":[-37.8772832,147.9975545],"ct":"AU","tp":"CR","ts":"2015-06-12T11:54:16Z","tX":932,"tY":628,"tags":{"name":"Lakes Haven Caravan Park"}},"353201857":{"location":[-37.874726,148.0014592],"ct":"AU","tp":"CR","ts":"2015-06-12T11:54:16Z","tX":932,"tY":628,"tags":{"name":"Echo Beach Tourist Park"}},"442174769":{"location":[-37.8766593,147.995265],"ct":"AU","tp":"CR","ts":"2016-09-13T10:12:17Z","tX":932,"tY":628,"tags":{"name":"Road Nite Caravan Park"}},"467403766":{"location":[-37.8760292,148.0046206],"ct":"AU","tp":"CR","ts":"2025-03-05T03:10:44Z","tX":932,"tY":628,"tags":{"addr:housenumber":"687","addr:postcode":"3909","addr:street":"Princes Highway","addr:suburb":"Lakes Entrance","fee":"yes","name":"Koonawarra Family Holiday Park","phone":"+61 3 5155 1222","website":"http://www.koonwarrapark.com.au"}},"616894156":{"location":[-37.9534253,147.673554],"ct":"AU","tp":"CS","ts":"2025-01-23T05:11:02Z","tX":932,"tY":628,"tags":{"addr:housenumber":"19","addr:street":"Pryce Road","fee":"yes","name":"Cormorant By The Lakes","phone":"+61 3 5156 7463","website":"http://cormorantbythelakes.com/"}},"766155108":{"location":[-37.9467726,147.6628367],"ct":"AU","tp":"CS","ts":"2025-01-23T05:11:02Z","tX":932,"tY":628,"tags":{"access":"private","addr:housenumber":"39","addr:street":"Cranswick Road","email":"coolamatong@suvic.org.au","fee":"yes","internet_access":"wlan","name":"Camp Coolamatong Farm Camp","operator":"Scripture Union Victoria","phone":"+61 3 5156 6511","shower":"yes","toilets":"yes","website":"https://www.campcoolamatong.com/","wheelchair":"yes"}},"837510286":{"location":[-37.7893763,147.7833898],"ct":"AU","tp":"CR","ts":"2022-02-04T11:13:12Z","tX":932,"tY":628,"tags":{"addr:housenumber":"363","addr:postcode":"3882","addr:state":"VIC","addr:street":"Stephenson Road","addr:suburb":"Nicholson","name":"Lakes Bushland Caravan & Tourist Park","power_supply":"yes","website":"https://lakesbushland.com.au/"}},"2843291485":{"location":[-37.8265211,147.9419286],"ct":"AU","tp":"CS","ts":"2024-11-30T04:39:51Z","tX":932,"tY":628,"tags":{"name":"Log Crossing Camping Area"}},"4137265692":{"location":[-37.8780304,147.8576484],"ct":"AU","tp":"CS","ts":"2024-06-10T08:54:07Z","tX":932,"tY":628,"tags":{"name":"Chinamans - Creek","opening_hours":"24/7"}},"5831892441":{"location":[-37.9474136,147.6878544],"ct":"AU","tp":"CS","ts":"2018-08-14T10:19:40Z","tX":932,"tY":628,"tags":{"name":"Carey Outdoor Education Camp"}},"7797732204":{"location":[-37.9507857,147.6579613],"ct":"AU","tp":"CS","ts":"2023-10-17T11:35:54Z","tX":932,"tY":628,"tags":{"access":"private","addr:housenumber":"10","addr:postcode":"3875","addr:state":"VIC","addr:street":"Cranswick Road","addr:suburb":"Banksia Peninsula","name":"Camp Coorong","operator":"Al-Taqwa College","website":"https://al-taqwa.vic.edu.au/about-us/our-campuses/camp-coorong/"}},"9875709497":{"location":[-37.9508917,147.671211],"ct":"AU","tp":"CS","ts":"2022-07-09T05:18:23Z","tX":932,"tY":628,"tags":{"access":"private","name":"Camp Ibis","operator":"St Leonard's College","operator:wikidata":"Q7593995"}},"7614203328":{"location":[-37.9193463,147.7196662],"ct":"AU","tp":"SD","ts":"2024-01-27T00:59:35Z","tX":932,"tY":628,"tags":{"fee":"no"}}}