{"359763509":{"location":[35.8452456,51.4520343],"ct":"IR","tp":"CS","ts":"2025-01-08T17:57:46Z","tX":658,"tY":402,"tags":{"backcountry":"yes","bench":"yes","bin":"yes","fee":"yes","name":"پناهگاه کلکچال","name:en":"Kolakchal","tents":"yes"}},"1018545107":{"location":[35.8186525,51.4127092],"ct":"IR","tp":"CS","ts":"2024-08-02T08:52:15Z","tX":658,"tY":402,"tags":{"group_only":"yes","name":"اردوگاه شهید چمران"}},"4492263995":{"location":[35.7745317,51.4691366],"ct":"IR","tp":"CS","ts":"2024-02-11T21:37:53Z","tX":658,"tY":402,"tags":{"internet_access":"wlan","name":"خانه معلم","name:en":"Khane moalem rezvan","name:fa":"خانه معلم  رضوان","operator":"اموزش و پرورش","phone":"+982122773600"}},"4826750822":{"location":[35.8086118,51.5067955],"ct":"IR","tp":"CS","ts":"2017-12-06T04:20:27Z","tX":658,"tY":402,"tags":{"addr:street":"رضوان"}},"5746292171":{"location":[35.8775019,51.5572554],"ct":"IR","tp":"CS","ts":"2019-08-09T08:00:28Z","tX":658,"tY":402,"tags":{"name":"مناسب برای کمپ","tents":"yes"}},"5746292178":{"location":[35.8814118,51.5602341],"ct":"IR","tp":"CS","ts":"2019-08-09T08:00:28Z","tX":658,"tY":402,"tags":{"name":"مناسب برای کمپ","tents":"yes"}},"5746292182":{"location":[35.88755,51.5797955],"ct":"IR","tp":"CS","ts":"2019-08-09T08:00:28Z","tX":658,"tY":402,"tags":{"name":"مناسب برای کمپ","tents":"yes"}},"7313768987":{"location":[35.7477139,51.5017084],"ct":"IR","tp":"CS","ts":"2020-03-20T20:29:32Z","tX":658,"tY":402,"tags":{"name":"هنگام","name:fa":"هنگام"}},"7835427586":{"location":[35.7592102,51.4720151],"ct":"IR","tp":"CS","ts":"2020-08-22T16:46:02Z","tX":658,"tY":402,"tags":{"name:en":"qorban sabzi"}},"9687764317":{"location":[35.807448,51.4124769],"ct":"IR","tp":"CS","ts":"2022-04-23T11:36:20Z","tX":658,"tY":402,"tags":{"name":"فرخ حسینی","name:en":"Farokh"}},"10781606905":{"location":[35.8042344,51.3846819],"ct":"IR","tp":"CS","ts":"2023-04-03T11:23:09Z","tX":658,"tY":402,"tags":{"name":"برگزار کننده تورهای طبیعت گردی","name:en":"976camp"}}}