{"828236828":{"location":[35.7385905,51.5947501],"ct":"IR","tp":"CS","ts":"2023-08-07T11:18:41Z","tX":658,"tY":403,"tags":{"addr:city":"تهران","addr:street":"معراج","name":"مدیریت بحران"}},"5296427521":{"location":[35.6175434,51.3650217],"ct":"IR","tp":"CS","ts":"2017-12-21T07:29:28Z","tX":658,"tY":403,"tags":{"name":"کمپ شهرداری منطقه ١٩"}},"6408516987":{"location":[35.663573,51.4003168],"ct":"IR","tp":"CS","ts":"2019-04-16T07:50:07Z","tX":658,"tY":403,"tags":{"addr:street":"سعید افرادی","name:ar":"سكن"}},"7313768985":{"location":[35.6895709,51.3956265],"ct":"IR","tp":"CS","ts":"2020-03-20T20:29:30Z","tX":658,"tY":403,"tags":{"name":"ميثم","name:fa":"ميثم"}},"7313769085":{"location":[35.744705,51.5136561],"ct":"IR","tp":"CS","ts":"2020-03-20T20:29:31Z","tX":658,"tY":403,"tags":{"name":"مبل","name:fa":"مبل"}},"7761309793":{"location":[35.6284124,51.4952217],"ct":"IR","tp":"CS","ts":"2020-07-28T12:42:28Z","tX":658,"tY":403,"tags":{"name":"رضا بهرامی","name:en":"reza Bahrami"}},"8049708185":{"location":[35.7405663,51.4756684],"ct":"IR","tp":"CS","ts":"2020-10-27T08:31:15Z","tX":658,"tY":403,"tags":{"name:en":"hamid Asgari"}},"6917601885":{"location":[35.7190584,51.3281315],"ct":"IR","tp":"CR","ts":"2019-10-26T08:00:45Z","tX":658,"tY":403,"tags":{"name":"کاشت ناخن"}},"7671428086":{"location":[35.6108613,51.4971498],"ct":"IR","tp":"CR","ts":"2020-06-30T18:17:01Z","tX":658,"tY":403,"tags":{"name":"شهر‌ک رضویه(کاروان)"}},"9956215817":{"location":[35.6178596,51.4569265],"ct":"IR","tp":"CR","ts":"2022-08-16T06:03:19Z","tX":658,"tY":403,"tags":{"name":"دولة اباد"}},"12506619821":{"location":[35.7118231,51.4805326],"ct":"IR","tp":"CS","ts":"2025-01-16T09:33:42Z","tX":658,"tY":403,"tags":{"addr:city":"شهر تهران","addr:street":"دماوند","fee":"yes","group_only":"yes","mobile":"09123878536","name":"مرکز بهبودی اقامتی دنیای پاکبانان اندیشه نو","opening_hours":"24/7","operator":"تورج افراسیابی"}}}