{"5303639784":{"location":[33.7430767,51.4603794],"ct":"IR","tp":"CS","ts":"2017-12-25T20:03:22Z","tX":658,"tY":409,"tags":{"name":"اردوگاه لقمان حکیم"}},"6209965986":{"location":[33.9093545,51.4636152],"ct":"IR","tp":"CS","ts":"2019-02-01T09:46:53Z","tX":658,"tY":409,"tags":{"name":"کمپ","name:en":"Wild camping with trees"}},"7313914686":{"location":[33.9858441,51.4584882],"ct":"IR","tp":"CS","ts":"2020-03-20T21:50:18Z","tX":658,"tY":409,"tags":{"name":"مرتضی"}},"7313914985":{"location":[33.9857944,51.458797],"ct":"IR","tp":"CS","ts":"2020-03-20T21:50:17Z","tX":658,"tY":409,"tags":{"name":"مرتضی","name:en":"mortez"}},"7313915085":{"location":[33.9878412,51.4538335],"ct":"IR","tp":"CS","ts":"2020-03-20T21:50:19Z","tX":658,"tY":409,"tags":{"name:en":"baglva"}},"7764622585":{"location":[33.7528677,51.4342006],"ct":"IR","tp":"CS","ts":"2020-07-29T07:47:07Z","tX":658,"tY":409,"tags":{"name":"مجید قمصر","name:en":"majid qamsar"}},"11086025405":{"location":[33.9825216,51.4354297],"ct":"IR","tp":"CS","ts":"2023-08-03T15:29:26Z","tX":658,"tY":409,"tags":{"addr:city":"کاشان","addr:street":"شهید حسین الماسی","name":"خانه مصطفی حسنی"}}}