{"4233033290":{"location":[25.4525879,51.4938103],"ct":"QA","tp":"CR","ts":"2018-03-02T20:30:01Z","tX":658,"tY":437,"tags":{"name":"CP 07A1A Dorsch Office","name:en":"CP 07A1A Dorsch Office"}},"4269559397":{"location":[25.3476874,51.4485616],"ct":"QA","tp":"CR","ts":"2018-03-02T21:06:01Z","tX":658,"tY":437,"tags":{"name":"الغرافه","name:ar":"الغرافه"}},"4315692494":{"location":[25.1890587,51.4269927],"ct":"QA","tp":"CS","ts":"2018-03-02T21:01:24Z","tX":658,"tY":437,"tags":{"addr:street":"Street 24","name":"Top Printers","name:en":"Top Printers"}},"4461355592":{"location":[25.3950876,51.4309213],"ct":"QA","tp":"CS","ts":"2016-10-24T09:03:35Z","tX":658,"tY":437,"tags":{"name:en":"Kader"}},"4557537796":{"location":[25.4540371,51.4553984],"ct":"QA","tp":"CS","ts":"2024-06-26T14:08:13Z","tX":658,"tY":437,"tags":{"name:en":"Siraj Bhai Site"}},"4676447591":{"location":[25.3882585,51.4832788],"ct":"QA","tp":"CS","ts":"2017-02-09T12:09:57Z","tX":658,"tY":437,"tags":{"name":"معهد الدوحة للدراسات العليا","name:ar":"معهد الدوحة للدراسات العليا","name:en":"doha institute for graduate studies"}},"4964540721":{"location":[25.172231,51.6033645],"ct":"QA","tp":"CS","ts":"2017-07-11T19:58:08Z","tX":658,"tY":437,"tags":{"addr:housenumber":"20","name:en":"My Room","phone":"0097431032274"}},"6404698586":{"location":[25.3409082,51.4765534],"ct":"QA","tp":"CS","ts":"2019-04-14T16:48:28Z","tX":658,"tY":437,"tags":{"name":"Khokhawala home Doha"}},"7924579385":{"location":[25.2328493,51.3311593],"ct":"QA","tp":"CS","ts":"2020-12-03T03:46:15Z","tX":658,"tY":437,"tags":{"name":"مندي درام","name:ar":"مندي درام"}},"8301026917":{"location":[25.4705313,51.3870922],"ct":"QA","tp":"CS","ts":"2021-01-07T20:20:32Z","tX":658,"tY":437,"tags":{"name:tr":"Tekfen Family camp"}},"8355269517":{"location":[25.1832886,51.3909215],"ct":"QA","tp":"CS","ts":"2021-01-23T17:24:15Z","tX":658,"tY":437,"tags":{"name":"البيت"}},"4580908393":{"location":[25.1812226,51.563264],"ct":"QA","tp":"CR","ts":"2016-12-30T10:52:41Z","tX":658,"tY":437,"tags":{}},"4682822889":{"location":[25.254032,51.4395095],"ct":"QA","tp":"CR","ts":"2017-02-13T06:14:36Z","tX":658,"tY":437,"tags":{}},"10760372605":{"location":[25.2070582,51.4175171],"ct":"QA","tp":"CR","ts":"2023-03-25T02:15:54Z","tX":658,"tY":437,"tags":{"addr:street":"شارع 3","name":"بيتي منزلي","opening_hours":"24/7","phone":"77826048"}},"11549091869":{"location":[25.2596785,51.4603565],"ct":"QA","tp":"CR","ts":"2024-01-25T07:45:22Z","tX":658,"tY":437,"tags":{"name":"موقع البيت المتنقل"}},"11979366269":{"location":[25.3860006,51.4259342],"ct":"QA","tp":"CR","ts":"2024-06-14T00:14:51Z","tX":658,"tY":437,"tags":{"name:en":"Kharaitiyat Building Al Nouras"}}}