{"66641286":{"location":[54.3213442,-0.4476894],"ct":"GB","tp":"CR","ts":"2010-07-08T00:56:54Z","tX":510,"tY":327,"tags":{}},"67761258":{"location":[54.3644522,-0.4618401],"ct":"GB","tp":"CR","ts":"2019-09-02T11:53:13Z","tX":510,"tY":327,"tags":{}},"153625580":{"location":[54.2383065,-0.3676226],"ct":"GB","tp":"CR","ts":"2024-09-18T13:20:23Z","tX":510,"tY":327,"tags":{"addr:city":"Scarborough","addr:country":"GB","addr:postcode":"YO11 3NJ","addr:street":"Mill Lane","addr:suburb":"Cayton","alt_name":"Cayton Bay Holiday Village","brand":"Parkdean Resorts","brand:wikidata":"Q7138226","cabins":"no","caravans":"no","contact:website":"https://www.parkdeanresorts.co.uk/location/yorkshire/cayton-bay/","dog":"leashed","fee":"yes","name":"Cayton Bay Holiday Park","operator":"Parkdean Resorts UK Limited","power_supply":"no","reservation":"required","sanitary_dump_station":"no","shower":"no","static_caravans":"yes","swimming_pool":"yes","tents":"no","toilets":"yes"}},"167001177":{"location":[54.2827245,-0.7000427],"ct":"GB","tp":"CR","ts":"2020-06-07T10:48:22Z","tX":510,"tY":327,"tags":{"addr:city":"Lockton","addr:postcode":"YO18 7NQ","capacity":"5","fee":"yes","internet_access":"no","name":"Fox and Rabbit Farm","power_supply":"yes"}},"167063080":{"location":[54.2418916,-0.3704451],"ct":"GB","tp":"CR","ts":"2024-05-29T15:21:20Z","tX":510,"tY":327,"tags":{"addr:city":"Scarborough","addr:country":"GB","addr:postcode":"YO11 3NN","addr:street":"Mill Lane","addr:suburb":"Cayton","name":"Browns & Cliff Farm Caravan Parks"}},"175423036":{"location":[54.2686934,-0.4333216],"ct":"GB","tp":"CR","ts":"2019-01-20T23:40:39Z","tX":510,"tY":327,"tags":{"addr:city":"Scarborough","addr:postcode":"YO12 5NL","addr:street":"Stepney Hill","name":"Jacobs Mount Camping & Caravan Park"}},"175441753":{"location":[54.2640429,-0.4246117],"ct":"GB","tp":"CR","ts":"2016-07-21T08:16:05Z","tX":510,"tY":327,"tags":{}},"175967695":{"location":[54.2405126,-0.5168392],"ct":"GB","tp":"CR","ts":"2023-09-25T08:50:19Z","tX":510,"tY":327,"tags":{"addr:city":"Wykeham","addr:postcode":"YO13 9QD","name":"St. Helens in the Park"}},"223675752":{"location":[54.3236261,-0.4621363],"ct":"GB","tp":"CS","ts":"2024-10-01T13:52:23Z","tX":510,"tY":327,"tags":{"addr:city":"Scarborough","addr:postcode":"YO13 0DD","addr:suburb":"Burniston","name":"Applegrove Country Park"}},"224133293":{"location":[54.2233295,-0.5912011],"ct":"GB","tp":"CS","ts":"2020-02-09T17:33:31Z","tX":510,"tY":327,"tags":{"addr:city":"Snainton","addr:postcode":"YO13 9BE","addr:street":"Cross Lane","name":"Jasmine Caravan Park"}},"224242140":{"location":[54.3254245,-0.6896013],"ct":"GB","tp":"CS","ts":"2023-09-20T15:39:19Z","tX":510,"tY":327,"tags":{"addr:city":"Pickering","addr:postcode":"YO18 7NR","name":"Marfit Head Farm"}},"224849432":{"location":[54.218726,-0.5768874],"ct":"GB","tp":"CS","ts":"2013-06-08T11:50:16Z","tX":510,"tY":327,"tags":{"name":"Jasmine Park"}},"234872374":{"location":[54.2291302,-0.598435],"ct":"GB","tp":"CR","ts":"2020-02-09T17:33:31Z","tX":510,"tY":327,"tags":{"addr:city":"Snainton","addr:postcode":"YO13 9PL","name":"Coachman Caravan Park"}},"352998997":{"location":[54.1801686,-0.5718043],"ct":"GB","tp":"CR","ts":"2020-05-15T20:24:07Z","tX":510,"tY":327,"tags":{"addr:city":"East Heslerton","addr:postcode":"YO17 8EN","name":"Five Acres Caravan Park"}},"384970688":{"location":[54.1853885,-0.4053193],"ct":"GB","tp":"CR","ts":"2022-02-10T09:13:20Z","tX":510,"tY":327,"tags":{}},"396942524":{"location":[54.2370722,-0.378492],"ct":"GB","tp":"CR","ts":"2024-05-29T15:21:20Z","tX":510,"tY":327,"tags":{"addr:city":"Scarborough","addr:country":"GB","addr:postcode":"YO11 3NN","addr:street":"Mill Lane","addr:suburb":"Cayton","name":"Cayton Village Caravan and Motorhome Club Park"}},"420142126":{"location":[54.3149778,-0.4332186],"ct":"GB","tp":"CR","ts":"2024-01-08T18:51:29Z","tX":510,"tY":327,"tags":{"name":"Burnside Leisure Park"}},"424389094":{"location":[54.2332059,-0.4503669],"ct":"GB","tp":"CR","ts":"2024-05-31T07:52:03Z","tX":510,"tY":327,"tags":{"addr:city":"Scarborough","addr:country":"GB","addr:postcode":"YO12 4QB","addr:street":"Ratten Row","addr:suburb":"Seamer","name":"Arosa Caravan Park"}},"430803759":{"location":[54.2433182,-0.4272309],"ct":"GB","tp":"CR","ts":"2024-05-31T07:52:03Z","tX":510,"tY":327,"tags":{"addr:city":"Scarborough","addr:country":"GB","addr:postcode":"YO12 4ND","addr:street":"Seamer Road","addr:suburb":"Crossgates","name":"Saxon Park"}},"458180460":{"location":[54.1988396,-0.4252723],"ct":"GB","tp":"CR","ts":"2020-03-04T15:04:02Z","tX":510,"tY":327,"tags":{"name":"Flixton Caravan Park"}},"458180465":{"location":[54.1981602,-0.430447],"ct":"GB","tp":"CR","ts":"2024-05-31T07:52:03Z","tX":510,"tY":327,"tags":{"addr:city":"Scarborough","addr:country":"GB","addr:postcode":"YO12 4SB","addr:suburb":"Staxton","name":"Spring Willows"}},"494460234":{"location":[54.2182334,-0.647957],"ct":"GB","tp":"CS","ts":"2017-05-18T16:11:42Z","tX":510,"tY":327,"tags":{"fee":"yes","internet_access":"wlan","internet_access:fee":"no","name":"Vale Of Pickering Caravan Park","tents":"yes","website":"http://valeofpickering.co.uk/"}},"502728228":{"location":[54.3007919,-0.4326217],"ct":"GB","tp":"CR","ts":"2017-06-22T15:57:36Z","tX":510,"tY":327,"tags":{}},"577968611":{"location":[54.2538478,-0.4875839],"ct":"GB","tp":"CR","ts":"2018-04-09T07:19:09Z","tX":510,"tY":327,"tags":{"addr:city":"Scarborough","addr:postcode":"YO13 9JD","addr:street":"Cockrah Road","name":"Scarborough West Ayton Club Site","operator":"The Caravan Club"}},"665626897":{"location":[54.2660401,-0.4392835],"ct":"GB","tp":"CS","ts":"2021-01-03T17:38:44Z","tX":510,"tY":327,"tags":{"addr:city":"Scarborough","addr:postcode":"YO12 5TG","name":"Pinewood Park"}},"672292559":{"location":[54.283314,-0.700182],"ct":"GB","tp":"CS","ts":"2019-02-22T12:15:32Z","tX":510,"tY":327,"tags":{}},"771855001":{"location":[54.2334405,-0.4921481],"ct":"GB","tp":"CS","ts":"2020-02-12T10:30:15Z","tX":510,"tY":327,"tags":{}},"775551219":{"location":[54.1777556,-0.5828353],"ct":"GB","tp":"CR","ts":"2020-05-15T20:24:07Z","tX":510,"tY":327,"tags":{"addr:city":"East Heslerton","addr:postcode":"YO17 8RN","addr:street":"Church Lane","name":"Manor Farm CAMC CL"}},"778039936":{"location":[54.1992696,-0.4335638],"ct":"GB","tp":"CR","ts":"2024-05-31T07:52:03Z","tX":510,"tY":327,"tags":{"addr:city":"Scarborough","addr:country":"GB","addr:postcode":"YO12 4SB","addr:suburb":"Staxton","name":"Staxton Vale"}},"778299440":{"location":[54.2013899,-0.4244836],"ct":"GB","tp":"CS","ts":"2020-03-04T15:04:02Z","tX":510,"tY":327,"tags":{"name":"Jays Caravan Park"}},"778823002":{"location":[54.2048638,-0.4327988],"ct":"GB","tp":"CS","ts":"2024-05-31T07:52:03Z","tX":510,"tY":327,"tags":{"addr:city":"Scarborough","addr:country":"GB","addr:postcode":"YO12 4NN","addr:street":"Spital Road","addr:suburb":"Staxton","alt_name":"Merry Lees Caravan Park","name":"Merry Lees Park"}},"807463491":{"location":[54.1883861,-0.5775494],"ct":"GB","tp":"CR","ts":"2020-05-23T08:55:05Z","tX":510,"tY":327,"tags":{"addr:city":"East Heslerton","addr:postcode":"YO17 8RR","addr:street":"Carr Lane","name":"Eastgate Caravan Site"}},"813598531":{"location":[54.2586951,-0.7005893],"ct":"GB","tp":"CS","ts":"2024-01-24T20:29:21Z","tX":510,"tY":327,"tags":{"addr:city":"Pickering","addr:postcode":"YO18 7LU","addr:suburb":"Thornton-le-Dale","name":"Pexton Moor Farm"}},"813598533":{"location":[54.2870534,-0.673971],"ct":"GB","tp":"CS","ts":"2024-07-24T08:06:54Z","tX":510,"tY":327,"tags":{"addr:city":"High Dalby","addr:place":"High Rigg Farm","addr:postcode":"YO18 7LP","name":"Stoneclose Campsite"}},"841523062":{"location":[54.3042517,-0.4270968],"ct":"GB","tp":"CR","ts":"2023-04-04T13:30:43Z","tX":510,"tY":327,"tags":{"addr:city":"Scarborough","addr:postcode":"YO13 0DA","addr:street":"Burniston Road","name":"Scarborough Camping and Caravanning Club","operator":"Camping & Caravanning Club"}},"866319869":{"location":[54.2445503,-0.4790797],"ct":"GB","tp":"CS","ts":"2021-06-16T15:08:49Z","tX":510,"tY":327,"tags":{"name":"Riverside Caravan Park"}},"891584023":{"location":[54.2645991,-0.4480173],"ct":"GB","tp":"CR","ts":"2021-01-03T17:38:44Z","tX":510,"tY":327,"tags":{"addr:city":"Scarborough","addr:postcode":"YO12 5TG","name":"Irton Mount"}},"893171406":{"location":[54.319255,-0.578388],"ct":"GB","tp":"CS","ts":"2024-04-21T13:14:11Z","tX":510,"tY":327,"tags":{"addr:housename":"Birch Hall Scout Campsite","addr:postcode":"YO13 0BW","addr:street":"Langdale End","name":"Birch Hall Campsite & Field Centre"}},"897058872":{"location":[54.2311429,-0.6249466],"ct":"GB","tp":"CR","ts":"2021-05-12T10:02:27Z","tX":510,"tY":327,"tags":{"name":"Studley House Farm"}},"946523379":{"location":[54.2463697,-0.5007255],"ct":"GB","tp":"CR","ts":"2021-05-24T15:48:30Z","tX":510,"tY":327,"tags":{"fixme":"Survey for details"}},"1097564121":{"location":[54.3053431,-0.4749102],"ct":"GB","tp":"CS","ts":"2022-10-01T08:31:04Z","tX":510,"tY":327,"tags":{"addr:city":"Scarborough","addr:housename":"Prospect House Farm","addr:housenumber":"Suffiled Hill","addr:postcode":"YO13 0BH","addr:street":"Suffield","description":"Prospect House Farm Campsite is a beautifully situated site on the North Yorkshire Coast. Peaceful and serene, off the beaten track and slightly wild, it's our little piece of heaven we can't wait to share with you. We offer a small number of camping pitc","drinking_water":"yes","email":"info@prospecthousefarmcampsite.co.uk","name":"Prospect House Farm Campsite","operator":"Prospect House Farm","phone":"+447803788318","shower":"yes","toilets":"yes","website":"https://www.prospecthousefarmcampsite.co.uk/"}},"1194305865":{"location":[54.2310035,-0.3707761],"ct":"GB","tp":"CR","ts":"2023-08-03T14:16:10Z","tX":510,"tY":327,"tags":{"name":"Killerby Old Hall Holiday Cottages & Caravan Park"}},"1215079826":{"location":[54.2390522,-0.61213],"ct":"GB","tp":"CS","ts":"2023-10-12T14:35:27Z","tX":510,"tY":327,"tags":{"name":"Quarry Farm"}},"1238119609":{"location":[54.3131787,-0.4327129],"ct":"GB","tp":"CR","ts":"2024-01-08T18:51:29Z","tX":510,"tY":327,"tags":{"name":"Scalby Close Park"}},"1338343746":{"location":[54.2590314,-0.5368525],"ct":"GB","tp":"CS","ts":"2024-11-27T17:37:45Z","tX":510,"tY":327,"tags":{}},"1789141318":{"location":[54.23821,-0.5171],"ct":"GB","tp":"CS","ts":"2012-06-15T22:06:17Z","tX":510,"tY":327,"tags":{"name":"St. Helens in the Park","source":"ACSI"}},"2337198054":{"location":[54.257629,-0.7006604],"ct":"GB","tp":"CS","ts":"2013-06-08T15:13:18Z","tX":510,"tY":327,"tags":{"name":"Pexton Moor Farm"}},"5060898527":{"location":[54.2670012,-0.5114744],"ct":"GB","tp":"CS","ts":"2023-10-17T23:53:08Z","tX":510,"tY":327,"tags":{"addr:postcode":"YO13 9JZ","addr:street":"Yedmandale Road","caravans":"yes","drinking_water":"yes","name":"High Yedmandale Farm Campsite","phone":"+44 1723 862188","power_supply":"yes","shower":"yes","tents":"yes","toilets":"yes","website":"https://www.fvmc.co.uk/"}},"7859714687":{"location":[54.3566129,-0.4500688],"ct":"GB","tp":"CS","ts":"2020-08-30T23:37:21Z","tX":510,"tY":327,"tags":{}},"9006883344":{"location":[54.2810085,-0.4475886],"ct":"GB","tp":"CR","ts":"2021-08-14T16:50:46Z","tX":510,"tY":327,"tags":{"fixme":"New caravan park requires survey"}},"11233946311":{"location":[54.2882623,-0.393786],"ct":"GB","tp":"SD","ts":"2023-10-02T15:02:35Z","tX":510,"tY":327,"tags":{"access":"yes"}}}