{"176758154":{"location":[54.1579195,-0.6255024],"ct":"GB","tp":"CR","ts":"2021-10-23T21:23:26Z","tX":510,"tY":328,"tags":{"addr:city":"West Knapton","addr:postcode":"YO17 8JE","name":"Yorkshire Wolds Way Caravan & Camping"}},"283820885":{"location":[54.1437621,-0.3517781],"ct":"GB","tp":"CR","ts":"2014-11-28T18:25:10Z","tX":510,"tY":328,"tags":{"name":"Windmill Country Park"}},"1239683974":{"location":[53.9832599,-0.5856526],"ct":"GB","tp":"CS","ts":"2024-01-14T18:19:40Z","tX":510,"tY":328,"tags":{"access":"customers","addr:city":"Driffield","addr:housename":"Field House Farm","addr:place":"Tibthorpe","addr:postcode":"YO25 9JZ","caravans":"yes","fee":"yes","name":"Field House Camping","operator":"Field House Campsite & Coffee Barn","static_caravans":"no","tents":"yes"}},"7450280640":{"location":[54.0211709,-0.4972209],"ct":"GB","tp":"CS","ts":"2023-10-22T20:50:12Z","tX":510,"tY":328,"tags":{"addr:city":"Driffield","addr:postcode":"YO25 3ET","addr:suburb":"Garton on the Wolds","name":"East End Farm Campsite","source":"sign at end of lane"}},"8633063368":{"location":[54.0964049,-0.6987324],"ct":"GB","tp":"CR","ts":"2021-04-15T18:32:17Z","tX":510,"tY":328,"tags":{"addr:city":"Malton","addr:housename":"Hill Top Farm","addr:postcode":"YO17 8AT","addr:street":"North Grimston","name":"Hill Top Farm Caravans"}}}