{"189199219":{"location":[53.3167298,-0.4789196],"ct":"GB","tp":"CS","ts":"2012-11-05T11:02:16Z","tX":510,"tY":332,"tags":{"name":"Welton Manor Camp Site"}},"242757664":{"location":[53.2330089,-0.4142023],"ct":"GB","tp":"CR","ts":"2016-04-18T22:11:59Z","tX":510,"tY":332,"tags":{"name":"Fiskerton Caravan Park","source":"View from SW;Bing"}},"251760418":{"location":[53.1663892,-0.6520238],"ct":"GB","tp":"CR","ts":"2013-12-14T13:15:03Z","tX":510,"tY":332,"tags":{"name":"Cathedral View Holiday Park","source":"Bing;survey","website":"http://www.cathedralviewholidaypark.co.uk/"}},"275500544":{"location":[53.1874672,-0.6521183],"ct":"GB","tp":"CR","ts":"2021-03-06T15:21:10Z","tX":510,"tY":332,"tags":{"access":"unknown"}},"375869718":{"location":[53.2814562,-0.6897298],"ct":"GB","tp":"CR","ts":"2015-10-18T23:07:10Z","tX":510,"tY":332,"tags":{}},"377984117":{"location":[53.2327761,-0.3746411],"ct":"GB","tp":"CS","ts":"2022-07-12T10:13:36Z","tX":510,"tY":332,"tags":{"access":"members","landuse":"grass","name":"Ferry Hill Farm","tents":"yes"}},"671117568":{"location":[53.1949573,-0.4046089],"ct":"GB","tp":"CR","ts":"2020-10-02T09:37:39Z","tX":510,"tY":332,"tags":{}},"783093761":{"location":[53.2717909,-0.3983368],"ct":"GB","tp":"CS","ts":"2020-03-20T16:29:13Z","tX":510,"tY":332,"tags":{"name":"Lakeside Caravan Park","source":"ACSI"}},"837379768":{"location":[53.1505791,-0.3695575],"ct":"GB","tp":"CS","ts":"2020-08-15T14:28:03Z","tX":510,"tY":332,"tags":{"capacity":"5","name":"Barff Farm"}},"1060052738":{"location":[53.3102333,-0.4914306],"ct":"GB","tp":"CR","ts":"2023-10-23T12:52:00Z","tX":510,"tY":332,"tags":{"name":"Stonecliff Park","website":"https://stonecliffpark.co.uk/park/"}},"1228954839":{"location":[53.2716995,-0.4197093],"ct":"GB","tp":"CR","ts":"2023-12-05T22:52:05Z","tX":510,"tY":332,"tags":{"fee":"yes","name":"Langdale Lakes","power_supply":"yes"}},"1596402834":{"location":[53.2141341,-0.58337],"ct":"GB","tp":"CS","ts":"2017-04-18T17:34:05Z","tX":510,"tY":332,"tags":{"name":"Hartsholme Campsite"}},"6811535893":{"location":[53.1386292,-0.6840702],"ct":"GB","tp":"CS","ts":"2019-09-20T17:26:07Z","tX":510,"tY":332,"tags":{"addr:city":"Lincoln","addr:country":"GB","addr:housename":"Swinderby Road","addr:postcode":"LN6 9QG","addr:street":"Swinderby Road","email":"info@oakhill-leisure.co.uk","internet_access":"yes","name":"Oakhill Leisure Ltd","phases":"01522 868771","website":"https://www.oakhill-leisure.co.uk/"}},"9083761476":{"location":[53.166876,-0.6377891],"ct":"GB","tp":"CR","ts":"2024-03-19T16:54:34Z","tX":510,"tY":332,"tags":{"addr:city":"Lincoln","addr:country":"GB","addr:postcode":"LN5 9FL","addr:street":"Sky Lane","addr:suburb":"Haddington","capacity":"5","description":"UK Caravan & Motorhome Club Certificated Location. 5 caravan maximum.","internet_access":"wlan","name":"Skybarn Farm CAMC CL","power_supply":"yes","sanitary_dump_station":"yes"}},"12652191319":{"location":[53.3156519,-0.4495029],"ct":"GB","tp":"CS","ts":"2025-03-16T07:34:23Z","tX":510,"tY":332,"tags":{"addr:city":"Lincoln","addr:postcode":"LN2 3RB","addr:street":"Eastfield Farm, Eastfield Lane, Welton","currency:XBT":"yes","description":"Glamping site. Individually themed Mongolian yurts in the heart of Lincolnshire.","email":"hello@lincolnyurts.com","facebook":"https://facebook.com/lincolnyurtsoffical","instagram":"https://instagram.com/lincolnyurtsofficial","name":"Lincoln Yurts","payment:lightning":"yes","payment:lightning_contactless":"no","payment:onchain":"yes","phone":"01522 302666","survey:date":"2025-03-11","twitter":"https://x.com/lincoln_yurts","website":"https://lincolnyurts.com"}}}