{"304418187":{"location":[52.7241536,-0.6348924],"ct":"GB","tp":"CR","ts":"2020-10-21T19:46:41Z","tX":510,"tY":334,"tags":{"addr:city":"Greetham","addr:postcode":"LE15 7FN","addr:street":"Park Lane","name":"Rutland Caravan and Camping","source":"Bing","website":"http://www.rutlandcaravanandcamping.co.uk/"}},"317998986":{"location":[52.8865879,-0.4123716],"ct":"GB","tp":"CR","ts":"2014-12-19T21:22:48Z","tX":510,"tY":334,"tags":{}},"512590656":{"location":[52.7905288,-0.3654278],"ct":"GB","tp":"CR","ts":"2023-06-27T11:41:19Z","tX":510,"tY":334,"tags":{"name":"Wishing Well Caravan Site","source":"Site Survey"}},"820105708":{"location":[52.8997293,-0.635224],"ct":"GB","tp":"CR","ts":"2020-06-27T06:20:41Z","tX":510,"tY":334,"tags":{}},"820385590":{"location":[52.8662131,-0.6224538],"ct":"GB","tp":"CR","ts":"2020-06-28T10:20:27Z","tX":510,"tY":334,"tags":{}},"1133890435":{"location":[52.7219161,-0.3622572],"ct":"GB","tp":"CR","ts":"2024-04-04T10:08:08Z","tX":510,"tY":334,"tags":{"addr:city":"Bourne","addr:country":"GB","addr:postcode":"PE10 0EN","addr:street":"Deeping Road","addr:suburb":"Thurlby","addr:village":"Kate's Bridge","name":"Cresslands","website":"https://cresslands.co.uk"}}}