{"86146975":{"location":[51.7283621,-0.4799319],"ct":"GB","tp":"CS","ts":"2023-11-28T00:25:42Z","tX":510,"tY":339,"tags":{"access":"private","addr:city":"Kings Langley","addr:postcode":"WD4 9NA","addr:street":"Rucklers Lane","contact:email":"info@phaselswood.org.uk","contact:phone":"+44 1442 252851","name":"Phasels Wood Activity Centre","operator":"WOSM","scout":"yes","website":"https://www.phaselswood.org.uk/"}},"89553416":{"location":[51.8346959,-0.6926566],"ct":"GB","tp":"CR","ts":"2022-01-21T07:02:00Z","tX":510,"tY":339,"tags":{}},"182876119":{"location":[51.7712071,-0.4368772],"ct":"GB","tp":"CR","ts":"2020-05-16T03:33:46Z","tX":510,"tY":339,"tags":{"name":"Three Cherry Trees Caravan Park"}},"263345478":{"location":[51.7851,-0.6424533],"ct":"GB","tp":"CR","ts":"2019-08-27T09:27:29Z","tX":510,"tY":339,"tags":{}},"269887168":{"location":[51.7832418,-0.6016203],"ct":"GB","tp":"CS","ts":"2023-10-20T12:13:04Z","tX":510,"tY":339,"tags":{"fixme":"?buildings","name":"Norcott Campsite - Camping In The Orchard","phone":"+44 7788151022","website":"https://www.chilternscamping.co.uk/"}},"370228848":{"location":[51.6268015,-0.5916453],"ct":"GB","tp":"CS","ts":"2018-12-04T18:42:48Z","tX":510,"tY":339,"tags":{"addr:city":"Beaconsfield","addr:housename":"Highclere","addr:postcode":"HP9 2QZ","addr:street":"Newbarn Lane","addr:suburb":"Seer Green","fhrs:id":"356001","fhrs:local_authority_id":"08/00044/HRES","name":"Highclere Farm Campsite","source:addr":"FHRS Open Data"}},"453028038":{"location":[51.7598173,-0.4270996],"ct":"GB","tp":"CR","ts":"2024-05-21T10:39:30Z","tX":510,"tY":339,"tags":{}},"619265450":{"location":[51.6655872,-0.5106076],"ct":"GB","tp":"CS","ts":"2022-02-18T12:57:20Z","tX":510,"tY":339,"tags":{"access":"customers","addr:city":"Rickmansworth","addr:housename":"North Hill Farm","addr:postcode":"WD3 6HA","addr:street":"North Hill","addr:suburb":"Chorleywood","name":"North Hill Farm Overflow Camp Site","operator":"North Hill Farm","website":"http://northhillcamping.co.uk/"}},"619265471":{"location":[51.6645999,-0.5106207],"ct":"GB","tp":"CS","ts":"2022-02-18T12:57:20Z","tX":510,"tY":339,"tags":{"access":"customers","addr:city":"Rickmansworth","addr:housename":"North Hill Farm","addr:postcode":"WD3 6HA","addr:street":"North Hill","addr:suburb":"Chorleywood","name":"North Hill Farm Campsite","operator":"North Hill Farm","website":"http://northhillcamping.co.uk/"}},"619265472":{"location":[51.6645398,-0.5117232],"ct":"GB","tp":"CR","ts":"2022-02-18T12:57:20Z","tX":510,"tY":339,"tags":{"access":"customers","addr:city":"Rickmansworth","addr:housename":"North Hill Farm","addr:postcode":"WD3 6HA","addr:street":"North Hill","addr:suburb":"Chorleywood","name":"North Hill Farm RV Park","operator":"North Hill Farm","website":"https://www.northhillfarm.co.uk/"}},"662386023":{"location":[51.7356993,-0.6505181],"ct":"GB","tp":"CS","ts":"2022-05-06T18:04:17Z","tX":510,"tY":339,"tags":{"members_only":"yes","name":"Braid Wood Outdoor Activity Centre)","scout":"yes","wheelchair":"no"}},"818078961":{"location":[51.7146855,-0.4144568],"ct":"GB","tp":"CR","ts":"2024-06-15T06:40:10Z","tX":510,"tY":339,"tags":{"access":"private","name":"Oaklands"}},"1239431295":{"location":[51.7151939,-0.357127],"ct":"GB","tp":"CR","ts":"2024-03-18T10:38:24Z","tX":510,"tY":339,"tags":{"access:conditional":"booking conditions","fee":"yes","motorhome":"yes","nudism":"customary"}},"1239431296":{"location":[51.7151489,-0.3577113],"ct":"GB","tp":"CS","ts":"2024-03-18T10:38:24Z","tX":510,"tY":339,"tags":{"access":"customers","access:conditional":"booking conditions","caravans":"no","fee":"yes","group_only":"no","tents":"yes"}},"5401270083":{"location":[51.67238,-0.4475097],"ct":"GB","tp":"CS","ts":"2024-07-11T02:05:11Z","tX":510,"tY":339,"tags":{"addr:city":"Rickmansworth","addr:postcode":"WD3 4LY","addr:street":"Fir Tree Hill","addr:suburb":"Chandler's Cross","internet_access":"no","name":"Lees Wood Scout & Guide Activity Centre","scout":"yes","website":"https://leeswood.org.uk/","wheelchair":"limited"}},"6561292635":{"location":[51.6231118,-0.5307796],"ct":"GB","tp":"CS","ts":"2023-03-27T15:39:06Z","tX":510,"tY":339,"tags":{"name":"Diogenes Sun Club"}},"9007653810":{"location":[51.782134,-0.5304876],"ct":"GB","tp":"CS","ts":"2021-08-15T08:34:28Z","tX":510,"tY":339,"tags":{"name":"Highridge Farm Camping"}},"6563211460":{"location":[51.6347205,-0.4666165],"ct":"GB","tp":"SD","ts":"2024-10-17T00:30:48Z","tX":510,"tY":339,"tags":{"access":"customers","centralkey":"no","name":"Batchworth Lock Elsan Point","operator":"Canal and River Trust","sanitary_dump_station":"yes","sanitary_dump_station:accepted":"black_water","sanitary_dump_station:basin":"yes","sanitary_dump_station:pump-out":"no","waste":"toilet","waterway":"sanitary_dump_station"}},"7415770283":{"location":[51.7367475,-0.4639861],"ct":"GB","tp":"SD","ts":"2020-04-17T21:25:47Z","tX":510,"tY":339,"tags":{"access":"permissive","centralkey":"no","name":"Apsley Services Elsan Point","operator":"Canal and River Trust","sanitary_dump_station":"yes","sanitary_dump_station:accepted":"black_water","sanitary_dump_station:basin":"yes","sanitary_dump_station:pump-out":"yes","waste":"toilet","waterway":"sanitary_dump_station"}},"7431275594":{"location":[51.7468371,-0.5134841],"ct":"GB","tp":"SD","ts":"2020-07-13T10:00:59Z","tX":510,"tY":339,"tags":{"access":"customers","addr:city":"Hemel Hempstead","addr:country":"GB","addr:county":"Hertfordshire","addr:housename":"Winkwell Dock","addr:place":"Winkwell","addr:postcode":"HP1 2RZ","addr:suburb":"Bourne End","email":"kevinwinkwell@yahoo.co.uk","fax":"+441442863394","fee":"no","name":"Middlesex and Herts Boat Services Elsan Point","operator":"Middlesex and Herts Boat Services","phone":"+441442872985","sanitary_dump_station":"yes","sanitary_dump_station:accepted":"black_water","sanitary_dump_station:basin":"yes","sanitary_dump_station:pump-out":"no","waste":"toilet","waterway":"water_point"}},"7443448699":{"location":[51.7835314,-0.6117915],"ct":"GB","tp":"SD","ts":"2020-04-24T21:28:12Z","tX":510,"tY":339,"tags":{"access":"customers","centralkey":"crt_watermate","name":"Cow Roast Elsan Point","operator":"Canal and River Trust","sanitary_dump_station":"yes","sanitary_dump_station:accepted":"black_water","sanitary_dump_station:basin":"yes","sanitary_dump_station:pump-out":"no","waste":"toilet","waterway":"sanitary_dump_station"}},"7447271384":{"location":[51.8214442,-0.6697738],"ct":"GB","tp":"SD","ts":"2020-04-25T20:46:57Z","tX":510,"tY":339,"tags":{"access":"customers","centralkey":"crt_watermate","name":"Aylesbury Arm Junction Elsan Point","operator":"Canal and River Trust","sanitary_dump_station":"yes","sanitary_dump_station:accepted":"black_water","sanitary_dump_station:basin":"yes","sanitary_dump_station:pump-out":"yes","waste":"toilet","waterway":"sanitary_dump_station"}}}