{"69693083":{"location":[49.3337257,-0.4436412],"ct":"FR","tp":"CS","ts":"2024-07-14T09:57:28Z","tX":510,"tY":350,"tags":{"addr:city":"Courseulles-sur-Mer","addr:postcode":"14470","addr:street":"Avenue de la Libération","cabins":"yes","capacity":"366","caravans":"no","email":"donjon@capfun.com","fee":"yes","motorhome":"no","name":"Donjon de Lars","nudism":"no","opening_hours":"Mo-Sa 9:00-13:00,14:00-19:00; Su9:00-13:00,14:00-18:00","operator":"Capfun","phone":"+33 2 31 37 99 26","reservation":"recommended","sanitary_dump_station":"no","stars":"4","static_caravans":"yes","tents":"no","website":"https://www.camping-donjon-lars.fr/"}},"126515462":{"location":[49.283101,-0.6989862],"ct":"FR","tp":"CS","ts":"2024-10-13T11:12:12Z","tX":510,"tY":350,"tags":{"addr:city":"Bayeux","addr:postcode":"14400","addr:street":"Boulevard d'Eindhoven","award:accueilvelo":"2020-2024","capacity":"140","caravans":"yes","email":"campingmunicipal@mairie-bayeux.fr","fax":"+33 2 31 92 08 43","fee":"yes","internet_access":"yes","internet_access:fee":"yes","name":"Camping municipal des Bords de l'Aure","payment:cash":"yes","payment:cheque":"yes","payment:mastercard":"yes","payment:travellers_cheque":"yes","phone":"+33 2 31 92 08 43","power_supply":"yes","stars":"3","tents":"yes","website":"http://www.camping-bayeux.fr","wheelchair":"yes"}},"142186514":{"location":[49.3250254,-0.3907558],"ct":"FR","tp":"CS","ts":"2024-08-11T14:57:23Z","tX":510,"tY":350,"tags":{"addr:city":"Saint-Aubin-sur-Mer","addr:housenumber":"17","addr:postcode":"14750","addr:street":"Rue du Major-Général James Moulton","cabins":"yes","camp_site":"deluxe","caravans":"yes","name":"Camping Côte de Nacre","operator":"Sandaya","phone":"+33 2 31 97 14 45","ref:FR:SIRET":"52402745500053","stars":"5","tents":"yes","website":"https://www.sandaya.fr/nos-campings/cote-de-nacre","wikidata":"Q120226165"}},"142197545":{"location":[49.3309172,-0.4302207],"ct":"FR","tp":"CS","ts":"2024-08-12T08:29:08Z","tX":510,"tY":350,"tags":{"addr:city":"Bernières-sur-Mer","addr:housenumber":"435","addr:postcode":"14990","addr:street":"Route de Courseulles","cabins":"yes","camp_site":"deluxe","caravans":"no","name":"Camping Havre de Bernières","operator":"Cap Fun","phone":"+33 2 31 77 22 56","ref:FR:SIRET":"82754415600033","reservation":"required","source":"cadastre-dgi-fr source : Direction Générale des Finances Publiques - Cadastre. Mise à jour : 2020","stars":"4","tents":"no","website":"https://www.capfun.com/camping-france-basse_normandie-havre_bernieres-FR.html"}},"142409571":{"location":[49.3182843,-0.3593438],"ct":"FR","tp":"CS","ts":"2024-08-16T09:44:36Z","tX":510,"tY":350,"tags":{"access":"customers","addr:city":"Luc-sur-Mer","addr:housenumber":"2","addr:postcode":"14530","addr:street":"Rue Brummel","cabins":"yes","camp_site":"deluxe","capacity:caravans":"10","capacity:tents":"10","caravans":"yes","contact:facebook":"https://www.facebook.com/yellohvillage","fee":"yes","name":"Camping La Capricieuse","note":"url: https://www . campinglacapricieuse . com ... contains MALWARE !!! use url: https://www.yellohvillage-lacapricieuse.com .... clean :)","opening_hours":"Mo-Su 08:30-19:00; Jul-Aug 08:30-20:00","payment:cash":"yes","payment:cheque":"yes","payment:contactless":"yes","payment:credit_cards":"yes","payment:mastercard":"yes","payment:visa":"yes","phone":"+33 2 31973443","ref:FR:SIRET":"84828754600016","stars":"5","static_caravans":"yes","tents":"yes","website":"https://www.yellohvillage-lacapricieuse.com","wikidata":"Q120188543"}},"142409583":{"location":[49.3210815,-0.3636228],"ct":"FR","tp":"CS","ts":"2024-08-11T14:57:23Z","tX":510,"tY":350,"tags":{"addr:city":"Langrune-sur-Mer","addr:housenumber":"56","addr:postcode":"14830","addr:street":"Avenue de la Libération","cabins":"yes","camp_site":"deluxe","caravans":"no","leisure":"resort","name":"Mer et Vacances","ref:FR:SIRET":"44213381500021","stars":"5","tents":"no","website":"https://www.meretvacances.fr/","wheelchair":"yes"}},"173296782":{"location":[49.339948,-0.5814036],"ct":"FR","tp":"CS","ts":"2024-08-12T11:37:23Z","tX":510,"tY":350,"tags":{"addr:city":"Asnelles","addr:housenumber":"23","addr:postcode":"14960","addr:street":"Rue du Débarquement","cabins":"yes","camp_site":"serviced","capacity":"115","caravans":"yes","name":"Camping municipal Quintefeuille","opening_hours":"Mar 15-Jan 15","operator":"Commune d'Asnelles","phone":"+33 2 31 22 35 50","ref:FR:SIRET":"21140022100043","sanitary_dump_station":"customers","stars":"2","tents":"yes","website":"https://www.camping-asnelles.com"}},"248899363":{"location":[49.3188255,-0.3824645],"ct":"FR","tp":"CS","ts":"2024-11-16T11:51:44Z","tX":510,"tY":350,"tags":{"addr:city":"Langrune-sur-Mer","addr:housenumber":"18","addr:postcode":"14830","addr:street":"Route de Tailleville","camp_site":"basic","caravans":"yes","description":"Aire naturelle de Camping","nudism":"no","operator":"Mme METIVIER","ref:FR:SIRET":"45089824200018","tents":"yes"}},"255284439":{"location":[49.2817204,-0.6961438],"ct":"FR","tp":"CR","ts":"2024-09-20T15:49:08Z","tX":510,"tY":350,"tags":{"access":"yes","caravan_site":"town","caravan_site:type":"town","fee":"no","motorhome":"designated","name":"Aire Chemin du Hameau de la Rivière Bayeux","opening_hours":"24/7","operator":"Ville de Bayeux","phone":"+33 231 516060","power_supply":"no","sanitary_dump_station":"yes","sanitary_dump_station:chemical_toilet":"yes","sanitary_dump_station:grey_water":"yes","toilets":"no","water_point":"yes","water_point:charge":"3 EUR/100 liter","water_point:fee":"yes","website":"https://www.bayeux.fr/fr/decouvrir-bayeux/aires-pour-camping-cars"}},"262865262":{"location":[49.3381292,-0.479004],"ct":"FR","tp":"CS","ts":"2024-08-12T10:13:20Z","tX":510,"tY":350,"tags":{"addr:city":"Graye-sur-Mer","addr:housenumber":"10","addr:postcode":"14470","addr:street":"Route d'Arromanches","cabins":"yes","camp_site":"serviced","caravans":"yes","name":"Camping Canadian Scottish","phone":"+33 2 31 37 45 23","ref:FR:SIRET":"21140318300034","stars":"2","tents":"yes","website":"https://campingsitecanadianscottishgb.jimdo.com"}},"515919221":{"location":[49.3246612,-0.368136],"ct":"FR","tp":"CR","ts":"2024-10-26T18:40:39Z","tX":510,"tY":350,"tags":{"capacity":"3","caravan_site":"motorhome_stopover","caravan_site:type":"beach","fee":"no","name":"Aire de stationnement camping-car – Colonel Harivel","name:signed":"no","surface":"asphalt","website":"https://www.coeurdenacretourisme.com/offres/aire-de-stationnement-camping-car-colonel-harivel/"}},"549376917":{"location":[49.1993645,-0.3861566],"ct":"FR","tp":"CR","ts":"2024-09-19T21:33:57Z","tX":510,"tY":350,"tags":{"capacity":"20","caravan_site":"motorhome_stopover","caravan_site:type":"museum","fee":"no","name":"Aire de Camping Cars - Caen Memorial","operator":"Musée Mémorial de Caen","power_supply":"no","sanitary_dump_station":"no","wheelchair":"yes"}},"838664288":{"location":[49.3257526,-0.4706705],"ct":"FR","tp":"CS","ts":"2025-02-05T10:34:57Z","tX":510,"tY":350,"tags":{"addr:city":"Graye-sur-Mer","addr:housenumber":"7","addr:postcode":"14470","addr:street":"Rue de Banville","cabins":"yes","camp_site":"serviced","caravans":"yes","name":"Le Clos du Moulin","phone":"+33 6 09 79 35 86","ref:FR:SIRET":"85095494200015","source":"data.gouv.fr:DATAtourisme - 05/2020","stars":"2","tents":"no","website":"https://campingleclosdumoulin.fr"}},"838665483":{"location":[49.2899711,-0.5283154],"ct":"FR","tp":"CS","ts":"2024-07-14T06:57:48Z","tX":510,"tY":350,"tags":{"caravans":"yes","contact:city":"Creully sur Seulles","contact:email":"contact@camping-les-3-rivieres.com","contact:phone":"+33231809017","contact:postcode":"14480","name":"Camping Les Trois Rivières","ref:FR:SIRET":"81476803200017","source":"data.gouv.fr:DATAtourisme - 05/2020","stars":"3","tents":"yes","website":"https://www.camping-les-3-rivieres.com"}},"838674832":{"location":[49.335232,-0.634333],"ct":"FR","tp":"CS","ts":"2024-10-13T09:17:07Z","tX":510,"tY":350,"tags":{"caravans":"yes","contact:city":"Tracy-sur-Mer","contact:facebook":"https://www.facebook.com/people/CAMPING-LES-BAS-CARREAUX/100063836311455/","contact:phone":"+33 688 332496","contact:postcode":"14117","internet_access":"wlan","name":"Camping les Bas Carreaux","operator":"Alexandre Chartois","ref:FR:SIRET":"53166390400013","stars":"1","tents":"yes","website":"http://campinglesbascarreaux.com"}},"958620173":{"location":[49.2486776,-0.6018609],"ct":"FR","tp":"CS","ts":"2024-08-12T13:33:34Z","tX":510,"tY":350,"tags":{"addr:city":"Moulins en Bessin","addr:housenumber":"52","addr:postcode":"14740","addr:street":"Route Hameau Saint-Léger","cabins":"no","camp_site":"deluxe","caravans":"yes","email":"chateau.martragny@wanadoo.fr","name":"Camping du Château de Martragny","phone":"+33231802140","ref:FR:SIRET":"37931230900014","tents":"yes","website":"https://www.chateau-martragny.com/camping-chateau-martragny/"}},"971188085":{"location":[49.3393723,-0.6137139],"ct":"FR","tp":"CR","ts":"2024-10-05T16:39:14Z","tX":510,"tY":350,"tags":{"caravan":"designated","caravan_site":"motorhome_stopover","charge":"11 EUR/24 hour","fee":"yes","motorhome":"designated","name":"Table d'orientation","opening_hours":"24/7","supervised":"no","trailer":"designated"}},"991758724":{"location":[49.2995514,-0.6743107],"ct":"FR","tp":"CR","ts":"2024-10-28T22:47:28Z","tX":510,"tY":350,"tags":{"capacity":"30","caravan_site":"motorhome_stopover","caravan_site:type":"countryside","charge":"15 EUR","fee":"yes","name":"Les Peupliers","opening_hours":"24/7","power_supply":"yes","power_supply:fee":"no","sanitary_dump_station":"customers","sanitary_dump_station:fee":"no","seasonal":"no"}},"1030050579":{"location":[49.3130288,-0.4850131],"ct":"FR","tp":"CS","ts":"2024-08-12T10:13:20Z","tX":510,"tY":350,"tags":{"addr:city":"Banville","addr:housenumber":"7","addr:postcode":"14480","addr:street":"Rue du Camp Romain","cabins":"no","camp_site":"standard","caravans":"yes","name":"La Gentilhommière","phone":"+33 2 49 88 23 12","ref:FR:SIRET":"43042742700017","tents":"yes"}},"1078232748":{"location":[49.1626108,-0.4257833],"ct":"FR","tp":"CR","ts":"2024-11-30T08:11:02Z","tX":510,"tY":350,"tags":{"capacity":"20","caravan_site":"motorhome_stopover","caravan_site:type":"village","charge":"14.40 EUR","dog":"yes","fee":"yes","internet_access":"wlan","name":"Aire de camping-car Bretteville sur Odon","opening_hours":"24/7","operator":"AirePark","power_supply":"yes","power_supply:capacity":"20","sanitary_dump_station":"yes","sanitary_dump_station:chemical_toilet":"yes","sanitary_dump_station:grey_water":"yes","seasonal":"no","surface":"asphalt","toilets":"no","water_point":"yes","website":"https://www.aireparkreservation.com/aires-camping-cars/normandie/calvados/bretteville-sur-odon"}},"1092294291":{"location":[49.3384509,-0.6262298],"ct":"FR","tp":"CR","ts":"2024-06-26T08:25:08Z","tX":510,"tY":350,"tags":{"caravan_site":"motorhome_stopover","caravan_site:type":"village;beach","charge":"11 EUR/24 hours","fee":"yes","name":"Aire communale d'Arromanches-les-Bains","opening_hours":"24/7","sanitary_dump_station":"yes","supervised":"no","surface":"asphalt","water_point":"yes","water_point:charge":"2 EUR","water_point:fee":"yes","website":"https://www.calvados-tourisme.com/offre/aire-communale-darromanches-les-bains/"}},"1167024938":{"location":[49.1968562,-0.3812779],"ct":"FR","tp":"CR","ts":"2024-09-12T16:46:55Z","tX":510,"tY":350,"tags":{"addr:city":"Caen","addr:postcode":"14000","addr:street":"Rue des Roquemonts","area":"yes","bbq":"no","capacity":"20","capacity:caravans":"20","caravan_site":"motorhome_stopover","caravan_site:type":"city","caravans":"no","charge":"14.70 EUR","dog":"leashed","fee":"yes","maxlength":"none","name":"Camping-car Park Caen","network":"CAMPING-CAR PARK","opening_hours":"24/7","operator":"CAMPING-CAR PARK","power_supply":"yes","power_supply:capacity":"20","power_supply:maxcurrent":"6","sanitary_dump_station":"yes","tents":"no","trailer":"yes","website":"https://www.campingcarpark.com/en_GB/stay/stopover-site-motorhome/normandie/14-calvados/caen"}},"1212989291":{"location":[49.3346679,-0.4479316],"ct":"FR","tp":"CR","ts":"2024-09-19T21:15:25Z","tX":510,"tY":350,"tags":{"capacity":"22","caravan_site":"motorhome_stopover","caravan_site:type":"beach","dog":"yes","fee":"no","maxstay":"3 days","name":"Aire de camping-car Avenue de la Combattante","operator":"Ville de Courseulles-sur-Mer","website":"https://www.coeurdenacretourisme.com/offres/aire-de-camping-car-avenue-de-la-combattante/"}},"1213103642":{"location":[49.3302194,-0.4429478],"ct":"FR","tp":"CR","ts":"2024-09-19T21:03:11Z","tX":510,"tY":350,"tags":{"caravan_site":"motorhome_stopover","caravan_site:type":"beach","dog":"yes","fee":"no","name":"Aire de camping-car communale du Parc de l'Edit à Courseulles-sur-Mer","operator":"Ville de Courseulles-sur-Mer","power_supply":"yes","power_supply:fee":"yes","sanitary_dump_station":"yes","water_point":"yes","water_point:fee":"yes","website":"https://www.calvados-tourisme.com/offre/aire-de-camping-car-communale-du-parc-de-ledit-a-courseulles-sur-mer/"}},"1257529359":{"location":[49.3350885,-0.6607251],"ct":"FR","tp":"CR","ts":"2024-11-25T07:12:26Z","tX":510,"tY":350,"tags":{"capacity":"8","caravan_site":"motorhome_stopover","caravan_site:type":"countryside","charge":"14 EUR","contact:city":"Manvieux","contact:housenumber":"15","contact:postcode":"14117","contact:street":"Route de Port","email":"hue.cocotte.balades@gmail.com","fee":"yes","name":"Hue Cocotte","operator":"Hue Cocotte","phone":"+33 6 74 96 68 87","power_supply":"yes","power_supply:fee":"no","reservation":"yes","sanitary_dump_station":"customers","sanitary_dump_station:fee":"no","surface":"asphalt","tents":"no","water_point":"yes","water_point:fee":"no","website":"https://www.huecocotte-balades.com/blank-4"}},"12173079182":{"location":[49.3203991,-0.3746738],"ct":"FR","tp":"CR","ts":"2024-09-12T16:40:44Z","tX":510,"tY":350,"tags":{"capacity":"2","caravan_site":"motorhome_stopover","caravan_site:type":"village;beach","caravans":"no","fee":"no","name":"Aire de stationnement pour camping-car - Langrune-sur-Mer","power_supply":"no","sanitary_dump_station":"no","tents":"no","website":"https://www.calvados-tourisme.com/offre/aire-de-stationnement-pour-camping-car-langrune-sur-mer/"}},"5838752122":{"location":[49.1760533,-0.6251811],"ct":"FR","tp":"SD","ts":"2022-08-28T21:11:26Z","tX":510,"tY":350,"tags":{"fee":"yes","opening_hours":"24/7"}},"5838752285":{"location":[49.2816782,-0.6961991],"ct":"FR","tp":"SD","ts":"2023-12-16T23:20:14Z","tX":510,"tY":350,"tags":{"access":"yes","fee":"no","name":"Aire de service Camping Car Bayeux","opening_hours":"24/7","operator":"Ville de Bayeux","phone":"+33 231 516060"}},"9364064106":{"location":[49.3393424,-0.6147083],"ct":"FR","tp":"SD","ts":"2024-05-26T09:05:54Z","tX":510,"tY":350,"tags":{"access":"yes","fee":"no","opening_hours":"24/7","sanitary_dump_station:basin":"yes","sanitary_dump_station:round_drain":"yes"}},"12247101274":{"location":[49.1844609,-0.4146342],"ct":"FR","tp":"SD","ts":"2024-10-12T21:37:55Z","tX":510,"tY":350,"tags":{"access":"yes"}}}