{"49675787":{"location":[47.4531346,-0.5954051],"ct":"FR","tp":"CS","ts":"2020-02-05T08:16:33Z","tX":510,"tY":358,"tags":{"addr:city":"Angers","addr:postcode":"49000","addr:street":"Avenue du Lac De Maine","capacity":"168","internet_access":"yes","name":"Camping d'Angers Lac de Maine","phone":"+33 2 41 73 05 03","website":"http://www.camping-angers.fr/"}},"81338638":{"location":[47.4252475,-0.5292583],"ct":"FR","tp":"CS","ts":"2025-02-06T13:14:20Z","tX":510,"tY":358,"tags":{"cabin:rental":"tent","cabins":"yes","capacity":"104","caravans":"yes","contact:email":"contact.loirevallee@slow-village.fr","contact:phone":"+33 2 85 35 97 47","name":"Slow Village Les Ponts-de-Cé","old_name":"L’Île du Château","opening_hours":"Mo-Su 09:00-12:30, 14:00-18:00","phone":"+33 2 85 35 97 47","source":"cadastre-dgi-fr source : Direction Générale des Impôts - Cadastre. Mise à jour : 2010","stars":"3","tents":"yes","website":"https://www.slow-village.com/destinations/pays-de-la-loire/les-ponts-de-ce/","wheelchair":"yes"}},"152462847":{"location":[47.4424844,-0.4073834],"ct":"FR","tp":"CS","ts":"2024-11-29T19:29:50Z","tX":510,"tY":358,"tags":{"access":"customers","addr:street":"Rue du Pont Caroline","cabin:rental":"tent","cabins":"yes","capacity":"128","caravans":"yes","contact:facebook":"https://www.facebook.com/people/Camping-Flower-du-Port-Caroline/100026627664437/","name":"Camping du port Caroline","phone":"+33 2 41 80 42 18","stars":"3","swimming_pool":"yes","tents":"yes","website":"https://www.campingduportcaroline.fr/"}},"193703749":{"location":[47.4186278,-0.6114644],"ct":"FR","tp":"CR","ts":"2024-10-24T20:28:03Z","tX":510,"tY":358,"tags":{"capacity":"45","caravan_site":"motorhome_stopover","caravan_site:type":"river","charge":"17 EUR","drinking_water":"yes","fee":"yes","internet_access":"wlan","internet_access:fee":"no","motor_vehicle":"yes","name":"Camping de Bouchemaine","opening_hours":"Apr-Nov","phone":"+33 2 41 22 21 53","power_supply":"yes","power_supply:fee":"no","sanitary_dump_station":"yes","shower":"yes","shower:fee":"no","surface":"asphalt","tents":"yes","tents:capacity":"10","toilets":"yes","water_point":"yes","water_point:fee":"no","website":"https://www.ville-bouchemaine.fr/aire-de-camping-cars/","wheelchair":"limited"}},"207901408":{"location":[47.3712936,-0.6851809],"ct":"FR","tp":"CS","ts":"2023-07-20T14:08:25Z","tX":510,"tY":358,"tags":{"addr:street":"Le Port","caravans":"yes","drinking_water":"yes","name":"Camping municipal du Port","operator":"Commune de La Possonnière","phone":"+33 2 41 72 20 75; +33 6 71 78 51 73","power_supply":"yes","shower":"yes","tents":"yes","toilets":"yes","website":"https://www.la-possonniere.fr/annuaire/services-municipaux/entry-783-camping-du-port.html"}},"208389371":{"location":[47.3608116,-0.6594882],"ct":"FR","tp":"CS","ts":"2022-08-28T08:46:08Z","tX":510,"tY":358,"tags":{"cabins":"yes","caravans":"yes","name":"Les Plages de Loire","operator":"Seasonova","phone":"+33 2 36 81 00 01","source":"Bing","stars":"3","tents":"yes","website":"https://vacances-seasonova.com/fr/camping/les-plages-de-loire/"}},"342746558":{"location":[47.4238852,-0.5485399],"ct":"FR","tp":"CS","ts":"2024-07-26T13:40:49Z","tX":510,"tY":358,"tags":{"access":"no","addr:city":"Sainte-Gemmes-sur-Loire","addr:postcode":"49130","addr:street":"Levée de l'Authion","name":"Nature Camp Anjou","operator":"Lodg'ing","phone":"+33 6 70 39 21 91","source":"Bing","stars":"2","website":"https://lodg-ing.com/nos-nature-camp/hebergement-insolite-angers/"}},"532299334":{"location":[47.5010869,-0.495797],"ct":"FR","tp":"CR","ts":"2024-04-26T12:10:52Z","tX":510,"tY":358,"tags":{"access":"private","name":"Village des exposants","toilets":"yes"}},"565675851":{"location":[47.3277086,-0.6705669],"ct":"FR","tp":"CR","ts":"2024-10-11T20:26:19Z","tX":510,"tY":358,"tags":{"addr:street":"Rue Jean de Pontoise","bbq":"no","cabins":"yes","capacity":"27","capacity:caravans":"27","caravan_site":"motorhome_stopover","caravan_site:type":"river;village","caravans":"no","charge":"14.30 EUR","dog":"leashed","fee":"yes","internet_access":"wlan","internet_access:fee":"no","maxlength":"9","name":"Aire Val-du-Layon","network":"CAMPING-CAR PARK","operator":"Camping-car Park","phone":"+33 2 41 78 33 28","power_supply":"yes","sanitary_dump_station":"yes","surface":"grass","tents":"no","trailer":"yes","water_point":"yes","website":"https://www.campingcarpark.com/en_GB/stay/stopover-site-motorhome/pays-de-la-loire/49-maine-et-loire/val-du-layon#0"}},"606627468":{"location":[47.3605,-0.4335444],"ct":"FR","tp":"CS","ts":"2025-04-01T07:46:08Z","tX":510,"tY":358,"tags":{"access":"customers","addr:street":"Route de Saint Mathurin","capacity":"110","caravans":"yes","name":"Camping de l'Étang","phone":"+33 2 41 91 70 61","stars":"4","swimming_pool":"yes","tents":"yes","website":"https://www.campingetang.com/"}},"765890938":{"location":[47.2993438,-0.6294379],"ct":"FR","tp":"CS","ts":"2020-01-23T06:27:31Z","tX":510,"tY":358,"tags":{"name":"Camping la Coudraye","source":"knowledge"}},"765892259":{"location":[47.4281363,-0.6608856],"ct":"FR","tp":"CS","ts":"2024-06-25T23:09:17Z","tX":510,"tY":358,"tags":{"access":"customers","addr:street":"Chemin de la Bradière","cabins":"yes","capacity":"28","capacity:cabins":"1","capacity:pitches":"27","caravans":"yes","email":"contact@campinglabradiere.fr","name":"Camping de la Bradiere","opening_hours":"week 1-53; Mo-Su 09:00-10:00, 15:00-20:00","phone":"+33630209377; +33287833355","shower":"yes","tents":"yes","toilets":"yes","website":"https://campinglabradiere.fr/"}},"1009901508":{"location":[47.4029317,-0.5565189],"ct":"FR","tp":"CS","ts":"2023-09-09T21:01:45Z","tX":510,"tY":358,"tags":{"addr:street":"Parc des Varennes","cabins":"yes","caravans":"yes","contact:email":"varennes49610@wanadoo.fr","name":"Camping des Varennes","phone":"+33 2 41 57 82 15","stars":"2","tents":"yes","website":"https://www.camping-varennes.com/"}},"9723447513":{"location":[47.3341348,-0.4361352],"ct":"FR","tp":"CS","ts":"2022-05-07T19:29:52Z","tX":510,"tY":358,"tags":{"operator":"Domaine Belle-Étoile"}},"6764023856":{"location":[47.46642,-0.56576],"ct":"FR","tp":"SD","ts":"2019-09-01T14:22:02Z","tX":510,"tY":358,"tags":{}},"9827293952":{"location":[47.4236221,-0.551544],"ct":"FR","tp":"SD","ts":"2024-11-12T17:33:15Z","tX":510,"tY":358,"tags":{"access":"yes","fee":"no","panoramax":"69ca8083-2ffb-4a3c-ac93-013b59ec36fb","power_supply":"no","sanitary_dump_station:chemical_toilet":"yes","sanitary_dump_station:grey_water":"yes","water_point":"yes"}},"11010688977":{"location":[47.3602511,-0.6562831],"ct":"FR","tp":"SD","ts":"2023-06-27T16:54:54Z","tX":510,"tY":358,"tags":{}},"11933538904":{"location":[47.2986261,-0.3834405],"ct":"FR","tp":"SD","ts":"2024-05-25T18:29:32Z","tX":510,"tY":358,"tags":{"water_point":"yes"}}}