{"35283754":{"location":[45.594217,-0.5386983],"ct":"FR","tp":"CS","ts":"2024-10-19T18:49:24Z","tX":510,"tY":365,"tags":{"name":"Moulin de la Vergne","ref:FR:NAF":"5530Z","ref:FR:SIREN":"924912132","ref:FR:SIRET":"92491213200025","source":"INSEE - 2024-10"}},"360598223":{"location":[45.7540143,-0.5075565],"ct":"FR","tp":"CR","ts":"2024-05-05T14:02:05Z","tX":510,"tY":365,"tags":{"access":"yes","addr:city":"Saint-Césaire","addr:postcode":"17770","addr:street":"Rue du Cimetiere","capacity":"10","caravan_site":"parking_lot","fee":"no","maxstay":"no","name":"Aire de camping-car Saint-Césaire","opening_hours":"24/7","operator":"Ville de Saint-Césaire","power_supply":"no","sanitary_dump_station":"yes","sanitary_dump_station:chemical_toilet":"yes","sanitary_dump_station:grey_water":"yes","sanitary_dump_station:round_drain":"yes","seasonal":"no","supervised":"no","surface":"asphalt","water_point":"yes"}},"360826689":{"location":[45.7416511,-0.629434],"ct":"FR","tp":"PK","ts":"2024-09-17T17:42:52Z","tX":510,"tY":365,"tags":{"access":"yes","fee":"no","motorhome":"yes","name":"Parc des expositions","parking":"surface","source":"cadastre-dgi-fr source : Direction Générale des Impôts - Cadastre. Mise à jour : 2012"}},"385079474":{"location":[45.6998339,-0.4950537],"ct":"FR","tp":"CS","ts":"2021-05-23T07:31:36Z","tX":510,"tY":365,"tags":{"name":"Camping Municipal La Fontaine du Pré Saint-Jean","website":"https://dompierre-sur-charente.com/camping-municipal/"}},"890725885":{"location":[45.7552121,-0.6265426],"ct":"FR","tp":"CS","ts":"2024-09-05T13:10:29Z","tX":510,"tY":365,"tags":{"name":"Au Fil de l'Eau","ref:FR:NAF":"5530Z","ref:FR:SIREN":"531315729","ref:FR:SIRET":"53131572900016","source":"INSEE - 2024-09","website":"https://www.saintes-tourisme.fr/fiche-sit/camping-municipal-au-fil-de-leau-5752954/"}},"908723934":{"location":[45.6526999,-0.5060453],"ct":"FR","tp":"CR","ts":"2024-10-25T14:51:00Z","tX":510,"tY":365,"tags":{"access":"yes","addr:city":"Montils","addr:postcode":"17800","addr:street":"Le Vignolet","capacity":"12","caravan_site":"motorhome_stopover","caravan_site:type":"village","fee":"no","maxstay":"24 hours","name":"Aire de camping-car Le Vignolet - Montils","operator":"Ville de Montils","power_supply":"no","sanitary_dump_station":"yes","sanitary_dump_station:chemical_toilet":"yes","sanitary_dump_station:grey_water":"yes","sanitary_dump_station:round_drain":"yes","seasonal":"no","supervised":"no","surface":"gravel","water_point":"yes","water_point:fee":"no","website":"https://www.montils.fr/page/aire-de-camping-car"}},"1102381343":{"location":[45.8112039,-0.5536596],"ct":"FR","tp":"CS","ts":"2024-09-05T12:39:59Z","tX":510,"tY":365,"tags":{"addr:city":"Le Douhet","addr:housenumber":"19","addr:postcode":"17100","addr:street":"La roulerie","cabins":"yes","capacity:cabins":"8","capacity:pitches":"25","caravans":"yes","email":"contact@campinglaroulerie.com","fee":"yes","mobile":"+33 6 49 48 25 67","motorhome":"yes","name":"Camping La Roulerie","opening_date":"Apr 1- Oct 1","ref:FR:NAF":"5530Z","ref:FR:SIREN":"397674565","ref:FR:SIRET":"39767456500023","source":"INSEE - 2024-09","tents":"yes","toilets":"yes","website":"https://www.campinglaroulerie.com/"}},"1177104857":{"location":[45.7146776,-0.5586924],"ct":"FR","tp":"CS","ts":"2025-02-07T16:27:01Z","tX":510,"tY":365,"tags":{"addr:city":"Chaniers","addr:housenumber":"65","addr:postcode":"17610","addr:street":"Rue Aliénor d'Aquitaine","name":"Belle Rivière"}},"1266311883":{"location":[45.772017,-0.4245628],"ct":"FR","tp":"CR","ts":"2024-09-18T23:36:38Z","tX":510,"tY":365,"tags":{"caravan_site":"motorhome_stopover","caravan_site:type":"village","fee":"no","maxstay":"72 hours","name":"Aire de services Camping-cars de Burie","seasonal":"no","water_point":"yes","website":"https://www.saintes-tourisme.fr/fiche-sit/aire-de-services-camping-cars-de-burie-5700595/"}},"1318494057":{"location":[45.7402711,-0.3561423],"ct":"FR","tp":"CR","ts":"2024-09-26T19:28:03Z","tX":510,"tY":365,"tags":{"caravan_site":"motorhome_stopover","caravan_site:type":"village","caravans":"no","fee":"no","name":"Aire de services camping-cars de Cherves Richemont","sanitary_dump_station":"yes","surface":"asphalt","tents":"no","water_point":"yes","website":"https://www.destination-cognac.com/aires-camping-car/aire-de-services-camping-cars-de-cherves-richemont/"}},"4358124082":{"location":[45.7662699,-0.4962538],"ct":"FR","tp":"CS","ts":"2021-02-14T21:46:12Z","tX":510,"tY":365,"tags":{"capacity":"33","contact:mobile":"+336 10 66 57 88","name":"Le Gabo","opening_hours":"Jul 01-Aug 31 Mo-Su 00:00-24:00; Jan-Jun off; Sep-Dec off"}},"11888405269":{"location":[45.679809,-0.4818767],"ct":"FR","tp":"CS","ts":"2024-05-08T07:33:18Z","tX":510,"tY":365,"tags":{"name":"Camping chez l'habitant","phone":"0698993779","website":"https://www.homecamper.fr/land/46314"}},"12100255201":{"location":[45.6817484,-0.4131533],"ct":"FR","tp":"CS","ts":"2024-08-09T08:47:46Z","tX":510,"tY":365,"tags":{}},"12202355988":{"location":[45.7245672,-0.4112376],"ct":"FR","tp":"CR","ts":"2024-09-26T18:46:51Z","tX":510,"tY":365,"tags":{"caravan_site":"motorhome_stopover","caravan_site:type":"farm_shop","name":"La Noyeraie des Borderies","organic":"yes","phone":"+33 09 83 06 38 76","product":"oil;nuts","website":"https://noyeraie.com/"}},"7265790390":{"location":[45.6107367,-0.5981011],"ct":"FR","tp":"SD","ts":"2020-03-05T09:07:08Z","tX":510,"tY":365,"tags":{}},"8437785354":{"location":[45.6526756,-0.5062921],"ct":"FR","tp":"SD","ts":"2024-10-25T14:51:00Z","tX":510,"tY":365,"tags":{"access":"yes","fee":"no","operator":"Ville de Montils","sanitary_dump_station:chemical_toilet":"yes","sanitary_dump_station:grey_water":"yes","sanitary_dump_station:round_drain":"yes","water_point":"yes","water_point:fee":"no"}},"8437810938":{"location":[45.7539453,-0.5074143],"ct":"FR","tp":"SD","ts":"2024-05-05T14:02:05Z","tX":510,"tY":365,"tags":{"access":"yes","fee":"no","operator":"Ville de Saint-Césaire","sanitary_dump_station:chemical_toilet":"yes","sanitary_dump_station:grey_water":"yes","sanitary_dump_station:round_drain":"yes","water_point":"yes"}},"8852591965":{"location":[45.7008341,-0.4941976],"ct":"FR","tp":"SD","ts":"2021-06-21T10:29:52Z","tX":510,"tY":365,"tags":{"description":"Jeton euro relais","fee":"4€"}},"11762383578":{"location":[45.7719637,-0.4246701],"ct":"FR","tp":"SD","ts":"2024-03-25T23:24:17Z","tX":510,"tY":365,"tags":{"access":"yes","fee":"no"}},"12202448718":{"location":[45.7402975,-0.3559721],"ct":"FR","tp":"SD","ts":"2024-09-26T19:28:03Z","tX":510,"tY":365,"tags":{"access":"yes"}}}