{"437493639":{"location":[44.4588998,-0.3790423],"ct":"FR","tp":"CS","ts":"2024-02-24T16:40:55Z","tX":510,"tY":370,"tags":{"name":"Camping de Villandraut","opening_hours":"Apr-Oct","phone":"+33 6 20 03 52 62","website":"https://www.villandraut.fr/fr/camping-villandraut-camping-municipal-gironde.php"}},"517090746":{"location":[44.492254,-0.6282885],"ct":"FR","tp":"CS","ts":"2022-05-21T08:59:06Z","tX":510,"tY":370,"tags":{"email":"domainesloisirs@gironde.fr","group_only":"yes","name":"Les Airials","phone":"+33 5 56 88 70 29","website":"https://www.gironde.fr/sport-loisirs/domaine-de-loisirs-dhostens"}},"1332916388":{"location":[44.4180736,-0.4937115],"ct":"FR","tp":"CS","ts":"2024-11-11T17:12:00Z","tX":510,"tY":370,"tags":{"addr:city":"Saint-Symphorien","addr:housenumber":"2","addr:postcode":"33113","addr:street":"Au Moulin de Lescroumpes","name":"Camping Vert Bord'Eau","phone":"+33 5 56 25 79 54","ref:FR:CRTA":"HPAAQU03301V3FEA","source":"Réseau SIRTAQUI - Comité Régional de Tourisme d'Aquitaine - www.sirtaqui-aquitaine.com - 06/2016","stars":"2","website":"https://www.vertbordeau.com/"}},"1867292876":{"location":[44.4181762,-0.4934553],"ct":"FR","tp":"CS","ts":"2019-03-19T12:48:32Z","tX":510,"tY":370,"tags":{"addr:city":"Saint-Symphorien","addr:housenumber":"2","addr:postcode":"33113","addr:street":"Au Moulin de Lescroumpes","name":"Camping Vert Bord'Eau","phone":"+33 5 56 25 79 54","ref:FR:CRTA":"HPAAQU03301V3FEA","source":"Réseau SIRTAQUI - Comité Régional de Tourisme d'Aquitaine - www.sirtaqui-aquitaine.com - 06/2016","stars":"2","website":"https://www.vertbordeau.com/"}},"9758965431":{"location":[44.4890551,-0.6248925],"ct":"FR","tp":"CS","ts":"2023-03-26T09:40:53Z","tX":510,"tY":370,"tags":{"addr:city":"Hostens","addr:country":"FR","addr:housenumber":"11","addr:postcode":"33125","addr:street":"Route de Louchats","email":"ecuries-hostens@orange.fr","internet_access":"wlan","leisure":"horse_riding","mobile":"+33 6 85 53 19 97 ; +33 6 70 10 92 38","name":"Écuries du Lac","payment:cash":"yes","payment:credit_cards":"no","payment:cryptocurrencies":"no","payment:debit_cards":"no","payment:electronic_purses":"no","phone":"+33 5 56 88 77 71","website":"https://equitation-aquitaine.com"}},"5129348482":{"location":[44.552992,-0.3528956],"ct":"FR","tp":"CR","ts":"2024-01-05T23:13:58Z","tX":510,"tY":370,"tags":{"caravan_site":"motorhome_stopover","caravan_site:type":"winery","name":"Domaine de la Gauche","ref:FR:CRTA":"ACCAMAQU033V5053EU","source":"Réseau SIRTAQUI - Comité Régional de Tourisme d'Aquitaine - www.sirtaqui-aquitaine.com - 06/2016","website":"https://www.domaine-de-la-gauche.fr/"}}}