{"132997251":{"location":[43.766092,-0.5611533],"ct":"FR","tp":"CS","ts":"2023-12-20T18:52:52Z","tX":510,"tY":373,"tags":{"access":"private","addr:city":"Saint-Sever","addr:postcode":"40500","addr:street":"Avenue René Crabos","capacity":"68","caravans":"yes","fee":"yes","name":"Camping Les Rives de l'Adour","static_caravans":"yes","telecom":"05 58 44 27 13","tents":"yes","website":"https://camping-rivesdeladour.com/"}},"200769943":{"location":[43.7728604,-0.4359911],"ct":"FR","tp":"CR","ts":"2024-07-02T11:33:23Z","tX":510,"tY":373,"tags":{"addr:city":"Grenade-sur-l'Adour","addr:country":"FR","addr:housenumber":"5","addr:postcode":"40270","addr:street":"rue Pierre de Coubertin","bbq":"no","capacity":"47","caravan_site":"motorhome_stopover","caravan_site:type":"camp_site","caravans":"yes","caravans:conditional":"no @ (Oct 16-May 14)","charge":"15.08 EUR","charge:conditional":"11.58 EUR @ (Oct-Apr)","dog":"leashed","fee":"yes","internet_access":"wlan","maxlength":"none","name":"CAMPING de mon Village of Grenade-sur-l'Adour","network":"CAMPING-CAR PARK","operator":"CAMPING-CAR PARK","owner:website":"https://www.grenadesuradour.fr/camping","phone":"+33 1 83 64 69 21","power_supply:capacity":"48","power_supply:maxcurrent":"6","sanitary_dump_station:chemical_toilet":"yes","sanitary_dump_station:grey_water":"yes","shower:conditional":"no @ (Oct 16-May 14)","stars":"2","tents":"yes","tents:conditional":"no @ (Oct 16-May 14)","toilets":"yes","toilets:conditional":"no @ (Oct 16-May 14)","trailer":"yes","water_point":"yes","website":"https://www.campingcarpark.com/en_GB/stay/camping/nouvelle-aquitaine/40-landes/grenade-sur-l-adour"}},"394391902":{"location":[43.6996826,-0.4237665],"ct":"FR","tp":"CS","ts":"2016-01-28T16:14:18Z","tX":510,"tY":373,"tags":{"name":"Camping Barthon","stars":"3"}},"394626251":{"location":[43.6910739,-0.3721556],"ct":"FR","tp":"CS","ts":"2024-09-08T13:57:28Z","tX":510,"tY":373,"tags":{"access":"customers","addr:city":"Eugénie-les-Bains","addr:housenumber":"350","addr:postcode":"40320","addr:street":"Route du Mouliot","capacity":"133","caravans":"yes","dog":"leashed","drinking_water":"no","email":"info@camping-eugenie-les-bains.fr","fee":"yes","internet_access":"wlan","internet_access:fee":"customers","name":"Camping des Sources","payment:cash":"yes","payment:cheque":"yes","payment:credit_cards":"yes","phone":"+33558456836","power_supply":"yes","sanitary_dump_station":"yes","shower":"yes","stars":"3","static_caravans":"yes","tents":"no","toilets":"yes","website":"https://www.camping-eugenie-les-bains.fr/","wheelchair":"yes"}},"412448402":{"location":[43.6358,-0.3811926],"ct":"FR","tp":"CS","ts":"2025-03-14T13:26:02Z","tX":510,"tY":373,"tags":{"access":"customers","addr:city":"Geaune","addr:housenumber":"11","addr:postcode":"40320","addr:street":"Route de Clèdes","capacity":"40","caravans":"yes","fee":"yes","internet_access":"wlan","name":"Camping municipal","opening_date":"2025-04-01 2025-10-31","phone":"+33 5 58 44 50 27","tents":"yes","website":"https://www.geaune.fr"}},"896086302":{"location":[43.6537068,-0.5981129],"ct":"FR","tp":"CR","ts":"2023-12-27T21:18:25Z","tX":510,"tY":373,"tags":{"access":"yes","addr:city":"Hagetmau","addr:housenumber":"174","addr:postcode":"40250","addr:street":"Rue de Piquette","capacity":"15","caravan_site":"motorhome_stopover","caravan_site:type":"village","description":"Aire de services et stationnement gratuit.","fee":"no","maxheight":"4","maxstay":"unlimited","name":"Aire de Camping-car Hagetmau","opening_hours":"24/7","operator":"Ville de Hagetmau","power_supply":"no","sanitary_dump_station":"yes","sanitary_dump_station:chemical_toilet":"yes","sanitary_dump_station:grey_water":"yes","seasonal":"no","surface":"asphalt","water_point":"yes"}},"1038832761":{"location":[43.6897427,-0.3587334],"ct":"FR","tp":"CR","ts":"2024-10-12T15:04:04Z","tX":510,"tY":373,"tags":{"capacity":"6","caravan_site":"motorhome_stopover","charge":"14.90 EUR","dog":"leashed","fee":"yes","internet_access":"wlan","name":"Le Refuge d'Eugénie","power_supply":"yes","sanitary_dump_station":"yes","seasonal":"yes","water_point":"yes"}},"1232720717":{"location":[43.7601995,-0.6607112],"ct":"FR","tp":"CR","ts":"2024-10-11T20:38:36Z","tX":510,"tY":373,"tags":{"access":"yes","capacity":"2","caravan_site":"motorhome_stopover","caravan_site:type":"farm_shop","caravans":"no","description":"Limité à 24h","email":"comettournier@gmail.com","fee":"no","name":"Aire de camping-car à la ferme Comet-Tournier","opening_hours":"24/7","phone":"+33 5 58 97 74 04","product":"duck","restaurant":"yes","seasonal":"no","website":"https://www.comet-tournier.com/"}},"10852610038":{"location":[43.684293,-0.6276607],"ct":"FR","tp":"CR","ts":"2024-10-25T00:50:43Z","tX":510,"tY":373,"tags":{"addr:city":"Doazit","addr:housenumber":"1455","addr:postcode":"40700","addr:street":"Route d'Hagetmau","caravan_site":"motorhome_stopover","caravan_site:type":"countryside","charge":"16 EUR","fee":"yes","internet_access":"wlan","internet_access:fee":"yes","location":"6","name":"L'Horizon des Landes","power_supply":"yes","sanitary_dump_station":"yes","seasonal":"no","water_point":"yes","website":"https://www.tourismelandes.com/aire-camping-car/aire-de-camping-car-lhorizon-des-landes-accamaqu0400001m/"}},"8021986489":{"location":[43.6903058,-0.3725755],"ct":"FR","tp":"SD","ts":"2020-10-19T12:47:28Z","tX":510,"tY":373,"tags":{"access":"yes","charge":"4 EUR","description":"Aire de Camping-car limitée à 48h à l'extérieur du camping.\n6 emplacements 4€ la nuit, + 4€ l'électricité + 4€ vidange et plein","fee":"yes","operator":"Camping des Sources","water_point":"yes"}},"8329587269":{"location":[43.6538712,-0.5985254],"ct":"FR","tp":"SD","ts":"2023-12-27T21:18:25Z","tX":510,"tY":373,"tags":{"access":"yes","description":"Station de vidange pour Camping-car","fee":"no","operator":"Ville de Hagetmau","power_supply":"no","sanitary_dump_station:chemical_toilet":"yes","sanitary_dump_station:grey_water":"yes","water_point":"yes"}}}