{"194721829":{"location":[38.751927,-0.5503319],"ct":"ES","tp":"CS","ts":"2025-03-03T23:42:56Z","tX":510,"tY":392,"tags":{"addr:city":"Bocairent","addr:housenumber":"9km","addr:street":"Carretera Bocairent-Alcoy (CV-794)","alt_name":"Camping Mariola","cabins":"yes","camp_site":"deluxe","caravans":"yes","contact:email":"info@campingmariola.com","contact:phone":"+34 962 13 51 60","fee":"yes","name":"Camping Bungalows Mariola","tents":"yes","website":"https://www.campingmariola.com/"}},"220781549":{"location":[38.765066,-0.6017765],"ct":"ES","tp":"CS","ts":"2025-03-03T12:25:28Z","tX":510,"tY":392,"tags":{"fee":"yes","name":"Camping Bocairent","tents":"yes","website":"https://zonadeacampada.es/"}},"298453169":{"location":[38.7075934,-0.663945],"ct":"ES","tp":"CS","ts":"2022-11-28T23:23:37Z","tX":510,"tY":392,"tags":{"capacity":"10","name":"Molí de l'Ombria","name:ca":"Molí de l'Ombria","park_ride":"no","parking":"surface","supervised":"no","surface":"unpaved"}},"447224552":{"location":[38.7064111,-0.6603272],"ct":"ES","tp":"CS","ts":"2022-11-28T23:36:48Z","tX":510,"tY":392,"tags":{"name":"Molí de l'Ombria","name:ca":"Molí de l'Ombria"}},"582019826":{"location":[38.73129,-0.3678166],"ct":"ES","tp":"CS","ts":"2022-12-25T00:10:21Z","tX":510,"tY":392,"tags":{"name":"Zona d'Acampada Municipal","name:ca":"Zona d'Acampada Municipal","phone":"+34 965 511 072"}},"827860925":{"location":[38.7489647,-0.4494586],"ct":"ES","tp":"PK","ts":"2020-07-19T14:50:16Z","tX":510,"tY":392,"tags":{"caravans":"yes"}},"1272906815":{"location":[38.6263676,-0.6810241],"ct":"ES","tp":"CR","ts":"2024-04-15T22:17:35Z","tX":510,"tY":392,"tags":{"capacity":"4","fee":"no","name":"Àrea autocaravanes d'Onil","name:ca":"Àrea autocaravanes d'Onil","name:es":"Área autocaravanas de Onil","operator":"Ajuntament de Onil","power_supply":"yes","reservation":"required","sanitary_dump_station":"yes","tents":"no"}},"1370693714":{"location":[38.7352463,-0.4652294],"ct":"ES","tp":"CS","ts":"2025-03-23T20:59:33Z","tX":510,"tY":392,"tags":{"camp_site":"standard","caravans":"yes","charge":"3 EUR","drinking_water":"yes","fee":"yes","name":"Refugi Les Foietes","payment:cash":"yes","shower":"yes","toilets":"yes"}},"9007776589":{"location":[38.7744077,-0.5248633],"ct":"ES","tp":"CS","ts":"2025-03-03T12:32:46Z","tX":510,"tY":392,"tags":{"access":"yes","backcountry":"yes","camp_site":"standard","caravans":"no","fee":"no","name":"Zona d'Acampada Zamorano","operator":"Generalitat Valenciana","shower":"yes","static_caravans":"no","tents":"yes","toilets":"yes","website":"https://icvficherosweb.icv.gva.es/doc_asociada_visor/internet/forestal/instalaciones_recreativas/03003-AL047-3000.pdf"}},"9749827690":{"location":[38.7120968,-0.4228818],"ct":"ES","tp":"CS","ts":"2022-05-17T18:14:52Z","tX":510,"tY":392,"tags":{"email":"info@campingrurallamasia.eu","name":"Camping Rural La Masia","phone":"+34685094734","website":"https://campingrurallamasia.eu"}},"10139579658":{"location":[38.7831794,-0.5531777],"ct":"ES","tp":"CS","ts":"2022-10-30T12:28:56Z","tX":510,"tY":392,"tags":{"addr:housenumber":"8","addr:street":"Lugar Diseminados","name":"Alfalfara Camper Park","phone":"+34 660 97 76 70","website":"https://alfafaracamperpark.es/"}},"10689102276":{"location":[38.621595,-0.4045125],"ct":"ES","tp":"CS","ts":"2023-09-21T20:26:55Z","tX":510,"tY":392,"tags":{"name":"Buena Vista","website":"https://www.buenavista.camp/travels"}},"4795424621":{"location":[38.5959144,-0.6670278],"ct":"ES","tp":"CR","ts":"2024-12-29T13:22:20Z","tX":510,"tY":392,"tags":{"capacity":"10","fee":"no","internet_access":"no","name":"Area Autocaravanes","name:ca":"Area Autocaravanes","name:en":"Camper Park","name:es":"Area Autocaravanas","permanent_camping":"no","power_supply":"yes","sanitary_dump_station":"yes","toilets":"no"}}}