{"25867504":{"location":[38.4354853,-0.3883829],"ct":"ES","tp":"CS","ts":"2022-11-27T11:14:46Z","tX":510,"tY":393,"tags":{"email":"info@campingcostablanca.com","name":"Costa Blanca","name:ca":"Costa Blanca","phone":"+34 96 563 06 70","website":"https://www.campingcostablanca.com/"}},"26586173":{"location":[38.4046932,-0.4195176],"ct":"ES","tp":"CR","ts":"2022-10-06T18:12:53Z","tX":510,"tY":393,"tags":{"name":"El Caballo Loco"}},"82389154":{"location":[38.373902,-0.6717725],"ct":"ES","tp":"CS","ts":"2015-10-02T23:13:29Z","tX":510,"tY":393,"tags":{"name":"Zona de Acampada de San Pascual"}},"702638908":{"location":[38.4572742,-0.3585085],"ct":"ES","tp":"CS","ts":"2019-07-09T09:00:59Z","tX":510,"tY":393,"tags":{"name":"Camping Colmar","website":"http://www.colmarspain.com/"}},"703154324":{"location":[38.3920841,-0.4157038],"ct":"ES","tp":"CS","ts":"2023-10-25T22:32:49Z","tX":510,"tY":393,"tags":{"addr:city":"el Campello","addr:housenumber":"39","addr:postcode":"03560","addr:street":"Calle del Doctor Severo Ochoa","caravans":"no","drinking_water":"yes","internet_access":"wlan","name":"Camping El Jardín","name:pl":"Kemping El Jardín","power_supply":"yes","shower":"yes","tents":"yes","toilets":"yes","website":"https://campingeljardin.com/"}},"951986768":{"location":[38.2897363,-0.520547],"ct":"ES","tp":"CR","ts":"2022-11-20T11:26:03Z","tX":510,"tY":393,"tags":{"capacity":"30","description":"Parking Camping Car","internet_access":"no","power_supply":"no","sanitary_dump_station":"no"}},"1054026749":{"location":[38.4127885,-0.4045933],"ct":"ES","tp":"CS","ts":"2022-04-22T17:40:40Z","tX":510,"tY":393,"tags":{"name":"Camping Bon Sol"}},"1282272637":{"location":[38.3894459,-0.4150503],"ct":"ES","tp":"CS","ts":"2024-05-12T22:12:04Z","tX":510,"tY":393,"tags":{"caravans":"yes"}},"2658571609":{"location":[38.5254946,-0.6727571],"ct":"ES","tp":"CS","ts":"2016-05-27T23:40:58Z","tX":510,"tY":393,"tags":{}},"3399041726":{"location":[38.4805333,-0.699792],"ct":"ES","tp":"CS","ts":"2015-03-15T01:56:23Z","tX":510,"tY":393,"tags":{}},"8781280018":{"location":[38.3422512,-0.6522086],"ct":"ES","tp":"CS","ts":"2023-05-10T06:51:09Z","tX":510,"tY":393,"tags":{"internet_access":"wlan","name":"Finca Familia","phone":"+31 6 28 26 04 61"}},"9217980417":{"location":[38.3920848,-0.4130418],"ct":"ES","tp":"CS","ts":"2023-07-27T09:07:31Z","tX":510,"tY":393,"tags":{"caravans":"yes","drinking_water":"yes","name":"CAMPER AREA NATUR PLAYA MUCHAVISTA","power_supply":"yes","shower":"yes","tents":"no","toilets":"yes"}},"4344530501":{"location":[38.3948044,-0.4100556],"ct":"ES","tp":"CR","ts":"2023-10-25T22:14:41Z","tX":510,"tY":393,"tags":{"addr:housenumber":"8","addr:postcode":"03560","addr:street":"Calle Juan de la Cierva","email":"Info@camperareacampellobeach.com","internet_access":"wlan","name":"Camper Área Campello","name:es":"Camper Área Campello Beach","opening_hours":"Mo-Su 08:00-21:00","phone":"+34 965 166 960","toilets":"yes","website":"https://www.camperareacampellobeach.com/"}},"5592595021":{"location":[38.4056853,-0.410377],"ct":"ES","tp":"CR","ts":"2018-05-02T14:50:44Z","tX":510,"tY":393,"tags":{"addr:housenumber":"7","addr:postcode":"03560","addr:street":"avinguda de Fabraquer","email":"info@camperareaelcampello.com","internet_access":"wlan","name":"Area de Autocaravanas 7","opening_hours":"Mo-Su 09:00-21:00","phone":"+34965168142"}},"10117380418":{"location":[38.3921042,-0.4132098],"ct":"ES","tp":"CR","ts":"2024-07-01T01:44:13Z","tX":510,"tY":393,"tags":{"addr:housenumber":"25","addr:postcode":"03560","addr:street":"carrer de les Àncores","email":"info@areanaturplaya.com","internet_access":"wlan","name":"Área de Autocaravanas Natur Playa Muchavista","opening_hours":"Mo-Su 09:00-20:00","phone":"+34966831371","toilets":"yes","website":"https://areanaturplaya.com/"}}}