{"38717722":{"location":[49.0543938,37.5493018],"ct":"UA","tp":"CS","ts":"2023-03-03T23:21:42Z","tX":618,"tY":351,"tags":{"name":"ДОЦ «Смарагдове місто»","name:uk":"ДОЦ «Смарагдове місто»"}},"38718238":{"location":[49.0496263,37.5401035],"ct":"UA","tp":"CS","ts":"2023-03-03T23:21:42Z","tX":618,"tY":351,"tags":{"name":"БВ «Озон»","name:uk":"БВ «Озон»"}},"38718239":{"location":[49.048909,37.5401249],"ct":"UA","tp":"CS","ts":"2023-03-03T23:21:42Z","tX":618,"tY":351,"tags":{"name":"БВ «Металург»","name:uk":"БВ «Металург»"}},"38718767":{"location":[49.0467994,37.5404468],"ct":"UA","tp":"CS","ts":"2023-03-03T23:21:42Z","tX":618,"tY":351,"tags":{"name":"БВ «Троянда»","name:uk":"БВ «Троянда»"}},"38718768":{"location":[49.0453227,37.5405541],"ct":"UA","tp":"CS","ts":"2023-03-03T23:21:42Z","tX":618,"tY":351,"tags":{"name":"БВ «Ехо»","name:uk":"БВ «Ехо»"}},"38718769":{"location":[49.0468135,37.5434723],"ct":"UA","tp":"CS","ts":"2023-03-03T23:21:42Z","tX":618,"tY":351,"tags":{"name":"БВ «Металург»","name:uk":"БВ «Металург»"}},"38718770":{"location":[49.0450836,37.5433006],"ct":"UA","tp":"CS","ts":"2023-03-03T23:21:42Z","tX":618,"tY":351,"tags":{"name":"БВ «Лісова»","name:uk":"БВ «Лісова»"}},"38718771":{"location":[49.0441693,37.5429788],"ct":"UA","tp":"CS","ts":"2023-03-03T23:21:42Z","tX":618,"tY":351,"tags":{"name":"БВ «Ромашка»","name:uk":"БВ «Ромашка»"}},"38718773":{"location":[49.0505282,37.5362344],"ct":"UA","tp":"CS","ts":"2023-03-03T23:21:42Z","tX":618,"tY":351,"tags":{"name":"БВ «Дорожник»","name:uk":"БВ «Дорожник»"}},"38718774":{"location":[49.0478121,37.5405969],"ct":"UA","tp":"CS","ts":"2023-03-03T23:21:42Z","tX":618,"tY":351,"tags":{"name":"БВ «Лісова галявина»","name:uk":"БВ «Лісова галявина»"}},"38718918":{"location":[49.0436067,37.5428929],"ct":"UA","tp":"CS","ts":"2023-03-03T23:21:42Z","tX":618,"tY":351,"tags":{"name":"БВ «Металіст»","name:uk":"БВ «Металіст»"}},"38718919":{"location":[49.0468697,37.5479785],"ct":"UA","tp":"CS","ts":"2023-03-03T23:21:42Z","tX":618,"tY":351,"tags":{"name":"БВ «Шахтар»","name:uk":"БВ «Шахтар»"}},"38718945":{"location":[49.0504138,37.5542226],"ct":"UA","tp":"CS","ts":"2023-03-03T23:21:42Z","tX":618,"tY":351,"tags":{"name":"ДОЦ «Лісова казка»","name:uk":"ДОЦ «Лісова казка»"}},"38719076":{"location":[49.0511962,37.5585001],"ct":"UA","tp":"CS","ts":"2023-10-23T01:10:22Z","tX":618,"tY":351,"tags":{"name":"Пансіонат «Садко» шахти \"Жданівська\"","name:ru":"Пансионат «Садко» шахты \"Ждановская\"","name:uk":"Пансіонат «Садко» шахти \"Жданівська\""}},"38719211":{"location":[49.0494013,37.5584069],"ct":"UA","tp":"CS","ts":"2020-02-07T06:13:09Z","tX":618,"tY":351,"tags":{}},"38719212":{"location":[49.0487403,37.5582782],"ct":"UA","tp":"CS","ts":"2023-03-03T23:21:42Z","tX":618,"tY":351,"tags":{"name":"БВ «Святогірська»","name:uk":"БВ «Святогірська»"}},"38719213":{"location":[49.0491341,37.5552955],"ct":"UA","tp":"CS","ts":"2023-03-03T23:21:42Z","tX":618,"tY":351,"tags":{"name":"ДОЦ ім. Уляни Громової","name:uk":"ДОЦ ім. Уляни Громової"}},"38719451":{"location":[49.048445,37.560896],"ct":"UA","tp":"CS","ts":"2023-03-03T23:21:42Z","tX":618,"tY":351,"tags":{"name":"ДОЦ ім. В. Терешкової","name:uk":"ДОЦ ім. В. Терешкової"}},"38719453":{"location":[49.0516233,37.5626125],"ct":"UA","tp":"CS","ts":"2023-03-03T23:21:42Z","tX":618,"tY":351,"tags":{"name":"ДОЦ «Юний Ленінець»","name:uk":"ДОЦ «Юний Ленінець»"}},"38719454":{"location":[49.052903,37.5681058],"ct":"UA","tp":"CS","ts":"2023-03-03T23:21:42Z","tX":618,"tY":351,"tags":{"name":"ДОЦ «Дзержинець»","name:uk":"ДОЦ «Дзержинець»"}},"38719537":{"location":[49.0525795,37.5718394],"ct":"UA","tp":"CS","ts":"2023-03-03T23:21:42Z","tX":618,"tY":351,"tags":{"name":"ДОЦ «Донецьке орлятко» КП \"Обласний дитячо-молодіжний санаторно-оздорвчий комплекс\" \"Перлина Донеччини\" (ДОЦ «Червона гвоздика»)","name:uk":"ДОЦ «Донецьке орлятко» КП \"Обласний дитячо-молодіжний санаторно-оздорвчий комплекс\" \"Перлина Донеччини\" (ДОЦ «Червона гвоздика»)"}},"38719625":{"location":[49.0504842,37.5669685],"ct":"UA","tp":"CS","ts":"2023-03-03T23:21:42Z","tX":618,"tY":351,"tags":{"name":"ДОЦ «Берізка»","name:uk":"ДОЦ «Берізка»"}},"38719626":{"location":[49.0498513,37.5693503],"ct":"UA","tp":"CS","ts":"2023-03-03T23:21:42Z","tX":618,"tY":351,"tags":{"name":"ДОЦ ім. Гайдара","name:uk":"ДОЦ ім. Гайдара"}},"38719627":{"location":[49.0485294,37.5666895],"ct":"UA","tp":"CS","ts":"2023-03-03T23:21:42Z","tX":618,"tY":351,"tags":{"name":"ДОЦ «Світлячок»","name:uk":"ДОЦ «Світлячок»"}},"38720676":{"location":[49.0458571,37.5670328],"ct":"UA","tp":"CS","ts":"2023-03-03T23:21:42Z","tX":618,"tY":351,"tags":{"name":"ДОЦ ім. Чкалова","name:uk":"ДОЦ ім. Чкалова"}},"38720677":{"location":[49.0468557,37.5692215],"ct":"UA","tp":"CS","ts":"2023-03-03T23:21:42Z","tX":618,"tY":351,"tags":{"name":"ДОЦ «Зоряний»","name:uk":"ДОЦ «Зоряний»"}},"38720678":{"location":[49.0485996,37.5721613],"ct":"UA","tp":"CS","ts":"2023-03-03T23:21:42Z","tX":618,"tY":351,"tags":{"name":"ДОЦ «Супутник»","name:uk":"ДОЦ «Супутник»"}},"38720682":{"location":[49.0474182,37.5742426],"ct":"UA","tp":"CS","ts":"2023-03-03T23:21:42Z","tX":618,"tY":351,"tags":{"name":"ДОЦ «Прометей»","name:uk":"ДОЦ «Прометей»"}},"38720684":{"location":[49.0454352,37.5712517],"ct":"UA","tp":"CS","ts":"2023-03-03T23:21:42Z","tX":618,"tY":351,"tags":{"name":"Госпіталь","name:uk":"Госпіталь"}},"38720688":{"location":[49.0462087,37.5564757],"ct":"UA","tp":"CS","ts":"2023-03-03T23:21:42Z","tX":618,"tY":351,"tags":{"name":"ДОЦ ім. Тюленіна","name:uk":"ДОЦ ім. Тюленіна"}},"38720693":{"location":[49.046251,37.5594368],"ct":"UA","tp":"CS","ts":"2023-03-03T23:21:42Z","tX":618,"tY":351,"tags":{"name":"ДОЦ «Срібний горн»","name:uk":"ДОЦ «Срібний горн»"}},"38720696":{"location":[49.0460681,37.5622264],"ct":"UA","tp":"CS","ts":"2023-03-03T23:21:42Z","tX":618,"tY":351,"tags":{"name":"ДОЦ «Ізотовець»","name:uk":"ДОЦ «Ізотовець»"}},"38720699":{"location":[49.0438037,37.5629988],"ct":"UA","tp":"CS","ts":"2023-03-03T23:21:42Z","tX":618,"tY":351,"tags":{"name":"ДОЦ «Салют»","name:uk":"ДОЦ «Салют»"}},"38720700":{"location":[49.0457165,37.5645653],"ct":"UA","tp":"CS","ts":"2023-03-03T23:21:42Z","tX":618,"tY":351,"tags":{"name":"ДОЦ «Вогник»","name:uk":"ДОЦ «Вогник»"}},"38721027":{"location":[49.0539155,37.5760236],"ct":"UA","tp":"CS","ts":"2023-03-03T23:21:42Z","tX":618,"tY":351,"tags":{"name":"ДОЦ ім. Гагаріна","name:uk":"ДОЦ ім. Гагаріна"}},"38721028":{"location":[49.0498961,37.5772707],"ct":"UA","tp":"CS","ts":"2023-11-07T02:22:56Z","tX":618,"tY":351,"tags":{"addr:housenumber":"95","addr:street":"Кільцева вулиця","name":"ДОЦ «Донецьке орлятко» КП \"Обласний дитячо-молодіжний санаторно-оздорвчий комплекс\" \"Перлина Донеччини\"","name:uk":"ДОЦ «Донецьке орлятко» КП \"Обласний дитячо-молодіжний санаторно-оздорвчий комплекс\" \"Перлина Донеччини\"","website":"https://www.perlynadon.org/"}},"38721029":{"location":[49.0486916,37.5821743],"ct":"UA","tp":"CS","ts":"2023-03-03T23:21:42Z","tX":618,"tY":351,"tags":{"name":"Пансіонат «Сосновий бор»","name:uk":"Пансіонат «Сосновий бор»"}},"38721030":{"location":[49.04477,37.572773],"ct":"UA","tp":"CS","ts":"2023-03-03T23:21:42Z","tX":618,"tY":351,"tags":{"name":"ДОЦ ім. Камишева","name:uk":"ДОЦ ім. Камишева"}},"38721500":{"location":[49.0454071,37.5528493],"ct":"UA","tp":"CS","ts":"2023-03-03T23:21:42Z","tX":618,"tY":351,"tags":{"name":"Святоград","name:uk":"Святоград"}},"38721502":{"location":[49.0440006,37.5525059],"ct":"UA","tp":"CS","ts":"2023-03-03T23:21:42Z","tX":618,"tY":351,"tags":{"name":"БВ «Сосна»","name:uk":"БВ «Сосна»"}},"38721508":{"location":[49.044099,37.550961],"ct":"UA","tp":"CS","ts":"2023-03-03T23:21:42Z","tX":618,"tY":351,"tags":{"name":"ДОЦ «Чайка»","name:uk":"ДОЦ «Чайка»"}},"38722101":{"location":[49.0427488,37.547442],"ct":"UA","tp":"CS","ts":"2023-03-03T23:21:42Z","tX":618,"tY":351,"tags":{"name":"ДОЦ «Кристал»","name:uk":"ДОЦ «Кристал»"}},"38722107":{"location":[49.0408874,37.5404012],"ct":"UA","tp":"CS","ts":"2023-03-03T23:21:42Z","tX":618,"tY":351,"tags":{"name":"БВ «Нептун»","name:uk":"БВ «Нептун»"}},"38722710":{"location":[49.0365314,37.5429359],"ct":"UA","tp":"CS","ts":"2020-06-25T07:55:38Z","tX":618,"tY":351,"tags":{}},"38722711":{"location":[49.0344636,37.5439014],"ct":"UA","tp":"CS","ts":"2023-03-03T23:21:42Z","tX":618,"tY":351,"tags":{"name":"БВ «Іскра»","name:uk":"БВ «Іскра»"}},"38722712":{"location":[49.0333172,37.5423839],"ct":"UA","tp":"CS","ts":"2023-03-11T13:42:41Z","tX":618,"tY":351,"tags":{"name":"Полярна ведмедиця","name:uk":"Полярна ведмедиця"}},"38722713":{"location":[49.0391057,37.5425068],"ct":"UA","tp":"CS","ts":"2023-03-03T23:21:42Z","tX":618,"tY":351,"tags":{"name":"ДОЦ «Гайдаровець»","name:uk":"ДОЦ «Гайдаровець»"}},"38722718":{"location":[49.0428895,37.5437512],"ct":"UA","tp":"CS","ts":"2023-03-03T23:21:42Z","tX":618,"tY":351,"tags":{"name":"ДД «Ромашка»","name:uk":"ДД «Ромашка»"}},"38722720":{"location":[49.0412345,37.5429144],"ct":"UA","tp":"CS","ts":"2023-03-03T23:21:42Z","tX":618,"tY":351,"tags":{"name":"ДОЦ «Іскорка»","name:uk":"ДОЦ «Іскорка»"}},"38722886":{"location":[49.0410609,37.5462404],"ct":"UA","tp":"CS","ts":"2023-03-03T23:21:42Z","tX":618,"tY":351,"tags":{"name":"ДОЦ «Голубок»","name:uk":"ДОЦ «Голубок»"}},"38722889":{"location":[49.0363485,37.5496736],"ct":"UA","tp":"CS","ts":"2023-03-03T23:21:42Z","tX":618,"tY":351,"tags":{"name":"Санаторій «Святі гори»","name:uk":"Санаторій «Святі гори»"}},"38722890":{"location":[49.0388666,37.5571409],"ct":"UA","tp":"CS","ts":"2023-03-03T23:21:42Z","tX":618,"tY":351,"tags":{"name":"ДОЦ «Бджілка»","name:uk":"ДОЦ «Бджілка»"}},"38722892":{"location":[49.038318,37.5582138],"ct":"UA","tp":"CS","ts":"2023-03-03T23:21:42Z","tX":618,"tY":351,"tags":{"name":"БВ «Сосна»","name:uk":"БВ «Сосна»"}},"38722893":{"location":[49.0418671,37.5637064],"ct":"UA","tp":"CS","ts":"2023-03-03T23:21:42Z","tX":618,"tY":351,"tags":{"name":"Школа-інтернат","name:uk":"Школа-інтернат"}},"38723008":{"location":[49.0438881,37.561368],"ct":"UA","tp":"CS","ts":"2023-03-03T23:21:42Z","tX":618,"tY":351,"tags":{"name":"ДОЦ «Яструбок»","name:uk":"ДОЦ «Яструбок»"}},"38723009":{"location":[49.0417719,37.5714426],"ct":"UA","tp":"CS","ts":"2023-03-03T23:21:42Z","tX":618,"tY":351,"tags":{"name":"База-практикум «Сонячна»","name:uk":"База-практикум «Сонячна»"}},"38723010":{"location":[49.0399773,37.5746645],"ct":"UA","tp":"CS","ts":"2023-03-03T23:21:42Z","tX":618,"tY":351,"tags":{"name":"Пансіонат «Стара фортеця»","name:uk":"Пансіонат «Стара фортеця»"}},"38723011":{"location":[49.0409189,37.5769116],"ct":"UA","tp":"CS","ts":"2023-03-03T23:21:42Z","tX":618,"tY":351,"tags":{"name":"БВ «П’ятий океан»","name:uk":"БВ «П’ятий океан»"}},"38723012":{"location":[49.0398244,37.5775958],"ct":"UA","tp":"CS","ts":"2023-03-03T23:21:42Z","tX":618,"tY":351,"tags":{"name":"БВ «Авіатор»","name:uk":"БВ «Авіатор»"}},"38723873":{"location":[49.0347572,37.5740603],"ct":"UA","tp":"CS","ts":"2023-03-03T23:21:42Z","tX":618,"tY":351,"tags":{"name":"БВ «Тополиний гай»","name:uk":"БВ «Тополиний гай»"}},"38723875":{"location":[49.0326868,37.5626247],"ct":"UA","tp":"CS","ts":"2023-03-03T23:21:42Z","tX":618,"tY":351,"tags":{"name":"ДОЦ ім. Тореза","name:uk":"ДОЦ ім. Тореза"}},"38725009":{"location":[49.0307576,37.544142],"ct":"UA","tp":"CS","ts":"2023-03-03T23:21:42Z","tX":618,"tY":351,"tags":{"name":"БВ «Версавія»","name:uk":"БВ «Версавія»"}},"38725010":{"location":[49.0308832,37.5411704],"ct":"UA","tp":"CS","ts":"2023-03-03T23:21:42Z","tX":618,"tY":351,"tags":{"name":"БВ «Дібровушка»","name:uk":"БВ «Дібровушка»"}},"38803390":{"location":[49.0477729,37.5431964],"ct":"UA","tp":"CS","ts":"2023-03-03T23:21:42Z","tX":618,"tY":351,"tags":{"name":"БВ «Йолкі-палкі»","name:uk":"БВ «Йолкі-палкі»"}},"182650786":{"location":[49.0197311,37.5273107],"ct":"UA","tp":"CS","ts":"2023-07-25T18:55:38Z","tX":618,"tY":351,"tags":{"name":"DOL Donets","name:uk":"DOL Donets"}},"411649151":{"location":[49.0229188,37.5165992],"ct":"UA","tp":"CS","ts":"2023-02-19T21:08:13Z","tX":618,"tY":351,"tags":{"name":"Наметове містечко \"Міст\"","name:uk":"Наметове містечко \"Міст\""}},"411654685":{"location":[49.042294,37.4959544],"ct":"UA","tp":"CS","ts":"2023-02-21T01:04:12Z","tX":618,"tY":351,"tags":{"name":"ДОЛ \"Орльонок\"","name:uk":"ДОЛ \"Орльонок\""}},"411654686":{"location":[49.0404627,37.4972604],"ct":"UA","tp":"CS","ts":"2023-03-03T23:21:42Z","tX":618,"tY":351,"tags":{"name":"ДОЛ «Дружба»","name:uk":"ДОЛ «Дружба»"}},"411654687":{"location":[49.0396662,37.4992194],"ct":"UA","tp":"CS","ts":"2023-02-19T21:08:13Z","tX":618,"tY":351,"tags":{"name":"База відпочинку «Тиша» ДДМА","name:uk":"База відпочинку «Тиша» ДДМА"}},"1745604020":{"location":[49.0229398,37.5413842],"ct":"UA","tp":"CS","ts":"2019-12-29T09:55:07Z","tX":618,"tY":351,"tags":{}},"1745604022":{"location":[49.0367088,37.4864804],"ct":"UA","tp":"CS","ts":"2013-07-15T10:35:31Z","tX":618,"tY":351,"tags":{"natural":"beach"}},"1745604023":{"location":[49.0373198,37.4853728],"ct":"UA","tp":"CS","ts":"2013-07-15T10:35:31Z","tX":618,"tY":351,"tags":{"natural":"beach"}},"1745604025":{"location":[49.0385787,37.4865931],"ct":"UA","tp":"CS","ts":"2012-05-08T14:03:11Z","tX":618,"tY":351,"tags":{"natural":"beach"}},"1745604026":{"location":[49.0444472,37.4857976],"ct":"UA","tp":"CS","ts":"2013-05-17T07:26:25Z","tX":618,"tY":351,"tags":{"natural":"beach"}},"1745604027":{"location":[49.0457963,37.4848993],"ct":"UA","tp":"CS","ts":"2013-05-17T07:26:25Z","tX":618,"tY":351,"tags":{"natural":"beach"}},"1745604028":{"location":[49.050586,37.4832817],"ct":"UA","tp":"CS","ts":"2013-07-16T13:09:15Z","tX":618,"tY":351,"tags":{"natural":"beach"}},"1745604030":{"location":[49.0525575,37.4797886],"ct":"UA","tp":"CS","ts":"2012-05-08T14:03:11Z","tX":618,"tY":351,"tags":{"natural":"beach"}},"1745604031":{"location":[49.0542915,37.4813937],"ct":"UA","tp":"CS","ts":"2012-05-08T14:03:11Z","tX":618,"tY":351,"tags":{"natural":"beach"}},"1745604033":{"location":[49.0574539,37.4757073],"ct":"UA","tp":"CS","ts":"2012-05-08T14:03:11Z","tX":618,"tY":351,"tags":{"natural":"beach"}},"1745604052":{"location":[49.060672,37.4769655],"ct":"UA","tp":"CS","ts":"2012-05-08T14:03:12Z","tX":618,"tY":351,"tags":{"natural":"beach"}},"1745604054":{"location":[49.0628461,37.477332],"ct":"UA","tp":"CS","ts":"2013-05-17T07:26:25Z","tX":618,"tY":351,"tags":{"natural":"beach"}},"1745604058":{"location":[49.0664514,37.4753034],"ct":"UA","tp":"CS","ts":"2012-05-08T14:03:12Z","tX":618,"tY":351,"tags":{"natural":"beach"}},"1745604060":{"location":[49.069495,37.4752826],"ct":"UA","tp":"CS","ts":"2012-05-08T14:03:12Z","tX":618,"tY":351,"tags":{"natural":"beach"}},"1745604065":{"location":[49.0804633,37.4676406],"ct":"UA","tp":"CS","ts":"2012-05-08T14:03:12Z","tX":618,"tY":351,"tags":{}},"1745604071":{"location":[49.0985499,37.4117741],"ct":"UA","tp":"CS","ts":"2016-10-09T04:48:19Z","tX":618,"tY":351,"tags":{"natural":"beach"}},"1745604092":{"location":[49.1163088,37.3488103],"ct":"UA","tp":"CS","ts":"2012-05-08T14:03:12Z","tX":618,"tY":351,"tags":{"natural":"beach"}},"1745604094":{"location":[49.1317349,37.3105198],"ct":"UA","tp":"CS","ts":"2022-04-06T13:53:24Z","tX":618,"tY":351,"tags":{}},"1745604097":{"location":[49.1396686,37.3061128],"ct":"UA","tp":"CS","ts":"2012-05-08T14:03:13Z","tX":618,"tY":351,"tags":{"natural":"beach"}},"1745604109":{"location":[49.1436603,37.3059304],"ct":"UA","tp":"CS","ts":"2012-05-08T14:03:13Z","tX":618,"tY":351,"tags":{"natural":"beach"}},"1745604133":{"location":[49.1480287,37.3117158],"ct":"UA","tp":"CS","ts":"2012-05-08T14:03:13Z","tX":618,"tY":351,"tags":{"natural":"beach"}},"1745604147":{"location":[49.1521818,37.3129509],"ct":"UA","tp":"CS","ts":"2012-05-08T14:03:14Z","tX":618,"tY":351,"tags":{"natural":"beach"}},"2306731936":{"location":[49.1181209,37.403815],"ct":"UA","tp":"CS","ts":"2013-05-16T18:59:37Z","tX":618,"tY":351,"tags":{}},"2306731985":{"location":[49.1195354,37.4035268],"ct":"UA","tp":"CS","ts":"2013-05-16T18:59:38Z","tX":618,"tY":351,"tags":{}},"2307514904":{"location":[49.1105904,37.4060986],"ct":"UA","tp":"CS","ts":"2013-05-17T07:26:10Z","tX":618,"tY":351,"tags":{}},"2386432320":{"location":[49.0383898,37.5816062],"ct":"UA","tp":"CS","ts":"2013-07-16T13:08:42Z","tX":618,"tY":351,"tags":{"natural":"beach"}},"2386432788":{"location":[49.0429712,37.5942465],"ct":"UA","tp":"CS","ts":"2013-07-16T13:08:48Z","tX":618,"tY":351,"tags":{"natural":"beach"}},"5173226325":{"location":[49.0753217,37.5724188],"ct":"UA","tp":"CR","ts":"2023-03-03T23:21:42Z","tX":618,"tY":351,"tags":{"name":"Поло","name:uk":"Поло"}}}