{"1413593270":{"location":[0.5658539,37.5348029],"ct":"KE","tp":"CS","ts":"2016-07-24T14:58:09Z","tX":618,"tY":510,"tags":{"addr:street":"Samburu National Reserve","name":"Samburu Public Campsite","operator":"Samburu County"}},"4313392591":{"location":[0.7020268,37.59125],"ct":"KE","tp":"CS","ts":"2019-03-05T00:23:23Z","tX":618,"tY":510,"tags":{"addr:street":"Kalama Conservancy","email":"tourism@nrt-kenya.org","name":"Lbaa Campsite","opening_hours":"24/7","operator":"Kalama Conservancy","website":"https://www.nrt-kenya.org/"}},"4313428089":{"location":[0.6607882,37.327279],"ct":"KE","tp":"CS","ts":"2019-03-05T00:23:20Z","tX":618,"tY":510,"tags":{"email":"tourism@nrt-kenya.org","name":"Belindas Campsite","operator":"Westgate Conservancy","website":"https://www.nrt-kenya.org/"}},"4313439489":{"location":[0.6457857,37.3582946],"ct":"KE","tp":"CS","ts":"2016-07-21T07:46:17Z","tX":618,"tY":510,"tags":{"name":"Westgate Conservancy HQ Campsite","operator":"Westgate Conservancy"}},"4404296792":{"location":[0.6946317,37.5811886],"ct":"KE","tp":"CS","ts":"2016-09-28T11:40:52Z","tX":618,"tY":510,"tags":{"addr:street":"Kalama Conservancy","description":"Campsite under a large Acacia tree with slight elevation. Views of sunrise in the morning.","name":"Lpus Campsite","operator":"Kalama Conservancy"}},"4404305731":{"location":[0.696831,37.5792735],"ct":"KE","tp":"CS","ts":"2019-07-29T11:07:12Z","tX":618,"tY":510,"tags":{"name":"Kalama Campsite","operator":"Kalama Conservancy"}},"4404305732":{"location":[0.6893428,37.5727075],"ct":"KE","tp":"CS","ts":"2022-11-10T07:11:39Z","tX":618,"tY":510,"tags":{"description":"Campsite next to the lugga, no shade."}},"4472263285":{"location":[0.3850117,37.2956292],"ct":"KE","tp":"CS","ts":"2023-03-27T17:15:55Z","tX":618,"tY":510,"tags":{"addr:city":"Mukogodo Forest","addr:street":"Mukogodo Forest","backcountry":"yes","fee":"yes","fee:amount":"2000 KES","name":"Mukogodo Forest Nikijabe Campsite","phone":"+254 71 0788142;+254 72 3155986"}},"6721083885":{"location":[0.5669901,37.5354417],"ct":"KE","tp":"CS","ts":"2019-08-18T15:12:20Z","tX":618,"tY":510,"tags":{"name":"Samburu public","name:en":"Samburu public campsite"}}}