{"294992648":{"location":[-2.9610754,37.4975339],"ct":"TZ","tp":"CS","ts":"2019-04-08T21:20:26Z","tX":618,"tY":520,"tags":{"landuse":"recreation_ground","name":"Snow Camp","name:cs":"Sněhový tábor","name:de":"Schnee-Lager","name:sk":"Snehový tábor"}},"296909465":{"location":[-2.9736683,37.4748009],"ct":"TZ","tp":"CS","ts":"2018-09-25T12:56:52Z","tX":618,"tY":520,"tags":{"name":"Sekimba Camp","name:cs":"tábor Sekimba","name:de":"Sekimba-Lager","name:sk":"tábor Sekimba","sorting_name:cs":"Sekimba","sorting_name:sk":"Sekimba"}},"296911105":{"location":[-3.053434,37.4477896],"ct":"TZ","tp":"CS","ts":"2023-11-19T10:41:49Z","tX":618,"tY":520,"tags":{"name":"Kikeleva Caves Camp","name:cs":"tábor Jeskyně Kikeleva","name:de":"Kikeleva-Höhlen-Lager","name:sk":"tábor Jaskyne Kikeleva","sorting_name:cs":"Jeskyně Kikeleva","sorting_name:sk":"Jaskyňa Kikeleva"}},"296912071":{"location":[-3.0800013,37.4565018],"ct":"TZ","tp":"CS","ts":"2018-09-24T15:07:11Z","tX":618,"tY":520,"tags":{"name":"Mawenzi Tarn Huts Camp","name:cs":"tábor Boudy Mawenzi Tarn","name:de":"Mawenzi-Tarn-Hütten-Lager","name:sk":"tábor Búdy Mawenzi Tarn"}},"498670433":{"location":[-3.095151,37.3296402],"ct":"TZ","tp":"CS","ts":"2023-11-08T10:43:53Z","tX":618,"tY":520,"tags":{"ele":"3970","is_in":"Kilimanjaro","is_in:country":"Tanzania","name":"Barranco Camp","name:cs":"tábor Barranco","name:de":"Barranco-Lager","name:sk":"tábor Barranco","place":"locality","sorting_name:cs":"Barranco","sorting_name:sk":"Barranco","wheelchair":"no","wikidata":"Q4126733","wikipedia":"en:Mount Kilimanjaro climbing routes"}},"498670434":{"location":[-3.0668048,37.2762812],"ct":"TZ","tp":"CS","ts":"2023-11-08T10:43:53Z","tX":618,"tY":520,"tags":{"ele":"3841","is_in":"Kilimanjaro","is_in:country":"Tanzania","name":"Shira Cave Camp","name:cs":"tábor Jeskyně Shira","name:de":"Shira-Höhle-Lager","name:sk":"tábor Jeskyňa Shira","place":"locality","sorting_name:cs":"Jeskyně Shira","sorting_name:sk":"Jeskyňa Shira","wheelchair":"no","wikidata":"Q4126733","wikipedia":"en:Mount Kilimanjaro climbing routes"}},"498670436":{"location":[-3.0679764,37.3271241],"ct":"TZ","tp":"CS","ts":"2023-11-08T10:43:53Z","tX":618,"tY":520,"tags":{"ele":"4623","is_in":"Kilimanjaro National Park","is_in:country":"Tanzania","name":"Lawa Tower Camp","name:cs":"tábor Lávová věž","name:de":"Lava-Turm-Lager","name:sk":"tábor Lávová veža","place":"locality","sorting_name:cs":"Lávová věž","sorting_name:sk":"Lávová veža","wheelchair":"no","wikidata":"Q4126733","wikipedia":"en:Mount Kilimanjaro climbing routes"}},"498670438":{"location":[-3.0729897,37.3519378],"ct":"TZ","tp":"CS","ts":"2023-11-08T10:43:53Z","tX":618,"tY":520,"tags":{"ele":"5729;5750","is_in":"Kilimanjaro National Park","is_in:country":"Tanzania","name":"Crater Camp","name:cs":"Kráterový tábor","name:de":"Krater-Lager","name:sk":"Kráterový tábor","place":"locality","wheelchair":"no","wikidata":"Q4126733","wikipedia":"en:Mount Kilimanjaro climbing routes"}},"499108849":{"location":[-3.0954701,37.2663754],"ct":"TZ","tp":"CS","ts":"2023-11-08T10:43:53Z","tX":618,"tY":520,"tags":{"ele":"3020","is_in":"Kilimanjaro National Park","is_in:country":"Tanzania","name":"Machame Camp","name:cs":"tábor Machame","name:de":"Machame-Lager","name:sk":"tábor Machame","place":"locality","sorting_name:cs":"Machame","sorting_name:sk":"Machame","wheelchair":"no","wikidata":"Q4126733","wikipedia":"en:Mount Kilimanjaro climbing routes"}},"499121171":{"location":[-3.0545691,37.2757245],"ct":"TZ","tp":"CS","ts":"2023-11-08T10:43:53Z","tX":618,"tY":520,"tags":{"ele":"3850","is_in":"Kilimanjaro National Park","is_in:country":"Tanzania","name":"Shire Huts","name:cs":"boudy Shire","name:de":"Shira-Hütten","name:sk":"búdy Shire","place":"locality","sorting_name:cs":"Shire","sorting_name:sk":"Shire","wheelchair":"no","wikidata":"Q4126733","wikipedia":"en:Mount Kilimanjaro climbing routes"}},"499125590":{"location":[-3.0423903,37.299551],"ct":"TZ","tp":"CS","ts":"2023-11-08T10:43:53Z","tX":618,"tY":520,"tags":{"ele":"4200","is_in":"Kilimanjaro National Park","is_in:country":"Tanzania","name":"Moir Huts","name:cs":"boudy Moir","name:de":"Moir-Hütten","name:sk":"búdy Moir","place":"locality","sorting_name:cs":"Moir","sorting_name:sk":"Moir","wheelchair":"no","wikidata":"Q4126733","wikipedia":"en:Mount Kilimanjaro climbing routes"}},"499682666":{"location":[-3.1127417,37.3549822],"ct":"TZ","tp":"CS","ts":"2023-11-08T10:43:53Z","tX":618,"tY":520,"tags":{"ele":"3961","is_in":"Kilimanjaro National Park","is_in:country":"Tanzania","name":"Karanga Camp","name:cs":"tábor Karanga","name:de":"Karanga-Lager","name:sk":"tábor Karanga","place":"locality","sorting_name:cs":"Karanga","sorting_name:sk":"Karanga","wheelchair":"no","wikidata":"Q4126733","wikipedia":"en:Mount Kilimanjaro climbing routes"}},"499687556":{"location":[-3.0925836,37.3767248],"ct":"TZ","tp":"CS","ts":"2023-11-08T10:43:53Z","tX":618,"tY":520,"tags":{"caravans":"no","drinking_water":"no","is_in":"Kilimanjaro National Park","is_in:country":"Tanzania","name":"Kosovo Camp","name:cs":"tábor Kosovo","name:de":"Kosovo-Lager","name:sk":"tábor Kosovo","note":"no facilities","place":"locality","power_supply":"no","shower":"no","sorting_name:cs":"Kosovo","sorting_name:sk":"Kosovo","tents":"yes","wheelchair":"no","wikidata":"Q4126733","wikipedia":"en:Mount Kilimanjaro climbing routes"}},"499687559":{"location":[-3.0998715,37.378582],"ct":"TZ","tp":"CS","ts":"2023-11-08T10:43:53Z","tX":618,"tY":520,"tags":{"caravans":"no","drinking_water":"no","ele":"4666","is_in":"Kilimanjaro National Park","is_in:country":"Tanzania","name":"Barafu Camp","name:cs":"tábor Barafu","name:de":"Barafu-Lager","name:sk":"tábor Barafu","place":"locality","power_supply":"no","shower":"no","sorting_name:cs":"Barafu","sorting_name:sk":"Barafu","tents":"yes","toilets":"yes","wheelchair":"no","wikidata":"Q4126733","wikipedia":"en:Mount Kilimanjaro climbing routes"}},"499699621":{"location":[-3.1569486,37.3670937],"ct":"TZ","tp":"CS","ts":"2023-11-08T10:43:53Z","tX":618,"tY":520,"tags":{"alt_name":"Lower Mweka Hut","ele":"3063","is_in":"Kilimanjaro National Park","is_in:country":"Tanzania","name":"Mweka Camp","name:cs":"tábor Mweka","name:de":"Mweka-Lager","name:sk":"tábor Mweka","place":"locality","sorting_name:cs":"Mweka","sorting_name:sk":"Mweka","wheelchair":"no","wikidata":"Q4126733","wikipedia":"en:Mount Kilimanjaro climbing routes"}},"499700363":{"location":[-3.1324199,37.3721261],"ct":"TZ","tp":"CS","ts":"2023-11-08T10:43:53Z","tX":618,"tY":520,"tags":{"ele":"3810","is_in":"Kilimanjaro National Park","is_in:country":"Tanzania","name":"Millenium Camp","name:cs":"tábor Millenium","name:de":"Millenium-Lager","name:sk":"tábor Millenium","old_name":"High Camp","old_name:cs":"Vysoký tábor","old_name:de":"Höhes Lager","old_name:sk":"Vysoký tábor","place":"locality","sorting_name:cs":"Millenium","sorting_name:sk":"Millenium","wheelchair":"no","wikidata":"Q4126733","wikipedia":"en:Mount Kilimanjaro climbing routes"}},"499727378":{"location":[-3.1275824,37.3116658],"ct":"TZ","tp":"CS","ts":"2023-11-08T10:43:53Z","tX":618,"tY":520,"tags":{"is_in":"Kilimanjaro","is_in:country":"Tanzania","name":"Umbwe Camp","name:cs":"tábor Umbwe","name:de":"Umbwe-Lager","name:sk":"tábor Umbwe","place":"locality","sorting_name:cs":"Umbwe","sorting_name:sk":"Umbwe","wheelchair":"no","wikidata":"Q4126733","wikipedia":"en:Mount Kilimanjaro climbing routes"}},"652426823":{"location":[-3.0978525,37.4487198],"ct":"TZ","tp":"CS","ts":"2010-02-24T10:20:37Z","tX":618,"tY":520,"tags":{"ele":"4530","name":"Mawenzi Hut"}},"678130644":{"location":[-3.151886,37.5862918],"ct":"TZ","tp":"CS","ts":"2019-03-20T11:28:46Z","tX":618,"tY":520,"tags":{}},"971386026":{"location":[-3.1394678,37.438564],"ct":"TZ","tp":"CS","ts":"2021-08-08T20:45:06Z","tX":618,"tY":520,"tags":{"alt_name":"Horombo;Horombo Hut","name":"Horombo Huts","place":"locality"}},"971426557":{"location":[-3.0815688,37.3892223],"ct":"TZ","tp":"CS","ts":"2024-05-23T16:25:08Z","tX":618,"tY":520,"tags":{"alt_name":"Kibo;Kibo Hut","ele":"4709","is_in":"Kilimanjaro National Park","name":"Kibo Huts","name:cs":"boudy Kibo","name:de":"Kibo-Hütten","name:sk":"búdy Kibo","place":"locality","sorting_name:cs":"Kibo","sorting_name:sk":"Kibo"}},"2125813264":{"location":[-2.9839604,37.4481832],"ct":"TZ","tp":"CS","ts":"2024-10-07T12:04:20Z","tX":618,"tY":520,"tags":{"name":"Simba (First) Camp"}},"2125821921":{"location":[-3.016901,37.4173006],"ct":"TZ","tp":"CS","ts":"2024-06-19T23:10:41Z","tX":618,"tY":520,"tags":{"name":"Second Cave Camp"}},"2125844166":{"location":[-3.1400138,37.4392595],"ct":"TZ","tp":"CS","ts":"2021-08-08T20:45:06Z","tX":618,"tY":520,"tags":{"alt_name":"Horombo;Horombo Hut","ele":"3720","name":"Horombo Huts","name:cs":"boudy Horombo","name:de":"Horombo-Hütten","name:sk":"búdy Horombo","place":"locality","sorting_name:cs":"Horombo","sorting_name:sk":"Horombo"}},"2459196680":{"location":[-3.0684789,37.3864174],"ct":"TZ","tp":"CS","ts":"2018-09-25T12:56:52Z","tX":618,"tY":520,"tags":{"name":"School Hut Camp","name:cs":"tábor Školní bouda","name:de":"Schule-Hütte-Lager","name:sk":"tábor Školská búda","sorting_name:cs":"Školní bouda","sorting_name:sk":"Školská búda"}},"2883946215":{"location":[-2.9432735,37.5076656],"ct":"KE","tp":"CS","ts":"2014-05-27T18:28:07Z","tX":618,"tY":520,"tags":{"name":"Outward Bound"}},"9405140190":{"location":[-3.0727061,37.3359717],"ct":"TZ","tp":"CS","ts":"2022-01-09T16:14:37Z","tX":618,"tY":520,"tags":{"height":"4903","name":"Arrow glacier camp"}},"10088754917":{"location":[-3.0202423,37.3684578],"ct":"TZ","tp":"CS","ts":"2023-11-19T12:40:59Z","tX":618,"tY":520,"tags":{"name":"Pofu"}},"10088755017":{"location":[-3.0444638,37.4109549],"ct":"TZ","tp":"CS","ts":"2024-08-08T22:55:14Z","tX":618,"tY":520,"tags":{"name":"Third cave camp","name:de":"Dritte Höhle Camp"}},"11361747457":{"location":[-3.0543386,37.2761477],"ct":"TZ","tp":"CS","ts":"2023-11-19T13:00:15Z","tX":618,"tY":520,"tags":{"name":"Shira 2 Camp"}}}