{"1188368":{"location":[51.5435474,3.8097901],"ct":"NL","tp":"CS","ts":"2023-04-15T21:12:38Z","tX":522,"tY":340,"tags":{"cabins":"yes","caravans":"yes","email":"info@campingveersemeer.nl","motorhome":"yes","name":"Camping 't Veerse Meer","phone":"+31 113 581 423","shower":"yes","tents":"yes","toilets":"yes","website":"https://www.campingveersemeer.nl/"}},"1214144":{"location":[51.568972,3.614659],"ct":"NL","tp":"CS","ts":"2023-05-30T12:27:06Z","tX":522,"tY":340,"tags":{"cabins":"yes","caravans":"yes","email":"vierendeel@zeelandnet.nl","landcover":"grass","mobile":"+31 6 13881049;+31 6 51311949","name":"‘t Vierendeel","phone":"+31 118 591 376","shower":"yes","tents":"yes","toilets":"yes"}},"13471985":{"location":[51.5868555,3.6036193],"ct":"NL","tp":"CS","ts":"2019-11-16T09:15:14Z","tX":522,"tY":340,"tags":{"name":"De Zandput"}},"15583373":{"location":[51.5582475,3.6293186],"ct":"NL","tp":"CS","ts":"2024-06-22T23:56:39Z","tX":522,"tY":340,"tags":{"capacity":"15","caravans":"yes","email":"familieblankers@hotmail.com","name":"de Geranium","phone":"+31 6 10624114","shower":"yes","tents":"yes","toilets":"yes","website":"https://www.minicampingdegeranium.nl/"}},"15618370":{"location":[51.5651096,3.5814277],"ct":"NL","tp":"CS","ts":"2023-03-19T12:35:39Z","tX":522,"tY":340,"tags":{"cabins":"yes","caravans":"yes","email":"minicampingdevijver@gmail.com","name":"De Vijver","phone":"+31 6 18160927","shower":"yes","tents":"yes","toilets":"yes","website":"https://minicampingdevijver.nl/"}},"15618371":{"location":[51.5722727,3.5640001],"ct":"NL","tp":"CS","ts":"2023-05-30T12:27:08Z","tX":522,"tY":340,"tags":{"caravans":"yes","email":"ejtm@live.nl","name":"Nooitgedacht","phone":"+31 118 582 766","shower":"yes","tents":"yes","toilets":"yes","website":"https://www.minicamping-nooitgedacht.nl/"}},"15619954":{"location":[51.420799,3.8109233],"ct":"NL","tp":"CS","ts":"2023-03-19T20:41:43Z","tX":522,"tY":340,"tags":{"cabins":"yes","capacity":"14","caravans":"yes","email":"info@nummer49.nl","landcover":"grass","name":"Nummer 49","phone":"+31 6 29625688","shower":"yes","tents":"yes","toilets":"yes","website":"https://www.nummer49.nl/minicamping/"}},"15635082":{"location":[51.5388708,3.5684985],"ct":"NL","tp":"CS","ts":"2023-03-23T21:28:19Z","tX":522,"tY":340,"tags":{"caravans":"yes","name":"De Kreekrug","shower":"yes","tents":"yes","toilets":"yes","website":"https://www.campingdekreekrug.nl/minicamping-de-kreekrug/"}},"16219585":{"location":[51.5412956,3.7821252],"ct":"NL","tp":"CS","ts":"2023-08-19T14:51:01Z","tX":522,"tY":340,"tags":{"capacity:pitches":"75","caravans":"yes","email":"info@heerlijkheidwolphaartsdijk.nl","fax":"+31 113 581 111","name":"De Heerlijkheid van Wolphaartsdijk","old_name":"Minicamping Janse","opening_hours":"Mar 15 - Oct 31","phone":"+31 113 581 584","shower":"yes","tents":"yes","toilets":"yes","website":"https://www.heerlijkheidwolphaartsdijk.nl/"}},"17404702":{"location":[51.5527661,3.5271124],"ct":"NL","tp":"CS","ts":"2024-03-29T20:18:13Z","tX":522,"tY":340,"tags":{"landuse":"grass","name":"Boerderijcamping De Oosthoek"}},"26859277":{"location":[51.5781299,3.6980029],"ct":"NL","tp":"CS","ts":"2022-07-10T05:31:35Z","tX":522,"tY":340,"tags":{"contact:website":"https://www.demolenhoek.com","name":"Molenhoek"}},"26859285":{"location":[51.5629432,3.5458107],"ct":"NL","tp":"CS","ts":"2023-05-28T09:37:13Z","tX":522,"tY":340,"tags":{"addr:city":"Oostkapelle","addr:housenumber":"2a","addr:postcode":"4356RJ","addr:street":"Aagtekerkseweg","backcountry":"no","dog":"no","drinking_water":"yes","fee":"yes","internet_access":"wlan","internet_access:fee":"no","name":"Ons Buiten","openfire":"no","phone":"+31 118 581 813","power_supply":"yes","reservation":"recommended","sanitary_dump_station":"yes","shower":"yes","toilets":"yes","website":"https://www.onsbuiten.nl","wheelchair":"limited"}},"26859298":{"location":[51.5901281,3.7205546],"ct":"NL","tp":"CS","ts":"2024-10-28T12:59:52Z","tX":522,"tY":340,"tags":{"contact:phone":"+31 113 374 000","internet_access":"wlan","name":"Roompot","website":"https://www.roompot.be/"}},"33202821":{"location":[51.5836852,3.586198],"ct":"NL","tp":"CS","ts":"2023-08-20T12:33:56Z","tX":522,"tY":340,"tags":{"cabins":"yes","capacity:cabins":"47","capacity:pitches":"300","capacity:static_caravans":"45","caravans":"yes","name":"Oranjezon","phone":"+31 118 591 549","shower":"yes","tents":"yes","toilets":"yes","website":"https://www.oranjezon.nl"}},"33204738":{"location":[51.5814109,3.605906],"ct":"NL","tp":"CS","ts":"2023-05-30T12:26:45Z","tX":522,"tY":340,"tags":{"addr:city":"Vrouwenpolder","addr:housenumber":"4","addr:postcode":"4354KC","addr:street":"Koningin Emmaweg","alt_name":"Natuurcamping Heerlykheit van de Polder","caravans":"yes","email":"info@heerlijkheidvandepolder.nl","name":"Heerlykheit van de Polder","phone":"+31 118 594 757","shower":"yes","tents":"yes","toilets":"yes","website":"https://www.heerlijkheidvandepolder.nl"}},"33205597":{"location":[51.5790075,3.6132827],"ct":"NL","tp":"CS","ts":"2024-04-10T21:30:17Z","tX":522,"tY":340,"tags":{"addr:city":"Vrouwenpolder","addr:housenumber":"2A","addr:postcode":"4354KC","addr:street":"Koningin Emmaweg","caravans":"yes","email":"info@elzenoord.com","name":"Hofstede Elzenoord","phone":"+31 6 20265326","tents":"yes","website":"https://elzenoord.com"}},"47424356":{"location":[51.5962122,3.7622535],"ct":"NL","tp":"CS","ts":"2023-05-30T12:26:46Z","tX":522,"tY":340,"tags":{"cabins":"yes","caravans":"yes","email":"info@minicampingzeelucht.nl","mobile":"+31 6 10382401","name":"Zeelucht","phone":"+31 113 372 480","shower":"yes","tents":"yes","toilets":"yes","website":"https://www.minicampingzeelucht.nl/"}},"61735715":{"location":[51.5556325,3.5510432],"ct":"NL","tp":"CS","ts":"2024-08-25T10:40:50Z","tX":522,"tY":340,"tags":{"caravans":"yes","drinking_water":"yes","name":"De Pekelinge","operator":"Ardoer","power_supply":"yes","sanitary_dump_station":"yes","shower":"yes","tents":"yes","toilets":"yes","website":"https://pekelinge.ardoer.com/"}},"78194785":{"location":[51.4159252,3.755133],"ct":"NL","tp":"CS","ts":"2024-09-10T13:05:37Z","tX":522,"tY":340,"tags":{"capacity:caravans":"50","fee":"yes","landuse":"grass","name":"Minicamping 'de Krukel'","source":"PDOK aerial imagery Beeldmateriaal.nl"}},"78506042":{"location":[51.4430569,3.6290443],"ct":"NL","tp":"CS","ts":"2023-05-30T12:26:47Z","tX":522,"tY":340,"tags":{"addr:city":"Ritthem","addr:housenumber":"2","addr:postcode":"4389TB","addr:street":"Kortenswegje","capacity":"50","caravans":"yes","email":"info@deschoonewaardin.nl","fee":"yes","landcover":"grass","motorhome":"yes","name":"De Schoone Waardin","nudism":"obligatory","old_name":"Zeelandia","phone":"+31 6 23005280","shower":"yes","tents":"yes","toilets":"yes","website":"https://www.deschoonewaardin.nl/"}},"78606751":{"location":[51.534214,3.8043442],"ct":"NL","tp":"CR","ts":"2020-11-07T16:19:54Z","tX":522,"tY":340,"tags":{"fee":"yes","name":"De Haas","source":"3dShapes"}},"78608054":{"location":[51.5562518,3.831224],"ct":"NL","tp":"CS","ts":"2024-09-11T15:34:27Z","tX":522,"tY":340,"tags":{"description":"aan het Veerse meer - Kortgene Zeeland","internet_access":"wlan","internet_access:fee":"no","landuse":"grass","name":"Camping De Zandkreek","website":"https://www.dezandkreek.nl/"}},"78608587":{"location":[51.4769901,3.5939742],"ct":"NL","tp":"CS","ts":"2024-11-09T23:16:09Z","tX":522,"tY":340,"tags":{"cabins":"yes","caravans":"yes","motorhome":"yes","name":"Minicamping d'Abeele","phone":"+31 6 50291149","shower":"yes","tents":"yes","toilets":"yes","website":"https://www.campingabeele.nl"}},"78610062":{"location":[51.4967975,3.5962074],"ct":"NL","tp":"CS","ts":"2023-05-31T06:20:40Z","tX":522,"tY":340,"tags":{"caravans":"yes","contact:email":"info@stadscampingzeeland.nl","contact:phone":"+31 118 856 550","contact:website":"https://stadscampingzeeland.nl","drinking_water":"yes","fee":"yes","internet_access":"wlan","motor_vehicle":"yes","name":"Stadscamping Zeeland","shower":"yes","source":"3dShapes","tents":"yes","toilets":"yes"}},"78632444":{"location":[51.5649357,3.775705],"ct":"NL","tp":"CS","ts":"2024-09-26T15:10:40Z","tX":522,"tY":340,"tags":{"capacity:pitches":"18","caravans":"yes","contact:mobile":"+31 6 23221585","email":"info@willemhoeve.nl","internet_access":"wlan","internet_access:fee":"no","name":"De Willemhoeve","shower":"yes","start_date":"2005","static_caravans":"no","tents":"yes","toilets":"yes","website":"https://www.willemhoeve.nl/"}},"78879869":{"location":[51.4637498,3.5338791],"ct":"NL","tp":"CS","ts":"2023-05-31T06:20:27Z","tX":522,"tY":340,"tags":{"email":"info@duinerve.nl","name":"Minicamping Duinerve","phone":"+31 6 19356840","website":"https://www.duinerve.nl"}},"79030250":{"location":[51.4725116,3.5274793],"ct":"NL","tp":"CS","ts":"2021-10-04T11:42:06Z","tX":522,"tY":340,"tags":{"landuse":"grass"}},"79030873":{"location":[51.4774524,3.5596305],"ct":"NL","tp":"CS","ts":"2023-05-30T12:26:47Z","tX":522,"tY":340,"tags":{"email":"info@sint-anthonijshoek.nl","landuse":"grass","name":"Sint-Anthonijshoek","phone":"+31 118 551 472","website":"https://www.sint-anthonijshoek.nl/"}},"79031281":{"location":[51.5030722,3.5469324],"ct":"NL","tp":"CS","ts":"2023-05-30T12:26:47Z","tX":522,"tY":340,"tags":{"email":"info@krabbeneiland.nl","landuse":"grass","name":"Boerderijcamping Krabbeneiland","phone":"+31 118 551 460","website":"https://www.krabbeneiland.nl/"}},"79031489":{"location":[51.4891393,3.5251751],"ct":"NL","tp":"CS","ts":"2023-06-13T05:58:41Z","tX":522,"tY":340,"tags":{"caravans":"yes","email":"info@minicamping-kole.nl","landuse":"grass","mobile":"+31 6 18129050","name":"Minicamping Kole","phone":"+31 118 551 479","shower":"yes","tents":"yes","toilets":"yes","website":"https://www.minicamping-kole.nl"}},"79031752":{"location":[51.4827071,3.5429198],"ct":"NL","tp":"CS","ts":"2023-05-30T12:26:47Z","tX":522,"tY":340,"tags":{"email":"dekiekendief@zeelandnet.nl","landuse":"grass","name":"Minicamping De Kiekendief","phone":"+31 118 553 399","website":"https://www.dekiekendief.nl/"}},"79033890":{"location":[51.4792418,3.5777152],"ct":"NL","tp":"CS","ts":"2024-06-22T23:54:51Z","tX":522,"tY":340,"tags":{"landuse":"grass","name":"Minicamping Besuijen","phone":"+31 118 551 310","source":"3dShapes","website":"https://www.minicampingbesuijen.nl/"}},"79034480":{"location":[51.5182109,3.5361871],"ct":"NL","tp":"CS","ts":"2021-09-27T03:09:10Z","tX":522,"tY":340,"tags":{"name":"Minicamping Charlottenburg"}},"79035134":{"location":[51.5083401,3.5417698],"ct":"NL","tp":"CS","ts":"2023-05-30T12:26:47Z","tX":522,"tY":340,"tags":{"caravans":"yes","email":"info@minicampingdebuck.nl","landcover":"grass","name":"De Buck","phone":"+31 118 551 396","shower":"yes","tents":"yes","toilets":"yes","website":"https://minicampingdebuck.nl"}},"79035403":{"location":[51.4859747,3.5863463],"ct":"NL","tp":"CR","ts":"2021-02-14T19:17:50Z","tX":522,"tY":340,"tags":{"addr:city":"Middelburg","addr:housenumber":"165","addr:postcode":"4335SN","addr:street":"Koudekerkseweg","fee":"yes","name":"De Vlaschaard","source":"3dShapes","website":"https://www.devlaschaard.nl/nl/"}},"80404668":{"location":[51.5256932,3.6588421],"ct":"NL","tp":"CS","ts":"2020-06-14T11:29:22Z","tX":522,"tY":340,"tags":{"landuse":"grass","source":"3dShapes"}},"80407762":{"location":[51.5647127,3.7124949],"ct":"NL","tp":"CS","ts":"2020-11-16T20:01:21Z","tX":522,"tY":340,"tags":{"landuse":"grass","name":"Bouw- en Plantlust","source":"3dShapes"}},"80408110":{"location":[51.5797315,3.6691326],"ct":"NL","tp":"CS","ts":"2023-03-17T21:14:30Z","tX":522,"tY":340,"tags":{"caravans":"yes","landcover":"grass","name":"Klompe","phone":"+31 113 371 223","shower":"yes","tents":"yes","toilets":"yes"}},"80664915":{"location":[51.5212147,3.5269436],"ct":"NL","tp":"CS","ts":"2021-09-27T02:14:53Z","tX":522,"tY":340,"tags":{"name":"Camping Krijger"}},"80665176":{"location":[51.5588735,3.5221599],"ct":"NL","tp":"CS","ts":"2024-03-17T01:22:48Z","tX":522,"tY":340,"tags":{"caravans":"yes","email":"info@dedankbare.nl","landcover":"grass","mobile":"+31 6 15346975","name":"De Dankbare","phone":"+31 118 581 392","shower":"yes","tents":"yes","toilets":"yes","website":"https://www.dedankbare.nl/"}},"80665231":{"location":[51.5275506,3.5268784],"ct":"NL","tp":"CS","ts":"2020-06-24T18:56:33Z","tX":522,"tY":340,"tags":{"name":"Minicamping De Koehoorn","website":"https://www.dekoehoorn.nl/"}},"80665238":{"location":[51.527794,3.5308718],"ct":"NL","tp":"CS","ts":"2021-09-27T02:12:25Z","tX":522,"tY":340,"tags":{"name":"Minicamping Meidoorn"}},"80665620":{"location":[51.5572851,3.5236843],"ct":"NL","tp":"CS","ts":"2023-03-10T22:48:37Z","tX":522,"tY":340,"tags":{"caravans":"yes","email":"info@campingdevisserhof.nl","landcover":"grass","name":"Mini Camping De Visserhof","phone":"+31 118 581 983","shower":"yes","tents":"yes","toilets":"yes","website":"https://www.campingdevisserhof.nl/"}},"80665840":{"location":[51.5638328,3.5346671],"ct":"NL","tp":"CS","ts":"2023-03-10T22:07:28Z","tX":522,"tY":340,"tags":{"caravans":"yes","email":"info@minicampingpomona.nl","landcover":"grass","name":"Pomona","phone":"+31 118 582 665","shower":"yes","tents":"yes","toilets":"yes","website":"https://www.minicampingpomona.nl/"}},"80665985":{"location":[51.5459388,3.5583684],"ct":"NL","tp":"CS","ts":"2021-09-29T04:26:21Z","tX":522,"tY":340,"tags":{"name":"Minicamping Ko"}},"80666245":{"location":[51.5733721,3.5392305],"ct":"NL","tp":"CS","ts":"2024-04-04T18:50:07Z","tX":522,"tY":340,"tags":{"name":"Camping Duinrand"}},"80666592":{"location":[51.5616488,3.5747374],"ct":"NL","tp":"CS","ts":"2023-06-13T05:58:41Z","tX":522,"tY":340,"tags":{"caravans":"yes","email":"kleinrijnsburg@kpnmail.nl","landcover":"grass","mobile":"+31 6 30776643","name":"Klein Rijnsburg","phone":"+31 118 593 189","shower":"yes","tents":"yes","toilets":"yes","website":"https://kleinrijnsburg.nl/"}},"80667412":{"location":[51.5558444,3.5832464],"ct":"NL","tp":"CS","ts":"2018-04-25T06:58:32Z","tX":522,"tY":340,"tags":{"name":"'t Aardbeitje","source":"Bing"}},"80668000":{"location":[51.5750458,3.5827691],"ct":"NL","tp":"CS","ts":"2023-08-15T10:55:37Z","tX":522,"tY":340,"tags":{"name":"Loverendale Ter Linde","website":"https://www.loverendaleterlinde.nl/"}},"80893861":{"location":[51.5321002,3.6036434],"ct":"NL","tp":"CS","ts":"2023-03-23T21:46:15Z","tX":522,"tY":340,"tags":{"caravans":"yes","email":"minicampingsterrenbos@gmail.com","landcover":"grass","name":"Sterrenbos","phone":"+31 6 23532602","shower":"yes","tents":"yes","toilets":"yes","website":"http://www.minicamping-sterrenbos.nl/"}},"80894279":{"location":[51.5643022,3.6088997],"ct":"NL","tp":"CS","ts":"2023-05-30T12:26:48Z","tX":522,"tY":340,"tags":{"cabins":"yes","caravans":"yes","email":"korenbloem@zeelandnet.nl","landcover":"grass","mobile":"+31 6 23339895","name":"Korenbloem","phone":"+31 118 591 227","shower":"yes","tents":"yes","toilets":"yes","website":"https://www.minicamping-korenbloem.nl/"}},"80894286":{"location":[51.5625837,3.5986428],"ct":"NL","tp":"CS","ts":"2023-05-30T12:26:48Z","tX":522,"tY":340,"tags":{"landuse":"grass","name":"Hooiperk","note":"Bijna niets over te vinden op het Internet. Is deze camping nog open?","phone":"+31 118 591 462"}},"80894289":{"location":[51.5615619,3.5971933],"ct":"NL","tp":"CS","ts":"2023-06-13T05:58:41Z","tX":522,"tY":340,"tags":{"cabins":"yes","caravans":"yes","email":"veldlust@hetnet.nl","landcover":"grass","mobile":"+31 6 21835067","name":"Veldlust","phone":"+31 118 591 415","shower":"yes","tents":"yes","toilets":"yes","website":"https://www.veldlust.nl/de-camping/"}},"80894293":{"location":[51.5661159,3.5903849],"ct":"NL","tp":"CS","ts":"2024-11-17T21:08:07Z","tX":522,"tY":340,"tags":{"addr:city":"Serooskerke","addr:housenumber":"5","addr:postcode":"4353SE","addr:street":"Boshoekweg","cabins":"yes","caravans":"yes","contact:email":"contact@campingdeboshoek.nl","contact:facebook":"https://nl-nl.facebook.com/campingdeboshoek","contact:mobile":"+31 6 23460271","contact:website":"https://www.campingdeboshoek.nl","name":"de Boshoek","tents":"yes"}},"80894299":{"location":[51.560831,3.5883016],"ct":"NL","tp":"CS","ts":"2023-06-13T05:58:42Z","tX":522,"tY":340,"tags":{"cabins":"yes","capacity":"10","caravans":"yes","email":"info@campingdeboshoorn.nl","landcover":"grass","mobile":"+31 6 28178591","name":"De Boshoorn","phone":"+31 118 593 543","shower":"yes","tents":"yes","toilets":"yes"}},"80894302":{"location":[51.5605696,3.5867436],"ct":"NL","tp":"CS","ts":"2023-06-13T05:58:42Z","tX":522,"tY":340,"tags":{"cabins":"yes","caravans":"yes","email":"info@leeuwendamme.nl","landcover":"grass","mobile":"+31 6 10530900","name":"Leeuwendamme","phone":"+31 118 604 424","shower":"yes","tents":"yes","toilets":"yes","website":"https://www.leeuwendamme.nl/"}},"80894304":{"location":[51.5627626,3.586359],"ct":"NL","tp":"CS","ts":"2023-06-13T05:58:42Z","tX":522,"tY":340,"tags":{"cabins":"yes","caravans":"yes","email":"info@landbouwlust.nl","landcover":"grass","mobile":"+31 6 21934030","name":"Landbouwlust","phone":"+31 118 592 417","shower":"yes","tents":"yes","toilets":"yes","website":"https://landbouwlust.nl/"}},"80894310":{"location":[51.5732974,3.5906184],"ct":"NL","tp":"CS","ts":"2023-11-03T16:54:09Z","tX":522,"tY":340,"tags":{"source":"3dShapes"}},"80894837":{"location":[51.5818676,3.5991717],"ct":"NL","tp":"CS","ts":"2023-04-16T17:11:20Z","tX":522,"tY":340,"tags":{"cabins":"yes","contact:website":"https://www.minicamping-rustenpolder.nl","description":"Alleen nog seizoensplekken","email":"info@rustenpolder.nl","landcover":"grass","name":"Mini-Camping Rustenpolder","static_caravans":"only","tents":"no"}},"80894877":{"location":[51.5751944,3.6069292],"ct":"NL","tp":"CS","ts":"2023-05-30T12:26:48Z","tX":522,"tY":340,"tags":{"cabins":"no","capacity":"15","caravans":"yes","email":"boonepolder@gmail.com","landcover":"grass","name":"De Boonepolder","phone":"+31 118 592 973","shower":"yes","tents":"yes","toilets":"yes","website":"https://boonepolder.nl/"}},"80894882":{"location":[51.5724299,3.6082422],"ct":"NL","tp":"CS","ts":"2024-11-25T16:33:50Z","tX":522,"tY":340,"tags":{"cabins":"yes","capacity":"15","caravans":"yes","contact:email":"minicamping.hoeve.het.tij@gmail.com","contact:mobile":"+31 6 51074064","contact:website":"https://www.hoeve-het-tij.nl/","landcover":"grass","name":"Hoeve het Tij","shower":"yes","tents":"yes","toilets":"yes"}},"80895564":{"location":[51.5516141,3.5860003],"ct":"NL","tp":"CS","ts":"2024-03-05T17:05:32Z","tX":522,"tY":340,"tags":{"cabins":"yes","contact:website":"https://www.carpediemjoziasse.nl","email":"acjoziasse@zeelandnet.nl","landcover":"grass","name":"Minicamping Carpe Diem","phone":"+31 118 591 327","shower":"yes","static_caravans":"yes","tents":"yes","toilets":"yes"}},"80895767":{"location":[51.5691976,3.6152863],"ct":"NL","tp":"CS","ts":"2023-05-30T12:26:49Z","tX":522,"tY":340,"tags":{"caravans":"yes","email":"info@campingdegroenestrook.nl","landcover":"grass","name":"De Groene Strook","phone":"+31 118 593 940","shower":"yes","source":"3dShapes","tents":"yes","toilets":"yes","website":"https://www.campingdegroenestrook.nl/"}},"80895794":{"location":[51.5699477,3.6156294],"ct":"NL","tp":"CS","ts":"2023-05-30T12:26:49Z","tX":522,"tY":340,"tags":{"caravans":"yes","contact:website":"https://minicampingdepeppel.nl","email":"info@minicampingdepeppel.nl","name":"De Peppel","phone":"+31 118 592 653","shower":"yes","tents":"yes","toilets":"yes"}},"80896988":{"location":[51.5580889,3.6422472],"ct":"NL","tp":"CS","ts":"2023-05-31T06:20:27Z","tX":522,"tY":340,"tags":{"capacity":"25","caravans":"yes","drinking_water":"yes","internet_access":"wlan","landuse":"grass","name":"De Heksenketel","openfire":"yes","power_supply":"yes","sanitary_dump_station":"customers","source":"3dShapes","static_caravans":"no","tents":"yes","washing_machine":"yes","washing_machine:fee":"yes","website":"https://haflingerhofdeheksenketel.nl"}},"80897709":{"location":[51.5505309,3.6393318],"ct":"NL","tp":"CS","ts":"2024-11-10T13:22:30Z","tX":522,"tY":340,"tags":{"capacity":"25","caravans":"yes","name":"Hoekvliet","shower":"yes","tents":"yes","toilets":"yes","website":"https://www.hoekvliet.nl/"}},"80899171":{"location":[51.5444275,3.6284518],"ct":"NL","tp":"CS","ts":"2023-08-25T21:10:17Z","tX":522,"tY":340,"tags":{"cabins":"yes","caravans":"yes","email":"info@minicampingdorpszicht.nl","landcover":"grass","name":"Dorpszicht","phone":"+31 118 591 539","shower":"yes","toilets":"yes","website":"https://www.minicampingdorpszicht.nl"}},"80899426":{"location":[51.5308604,3.6316422],"ct":"NL","tp":"CS","ts":"2022-09-15T17:51:06Z","tX":522,"tY":340,"tags":{"contact:website":"http://www.harpeweide.nl","landuse":"grass","name":"De Harpe Weide","source":"3dShapes"}},"80899634":{"location":[51.5651383,3.6278044],"ct":"NL","tp":"CS","ts":"2023-05-30T12:26:48Z","tX":522,"tY":340,"tags":{"capacity":"15","caravans":"yes","landuse":"grass","mobile":"+31 6 10833140","name":"Klein Arendsrust","phone":"+31 6 15537321","shower":"yes","tents":"yes","toilets":"yes","website":"https://kleinarendsrust.nl/"}},"80899709":{"location":[51.5558966,3.6490152],"ct":"NL","tp":"CS","ts":"2023-05-30T12:26:49Z","tX":522,"tY":340,"tags":{"capacity":"15","caravans":"yes","email":"campingbentrovato@gmail.com","landcover":"grass","name":"Ben Trovato","phone":"+31 6 13022142","shower":"yes","toilets":"yes","website":"https://www.minicampingbentrovato.eu/"}},"80900068":{"location":[51.5535195,3.6543335],"ct":"NL","tp":"CS","ts":"2024-09-16T06:23:14Z","tX":522,"tY":340,"tags":{"cabins":"yes","caravans":"yes","drinking_water":"yes","email":"Info@veersepot.nl","landcover":"grass","mobile":"+31 6 55858979","name":"Veerse Pot","phone":"+31 6 50853318","power_supply":"yes","sanitary_dump_station":"yes","shower":"yes","tents":"yes","toilets":"yes","website":"https://www.veersepot.nl/camping"}},"80900120":{"location":[51.5387957,3.6526126],"ct":"NL","tp":"CS","ts":"2023-05-30T12:26:49Z","tX":522,"tY":340,"tags":{"capacity":"15","caravans":"yes","email":"info@trouwvoorgoud.nl","landuse":"grass","name":"Trouw voor Goud","phone":"+31 118 501 373","shower":"yes","tents":"yes","toilets":"yes","website":"http://www.trouwvoorgoud.nl/"}},"81043338":{"location":[51.5849609,3.8130755],"ct":"NL","tp":"CS","ts":"2024-10-23T13:10:03Z","tX":522,"tY":340,"tags":{"landuse":"grass","source":"PDOK aerial imagery Beeldmateriaal.nl 25cm latest"}},"81043378":{"location":[51.6009713,3.8203141],"ct":"NL","tp":"CS","ts":"2023-05-30T12:26:49Z","tX":522,"tY":340,"tags":{"caravans":"yes","landcover":"grass","mobile":"+31 6 20166816","name":"Mattemburgh","phone":"+31 113 696 000","shower":"yes","tents":"yes","toilets":"yes","website":"http://www.mattemburgh.nl/"}},"81043705":{"location":[51.5803759,3.8609753],"ct":"NL","tp":"CS","ts":"2023-03-28T10:28:38Z","tX":522,"tY":340,"tags":{"landuse":"grass","name":"Weizicht","source":"3dShapes"}},"93994332":{"location":[51.5958261,3.6879777],"ct":"NL","tp":"CS","ts":"2024-10-21T11:52:15Z","tX":522,"tY":340,"tags":{"landuse":"grass","name":"Camping de kering","source":"3dShapes"}},"93995465":{"location":[51.5908758,3.7704075],"ct":"NL","tp":"CS","ts":"2023-08-03T17:18:06Z","tX":522,"tY":340,"tags":{"landcover":"grass"}},"93996377":{"location":[51.5778445,3.6898435],"ct":"NL","tp":"CS","ts":"2023-03-17T21:33:58Z","tX":522,"tY":340,"tags":{"alt_name":"De Vijf Linden","capacity:pitches":"5","caravans":"yes","landcover":"grass","name":"Five Star Farm","shower":"yes","static_tents":"yes","tents":"yes","toilets":"yes","website":"https://www.fivestarfarm.nl"}},"225144048":{"location":[51.5529037,3.6449062],"ct":"NL","tp":"CS","ts":"2024-06-03T08:23:46Z","tX":522,"tY":340,"tags":{"capacity":"67","caravans":"yes","name":"Natuurkampeerterrein Het Veerse Gat","opening_hours":"24/7","operator":"Staatsbosbeheer","reservation":"recommended","sanitary_dump_station":"customers","tents":"yes","website":"https://www.natuurkampeerterreinen.nl/terreinen/zeeland/het-veerse-gat/","wheelchair":"limited"}},"232155755":{"location":[51.4769034,3.5577593],"ct":"NL","tp":"CS","ts":"2023-08-05T19:48:25Z","tX":522,"tY":340,"tags":{"caravans":"yes","drinking_water":"yes","name":"Mini-Camping Broedershoek","power_supply":"yes","shower":"yes","tents":"yes","toilets":"yes"}},"273335916":{"location":[51.5669198,3.6288109],"ct":"NL","tp":"CS","ts":"2023-05-30T12:26:52Z","tX":522,"tY":340,"tags":{"cabins":"yes","caravans":"yes","email":"bokkesprong@zeelandnet.nl","mobile":"+31 6 42744727","name":"De Bokkesprong","phone":"+31 118 592 800","shower":"yes","tents":"yes","toilets":"yes","website":"https://www.debokkesprong.net/"}},"363501905":{"location":[51.4947935,3.5883399],"ct":"NL","tp":"CS","ts":"2023-05-30T12:26:57Z","tX":522,"tY":340,"tags":{"brand":"SVR","capacity:pitches":"25","caravans":"yes","internet_access":"wlan","internet_access:fee":"no","mobile":"+31 6 15488443","name":"'t Hof Noord Ambacht","opening_hours":"Apr 1- Oct 15","phone":"+31 118 639 765","shower":"yes","tents":"yes","toilets":"yes","website":"https://www.noordambacht.nl/"}},"369737585":{"location":[51.5693968,3.6928565],"ct":"NL","tp":"CS","ts":"2015-09-08T20:30:53Z","tX":522,"tY":340,"tags":{"name":"de Vlasschelf"}},"370038628":{"location":[51.5312668,3.5671173],"ct":"NL","tp":"CS","ts":"2021-01-29T18:51:08Z","tX":522,"tY":340,"tags":{"name":"Recreatieboerderij 't Munnikenhof"}},"371501521":{"location":[51.5961118,3.6925757],"ct":"NL","tp":"CS","ts":"2015-09-19T16:43:24Z","tX":522,"tY":340,"tags":{"name":"Anna Friso"}},"423377662":{"location":[51.5854762,3.6073032],"ct":"NL","tp":"CS","ts":"2016-06-07T09:54:16Z","tX":522,"tY":340,"tags":{"name":"Mini-Camping Schorre"}},"429440936":{"location":[51.4515952,3.5574513],"ct":"NL","tp":"CS","ts":"2023-05-31T06:20:43Z","tX":522,"tY":340,"tags":{"name":"Camping de Nolle","source":"been there myself","website":"https://www.camping-denolle.nl/nl"}},"446717951":{"location":[51.5554051,3.6183099],"ct":"NL","tp":"CS","ts":"2016-12-07T10:26:47Z","tX":522,"tY":340,"tags":{"capacity":"15","description":"Fraai gelegen camping, ruime door hagen gescheiden plaatsen.","name":"Camping Gideonse"}},"453029231":{"location":[51.5050155,3.8449002],"ct":"NL","tp":"CS","ts":"2016-11-13T12:55:46Z","tX":522,"tY":340,"tags":{}},"454762406":{"location":[51.5842852,3.6991392],"ct":"NL","tp":"CS","ts":"2023-05-30T12:26:58Z","tX":522,"tY":340,"tags":{"capacity":"18","caravans":"yes","landcover":"grass","name":"Hoeve Hofwijk","phone":"+31 6 51647614","shower":"yes","tents":"yes","toilets":"yes","website":"https://hoevehofwijk.nl/camping/"}},"455152897":{"location":[51.5679754,3.7585795],"ct":"NL","tp":"CS","ts":"2017-09-02T20:10:30Z","tX":522,"tY":340,"tags":{"landuse":"grass","name":"minicamping Landzicht","source":"Bing"}},"474404351":{"location":[51.4686188,3.5257683],"ct":"NL","tp":"CS","ts":"2023-06-10T19:34:03Z","tX":522,"tY":340,"tags":{"caravans":"yes","drinking_water":"yes","internet_access":"wlan","name":"Camping Dishoek","operator":"Roompot","power_supply":"yes","shower":"yes","tents":"yes","toilets":"yes","wheelchair":"yes"}},"513821642":{"location":[51.5451938,3.5168398],"ct":"NL","tp":"CS","ts":"2024-03-06T19:00:33Z","tX":522,"tY":340,"tags":{"caravans":"yes","email":"info@oosterzicht.nl","mobile":"+31 6 21563797","name":"Oosterzicht","phone":"+31 118 581 460","shower":"yes","tents":"yes","toilets":"yes","website":"https://minicampingoosterzicht.nl/"}},"513827527":{"location":[51.512607,3.698872],"ct":"NL","tp":"CS","ts":"2024-04-23T15:34:50Z","tX":522,"tY":340,"tags":{}},"513828228":{"location":[51.5168046,3.6862095],"ct":"NL","tp":"CS","ts":"2017-08-08T08:17:09Z","tX":522,"tY":340,"tags":{}},"513834555":{"location":[51.4909158,3.5290795],"ct":"NL","tp":"CS","ts":"2021-10-01T14:53:02Z","tX":522,"tY":340,"tags":{"email":"info@minicamping-dephlox.nl","landuse":"grass","name":"Minicamping De Phlox","phone":"+31 118 553 747","website":"https://www.minicamping-dephlox.nl/"}},"513834557":{"location":[51.4921029,3.5316406],"ct":"NL","tp":"CS","ts":"2021-10-06T20:51:45Z","tX":522,"tY":340,"tags":{"email":"mcbiggekerke@zeelandnet.nl","name":"Minicamping Biggekerke","phone":"+31 118 551 563","website":"https://www.minicampingbiggekerke.nl/"}},"513835089":{"location":[51.4898443,3.5237906],"ct":"NL","tp":"CS","ts":"2023-06-13T05:58:42Z","tX":522,"tY":340,"tags":{"caravans":"yes","email":"mdelooff@zeelandnet.nl","landuse":"grass","mobile":"+31 6 29312582","motorhome":"yes","name":"Minicamping Het Berghof","phone":"+31 118 551 479","shower":"yes","tents":"yes","toilets":"yes","website":"https://www.minicamping-berghof.nl/"}},"513835090":{"location":[51.4945515,3.5346532],"ct":"NL","tp":"CS","ts":"2024-06-22T23:54:35Z","tX":522,"tY":340,"tags":{"capacity:pitches":"15","caravans":"yes","mobile":"+31 6 18023467","name":"De Marienushoeve","phone":"+31 118 553 246","shower":"yes","tents":"yes","toilets":"yes","website":"https://www.campingdemarienushoeve.nl/"}},"513836667":{"location":[51.5089519,3.5255406],"ct":"NL","tp":"CS","ts":"2019-11-24T23:51:23Z","tX":522,"tY":340,"tags":{"addr:city":"Biggekerke","addr:housenumber":"2","addr:postcode":"4373SE","addr:street":"Meliskerkseweg","name":"Minicamping Zonnehoek"}},"513836668":{"location":[51.506765,3.5395307],"ct":"NL","tp":"CS","ts":"2023-03-15T23:52:07Z","tX":522,"tY":340,"tags":{"cabins":"yes","caravans":"yes","name":"Krommenhoeke","phone":"+31 118 852 134","shower":"yes","tents":"yes","toilets":"yes","website":"https://www.boerderij-campings.nl/camping/krommenhoeke"}},"513837885":{"location":[51.5002587,3.5383633],"ct":"NL","tp":"CS","ts":"2021-10-17T19:33:04Z","tX":522,"tY":340,"tags":{"email":"info@schaepeweitje.nl","name":"Minicamping 't Schaepeweitje","phone":"+31 6 12926778","website":"https://www.schaepeweitje.nl/"}},"513838688":{"location":[51.5008292,3.5283198],"ct":"NL","tp":"CS","ts":"2023-09-03T08:07:08Z","tX":522,"tY":340,"tags":{"capacity:pitches":"15","caravans":"yes","email":"info@zeeuwshof.nl","name":"Zeeuwshof","opening_hours":"Apr 1 - Sep 30","phone":"+31 118 643 431","shower":"yes","tents":"yes","toilets":"yes","website":"https://zeeuwshof.nl/de-minicamping/"}},"513838690":{"location":[51.503411,3.5374327],"ct":"NL","tp":"CS","ts":"2021-10-17T19:33:04Z","tX":522,"tY":340,"tags":{"email":"info@hofwei.nl","landuse":"grass","name":"Minicamping De Hofwei","phone":"+31 6 50968547","website":"https://www.hofwei.nl"}},"513838692":{"location":[51.5088834,3.5530389],"ct":"NL","tp":"CS","ts":"2023-05-30T12:26:59Z","tX":522,"tY":340,"tags":{"cabins":"yes","caravans":"yes","landcover":"grass","mobile":"+31 6 47546010","name":"Minicamping Hoogelande","phone":"+31 6 13842016","shower":"yes","tents":"yes","toilets":"yes","website":"https://hoogelande.com/"}},"513849003":{"location":[51.4146051,3.8230429],"ct":"NL","tp":"CS","ts":"2017-08-08T09:04:18Z","tX":522,"tY":340,"tags":{}},"513853839":{"location":[51.562296,3.8502643],"ct":"NL","tp":"CS","ts":"2024-09-08T12:22:28Z","tX":522,"tY":340,"tags":{"camp_site":"basic","caravans":"yes","contact:email":"info@minicampingdebontekoe.nl","contact:mobile":"+31 6 57556767","contact:phone":"+31 113 600 110","contact:website":"https://www.minicampingdebontekoe.nl/","internet_access":"wlan","internet_access:fee":"no","name":"De Bonte Koe","shower":"yes","tents":"yes","toilets":"yes"}},"513854418":{"location":[51.4785756,3.5343589],"ct":"NL","tp":"CS","ts":"2023-05-30T12:27:00Z","tX":522,"tY":340,"tags":{"email":"onsweitje@zeelandnet.nl","landuse":"grass","name":"Minicamping Ons Weitje","phone":"+31 118 551 694","website":"https://www.minicamping-onsweitje.nl/nl/"}},"513855364":{"location":[51.4913761,3.5529529],"ct":"NL","tp":"CS","ts":"2021-10-15T22:25:23Z","tX":522,"tY":340,"tags":{}},"513855365":{"location":[51.4910958,3.5586963],"ct":"NL","tp":"CS","ts":"2023-05-30T12:27:00Z","tX":522,"tY":340,"tags":{"caravans":"yes","email":"info@minicampinghethommeltje.nl","name":"'T Hommeltje","phone":"+31 118 551 691","shower":"yes","tents":"yes","toilets":"yes","website":"https://www.minicampinghethommeltje.nl"}},"513855452":{"location":[51.4840015,3.5735162],"ct":"NL","tp":"CS","ts":"2023-05-30T12:27:00Z","tX":522,"tY":340,"tags":{"cabins":"yes","caravans":"yes","mobile":"+31 6 41842862","name":"De Broodkist","phone":"+31 118 551 127","shower":"yes","toilets":"yes","website":"https://www.minicampingdebroodkist.nl/"}},"513855453":{"location":[51.4845317,3.5751256],"ct":"NL","tp":"CS","ts":"2023-05-30T12:27:00Z","tX":522,"tY":340,"tags":{"capacity":"15","caravans":"yes","mobile":"+31 6 54216692","name":"De Lachende Loods","phone":"+31 118 460 389","shower":"yes","tents":"yes","toilets":"yes","website":"https://www.campingdelachendeloods.nl/"}},"513858690":{"location":[51.488608,3.7638665],"ct":"NL","tp":"CS","ts":"2024-09-30T12:14:08Z","tX":522,"tY":340,"tags":{}},"513859137":{"location":[51.4904688,3.7335444],"ct":"NL","tp":"CS","ts":"2021-08-28T09:51:46Z","tX":522,"tY":340,"tags":{"name":"Mini Camping Buitenhof"}},"513859234":{"location":[51.5288381,3.5293461],"ct":"NL","tp":"CS","ts":"2021-09-27T02:12:25Z","tX":522,"tY":340,"tags":{"name":"Minicamping Wisse"}},"513859477":{"location":[51.5169749,3.5349476],"ct":"NL","tp":"CS","ts":"2021-09-27T03:06:20Z","tX":522,"tY":340,"tags":{"name":"Boerderijcamping De Kluijthoek"}},"513860085":{"location":[51.4468217,3.6364632],"ct":"NL","tp":"CS","ts":"2023-05-31T06:20:38Z","tX":522,"tY":340,"tags":{"name":"Karnemelkshoek","website":"https://www.karnemelkshoek.nl"}},"513860377":{"location":[51.5576981,3.5581163],"ct":"NL","tp":"CS","ts":"2022-08-06T13:51:29Z","tX":522,"tY":340,"tags":{"addr:city":"Oostkapelle","addr:housenumber":"2a","addr:postcode":"4356RA","addr:street":"Grijpskerkseweg","name":"Minicamping de Buck","website":"http://www.campingdebuck.nl/"}},"513860741":{"location":[51.5567152,3.6151515],"ct":"NL","tp":"CS","ts":"2017-08-08T09:44:27Z","tX":522,"tY":340,"tags":{}},"513862496":{"location":[51.5349733,3.662256],"ct":"NL","tp":"CS","ts":"2024-07-30T09:29:41Z","tX":522,"tY":340,"tags":{"caravans":"yes","name":"Plantlust","tents":"yes"}},"513862794":{"location":[51.5634719,3.6187762],"ct":"NL","tp":"CS","ts":"2023-03-09T21:44:14Z","tX":522,"tY":340,"tags":{"cabins":"yes","caravans":"yes","name":"De Eendracht","phone":"+31 118 856 269","shower":"yes","tents":"yes","toilets":"yes","website":"https://www.de-eendracht.nl/overnachten-vrouwenpolder/natuurcamping-walcheren/"}},"583913498":{"location":[51.5707242,3.5271621],"ct":"NL","tp":"CS","ts":"2019-08-07T08:14:14Z","tX":522,"tY":340,"tags":{"access":"private","caravans":"yes","name":"Naturisten Boomgaardcamping Hermitage (FKK)","nudism":"designated","phone":"+31 6 53220139","tents":"yes","website":"http://www.campinghermitage.nl"}},"610622899":{"location":[51.5742432,3.6534912],"ct":"NL","tp":"CR","ts":"2023-08-19T18:57:42Z","tX":522,"tY":340,"tags":{"caravans":"no","fee":"yes","internet_access":"yes","internet_access:fee":"no","motorhome":"designated","name":"Camperpark Zeeland","power_supply":"yes","sanitary_dump_station":"yes","tents":"no","website":"https://www.camperparkzeeland.nl/","wheelchair":"yes"}},"682911364":{"location":[51.5114344,3.6874155],"ct":"NL","tp":"CS","ts":"2019-04-10T13:38:13Z","tX":522,"tY":340,"tags":{"name":"Oranjepolder"}},"749302915":{"location":[51.513712,3.5159628],"ct":"NL","tp":"CS","ts":"2021-10-09T07:29:38Z","tX":522,"tY":340,"tags":{"email":"p.houterman@hotmail.com","name":"Minicamping Bijsterveld","phone":"+31 6 27103526","website":"https://www.camping-bijsterveld.nl/"}},"838615283":{"location":[51.4140309,3.8274648],"ct":"NL","tp":"CR","ts":"2020-11-07T16:19:54Z","tX":522,"tY":340,"tags":{"fee":"yes","name":"De Bloesem","website":"https://www.camperparkdebloesem.nl/"}},"847913035":{"location":[51.5441338,3.8131207],"ct":"NL","tp":"CS","ts":"2024-10-23T19:57:25Z","tX":522,"tY":340,"tags":{"access":"yes","name":"Camping 't Veerse Meer","wheelchair":"yes"}},"847920239":{"location":[51.5410826,3.8082208],"ct":"NL","tp":"CR","ts":"2024-08-09T15:14:11Z","tX":522,"tY":340,"tags":{"capacity":"30","contact:email":"info@camperparkveersemeer.nl","contact:facebook":"https://www.facebook.com/CamperparkVeerseMeer","contact:phone":"+31 113 581 423","contact:website":"https://www.camperparkveersemeer.nl/","contact:youtube":"https://m.youtube.com/user/CampingtVeerseMeer","fee":"yes","name":"Camperpark 't Veerse Meer","power_supply":"yes","sanitary_dump_station":"yes","toilets":"yes"}},"987247679":{"location":[51.5250473,3.5286243],"ct":"NL","tp":"CS","ts":"2024-10-10T21:43:56Z","tX":522,"tY":340,"tags":{"name":"Minicamping Mariekerke"}},"987493385":{"location":[51.527069,3.5617061],"ct":"NL","tp":"CS","ts":"2024-11-17T17:55:12Z","tX":522,"tY":340,"tags":{"addr:city":"Grijpskerke","addr:housenumber":"10","addr:postcode":"4364TC","addr:street":"Middelburgseweg","caravans":"yes","fee":"yes","motorhome":"yes","name":"Mini-camping in de bocht","phone":"+31 118 591 485","shower":"yes","source":"BAG","source:date":"2014-03-24","toilets":"yes","website":"https://www.minicampingindebocht.nl/"}},"987856638":{"location":[51.5380784,3.5379007],"ct":"NL","tp":"CS","ts":"2024-11-17T17:05:35Z","tX":522,"tY":340,"tags":{"addr:city":"Grijpskerke","addr:housenumber":"1","addr:postcode":"4364SM","addr:street":"Vrijheidsweg","contact:email":"info@wegeling.nl","contact:phone":"+31 118 853 803","contact:website":"https://www.minicamping-dewegeling.nl","fee":"yes","internet_access":"yes","name":"Minicamping De Wegeling","shower":"yes","toilets":"yes"}},"987856639":{"location":[51.5358562,3.5434972],"ct":"NL","tp":"CS","ts":"2024-11-17T17:16:19Z","tX":522,"tY":340,"tags":{"addr:city":"Grijpskerke","addr:housenumber":"5","addr:postcode":"4364AT","addr:street":"Loodholseweg","cabins":"yes","caravans":"yes","fee":"yes","motorhome":"yes","name":"Minicamping Middenin","shower":"yes","tents":"yes","toilets":"yes","website":"https://www.minicampingmiddenin.nl/"}},"988850591":{"location":[51.4772684,3.5319437],"ct":"NL","tp":"CS","ts":"2021-10-04T11:42:06Z","tX":522,"tY":340,"tags":{"email":"info@vakantieparkduinzicht.nl","landuse":"grass","name":"Vakantiepark Duinzicht","phone":"+31 118 551 397","website":"https://www.vakantieparkduinzicht.nl/"}},"988918741":{"location":[51.4691829,3.5338513],"ct":"NL","tp":"CS","ts":"2021-10-04T11:42:06Z","tX":522,"tY":340,"tags":{"name":"'t Zwaantje"}},"988918747":{"location":[51.4650762,3.5336253],"ct":"NL","tp":"CS","ts":"2023-05-30T12:27:02Z","tX":522,"tY":340,"tags":{"capacity":"25","email":"info@vakantieboerderij-jobse.nl","internet_access":"wlan","landuse":"grass","name":"Vakantieboerderij Jobse","phone":"+31 118 551 356","website":"http://www.vakantieboerderij-jobse.nl/"}},"989358623":{"location":[51.4716042,3.5364445],"ct":"NL","tp":"CS","ts":"2023-05-30T12:27:02Z","tX":522,"tY":340,"tags":{"email":"minicampingwesterwijk@gmail.com","name":"Minicamping Westerwijk","phone":"+31 6 10209185","website":"https://minicampingwesterwijk.nl/"}},"989358627":{"location":[51.4750911,3.5407754],"ct":"NL","tp":"CS","ts":"2023-05-30T12:27:02Z","tX":522,"tY":340,"tags":{"email":"info@zuiderhoeve.nl","name":"Boerderijcamping Zuiderhoeve","phone":"+31 118 551 354","website":"https://www.zuiderhoeve.nl/"}},"989358630":{"location":[51.4756353,3.5430247],"ct":"NL","tp":"CS","ts":"2021-10-04T11:42:06Z","tX":522,"tY":340,"tags":{"email":"info@minicampingdevlegel.nl","name":"Minicamping De Vlegel","phone":"+31 118 551 445","website":"https://minicampingdevlegel.nl/"}},"989814635":{"location":[51.4733224,3.5301539],"ct":"NL","tp":"CS","ts":"2023-05-30T12:27:02Z","tX":522,"tY":340,"tags":{"email":"info@minicamping-wielemaker.nl","name":"Minicamping Wielemaker","phone":"+31 6 51724061","website":"https://www.minicamping-wielemaker.nl/"}},"991480895":{"location":[51.4687326,3.5530685],"ct":"NL","tp":"CS","ts":"2023-05-30T12:27:02Z","tX":522,"tY":340,"tags":{"email":"infolangepacht@gmail.com","name":"Camping De Lange Pacht","phone":"+31 118 460 447","website":"http://www.langepacht.nl/"}},"991532525":{"location":[51.4792222,3.5747424],"ct":"NL","tp":"CS","ts":"2023-05-30T12:27:02Z","tX":522,"tY":340,"tags":{"landuse":"grass","name":"Minicamping Brasser","phone":"+31 118 551 440","website":"https://www.minicampingbrasser.nl/"}},"993163234":{"location":[51.494495,3.5813049],"ct":"NL","tp":"CS","ts":"2023-05-30T12:27:02Z","tX":522,"tY":340,"tags":{"caravans":"yes","email":"camping@pitteperk.nl","name":"Pitteperk","phone":"+31 6 12360422","shower":"yes","tents":"yes","toilets":"yes","website":"https://www.pitteperk.nl/"}},"1089409577":{"location":[51.5732974,3.5906184],"ct":"NL","tp":"CS","ts":"2024-06-22T23:54:29Z","tX":522,"tY":340,"tags":{"name":"Lepelhoeve","website":"https://www.delepelhoeve.nl/"}},"1152844198":{"location":[51.5563336,3.8084638],"ct":"NL","tp":"CS","ts":"2023-03-09T09:01:20Z","tX":522,"tY":340,"tags":{"cabins":"yes","capacity":"15","caravans":"grass","name":"Annahoeve","phone":"+31 113 270 706","shower":"yes","tents":"yes","toilets":"yes","website":"https://www.annahoeve.eu/"}},"1153059717":{"location":[51.5662061,3.629848],"ct":"NL","tp":"CS","ts":"2023-03-09T21:44:14Z","tX":522,"tY":340,"tags":{"cabins":"yes","caravans":"yes","email":"bokkesprong@zeelandnet.nl","name":"van Sparrentak","phone":"+31 118 592 615","shower":"yes","tents":"yes","toilets":"yes","website":"https://www.minicampingsparrentak.nl/"}},"1153072697":{"location":[51.5368704,3.6551484],"ct":"NL","tp":"CS","ts":"2023-05-30T12:27:05Z","tX":522,"tY":340,"tags":{"caravans":"yes","landcover":"grass","name":"Zanddijk Buiten","phone":"+31 6 33004355","shower":"yes","tents":"yes","toilets":"yes","website":"https://www.campingzanddijkbuiten.nl/"}},"1153072698":{"location":[51.5478071,3.6293467],"ct":"NL","tp":"CS","ts":"2023-03-23T22:04:59Z","tX":522,"tY":340,"tags":{"caravans":"yes","name":"Bij de Molen","phone":"+31 118 593 339","shower":"yes","tents":"yes","toilets":"yes","website":"https://www.minicampingbijdemolen.nl/de-camping/"}},"1153363208":{"location":[51.5647989,3.536709],"ct":"NL","tp":"CS","ts":"2024-03-24T00:15:59Z","tX":522,"tY":340,"tags":{"caravans":"yes","email":"info.mcvictoria@zeelandnet.nl","name":"Victoria","phone":"+31 118 582 634","shower":"yes","tents":"yes","toilets":"yes","website":"https://www.mini-campingvictoria.nl/"}},"1153364200":{"location":[51.5598623,3.5323252],"ct":"NL","tp":"CS","ts":"2024-03-17T15:55:57Z","tX":522,"tY":340,"tags":{"caravans":"yes","email":"info@obashofje.nl","name":"Oba's Hofje","phone":"+31 118 583 726","shower":"yes","tents":"yes","toilets":"yes","website":"https://www.obashofje.nl"}},"1153366140":{"location":[51.5537207,3.5624347],"ct":"NL","tp":"CS","ts":"2023-05-30T12:27:05Z","tX":522,"tY":340,"tags":{"caravans":"yes","name":"de Kievit","phone":"+31 6 23437473","shower":"yes","tents":"yes","toilets":"yes","website":"https://www.kievit-ok.nl/"}},"1153372395":{"location":[51.5684932,3.526321],"ct":"NL","tp":"CS","ts":"2024-03-25T18:37:24Z","tX":522,"tY":340,"tags":{"cabins":"yes","caravans":"yes","email":"info@minicampingshalom.nl","landcover":"grass","name":"Shalom","phone":"+31 118 583 259","shower":"yes","tents":"yes","toilets":"yes","website":"https://www.minicampingshalom.nl/"}},"1153463130":{"location":[51.5202023,3.5991302],"ct":"NL","tp":"CS","ts":"2023-05-30T12:27:05Z","tX":522,"tY":340,"tags":{"cabins":"yes","caravans":"yes","landcover":"grass","mobile":"+31 6 21541833","name":"Klein-Leliendale","phone":"+31 118 612 405","shower":"yes","tents":"yes","toilets":"yes","website":"http://klein-leliendale.com/?page_id=12"}},"1153463132":{"location":[51.4868306,3.557508],"ct":"NL","tp":"CS","ts":"2024-08-12T09:55:29Z","tX":522,"tY":340,"tags":{"cabins":"yes","caravans":"yes","contact:mobile":"+31 6 30096626;+31 6 46246257","contact:website":"https://www.braamhofje.nl/","landcover":"grass","name":"de Braamhof","shower":"yes","tents":"yes","toilets":"yes"}},"1153463134":{"location":[51.4909203,3.566447],"ct":"NL","tp":"CS","ts":"2023-05-30T12:27:05Z","tX":522,"tY":340,"tags":{"caravans":"yes","email":"mingfremda@gmail.com","landcover":"grass","name":"Hoeve Zorglust","phone":"+31 6 15270889","shower":"yes","tents":"yes","toilets":"yes"}},"1155116469":{"location":[51.5709452,3.6780396],"ct":"NL","tp":"CS","ts":"2023-05-30T12:27:05Z","tX":522,"tY":340,"tags":{"capacity":"25","caravans":"yes","email":"camping@catharinamariahof.nl","mobile":"+31 6 14969852","name":"Catharina Maria Hof","phone":"+31 6 13547778","shower":"yes","tents":"yes","toilets":"yes"}},"1155116473":{"location":[51.5895801,3.6694773],"ct":"NL","tp":"CS","ts":"2023-05-30T12:27:05Z","tX":522,"tY":340,"tags":{"cabins":"yes","caravans":"yes","email":"info@vredenhoef.nl","mobile":"+31 6 19872396","name":"Vredenhoef","phone":"+31 113 404 108","shower":"yes","tents":"yes","toilets":"yes","website":"https://vredenhoef.nl/kamperen/"}},"1155116474":{"location":[51.6033245,3.8319303],"ct":"NL","tp":"CS","ts":"2023-09-11T08:52:58Z","tX":522,"tY":340,"tags":{"cabins":"yes","caravans":"yes","name":"Orisant","phone":"+31 113 695 449","shower":"yes","static_caravans":"yes","tents":"yes","toilets":"yes","website":"https://www.orisant.nl"}},"1155413786":{"location":[51.5726437,3.6115379],"ct":"NL","tp":"CS","ts":"2023-03-19T12:35:39Z","tX":522,"tY":340,"tags":{"cabins":"yes","caravans":"yes","email":"info@campinghofstedemolenzicht.nl","mobile":"+31 6 13960530","name":"Hofstede Molenzicht","phone":"+31 118 591 248","shower":"yes","tents":"yes","toilets":"yes","website":"https://www.campinghofstedemolenzicht.nl"}},"1156816082":{"location":[51.5332561,3.5992317],"ct":"NL","tp":"CS","ts":"2023-06-13T05:58:43Z","tX":522,"tY":340,"tags":{"caravans":"yes","email":"info@minicampingklaverblad.nl","mobile":"+31 6 10507222","name":"Klaverblad","phone":"+31 118 613 438","shower":"yes","tents":"yes","toilets":"yes","website":"https://www.minicampingklaverblad.nl/"}},"1156818647":{"location":[51.5461909,3.6391218],"ct":"NL","tp":"CS","ts":"2023-05-30T12:27:06Z","tX":522,"tY":340,"tags":{"landcover":"grass","name":"Wel = Gelegen","note":"Niet duidelijk of deze camping nog actief is, zoniet dan disused:tourism=camping","phone":"+31 118 501 312"}},"1168180171":{"location":[51.4132412,3.8260602],"ct":"NL","tp":"CS","ts":"2024-10-10T18:24:28Z","tX":522,"tY":340,"tags":{"static_caravans":"yes"}},"1198239927":{"location":[51.5795055,3.5840065],"ct":"NL","tp":"CS","ts":"2023-08-15T09:36:58Z","tX":522,"tY":340,"tags":{"addr:city":"Vrouwenpolder","addr:housenumber":"5","addr:postcode":"4354KG","addr:street":"Lijdijkweg","email":"kleinzeeduin@hotmail.com","name":"Minicamping Klein Zeeduin","website":"https://www.kleinzeeduin.nl"}},"1198253492":{"location":[51.5830189,3.5823163],"ct":"NL","tp":"CS","ts":"2023-08-20T12:33:56Z","tX":522,"tY":340,"tags":{"cabins":"yes","caravans":"yes","email":"info@uitspanningoranjezon.nl","name":"Uitspanning Oranjezon","phone":"+31 118 594 735","shower":"yes","tents":"yes","toilets":"yes","website":"https://www.uitspanningoranjezon.nl/"}},"1263363693":{"location":[51.5585425,3.5203494],"ct":"NL","tp":"CS","ts":"2024-03-17T01:22:48Z","tX":522,"tY":340,"tags":{"caravans":"yes","name":"Camping Westerhoeve","shower":"yes","tents":"yes","toilets":"yes","website":"https://www.westerhoeve4.nl"}},"1313026885":{"location":[51.589552,3.7162574],"ct":"NL","tp":"CR","ts":"2024-09-03T13:03:08Z","tX":522,"tY":340,"tags":{"access":"customers","fee":"yes","power_supply":"yes","sanitary_dump_station":"yes"}},"1330116960":{"location":[51.5499402,3.8055353],"ct":"NL","tp":"CS","ts":"2024-11-02T08:12:34Z","tX":522,"tY":340,"tags":{"caravans":"yes","contact:website":"https://www.villaparkdepaardekreek.nl","drinking_water":"yes","motorhome":"yes","name":"Paardekreek","operator":"Ardoer","phone":"+31 113 302 051","power_supply":"yes","sanitary_dump_station":"yes","shower":"yes","tents":"yes","toilets":"yes","wheelchair":"yes"}},"1330145141":{"location":[51.5564136,3.5167198],"ct":"NL","tp":"CS","ts":"2024-11-02T11:25:04Z","tX":522,"tY":340,"tags":{"drinking_water":"yes","internet_access":"wlan","name":"Westhove","operator":"Ardoer","phone":"+31 118 581 809","shower":"yes","toilets":"yes","website":"https://westhove.ardoer.com/nl/"}},"1334359110":{"location":[51.5630451,3.564938],"ct":"NL","tp":"CS","ts":"2024-11-15T21:48:07Z","tX":522,"tY":340,"tags":{"addr:city":"Oostkapelle","addr:housenumber":"8","addr:postcode":"4356RC","addr:street":"Wijkhuijsweg","email":"info@heulzicht.nl","name":"Camping Heulzicht","operator":"Hannie & André Dees","phone":"+31 118 592 550","website":"https://www.heulzicht.nl/"}},"1334360710":{"location":[51.5769937,3.5525621],"ct":"NL","tp":"CS","ts":"2024-11-15T21:58:23Z","tX":522,"tY":340,"tags":{"fax":"+31 118 582 003","name":"Minicamping Duno","phone":"+31 118 582 003","website":"https://www.camping-duno.nl/index.php?page=contact&lang=DE","wheelchair":"yes"}},"1334482591":{"location":[51.5585566,3.605255],"ct":"NL","tp":"CS","ts":"2024-11-16T10:30:54Z","tX":522,"tY":340,"tags":{"addr:city":"Serooskerke","addr:housenumber":"65","addr:postcode":"4353KA","addr:street":"Vrouwenpolderseweg","caravans":"yes","email":"maasgapinge@hetnet.nl","fee":"yes","name":"De Goudsbloem","phone":"+31 118 853827","shower":"yes","toilets":"yes","website":"https://www.minicamping-degoudsbloem.nl"}},"1334486484":{"location":[51.5574935,3.6051565],"ct":"NL","tp":"CS","ts":"2024-12-12T20:03:26Z","tX":522,"tY":340,"tags":{"addr:city":"Serooskerke","addr:housenumber":"63","addr:postcode":"4353KA","addr:street":"Vrouwenpolderseweg","cabins":"yes","fee":"yes","hot_water":"yes","internet_access":"wlan","name":"Molenperk","operator":"Peter en Carolien van de Kreeke","phone":"+31 6 30792792","shower":"yes","washing_machine":"yes","waste_disposal":"yes","website":"https://www.molenperk.nl/"}},"1334814306":{"location":[51.5606768,3.5430667],"ct":"NL","tp":"CS","ts":"2024-11-17T16:11:23Z","tX":522,"tY":340,"tags":{"caravans":"yes","fee":"yes","name":"Minicamping Lugtenburg","phone":"+31 118 583 624","shower":"yes","toilets":"yes","website":"https://www.minicampinglugtenburg.nl/"}},"1334823002":{"location":[51.563361,3.5463423],"ct":"NL","tp":"CS","ts":"2024-11-17T16:45:00Z","tX":522,"tY":340,"tags":{"addr:city":"Oostkapelle","addr:housenumber":"2a","addr:postcode":"4356RJ","addr:street":"Aagtekerkseweg","backcountry":"no","cabins":"yes","caravans":"yes","dog":"no","drinking_water":"yes","fee":"yes","internet_access":"wlan","internet_access:fee":"no","motorhome":"yes","name":"Ons Buiten","openfire":"no","phone":"+31 118 581 813","power_supply":"yes","reservation":"recommended","sanitary_dump_station":"yes","shower":"yes","toilets":"yes","website":"https://www.onsbuiten.nl","wheelchair":"limited"}},"2454316474":{"location":[51.5768894,3.5526333],"ct":"NL","tp":"CS","ts":"2022-11-04T13:26:36Z","tX":522,"tY":340,"tags":{"fax":"+31 118 582 003","name":"Minicamping Duno","phone":"+31 118 582 003","website":"https://www.camping-duno.nl/index.php?page=contact&lang=DE","wheelchair":"yes"}},"2825096621":{"location":[51.5375163,3.5392225],"ct":"NL","tp":"CS","ts":"2023-05-28T09:37:09Z","tX":522,"tY":340,"tags":{"addr:city":"Grijpskerke","addr:housenumber":"1","addr:postcode":"4364SM","addr:street":"Vrijheidsweg","contact:email":"info@wegeling.nl","contact:phone":"+31 118 853 803","contact:website":"https://www.minicamping-dewegeling.nl","name":"Minicamping De Wegeling","source":"BAG","source:date":"2014-03-24"}},"2825096639":{"location":[51.5269623,3.5627274],"ct":"NL","tp":"CS","ts":"2021-10-01T14:23:52Z","tX":522,"tY":340,"tags":{"addr:city":"Grijpskerke","addr:housenumber":"10","addr:postcode":"4364TC","addr:street":"Middelburgseweg","name":"Mini-camping in de bocht","phone":"+31 118 591 485","source":"BAG","source:date":"2014-03-24","website":"https://www.minicampingindebocht.nl/"}},"2825101430":{"location":[51.5366115,3.5422723],"ct":"NL","tp":"CS","ts":"2021-09-29T03:14:52Z","tX":522,"tY":340,"tags":{"addr:city":"Grijpskerke","addr:housenumber":"5","addr:postcode":"4364AT","addr:street":"Loodholseweg","name":"Minicamping Middenin","source":"BAG","source:date":"2014-03-24","website":"https://www.minicampingmiddenin.nl/"}},"2825400988":{"location":[51.5659082,3.5910954],"ct":"NL","tp":"CS","ts":"2024-10-02T15:52:16Z","tX":522,"tY":340,"tags":{"addr:city":"Serooskerke","addr:housenumber":"5","addr:postcode":"4353SE","addr:street":"Boshoekweg","contact:email":"contact@campingdeboshoek.nl","contact:facebook":"https://nl-nl.facebook.com/campingdeboshoek","contact:mobile":"+31 6 23460271","contact:website":"https://www.campingdeboshoek.nl","name":"de Boshoek","source":"BAG","source:date":"2014-03-24"}},"2825401198":{"location":[51.5578434,3.6063422],"ct":"NL","tp":"CS","ts":"2022-11-04T13:29:24Z","tX":522,"tY":340,"tags":{"addr:city":"Serooskerke","addr:housenumber":"63","addr:postcode":"4353KA","addr:street":"Vrouwenpolderseweg","internet_access":"wlan","name":"Molenperk","operator":"Peter en Carolien van de Kreeke","phone":"+31 6 30792792","shower":"hot","source":"BAG","source:date":"2014-03-24","washing_machine":"yes","waste_disposal":"yes","website":"https://www.molenperk.nl/"}},"2825401204":{"location":[51.558796,3.6057279],"ct":"NL","tp":"CS","ts":"2022-07-10T05:31:35Z","tX":522,"tY":340,"tags":{"addr:city":"Serooskerke","addr:housenumber":"65","addr:postcode":"4353KA","addr:street":"Vrouwenpolderseweg","contact:website":"https://www.minicamping-degoudsbloem.nl","name":"De Goudsbloem","source":"BAG","source:date":"2014-03-24"}},"2832017780":{"location":[51.5633302,3.56568],"ct":"NL","tp":"CS","ts":"2022-11-04T13:29:31Z","tX":522,"tY":340,"tags":{"addr:city":"Oostkapelle","addr:housenumber":"8","addr:postcode":"4356RC","addr:street":"Wijkhuijsweg","email":"info@heulzicht.nl","name":"Camping Heulzicht","operator":"Hannie & André Dees","phone":"+31 118 592 550","source":"BAG","source:date":"2014-03-24","website":"https://www.heulzicht.nl/"}},"2853643643":{"location":[51.5694464,3.6605619],"ct":"NL","tp":"CS","ts":"2023-06-09T13:56:44Z","tX":522,"tY":340,"tags":{"addr:city":"Kamperland","addr:housenumber":"1","addr:postcode":"4493CX","addr:street":"Schotsmanweg","caravans":"yes","contact:email":"schotsman@rcn.nl","contact:facebook":"https://www.facebook.com/rcnvakantieparken/","contact:instagram":"https://www.instagram.com/rcnvakantieparken/","contact:phone":"+31 85 040 0700","contact:website":"https://www.rcn.nl","contact:youtube":"https://www.youtube.com/user/RCNVakantieparken","drinking_water":"yes","name":"Receptie RCN de Schotsman","office":"camping","source":"BAG","source:date":"2021-08-30","tents":"yes"}},"4041841510":{"location":[51.5607824,3.5432126],"ct":"NL","tp":"CS","ts":"2022-11-04T13:31:35Z","tX":522,"tY":340,"tags":{"addr:city":"Oostkapelle","addr:housenumber":"9","addr:postcode":"4356RH","addr:street":"Aagtekerkseweg","name":"Minicamping Lugtenburg","phone":"+31 118 583 624","source":"BAG","source:date":"2016-03-05","website":"https://www.minicampinglugtenburg.nl/"}},"4111968373":{"location":[51.5440753,3.6086113],"ct":"NL","tp":"CR","ts":"2023-05-28T09:37:03Z","tX":522,"tY":340,"tags":{"addr:city":"Serooskerke","addr:housenumber":"5","addr:postcode":"4353JB","addr:street":"Gapingseweg","caravan_site":"reception","fee":"yes","internet_access":"wlan","name":"Camping Olmenveld","sanitary_dump_station":"yes","source":"BAG","source:date":"2016-04-10","website":"https://www.campingolmenveld.nl","wheelchair":"yes"}},"5231112185":{"location":[51.4771679,3.5946986],"ct":"NL","tp":"CS","ts":"2022-09-03T14:29:31Z","tX":522,"tY":340,"tags":{"addr:city":"Vlissingen","addr:housenumber":"4a","addr:postcode":"4387PA","addr:street":"Abeelseweg","name":"Minicamping d'Abeele","phone":"+31 6 50291149","source":"BAG","source:date":"2017-10-08","website":"https://www.campingabeele.nl"}},"6188018587":{"location":[51.5501735,3.6396842],"ct":"NL","tp":"CS","ts":"2020-06-22T17:07:44Z","tX":522,"tY":340,"tags":{"addr:city":"Gapinge","addr:housenumber":"3","addr:street":"Meiwerfweg","name":"Minicamping Hoekvliet","website":"https://www.hoekvliet.nl/"}},"11130705727":{"location":[51.482266,3.7552216],"ct":"NL","tp":"CS","ts":"2024-09-30T12:14:08Z","tX":522,"tY":340,"tags":{"contact:mobile":"+31 6 54792559","email":"debrakkezeeuw@gmail.com","facebook":"https://www.facebook.com/campingdebrakkezeeuw/","motorcycle":"designated","name":"De Brakke Zeeuw","tents":"yes","toilets":"yes"}},"11915855038":{"location":[51.5012709,3.6298415],"ct":"NL","tp":"CR","ts":"2024-05-18T12:20:35Z","tX":522,"tY":340,"tags":{"capacity":"13"}},"6037477608":{"location":[51.574695,3.6528012],"ct":"NL","tp":"SD","ts":"2018-11-04T19:25:54Z","tX":522,"tY":340,"tags":{}},"7635121311":{"location":[51.5565348,3.5156379],"ct":"NL","tp":"SD","ts":"2024-03-21T19:41:08Z","tX":522,"tY":340,"tags":{}},"9020389520":{"location":[51.4688203,3.5246395],"ct":"NL","tp":"SD","ts":"2021-08-19T15:37:12Z","tX":522,"tY":340,"tags":{"access":"customers","fee":"no","sanitary_dump_station:basin":"yes","sanitary_dump_station:round_drain":"yes"}},"9064696082":{"location":[51.5630525,3.5466257],"ct":"NL","tp":"SD","ts":"2021-09-05T21:05:27Z","tX":522,"tY":340,"tags":{}},"9954799485":{"location":[51.5625182,3.544465],"ct":"NL","tp":"SD","ts":"2022-08-15T12:41:43Z","tX":522,"tY":340,"tags":{"fee":"no","water_point":"yes"}},"12084131094":{"location":[51.5895173,3.7165613],"ct":"NL","tp":"SD","ts":"2024-07-31T00:55:56Z","tX":522,"tY":340,"tags":{}}}