{"89705568":{"location":[51.0471031,3.6804843],"ct":"BE","tp":"CS","ts":"2025-05-02T10:25:31Z","tX":522,"tY":342,"tags":{"alt_name":"Camping Blaarmeersen","contact:email":"gent@urban-gardens.be","contact:phone":"+32 9 396 93 92","name":"Urban Gardens","tents":"yes","website":"https://urban-gardens.be/gent/"}},"126064896":{"location":[51.0396342,3.6837685],"ct":"BE","tp":"CS","ts":"2025-01-25T17:10:18Z","tX":522,"tY":342,"tags":{"addr:city":"Gent","addr:housenumber":"3","addr:postcode":"9000","addr:street":"Sneppenbrugstraat","name":"Camping â€™t Stropke","permanent_camping":"only","website":"http://kampeerverblijfpark-tstropke.be/"}},"178312413":{"location":[51.0043638,3.5726248],"ct":"BE","tp":"CS","ts":"2025-03-28T09:58:07Z","tX":522,"tY":342,"tags":{"addr:city":"Deinze","addr:housenumber":"14","addr:postcode":"9800","addr:street":"Groenevelddreef","backcountry":"no","caravans":"yes","check_date":"2024-06-23","dog":"leashed","drinking_water":"yes","email":"info@campinggroeneveld.de","fee":"yes","group_only":"no","internet_access":"wlan","internet_access:fee":"no","internet_access:ssid":"groenevold free","name":"Camping Groeneveld","nudism":"no","operator":"Inge De Witt","phone":"+32 9 380 10 14","power_supply":"yes","reservation":"yes","sanitary_dump_station":"yes","shower":"yes","source":"survey","static_caravans":"yes","tents":"yes","toilets":"yes","website":"https://www.campinggroeneveld.be/","wheelchair":"yes"}},"363235990":{"location":[51.1785866,3.5491982],"ct":"BE","tp":"CS","ts":"2015-07-30T22:43:35Z","tX":522,"tY":342,"tags":{}},"800666615":{"location":[50.9859053,3.6478545],"ct":"BE","tp":"CS","ts":"2025-04-02T20:22:31Z","tX":522,"tY":342,"tags":{"access":"customers","addr:city":"De Pinte","addr:housenumber":"10","addr:postcode":"9840","addr:street":"Beekstuk","capacity":"50","fee":"yes","group_only":"yes","name":"Hopper Jeugdverblijf Moerkensheide","operator":"Scouts en Gidsen Vlaanderen vzw"}},"1350672012":{"location":[51.0334535,3.5540663],"ct":"BE","tp":"CR","ts":"2025-01-12T14:45:36Z","tX":522,"tY":342,"tags":{"capacity":"2","caravan_site":"motorhome_stopover","caravan_site:type":"sports_centre","drinking_water":"yes","drinking_water:fee":"no","fee":"no","name":"Sporthal Oostbroek Camperplaats","power_supply":"yes","power_supply:fee":"no","sanitary_dump_station":"yes","sanitary_dump_station:fee":"no","surface":"paving_stones","water_point":"yes","water_point:fee":"no"}},"1390737333":{"location":[51.0116244,3.7569081],"ct":"BE","tp":"CS","ts":"2025-05-29T15:30:59Z","tX":522,"tY":342,"tags":{"access":"private","group_only":"yes"}},"5696744897":{"location":[51.1549747,3.558938],"ct":"BE","tp":"CS","ts":"2023-10-29T23:51:01Z","tX":522,"tY":342,"tags":{"camp_site":"basic","capacity":"3","caravans":"no","fee":"no","name":"Bivakzone Het Leen","tents":"yes","website":"https://www.bivakzone.be/meetjesland.html"}},"5696744898":{"location":[51.1696419,3.6708841],"ct":"BE","tp":"CS","ts":"2023-10-29T23:50:52Z","tX":522,"tY":342,"tags":{"backcountry":"yes","camp_site":"basic","capacity":"3","caravans":"no","drinking_water":"no","fee":"no","name":"Bivakzone De Singel","tents":"yes","toilets":"yes","website":"https://www.bivakzone.be/meetjesland.html"}},"9798852673":{"location":[51.0354504,3.5295162],"ct":"BE","tp":"CS","ts":"2022-06-06T14:40:34Z","tX":522,"tY":342,"tags":{"addr:housenumber":"67","addr:postcode":"9850","addr:street":"Graaf van Hoornestraat","alt_name":"Plantenparadijs 't Groen Beleven","capacity:tents":"90","contact:facebook":"https://www.facebook.com/tgroenbeleven/","email":"info@tgroenbeleven.be","fee":"yes","name":"'t Groen Beleven","opening_hours":"May-Sep","permanent_camping":"no","phone":"+32 498 26 36 25","shop":"garden_centre","tents":"yes","website":"https://www.tgroenbeleven.be"}},"9926195094":{"location":[51.084784,3.6011054],"ct":"BE","tp":"CS","ts":"2022-08-02T06:31:13Z","tX":522,"tY":342,"tags":{"capacity:caravans":"6","fee":"yes","name":"De Oude Kale vallei hoeve","website":"https://reisnaardeboer.be/locaties/de-vallei-hoeve/"}},"6556102927":{"location":[51.0334597,3.5541075],"ct":"BE","tp":"CR","ts":"2019-06-18T19:37:39Z","tX":522,"tY":342,"tags":{"capacity":"2","drinking_water":"yes","drinking_water:fee":"no","fee":"no","power_supply":"yes","power_supply:fee":"no","sanitary_dump_station":"yes","sanitary_dump_station:fee":"no"}}}