{"59294730":{"location":[50.3351532,3.7968075],"ct":"FR","tp":"CS","ts":"2020-08-16T20:18:37Z","tX":522,"tY":345,"tags":{"caravans":"yes","name":"Camping La Jonquière","source":"data.gouv.fr:DATAtourisme - 05/2020","stars":"3","tents":"yes","website":"https://www.campinglajonquiere.fr","wheelchair":"no"}},"133092500":{"location":[50.3282094,3.772033],"ct":"FR","tp":"CS","ts":"2024-06-12T14:27:05Z","tX":522,"tY":345,"tags":{"capacity":"59","name":"Camping Municipal de Bellignies","phone":"+33 3 27 63 16 01"}},"173519594":{"location":[50.471723,3.6670491],"ct":"BE","tp":"CS","ts":"2023-08-22T11:31:07Z","tX":522,"tY":345,"tags":{"access":"customers","addr:city":"Harchies","addr:housenumber":"1C","addr:postcode":"7321","addr:street":"Rue du Préau","area":"yes","capacity":"220","caravans":"yes","description":"Label Bienvenue Vélo","email":"morgane.nourry@bernissart.be","fee":"yes","name":"Le Préau","operator":"Administration communale de Bernissart","phone":"+32 475 62 97 21","website":"https://www.bernissart.be/index.php/tourisme/hebergement/camping/2-non-categorise/248-camping-du-preau"}},"226429143":{"location":[50.3312457,3.697973],"ct":"BE","tp":"CR","ts":"2023-08-25T09:47:29Z","tX":522,"tY":345,"tags":{"alt_name":"Camping du Château de Roisin","caravans":"yes","email":"campingderoisin@gmail.com","motorhome":"yes","name":"Camping de Roisin","phone":"+32 476 92 89 83;+32 477 18 92 58","reservation":"required","tents":"yes","toilets":"yes","website":"https://sites.google.com/site/campingderoisin"}},"554511991":{"location":[50.498138,3.5168644],"ct":"BE","tp":"CS","ts":"2018-06-26T18:59:40Z","tX":522,"tY":345,"tags":{"addr:housenumber":"11","addr:street":"Rue Prince d'Epinoy","name":"Château du Biez"}},"837640221":{"location":[50.3163497,3.8388855],"ct":"FR","tp":"CS","ts":"2020-08-16T20:14:15Z","tX":522,"tY":345,"tags":{"name":"Camping Les Nénuphars","source":"data.gouv.fr:DATAtourisme - 05/2020","stars":"3","website":"https://www.campinglesnenuphars.com","wheelchair":"no"}},"838620007":{"location":[50.2908614,3.7468462],"ct":"FR","tp":"CS","ts":"2024-06-12T14:30:29Z","tX":522,"tY":345,"tags":{"capacity":"40","name":"Camping Le Cambrinus","phone":"+33 3 27 66 25 68","source":"data.gouv.fr:DATAtourisme - 05/2020","wheelchair":"no"}},"1105175569":{"location":[50.4925966,3.6778313],"ct":"BE","tp":"CS","ts":"2022-10-19T10:01:50Z","tX":522,"tY":345,"tags":{"addr:city":"Blaton","addr:housenumber":"1","addr:postcode":"7321","addr:street":"Rue des Sapins","capacity:caravans":"41","name":"Camping les Gênets"}},"1312111334":{"location":[50.2999364,3.7957193],"ct":"FR","tp":"CR","ts":"2024-08-29T22:21:29Z","tX":522,"tY":345,"tags":{"capacity":"20","caravan_site":"motorhome_stopover","caravan_site:type":"village","fee":"no","name":"Aire de camping-car de Bavay","opening_hours":"24/7","power_supply":"no","seasonal":"no","surface":"asphalt","water_point":"yes","water_point:fee":"no","website":"https://www.bavay-la-romaine.fr/decouvrir-bouger/tourisme/aire-de-camping-car"}},"10790959659":{"location":[50.3520234,3.6535858],"ct":"FR","tp":"CS","ts":"2023-04-06T20:21:04Z","tX":522,"tY":345,"tags":{"addr:housenumber":"22","addr:postcode":"59990","addr:street":"Rue Philibert Dassonville","name":"Notre Chaumière","phone":"+33 3 27 25 78 71","shower":"yes","tents":"yes","toilets":"yes"}},"11421011005":{"location":[50.4515953,3.8039812],"ct":"BE","tp":"CR","ts":"2023-12-15T20:12:21Z","tX":522,"tY":345,"tags":{"capacity":"8","caravan_site":"motorhome_stopover","caravan_site:type":"motor_way","name":"Aire de Saint-Ghislain Sud","sanitary_dump_station":"yes","water_point":"yes"}}}