{"727319568":{"location":[49.3090778,3.6711663],"ct":"FR","tp":"CS","ts":"2022-09-16T05:52:23Z","tX":522,"tY":350,"tags":{"addr:city":"Fismes","addr:housenumber":"9","addr:postcode":"51170","addr:street":"Allée des Missions","capacity":"33","description:en":"Inexpensive, no additional charge for shower, heated shower building","email":"camping.municipal@fismes.fr","name":"Camping Municipal de Fismes","operator":"Mairie de Fismes","phone":"+33 3 26 48 10 26","shower":"hot","shower:building":"closed;heated","shower:fee":"no"}},"803745286":{"location":[49.2092094,3.5169875],"ct":"FR","tp":"CS","ts":"2024-06-05T11:03:14Z","tX":522,"tY":350,"tags":{"name":"Les Bruyères","operator":"Municipalité","phone":"+33 3 23 82 71 22","stars":"1"}},"1231142861":{"location":[49.2404937,3.8221335],"ct":"FR","tp":"CR","ts":"2024-10-08T17:22:03Z","tX":522,"tY":350,"tags":{"access":"customers","caravan_site":"motorhome_stopover","caravan_site:type":"winery","email":"franck.bergeronneau@orange.fr","fee":"purchace","name":"Le Clos de la Bergeronnette","operator":"Champagne Franck Bergeronneau","phone":"+33 3 26974312","picnic_table":"yes","power_supply":"yes","product":"champagne","reservation":"recommended","sanitary_dump_station":"yes","water_point":"yes","website":"https://www.bergeronneau-franck-champagne.com"}},"11978957643":{"location":[49.3445605,3.537143],"ct":"FR","tp":"CR","ts":"2024-06-13T19:00:44Z","tX":522,"tY":350,"tags":{"caravan_site":"motorhome_stopover","caravan_site:type":"village","caravans":"no","charge":"12 EUR","fee":"yes","name":"Aire de camping-car de Braine","opening_hours":"24/7","power_supply":"yes","power_supply:charge":"3 EUR","power_supply:fee":"yes","sanitary_dump_station":"yes","tents":"no","water_point":"yes","water_point:charge":"3 EUR","water_point:fee":"yes"}},"6815240754":{"location":[49.3132138,3.6799706],"ct":"FR","tp":"SD","ts":"2024-06-14T15:14:30Z","tX":522,"tY":350,"tags":{"capacity":"1","fee":"no","internet_access":"no","power_supply":"yes","power_supply:fee":"yes","water_point":"yes"}},"11917617374":{"location":[49.3803664,3.7289344],"ct":"FR","tp":"SD","ts":"2024-05-21T05:37:15Z","tX":522,"tY":350,"tags":{"access:note":"Bornde de service Maizy","charge":"6 EUR","fee":"yes","motorhome":"designated","network":"CAMPING-CAR PARK","water_point":"yes","website":"https://www.campingcarpark.com/fr_FR/sejour/aire-services-camping-car/hauts-de-france/02-aisne/as-maizy"}}}