{"296157470":{"location":[48.527355,3.6655879],"ct":"FR","tp":"CS","ts":"2023-11-08T12:20:13Z","tX":522,"tY":353,"tags":{"addr:city":"Saint-Hilaire-sous-Romilly","addr:country":"FR","addr:postcode":"10100","addr:street":"Chemin des Brayes","email":"contact@lanouedesrois.com","name":"DOMAINE DE LA NOUE DES ROIS","phone":"+33 3 25 24 41 60","stars":"4","website":"https://www.lanouedesrois.com/"}},"727503772":{"location":[48.5492481,3.6782004],"ct":"FR","tp":"CS","ts":"2021-10-21T14:41:09Z","tX":522,"tY":353,"tags":{"addr:city":"Conflans-sur-Seine","addr:country":"FR","addr:postcode":"51260","addr:street":"Quai Auguste La Tour","caravans":"yes","contact:email":"lavalleedelaseine@orange.fr","email":"lavalleedelaseine@orange.fr","mobile":"+33 6 07 09 32 37","name":"La Vallée de la Seine","phone":"+33 3 26 80 98 28","tents":"yes","website":"www.lavalleedelaseine.fr"}},"803616260":{"location":[48.5213455,3.592004],"ct":"FR","tp":"CS","ts":"2024-06-03T09:52:03Z","tX":522,"tY":353,"tags":{"addr:city":"Pont-sur-Seine","addr:country":"FR","addr:place":"Les Pâtis","addr:postcode":"10400","addr:street":"Faubourg St Nicolas","caravans":"yes","drinking_water":"yes","fee":"yes","mobile":"+33 6 49 80 70 46","name":"Camping des Joyeux Campeurs","phone":"+33 3 10 13 23 81","power_supply":"yes","sanitary_dump_station":"yes","shower":"yes","tents":"yes","toilets":"yes","website":"https://www.aube-champagne.com/fr/aire-naturelle-municipale-de-pont-sur-seine.html"}},"10079802522":{"location":[48.5257536,3.6645489],"ct":"FR","tp":"SD","ts":"2022-10-06T11:22:43Z","tX":522,"tY":353,"tags":{}}}