{"67888765":{"location":[46.5357192,3.7439459],"ct":"FR","tp":"CS","ts":"2024-08-03T20:50:24Z","tX":522,"tY":362,"tags":{"caravans":"yes","drinking_water":"yes","email":"guedeloire@gmail.com","fee":"no","internet_access":"no","name":"Camping Municipal du Gué de Loire","phone":"+33 780 40 58 71","power_supply":"yes","sanitary_dump_station":"no","shower":"yes","tents":"yes","toilets":"yes","website":"https://www.campingguedeloire.com","wheelchair":"yes"}},"130799626":{"location":[46.5071822,3.8040978],"ct":"FR","tp":"CS","ts":"2022-09-16T13:07:17Z","tX":522,"tY":362,"tags":{"caravans":"yes","email":"mairie-de-pierrefitte-sur-loire@pays-allier.com","internet_access":"wlan","internet_access:fee":"yes","name":"Camping municipal du Vernay","phone":"+33 4 70 47 02 49","stars":"3","tents":"35","website":"https://www.pierrefitte03.fr/h%C3%A9bergement/camping-municipal/"}},"160514863":{"location":[46.5139807,3.6826036],"ct":"FR","tp":"CS","ts":"2023-05-01T20:58:21Z","tX":522,"tY":362,"tags":{"addr:city":"Dompierre-sur-Besbre","addr:postcode":"03290","addr:street":"Route de Vichy","email":"camping@mairie-dsb.fr","fee":"yes","name":"Camping municipal \"Les Bords de Besbre\"","opening_hours":"May 15 -Sep 11 08:00-12:00,15:00-20:30","phone":"+33 4 70 34 55 57","source":"cadastre-dgi-fr source : Direction Générale des Impôts - Cadastre. Mise à jour : 2012;website","website":"https://camping.mairie-dsb.fr/"}},"222723746":{"location":[46.3530021,3.7916122],"ct":"FR","tp":"CS","ts":"2018-03-03T08:45:48Z","tX":522,"tY":362,"tags":{"name":"Camping du Donjon"}},"285453961":{"location":[46.3240578,3.7094949],"ct":"FR","tp":"CS","ts":"2020-08-21T21:59:22Z","tX":522,"tY":362,"tags":{"source":"http://www.auvergne-tourisme.info","website":"http://www.auvergne-tourisme.info/aire-de-camping-car/bert/aire-de-services-sur-camping-bert/tourisme-OP015AUV003V500CJU-1.html"}},"595814488":{"location":[46.5226527,3.5874637],"ct":"FR","tp":"CR","ts":"2024-08-02T15:19:13Z","tX":522,"tY":362,"tags":{"capacity":"11","caravan_site":"motorhome_stopover","caravan_site:type":"village","caravans":"no","dog":"yes","fee":"no","maxstay":"6 nights","name":"Thiel-sur-Acolin Rue de la Motte","opening_hours":"24/7","picnic_area":"yes","power_supply":"yes","sanitary_dump_station":"yes","sanitary_dump_station:chemical_toilet":"yes","sanitary_dump_station:grey_water":"yes","seasonal":"no","water_point":"yes","website":"https://www.allier-auvergne-tourisme.com/hotellerie-plein-air/thiel-sur-acolin/aire-d-accueil-et-de-services/4674330"}},"799110051":{"location":[46.324005,3.5938017],"ct":"FR","tp":"CS","ts":"2023-08-11T15:47:49Z","tX":522,"tY":362,"tags":{"fee":"yes","name":"Camping du Moulin Bleu","phone":"+33 4 70 96 84 06","website":"https://www.campingmoulinbleu.fr/"}},"836510920":{"location":[46.3529592,3.5174797],"ct":"FR","tp":"CS","ts":"2023-11-09T19:13:52Z","tX":522,"tY":362,"tags":{"name":"Domaine Sainte-Marie","source":"data.gouv.fr:DATAtourisme - 05/2020","website":"https://campingdomainesaintemarie.eu/"}},"836514151":{"location":[46.3293658,3.5872496],"ct":"FR","tp":"CS","ts":"2020-09-27T16:47:55Z","tX":522,"tY":362,"tags":{"addr:city":"Trézelles","addr:postcode":"03220","addr:street":"Les Places","caravans":"yes","email":"info@la-terrasse.nl","name":"La Terrasse","phone":"+33 4 70 96 84 06","source":"data.gouv.fr:DATAtourisme - 05/2020","tents":"yes","website":"https://www.domaine-laterrasse.nl"}},"1274420414":{"location":[46.5181033,3.684806],"ct":"FR","tp":"CR","ts":"2024-04-20T16:13:23Z","tX":522,"tY":362,"tags":{"access":"yes","addr:city":"dompierre sur besbre","addr:postcode":"03290","addr:street":"chemin des percières","capacity":"16","caravan_site":"motorhome_stopover","caravan_site:type":"village","caravans":"no","description":"Aire de services camping-car à proximité du bourg et à 5 minutes du PAL. Borne aire services : vidange eaux usées, cassette WC, eau potable, branchement électrique.","dog":"yes","fee":"yes","name":"Aire de services communautaire Dompierre sur Besbre","opening_hours":"Mar-Nov","phone":"+33 4 70 45 00 99","power_supply":"yes","sanitary_dump_station":"yes","tents":"no","water_point":"yes","website":"https://www.allier-auvergne-tourisme.com/hotellerie-plein-air/dompierre-sur-besbre/aire-de-services-communautaire/4674281"}},"1274451313":{"location":[46.5352937,3.7443095],"ct":"FR","tp":"CR","ts":"2024-08-03T20:51:22Z","tX":522,"tY":362,"tags":{"capacity":"6","caravan_site":"motorhome_stopover","caravan_site:type":"camp_site;river","fee":"no","internet_access":"no","name":"Diou Aire pour camping-cars","permanent_camping":"no","power_supply":"yes","sanitary_dump_station":"yes","sanitary_dump_station:chemical_toilet":"yes","sanitary_dump_station:grey_water":"yes","seasonal":"no","toilets":"no","wheelchair":"yes"}},"1281939625":{"location":[46.3812183,3.5915348],"ct":"FR","tp":"CR","ts":"2024-08-02T16:40:57Z","tX":522,"tY":362,"tags":{"caravan_site":"motorhome_stopover","caravan_site:type":"river","fee":"no","name":"Entr'Allier Besbre et Loire - JALIGNY SUR BESBRE","network":"AirePark","opening_hours":"24/7","power_supply":"yes","power_supply:capacity":"4","power_supply:charge":"5 EUR/24 hours","power_supply:fee":"yes","power_supply:maxcurrent":"16","reservation":"no","sanitary_dump_station":"yes","seasonal":"no","tents":"no","water_point":"yes","water_point:charge":"2 EUR/100 liter","water_point:fee":"yes","website":"https://www.allier-auvergne-tourisme.com/hotellerie-plein-air/jaligny-sur-besbre/aire-communautaire-d-accueil-et-de-services/4674348"}},"1305271008":{"location":[46.3629343,3.6586733],"ct":"FR","tp":"CR","ts":"2024-08-02T15:14:19Z","tX":522,"tY":362,"tags":{"capacity":"2","caravan_site":"motorhome_stopover","caravan_site:type":"village","caravans":"no","fee":"no","name":"Aire de camping-car Sorbier","opening_hours":"Jan-Nov","picnic_table":"yes","playground":"yes","power_supply":"yes","sanitary_dump_station":"yes","sanitary_dump_station:chemical_toilet":"yes","sanitary_dump_station:grey_water":"yes","toilets":"yes","water_point":"yes","website":"https://www.allier-auvergne-tourisme.com/hotellerie-plein-air/sorbier/aire-d-accueil-et-de-services/4674268"}},"1305296297":{"location":[46.3674111,3.5177453],"ct":"FR","tp":"CR","ts":"2024-08-02T18:23:17Z","tX":522,"tY":362,"tags":{"capacity":"30","caravan_site":"motorhome_stopover","caravan_site:type":"fishing","caravans":"no","charge":"3.50 EUR","dog":"yes","fee":"yes","name":"Aire d'accueil Treteau","sanitary_dump_station":"yes","services:charge":"2 EUR","toilets":"yes","water_point":"yes","water_point:fee":"yes"}},"1935001467":{"location":[46.3813282,3.591611],"ct":"FR","tp":"SD","ts":"2025-02-06T16:00:00Z","tX":522,"tY":362,"tags":{"access":"yes","capacity":"5","description":"Aire de services à proximité de la rivière la Besbre et à 100m des commerces.\nEau 100l = 2€\nElectricité = 5€ les 24h","fee":"no","power_supply":"yes","water_point":"yes"}},"2373741204":{"location":[46.5553708,3.8093805],"ct":"FR","tp":"CS","ts":"2024-04-05T19:26:16Z","tX":522,"tY":362,"tags":{"addr:city":"Gilly sur Loire","addr:housenumber":"550","addr:postcode":"71160","addr:street":"Route de la Montgarnie","name":"Camping La Montgarnie","phone":"+31 6 52727230","website":"https://www.lamontgarnie.com"}},"3759481341":{"location":[46.449438,3.6303336],"ct":"FR","tp":"CS","ts":"2015-09-25T20:46:21Z","tX":522,"tY":362,"tags":{}},"11903236719":{"location":[46.4799009,3.6516169],"ct":"FR","tp":"CR","ts":"2024-08-02T11:14:23Z","tX":522,"tY":362,"tags":{"addr:city":"Saint-Pourçain-sur-Besbre","addr:housenumber":"4","addr:postcode":"03290","addr:street":"Route de Dompierre","bbq":"yes","caravan_site":"motorhome_stopover","caravan_site:type":"park;river","charge":"12 EUR","fee":"yes","name":"Aire de camping car Highland Park","opening_hours":"24/7","phone":"+33 6 44 25 93 21","power_supply:charge":"2.50 EUR/4 hours","sanitary_dump_station:fee":"yes","water_point":"yes","water_point:fee":"yes","website":"https://highlandpark.fr/"}},"12089267076":{"location":[46.4049765,3.7014498],"ct":"FR","tp":"CR","ts":"2024-08-02T16:39:02Z","tX":522,"tY":362,"tags":{"capacity":"6","caravan_site":"motorhome_stopover","caravan_site:type":"viewpoint","caravans":"no","fee":"no","name":"Aire naturelle Le puy Saint-Ambroise","power_supply":"yes","website":"https://www.allier-auvergne-tourisme.com/hotellerie-plein-air/saint-leon/aire-naturelle-le-puy-saint-ambroise/4674043"}},"6438168885":{"location":[46.5224559,3.5872276],"ct":"FR","tp":"SD","ts":"2024-08-02T15:19:13Z","tX":522,"tY":362,"tags":{"sanitary_dump_station:chemical_toilet":"yes","sanitary_dump_station:grey_water":"yes"}},"10945913936":{"location":[46.3674424,3.5175935],"ct":"FR","tp":"SD","ts":"2024-08-02T18:23:17Z","tX":522,"tY":362,"tags":{"access":"yes","addr:city":"treteau","addr:postcode":"03220","addr:street":"rue du rosier","description":"Borne Euro- relais. WC publics. Pêche à la journée, 1/2 journée, nuit. Jeux pour enfants, boulangerie et épicerie à 700m, café à proximité.","fee":"yes","power_supply":"yes","water_point":"yes"}},"12089167874":{"location":[46.362838,3.6587343],"ct":"FR","tp":"SD","ts":"2024-08-02T15:14:19Z","tX":522,"tY":362,"tags":{"access":"yes"}},"12089565321":{"location":[46.3250505,3.7064816],"ct":"FR","tp":"SD","ts":"2024-08-02T22:08:05Z","tX":522,"tY":362,"tags":{"access":"yes","fee":"no","name":"Aire de services camping-car Bert","website":"https://www.bert03.fr/visiter-decouvrir/camping-car/"}},"12563198319":{"location":[46.5352565,3.744449],"ct":"FR","tp":"SD","ts":"2025-02-06T15:25:31Z","tX":522,"tY":362,"tags":{"access":"yes","capacity":"3","description":"Electricité 1h = 2€\nElectricité 24h = 5€\nEau 100l = 2€","fee":"no","power_supply":"yes","water_point":"yes"}},"12563275796":{"location":[46.5137717,3.6829814],"ct":"FR","tp":"SD","ts":"2025-02-06T16:12:37Z","tX":522,"tY":362,"tags":{"access":"yes","addr:city":"Dompierre-sur-Besbre","addr:street":"Parc des sports","description":"Aire de services camping-car à proximité du bourg et à 5 minutes du PAL. Vidange eaux usées, cassette WC, eau potable, branchement électrique.","email":"camping@mairie-dsb.fr","fee":"yes","opening_hours":"May 15-Sep 15 08:30-12:00,15:00-20:30","operator":"Mairie de Dompierre","phone":"+33  4 70 34 55 57","website":"https://camping.mairie-dsb.fr/"}}}