{"126797980":{"location":[46.2428302,3.6395051],"ct":"FR","tp":"CS","ts":"2021-08-18T19:04:40Z","tX":522,"tY":363,"tags":{"name":"Camping de la Route Bleue"}},"291245925":{"location":[46.2163803,3.7359453],"ct":"FR","tp":"CS","ts":"2014-07-03T21:44:43Z","tX":522,"tY":363,"tags":{"name":"Le Coucou"}},"339545505":{"location":[46.292076,3.5282197],"ct":"FR","tp":"CS","ts":"2024-07-01T05:55:13Z","tX":522,"tY":363,"tags":{"cabins":"yes","capacity":"25","caravans":"yes","name":"Camping Les Voisins","phone":"+33 470437399","shower":"yes","tents":"yes","toilets":"yes","website":"https://www.lesvoisins.info/nl/kamperen/"}},"399622880":{"location":[46.1161275,3.6765458],"ct":"FR","tp":"CS","ts":"2016-02-24T11:04:32Z","tX":522,"tY":363,"tags":{"name":"Camping Retro Passion"}},"485159694":{"location":[46.0796101,3.5450403],"ct":"FR","tp":"CS","ts":"2020-02-29T19:39:34Z","tX":522,"tY":363,"tags":{"addr:city":"La Chapelle","addr:postcode":"03300","addr:street":"Les Eaux Blanches","building":"yes","cabin:rental":"yes","charge":"14 €","email":"campingmoto-auvergne@hotmail.com","fee":"yes","internet_access":"wlan","motorcycle:theme":"yes","motorcycle_friendly":"yes","name":"Campingmoto Auvergne","opening_hours":"May-Oct","operator":"Marcel and Ingrid","phone":"+33 470 413641","source":"cadastre-dgi-fr source : Direction Générale des Finances Publiques - Cadastre. Mise à jour : 2017","website":"https://www.campingmoto-auvergne.eu"}},"836516105":{"location":[46.0824127,3.7429865],"ct":"FR","tp":"CS","ts":"2020-08-12T20:03:01Z","tX":522,"tY":363,"tags":{"addr:city":"Châtel-Montagne","addr:postcode":"03250","addr:street":"Domaine La Chabanne","caravans":"yes","name":"Camping Domaine la Chabanne","source":"data.gouv.fr:DATAtourisme - 05/2020","stars":"2","tents":"yes","website":"https://www.lachabanne.nl"}},"836519387":{"location":[46.1594816,3.7356037],"ct":"FR","tp":"CS","ts":"2020-08-12T20:16:25Z","tX":522,"tY":363,"tags":{"name":"Camping municipal de Laboulère","source":"data.gouv.fr:DATAtourisme - 05/2020"}},"969868473":{"location":[46.0733001,3.69956],"ct":"FR","tp":"CS","ts":"2021-08-02T18:19:28Z","tX":522,"tY":363,"tags":{"addr:city":"Saint-Clément","addr:country":"FR","addr:postcode":"03250","addr:street":"Rue du Stade","name":"Camping Les Plans","source":"CRAIG - IGN - Feder Auvergne-Rhône-Alpes 2019"}},"1307208573":{"location":[46.0749197,3.8501534],"ct":"FR","tp":"CR","ts":"2024-08-12T10:05:20Z","tX":522,"tY":363,"tags":{"capacity":"3","caravan_site":"motorhome_stopover","caravan_site:type":"village","caravans":"no","fee":"no","name":"Aire camping-cars Saint-Rirand","picnic_area":"yes","surface":"pebblestone","tents":"no","water_point":"yes","water_point:conditional":"no@(Nov-Mar)","water_point:fee":"no","website":"https://www.roannais-tourisme.com/campings/aire-de-service-et-de-stationnement-camping-cars-3/"}},"1307208935":{"location":[46.169408,3.8574497],"ct":"FR","tp":"CR","ts":"2024-08-12T10:07:27Z","tX":522,"tY":363,"tags":{"capacity":"2","caravan_site":"motorhome_stopover","caravan_site:type":"village","caravans":"no","fee":"no","name":"Aire de camping-cars – Village de Le Crozet","opening_hours":"24/7","power_supply":"yes","power_supply:fee":"yes","sanitary_dump_station":"yes","seasonal":"no","tents":"no","water_point":"yes","water_point:fee":"yes","website":"https://www.lecrozet.com/hebergements/aire-campingcars/"}},"1307209732":{"location":[46.2070909,3.7986248],"ct":"FR","tp":"CR","ts":"2024-08-12T10:10:54Z","tX":522,"tY":363,"tags":{"capacity":"3","caravan_site":"motorhome_stopover","caravan_site:type":"village","caravans":"no","fee":"no","name":"Aire camping-cars Saint-Martin-d'Estréaux","picnic_table":"yes","power_supply":"no","sanitary_dump_station":"no","tents":"no","toilets":"yes","website":"https://www.roannais-tourisme.com/campings/aire-de-service-et-de-stationnement-camping-cars-2/"}},"1320133867":{"location":[46.2502967,3.6354078],"ct":"FR","tp":"CR","ts":"2024-10-02T17:26:10Z","tX":522,"tY":363,"tags":{"capacity":"20","caravan_site":"motorhome_stopover","caravan_site:type":"village;river","caravans":"no","dog":"yes","fee":"no","name":"Aire de camping-car de Lapalisse","opening_hours":"24/7","power_supply":"yes","power_supply:charge":"2 EUR/hour","power_supply:fee":"yes","sanitary_dump_station":"yes","sanitary_dump_station:chemical_toilet":"yes","sanitary_dump_station:grey_water":"Apr-Oct","seasonal":"no","shower":"yes","shower:fee":"yes","toilets":"yes","water_point":"yes","water_point:charge":"2 EUR","water_point:fee":"yes","website":"https://www.allier-auvergne-tourisme.com/hotellerie-plein-air/lapalisse/aire-de-services-camping-cars/4674209"}},"1416036287":{"location":[46.0905852,3.8418213],"ct":"FR","tp":"CS","ts":"2011-08-28T12:56:57Z","tX":522,"tY":363,"tags":{}},"3787384557":{"location":[46.1693277,3.8573758],"ct":"FR","tp":"SD","ts":"2024-05-07T16:30:22Z","tX":522,"tY":363,"tags":{}},"11745350776":{"location":[46.2747507,3.842574],"ct":"FR","tp":"CR","ts":"2024-10-06T00:00:01Z","tX":522,"tY":363,"tags":{"addr:city":"Montaiguët-en-forez","addr:housenumber":"2","addr:place":"Chez Calais","caravan_site":"motorhome_stopover","caravan_site:type":"farm_shop","email":"caro_jeremy@orange.fr","name":"Caroline & Jérémy LEROY","phone":"+33 6 72 66 91 95","power_supply":"no","product":"meat","sanitary_dump_station":"no","website":"https://granvillage.com/producer/4192/particulier"}},"9013404773":{"location":[46.2420577,3.6398096],"ct":"FR","tp":"SD","ts":"2021-08-17T08:25:03Z","tX":522,"tY":363,"tags":{"name":"Camping de la Route Bleue"}},"12105811042":{"location":[46.0748764,3.8501729],"ct":"FR","tp":"SD","ts":"2024-08-12T10:05:20Z","tX":522,"tY":363,"tags":{"access":"yes","fee":"no","sanitary_dump_station:grey_water":"yes","water_point":"yes"}}}