{"210468778":{"location":[44.473405,3.8620387],"ct":"FR","tp":"CS","ts":"2024-08-16T20:38:48Z","tX":522,"tY":370,"tags":{"addr:city":"Altier","addr:postcode":"48800","drinking_water":"yes","fee":"yes","internet_access":"wlan","name":"Camping municipal","operator":"Mairie d’Altier","tents":"yes"}},"232983355":{"location":[44.4044989,3.7473652],"ct":"FR","tp":"CS","ts":"2023-08-21T17:45:48Z","tX":522,"tY":370,"tags":{"addr:city":"Le Pont-de-Montvert","addr:postcode":"48220","addr:street":"Finiels","alt_name":"Aire naturelle de camping La Barette","capacity:pitches":"25","caravans":"yes","drinking_water":"yes","email":"lucile.camping@gmail.com","name":"La Barette camping","phone":"+33 4 66 45 82 16","power_supply":"yes","shower":"yes","tents":"yes","toilets":"yes","website":"https://www.gites-mont-lozere.com/barette/"}},"233433673":{"location":[44.3457278,3.6090329],"ct":"FR","tp":"CS","ts":"2024-08-10T13:30:24Z","tX":522,"tY":370,"tags":{"caravans":"yes","drinking_water":"yes","name":"Camping Chantemerle","power_supply":"yes","sanitary_dump_station":"yes","shower":"yes","tents":"yes","toilets":"yes"}},"239472498":{"location":[44.3729407,3.5293921],"ct":"FR","tp":"CS","ts":"2024-01-27T23:24:13Z","tX":522,"tY":370,"tags":{"addr:city":"Ispagnac","addr:postcode":"48320","caravans":"yes","drinking_water":"yes","name":"Camping municipal du Pré Morjal","power_supply":"yes","shower":"yes","stars":"3","tents":"yes","toilets":"yes"}},"239472862":{"location":[44.3711328,3.5311442],"ct":"FR","tp":"CS","ts":"2020-07-07T17:27:21Z","tX":522,"tY":370,"tags":{"name":"Les Cerisiers","stars":"2","website":"https://camping-cerisiers.com/"}},"273005367":{"location":[44.3448542,3.6051726],"ct":"FR","tp":"CS","ts":"2023-11-02T09:39:37Z","tX":522,"tY":370,"tags":{"internet_access":"wlan","name":"Camping Chon du Tarn","phone":"+33466450914","website":"https://www.camping-chondutarn.com/"}},"332405000":{"location":[44.5081781,3.6610397],"ct":"FR","tp":"CS","ts":"2022-01-04T08:47:57Z","tX":522,"tY":370,"tags":{"contact:website":"https://www.revea-vacances.fr/etablissements/camping-le-tivoli/","name":"Le Tivoli","source":"bing 2015"}},"397104153":{"location":[44.490672,3.7436786],"ct":"FR","tp":"CS","ts":"2024-02-13T19:47:33Z","tX":522,"tY":370,"tags":{"capacity":"36","contact:email":"mairie@montlozeregoulet.fr","contact:phone":"+33 6 85 76 95 63","name":"La Gazelle","website":"https://www.lozere-tourisme.com/camping-municipal-la-gazelle/mont-lozere-et-goulet/hpalar0480000042"}},"397108945":{"location":[44.5830465,3.6332815],"ct":"FR","tp":"CS","ts":"2018-07-28T16:38:28Z","tX":522,"tY":370,"tags":{"addr:city":"Laubert","addr:postcode":"48170","addr:street":"RN 88","name":"Municipal La Pontière","phone":"+33 4 66 47 71 37"}},"411714181":{"location":[44.3692517,3.5226469],"ct":"FR","tp":"CS","ts":"2024-01-27T23:24:13Z","tX":522,"tY":370,"tags":{"addr:city":"Gorges du Tarn Causses","motorhome":"yes"}},"423121249":{"location":[44.3624162,3.7476529],"ct":"FR","tp":"CS","ts":"2024-02-13T13:58:38Z","tX":522,"tY":370,"tags":{"addr:city":"Le Pont-de-Montvert","addr:postcode":"48220","capacity":"94","email":"sudmontlozere.mairiepontdemontvert@laposte.net","name":"Camping municipal de Pont-de-Montvert","opening_hours":"Mar-Jun,Sep-Oct: 08:00-09:00,17:00-19:00;Jul-Aug:08:00-11:00,15:00-19:00","phone":"+33 4 66 45 82 88","website":"https://www.pontdemontvert-sudmontlozere.fr/camping-municipal-du-gilliaou--48-_fr.html"}},"437180119":{"location":[44.3756187,3.5240471],"ct":"FR","tp":"CS","ts":"2022-01-12T08:12:37Z","tX":522,"tY":370,"tags":{"name":"Le Vieux Moulin","stars":"2"}},"506461482":{"location":[44.3691737,3.5401105],"ct":"FR","tp":"CS","ts":"2020-04-13T08:51:49Z","tX":522,"tY":370,"tags":{}},"516682598":{"location":[44.5481183,3.8422322],"ct":"FR","tp":"CS","ts":"2025-02-15T21:52:18Z","tX":522,"tY":370,"tags":{"name":"Camping municipal de Chasseradès","phone":"+33 4 66 46 04 94","website":"https://www.chemin-stevenson.org/hebergement/camping-municipal/"}},"654752122":{"location":[44.3767415,3.5463162],"ct":"FR","tp":"CS","ts":"2018-12-13T16:31:05Z","tX":522,"tY":370,"tags":{"name":"L'Aiguebelle","phone":"+33675146598"}},"977486539":{"location":[44.5571566,3.8356636],"ct":"FR","tp":"CS","ts":"2021-08-29T07:49:01Z","tX":522,"tY":370,"tags":{"capacity":"25","email":"fermedepratclaux48@orange.fr","name":"Ferme de Prat Claux","phone":"+33 4 66 46 06 64","website":"https://www.chemin-stevenson.org/hebergement/camping-et-habitations-legeres-hl-ferme-de-prat-claux/"}},"1160630035":{"location":[44.3572549,3.5209672],"ct":"FR","tp":"CS","ts":"2023-04-08T07:35:56Z","tX":522,"tY":370,"tags":{"caravans":"yes","motorhome":"yes","name":"Le Petit Monde","operator":"Thibaut Forestier","phone":"+33 6 78 76 44 79","shower":"yes","tents":"yes","toilets":"yes","website":"https://campinglepetitmonde.jimdofree.com/"}},"1196819483":{"location":[44.5532497,3.8455917],"ct":"FR","tp":"CS","ts":"2024-02-13T17:16:28Z","tX":522,"tY":370,"tags":{"contact:phone":"+334 66 46 39 24","name":"Le Sous Bois De Jade"}},"1284596304":{"location":[44.5070671,3.5266167],"ct":"FR","tp":"CR","ts":"2024-05-19T17:10:28Z","tX":522,"tY":370,"tags":{"bbq":"no","capacity":"38","caravan_site":"motorhome_stopover","caravan_site:type":"airport","caravans":"no","charge":"13.70 EUR","dog":"leashed","fee":"yes","internet_access":"wlan","maxlength":"none","name":"Aire Camping-Car Park Mende","network":"CAMPING-CAR PARK","opening_hours":"24/7","power_supply":"yes","power_supply:capacity":"23","power_supply:maxcurrent":"6","sanitary_dump_station":"yes","tents":"no","trailer":"yes","water_point":"yes","website":"https://www.campingcarpark.com/fr_FR/sejour/aire-etape-camping-car/occitanie/48-lozere/mende"}},"1329806824":{"location":[44.3707194,3.5370871],"ct":"FR","tp":"SD","ts":"2024-08-18T08:27:36Z","tX":522,"tY":370,"tags":{"maxweight":"3.5"}},"6665454950":{"location":[44.3577383,3.5658221],"ct":"FR","tp":"CS","ts":"2023-04-08T08:29:00Z","tX":522,"tY":370,"tags":{"capacity:pitches":"33","email":"campinglozairenaturelle@gmail.com","name":"Loz’aire Naturelle","phone":"+33 6 75 15 14 85","tents":"yes"}},"6666882591":{"location":[44.3707895,3.5370088],"ct":"FR","tp":"CR","ts":"2024-08-18T08:27:36Z","tX":522,"tY":370,"tags":{"caravan_site":"motorhome_stopover","caravan_site:type":"village","fee":"no","maxweight":"3.5","name":"Aire Municipale Ispagnac","sanitary_dump_station":"yes","toilets":"yes"}}}