{"167176415":{"location":[44.2421233,3.6596044],"ct":"FR","tp":"CS","ts":"2023-07-29T08:01:13Z","tX":522,"tY":371,"tags":{"name":"La Croisette","website":"https://cevennes-gitetape.fr/"}},"179679756":{"location":[44.1121708,3.8598814],"ct":"FR","tp":"CS","ts":"2023-11-08T19:25:54Z","tX":522,"tY":371,"tags":{"name":"Le Petit Baigneur","website":"https://le-petit-baigneur.pagesperso-orange.fr/"}},"179679757":{"location":[44.1117067,3.8561264],"ct":"FR","tp":"CS","ts":"2017-07-13T22:45:27Z","tX":522,"tY":371,"tags":{"addr:street":"Route de st André de valborgne","capacity":"199","name":"Le Mas de la Cam","ref:CD30":"92","stars":"4","website":"http://www.masdelacam.fr"}},"179679765":{"location":[44.1147549,3.8465402],"ct":"FR","tp":"CS","ts":"2016-07-17T19:00:18Z","tX":522,"tY":371,"tags":{"name":"La Vernede","website":"http://www.camping-vert.com"}},"201129955":{"location":[44.2305439,3.8628064],"ct":"FR","tp":"CS","ts":"2020-11-15T10:24:31Z","tX":522,"tY":371,"tags":{"name":"Camping naturiste La Combe de Ferrière","nudism":"yes","source":"camped there","website":"https://www.la-combe.com/"}},"235637606":{"location":[44.3362962,3.5901146],"ct":"FR","tp":"CS","ts":"2022-09-20T18:57:58Z","tX":522,"tY":371,"tags":{"access":"customers","backcountry":"no","bungalows":"yes","caravans":"yes","check_date":"2022-09-20","contact:website":"https://www.camping-florac.com/","dog":"leashed","drinking_water":"yes","fee":"yes","group_only":"no","internet_access":"wlan","internet_access:fee":"no","name":"Camping municipal Le Pont du Tarn","name:fr":"Camping municipal Le Pont du Tarn","openfire":"no","payment:mastercard":"yes","payment:visa":"yes","power_supply":"yes","reservation":"yes","sanitary_dump_station":"yes","shower":"yes","source":"survey","stars":"3","tents":"yes","toilets":"yes","wheelchair":"yes"}},"315292956":{"location":[44.2038939,3.5865187],"ct":"FR","tp":"CS","ts":"2014-12-01T13:14:13Z","tX":522,"tY":371,"tags":{"name":"Camping de la Quillette"}},"397104918":{"location":[44.3178926,3.5992917],"ct":"FR","tp":"CS","ts":"2022-09-16T13:00:59Z","tX":522,"tY":371,"tags":{"backcountry":"no","caravans":"yes","contact:phone":"+33466451219","contact:website":"http://camping.velay.monsite-orange.fr/","internet_access":"wlan","name":"Velay","pets":"fee","tents":"yes"}},"397843724":{"location":[44.3387539,3.5846612],"ct":"FR","tp":"CS","ts":"2020-11-19T18:47:47Z","tX":522,"tY":371,"tags":{"addr:city":"Florac Trois Rivières","addr:housenumber":"5","addr:postcode":"48400","addr:street":"Route de Mende","name":"Camping Le Val des Cévennes","phone":"+33 4 66 31 34 20","website":"https://www.levaldescevennes.com"}},"398930479":{"location":[44.2726208,3.7301375],"ct":"FR","tp":"CS","ts":"2025-06-12T17:37:06Z","tX":522,"tY":371,"tags":{"name":"Espace Stevenson","website":"http://www.relais-stevenson.fr/camping.html"}},"493857701":{"location":[44.1364769,3.7565694],"ct":"FR","tp":"CS","ts":"2017-05-16T08:43:49Z","tX":522,"tY":371,"tags":{"addr:city":"Saint-André-de-Valborgne","addr:postcode":"30940","addr:street":"D907","capacity":"66","email":"direction@camping-pirate.fr","internet_access":"wlan","name":"Camping Pirate","phone":"+33 4 66 83 96 13","website":"http://www.camping-pirate.fr"}},"546144026":{"location":[44.112926,3.7721083],"ct":"FR","tp":"CS","ts":"2024-05-04T16:10:02Z","tX":522,"tY":371,"tags":{"contact:phone":"+33 4 66 60 03 62","contact:website":"http://www.camping-le-verdier.com","name":"Camping Le Verdier","stars":"2"}},"546144027":{"location":[44.1089304,3.7791662],"ct":"FR","tp":"CS","ts":"2024-05-04T16:20:29Z","tX":522,"tY":371,"tags":{"contact:phone":"+33 4 66 83 90 89","contact:website":"http://www.campingchateaudelhom.com","name":"Camping du Château de l'Hom","stars":"2"}},"675829759":{"location":[44.1489588,3.6913281],"ct":"FR","tp":"CS","ts":"2022-01-24T07:17:17Z","tX":522,"tY":371,"tags":{"name":"Camping municipal Saint-André"}},"682197468":{"location":[44.1377538,3.684161],"ct":"FR","tp":"CS","ts":"2019-05-25T20:01:49Z","tX":522,"tY":371,"tags":{"camp_site":"standard","name":"Roubigies"}},"730105456":{"location":[44.127335,3.7616392],"ct":"FR","tp":"CS","ts":"2020-12-02T13:25:55Z","tX":522,"tY":371,"tags":{"addr:city":"Saumane","addr:country":"FR","addr:postcode":"30125","addr:street":"Route des Plantiers","capacity":"51","caravans":"yes","name":"Camping GCU de Saumane","operator":"Groupement des Campeurs Universitaires","phone":"+33 4 66 83 91 74","stars":"2","tents":"yes","website":"https://www.gcu.asso.fr"}},"785536271":{"location":[44.1232399,3.7295634],"ct":"FR","tp":"CS","ts":"2022-09-16T11:57:27Z","tX":522,"tY":371,"tags":{"access":"permissive","addr:city":"Les Plantiers","addr:postcode":"30122","addr:street":"Le Caylou","email":"contact@camping-caylou.fr","name":"Le Caylou","operator":"LEGRAND C.","phone":"+33 6 25 78 76 84","website":"https://www.camping-caylou.fr/"}},"819143837":{"location":[44.308262,3.5989103],"ct":"FR","tp":"CS","ts":"2023-08-12T17:29:10Z","tX":522,"tY":371,"tags":{"caravans":"no","drinking_water":"yes","internet_access":"wlan","name":"La Tière","phone":"+337 88 17 82 88","power_supply":"yes","shower":"yes","survey:date":"2021-07-22","tents":"yes","toilets":"yes","website":"http://www.camping-la-tiere.fr/","wheelchair":"yes"}},"833323126":{"location":[44.1627244,3.8012883],"ct":"FR","tp":"CS","ts":"2023-11-10T19:54:03Z","tX":522,"tY":371,"tags":{"capacity":"34","name":"La Pélucarié","phone":"+33466457557","stars":"2","website":"https://www.campinglapelucarie.fr/"}},"1083714877":{"location":[44.2165281,3.8126087],"ct":"FR","tp":"CS","ts":"2023-08-10T15:11:00Z","tX":522,"tY":371,"tags":{"fee":"yes","name":"La Garde","phone":"+33 6 66 36 53 29","website":"http://cevennes-voyages.com/"}},"1095158252":{"location":[44.3171573,3.5993337],"ct":"FR","tp":"CS","ts":"2024-06-14T07:33:35Z","tX":522,"tY":371,"tags":{"backcountry":"no","caravans":"yes","contact:email":"campingdupontneuf@gmail.com","contact:phone":"+33466452872","contact:website":"http://campingdupontneuf.blogspot.fr/","name":"Camping le Vagabond","pets":"fee","phone":"+33 6 42 23 55 22","tents":"yes","website":"https://www.campinglevagabond.com/"}},"1329913609":{"location":[44.194577,3.6578851],"ct":"FR","tp":"CS","ts":"2020-10-25T09:42:09Z","tX":522,"tY":371,"tags":{"name":"Camping municipal Bel Air","operator":"Mairie Le Pompidou"}},"1865791461":{"location":[44.0893167,3.5471158],"ct":"FR","tp":"CS","ts":"2024-04-09T15:37:57Z","tX":522,"tY":371,"tags":{"caravans":"yes","drinking_water":"yes","name":"Camping de l'Espérou","power_supply":"no","shower":"yes","source":"survey","tents":"yes","toilets":"yes","website":"https://www.tourismegard.com/fr/fiche/hotellerie-plein-air/aire-naturelle-de-camping-de-l-esperou-l-esperou_TFO6016812/"}},"1902355759":{"location":[44.178731,3.7516527],"ct":"FR","tp":"CS","ts":"2018-07-28T15:52:10Z","tX":522,"tY":371,"tags":{"name":"Lou Treillat"}},"2974075045":{"location":[44.2403651,3.5787728],"ct":"FR","tp":"CS","ts":"2017-09-16T01:51:32Z","tX":522,"tY":371,"tags":{"name":"La Molière","phone":"+33466440240"}},"5159592684":{"location":[44.1591177,3.8375132],"ct":"FR","tp":"CS","ts":"2023-11-10T19:54:05Z","tX":522,"tY":371,"tags":{"name":"Village de Gîtes et Camping \"Le Martinet\"","website":"https://village-vacances-cevennes.com/"}},"5856575464":{"location":[44.1609026,3.6098152],"ct":"FR","tp":"CS","ts":"2023-11-10T19:54:06Z","tX":522,"tY":371,"tags":{"contact:phone":"+33 4 30 11 75 89;+33 6 42 13 78 75","name":"Aire naturelle de l’Aigoual","website":"https://www.aire-naturelle-aigoual.fr/"}},"9830580143":{"location":[44.1251259,3.6337625],"ct":"FR","tp":"CS","ts":"2022-06-19T08:59:39Z","tX":522,"tY":371,"tags":{"backcountry":"yes","camp_site":"basic","caravans":"no","motor_vehicle":"no"}},"4844427096":{"location":[44.1061223,3.8272931],"ct":"FR","tp":"SD","ts":"2024-11-12T17:33:15Z","tX":522,"tY":371,"tags":{"access":"yes","panoramax":"dd1a6701-2b53-4e52-a51d-8ad2103c048b","sanitary_dump_station:chemical_toilet":"yes","sanitary_dump_station:grey_water":"no","water_point":"yes"}},"6665625691":{"location":[44.3360967,3.5914706],"ct":"FR","tp":"SD","ts":"2019-07-31T12:46:21Z","tX":522,"tY":371,"tags":{"access":"customers"}}}