{"241967935":{"location":[43.9918279,3.681169],"ct":"FR","tp":"CS","ts":"2024-01-17T13:33:55Z","tX":522,"tY":372,"tags":{"addr:city":"Sumène","addr:postcode":"30440","addr:street":"route de Pont d'Hérault","capacity":"72","name":"Les Gorges de l'Hérault","old_name":"Pont de la Selle","ref:CD30":"104","stars":"3"}},"280255535":{"location":[43.9530898,3.6825643],"ct":"FR","tp":"CS","ts":"2022-11-01T19:53:42Z","tX":522,"tY":372,"tags":{"addr:city":"Saint-Julien-de-la-Nef","addr:postcode":"30440","email":"contact@isisencevennes.com","name":"Isis en Cévennes","phone":"+33 4 67 73 80 28","start_date":"1975","swimming_pool":"yes","website":"https://www.isisencevennes.fr"}},"361741774":{"location":[43.9259189,3.7156377],"ct":"FR","tp":"CS","ts":"2021-06-15T15:09:52Z","tX":522,"tY":372,"tags":{"name":"Le Tivoli","stars":"2"}},"369250438":{"location":[44.0383885,3.8623266],"ct":"FR","tp":"CS","ts":"2019-03-05T01:17:14Z","tX":522,"tY":372,"tags":{"addr:city":"Lasalle","addr:postcode":"30460","addr:street":"Route de Saint Hippolyte du Fort","name":"Camping La Salendrinque","stars":"3","website":"https://www.campinglasalendrinque.fr/"}},"377551452":{"location":[43.9262928,3.7890879],"ct":"FR","tp":"CS","ts":"2024-03-26T12:59:03Z","tX":522,"tY":372,"tags":{"caravans":"yes","check_date":"2024-03-25","drinking_water":"yes","fee":"yes","internet_access":"wlan","internet_access:fee":"customers","internet_access:ssid":"LE GRILLON","name":"Le Grillon","power_supply":"yes","sanitary_dump_station":"yes","shower":"yes","stars":"3","tents":"yes","toilets":"yes","website":"https://camping.montoulieu.fr/","wheelchair":"yes"}},"397105609":{"location":[43.9923194,3.638077],"ct":"FR","tp":"CS","ts":"2023-11-08T19:25:52Z","tX":522,"tY":372,"tags":{"addr:city":"Le Vigan","addr:postcode":"30120","addr:street":"Route du Pont de la Croix","fee":"yes","internet_access":"wlan","name":"Le Val d'Arre","phone":"+33 4 67 81 02 77","stars":"4","website":"https://www.camping-levaldelarre.com/"}},"490377603":{"location":[43.9291211,3.5909283],"ct":"FR","tp":"CR","ts":"2024-08-19T13:45:29Z","tX":522,"tY":372,"tags":{"caravan_site":"motorhome_stopover","caravan_site:type":"village","fee":"no","internet_access":"no","name":"Aire de camping car Montdardier","power_supply":"no","sanitary_dump_station":"no","website":"https://www.tourisme-occitanie.com/fr/fiche/hotellerie-plein-air/aire-de-camping-car-montdardier-montdardier_TFOSITRA2_CAM_6690369/"}},"506713437":{"location":[43.976222,3.8501901],"ct":"FR","tp":"CS","ts":"2023-05-08T06:51:01Z","tX":522,"tY":372,"tags":{"addr:postcode":"30170","addr:street":"Route de Lasalle","capacity":"48","email":"camping-figaret@orange.fr","name":"Le Figaret","phone":"+33 4 66772634","ref:CD30":"89","stars":"1","website":"https://camping-figaret.fr/"}},"507796512":{"location":[43.9937349,3.566715],"ct":"FR","tp":"CR","ts":"2024-10-11T21:41:21Z","tX":522,"tY":372,"tags":{"addr:city":"Bréau-Mars","addr:postcode":"30120","addr:street":"D272 Le Rieumage","capacity":"6","caravan_site":"motorhome_stopover","caravan_site:type":"forest","charge":"2 EUR","fee":"yes","name":"Aire de Services et de Repos de Bréau-Mars","power_supply":"no","ref:CD30":"256","sanitary_dump_station":"yes","start_date":"2014","water_point":"yes","website":"https://www.tourismegard.com/fr/fiche/hotellerie-plein-air/aire-de-services-et-de-repos-de-breau-mars-breau-mars_TFO5996149/"}},"507898112":{"location":[43.9675311,3.5213783],"ct":"FR","tp":"CR","ts":"2024-10-02T07:16:09Z","tX":522,"tY":372,"tags":{"capacity":"6","caravan_site":"motorhome_stopover","caravan_site:type":"village","fee":"no","maxstay":"48 hours","name":"Aire de camping-car Arre","opening_hours":"24/7","picnic_table":"yes","ref:CD30":"272","sanitary_dump_station":"yes","seasonal":"no","toilets":"yes","water_point":"yes","website":"https://www.tourismegard.com/fr/fiche/hotellerie-plein-air/aire-de-services-et-de-repos-a-arre-arre_TFO5996145/"}},"508488073":{"location":[43.9934683,3.5880913],"ct":"FR","tp":"CS","ts":"2017-07-18T18:19:32Z","tX":522,"tY":372,"tags":{"addr:street":"Le Tufec","capacity":"7","name":"Domaine Lou Cévenol","ref:CD30":"212","stars":"2","website":"https://www.facebook.com/Domaine-Lou-Cevenol-202479443108102/"}},"683404431":{"location":[44.0032722,3.6592497],"ct":"FR","tp":"CS","ts":"2019-06-28T13:56:51Z","tX":522,"tY":372,"tags":{"caravans":"yes","name":"Les Magnarelles","operator":"Max Scheider","tents":"yes"}},"833325044":{"location":[44.0869044,3.6078984],"ct":"FR","tp":"CS","ts":"2023-07-11T12:27:06Z","tX":522,"tY":372,"tags":{"caravans":"yes","name":"Camping Le Mouretou","source":"data.gouv.fr:DATAtourisme - 05/2020","stars":"3","tents":"yes","website":"https://camping-mouretou.com","wheelchair":"yes"}},"837482209":{"location":[43.8885904,3.7353529],"ct":"FR","tp":"CS","ts":"2020-08-16T00:15:56Z","tX":522,"tY":372,"tags":{"name":"Camping Les Mûriers","stars":"1"}},"868655475":{"location":[43.8765898,3.7176383],"ct":"FR","tp":"CS","ts":"2024-09-28T16:59:10Z","tX":522,"tY":372,"tags":{"addr:city":"Brissac","addr:postcode":"34190","name":"Camping du Domaine d'Anglas","operator":"Carole & Roger Gaussorgues","phone":"+33 (0)4 67 73 70 18","website":"https://www.camping-anglas.com/"}},"868686527":{"location":[43.8464062,3.706118],"ct":"FR","tp":"CS","ts":"2021-08-16T10:26:21Z","tX":522,"tY":372,"tags":{"email":"levaldherault@orange.fr","fax":"+33467733081","name":"Val d'Hérault","phone":"+33467737229","stars":"4","website":"https://www.camping-levaldherault.com"}},"1007587799":{"location":[43.9281533,3.8074252],"ct":"FR","tp":"CS","ts":"2021-11-30T10:01:46Z","tX":522,"tY":372,"tags":{"name":"Camping de la Devèze","phone":"+33682495041","source":"cadastre-dgi-fr source : Direction Générale des Impôts - Cadastre. Mise à jour : 2010","website":"https://camping-la-deveze.business.site"}},"1267580727":{"location":[43.8865007,3.7312504],"ct":"FR","tp":"CR","ts":"2024-03-29T23:31:47Z","tX":522,"tY":372,"tags":{"addr:housenumber":"433","addr:postcode":"34190","addr:street":"D 108","name":"Le portail dans l'arbre"}},"1284397691":{"location":[43.9744568,3.5976121],"ct":"FR","tp":"CR","ts":"2024-05-18T12:59:30Z","tX":522,"tY":372,"tags":{"bbq":"no","capacity":"44","caravan_site":"motorhome_stopover","caravan_site:type":"river","charge":"15.88 EUR","charge:conditional":"13.88 @(Oct-May)","dog":"leashed","fee":"yes","internet_access":"wlan","maxlength":"none","name":"Aire Camping-Car Park Avèze, Le Pont Vieux","network":"CAMPING-CAR PARK","opening_hours":"24/7","power_supply":"yes","power_supply:capacity":"24","power_supply:fee":"no","power_supply:maxcurrent":"6","sanitary_dump_station":"yes","tents":"no","trailer":"yes","website":"https://www.campingcarpark.com/fr_FR/sejour/aire-etape-camping-car/occitanie/30-gard/aveze"}},"1799754318":{"location":[44.0860982,3.6844601],"ct":"FR","tp":"CS","ts":"2017-10-04T19:30:52Z","tX":522,"tY":372,"tags":{}},"1799776036":{"location":[44.0147685,3.6818798],"ct":"FR","tp":"CS","ts":"2024-07-10T16:09:52Z","tX":522,"tY":372,"tags":{"addr:city":"Valleraugue","addr:postcode":"30570","cabins":"yes","capacity:cabins":"6","caravans":"yes","email":"contact@lacorconne.com","fee":"yes","mobile":"+33 6 76 47 63 98","name":"La Corcone","opening_hours":"Apr 2 - Oct 30","phone":"+33 4 67 82 46 82","shower":"yes","tents":"yes","toilets":"yes","website":"https://www.lacorconne.com/"}},"1865888294":{"location":[43.9733172,3.5880181],"ct":"FR","tp":"CS","ts":"2013-08-27T14:05:14Z","tX":522,"tY":372,"tags":{"internet_access":"no","name":"La Tessonne"}},"1867124260":{"location":[43.9292821,3.5904802],"ct":"FR","tp":"CS","ts":"2024-08-19T13:46:21Z","tX":522,"tY":372,"tags":{"backcountry":"no","capacity:caravans":"11","capacity:tents":"11","caravans":"yes","fixme":"check if it is permantly closed","name":"Camping Municipal La Couronne","operator":"Mairie","tents":"yes"}},"2433952730":{"location":[43.9702585,3.5810361],"ct":"FR","tp":"CS","ts":"2013-08-27T14:05:05Z","tX":522,"tY":372,"tags":{"internet_access":"no","name":"Laparot"}},"6518523056":{"location":[43.8863599,3.5704243],"ct":"FR","tp":"CS","ts":"2023-04-10T12:28:01Z","tX":522,"tY":372,"tags":{"addr:city":"Rogues","addr:postcode":"30120","addr:street":"Impasse du Revel","cabins":"yes","caravans":"yes","email":"contact@gite-le-revel.fr","mobile":"+33 6 17 02 54 91","name":"Gite Le Revel - Camping","phone":"+33467815089","shower":"yes","tents":"yes","toilets":"yes","website":"https://gite-le-revel.fr"}},"9075477955":{"location":[44.0093472,3.679028],"ct":"FR","tp":"CS","ts":"2021-09-09T06:02:28Z","tX":522,"tY":372,"tags":{}},"7015342703":{"location":[43.923372,3.7235016],"ct":"FR","tp":"CR","ts":"2024-10-08T17:29:09Z","tX":522,"tY":372,"tags":{"caravan_site":"motorhome_stopover","caravan_site:type":"parking_lot","fee":"yes","maxstay":"24 hours","motorcar":"yes","name":"Laroque Espace Loisirs","power_supply":"no","sanitary_dump_station":"no","tents":"no","toilets":"yes"}},"12120299260":{"location":[44.0804072,3.6360776],"ct":"FR","tp":"CR","ts":"2024-08-19T13:34:12Z","tX":522,"tY":372,"tags":{"caravan_site":"motorhome_stopover","caravan_site:type":"village","fee":"no","maxstay":"72 hours","name":"Aire de camping-cars de Valleraugue","sanitary_dump_station":"yes","water_point":"yes","website":"https://www.tourisme-occitanie.com/fr/fiche/hotellerie-plein-air/aire-de-camping-cars-de-valleraugue-valleraugue_TFOSITRA2_CAM_6102764/"}},"8358637324":{"location":[43.9756497,3.5987382],"ct":"FR","tp":"SD","ts":"2021-01-24T20:47:22Z","tX":522,"tY":372,"tags":{"fee":"no","note":"no water in winter","water_point":"yes"}},"12120299265":{"location":[44.0806181,3.6361963],"ct":"FR","tp":"SD","ts":"2024-08-19T13:34:12Z","tX":522,"tY":372,"tags":{"access":"yes","fee":"no","sanitary_dump_station:chemical_toilet":"yes","sanitary_dump_station:grey_water":"yes"}},"12125882384":{"location":[43.9267926,3.788535],"ct":"FR","tp":"SD","ts":"2024-08-22T05:40:32Z","tX":522,"tY":372,"tags":{"access":"customers","fee":"no","sanitary_dump_station:basin":"yes"}},"12215526857":{"location":[43.9675886,3.5212442],"ct":"FR","tp":"SD","ts":"2024-10-02T07:16:09Z","tX":522,"tY":372,"tags":{"access":"yes","fee":"yes","water_point":"yes"}},"12244958596":{"location":[43.993925,3.5665789],"ct":"FR","tp":"SD","ts":"2024-10-11T21:41:21Z","tX":522,"tY":372,"tags":{"access":"yes","water_point":"yes","water_point:fee":"yes"}}}