{"52825950":{"location":[43.4420938,3.6833152],"ct":"FR","tp":"CS","ts":"2024-06-21T18:39:18Z","tX":522,"tY":374,"tags":{"name":"Camping municipal Pech d'Ay","source":"cadastre-dgi-fr source : Direction Générale des Impôts - Cadastre. Mise à jour : 2010","stars":"2","website":"https://www.pechday-balaruc.com/"}},"98741422":{"location":[43.3423803,3.5828203],"ct":"FR","tp":"CS","ts":"2021-05-10T06:03:07Z","tX":522,"tY":374,"tags":{"addr:city":"Sète","addr:postcode":"34200","addr:street":"route national 112","contact:phone":"+33467516300","name":"Le Castellas","stars":"4"}},"135734707":{"location":[43.3661629,3.6146378],"ct":"FR","tp":"CR","ts":"2024-10-17T18:16:21Z","tX":522,"tY":374,"tags":{"capacity":"77","caravan_site":"motorhome_stopover","caravan_site:type":"beach","caravans":"no","charge":"13 EUR","charge:conditional":"8 EUR @ (Nov-Feb); 11 EUR @ (Mar,Apr,May,Oct)","dog":"yes","fee":"yes","name":"Emplacement pour camping-car des 3 Digues","power_supply:charge":"1 EUR/10 minutes","power_supply:fee":"yes","supervised":"yes","tents":"no","toilets":"yes","toilets:wheelchair":"yes","water_point":"yes","water_point:charge":"1 EUR/10 minutes","website":"https://www.herault-tourisme.com/fr/fiche/aire-de-camping-car/aire-de-stationnement-camping-car-des-3-digues-sete_TFOACCAMLAR034V50ZR8E/","wheelchair":"yes","wikimedia_commons":"File:Emplacement pour camping-car des 3 Digues, Plage de la Baleine, Sète - aerial view-0604.jpg"}},"137714548":{"location":[43.4455316,3.6797644],"ct":"FR","tp":"CR","ts":"2024-05-13T12:41:30Z","tX":522,"tY":374,"tags":{"addr:city":"Balaruc-les-Bains","addr:housenumber":"44","addr:postcode":"34540","addr:street":"Avenue de Montpellier","capacity":"125","caravan_site":"motorhome_stopover","caravans":"no","charge":"20.72 EUR","fee":"yes","name":"Aire de camping-cars Aire des Bains","operator":"AireServices","operator:website":"https://www.aireparkreservation.com/aires-camping-cars/occitanie/herault/balaruc-les-bains-aire-des-bains","tents":"no"}},"160942471":{"location":[43.4028887,3.5350445],"ct":"FR","tp":"CS","ts":"2024-07-29T15:44:13Z","tX":522,"tY":374,"tags":{"addr:city":"Pinet","addr:postcode":"34850","addr:street":"Domaine Saint-Jean des Sources","name":"Terre de Soleil","nudism":"yes","phone":"+33 6 08 47 85 16","source":"cadastre-dgi-fr source : Direction Générale des Impôts - Cadastre. Mise à jour : 2012","website":"https://naturisme-terredesoleil.fr/"}},"264351667":{"location":[43.4294834,3.6119109],"ct":"FR","tp":"CS","ts":"2023-10-30T11:52:43Z","tX":522,"tY":374,"tags":{"addr:city":"Mèze","addr:postcode":"34140","addr:street":"RD 613","fax":"+33467436670","name":"Camping Koawa Beau Rivage","phone":"+33 4 66 60 07 00","source":"Bing","stars":"3","website":"https://www.camping-beaurivage.fr/"}},"264354281":{"location":[43.4494677,3.6655619],"ct":"FR","tp":"CS","ts":"2023-05-31T18:33:53Z","tX":522,"tY":374,"tags":{"addr:city":"Bouzigues","addr:postcode":"34140","addr:street":"Route du Stade","caravans":"yes","email":"contact@lou-labech.fr","fee":"yes","name":"Camping Lou Labech","phone":"+33467783038","stars":"3","static_caravans":"yes","website":"https://www.lou-labech.fr/"}},"268147181":{"location":[43.4447438,3.6150444],"ct":"FR","tp":"CS","ts":"2021-10-15T15:56:55Z","tX":522,"tY":374,"tags":{"capacity":"100","caravans":"yes","drinking_water":"yes","fee":"yes","internet_access":"wlan","motor_vehicle":"yes","name":"Camping municipal de Loupian","openfire":"yes","operator":"Mairie de Loupian","phone":"+33467435767","sanitary_dump_station":"customers","stars":"3","swimming_pool":"no","tents":"yes","washing_machine":"seasonal","website":"https://www.loupian.fr/camping-municipal/"}},"286397145":{"location":[43.4492047,3.805894],"ct":"FR","tp":"CS","ts":"2019-05-22T05:15:12Z","tX":522,"tY":374,"tags":{"addr:city":"Frontignan","addr:postcode":"34110","addr:street":"Avenue d'Ingril","barrier":"fence","contact:phone":"+33 467434477","fee":"yes","internet_access":"wlan","internet_access:fee":"no","name":"Les Tamaris","operator":"Sandaya","stars":"5","website":"https://www.sandaya.fr/nos-campings/les-tamaris"}},"295236030":{"location":[43.4969196,3.5653933],"ct":"FR","tp":"CS","ts":"2024-10-04T13:28:29Z","tX":522,"tY":374,"tags":{"contact:fax":"+33 4 67 78 05 55","contact:phone":"+33 4 67 78 07 27","contact:website":"www.camping-borepo.fr","email":"contact@campingborepo.fr","name":"Camping Borepo","opening_hours":"Mo-Fr 09:30-13:00, 14:00-18:00; Sa 09:30-18:00","stars":"2","website":"https://www.campingborepo.fr/"}},"345736090":{"location":[43.4540557,3.6888324],"ct":"FR","tp":"CS","ts":"2023-10-30T11:53:01Z","tX":522,"tY":374,"tags":{"access":"yes","email":"camping.lesvignes@free.fr","fee":"yes","name":"Les Vignes","payment:cash":"yes","payment:credit_cards":"yes","phone":"+33 4 67 48 04 93","stars":"3","website":"https://www.camping-lesvignes.com/"}},"376241038":{"location":[43.3282193,3.5470757],"ct":"FR","tp":"CS","ts":"2017-09-16T01:54:46Z","tX":522,"tY":374,"tags":{"name":"Le Nautic","phone":"+33467219340"}},"443199704":{"location":[43.4409523,3.594396],"ct":"FR","tp":"CR","ts":"2024-05-18T09:58:01Z","tX":522,"tY":374,"tags":{"bbq":"no","capacity":"44","caravan_site":"motorhome_stopover","caravan_site:type":"beach","caravans":"no","charge":"16.22 EUR","dog":"leashed","fee":"yes","internet_access":"wlan","maxlength":"none","name":"Aire Camping-Car Park Mèze","network":"CAMPING-CAR PARK","opening_hours":"24/7","power_supply":"yes","sanitary_dump_station":"yes","tents":"no","trailer":"yes"}},"475263057":{"location":[43.4887213,3.6917687],"ct":"FR","tp":"CS","ts":"2017-10-21T00:40:57Z","tX":522,"tY":374,"tags":{"contact:email":"camping.legarel@wanadoo.fr","contact:phone":"+33467782221","contact:website":"http://www.campinglegarel.com","name":"Camping Le Garel","stars":"3"}},"496610003":{"location":[43.4303023,3.7604571],"ct":"FR","tp":"CS","ts":"2019-03-10T17:01:16Z","tX":522,"tY":374,"tags":{"caravans":"yes","contact:email":"contact@camping-la-lagune.com","contact:phone":"+334 99 04 04 30","name":"Camping La Lagune","stars":"3","tents":"yes","website":"https://camping-la-lagune.fr"}},"561356819":{"location":[43.4277899,3.7558734],"ct":"FR","tp":"CS","ts":"2018-03-09T08:41:14Z","tX":522,"tY":374,"tags":{"contact:phone":"+334 67 43 05 40","name":"La Tamarissade","stars":"2"}},"561357260":{"location":[43.4293393,3.7588822],"ct":"FR","tp":"CS","ts":"2023-10-30T11:51:29Z","tX":522,"tY":374,"tags":{"contact:email":"camping-mediterranee@orange.fr","contact:phone":"+334 99 04 92 32","name":"Mediterranée","stars":"2","website":"https://www.camping-mediterranee34.com/"}},"561357655":{"location":[43.4301633,3.7589189],"ct":"FR","tp":"CS","ts":"2019-03-10T17:01:17Z","tX":522,"tY":374,"tags":{"contact:email":"horizonfrontignan@gmail.com","contact:other":"+334 99 02 69 48","contact:phone":"+336 59 35 19 96","name":"L'horizon","stars":"1","website":"http://www.campinghorizon.fr"}},"570543077":{"location":[43.5403998,3.7485484],"ct":"FR","tp":"CS","ts":"2018-03-18T09:19:01Z","tX":522,"tY":374,"tags":{"contact:email":"contact@camping-le-botanic.com","contact:phone":"+33 4 67 85 53 18","contact:website":"http://www.camping-le-botanic.com/","internet_access":"wlan","internet_access:fee":"no","name":"Camping Le Botanic","stars":"2"}},"671523843":{"location":[43.5005442,3.7879309],"ct":"FR","tp":"CS","ts":"2021-02-14T23:17:35Z","tX":522,"tY":374,"tags":{"addr:city":"Vic-la-Gardiole","addr:country":"FR","addr:housenumber":"1","addr:postcode":"34110","addr:street":"Route des Aresquiers","contact:email":"contact@alteacamping.com","name":"Altéa","phone":"+33 4 67 78 14 09","stars":"3","toilets:wheelchair":"yes","website":"https://alteacamping.com/","wheelchair":"yes"}},"671524700":{"location":[43.4908029,3.7792417],"ct":"FR","tp":"CS","ts":"2023-10-30T11:53:19Z","tX":522,"tY":374,"tags":{"addr:city":"Vic-la-Gardiole","addr:country":"FR","addr:housenumber":"31","addr:postcode":"34110","addr:street":"Route de Frontignan","name":"L'Europe","phone":"+33 4 30 63 38 81","stars":"4","website":"https://www.campingleurope.com/"}},"671526446":{"location":[43.481888,3.7741775],"ct":"FR","tp":"CS","ts":"2023-10-30T11:51:42Z","tX":522,"tY":374,"tags":{"addr:city":"Vic-la-Gardiole","addr:country":"FR","addr:housenumber":"27","addr:postcode":"34110","addr:street":"Route de Montpellier","email":"contact@campingnewday.fr","fax":"+33 4 99 57 16 49","name":"New Day","phone":"+33 4 67 36 12 52","stars":"3","website":"https://www.campingnewday.fr/"}},"671534749":{"location":[43.4850003,3.7985039],"ct":"FR","tp":"CS","ts":"2023-10-30T11:52:15Z","tX":522,"tY":374,"tags":{"addr:city":"Vic-la-Gardiole","addr:country":"FR","addr:postcode":"34110","addr:street":"Route de la Mer","email":"contact@camping-clos-fleuri.com","fax":"+33 4 67 78 77 62","internet_access":"yes","internet_access:fee":"yes","name":"Le Clos Fleuri","phone":"+33 4 67 78 15 68","stars":"2","website":"https://www.camping-clos-fleuri.com/"}},"743427923":{"location":[43.3977666,3.5491228],"ct":"FR","tp":"CS","ts":"2019-11-08T20:38:40Z","tX":522,"tY":374,"tags":{"source":"fr.ign.bdortho"}},"1106336431":{"location":[43.4521709,3.6935568],"ct":"FR","tp":"CS","ts":"2022-10-23T13:56:12Z","tX":522,"tY":374,"tags":{"addr:housenumber":"4","addr:street":"Chemin du Mas du Padre","email":"info@masdupadre.com","name":"Mas du Padre","phone":"+33 4 67 48 53 41","stars":"4","website":"https://masdupadre.com"}},"1132919327":{"location":[43.4054825,3.5811158],"ct":"FR","tp":"CR","ts":"2024-10-02T07:32:19Z","tX":522,"tY":374,"tags":{"caravan_site":"motorhome_stopover","caravan_site:type":"farm_shop","charge":"10 EUR","description":"free with purchase of shellfish","fee":"yes","name":"La Noisette d'Oc","opening_hours":"24/7","phone":"+33 6 89 84 41 23","product":"seafood","reservation":"no","restaurant":"yes","surface":"gravel","website":"https://lanoisettedoc.com/aire-camping-car-meze/"}},"1312685260":{"location":[43.4397983,3.792317],"ct":"FR","tp":"CS","ts":"2024-09-01T21:29:03Z","tX":522,"tY":374,"tags":{"addr:city":"Frontignan","addr:housenumber":"162","addr:postcode":"34110","addr:street":"Avenue Ferdinand de Lesseps","drinking_water":"yes","email":"campingaiguemarine@gmail.com","fee":"yes","internet_access":"no","name":"Camping Aigue Marine","power_supply":"yes","sanitary_dump_station":"no","shower":"yes","source":"survey","toilets":"yes","website":"https://www.camping-aigue-marine.fr/"}},"1312697795":{"location":[43.4450075,3.7988576],"ct":"FR","tp":"CS","ts":"2024-09-01T23:38:18Z","tX":522,"tY":374,"tags":{"addr:city":"Frontignan","addr:country":"FR","addr:housenumber":"60","addr:postcode":"34110","addr:street":"Avenue d'Ingril","contact:email":"frontignan@igesa.fr","name":"Aux 1000 lauriers","operator":"IGESA","phone":"+33 4 67 43 02 02","stars":"3","website":"https://www.igesa.fr/vos-vacances/recherche-sejour/reserver-mes-vacances/etablissement/frontignan-plage-camping"}},"5657337621":{"location":[43.469316,3.8103723],"ct":"FR","tp":"CS","ts":"2021-05-15T15:33:51Z","tX":522,"tY":374,"tags":{"contact:email":"campingaresquiers@gmail.com","contact:mobile":"+337 69 94 12 36","contact:phone":"+33988184975","name":"Camping à la ferme les Aresquiers","note":"Formule Vélo","website":"https://www.campingaresquiers.com/"}},"11915885576":{"location":[43.4321356,3.7590542],"ct":"FR","tp":"CR","ts":"2024-10-08T14:58:09Z","tX":522,"tY":374,"tags":{"bbq":"no","capacity":"49","caravan_site":"motorhome_stopover","caravan_site:type":"beach","caravans":"no","charge":"14.72 EUR","dog":"leashed","fee":"yes","maxlength":"9","name":"Camping-car Park Frontignan","network":"CAMPING-CAR PARK","operator":"CAMPING-CAR PARK","power_supply":"yes","power_supply:capacity":"50","power_supply:fee":"no","power_supply:maxcurrent":"6","shadow":"no","tents":"no","trailer":"no","water_point":"yes","water_point:fee":"no","website":"https://www.campingcarpark.com/fr_FR/sejour/aire-etape-camping-car/occitanie/34-herault/frontignan"}},"5982026842":{"location":[43.4499178,3.8060655],"ct":"FR","tp":"SD","ts":"2018-10-13T21:35:50Z","tX":522,"tY":374,"tags":{"access":"customers","fee":"no","operator":"Camping Les Tamaris","water_point":"yes"}},"5982047559":{"location":[43.4488302,3.8051665],"ct":"FR","tp":"SD","ts":"2018-10-13T21:49:30Z","tX":522,"tY":374,"tags":{}},"5982048482":{"location":[43.4492938,3.8061792],"ct":"FR","tp":"SD","ts":"2018-10-13T21:51:39Z","tX":522,"tY":374,"tags":{}},"9174789173":{"location":[43.4443933,3.6148944],"ct":"FR","tp":"SD","ts":"2021-10-15T15:56:55Z","tX":522,"tY":374,"tags":{"access":"customers","fee":"no","water_point":"yes"}},"12151455676":{"location":[43.4351863,3.7736072],"ct":"FR","tp":"SD","ts":"2024-09-02T11:34:20Z","tX":522,"tY":374,"tags":{}}}