{"7043784":{"location":[43.3065663,3.5391373],"ct":"FR","tp":"CS","ts":"2022-04-16T20:57:48Z","tX":522,"tY":375,"tags":{"brand":"Les Méditerranées","caravans":"yes","fee":"yes","internet_access":"wlan","name":"Beach Garden","phone":"+33 4 67 21 92 83","tents":"yes","website":"https://www.lesmediterranees.com/camping-beach-garden-marseillan-plage","wheelchair":"limited"}},"14646680":{"location":[43.3177324,3.5485917],"ct":"FR","tp":"CS","ts":"2022-10-02T10:37:31Z","tX":522,"tY":375,"tags":{"barrier":"fence","fence_type":"metal","height":"2","name":"Domaine de Féerix - Zone VIP 31-45","operator":"Capfun"}},"67385450":{"location":[43.2858858,3.5204982],"ct":"FR","tp":"CS","ts":"2023-11-08T17:08:12Z","tX":522,"tY":375,"tags":{"name":"Camping la Clape","phone":"+33467264132","website":"https://camping-laclape.com/","wheelchair":"limited"}},"109285835":{"location":[43.3000201,3.5310998],"ct":"FR","tp":"CS","ts":"2024-01-29T15:03:35Z","tX":522,"tY":375,"tags":{"addr:city":"Agde","addr:housenumber":"1","addr:postcode":"34307","addr:street":"Rue des Néréides","barrier":"fence","caravans":"yes","description":"Camping Nudiste","drinking_water":"yes","name":"Centre Hélio-Marin René Oltra","nudism":"yes","phone":"+33 4 67 01 06 36","shower":"yes","source":"cadastre-dgi-fr source : Direction Générale des Impôts - Cadastre. Mise à jour : 2011;Bing","tents":"yes","toilets":"yes","website":"https://www.centrenaturiste-oltra.fr/"}},"118820842":{"location":[43.3198924,3.5572953],"ct":"FR","tp":"CS","ts":"2019-03-23T15:37:34Z","tX":522,"tY":375,"tags":{"addr:city":"Marseillan Plage","addr:housenumber":"22","addr:postcode":"34340","addr:street":"Quai de Plaisance","name":"Camping le Robinson","phone":"+33467219007","stars":"3","website":"https://www.camping-robinson.com/"}},"293714296":{"location":[43.313031,3.5421729],"ct":"FR","tp":"CS","ts":"2021-12-04T22:32:12Z","tX":522,"tY":375,"tags":{"contact:email":"reception@camping-galet.com","contact:phone":"+334 67 21 95 61","name":"Le Galet","stars":"3","website":"https://www.camping-galet.com/"}},"293718166":{"location":[43.3082782,3.5436411],"ct":"FR","tp":"CS","ts":"2019-03-23T09:55:45Z","tX":522,"tY":375,"tags":{"brand":"Les Méditerranées","caravans":"yes","fee":"yes","name":"Nouvelle Floride","phone":"+33 4 67 21 94 49","tents":"yes","website":"https://www.lesmediterranees.com/camping-nouvelle-floride-marseillan-plage"}},"293718169":{"location":[43.3097377,3.5412202],"ct":"FR","tp":"CS","ts":"2022-09-16T12:58:42Z","tX":522,"tY":375,"tags":{"brand":"Les Méditerranées","caravans":"yes","fee":"yes","name":"Charlemagne","phone":"+33 4 67 21 92 49","tents":"yes","website":"https://www.lesmediterranees.com/camping-charlemagne-marseillan-plage"}},"293718174":{"location":[43.3100889,3.5465487],"ct":"FR","tp":"CS","ts":"2024-07-08T14:14:31Z","tX":522,"tY":375,"tags":{"addr:city":"Marseillan","addr:housenumber":"69","addr:postcode":"34340","addr:street":"Chemin du Payrollet","caravans":"yes","contact:email":"info@laplage-camping.net","contact:phone":"+334 67 21 92 54","fee":"yes","name":"La Plage","stars":"3","tents":"yes","website":"http://www.laplage-camping.net"}},"293719590":{"location":[43.3118092,3.5474495],"ct":"FR","tp":"CS","ts":"2023-11-25T16:44:34Z","tX":522,"tY":375,"tags":{"caravans":"yes","contact:email":"campinglacreole@orange.fr","contact:phone":"+334 67 21 92 69","fee":"yes","motorhome":"yes","name":"La Creole","stars":"3","static_caravans":"yes","tents":"yes","website":"https://www.campinglacreole.com/"}},"293719592":{"location":[43.3066606,3.5428219],"ct":"FR","tp":"CS","ts":"2023-06-28T08:08:59Z","tX":522,"tY":375,"tags":{"access":"customers","caravans":"yes","contact:phone":"+33 4 67 39 50 93","email":"reception@camping-beausejour.fr","fee":"yes","name":"Beau Séjour","phone":"+33 4 67 21 93 00","shower":"yes","stars":"3","tents":"yes","toilets":"yes","website":"https://www.camping-beausejour.fr/"}},"293721117":{"location":[43.310212,3.5441485],"ct":"FR","tp":"CS","ts":"2023-11-08T17:08:19Z","tX":522,"tY":375,"tags":{"contact:email":"lerieu@wanadoo.fr","contact:phone":"+334 67 21 92 58","name":"Le Rieu","stars":"2","website":"https://www.campinglerieu.fr/"}},"328414187":{"location":[43.3199082,3.5516635],"ct":"FR","tp":"CS","ts":"2023-11-08T17:08:17Z","tX":522,"tY":375,"tags":{"addr:housenumber":"325","addr:street":"Ancienne Route de Sète","contact:email":"feerix@capfun.com","contact:phone":"+33 4 67 21 90 58","drinking_water":"yes","internet_access":"wlan","name":"Domaine de Féerix","operator":"Capfun","power_supply":"yes","toilets":"yes","toilets:wheelchair":"yes","website":"https://www.feerix.fr/","wheelchair":"yes"}},"376203364":{"location":[43.3189862,3.5479728],"ct":"FR","tp":"CR","ts":"2024-10-11T11:45:46Z","tX":522,"tY":375,"tags":{"capacity":"122","caravan_site":"motorhome_stopover","caravan_site:type":"beach","caravans":"no","charge":"13 EUR","dog":"yes","fee":"yes","name":"Aire de Camping-Cars Marseillan-Plage","opening_hours":"24/7","sanitary_dump_station":"yes","tents":"no","water_point":"yes","website":"https://en.marseillan-tourisme.com/aire-de-stationnement-camping-cars.html","wheelchair":"yes"}},"376211969":{"location":[43.3141635,3.5500988],"ct":"FR","tp":"CS","ts":"2023-11-08T17:08:27Z","tX":522,"tY":375,"tags":{"addr:city":"Marseillan plage","addr:housenumber":"250","addr:postcode":"34340","addr:street":"Chemin de l'Airette","capacity":"200","fee":"yes","internet_access":"wlan","name":"Beauregard Plage","phone":"+33467771545","power_supply":"yes","sanitary_dump_station":"yes","website":"https://www.camping-beauregard-plage.com/"}},"376215708":{"location":[43.3129794,3.5490032],"ct":"FR","tp":"CS","ts":"2021-05-29T15:43:11Z","tX":522,"tY":375,"tags":{"contact:phone":"+334 42 16 89 91","internet_access":"wlan","name":"Dunes et Soleil","operator":"Homair","stars":"4","website":"https://www.homair.com/camping/dunes-et-soleil"}},"376225123":{"location":[43.3075441,3.5409724],"ct":"FR","tp":"CS","ts":"2024-10-11T11:49:41Z","tX":522,"tY":375,"tags":{"drinking_water":"yes","fee":"yes","internet_access":"wlan","name":"Le Grillon des Mers","power_supply":"yes","sanitary_dump_station":"yes","toilets":"yes","toilets:wheelchair":"limited","wheelchair":"limited"}},"376239356":{"location":[43.3120604,3.5419992],"ct":"FR","tp":"CS","ts":"2023-11-08T17:08:15Z","tX":522,"tY":375,"tags":{"contact:phone":"+334 67 21 92 47","name":"La Jasse sur Mer","stars":"2","website":"https://www.lajassesurmer.fr/"}},"376239359":{"location":[43.3145784,3.537755],"ct":"FR","tp":"CS","ts":"2024-05-11T09:05:12Z","tX":522,"tY":375,"tags":{"caravans":"yes","contact:phone":"+334 67 21 88 92","drinking_water":"yes","name":"Camping La Mouette","power_supply":"yes","sanitary_dump_station":"no","shower":"yes","tents":"yes","toilets":"yes","website":"http://www.campinglamouette.fr/"}},"376241033":{"location":[43.3173073,3.5450948],"ct":"FR","tp":"CS","ts":"2023-11-08T17:08:32Z","tX":522,"tY":375,"tags":{"contact:email":"teorix@capfun.com","contact:phone":"+334 67 37 83 31","internet_access":"wlan","name":"Domaine de Téorix","operator":"Capfun","stars":"4","website":"https://www.camping-teorix.fr/"}},"376257719":{"location":[43.3219933,3.559119],"ct":"FR","tp":"CS","ts":"2018-07-29T17:29:09Z","tX":522,"tY":375,"tags":{"addr:city":"Marseillan Plage","addr:postcode":"34340","addr:street":"Impasse Ronsard","internet_access":"wlan","name":"Camping le Paradou","phone":"+33467219010","stars":"2","website":"http://www.paradou.com/"}},"376258829":{"location":[43.285737,3.51698],"ct":"FR","tp":"CR","ts":"2024-10-11T11:58:10Z","tX":522,"tY":375,"tags":{"access":"yes","capacity":"43","caravan_site":"motorhome_stopover","caravan_site:type":"beach;harbour;town","caravans":"no","charge":"15 EUR","dog":"yes","fee":"yes","name":"Aire de camping-car de La Clape","opening_hours":"24/7","power_supply":"no","sanitary_dump_station":"yes","sanitary_dump_station:chemical_toilet":"yes","sanitary_dump_station:grey_water":"yes","shadow":"partial","surface":"asphalt","water_point":"yes","website":"https://www.capdagde.com/tourisme/aires-de-camping-car/aire-de-camping-car-cap-dagde/","wheelchair":"yes"}},"611581798":{"location":[43.3181847,3.5501663],"ct":"FR","tp":"CS","ts":"2023-01-03T18:39:24Z","tX":522,"tY":375,"tags":{"barrier":"fence","fence_type":"metal","height":"2","name":"Domaine de Féerix - Zone VIP 1-30","operator":"Capfun"}},"1095157752":{"location":[43.3090349,3.5387574],"ct":"FR","tp":"CS","ts":"2022-09-16T12:58:42Z","tX":522,"tY":375,"tags":{"email":"campinglelorrain@orange.fr","internet_access":"no","name":"Camping Le Lorrain","phone":"+33467218046","source":"cadastre-dgi-fr source : Direction Générale des Finances Publiques - Cadastre. Mise à jour : 2014"}},"4941166603":{"location":[43.3100759,3.540927],"ct":"FR","tp":"SD","ts":"2018-11-20T21:01:04Z","tX":522,"tY":375,"tags":{}},"4941167953":{"location":[43.3094346,3.5432928],"ct":"FR","tp":"SD","ts":"2017-06-28T21:07:47Z","tX":522,"tY":375,"tags":{}},"4941169262":{"location":[43.3058371,3.5383097],"ct":"FR","tp":"SD","ts":"2017-06-28T21:07:50Z","tX":522,"tY":375,"tags":{}},"5784344843":{"location":[43.3193138,3.5488128],"ct":"FR","tp":"SD","ts":"2021-03-18T20:26:59Z","tX":522,"tY":375,"tags":{"access":"yes"}},"12243952554":{"location":[43.285979,3.5175649],"ct":"FR","tp":"SD","ts":"2024-10-11T11:34:15Z","tX":522,"tY":375,"tags":{}}}