{"335380596":{"location":[41.4502961,-120.2423803],"ct":"US","tp":"CS","ts":"2019-02-17T05:35:58Z","tX":169,"tY":382,"tags":{"name":"Pepperdine Campground","operator":"United States Forest Service","website":"https://www.fs.usda.gov/recarea/modoc/recarea/?recid=71296"}},"756676798":{"location":[41.4965379,-120.5569103],"ct":"US","tp":"CR","ts":"2019-12-18T20:02:10Z","tX":169,"tY":382,"tags":{}},"3424942816":{"location":[41.2765058,-120.2889362],"ct":"US","tp":"CS","ts":"2019-02-17T05:35:49Z","tX":169,"tY":382,"tags":{"name":"Mill Creek Falls Campground","operator":"United States Forest Service","website":"https://www.fs.usda.gov/recarea/modoc/recarea/?recid=71266"}},"3616831388":{"location":[41.3091448,-120.2780449],"ct":"US","tp":"CS","ts":"2022-12-06T05:54:21Z","tX":169,"tY":382,"tags":{}},"4370546496":{"location":[41.4791451,-120.5394674],"ct":"US","tp":"CR","ts":"2019-05-18T17:05:31Z","tX":169,"tY":382,"tags":{"internet_access":"wlan","name":"Sully's RV Site"}},"7067509583":{"location":[41.4964691,-120.556747],"ct":"US","tp":"CR","ts":"2020-12-25T15:51:43Z","tX":169,"tY":382,"tags":{"addr:city":"Alturas","addr:housenumber":"1401","addr:postcode":"96101","addr:state":"CA","addr:street":"Thomason Lane","name":"Nifty RV & Mobile Home Park","website":"http://niftyrvandmobilehomepark.com/"}}}