{"553212217":{"location":[37.9865626,-120.5063076],"ct":"US","tp":"CS","ts":"2018-01-15T08:36:49Z","tX":169,"tY":395,"tags":{"name":"Acorn Campground"}},"553212218":{"location":[37.9794402,-120.5050328],"ct":"US","tp":"CS","ts":"2018-01-15T08:36:49Z","tX":169,"tY":395,"tags":{"name":"Oak Knoll Group Camp"}},"553212219":{"location":[37.98214,-120.5069808],"ct":"US","tp":"CS","ts":"2018-01-15T08:36:49Z","tX":169,"tY":395,"tags":{"name":"Fiddleneck Group Camp"}},"553212220":{"location":[37.97632,-120.5045848],"ct":"US","tp":"CS","ts":"2018-01-15T18:04:56Z","tX":169,"tY":395,"tags":{"name":"Manzanita Campground"}},"553212221":{"location":[37.9774691,-120.5095029],"ct":"US","tp":"CS","ts":"2018-01-15T18:04:56Z","tX":169,"tY":395,"tags":{"name":"Chamise Campground"}},"965705149":{"location":[37.9725582,-120.2436057],"ct":"US","tp":"CR","ts":"2022-03-28T16:08:22Z","tX":169,"tY":395,"tags":{"addr:city":"Tuolumne","addr:housenumber":"19380","addr:postcode":"95379","addr:state":"CA","addr:street":"Tuolumne Road North","name":"The RV Park at Black Oak Casino","website":"https://www.blackoakcasino.com/stay/rv-park/"}},"12110739502":{"location":[37.856637,-120.2404911],"ct":"US","tp":"CS","ts":"2024-08-16T11:13:06Z","tX":169,"tY":395,"tags":{"addr:housenumber":"19322","addr:postcode":"95321","addr:state":"CA","addr:street":"Rolfe Road","name":"Diamond Gulch Camp","website":"https://www.hipcamp.com/en-US/land/california-diamond-gulch-nelhzzp2"}}}