{"354348660":{"location":[46.8358069,-91.2568036],"ct":"US","tp":"CR","ts":"2022-01-23T04:36:51Z","tX":252,"tY":360,"tags":{"fee":"yes","owner":"Town of Clover"}},"354348661":{"location":[46.8346961,-91.2545261],"ct":"US","tp":"CS","ts":"2022-01-23T04:36:51Z","tX":252,"tY":360,"tags":{"fee":"yes","owner":"Town of Clover"}},"354348662":{"location":[46.8344043,-91.2563071],"ct":"US","tp":"CS","ts":"2022-01-23T04:36:51Z","tX":252,"tY":360,"tags":{"owner":"Town of Clover"}},"864013557":{"location":[46.8622761,-91.0809622],"ct":"US","tp":"CS","ts":"2020-10-27T02:30:25Z","tX":252,"tY":360,"tags":{}},"6573160602":{"location":[46.8612688,-91.0802224],"ct":"US","tp":"CS","ts":"2021-05-25T01:23:37Z","tX":252,"tY":360,"tags":{"addr:city":"Cornucopia","addr:housenumber":"23650","addr:postcode":"54827","addr:state":"WI","addr:street":"State Highway 13","disused":"yes","name":"South Shore Campground","website":"http://southshorecampground.com/"}},"7153714118":{"location":[46.8359078,-91.2566964],"ct":"US","tp":"CS","ts":"2024-10-09T05:37:34Z","tX":252,"tY":360,"tags":{"addr:city":"Herbster","addr:state":"WI","charge":"35 USD","drinking_water":"yes","fee":"yes","internet_access":"wlan","name":"Herbster Campground","owner":"Town of Clover","phone":"+1-715-774-3790","reservation":"no","toilets:disposal":"flush"}},"8692250349":{"location":[46.8579989,-91.1031775],"ct":"US","tp":"CS","ts":"2021-05-03T04:00:55Z","tX":252,"tY":360,"tags":{"fee":"yes","name":"Siskiwit Bay Campground","operator":"Siskiwit Bay Marina","website":"http://www.siskiwitbay.com/"}}}