{"12661502":{"location":[46.7986523,-91.1292681],"ct":"US","tp":"CS","ts":"2021-05-23T00:33:49Z","tX":252,"tY":361,"tags":{"addr:city":"Cornucopia","addr:housenumber":"21255","addr:postcode":"54827","addr:state":"WI","addr:street":"Siskiwit Lake Drive","alt_name":"Town of Bell Campground","alt_name_2":"Siskiwit Campground","fee":"yes","name":"Siskiwit Lake Campground","operator":"Town of Bell","owner":"Town of Bell"}},"356164798":{"location":[46.5641758,-91.3990338],"ct":"US","tp":"CS","ts":"2019-10-26T17:22:12Z","tX":252,"tY":361,"tags":{}},"863685955":{"location":[46.7743955,-91.3867604],"ct":"US","tp":"CS","ts":"2020-10-26T04:00:51Z","tX":252,"tY":361,"tags":{}},"2247687247":{"location":[46.6427468,-91.184733],"ct":"US","tp":"CS","ts":"2020-01-18T23:26:55Z","tX":252,"tY":361,"tags":{"capacity":"9","drinking_water":"no","fee":"yes","name":"Horseshoe Lake Recreation Area","reservation":"no","toilets":"vault","website":"https://www.fs.usda.gov/recarea/cnnf/recreation/camping-cabins/recarea/?recid=82793&actid=29"}},"6223184009":{"location":[46.6851297,-91.0608829],"ct":"US","tp":"CS","ts":"2020-02-01T04:55:18Z","tX":252,"tY":361,"tags":{"charge":"15.00 USD","drinking_water":"yes","name":"Birch Grove Campground","operator":"USFS","reservation":"no","toilets":"vault","website":"https://www.fs.usda.gov/recarea/cnnf/recreation/camping-cabins/recarea/?recid=27831&actid=29"}}}