{"11851617":{"location":[46.4969671,-91.2640449],"ct":"US","tp":"CS","ts":"2020-11-07T22:29:10Z","tX":252,"tY":362,"tags":{"name":"Camp Northwoods","operator":"Girl Scouts of Minnesota and Wisconsin River Valleys"}},"12659573":{"location":[46.4751869,-91.3014968],"ct":"US","tp":"CS","ts":"2021-07-02T01:13:17Z","tX":252,"tY":362,"tags":{"addr:city":"Iron River","addr:housenumber":"62020","addr:postcode":"54847","addr:state":"WI","addr:street":"County Highway H","fee":"yes","name":"Delta Lake Campground","operator":"Bayfield County","owner":"Bayfield County"}},"12659576":{"location":[46.5078077,-91.3584016],"ct":"US","tp":"CS","ts":"2021-07-02T03:14:14Z","tX":252,"tY":362,"tags":{"addr:city":"Iron River","addr:housenumber":"10370","addr:postcode":"54847","addr:state":"WI","addr:street":"County Highway H","fee":"yes","name":"Twin Lakes Campground","operator":"Bayfield County","owner":"Bayfield County"}},"12659579":{"location":[46.4722719,-91.3186602],"ct":"US","tp":"CS","ts":"2021-07-02T01:13:17Z","tX":252,"tY":362,"tags":{}},"762405049":{"location":[46.4189964,-91.2497851],"ct":"US","tp":"CS","ts":"2020-01-11T04:17:44Z","tX":252,"tY":362,"tags":{"addr:city":"Mason","addr:housenumber":"10510","addr:postcode":"54856","addr:state":"WI","addr:street":"Black Bear Road","name":"CrossWoods","website":"http://www.crosswoods.com/"}},"7141845570":{"location":[46.4046409,-91.2695592],"ct":"US","tp":"CS","ts":"2020-01-18T23:32:56Z","tX":252,"tY":362,"tags":{"capacity":"16","drinking_water":"yes","fee":"yes","name":"Perch Lake Campground","reservation":"no","toilets":"vault","website":"https://www.fs.usda.gov/recarea/cnnf/recreation/camping-cabins/recarea/?recid=27835&actid=29"}},"7141850654":{"location":[46.5433141,-91.2835912],"ct":"US","tp":"CS","ts":"2020-01-18T23:46:04Z","tX":252,"tY":362,"tags":{"capacity":"20","drinking_water":"yes","name":"Wanoka Lake Campground","operator":"USFS","reservation":"no","toilets":"vault","website":"https://www.fs.usda.gov/recarea/cnnf/recreation/camping-cabins/recarea/?recid=27839&actid=29"}},"8844791977":{"location":[46.5077684,-91.3579516],"ct":"US","tp":"CS","ts":"2022-02-27T13:19:42Z","tX":252,"tY":362,"tags":{"addr:city":"Park Falls","addr:state":"WI","capacity":"17","drinking_water":"yes","fee":"yes","name":"Twin Lakes Recreation Area","operator":"USFS","toilets":"vault"}},"8958439124":{"location":[46.3371798,-91.2606699],"ct":"US","tp":"CS","ts":"2021-07-28T23:29:11Z","tX":252,"tY":362,"tags":{}}}