{"8753799":{"location":[44.9988561,-91.3656389],"ct":"US","tp":"CS","ts":"2018-09-28T22:15:21Z","tX":252,"tY":368,"tags":{"addr:city":"Chippewa Falls","addr:housenumber":"14912","addr:postcode":"54729","addr:state":"WI","addr:street":"105th Avenue","name":"O'Neil Creek Campground"}},"10104207":{"location":[44.9577162,-91.2840992],"ct":"US","tp":"CS","ts":"2019-10-01T23:28:29Z","tX":252,"tY":368,"tags":{"addr:city":"Chippewa Falls","addr:housenumber":"19161","addr:postcode":"54729","addr:state":"WI","addr:street":"79th Avenue","name":"Wisconsin Farmers Union Kamp Kenwood","operator":"Wisconsin Farmers Union","website":"http://kampkenwood.com/"}},"591401105":{"location":[44.9477566,-91.2961342],"ct":"US","tp":"CS","ts":"2019-10-02T02:41:10Z","tX":252,"tY":368,"tags":{"name":"Pine Harbor Camp Ground"}},"2533147480":{"location":[44.9695818,-91.299642],"ct":"US","tp":"CS","ts":"2013-11-15T04:11:10Z","tX":252,"tY":368,"tags":{"name":"Lake Wissota State Park Campground"}},"7154491635":{"location":[44.9460382,-91.393277],"ct":"US","tp":"CS","ts":"2024-10-09T05:37:34Z","tX":252,"tY":368,"tags":{"addr:city":"Chippewa Falls","addr:housenumber":"225","addr:postcode":"54729","addr:state":"WI","addr:street":"Edward Street","charge":"30 USD","drinking_water":"yes","fee":"yes","name":"Fair Hill Campgounds","operator":"Northern Wisconsin State Fair","phone":"715-723-2861","reservation":"accepted","seasonal":"Closed to non-events related campers","toilets:type":"flush"}},"12092471976":{"location":[44.97884,-91.3123822],"ct":"US","tp":"SD","ts":"2024-08-04T20:36:32Z","tX":252,"tY":368,"tags":{"access":"yes","fee":"no","water_point":"yes"}},"12895109173":{"location":[45.0430251,-91.1809512],"ct":"US","tp":"SD","ts":"2025-06-07T15:03:14Z","tX":252,"tY":368,"tags":{"check_date":"2025-06-07","fee":"no","operator":"Chippewa Valley Music Festivals","source":"survey"}}}