{"285372778":{"location":[43.894477,-91.1157884],"ct":"US","tp":"CS","ts":"2020-06-24T23:45:23Z","tX":252,"tY":372,"tags":{"addr:city":"West Salem","addr:housenumber":"N4688","addr:state":"WI","addr:street":"County Road VP","name":"Veteran's Park"}},"433211744":{"location":[44.0581298,-91.2835028],"ct":"US","tp":"CS","ts":"2019-11-01T18:59:33Z","tX":252,"tY":372,"tags":{"landuse":"conservation","leisure":"nature_reserve","name":"Camp Decorah","scout":"yes"}},"436284964":{"location":[44.0441095,-91.2934183],"ct":"US","tp":"CS","ts":"2016-08-08T18:54:24Z","tX":252,"tY":372,"tags":{"name":"Whispering Pines Campground"}},"576054933":{"location":[43.9143473,-91.0548075],"ct":"US","tp":"CS","ts":"2020-06-22T23:48:28Z","tX":252,"tY":372,"tags":{}},"755465274":{"location":[44.068733,-91.1225965],"ct":"US","tp":"CS","ts":"2019-12-14T16:33:13Z","tX":252,"tY":372,"tags":{"name":"Camp Ehawee","operator":"Girl Scouts of Wisconsin - Badgerland Council"}},"771129105":{"location":[43.9474028,-91.3870989],"ct":"US","tp":"CS","ts":"2021-03-07T10:28:44Z","tX":252,"tY":372,"tags":{"capacity":"5","name":"Great River Bluffs State park Bicycle Campground","operator":"Minnesota Department of Natural Resources"}},"1135002041":{"location":[43.9387018,-91.3850386],"ct":"US","tp":"CS","ts":"2023-01-25T00:46:56Z","tX":252,"tY":372,"tags":{"addr:city":"Winona","addr:housenumber":"43605","addr:postcode":"55987","addr:state":"MN","addr:street":"Kipp Drive","capacity":"37","drinking_water":"yes","name":"Great River Bluffs State Park Campground","operator":"MN DNR","shower":"yes","toilets:disposal":"flush"}},"2886434060":{"location":[44.0522567,-91.2855425],"ct":"US","tp":"CS","ts":"2014-05-29T04:29:01Z","tX":252,"tY":372,"tags":{"name":"Lower Apache"}},"2886434062":{"location":[44.0533323,-91.2860306],"ct":"US","tp":"CS","ts":"2014-05-29T04:29:01Z","tX":252,"tY":372,"tags":{"name":"Upper Comanche"}},"2886434087":{"location":[44.053209,-91.2855586],"ct":"US","tp":"CS","ts":"2014-05-29T04:29:01Z","tX":252,"tY":372,"tags":{"name":"Lower Comanche"}},"2886434100":{"location":[44.0523241,-91.2860092],"ct":"US","tp":"CS","ts":"2014-05-29T04:29:02Z","tX":252,"tY":372,"tags":{"name":"Upper Apache"}},"2886441179":{"location":[44.0520178,-91.2845852],"ct":"US","tp":"CS","ts":"2014-05-29T04:49:40Z","tX":252,"tY":372,"tags":{"name":"Iroquois"}},"2886447269":{"location":[44.0541498,-91.2854756],"ct":"US","tp":"CS","ts":"2014-05-29T04:49:42Z","tX":252,"tY":372,"tags":{"name":"Winnebago"}},"2886447288":{"location":[44.05201,-91.2830886],"ct":"US","tp":"CS","ts":"2014-05-29T04:49:42Z","tX":252,"tY":372,"tags":{"name":"Mohawk"}},"2886462028":{"location":[44.0534249,-91.2819189],"ct":"US","tp":"CS","ts":"2014-05-30T02:36:59Z","tX":252,"tY":372,"tags":{"name":"Lenape"}},"2886462058":{"location":[44.0538762,-91.2844889],"ct":"US","tp":"CS","ts":"2014-05-29T05:08:15Z","tX":252,"tY":372,"tags":{"name":"Chippewa"}},"2886462062":{"location":[44.0533131,-91.2825119],"ct":"US","tp":"CS","ts":"2014-05-29T05:08:15Z","tX":252,"tY":372,"tags":{"name":"Sioux"}},"2886462064":{"location":[44.0545331,-91.2829623],"ct":"US","tp":"CS","ts":"2014-05-30T02:41:45Z","tX":252,"tY":372,"tags":{"name":"Blackfoot"}},"2886463412":{"location":[44.0533132,-91.284483],"ct":"US","tp":"CS","ts":"2014-05-29T05:08:16Z","tX":252,"tY":372,"tags":{"name":"Cherokee"}},"2974296477":{"location":[43.9148454,-91.055986],"ct":"US","tp":"CS","ts":"2023-10-29T06:28:30Z","tX":252,"tY":372,"tags":{"addr:city":"West Salem","addr:housenumber":"5334","addr:postcode":"54669","addr:street":"Neshonoc Road","name":"Neshonoc Lakeside Camp Resort","operator":"Neshonoc Lakeside Camp Resort","phone":"+1-608-786-1792","website":"https://www.neshonoclakeside.com/"}},"3993068086":{"location":[44.057368,-91.2815206],"ct":"US","tp":"CS","ts":"2016-08-08T21:03:17Z","tX":252,"tY":372,"tags":{"name":"Staff Row"}},"4341390711":{"location":[44.0553164,-91.2820562],"ct":"US","tp":"CS","ts":"2016-08-08T16:56:12Z","tX":252,"tY":372,"tags":{"name":"Arapahoe"}},"4341748765":{"location":[44.0634014,-91.283668],"ct":"US","tp":"CS","ts":"2016-08-08T20:44:09Z","tX":252,"tY":372,"tags":{"name":"Champions Riverside Resort"}},"7154601214":{"location":[43.8919414,-91.1172698],"ct":"US","tp":"CS","ts":"2021-09-07T00:32:42Z","tX":252,"tY":372,"tags":{"addr:city":"West Salem","addr:housenumber":"N4668","addr:postcode":"54669","addr:state":"WI","addr:street":"County Road VP","capacity":"120","drinking_water":"yes","name":"Veterans Memorial County Park & Campground","phone":"+1-608-789-8599","power_supply":"yes","sanitary_dump_station":"yes","shower":"yes","toilets:type":"flush"}},"7262202505":{"location":[43.9405604,-91.3911578],"ct":"US","tp":"CS","ts":"2020-03-04T00:44:50Z","tX":252,"tY":372,"tags":{"access":"yes","backcountry":"yes","capacity":"4","fee":"yes","name":"Cart in Sites"}}}