{"4117839057":{"location":[43.1542554,-91.2282767],"ct":"US","tp":"CS","ts":"2016-04-13T01:31:39Z","tX":252,"tY":375,"tags":{"name":"Brown's Hollow Camp"}},"4117839058":{"location":[43.1661535,-91.2596572],"ct":"US","tp":"CS","ts":"2016-04-13T01:31:39Z","tX":252,"tY":375,"tags":{"name":"Camp Glen Wendel"}},"4117839059":{"location":[43.1585033,-91.2496344],"ct":"US","tp":"CS","ts":"2016-04-13T01:31:39Z","tX":252,"tY":375,"tags":{"name":"Camp John Schultz"}},"4117839060":{"location":[43.1721939,-91.2153256],"ct":"US","tp":"CS","ts":"2016-04-13T01:31:39Z","tX":252,"tY":375,"tags":{"name":"Heffern's Hill Camp"}},"7155365103":{"location":[43.1815053,-91.232734],"ct":"US","tp":"CS","ts":"2020-01-24T04:28:23Z","tX":252,"tY":375,"tags":{"addr:city":"Harpers Ferry,","addr:state":"IA","capacity":"80","drinking_water":"yes","name":"Little Paint Creek  Campground","toilets":"yes"}},"7155365106":{"location":[43.1738889,-91.2524705],"ct":"US","tp":"CS","ts":"2020-01-24T04:31:02Z","tX":252,"tY":375,"tags":{"addr:city":"Harpers Ferry","addr:state":"IA","capacity":"48","drinking_water":"yes","name":"Big Paint  Creek Campground","tents":"yes","toilets":"yes"}},"7157667009":{"location":[43.152143,-91.141927],"ct":"US","tp":"CS","ts":"2024-10-09T05:37:34Z","tX":252,"tY":375,"tags":{"addr:city":"Eastman","addr:housenumber":"28741","addr:state":"WI","addr:street":"Frenchmans Landing Drive","cabins":"yes","charge":"25 USD","drinking_water":"yes","fee":"yes","internet":"wifi","name":"Frenchman's Landing Campground","phone":"(608) 874-4563","power_supply":"yes","tents":"yes"}},"7286087960":{"location":[43.1691138,-91.1786781],"ct":"US","tp":"CS","ts":"2020-03-11T21:16:00Z","tX":252,"tY":375,"tags":{"access":"permissive","backcountry":"yes","capacity":"20","fee":"no","name":"Camp Terry Hennesy","note":"must register at park headquarters","operator":"iowa dnr"}}}