{"11248362":{"location":[43.0269289,-91.1415724],"ct":"US","tp":"CS","ts":"2020-06-28T01:05:39Z","tX":252,"tY":376,"tags":{"name":"Big River Campground"}},"738049913":{"location":[42.9169175,-91.1172646],"ct":"US","tp":"CS","ts":"2022-08-01T13:05:22Z","tX":252,"tY":376,"tags":{"name":"Bolder Creek  Campground"}},"1357001353":{"location":[42.977648,-91.123087],"ct":"US","tp":"CS","ts":"2025-02-05T19:37:02Z","tX":252,"tY":376,"tags":{"access":"yes","addr:city":"Bagley","addr:housenumber":"13801","addr:state":"WI","addr:street":"State Park Lane","capacity":"109","caravans":"yes","charge":"35 USD","drinking_water":"yes","fee":"yes","name":"Homestead Campground","operator":"Wisconsin DNR","power_supply":"yes","reservation":"yes","shower":"yes","tents":"yes","toilets":"yes","website":"https://dnr.wi.gov/topic/parks/name/wyalusing/"}},"1357001354":{"location":[42.9938698,-91.1147843],"ct":"US","tp":"CS","ts":"2025-02-05T19:37:02Z","tX":252,"tY":376,"tags":{"access":"yes","caravans":"yes","fee":"yes","name":"Wisconsin Ridge Campground","operator":"Wisconsin DNR","tents":"yes"}},"1357001355":{"location":[42.99114,-91.113045],"ct":"US","tp":"CS","ts":"2025-02-05T19:37:02Z","tX":252,"tY":376,"tags":{"access":"yes","capacity:persons":"130","name":"Outdoor Group Camp","operator":"Wisconsin DNR","tents":"yes"}},"1357001356":{"location":[42.9725584,-91.1296316],"ct":"US","tp":"CS","ts":"2025-02-05T19:37:02Z","tX":252,"tY":376,"tags":{"access":"yes","capacity:persons":"108","fee":"yes","name":"Hugh Harper Indoor Group Camp","operator":"Wisconsin DNR"}},"1376583161":{"location":[43.0331053,-91.3086542],"ct":"US","tp":"CS","ts":"2011-07-28T09:59:24Z","tX":252,"tY":376,"tags":{"name":"Spook Cave Campground"}},"2399584694":{"location":[42.9937557,-91.115781],"ct":"US","tp":"CS","ts":"2013-11-17T14:16:39Z","tX":252,"tY":376,"tags":{"name":"Wyalusing State Park Campground"}},"2399789059":{"location":[42.9943207,-91.165198],"ct":"US","tp":"CS","ts":"2023-09-21T03:54:18Z","tX":252,"tY":376,"tags":{"capacity":"77","drinking_water":"yes","fee":"yes","name":"Pikes Peak State Park","phone":"+1-563-873-2341","power_supply":"yes","reservation":"yes","shower":"yes","tents":"$6-$11","toilets:type":"flush"}},"2469539012":{"location":[42.8489561,-91.3955454],"ct":"US","tp":"CS","ts":"2024-08-26T05:15:41Z","tX":252,"tY":376,"tags":{"addr:city":"Elkader","addr:housenumber":"600","addr:state":"IA","addr:street":"High Street Southeast","capacity":"100","charge":"25 USD","drinking_water":"yes","fee":"yes","name":"Elkader City Park Campground","phone":"+1-563-245-2098","power_supply":"yes","seasonal":"spring;summer;autumn","toilets":"yes","website":"http://www.elkader-iowa.com/business-categories/campgrounds.html"}},"2469563989":{"location":[42.8530489,-91.3983749],"ct":"US","tp":"CS","ts":"2013-09-24T02:39:04Z","tX":252,"tY":376,"tags":{"name":"Deer Run Resort","source":"http://www.deerrunresort.net"}},"5085109517":{"location":[42.8984023,-91.0906887],"ct":"US","tp":"CS","ts":"2020-01-25T00:20:53Z","tX":252,"tY":376,"tags":{"addr:city":"Bagley","addr:state":"WI","capacity":"100","name":"River of Lakes Riverfront Campground"}},"7157638060":{"location":[42.9788152,-91.1207241],"ct":"US","tp":"CS","ts":"2024-10-09T05:37:34Z","tX":252,"tY":376,"tags":{"addr:city":"Bagley","addr:housenumber":"13801","addr:state":"WI","addr:street":"State Park Lane","capacity":"109","charge":"35 USD","drinking_water":"yes","fee":"yes","name":"Wyalusing State Park Campground","power_supply":"yes","reservation":"yes","shower":"yes","toilets":"yes","website":"https://dnr.wi.gov/topic/parks/name/wyalusing/"}},"7157651019":{"location":[42.8470871,-91.1064281],"ct":"US","tp":"CS","ts":"2023-09-21T03:54:18Z","tX":252,"tY":376,"tags":{"addr:city":"Guttenberg","addr:housenumber":"26254","addr:postcode":"52052","addr:state":"IA","addr:street":"Mississippi Road","capacity":"3","fee":"no","name":"Frenchtown Park","phone":"+1-563-245-1516"}},"7157677667":{"location":[43.0406808,-91.2219914],"ct":"US","tp":"CS","ts":"2024-08-26T05:15:41Z","tX":252,"tY":376,"tags":{"addr:city":"Marquette","addr:housenumber":"29857","addr:postcode":"52157","addr:state":"IA","addr:street":"128th St.","backcountry":"yes","capacity":"19","charge":"10 USD","fee":"yes","name":"Bloody Run Campground","seasonal":"spring;summer;autumn"}},"7184730445":{"location":[43.0419439,-91.391056],"ct":"US","tp":"CS","ts":"2024-08-26T05:15:41Z","tX":252,"tY":376,"tags":{"addr:city":"Monona","addr:state":"IA","addr:street":"Main Street","charge":"20 USD","drinking_water":"yes","fee":"yes","name":"Gateway Campground and Park","power_supply":"yes","sanitary_dump_station":"yes","toilets":"yes","website":"https://www.cityofmonona.org/things-to-do/camping/"}},"7419638639":{"location":[43.0396351,-91.2174547],"ct":"US","tp":"CS","ts":"2025-01-26T07:42:12Z","tX":252,"tY":376,"tags":{"addr:city":"Marquette","addr:state":"IA","capacity":"20","charge":"10 USD","fee":"yes","name":"Bloody Run Park","phone":"+1-563-245-1516","toilets":"vault"}},"10911627409":{"location":[43.0437055,-91.2134149],"ct":"US","tp":"CS","ts":"2023-05-19T16:06:41Z","tX":252,"tY":376,"tags":{}}}