{"53898729":{"location":[54.9439945,8.3277682],"ct":"DE","tp":"CS","ts":"2023-09-02T09:16:08Z","tX":535,"tY":324,"tags":{"addr:city":"Wenningstedt-Braderup (Sylt)","addr:country":"DE","addr:housenumber":"3","addr:postcode":"25996","addr:street":"Osetal","addr:suburb":"Wenningstedt","capacity:tents":"44","caravans":"232","dog":"yes","email":"camp@wenningstedt.de","fax":"+49 4651 944006","internet":"wlan","internet_access":"wlan","internet_access:fee":"yes","name":"Camping Wenningstedt","phone":"+49 4651 944004","power_supply":"yes","sanitary_dump_station":"yes","tents":"yes","website":"https://campingplatz.wenningstedt.de/","wheelchair":"yes"}},"116870315":{"location":[54.8623711,8.2954777],"ct":"DE","tp":"CS","ts":"2023-07-30T10:12:14Z","tX":535,"tY":324,"tags":{"addr:city":"Sylt","addr:country":"DE","addr:housenumber":"3","addr:postcode":"25980","addr:street":"Hörnumer Straße","addr:suburb":"Rantum","capacity:tents":"50","caravans":"yes","dog":"yes","drinking_water":"yes","email":"info@camping-rantum.de","fax":"+49 4651 834062","internet_access":"wlan","internet_access:fee":"yes","name":"Camping Rantum","phone":"+49 4651 8892008","power_supply":"yes","sanitary_dump_station":"customers","shower":"yes","tents":"yes","toilets":"yes","toilets:wheelchair":"yes","website":"https://www.camping-rantum.de/","wheelchair":"yes"}},"128503908":{"location":[54.8938456,8.2971712],"ct":"DE","tp":"CS","ts":"2020-11-04T14:36:57Z","tX":535,"tY":324,"tags":{"addr:city":"Sylt","addr:country":"DE","addr:housenumber":"66","addr:postcode":"25980","addr:street":"Süderstraße","addr:suburb":"Westerland","caravans":"yes","dog":"yes","email":"info@duenen-camping.de","fax":"+49 4651 2991940","name":"Dünencamping Westerland","phone":"+49 4651 2991939","power_supply":"yes","sanitary_dump_station":"yes","tents":"yes","website":"https://duenencamping-westerland.de/","wheelchair":"limited"}},"128889883":{"location":[54.9494342,8.3331136],"ct":"DE","tp":"CS","ts":"2024-08-20T13:01:53Z","tX":535,"tY":324,"tags":{"addr:city":"Kampen (Sylt)","addr:country":"DE","addr:housenumber":"4","addr:postcode":"25999","addr:street":"Möwenweg","caravans":"yes","dog":"yes","email":"anfrage@campen-in-kampen.de","fax":"+49 4651 46235","internet_access":"wlan","name":"Campingplatz Kampen","opening_hours":"Mar 15-Oct 30","operator":"Harald Hebestreit","phone":"+49 4651 42086","power_supply":"yes","sanitary_dump_station":"yes","tents":"yes","website":"https://www.campen-in-kampen.de/"}},"132628890":{"location":[54.7828608,8.2896769],"ct":"DE","tp":"CS","ts":"2023-03-31T11:04:36Z","tX":535,"tY":324,"tags":{"addr:city":"Hörnum (Sylt)","addr:country":"DE","addr:housenumber":"100","addr:postcode":"25997","addr:street":"Rantumer Straße","capacity":"110","caravans":"no","email":"anfrage@strandlaeufernest.de","fax":"+49 4651 886191","name":"Strandläufernest","opening_hours":"May 15-Sep 1","operator":"Nordelbische Evangelisch-Lutherische Kirche (NEK)","phone":"+49 4651 881535","scout":"yes","tents":"no","website":"https://sln.strandlaeufernest.de/"}},"172248623":{"location":[54.8956402,8.3258323],"ct":"DE","tp":"CS","ts":"2022-04-01T16:30:14Z","tX":535,"tY":324,"tags":{"addr:city":"Sylt","addr:country":"DE","addr:housenumber":"2","addr:postcode":"25980","addr:street":"Ziegeleiweg","addr:suburb":"Tinnum","caravans":"yes","dog":"yes","email":"dau.sylt@t-online.de","fax":"+49 4651 3619","internet_access":"wlan","name":"Campingplatz Südhörn","phone":"+49 4651 3607","power_supply":"yes","start_date":"1969-12-29","tents":"yes","website":"https://www.campingplatz-suedhoern.de/","wheelchair":"limited"}},"172249655":{"location":[54.8659215,8.4224287],"ct":"DE","tp":"CS","ts":"2023-10-15T11:29:14Z","tX":535,"tY":324,"tags":{"addr:city":"Sylt","addr:country":"DE","addr:housenumber":"7","addr:postcode":"25980","addr:street":"Melnstich","addr:suburb":"Morsum","caravans":"yes","dog":"yes","email":"info@campingplatz-sylt.de","fax":"+49 4651 978011","internet_access":"wlan","internet_access:fee":"no","name":"Campingplatz Mühlenhof","operator":"Campingplatz Mühlenhof Betriebs GmbH","payment:cash":"yes","payment:girocard":"yes","permanent_camping":"yes","phone":"+49 4651 890444","tents":"yes","website":"https://www.campingplatz-sylt.de/"}},"686888361":{"location":[54.7775908,8.2834321],"ct":"DE","tp":"CS","ts":"2024-01-22T20:08:22Z","tX":535,"tY":324,"tags":{"capacity:persons":"250","caravans":"no","description":"Der Jugendzeltplatz Möskendeel liegt außerhalb des Ortes Hörnum und ist nur durch eine Dünenkette vom Nordseestrand getrennt.","drinking_water":"yes","fee":"yes","group_only":"yes","name":"Jugendzeltplatz Möskendeel","operator":"Gemeinnütziger Verein für Jugenderholung e.V.","reservation":"required","shower":"yes","tents":"yes","toilets":"yes","website":"https://gvfj.de/jugendzeltplatz-hoernum/"}},"11070265189":{"location":[54.9039023,8.3247727],"ct":"DE","tp":"CS","ts":"2024-10-14T08:21:29Z","tX":535,"tY":324,"tags":{"abandoned":"yes","access":"yes","addr:city":"Sylt","addr:housenumber":"25","addr:postcode":"25980","addr:street":"Keitumer Landstraße","check_date":"2024-08-19","description":"Protestcamp für ein solidarisches Miteinander vom 22. Juli bis 1. September 2024","disused":"yes","dog":"leashed","drinking_water":"yes","email":"info@aktion-sylt.org","end_date":"2024-09-01","fee":"no","fixme":"Temporäre Veranstaltung, die im Grunde auf der Hauptkarte von OSM nicht gemappt werden sollte.","internet_access":"no","name":"Aktion Sylt","openfire":"no","operator":"Aktion Sylt","picnic_table":"yes","power_supply":"yes","render":"no","shower":"no","start_date":"2024-07-22","tents":"yes","toilets":"yes","website":"https://aktion-sylt.de","wheelchair":"limited"}},"6404626349":{"location":[54.8642377,8.2957506],"ct":"DE","tp":"SD","ts":"2024-06-16T15:16:06Z","tX":535,"tY":324,"tags":{"access":"customers","operator":"Campingplatz Rantum Sylt Tourismus GmbH"}},"10914491340":{"location":[54.9429626,8.327261],"ct":"DE","tp":"SD","ts":"2023-05-20T18:10:03Z","tX":535,"tY":324,"tags":{"access":"customers","operator":"Campingplatz Wenningstedt"}}}