{"38076181":{"location":[54.6281627,8.3661883],"ct":"DE","tp":"CS","ts":"2022-09-20T19:08:35Z","tX":535,"tY":325,"tags":{"addr:city":"Wittdün auf Amrum","addr:housenumber":"125","addr:postcode":"25946","addr:street":"Inselstraße","caravans":"yes","drinking_water":"yes","email":"mail.info@camping-amrum.de","fee":"yes","internet_access":"wlan","name":"Dünencamping Amrum","opening_hours":"Apr 01-Oct 31","phone":"+49 4682 5119770","shower":"yes","tents":"yes","toilets":"yes","website":"https://www.camping-amrum.de"}},"38534113":{"location":[54.6290784,8.3522121],"ct":"DE","tp":"CS","ts":"2025-05-18T13:23:37Z","tX":535,"tY":325,"tags":{"access":"private","addr:city":"Wittdün auf Amrum","addr:country":"DE","addr:housenumber":"127","addr:postcode":"25946","addr:street":"Inselstraße","camp_site":"deluxe","camping":"nudism","caravans":"no","contact:phone":"+49 4682 9681555","fee":"no","name":"FKK-Zeltplatz Amrum","nudism":"yes","operator":"Amrumer Sport- und Naturistenverein e.V.","source":"local_knowledge, shape estimated","static_caravans":"no","tents":"yes","website":"https://fkk-zeltplatz-amrum.de/"}},"76782881":{"location":[54.7670733,8.2837827],"ct":"DE","tp":"CS","ts":"2022-08-18T13:18:55Z","tX":535,"tY":325,"tags":{"addr:city":"Hörnum (Sylt)","addr:country":"DE","addr:housenumber":"31","addr:postcode":"25997","addr:street":"Rantumer Straße","caravans":"yes","dog":"leashed","email":"campingplatz@hoernum.de","fax":"+49 4651 8358488","fee":"yes","internet_access":"wlan","name":"Campingplatz Hörnum","opening_hours":"Apr 01-Oct 31: 09:00-20:00","payment:apple_pay":"yes","payment:cash":"yes","payment:credit_cards":"yes","payment:ec":"yes","payment:google_pay":"yes","phone":"+49 4651 8358431","power_supply":"yes","tents":"yes","website":"https://hoernum.de/de/service-camping/wohnmobilstellplatz.php","wheelchair":"no"}},"172333119":{"location":[54.7640054,8.2833067],"ct":"DE","tp":"CR","ts":"2021-04-16T08:43:30Z","tX":535,"tY":325,"tags":{"name":"Wohnmobilstellplatz Hörnum","note":"Der Platz wird per Kamera überwacht. Die Monitore befinden sich im Büro des Verwalters.","website":"https://www.hoernum.de/buchen/camping#c19358"}},"395174414":{"location":[54.7165208,8.4016203],"ct":"DE","tp":"CR","ts":"2023-06-17T21:17:05Z","tX":535,"tY":325,"tags":{"addr:city":"Utersum","addr:housenumber":"14","addr:postcode":"25938","addr:street":"Strunwai","capacity":"62","dog":"yes","drinking_water":"yes","fee":"yes","internet_access":"wlan","internet_access:fee":"no","kitchen":"yes","name":"Wohnmobilstellplatz Föhr","operator":"UWS Sörensen GbR","power_supply":"yes","reservation":"recommended","sanitary_dump_station":"yes","shower":"yes","tents":"no","toilets":"yes","washing_machine":"yes","water_point":"yes","website":"https://wohnmobile-foehr.de/","wheelchair":"yes"}},"9959532029":{"location":[54.7663792,8.2827387],"ct":"DE","tp":"SD","ts":"2022-08-17T15:22:58Z","tX":535,"tY":325,"tags":{}}}