{"59859504":{"location":[53.5970765,8.3582085],"ct":"DE","tp":"CS","ts":"2025-06-09T17:02:34Z","tX":535,"tY":330,"tags":{"caravans":"yes","internet_access":"no","name":"Campingplatz Fischerdorf","operator":"Kähler","payment:cash":"yes","tents":"yes","website":"https://www.campingplatz-fischerdorf.de"}},"59863761":{"location":[53.5960754,8.3574739],"ct":"DE","tp":"CR","ts":"2023-10-31T14:54:52Z","tX":535,"tY":330,"tags":{"addr:city":"Butjadingen","addr:housenumber":"1","addr:postcode":"26969","addr:street":"Lagunenweg","capacity":"80","contact:email":"info@reisemobil-hafen.de","contact:fax":"+49 4733 1740017","contact:phone":"+49 4733 1552","fee":"yes","internet_access":"wlan","internet_access:fee":"no","internet_access:ssid":"Nordwest-Freifunk","name":"Henken's Reisemobilhafen","power_supply":"yes","sanitary_dump_station":"yes","website":"https://www.reisemobil-hafen.de/"}},"70706303":{"location":[53.5770738,8.2432358],"ct":"DE","tp":"CS","ts":"2023-09-14T20:18:08Z","tX":535,"tY":330,"tags":{"addr:city":"Butjadingen","addr:housenumber":"1","addr:postcode":"26969","addr:street":"Am Friesenstrand","caravans":"yes","contact:phone":"+49 431 2372370","contact:website":"https://www.regenbogen.ag/ferienanlagen/tossens.html","name":"Regenbogen Tossens","tents":"yes","toilets:wheelchair":"yes","wheelchair":"yes"}},"168056745":{"location":[53.5928864,8.3610114],"ct":"DE","tp":"CS","ts":"2012-06-18T20:33:43Z","tX":535,"tY":330,"tags":{}},"168818103":{"location":[53.5804754,8.377147],"ct":"DE","tp":"CS","ts":"2025-06-08T22:50:21Z","tX":535,"tY":330,"tags":{"description":"Stellplatz vor der Schranke","fee":"yes","name":"Campingplatz Nordseeblick","operator":"Helmut Knaus KG","phone":"+49 4733 1683","power_supply":"yes","sanitary_dump_station":"yes","water_point":"yes","website":"https://www.knauscamp.de/burhave-nordsee.html"}},"168830152":{"location":[53.5847048,8.3695344],"ct":"DE","tp":"CS","ts":"2020-06-14T11:38:20Z","tX":535,"tY":330,"tags":{"name":"KNAUS Campingpark"}},"283335966":{"location":[53.5891616,8.0865826],"ct":"DE","tp":"CS","ts":"2025-01-31T13:23:19Z","tX":535,"tY":330,"tags":{"access":"private","name":"Camping-Club Grüner Wald","permanent_camping":"yes","power_supply":"yes","website":"https://www.camping-club-gruener-wald-whv.de/"}},"386647554":{"location":[53.5774592,8.2461],"ct":"DE","tp":"CR","ts":"2023-10-31T14:54:38Z","tX":535,"tY":330,"tags":{"addr:city":"Butjadingen","addr:housenumber":"35","addr:postcode":"26969","addr:street":"Nordseeallee","capacity":"5","fee":"yes","internet_access":"wlan","name":"Stellplatz am Kurhotel Strandhof","operator":"Kurhotel Strandhof","power_supply":"yes","website":"https://strandhof.de/"}},"418514520":{"location":[53.5934116,8.3593958],"ct":"DE","tp":"CR","ts":"2016-05-16T08:53:09Z","tX":535,"tY":330,"tags":{"name":"Butjadinger Yachtclub"}},"612058069":{"location":[53.5838836,8.3712317],"ct":"DE","tp":"CR","ts":"2025-01-30T00:56:20Z","tX":535,"tY":330,"tags":{"addr:city":"Butjadingen","addr:street":"An der Nordseelagune","capacity":"135","caravan_site":"motorhome_stopover","caravan_site:type":"beach;camp_site","charge":"34.60 EUR","fee":"yes","name":"Burhave Wohnmobilstellplatz","opening_hours":"Apr 15-Oct 15","operator":"Regenbogen","power_supply":"yes","power_supply:fee":"yes","sanitary_dump_station":"yes","seasonal":"no","water_point":"yes","website":"https://www.regenbogen.ag/camping.html"}},"1283226418":{"location":[53.578643,8.2444884],"ct":"DE","tp":"CR","ts":"2024-06-19T07:34:20Z","tX":535,"tY":330,"tags":{"addr:city":"Butjadingen","addr:postcode":"26969","name":"Wohnmobilhafen Regenbogen Tossens","payment:app":"Pay & Park","sanitary_dump_station":"yes"}},"1336835354":{"location":[53.5701793,8.1030299],"ct":"DE","tp":"CR","ts":"2024-11-22T13:38:26Z","tX":535,"tY":330,"tags":{"capacity":"6","caravan_site":"motorhome_stopover","caravan_site:type":"swimming_pool","charge":"8 EUR","fee":"yes","name":"Wohnmobil-Parkplatz Freibad Nord Wilhelmshaven","seasonal":"yes","shower":"yes","shower:fee":"no","toilets":"yes","toilets:fee":"no","website":"https://freibad-nord.de/Wohnmobil-Parkplatz.html","wheelchair":"yes"}},"3656243390":{"location":[53.5701765,8.1030407],"ct":"DE","tp":"CR","ts":"2017-06-14T11:20:16Z","tX":535,"tY":330,"tags":{"wheelchair":"yes"}},"5794266201":{"location":[53.5832535,8.3720301],"ct":"DE","tp":"SD","ts":"2024-06-16T16:10:43Z","tX":535,"tY":330,"tags":{"description":"Entsorgung und Versorgung","fee":"no"}},"5873136404":{"location":[53.5849917,8.368814],"ct":"DE","tp":"SD","ts":"2020-06-07T16:05:01Z","tX":535,"tY":330,"tags":{"fee":"no","water_point":"no"}},"7600312409":{"location":[53.5966379,8.3561688],"ct":"DE","tp":"SD","ts":"2020-06-07T16:01:49Z","tX":535,"tY":330,"tags":{"fee":"no","operator":"Henkens Wohnmobil Stellplatz"}},"11906854862":{"location":[53.5789329,8.2437238],"ct":"DE","tp":"SD","ts":"2024-05-15T10:44:43Z","tX":535,"tY":330,"tags":{}}}