{"25315036":{"location":[53.4496219,8.1162554],"ct":"DE","tp":"CS","ts":"2023-06-07T21:25:30Z","tX":535,"tY":331,"tags":{"addr:city":"Varel","addr:housenumber":"60","addr:postcode":"26316","addr:street":"Edo-Wiemken-Straße","addr:suburb":"Dangast","area":"yes","caravans":"yes","dog":"yes","drinking_water":"yes","internet_access":"yes","internet_access:fee":"no","name":"Campingplatz Rennweide","opening_hours":"Apr-Oct","reservation":"yes","tents":"yes","website":"https://www.rennweide.de/","wheelchair":"yes"}},"32735588":{"location":[53.5101366,8.1273079],"ct":"DE","tp":"CR","ts":"2022-03-11T15:48:37Z","tX":535,"tY":331,"tags":{"access":"yes","capacity:disabled":"no","fee":"yes","name":"Fliegerdeich (Wohnmobile)","parking":"surface","wheelchair":"limited"}},"35967411":{"location":[53.5360462,8.0995786],"ct":"DE","tp":"CR","ts":"2024-01-14T17:31:22Z","tX":535,"tY":331,"tags":{"access":"customers","capacity:disabled":"no","contact:website":"https://nautimo.de/wohnmobilhafen.html","fee":"yes","name":"Wohnmobil-Parkplatz am Nautimo","parking":"surface","wheelchair":"limited"}},"54616494":{"location":[53.4506119,8.1298982],"ct":"DE","tp":"CS","ts":"2024-03-24T00:09:59Z","tX":535,"tY":331,"tags":{"addr:city":"Varel","addr:country":"DE","addr:housenumber":"40","addr:postcode":"26316","addr:street":"Auf der Gast","caravans":"yes","description":"Hunde nur im vorderen Teil, nicht auf dem Zeltplatz.","internet_access":"wlan","internet_access:fee":"yes","name":"Strandcampingplatz Dangast","note":"Geöffnet in der Saison April bis Oktober, keine Hunde erlaubt","operator":"Stadt Varel","payment:cash":"yes","payment:credit_cards":"yes","phone":"+49 4451 911422","power_supply":"yes","tents":"yes","website":"https://dangast.vend-it.de/","wheelchair":"yes"}},"70462060":{"location":[53.5221739,8.2349759],"ct":"DE","tp":"CS","ts":"2024-10-12T09:53:06Z","tX":535,"tY":331,"tags":{"caravans":"yes","contact:phone":"+49 4736 1300","contact:website":"https://www.knauscamp.de/eckwarderhoerne-nordsee.html","fee":"yes","name":"KNAUS Campingpark Eckwarderhörne","tents":"yes"}},"93087256":{"location":[53.3932519,8.2585973],"ct":"DE","tp":"CS","ts":"2024-08-16T14:16:26Z","tX":535,"tY":331,"tags":{"addr:city":"Jade","addr:country":"DE","addr:housenumber":"55","addr:postcode":"26349","addr:street":"Bäderstraße","backcountry":"no","caravans":"yes","check_date":"2024-08-16","contact:email":"info@nordsee-camping-jadebusen.de","contact:phone":"+49 4455 310","dog":"leashed","drinking_water":"yes","fax":"+49 4455 9996248","fee":"yes","mobile":"+49 1609 8726939","name":"Nordsee-Camping am Jadebusen","note":"Tel. Nov-März +49 4455 9996184","operator":"Fam. Jörg Droste","picnic_table":"yes","power_supply":"yes","reservation":"yes","sanitary_dump_station":"yes","shower":"yes","source":"local knowledge","static_caravans":"yes","tents":"yes","toilets":"yes","website":"https://www.nordsee-camping-jadebusen.de/","wheelchair":"yes"}},"110520483":{"location":[53.3394783,8.2405746],"ct":"DE","tp":"CS","ts":"2022-01-15T21:50:06Z","tX":535,"tY":331,"tags":{"email":"sibijade@t-online.de","landuse":"recreation_ground","name":"Camping an der Jade","phone":"+49 4454 978624","website":"http://www.camping-an-der-jade.com/Camping_an_der_Jade/Willkommen.html"}},"123756776":{"location":[53.4332112,8.1202391],"ct":"DE","tp":"CS","ts":"2023-10-31T21:40:18Z","tX":535,"tY":331,"tags":{"addr:city":"Varel","addr:country":"DE","addr:housenumber":"177","addr:postcode":"26316","addr:street":"Zum Jadebusen","name":"Camping auf dem Bauernhof Dangaster Weide","operator":"Theile Funke","phone":"+49 4451 6520","website":"https://www.bauernhof-pferdehof.de/","wheelchair":"yes"}},"276750945":{"location":[53.4358156,8.2957418],"ct":"DE","tp":"CR","ts":"2023-04-06T13:32:47Z","tX":535,"tY":331,"tags":{"fee":"yes","name":"Camping Sehestedt","power_supply":"no","sanitary_dump_station":"yes","tents":"yes","toilets":"no","water_point":"yes","wheelchair":"yes"}},"352770823":{"location":[53.3529829,8.1211072],"ct":"DE","tp":"CS","ts":"2015-06-12T06:30:52Z","tX":535,"tY":331,"tags":{}},"420412998":{"location":[53.5363783,8.0995071],"ct":"DE","tp":"SD","ts":"2015-04-29T00:43:32Z","tX":535,"tY":331,"tags":{"sanitary_dump_station:accepted":"black_water;tank_chemicals"}},"998190041":{"location":[53.5154516,8.0908465],"ct":"DE","tp":"CR","ts":"2021-11-01T16:22:55Z","tX":535,"tY":331,"tags":{"addr:city":"Wilhelmshaven","addr:housenumber":"12b","addr:postcode":"26389","addr:street":"Banter Weg","capacity":"15","charge":"10 €","fee":"yes","name":"Wohnmobilstellplatz Cleanpark","power_supply":"yes","sanitary_dump_station":"yes","water_point":"yes"}},"1221053937":{"location":[53.3432997,8.4271594],"ct":"DE","tp":"CR","ts":"2023-11-04T18:31:05Z","tX":535,"tY":331,"tags":{"capacity:caravans":"5","dog":"yes","fee":"no","name":"Sportplatz Ovelgönne","power_supply":"yes","power_supply:charge":"1 EUR/8 hours","sanitary_dump_station":"yes","shower":"no"}},"1308271160":{"location":[53.5107881,8.0888994],"ct":"DE","tp":"CR","ts":"2024-08-16T14:29:09Z","tX":535,"tY":331,"tags":{"addr:city":"Wilhelmshaven","addr:country":"DE","addr:housenumber":"10","addr:postcode":"26389","addr:street":"Bunsenstraße","contact:website":"https://wohnmobilstellplatz-jade.de/","name":"Wohnmobilstellplatz-Jade-Wilhelmshaven","operator":"SVG AG"}},"1476821353":{"location":[53.3914547,8.2661462],"ct":"DE","tp":"CR","ts":"2024-08-16T13:17:01Z","tX":535,"tY":331,"tags":{"check_date":"2024-08-16","fee":"no","internet_access":"no","name":"Stellplatz Varel-Schweiburg","power_supply":"yes","toilets":"no"}},"1947428493":{"location":[53.456466,8.3580337],"ct":"DE","tp":"CR","ts":"2013-05-08T12:25:01Z","tX":535,"tY":331,"tags":{"wheelchair":"yes"}},"2267304893":{"location":[53.4379529,8.2960607],"ct":"DE","tp":"CS","ts":"2024-10-16T08:02:44Z","tX":535,"tY":331,"tags":{"email":"info@sehestedt-jade.de","name":"Campingplatz Sehestedt","phone":"+49 4454 899450","tents":"yes","website":"https://www.nordseejadeweser.de/poi/campingplatz-sehestedt"}},"2487141913":{"location":[53.414421,8.2847096],"ct":"DE","tp":"CS","ts":"2018-09-10T09:39:15Z","tX":535,"tY":331,"tags":{"addr:city":"Jade","addr:country":"DE","addr:hamlet":"Norderschweiburg","addr:housenumber":"140","addr:postcode":"26349","addr:street":"Bäderstraße"}},"5775597970":{"location":[53.4264104,8.2985106],"ct":"DE","tp":"CS","ts":"2023-01-21T17:41:46Z","tX":535,"tY":331,"tags":{"addr:housenumber":"64","addr:street":"Molkereistraße","name":"Hoepkens Hof & Campingplatz","phone":"+49 4734 910 68 33","website":"https://moinurlaub.de/"}},"9080796738":{"location":[53.3438185,8.4271234],"ct":"DE","tp":"CS","ts":"2021-09-10T18:39:44Z","tX":535,"tY":331,"tags":{"access":"yes","addr:city":"Ovelgönne","addr:postcode":"26939","addr:street":"Am Sportplatz","capacity":"1","fee":"no","name":"Stellplatz","sanitary_dump_station":"yes"}},"5846915101":{"location":[53.450954,8.1296974],"ct":"DE","tp":"SD","ts":"2018-08-21T20:10:05Z","tX":535,"tY":331,"tags":{}},"10962273660":{"location":[53.4503684,8.1177087],"ct":"DE","tp":"SD","ts":"2023-06-07T21:25:30Z","tX":535,"tY":331,"tags":{"access":"customers","sanitary_dump_station:grey_water":"yes"}},"10962323621":{"location":[53.45003,8.1177641],"ct":"DE","tp":"SD","ts":"2023-06-07T21:25:30Z","tX":535,"tY":331,"tags":{"access":"customers","sanitary_dump_station:basin":"yes"}}}