{"18858283":{"location":[52.7045409,8.3065564],"ct":"DE","tp":"CS","ts":"2025-03-18T20:36:27Z","tX":535,"tY":334,"tags":{"addr:city":"Vechta","addr:housenumber":"21","addr:postcode":"49377","addr:street":"Moorkamp","camp_site":"serviced","caravans":"no","contact:website":"https://www.bdkj-jugendhof.de/zelten","drinking_water":"yes","fee":"yes","group_only":"yes","hot_water":"yes","kitchen":"yes","name":"BDKJ Jugendhof","reservation":"required","sanitary_dump_station":"yes","shower":"yes","static_caravans":"no","tents":"yes","toilets":"yes"}},"59298991":{"location":[52.8998095,8.3528912],"ct":"DE","tp":"CR","ts":"2022-07-18T13:09:45Z","tX":535,"tY":334,"tags":{"addr:city":"Wildeshausen","addr:country":"DE","addr:housenumber":"75","addr:place":"Aum端hle","addr:postcode":"27793","capacity":"110","email":"info@auecamp.de","internet_access":"wlan","internet_access:fee":"no","landuse":"commercial","name":"Auecamp","operator":"Aucamp GbR","phone":"+49 4431 9919969","power_supply":"yes","sanitary_dump_station":"customers","tents":"yes","website":"http://www.auecamp.de","wheelchair":"no"}},"186139764":{"location":[52.870896,8.2627914],"ct":"DE","tp":"CS","ts":"2022-09-30T07:29:16Z","tX":535,"tY":334,"tags":{"addr:city":"Visbek","addr:housenumber":"32","addr:place":"Kokenm端hle","addr:postcode":"49429","name":"Waldcampingplatz Kokenm端hle","operator":"Waldcampingplatz Kokenm端hle GmbH","website":"https://www.waldcamp-kokenmuehle-gmbh.de/index.html"}},"240034370":{"location":[52.9006503,8.4273406],"ct":"DE","tp":"CR","ts":"2024-03-29T15:49:39Z","tX":535,"tY":334,"tags":{"capacity":"22","caravans":"no","dog":"yes","fee":"yes","int_name":"Motorhome","motorhome":"yes","name":"Wohnmobilplatz \"Am Kandel\"","power_supply":"yes","tents":"no"}},"510735652":{"location":[52.7471429,8.2931546],"ct":"DE","tp":"PK","ts":"2025-02-01T12:26:29Z","tX":535,"tY":334,"tags":{"access":"private","caravans":"yes","name":"Wohnwagenhalteplatz Schmedes","opening_hours":"\"August market\"","power_supply":"yes"}},"510735653":{"location":[52.7456275,8.2950014],"ct":"DE","tp":"PK","ts":"2025-02-01T12:26:29Z","tX":535,"tY":334,"tags":{"access":"private","caravans":"yes","landuse":"grass","name":"Wohnwagenhalteplatz Oldehus","opening_hours":"\"August market\"","power_supply":"yes"}},"510735655":{"location":[52.7498744,8.2965723],"ct":"DE","tp":"CR","ts":"2021-12-21T17:48:59Z","tX":535,"tY":334,"tags":{"access":"private","name":"Wohnwagenhalteplatz Amtsmannsbult","power_supply":"yes"}},"1355932093":{"location":[52.7401888,8.2963614],"ct":"DE","tp":"CR","ts":"2025-02-01T12:26:29Z","tX":535,"tY":334,"tags":{"capacity":"5","caravan_site":"motorhome_stopover","caravan_site:type":"swimming_pool;town","fee":"no","maxstay":"3 days","name":"Reisemobilstellplatz Freibad Vechta","power_supply":"no","reservation":"no","sanitary_dump_station":"no","surface":"gravel_turf","water_point":"no","website":"https://nordkreis-vechta.de/reisemobilstellplatz-am-hallenwellen--und-freibad/25168"}},"3153374929":{"location":[52.7041679,8.3064287],"ct":"DE","tp":"SD","ts":"2021-05-16T21:16:59Z","tX":535,"tY":334,"tags":{}},"3991190673":{"location":[52.9004434,8.4269151],"ct":"DE","tp":"SD","ts":"2022-05-25T15:46:29Z","tX":535,"tY":334,"tags":{"access":"yes","fee":"yes","opening_hours":"24/7","sanitary_dump_station:basin":"yes","sanitary_dump_station:chemical_toilet":"yes","sanitary_dump_station:fee":"no","sanitary_dump_station:gravity":"yes","sanitary_dump_station:grey_water":"yes","sanitary_dump_station:round_drain":"yes","sanitary_dump_station:suction":"no"}},"8892289777":{"location":[52.8985301,8.2090707],"ct":"DE","tp":"CR","ts":"2023-12-08T00:41:11Z","tX":535,"tY":334,"tags":{"capacity:caravans":"3","fee":"no","name":"Am Bahnhof Ahlhorn","power_supply":"yes","power_supply:charge":"1 EUR/2 kWh hours","sanitary_dump_station":"yes","water_point":"yes","water_point:charge":"1 EUR/80 liter","website":"https://www.grossenkneten.de/portal/seiten/wohnmobilstellplatz-am-bahnhof-in-ahlhorn-900000182-22300.html"}}}