{"107029165":{"location":[52.4963517,8.354596],"ct":"DE","tp":"CS","ts":"2022-06-02T16:12:27Z","tX":535,"tY":335,"tags":{"addr:city":"Hüde","addr:housenumber":"13","addr:postcode":"49448","addr:street":"Ludwig-Gefe-Straße","name":"Campingplatz Duemmer See","operator":"Familie Dammeyer-Heseker","phone":"+49 5443 8228","url":"https://www.campingplatz-duemmersee.de/"}},"107029172":{"location":[52.4972985,8.3609617],"ct":"DE","tp":"CS","ts":"2020-01-15T12:27:17Z","tX":535,"tY":335,"tags":{"name":"Picksmeier Pienning"}},"107052469":{"location":[52.5012521,8.3549706],"ct":"DE","tp":"CS","ts":"2020-08-07T07:02:10Z","tX":535,"tY":335,"tags":{"addr:housenumber":"33","addr:street":"Rohrdommelweg","name":"Campingplatz Rohrdommel","phone":"+49 5443 20 30 34","website":"https://www.campingplatz-rohrdommel.de"}},"126640276":{"location":[52.5265948,8.3607047],"ct":"DE","tp":"CS","ts":"2024-08-25T20:28:28Z","tX":535,"tY":335,"tags":{"addr:city":"Lembruch","addr:housenumber":"41","addr:postcode":"49459","addr:street":"Birkenallee","area":"yes","caravans":"yes","name":"Camping am Hotel Seeblick","phone":"+49 5447 9211778","power_supply":"yes","tents":"yes","website":"http://www.hotel-seeblick-duemmersee.de/Hotel_Seeblick/Camping.html"}},"150841865":{"location":[52.5219091,8.3650341],"ct":"DE","tp":"CS","ts":"2023-05-30T11:22:55Z","tX":535,"tY":335,"tags":{"addr:housenumber":"2","addr:street":"Tiemanns-Hof","name":"Tiemannshof","name:de":"Tiemannshof","phone":"+49 5447 921339","website":"https://www.tiemanns-hof.de"}},"201194005":{"location":[52.4968741,8.3638826],"ct":"DE","tp":"CS","ts":"2024-08-28T19:15:27Z","tX":535,"tY":335,"tags":{"backcountry":"yes","caravans":"yes","landuse":"grass","name":"Campingplatz & Bootshafen Dümmer See","tents":"yes"}},"291997151":{"location":[52.6126488,8.3701625],"ct":"DE","tp":"CR","ts":"2024-07-30T23:46:55Z","tX":535,"tY":335,"tags":{"addr:city":"Diepholz","addr:country":"DE","addr:postcode":"49356","addr:street":"Am Heldenhain","capacity":"10","fee":"no","internet_access":"wlan","internet_access:fee":"no","name":"Wohnmobilstellplatz Diepholz","power_supply":"yes","sanitary_dump_station":"yes","website":"https://www.stadt-diepholz.de/freizeit-tourismus/wohnmobilstellplaetze/"}},"669494657":{"location":[52.5275284,8.3082274],"ct":"DE","tp":"CS","ts":"2023-11-04T03:13:39Z","tX":535,"tY":335,"tags":{"caravans":"no","fee":"yes","group_only":"yes","name":"Jugendzeltplatz am Dümmer See","openfire":"yes","reservation":"required","tents":"yes","website":"https://www.jfzduemmer.de/","wheelchair":"no"}},"1003490169":{"location":[52.5228915,8.3678861],"ct":"DE","tp":"CR","ts":"2023-05-30T11:22:55Z","tX":535,"tY":335,"tags":{"name":"Wohnmobilhafen Dümmer See"}},"1250827193":{"location":[52.6705821,8.2332902],"ct":"DE","tp":"CR","ts":"2024-08-05T20:43:43Z","tX":535,"tY":335,"tags":{"addr:city":"Lohne (Oldenburg)","addr:housenumber":"3","addr:postcode":"49393","addr:street":"Vechtaer Straße","caravan_site":"motorhome_stopover","caravan_site:type":"town","fee":"no","internet_access":"no","name":"Wohnmobil-Stellplätze am Lohneum","opening_hours":"24/7","operator":"Stadt Lohne","power_supply":"yes","power_supply:fee":"yes","sanitary_dump_station":"yes","website":"https://www.lohne.de/Dienstleistungen/Wohnmobilstellplaetze.html"}},"1668908533":{"location":[52.5245313,8.3669417],"ct":"DE","tp":"CR","ts":"2014-08-10T17:46:38Z","tX":535,"tY":335,"tags":{"fee":"no","name":"Dümer See / Lembruch","note":"keine Ver- und Entsorgung","wheelchair":"limited"}},"1668913689":{"location":[52.5300851,8.3099707],"ct":"DE","tp":"CR","ts":"2022-12-25T09:14:22Z","tX":535,"tY":335,"tags":{"access":"yes","fee":"no","internet_access":"no","name":"Dümmer See / Damme Dümmerlohausen","note":"Ver- und Entsorgung","power_supply":"yes","toilets":"no","wheelchair":"no"}},"2343668911":{"location":[52.4978027,8.3575945],"ct":"DE","tp":"CS","ts":"2024-08-22T10:11:55Z","tX":535,"tY":335,"tags":{"addr:city":"Hüde","addr:housenumber":"24","addr:postcode":"49448","addr:street":"Ludwig-Gefe-Straße","email":"info@camping-am-duemmer.de","fax":"+49 5443 929688","name":"Leckermeyer-Hannker","operator":"Fam. Leckermeyer-Hannker","permanent_camping":"only","phone":"+49 5443 8869","website":"https://www.camping-am-duemmer.de/"}},"2955084780":{"location":[52.612872,8.3704136],"ct":"DE","tp":"SD","ts":"2015-04-29T00:43:31Z","tX":535,"tY":335,"tags":{"sanitary_dump_station:accepted":"black_water;tank_chemicals"}},"3978735527":{"location":[52.5781887,8.1143904],"ct":"DE","tp":"CR","ts":"2019-10-02T04:34:39Z","tX":535,"tY":335,"tags":{"fee":"yes","name":"Wohnmobilstellplatz Heidesee","power_supply":"cee_17_blue","sanitary_dump_station":"customers","water_point":"yes"}},"12126652901":{"location":[52.4945663,8.352077],"ct":"DE","tp":"CS","ts":"2024-08-22T10:11:56Z","tX":535,"tY":335,"tags":{"name":"Rennegarbe-Keßmann"}},"6805878188":{"location":[52.5083735,8.1032254],"ct":"DE","tp":"CR","ts":"2021-06-20T20:39:36Z","tX":535,"tY":335,"tags":{"capacity":"2","email":"info@wahlde.de","fee":"yes","name":"Hotel Cafe Wahlde","phone":"+49 5493 733","power_supply":"yes","website":"https://www.wahlde.de"}},"8440591898":{"location":[52.4894786,8.1839454],"ct":"DE","tp":"CR","ts":"2021-02-20T12:41:22Z","tX":535,"tY":335,"tags":{"contact:phone":"+49 5491 1400","name":"Flugplatz Damme","operator":"Verkehrslandeplatz Damme Betriebsgesellschaft mbH","website":"https://www.flugplatz-damme.de"}},"5134503783":{"location":[52.5294277,8.3093556],"ct":"DE","tp":"SD","ts":"2017-09-28T06:58:38Z","tX":535,"tY":335,"tags":{"access":"yes","fee":"yes","sanitary_dump_station:chemical_toilet":"yes","sanitary_dump_station:grey_water":"yes"}},"6842606972":{"location":[52.5781706,8.1148048],"ct":"DE","tp":"SD","ts":"2019-10-02T04:34:39Z","tX":535,"tY":335,"tags":{"access":"customers","sanitary_dump_station:basin":"yes","sanitary_dump_station:grey_water":"yes"}}}