{"1289160":{"location":[50.6024316,8.1177753],"ct":"DE","tp":"CS","ts":"2023-05-30T10:30:26Z","tX":535,"tY":344,"tags":{"caravans":"no","email":"westernohe@dpsg.de","fax":"+49 2664 50749","group_only":"yes","landuse":"recreation_ground","name":"Bundeszentrum Westernohe der Deutschen Pfadfinderschaft Sankt Georg - Kirschbaum","phone":"+49 2664 5070","scout":"yes","tents":"yes","website":"https://bundeszentrum.dpsg.de"}},"12744452":{"location":[50.5948435,8.1133792],"ct":"DE","tp":"CS","ts":"2021-05-22T18:07:12Z","tX":535,"tY":344,"tags":{"caravans":"no","email":"westernohe@dpsg.de","fax":"+49 2664 50749","group_only":"yes","landuse":"recreation_ground","name":"Bundeszentrum Westernohe der Deutschen Pfadfinderschaft St. Georg - Altenberg","phone":"+49 2664 5070","scout":"yes","tents":"yes","website":"https://bundeszentrum.dpsg.de"}},"55590540":{"location":[50.5511274,8.3528282],"ct":"DE","tp":"CS","ts":"2022-06-11T15:21:27Z","tX":535,"tY":344,"tags":{"addr:street":"Limburger Straße","contact:mobile":"+49 1577 1537399","email":"remigius-gruber@freenet.de","fee":"yes","name":"Stell- und Zeltplatz Lahnwiese","nohousenumber":"yes","opening_hours":"09:00-21:00; Nov-Feb off","operator":"Remigius Gruber","phone":"+49 1577 153 7399","wheelchair":"yes"}},"91492137":{"location":[50.6052597,8.2687829],"ct":"DE","tp":"CS","ts":"2024-07-24T12:40:14Z","tX":535,"tY":344,"tags":{"caravans":"yes","drinking_water":"yes","fax":"+49 2779 1538","internet_access":"wlan","name":"Ulmtalsperre","phone":"+49 2779 349","power_supply":"yes","sanitary_dump_station":"yes","shower":"yes","tents":"yes","toilets":"yes","website":"https://camping-ulmtal.de/","wheelchair":"limited"}},"99466671":{"location":[50.5852365,8.2460434],"ct":"DE","tp":"CS","ts":"2012-07-20T05:48:20Z","tX":535,"tY":344,"tags":{"name":"CVJM Freizeitzentrum"}},"114516886":{"location":[50.5144385,8.1738741],"ct":"DE","tp":"CS","ts":"2019-10-26T18:50:31Z","tX":535,"tY":344,"tags":{"name":"Campingplatz Vöhler-Weiher","phone":"+49 647152120","website":"https://camping-vöhler-weiher.de"}},"144885572":{"location":[50.5480382,8.1466119],"ct":"DE","tp":"CS","ts":"2018-10-03T15:05:19Z","tX":535,"tY":344,"tags":{"name":"Campingplatz Seeweiher"}},"242050991":{"location":[50.719216,8.1215629],"ct":"DE","tp":"CS","ts":"2023-12-11T20:15:18Z","tX":535,"tY":344,"tags":{"access":"private","barrier":"fence","note":"nicht öffentlich"}},"275350912":{"location":[50.5148267,8.385924],"ct":"DE","tp":"CR","ts":"2023-01-21T17:13:34Z","tX":535,"tY":344,"tags":{"capacity":"4","contact:email":"touristinfo@braunfels.de","contact:phone":"+49 6442 9344-0","fee":"yes","name":"Jahnplatz","operator":"Stadt Braunfels","power_supply":"yes","sanitary_dump_station":"yes","water_point":"yes","website":"https://braunfels-erleben.de/neues-infoschild-informiert-wohnmobilisten-am-jahnplatz/","wheelchair":"yes"}},"358746542":{"location":[50.6518437,8.1690406],"ct":"DE","tp":"CS","ts":"2023-11-04T20:34:59Z","tX":535,"tY":344,"tags":{"addr:city":"Driedorf","addr:housenumber":"3","addr:postcode":"35759","addr:street":"Am Weiher","caravans":"yes","name":"Campingplatz Heisterberger Weiher","phone":"+49 2775-458","tents":"yes","website":"https://www.camping-heisterberger-weiher.de/"}},"421000252":{"location":[50.6188177,8.1244873],"ct":"DE","tp":"CS","ts":"2024-02-20T14:00:33Z","tX":535,"tY":344,"tags":{"name":"Welters Camping und Freizeitparadies","wheelchair":"yes"}},"435428870":{"location":[50.6016427,8.375471],"ct":"DE","tp":"CR","ts":"2020-08-14T10:33:57Z","tX":535,"tY":344,"tags":{"capacity":"2","fee":"no","name":"Stellplatz am Haverhill-Bad","operator":"Gemeinde Ehringshausen","power_supply":"no","sanitary_dump_station":"no","tents":"no","water_point":"no"}},"443194775":{"location":[50.551474,8.3529697],"ct":"DE","tp":"CR","ts":"2021-12-31T22:54:01Z","tX":535,"tY":344,"tags":{"capacity":"8","contact:email":"remigius-gruber@freenet.de","contact:mobile":"+49 1577 1537399","contact:phone":"+49 6473 7569950","fee":"yes","operator":"Remigius Gruber","power_supply":"yes","sanitary_dump_station":"no","website":"https://www.freizeit-mittelhessen.de/stell-und-zeltplatz-lahnwiese-leun.html","wheelchair":"limited"}},"505347888":{"location":[50.7282636,8.1416622],"ct":"DE","tp":"CS","ts":"2024-06-30T10:38:48Z","tX":535,"tY":344,"tags":{"name":"Campinganlage \"Zur Löhlenmühle e.V.\"","website":"https://zur-löhlenmühle.de/"}},"547147594":{"location":[50.678954,8.3070201],"ct":"DE","tp":"CR","ts":"2024-11-28T11:34:53Z","tX":535,"tY":344,"tags":{"addr:city":"Herborn","addr:postcode":"35745","addr:street":"Schießplatz","capacity":"5","caravan_site":"motorhome_stopover","caravan_site:type":"river","description":"Stellplatz Wohnmobile mit 2 Ladesäulen","fee":"no","maxlength":"9","name":"Wohnmobilstellplatz Herborn","nohousenumber":"yes","power_supply":"yes","sanitary_dump_station":"yes","toilets":"separate","water_point":"yes","website":"https://www.daslahntal.de/planen-und-buchen/unterkuenfte/wohnmobilstellplaetze/pois/RPT/1d33768e-2f7b-4669-9936-2f3d6f3cd9b8/wohnmobilstellplatz-in-herborn"}},"771403125":{"location":[50.5401207,8.3792336],"ct":"DE","tp":"CS","ts":"2024-12-01T12:51:46Z","tX":535,"tY":344,"tags":{"access":"customers","addr:city":"Solms","addr:place":"Im Schohleck","addr:postcode":"35606","capacity":"200","charge":"7 EUR/day/<14 years, 7,5 EUR/day/>14 years","description":"Der KRUMOS' Zeltplatz Schohleck gehört zu den beliebtesten Naturzeltplätzen entlang der Lahn. Hier finden Familien, Freunde, Schulkassen, Vereingruppen und Betriebsausflüge Platz für eine oder mehrer Übernachtungen im eigenen Zelt oder in einem der Tipis.","dog":"yes","email":"info@krumos.de","fee":"yes","internet_access":"yes","name":"KRUMOS' Zeltplatz Schohleck","nohousenumber":"yes","openfire":"yes","operator":"KRUMOS' Aktivreien +Events","payment:cash":"yes","payment:maestro":"yes","payment:mastercard":"yes","payment:prepaid_ticket":"yes","phone":"+49644292118","shower":"yes"}},"1013225594":{"location":[50.6158879,8.1408853],"ct":"DE","tp":"CS","ts":"2023-08-01T14:04:31Z","tX":535,"tY":344,"tags":{"name":"Campingplatz an der Krombachtalsperre","website":"https://www.camping-krombachtalsperre.de/"}},"1041724571":{"location":[50.5405007,8.378956],"ct":"DE","tp":"CS","ts":"2024-08-28T09:30:10Z","tX":535,"tY":344,"tags":{"addr:city":"Solms","addr:housenumber":"1","addr:place":"Im Schohleck","addr:postcode":"35606","capacity:persons":"200","charge":"9 EUR","dog":"yes","email":"info@zeltplatz-lahnblick.com","fee":"yes","name":"Campingplatz Lahnblick","openfire":"yes","operator":"Rauszeit GmbH","payment:cash":"yes","payment:debit_cards":"yes","payment:maestro":"yes","phone":"+49 6441 2086084","shower":"yes","tents":"yes","toilets":"yes","website":"https://zeltplatz-lahnblick.com"}},"1193078619":{"location":[50.5405982,8.3812445],"ct":"DE","tp":"CS","ts":"2024-08-28T09:30:10Z","tX":535,"tY":344,"tags":{"addr:city":"Solms","addr:place":"Im Schohleck","addr:postcode":"35606","email":"zeltplatz@lahntours.de","fax":"+49 6442 922535","fee":"yes","name":"Lahntours-Zeltplatz Solms-Schohleck","nohousenumber":"yes","opening_hours":"May-Sep","operator":"Lahntours","phone":"+49 6442 922527","tents":"yes","website":"https://www.lahntours.de/schlummern/zeltplatz-solms-schohleck-lahn/"}},"1218811811":{"location":[50.6533117,8.1644634],"ct":"DE","tp":"CR","ts":"2023-10-27T15:55:01Z","tX":535,"tY":344,"tags":{}},"1278827304":{"location":[50.731782,8.2626877],"ct":"DE","tp":"CS","ts":"2024-05-01T16:30:55Z","tX":535,"tY":344,"tags":{"access":"customers","addr:city":"Dillenburg","addr:housenumber":"1-2","addr:postcode":"35683","addr:street":"Meerbornsheide","caravans":"yes","fee":"yes","name":"Waldcamp Meerbornsheide","phone":"+49 2771 3305022","static_caravans":"yes","tents":"yes","website":"https://www.waldcamp-meerbornsheide.eu/"}},"1991188308":{"location":[50.5581774,8.2852913],"ct":"DE","tp":"CS","ts":"2014-06-22T17:39:34Z","tX":535,"tY":344,"tags":{"name":"Tipidorf Outdoor Zentrum Lahntal"}},"4408182615":{"location":[50.5151117,8.3861143],"ct":"DE","tp":"SD","ts":"2016-09-19T14:17:13Z","tX":535,"tY":344,"tags":{}}}