{"37419243":{"location":[50.5107506,8.3825111],"ct":"DE","tp":"CS","ts":"2024-07-20T11:30:36Z","tX":535,"tY":345,"tags":{"addr:city":"Braunfels","addr:country":"DE","addr:housenumber":"2","addr:postcode":"35619","addr:street":"Weiherstieg","caravans":"yes","email":"campingpark-braunfels@web.de","fee":"yes","mobile":"+49 179 1228501","name":"Campingpark Braunfels","opening_hours":"Mo-Su, PH 08:00-13:00, 15:00-20:00","operator":"Gerd Cieslar","phone":"+49 6442 9327840","tents":"yes","website":"https://campingpark-braunfels.de/de/start/"}},"47400919":{"location":[50.4759242,8.2381722],"ct":"DE","tp":"CS","ts":"2024-11-19T18:29:25Z","tX":535,"tY":345,"tags":{"addr:city":"Weilburg","addr:housenumber":"5a","addr:postcode":"35781","addr:street":"Runkeler Straße","caravans":"yes","drinking_water":"yes","email":"info@camping-odersbach.de","fax":"+49 6471 379603","name":"Camping Odersbach","operator":"Kur- und Verkehrsverein Odersbach e.V.","phone":"+49 6471 7620","power_supply":"yes","shower":"yes","stars":"4","tents":"yes","toilets":"yes","website":"https://www.camping-odersbach.de/"}},"180350296":{"location":[50.4838939,8.2577875],"ct":"DE","tp":"CR","ts":"2023-06-10T05:54:38Z","tX":535,"tY":345,"tags":{"capacity":"80","contact:phone":"+49 6471 31467","fee":"yes","name":"An der Hainallee","object:city":"Weilburg","object:housenumber":"5","object:postcode":"35781","object:street":"Im Bangert","power_supply":"yes","sanitary_dump_station":"yes","water_point":"yes","website":"https://www.weilburg.de/de/weilburg-gastfreundlich/wohnmobilstation.html"}},"285878572":{"location":[50.4074988,8.1836575],"ct":"DE","tp":"CS","ts":"2022-03-16T12:24:11Z","tX":535,"tY":345,"tags":{"addr:country":"DE","addr:housenumber":"1","addr:street":"In der Spaich","caravans":"no","email":"info@in-der-spaich.de","fax":"+49 6482 911976","group_only":"yes","name":"ESV Jugend- und Wanderheim","opening_hours":"Apr-Oct Tu-Fr 10:00-23:00; Apr-Oct Sa-Su 08:30-24:00; Apr-Oct Mo off; Nov-Mar Mo-Th off","phone":"+49 6482 4615","tents":"yes","website":"https://www.in-der-spaich.de/"}},"296444846":{"location":[50.453155,8.2506818],"ct":"DE","tp":"CS","ts":"2024-07-16T15:17:19Z","tX":535,"tY":345,"tags":{"access":"customers","addr:city":"Weinbach","addr:housenumber":"1","addr:postcode":"35796","addr:street":"In der Aue","addr:suburb":"Gräveneck","email":"info@camping-graeveneck.de","internet_access":"wlan","name":"Campingplatz Gräveneck","operator":"Dieter Wolf","phone":"+49 6471 490320","website":"https://www.camping-graeveneck.de/","wheelchair":"limited"}},"297411030":{"location":[50.4340139,8.3730033],"ct":"DE","tp":"CR","ts":"2024-03-19T16:54:55Z","tX":535,"tY":345,"tags":{"capacity":"10","caravans":"no","email":"rathaus@weilmuenster.de","fax":"+49 6472 9169-10","fee":"no","internet_access":"wlan","maxstay":"3 days","name":"Reisemobilstellplatz \"In der Aue\"","phone":"+49 6472 9169-0;+49 6472 916999","power_supply":"yes","tents":"no","website":"https://www.weilmuenster.de/kultur,-freizeit-tourismus/wohnmobil-stellplatz.html","wheelchair":"yes"}},"387788402":{"location":[50.2968994,8.2665262],"ct":"DE","tp":"CR","ts":"2024-03-19T16:55:23Z","tX":535,"tY":345,"tags":{"access":"yes","capacity":"7","caravans":"no","dog":"yes","fee":"no","name":"Wohnmobilstellplatz Bad Camberg","operator":"Stadt Bad Camberg","power_supply":"yes","tents":"no"}},"424490858":{"location":[50.4062631,8.1518672],"ct":"DE","tp":"CS","ts":"2022-03-26T13:59:37Z","tX":535,"tY":345,"tags":{"addr:city":"Runkel","addr:country":"DE","addr:housenumber":"1","addr:postcode":"65594","addr:street":"Campingplatz","email":"campingplatz@lahntours.de","fax":"+49 6482 5053","name":"Lahntours-Campingplatz Runkel","opening_hours":"May-Oct","operator":"LT-Aktivreisen GmbH Geschäftsführerin Brigitte Brandenburger","phone":"+49 6482 911022","website":"https://www.lahntours.de/schlummern/campingplatz-runkel-lahn/"}},"861143436":{"location":[50.4802586,8.2649217],"ct":"DE","tp":"CS","ts":"2020-07-20T20:35:21Z","tX":535,"tY":345,"tags":{"caravans":"no","fee":"no","group_only":"yes","name":"Jugendzeltplatz","tents":"yes"}},"1299556193":{"location":[50.4993904,8.1807725],"ct":"DE","tp":"CR","ts":"2024-07-06T17:36:06Z","tX":535,"tY":345,"tags":{"name":"Caravan- & Wohnmobilstellplatz B49","power_supply":"yes","sanitary_dump_station":"yes","website":"https://www.stellplatz-b49.de/index.html"}},"1313420647":{"location":[50.310582,8.4266187],"ct":"DE","tp":"SD","ts":"2024-09-05T06:35:21Z","tX":535,"tY":345,"tags":{"building":"yes"}},"1313420648":{"location":[50.31,8.4265855],"ct":"DE","tp":"CR","ts":"2024-09-05T06:35:21Z","tX":535,"tY":345,"tags":{"addr:city":"Weilrod","addr:number":"1","addr:postcode":"61276","addr:street":"Egertshammer","cabins":"yes","capacity":"42","caravans":"yes","dog":"leashed","email":"info@taunus-mobilcamp.de","fee":"yes","internet_access":"yes","mobile":"+49 6083 3480017","motor_vehicle":"yes","motorhome":"yes","name":"taunus mobilcamp","openfire":"no","opening_hours":"24/7","operator":"Frevents Catering GmbH","permanent_camping":"no","power_supply":"yes","reservation":"recommended","sanitary_dump_station":"yes","source":"knowledge","tents":"no","water_point":"yes","website":"https://www.taunus-mobilcamp.de/"}},"1842592427":{"location":[50.3346584,8.2339931],"ct":"DE","tp":"CR","ts":"2012-07-29T11:20:07Z","tX":535,"tY":345,"tags":{"capacity":"3","fee":"no","name":"Wohnmobilstellplätze am Schwimmbad","note":"im Sommer bitte erst ab 19 Uhr anreisen","power_supply":"no","source":"knowledge"}},"3012929147":{"location":[50.4338752,8.3728741],"ct":"DE","tp":"SD","ts":"2015-04-29T01:02:04Z","tX":535,"tY":345,"tags":{"sanitary_dump_station:accepted":"black_water;tank_chemicals"}},"3910215703":{"location":[50.2967807,8.2663504],"ct":"DE","tp":"SD","ts":"2020-12-26T17:51:10Z","tX":535,"tY":345,"tags":{"fee":"yes","opening_hours":"24/7; Dec-Mar off","operator":"Stadt Bad Camberg","sanitary_dump_station:basin":"yes","sanitary_dump_station:chemical_toilet":"yes","sanitary_dump_station:fee":"yes","sanitary_dump_station:gravity":"yes","sanitary_dump_station:grey_water":"yes","sanitary_dump_station:pump-out":"no","sanitary_dump_station:round_drain":"yes","sanitary_dump_station:suction":"no"}},"4083311977":{"location":[50.4831246,8.2583873],"ct":"DE","tp":"SD","ts":"2016-03-28T16:42:18Z","tX":535,"tY":345,"tags":{}},"8974833262":{"location":[50.4541474,8.2506077],"ct":"DE","tp":"SD","ts":"2021-08-02T15:23:41Z","tX":535,"tY":345,"tags":{"access":"customers","fee":"no","water_point":"yes"}}}