{"1992662":{"location":[49.9706662,8.3904298],"ct":"DE","tp":"CS","ts":"2019-07-19T21:59:58Z","tX":535,"tY":347,"tags":{"addr:city":"Rüsselsheim am Main","addr:housenumber":"4","addr:postcode":"65428","addr:street":"Alter Mainzer Weg","barrier":"fence","name":"Campingplatz Weisel"}},"1993958":{"location":[49.8785982,8.3816751],"ct":"DE","tp":"CS","ts":"2022-06-07T17:31:05Z","tX":535,"tY":347,"tags":{"addr:city":"Trebur","addr:country":"DE","addr:housenumber":"142","addr:postcode":"65468","addr:street":"Mandlacher Weg","addr:suburb":"Geinsheim","name":"Badesse Vogel","tents":"no","website":"http://www.badesee-vogel.de/?page_id=31"}},"13871197":{"location":[50.002143,8.285484],"ct":"DE","tp":"CS","ts":"2023-10-05T16:17:14Z","tX":535,"tY":347,"tags":{"addr:city":"Mainz","addr:country":"DE","addr:housenumber":"48","addr:postcode":"55246","addr:street":"Maaraue","addr:suburb":"Kostheim","caravans":"yes","drinking_water":"yes","email":"info@campingplatz-maaraue.de","fee":"yes","hot_water":"yes","internet_access":"wlan","internet_access:fee":"yes","name":"Campingplatz Maaraue","opening_hours":"01 Apr-15 Oct open","operator":"Kasteler Ruder- und Kanu-Gesellschaft 1880 e.V.","phone":"+49 6134 2575922","power_supply":"yes","shower":"hot","tents":"yes","toilets":"yes","website":"https://www.campingplatz-maaraue.de/","wheelchair":"yes"}},"14186019":{"location":[49.9034321,8.3912767],"ct":"DE","tp":"CS","ts":"2017-10-30T21:56:02Z","tX":535,"tY":347,"tags":{"name":"ASV – Trebur Vereins Campingplatz","website":"https://www.asv-trebur.com/campingplatz/"}},"14187764":{"location":[49.9316846,8.3521768],"ct":"DE","tp":"CS","ts":"2024-05-05T09:53:32Z","tX":535,"tY":347,"tags":{"name":"Campingplatz Jakobsbergerau","nudism":"yes","website":"https://www.naturistenbund.de"}},"14326109":{"location":[49.8646798,8.3704029],"ct":"DE","tp":"CS","ts":"2024-08-10T07:05:44Z","tX":535,"tY":347,"tags":{"access":"private"}},"26545057":{"location":[49.9856461,8.3168961],"ct":"DE","tp":"CS","ts":"2021-05-13T20:59:54Z","tX":535,"tY":347,"tags":{"addr:city":"Ginsheim-Gustavsburg","addr:housenumber":"13","addr:postcode":"65462","addr:street":"Bleiauweg","name":"Campingplatz Hagelauer"}},"30103994":{"location":[50.0104192,8.0974476],"ct":"DE","tp":"CS","ts":"2024-06-24T13:33:10Z","tX":535,"tY":347,"tags":{"addr:city":"Ingelheim am Rhein","addr:country":"DE","addr:postcode":"55262","addr:street":"Unteraue","addr:suburb":"Heidenfahrt","caravans":"yes","email":"inselrhein@web.de","name":"Inselrhein","phone":"+49 179 6932305","shower":"yes","tents":"yes","toilets":"yes","website":"www.inselrhein.de","wheelchair":"no"}},"79797736":{"location":[49.9869633,8.311189],"ct":"DE","tp":"CS","ts":"2021-10-20T18:07:38Z","tX":535,"tY":347,"tags":{"addr:city":"Ginsheim-Gustavsburg","addr:housenumber":"12","addr:postcode":"65462","addr:street":"Bleiauweg","caravans":"yes","name":"Campingplatz Rheininsel Bleiau","permanent_camping":"yes","power_supply":"yes","shower":"yes","tents":"yes","toilets":"yes","website":"https://inselbleiau.beepworld.de/"}},"111320317":{"location":[49.8565967,8.3791475],"ct":"DE","tp":"CS","ts":"2021-05-09T12:25:44Z","tX":535,"tY":347,"tags":{"access":"private","caravans":"no","name":"Camping-Club Oppenheim","note":"Dieser Platz ist ein reiner Dauercampingplatz, es gibt keine Möglichkeit hier kurzfristig zu übernachten!","tents":"no"}},"200798637":{"location":[49.8575611,8.3232434],"ct":"DE","tp":"CR","ts":"2025-01-30T17:37:55Z","tX":535,"tY":347,"tags":{"addr:city":"Nierstein","addr:housenumber":"17","addr:postcode":"55283","addr:street":"Ausserhalb","capacity":"30","caravan_site":"motorhome_stopover","caravan_site:type":"winery","charge":"15 EUR","charge:conditional":"25 EUR@(\"VIP\")","dog:charge":"5 EUR","dog:fee":"yes","fee":"yes","name":"Stellplatz am Weingut Gehring","name:de":"Stellplatz am Weingut Gehring","power_supply":"yes","power_supply:charge":"3 EUR","power_supply:fee":"yes","shower":"yes","website":"https://www.wohnmobilstellplatzinnierstein.de/"}},"206652945":{"location":[49.9313447,8.3005942],"ct":"DE","tp":"CR","ts":"2024-02-18T12:25:02Z","tX":535,"tY":347,"tags":{"fee":"yes","name":"Wohnmobilstellplatz Bodenheim"}},"265785468":{"location":[50.056178,8.2108804],"ct":"DE","tp":"CR","ts":"2024-09-08T15:55:38Z","tX":535,"tY":347,"tags":{"capacity":"40","caravans":"yes","contact:email":"euramo@t-online.de","contact:mobile":"+49 172 6627012;+49 173 7329520","fee":"yes","name":"Reisemobilhafen Wiesbaden","operator":"Steffen u. Claudia Schmidt, Markus Tönnessen GbR","power_supply":"yes","sanitary_dump_station":"yes","water_point":"yes","website":"http://www.reisemobilhafen-wiesbaden.de/","wheelchair":"yes"}},"310813148":{"location":[49.9986405,8.2460073],"ct":"DE","tp":"CR","ts":"2025-04-03T10:53:48Z","tX":535,"tY":347,"tags":{"addr:city":"Mainz","addr:housenumber":"21","addr:postcode":"55122","addr:street":"Dr.-Martin-Luther-King-Weg","capacity":"50","capacity:caravans":"56","caravans":"yes","fee":"yes","internet_access":"wlan","internet_access:fee":"no","name":"Wohnmobilstellplatz Mainz","power_supply":"yes","sanitary_dump_station":"yes","tents":"no","toilets":"no","website":"https://www.wohnmobil-stellplatz-mainz.de/"}},"360051252":{"location":[50.0286975,8.1242602],"ct":"DE","tp":"CR","ts":"2025-01-15T22:33:08Z","tX":535,"tY":347,"tags":{"capacity":"11","caravan_site":"motorhome_stopover","caravan_site:type":"town","charge":"5.00 EUR/1 day","contact:phone":"+49 6123 9098-0","description":"Bezahlung am Automat - Sehr zentral zur Altstadt - Parkbuchten sehr kurz (nur 3 Buchten für Fahrzeuge über 7 mtr.","fee":"yes","maxstay":"3 days","name":"Wohnmobilstellplatz Eltville Weinhohle","object:city":"Eltville am Rhein","object:housenumber":"2","object:postcode":"65343","object:street":"Sonnenbergstraße","operator":"Stadt Eltville am Rhein","power_supply":"yes","sanitary_dump_station":"yes","water_point":"yes","website":"https://www.eltville.de/strukturierte-daten/camping/parkplatz-weinhohle/"}},"698937626":{"location":[49.9327663,8.0941324],"ct":"DE","tp":"CR","ts":"2025-01-11T14:11:19Z","tX":535,"tY":347,"tags":{"addr:postcode":"55270","capacity":"6","drinking_water":"no","fee":"yes","internet_access":"no","name":"Wohnmobil Stellplatz Schwabenheim","power_supply":"yes","sanitary_dump_station":"no","toilets":"no","wheelchair":"yes"}},"799610538":{"location":[50.0392464,8.1936512],"ct":"DE","tp":"CS","ts":"2023-11-05T22:26:47Z","tX":535,"tY":347,"tags":{"caravans":"yes","name":"DKV Zeltplatz","website":"https://www.wswiesbaden.de/index.php/camping"}},"902877840":{"location":[49.99623,8.4090915],"ct":"DE","tp":"CR","ts":"2024-10-29T08:16:16Z","tX":535,"tY":347,"tags":{"capacity":"7","fee":"no","internet_access":"no","name":"Wohnmobil-Stellplätze am Mainvorland\nRüsselsheim","name:signed":"no","power_supply":"no","sanitary_dump_station":"no","toilets":"no","water_point":"no","website":"https://www.main-ruesselsheim.de/informieren-und-planen/wohnmobil-stellplaetze/"}},"1205932383":{"location":[50.02336,8.088475],"ct":"DE","tp":"CR","ts":"2024-12-22T09:34:18Z","tX":535,"tY":347,"tags":{"addr:street":"Bachhöller Weg","cabins":"no","caravan_site":"motorhome_stopover","caravan_site:type":"winery","charge":"20 EUR","check_in":"13:30","check_out":"11:00","fee":"yes","internet_access":"wlan","name":"Wohnmobilstellplatz Weinhof Martin","operator":"Weinhof Martin","permanent_camping":"no","picnic_table":"yes","power_supply":"yes","reservation":"yes","sanitary_dump_station":"yes","static_caravans":"no","surface":"pebblestone","water_point":"yes","website":"https://weinhof-martin.de/wohnmobil-stellplaetze/"}},"1720516436":{"location":[50.0361903,8.2062446],"ct":"DE","tp":"CS","ts":"2023-01-21T17:13:34Z","tX":535,"tY":347,"tags":{"name":"Rettbergsaue Schierstein","phone":"+4961124508","website":"https://www.mattiaqua.de/freizeit/rettbergsaue/"}},"3646546209":{"location":[50.0324999,8.1070721],"ct":"DE","tp":"CR","ts":"2023-01-28T15:06:01Z","tX":535,"tY":347,"tags":{"name":"Parkplatz der Klostermühle","toilets":"no"}},"3646559598":{"location":[50.0468873,8.1199221],"ct":"DE","tp":"CR","ts":"2025-01-16T00:19:02Z","tX":535,"tY":347,"tags":{"capacity":"2","caravan_site":"motorhome_stopover","caravan_site:type":"winery","charge":"5 EUR","email":"info@weingutengelmann.de","fee":"yes","fee:conditional":"no@(wine_purchase)","name":"Stellplatz Weingut Engelmann","opening_hours":"Mar 01-Nov 15","phone":"+49 6123 990 709","sanitary_dump_station":"no","tourism:website":"https://www.romantischer-rhein.de/a-wohnmobil-stellplatz-weingut-engelmann","water_point":"no","website":"https://weingutengelmann.de/"}},"3868709325":{"location":[49.8569996,8.3652225],"ct":"DE","tp":"CR","ts":"2020-12-10T08:15:28Z","tX":535,"tY":347,"tags":{"capacity":"15","contact:mobile":"+49 178 3434483","fee":"yes","internet_access":"no","name":"Womoland Oppenheim","power_supply":"yes","sanitary_dump_station":"yes","water_point":"yes","website":"https://womoland-oppenheim.de/"}},"9964745328":{"location":[49.8614271,8.4256707],"ct":"DE","tp":"CS","ts":"2023-01-21T17:13:38Z","tX":535,"tY":347,"tags":{"access":"customers","addr:city":"Riedstadt","addr:housenumber":"1","addr:postcode":"64560","addr:street":"Am Riedsee","email":"camping@riedsee.de","fee":"yes","name":"Freizeitzone Riedsee","phone":"+4915111657523","website":"https://riedsee.de/"}},"7947269806":{"location":[50.0278886,8.124049],"ct":"DE","tp":"SD","ts":"2020-10-05T15:51:59Z","tX":535,"tY":347,"tags":{"access":"yes","charge":"1 €","description":"Kosten für Wasserversorgung 1€ - Kosten für Toiletten Entsorgung 1€","fee":"yes","name":"Sani Station","operator":"Stadt Eltville","water_point":"yes"}},"9964849829":{"location":[49.8613645,8.426355],"ct":"DE","tp":"SD","ts":"2022-08-19T22:02:06Z","tX":535,"tY":347,"tags":{}}}