{"49290165":{"location":[49.4743471,8.1967194],"ct":"DE","tp":"CS","ts":"2024-06-16T22:17:45Z","tX":535,"tY":349,"tags":{"access":"yes","addr:city":"Bad Dürkheim","addr:country":"DE","addr:housenumber":"1","addr:postcode":"67098","addr:street":"In den Almen","cabins":"yes","caravans":"yes","contact:phone":"+49 6322 61356","contact:website":"https://www.knauscamp.de/bad-duerkheim","drinking_water":"yes","email":"info@knauscamp.de","fee":"yes","name":"Knaus Campingpark","permanent_camping":"yes","phone":"+49 6322 61356","power_supply":"yes","sanitary_dump_station":"yes","shower":"yes","source":"https://www.knauscamp.de/","source:date":"2019-09-23","tents":"yes","toilets":"yes","washing_machine":"yes","website":"https://www.knauscamp.de/bad-duerkheim"}},"61997850":{"location":[49.4694123,8.1675558],"ct":"DE","tp":"CR","ts":"2022-05-27T05:25:20Z","tX":535,"tY":349,"tags":{"capacity":"90","contact:phone":"+49 6322 9354500","description":"Bis auf das zweites Wochenende im September (Dürkheimer Wurstmarkt) ein reiner WoMo-Stellplatz.","fee":"yes","maxstay":"3 days","name":"Stellplatz an der Silz","operator":"Stadt Bad Dürkheim","power_supply":"yes","sanitary_dump_station":"yes","water_point":"yes","website":"https://www.bad-duerkheim.com/camping/wohnmobilstellplatz.html"}},"148332767":{"location":[49.432755,8.1624585],"ct":"DE","tp":"CS","ts":"2024-03-15T07:56:24Z","tX":535,"tY":349,"tags":{"access":"customers","addr:city":"Wachenheim an der Weinstraße","addr:country":"DE","addr:housenumber":"105","addr:postcode":"67157","addr:street":"Waldstraße","fax":"+49 6322 791710","fee":"yes","name":"Campingplatz im Burgtal","opening_hours":"Mar-Nov","phone":"+49 6322 2689","tents":"yes","website":"https://www.wachenheim.de/campingplatz.html"}},"333123270":{"location":[49.5183582,8.3020014],"ct":"DE","tp":"CS","ts":"2024-02-27T20:05:44Z","tX":535,"tY":349,"tags":{"name":"Camping und Rallyfreunde Nachtweide e.V","website":"https://camping-lambsheim.de/"}},"717025837":{"location":[49.4747194,8.1915334],"ct":"DE","tp":"CR","ts":"2024-06-16T22:17:45Z","tX":535,"tY":349,"tags":{"addr:city":"Bad Dürkheim","addr:country":"DE","addr:housenumber":"1","addr:postcode":"67098","addr:street":"In den Almen","capacity":"16","check_date":"2024-06-02","description":"Stellplatz vor der Schranke","fee":"yes","name":"Knaus Reisemobilstellplatz Bad Dürkheim","phone":"+49 6322 61356","power_supply":"yes","sanitary_dump_station":"yes","source":"https://www.knauscamp.de/bad-duerkheim","source:date":"2021-10-12","water_point":"yes","website":"https://www.knauscamp.de/bad-duerkheim"}},"1104677538":{"location":[49.5342984,8.1816429],"ct":"DE","tp":"CR","ts":"2024-05-02T17:06:35Z","tX":535,"tY":349,"tags":{"addr:city":"Kirchheim an der Weinstraße","addr:housenumber":"7","addr:postcode":"67281","addr:street":"Am Grünborn","internet_access":"wlan","internet_access:fee":"customers","operator":"Weingut Rogenwieser","phone":"+49 6359 960304","power_supply":"yes","sanitary_dump_station":"yes","website":"https://www.weingut-rogenwieser.de/wohnwagenstellplaetze/"}},"1107218168":{"location":[49.5380832,8.1770911],"ct":"DE","tp":"CR","ts":"2024-06-27T13:55:08Z","tX":535,"tY":349,"tags":{"addr:city":"Kirchheim an der Weinstraße","addr:housenumber":"8","addr:postcode":"67281","addr:street":"Kleinkarlbacher Straße","name":"Wohnmobil-Stellplätze Pfeiffer","operator":"Weingut Pfeiffer","phone":"+49 6359 87760"}},"1160246886":{"location":[49.5703899,8.1604114],"ct":"DE","tp":"CR","ts":"2024-04-18T14:43:47Z","tX":535,"tY":349,"tags":{"capacity":"10","caravans":"no","check_date":"2023-11-26","contact:website":"https://www.cabalela.de/cabriobad/MobilPark-Relax/","description":"Reiner Wohnmobil-Stellplatz. Keine Caravans","drinking_water":"no","fee":"yes","internet_access":"yes","name":"CabaLela MobilPark Relax","opening_hours":"24/7","operator":"Stadtwerke Grünstadt","power_supply":"yes","sanitary_dump_station":"yes","start_date":"2023-05-12","tents":"no","toilets":"no","wheelchair":"yes","wikimedia_commons":"File:Baustelle Wohnmobilstellplätze Bückelhaube Grünstadt.jpg"}},"1268302481":{"location":[49.4286381,8.1932653],"ct":"DE","tp":"CR","ts":"2024-06-27T06:30:05Z","tX":535,"tY":349,"tags":{"access":"customers","addr:city":"Forst an der Weinstraße","addr:country":"DE","addr:housenumber":"4","addr:postcode":"67147","addr:street":"Wiesenweg","name":"Margarethenhof","power_supply":"yes","sanitary_dump_station":"no","website":"https://margarethenhof-forst.de/zubesuch/wohnmobil/"}},"2286031413":{"location":[49.5998531,8.1787736],"ct":"DE","tp":"CR","ts":"2016-12-30T12:12:01Z","tX":535,"tY":349,"tags":{"name":"Weingut Benß"}},"2383146025":{"location":[49.4118108,8.2406634],"ct":"DE","tp":"CR","ts":"2023-04-22T11:01:03Z","tX":535,"tY":349,"tags":{"capacity":"8","fee":"no","motorhome":"designated","name":"Wohnmobil Stellplatz Meckenheim","power_supply":"yes","website":"http://www.meckenheim-pfalz.de/#nogo27"}},"3834074242":{"location":[49.467438,8.2009011],"ct":"DE","tp":"CR","ts":"2021-10-12T07:16:31Z","tX":535,"tY":349,"tags":{"contact:phone":"+49 6322 63375","fee":"yes","name":"Katharinenhof Hauer","power_supply":"yes","sanitary_dump_station":"yes","water_point":"yes","website":"https://www.katharinenhof-hauer.de/wohnmobilstellplatz/"}},"4017666289":{"location":[49.486465,8.1796234],"ct":"DE","tp":"CR","ts":"2021-10-12T07:44:17Z","tX":535,"tY":349,"tags":{"capacity":"6","contact:phone":"+49 6322 1335","fee":"yes","name":"Weingut Henninger","power_supply":"yes","sanitary_dump_station":"yes","sanitary_dump_station:chemical_toilet":"no","sanitary_dump_station:gravity":"yes","sanitary_dump_station:grey_water":"yes","water_point":"yes","website":"https://www.tourenplaner-rheinland-pfalz.de/de/unterkunft/wohnmobilstellplatz/kallstadt-wohnmobilstellplatz-am-weingut-walter-henninger/50847289/"}},"4442412575":{"location":[49.3986373,8.2003027],"ct":"DE","tp":"CR","ts":"2024-09-29T19:38:11Z","tX":535,"tY":349,"tags":{"power_supply":"yes","sanitary_dump_station":"yes","website":"https://im-linsenbusch.de/wohnmobil-wohnwagenstellplatz"}},"4895172351":{"location":[49.4104479,8.221202],"ct":"DE","tp":"CR","ts":"2017-06-04T12:09:46Z","tX":535,"tY":349,"tags":{"fee":"no","name":"Niederkirchen","power_supply":"yes"}},"7903154134":{"location":[49.5992024,8.1794203],"ct":"DE","tp":"CR","ts":"2020-09-13T18:52:59Z","tX":535,"tY":349,"tags":{"name":"Weingut Kohl"}},"11952223469":{"location":[49.4955043,8.1521849],"ct":"DE","tp":"CR","ts":"2024-06-27T13:55:06Z","tX":535,"tY":349,"tags":{"addr:city":"Bad Dürkheim","addr:country":"DE","addr:housenumber":"37a","addr:postcode":"67098","addr:street":"Pochelstraße","addr:suburb":"Leistadt","name":"Wohnmobilstellplatz am Weingut Hanewald-Schwerdt","phone":"+49 6322 63206","website":"https://www.hanewald-schwerdt.de/"}}}