{"34957856":{"location":[48.7316443,8.395741],"ct":"DE","tp":"CR","ts":"2021-08-04T12:24:40Z","tX":535,"tY":352,"tags":{"addr:city":"Gernsbach","addr:postcode":"76593","addr:street":"Auwiesenstraße","capacity:car":"4","capacity:caravan":"2","fee":"no","internet_access":"no","name":"Wohnmobilstellplatz Reichental","parking":"surface","power_supply":"yes","reservation":"no","sanitary_dump_station":"yes","website":"https://www.gernsbach.de/pb/site/Gernsbach2015/node/792811/Lde"}},"41978351":{"location":[48.8605001,8.2567041],"ct":"DE","tp":"CS","ts":"2023-12-21T16:00:21Z","tX":535,"tY":352,"tags":{"caravans":"yes","email":"info@murgtal-camping.de","name":"Murgtal Camping","permanent_camping":"yes","phone":"+49 7222 4068997","tents":"yes","website":"http://www.murgtal-camping.de/"}},"101503298":{"location":[48.8910822,8.1312555],"ct":"FR","tp":"CS","ts":"2024-08-16T12:37:48Z","tX":535,"tY":352,"tags":{"contact:phone":"+336 20 03 84 51","description":"checkin only by computer terminal. payment only by credit card.\ncomputer might refuse entry without proper explanation.","email":"campinglesbordsdurhin@ville-seltz.fr","fax":"+33 3 88 86 13 50","internet_access":"no","name":"Les Bords du Rhin","permanent_camping":"yes","phone":"+33 6 20 03 84 51","stars":"1","tents":"yes","website":"https://www.seltz.fr/Bords-Rhin/Presentation/Camping.html","wheelchair":"no"}},"113499142":{"location":[48.7915663,8.4281412],"ct":"DE","tp":"CS","ts":"2020-05-14T15:46:33Z","tX":535,"tY":352,"tags":{"addr:city":"Bad Herrenalb","addr:country":"DE","addr:housenumber":"29","addr:postcode":"76332","addr:street":"Schwimmbadstraße","cabins":"yes","caravans":"yes","dog":"yes","email":"info@albtal-arena.de","fee":"yes","name":"Adventure World Albtal-Arena","permanent_camping":"yes","phone":"+49 7083 9220353","power_supply":"yes","tents":"yes","website":"http://albtal-arena.de"}},"115074273":{"location":[48.7824437,8.203355],"ct":"DE","tp":"CR","ts":"2024-11-23T21:45:01Z","tX":535,"tY":352,"tags":{"addr:city":"Baden-Baden","addr:country":"DE","addr:housenumber":"2","addr:postcode":"76532","addr:street":"Hubertusstraße","capacity":"36","drinking_water":"yes","email":"parken@swbad.de","fax":"+49 7221 277-144","fee":"yes","lit":"yes","maxlength":"10","maxstay":"4 days","name":"Reisemobil-Stellplatz Baden-Baden","note":"nur Reisemobile mit Toilette und Schmutzwassertank, max. 4 zusammenhängende Nächte, keine Reservierung, kein Freihalten!","operator":"Parkgaragengesellschaft Baden-Baden mbH","phone":"+49 7221 277-201","power_supply":"yes","reservation":"no","sanitary_dump_station":"yes","sanitary_dump_station:accepted":"black_water;grey_water;tank_chemicals","shower":"no","start_date":"2011-05-31","tents":"no","toilets":"no","waste_basket":"yes","website":"https://www.stadtwerke-baden-baden.de/de/mobilitaet-freizeit/parken/wohnmobilparkplatz.php"}},"121343636":{"location":[48.8815098,8.1007184],"ct":"FR","tp":"CS","ts":"2024-11-07T18:12:35Z","tX":535,"tY":352,"tags":{"access":"customers","name":"Fort Falabraque (ex-Les Peupliers)","operator":"CapFun","phone":"+33 3 88 86 52 37","website":"https://www.capfun.com/camping-france-alsace-fort_falabraque-FR.html"}},"186667164":{"location":[48.8615148,8.3389841],"ct":"DE","tp":"CS","ts":"2022-12-30T13:31:08Z","tX":535,"tY":352,"tags":{"access":"unknown","addr:city":"Malsch","addr:country":"DE","addr:housenumber":"1","addr:postcode":"76316","addr:street":"Waldenfelsstraße","addr:suburb":"Walprechtsweier","caravans":"yes","fee":"yes","name":"Campingpark Bergwiesen","permanent_camping":"yes","power_supply":"yes","sanitary_dump_station":"yes","shower":"yes","tents":"yes","toilets":"yes","website":"http://campingpark-bergwiesen.com/"}},"231245039":{"location":[48.7592199,8.3392709],"ct":"DE","tp":"CR","ts":"2025-02-01T12:57:35Z","tX":535,"tY":352,"tags":{"addr:city":"Gernsbach","addr:postcode":"76593","addr:street":"Klingelstraße","capacity":"8","caravan_site:type":"river","charge":"10 EUR/24 hours","contact:website":"http://www.gernsbach.de/pb/,Lde/793376.html","fee":"yes","lastcheck":"2016-09-23","maxstay":"3 days","name":"Wohnmobilstellplatz Murginsel","operator":"Stadt Gernsbach","power_supply":"yes","power_supply:charge":"1 EUR/12 hours","sanitary_dump_station":"yes","sanitary_dump_station:fee":"no","socket:cee_blue":"yes","surface":"asphalt","toilets":"yes","water_point":"yes","water_point:charge":"1 EUR/100 liter","water_point:fee":"yes","website":"https://www.gernsbach.de/startseite/besucher/womo.html","wheelchair":"yes"}},"239322794":{"location":[48.8729643,8.1457396],"ct":"DE","tp":"CS","ts":"2024-10-18T13:56:51Z","tX":535,"tY":352,"tags":{"addr:city":"Rastatt","addr:country":"DE","addr:housenumber":"1","addr:postcode":"76437","addr:street":"Im Teilergrund","name":"Freizeitparadies Rastatt","sport":"swimming","website":"https://www.rastatter-freizeitparadies.de/"}},"244645183":{"location":[48.7421684,8.341457],"ct":"DE","tp":"CR","ts":"2025-02-01T12:55:22Z","tX":535,"tY":352,"tags":{"addr:city":"Gernsbach","addr:postcode":"76593","addr:suburb":"Obertsrot","capacity":"5","caravan_site":"motorhome_stopover","caravan_site:type":"swimming_pool","fee":"no","name":"Wohnmobilstellplatz Obertsrot","power_supply":"yes","power_supply:charge":"1 EUR/12 hours","power_supply:fee":"yes","ref":"Am Schwimmbad","sanitary_dump_station":"no","surface":"dirt","water_point":"no","website":"https://www.gernsbach.de/startseite/besucher/womo.html"}},"513709364":{"location":[48.9182987,8.1559364],"ct":"FR","tp":"CS","ts":"2020-03-19T09:15:43Z","tX":535,"tY":352,"tags":{"caravans":"yes","fee":"yes","name":"Camping au Rhin et à la Sauer","shower":"yes","stars":"1","tents":"yes","toilets":"yes","website":"https://www.munchhausen.fr/?page_id=140"}},"647023234":{"location":[48.8080959,8.3017966],"ct":"DE","tp":"CR","ts":"2023-03-29T18:11:55Z","tX":535,"tY":352,"tags":{"capacity:caravans":"6","fee":"yes","maxlength":"10","maxstay":"48 hours","name":"Wohnmobilstellplätze beim Rotherma","opening_hours":"24/7","phone":"+49 7225 97880","power_supply":"cee_17_blue","reservation":"no","shower":"no","tents":"no","toilets":"no","website":"https://www.rotherma.de/wohnmobile/","wheelchair":"yes"}},"993681864":{"location":[48.8936994,8.2251721],"ct":"DE","tp":"CR","ts":"2024-12-27T11:54:22Z","tX":535,"tY":352,"tags":{"charge":"7 EUR","fee":"yes","name":"Wohnmobilstellplatz Ötigheim","power_supply":"yes","power_supply:capacity":"4","power_supply:charge":"1 EUR/2 KWh","power_supply:fee":"yes","sanitary_dump_station":"yes","sanitary_dump_station:chemical_toilet":"yes","sanitary_dump_station:grey_water":"yes","surface":"asphalt","water_point":"yes","water_point:charge":"0.10 EUR/8 liter","water_point:fee":"yes","website":"https://www.oetigheim.de/pb/startseite/erleben+_+freizeit/wohn_reisemobilstellplatz.html"}},"1137868623":{"location":[48.8778916,8.2893506],"ct":"DE","tp":"CR","ts":"2023-08-17T06:02:36Z","tX":535,"tY":352,"tags":{"addr:city":"Muggensturm","addr:housenumber":"101","addr:postcode":"76461","addr:street":"Vogesenstraße","capacity:caravans":"5","description":"Ein öffentlicher Stellplatz für autarke Wohnmobile mit Picknicktisch und Mülleimer für allgemeinen Restmüll.","fee":"no","internet_access":"no","name":"Stellplatz Muggensturm","operator":"https://www.muggensturm.de","power_supply":"no","sanitary_dump_station":"no"}},"1301670706":{"location":[48.7820388,8.2039306],"ct":"DE","tp":"SD","ts":"2021-03-17T23:11:43Z","tX":535,"tY":352,"tags":{"fee":"no","sanitary_dump_station:accepted":"black_water;grey_water;tank_chemicals"}},"1327564699":{"location":[48.8898212,8.1271892],"ct":"FR","tp":"CR","ts":"2024-10-23T15:57:08Z","tX":535,"tY":352,"tags":{"bbq":"no","capacity":"23","caravan_site":"motorhome_stopover","caravan_site:type":"lake","caravans":"no","charge":"14.16 EUR","charge:conditional":"12.16 EUR @ (Oct-Apr)","fee":"yes","maxlength":"none","name":"Aire de Seltz","network":"CAMPING-CAR PARK","power_supply":"yes","power_supply:maxcurrent":"6","sanitary_dump_station":"yes","surface":"gravel","tents":"no","trailer":"no","water_point":"yes","website":"https://www.campingcarpark.com/en_GB/stay/stopover-site-motorhome/grand-est/67-bas-rhin/seltz"}},"6602332617":{"location":[48.8908506,8.3068986],"ct":"DE","tp":"CR","ts":"2025-01-08T00:02:22Z","tX":535,"tY":352,"tags":{"addr:city":"Malsch","addr:postcode":"76316","addr:street":"Daimlerstraße","capacity":"10","caravan_site":"motorhome_stopover","caravan_site:type":"motorhome_shop","email":"info@gast-caravaning.de","fee":"no","internet_access":"no","name":"Gast Caravaning Wohnmobilstellplatz","operator":"Gast Caravaning","sanitary_dump_station":"yes","website":"https://www.gast-caravaning.de/"}},"6077433020":{"location":[48.8079671,8.301669],"ct":"DE","tp":"SD","ts":"2019-12-10T19:49:50Z","tX":535,"tY":352,"tags":{"sanitary_dump_station:chemical_toilet":"yes","sanitary_dump_station:grey_water":"yes"}},"6602332619":{"location":[48.8909894,8.3068171],"ct":"DE","tp":"SD","ts":"2023-02-04T17:08:00Z","tX":535,"tY":352,"tags":{"access":"yes","fee":"no","sanitary_dump_station:basin":"yes","sanitary_dump_station:round_drain":"yes"}},"9180437451":{"location":[48.8938192,8.2253484],"ct":"DE","tp":"SD","ts":"2024-06-19T08:31:37Z","tX":535,"tY":352,"tags":{"sanitary_dump_station:chemical_toilet":"yes","sanitary_dump_station:gravity":"yes","sanitary_dump_station:grey_water":"yes"}}}