{"7875003":{"location":[48.5794777,8.3197111],"ct":"DE","tp":"CS","ts":"2018-01-04T14:50:12Z","tX":535,"tY":353,"tags":{"backcountry":"no","caravans":"no","group_only":"yes","name":"Zeltplatz Hahnbrunnenwiese","note":"nur noch bis 2020 nutzbar, wird dann exclusiv vom Naturpark geblitzt t","operator":"Nationalpark Schwarzwald","sanitary_dump_station":"no","tents":"yes","wheelchair":"limited"}},"14067549":{"location":[48.6621311,8.3256208],"ct":"DE","tp":"CS","ts":"2022-09-24T14:01:07Z","tX":535,"tY":353,"tags":{"name":"Trekking-Camp Schwarzenbach"}},"14620592":{"location":[48.4941484,8.2886781],"ct":"DE","tp":"CS","ts":"2022-09-25T13:44:56Z","tX":535,"tY":353,"tags":{"name":"Trekking-Camp Bösellbach"}},"17924764":{"location":[48.625428,8.1056998],"ct":"DE","tp":"CS","ts":"2024-08-30T11:38:45Z","tX":535,"tY":353,"tags":{"addr:city":"Sasbach","addr:housenumber":"1","addr:postcode":"77880","addr:street":"Blumberg","caravans":"yes","dog":"leashed","name":"Campingplatz Grässelmühle","permanent_camping":"yes","power_supply":"yes","shower":"yes","source":"Bing","tents":"yes","toilets":"yes","washing_machine":"yes","website":"https://www.camping-obersasbach.de/","wheelchair":"no"}},"26651173":{"location":[48.6894311,8.1289083],"ct":"DE","tp":"CR","ts":"2024-07-02T10:50:47Z","tX":535,"tY":353,"tags":{"bbq":"no","capacity":"16","caravan_site":"motorhome_stopover","caravan_site:type":"town","caravans":"no","charge":"12.60 EUR","dog":"leashed","fee":"yes","maxlength":"9","name":"CAMPING-CAR PARK Bühl","network":"CAMPING-CAR PARK","power_supply":"yes","power_supply:maxcurrent":"6","sanitary_dump_station":"yes","tents":"no","trailer":"no","water_point":"yes","website":"https://www.campingcarpark.com/en_GB/stay/stopover-site-motorhome/bade-wurtemberg/77-karlsruhe/buhl"}},"28645083":{"location":[48.6599218,8.2605339],"ct":"DE","tp":"CS","ts":"2021-11-17T19:52:02Z","tX":535,"tY":353,"tags":{"addr:city":"Forbach","addr:country":"DE","addr:housenumber":"22","addr:place":"Herrenwies","addr:postcode":"76596","caravans":"yes","description":"von Mitte Oktober bis April für Durchgangscamper geschlossen","fax":"+49 7226 920938","name":"Naturcamping Herrenwies","old_name":"Camping Seiter","permanent_camping":"yes","phone":"+49 7226 411","seasonal":"yes","tents":"yes","washing_machine":"yes","website":"https://www.camping-herrenwies.de"}},"47042151":{"location":[48.6192353,8.1215323],"ct":"DE","tp":"CR","ts":"2022-09-14T08:19:10Z","tX":535,"tY":353,"tags":{"addr:city":"Sasbachwalden","addr:country":"DE","addr:housenumber":"2","addr:postcode":"77887","addr:street":"Talstraße","capacity":"33","drinking_water":"yes","fee":"yes","internet_access":"wlan","internet_access:fee":"no","name":"Wohnmobilstellplatz Sasbachwalden","payment:coins":"yes","payment:girocard":"yes","phone":"+49 7841 1035","power_supply":"cee_17_blue","sanitary_dump_station":"yes","tents":"no","toilets":"yes","water_point":"yes","website":"https://www.sasbachwalden.de/Media/Camping/Sasbachwalden-Reisemobilstellplatz-Wohnmobilstellplatz-Sasbachwalden","wheelchair":"yes"}},"169834191":{"location":[48.5103825,8.3728676],"ct":"DE","tp":"CR","ts":"2024-07-24T08:55:27Z","tX":535,"tY":353,"tags":{"capacity":"12","caravan_site":"motorhome_stopover","caravan_site:type":"river","charge":"15 EUR","drinking_water":"yes","email":"info@baiersbronn.de","fee":"yes","name":"Wohnmobilstellplatz Baiersbronn","phone":"+49 7442 8414","power_supply":"yes","power_supply:charge":"0.50 EUR/kWh","power_supply:fee":"yes","reservation":"no","sanitary_dump_station":"yes","surface":"paved","tents":"no","toilets":"no","water_point":"yes","water_point:charge":"1 EUR","website":"https://www.baiersbronn.de/de-de/service/anreise/wohnmobil","wheelchair":"yes"}},"223806297":{"location":[48.4584406,8.3728195],"ct":"DE","tp":"CS","ts":"2024-10-28T03:12:00Z","tX":535,"tY":353,"tags":{"addr:city":"Freudenstadt","addr:housenumber":"167","addr:postcode":"72250","addr:street":"Straßburger Straße","cabins":"yes","camp_site":"deluxe","capacity":"120","caravans":"yes","drinking_water":"yes","email":"info@camping-langenwald.de","fee":"yes","internet_access":"wlan","internet_access:ssid":"CampingLangenwald","name":"Naturcamping Langenwald","operator":"Thomas Eiermann","phone":"+49 7441 2862","power_supply":"cee_17_blue","sanitary_dump_station":"yes","shower":"yes","tents":"yes","toilets":"yes","washing_machine":"yes","website":"https://camping-langenwald.de/"}},"227275825":{"location":[48.5606148,8.1541749],"ct":"DE","tp":"CS","ts":"2024-08-30T11:41:44Z","tX":535,"tY":353,"tags":{"access":"customers","addr:city":"Ottenhöfen im Schwarzwald","addr:housenumber":"1","addr:postcode":"77883","addr:street":"Murhof","caravans":"yes","dog":"yes","email":"campingplatz.murhof@gmail.com","fee":"yes","internet_access":"no","name":"Campingplatz Murhof","operator":"Klaus Rösch & Daniela Rösch GbR","payment:credit_cards":"yes","payment:girocard":"yes","payment:mastercard":"yes","payment:visa":"yes","permanent_camping":"yes","phone":"+491746153831","power_supply":"yes","reservation":"no","sanitary_dump_station":"yes","shower":"yes","tents":"yes","toilets":"yes","website":"https://campingplatz-murhof.de/"}},"230566666":{"location":[48.5274273,8.3060207],"ct":"DE","tp":"CS","ts":"2024-07-06T09:10:49Z","tX":535,"tY":353,"tags":{"caravans":"yes","email":"info@naturcamp-tannenfels.de","name":"Natur-Camp Tannenfels","nudism":"no","phone":"+49 163 1923224","tents":"yes","website":"https://naturcamp-tannenfels.de/"}},"259234083":{"location":[48.688629,8.1297042],"ct":"DE","tp":"CR","ts":"2024-03-23T18:32:53Z","tX":535,"tY":353,"tags":{"capacity":"16","caravans":"no","fax":"+49 7223 8982","fee":"yes","name":"Am Schwarzwaldbad","note":"Sanitäre Ver- und Entsorgung außer Betrieb","operator":"Adam Campingplatz","phone":"+49 7223 23194","power_supply":"no","sanitary_dump_station":"no","tents":"no","toilets":"no","water_point":"nn","website":"https://www.buehl.de/de/Kultur-Freizeit/Freizeit-Sport/Freizeiteinrichtungen/Campingplatz"}},"261879649":{"location":[48.6319307,8.3173547],"ct":"DE","tp":"CS","ts":"2024-06-25T19:38:14Z","tX":535,"tY":353,"tags":{"addr:city":"Forbach","addr:country":"DE","addr:housenumber":"18","addr:place":"Erbersbronn","addr:postcode":"76596","addr:suburb":"Erbersbronn","caravans":"yes","contact:phone":"+49 7228 774","contact:website":"https://camping-erbersbronn.de","drinking_water":"yes","internet_access":"wlan","name":"Campingplatz Erbersbronn","permanent_camping":"yes","power_supply":"yes","sanitary_dump_station":"yes","shower":"yes","tents":"yes","toilets":"yes","toilets:wheelchair":"no","wheelchair":"limited"}},"347669841":{"location":[48.5182208,8.1162859],"ct":"DE","tp":"CR","ts":"2021-10-26T05:41:41Z","tX":535,"tY":353,"tags":{"capacity":"8","fee":"yes","object:city":"Lautenbach","object:housenumber":"1","object:postcode":"77794","object:street":"Waldstraße","operator":"Gemeinde Lautenbach","power_supply":"yes","sanitary_dump_station":"yes","tents":"no","water_point":"yes","website":"https://www.renchtal-tourismus.de/erleben/wohnmobilstellplaetze/"}},"503231600":{"location":[48.6788365,8.2614505],"ct":"DE","tp":"CS","ts":"2022-08-18T07:19:11Z","tX":535,"tY":353,"tags":{"backcountry":"yes","camp_site":"basic","capacity:persons":"9","capacity:tents":"3","caravans":"no","drinking_water":"no","email":"info@trekking-schwarzwald.de","fee":"yes","name":"Trekking-Camp Grimbach","openfire":"yes","opening_hours":"Apr 1-Oct 31: \"needs reservation by phone or web\"","operator":"Naturpark Schwarzwald Mitte/Nord e.V.","phone":"+49 7223 957715 - 0","reservation":"required","shower":"no","tents":"yes","website":"https://www.trekking-schwarzwald.de/regionen/nordschwarzwald/camps/camp_grimbach"}},"503233738":{"location":[48.5965122,8.2348293],"ct":"DE","tp":"CS","ts":"2024-02-12T11:25:29Z","tX":535,"tY":353,"tags":{"backcountry":"yes","camp_site":"basic","capacity:persons":"9","capacity:tents":"3","caravans":"no","drinking_water":"no","email":"info@trekking-schwarzwald.de","fee":"yes","name":"Trekking-Camp Seibelseckle","openfire":"yes","opening_hours":"Apr 1-Oct 31: \"needs reservation by phone or web\"","operator":"Naturpark Schwarzwald Mitte/Nord e.V.","phone":"+49 7223 957715 - 0","power_supply":"no","reservation":"required","shower":"no","tents":"yes","toilets":"yes","website":"https://www.trekking-schwarzwald.de/regionen/nordschwarzwald/camps/camp_seibelseckle"}},"504155405":{"location":[48.4941523,8.2887356],"ct":"DE","tp":"CS","ts":"2022-08-18T07:19:11Z","tX":535,"tY":353,"tags":{"backcountry":"yes","camp_site":"basic","capacity:persons":"9","capacity:tents":"3","caravans":"no","drinking_water":"no","email":"info@trekking-schwarzwald.de","fee":"yes","name":"Trekking-Camp Bösellbach","openfire":"yes","opening_hours":"May 1-Oct 31: \"needs booking confirmation\"","operator":"Naturpark Schwarzwald Mitte/Nord e.V.","phone":"+49 7223 957715 – 0","reservation":"required","shower":"no","tents":"yes","website":"https://www.trekking-schwarzwald.de/regionen/nordschwarzwald/camps/camp_boesellbach"}},"505374065":{"location":[48.498277,8.3147513],"ct":"DE","tp":"CS","ts":"2024-05-14T13:07:09Z","tX":535,"tY":353,"tags":{"backcountry":"yes","camp_site":"basic","capacity:persons":"9","capacity:tents":"3","caravans":"no","drinking_water":"no","email":"info@trekking-schwarzwald.de","fee":"yes","name":"Trekking-Camp Gutellbach","openfire":"yes","opening_hours":"May 01-Oct 31: \"needs booking confirmation\"","operator":"Naturpark Schwarzwald Mitte/Nord e.V.","phone":"+49 7223 957715 – 0","reservation":"required","shower":"no","tents":"yes","website":"https://www.trekking-schwarzwald.de/regionen/nordschwarzwald/camps/camp_gutellbach"}},"511308456":{"location":[48.4625658,8.3251557],"ct":"DE","tp":"CS","ts":"2022-08-18T07:19:11Z","tX":535,"tY":353,"tags":{"backcountry":"yes","camp_site":"basic","capacity:persons":"9","capacity:tents":"3","caravans":"no","drinking_water":"no","email":"info@trekking-schwarzwald.de","fee":"yes","name":"Trekking-Camp Kniebis","openfire":"yes","opening_hours":"Apr 1-Oct 31: \"needs reservation by phone or web\"","operator":"Naturpark Schwarzwald Mitte/Nord e.V.","phone":"+49 7223 957715 - 0","reservation":"required","shower":"no","tents":"yes","website":"https://www.trekking-schwarzwald.de/regionen/nordschwarzwald/camps/camp_kniebis"}},"511309871":{"location":[48.5317898,8.2001942],"ct":"DE","tp":"CS","ts":"2022-08-18T07:19:11Z","tX":535,"tY":353,"tags":{"backcountry":"yes","camp_site":"basic","capacity:persons":"9","capacity:tents":"3","caravans":"no","drinking_water":"no","email":"info@trekking-schwarzwald.de","fee":"yes","name":"Trekking-Camp Erdbeerloch","openfire":"yes","opening_hours":"May 1-Oct 31: \"needs booking confirmation\"","operator":"Naturpark Schwarzwald Mitte/Nord e.V.","phone":"+49 7223 957715 - 0","reservation":"required","shower":"no","tents":"yes","website":"https://www.trekking-schwarzwald.de/regionen/nordschwarzwald/camps/camp_erdbeerloch"}},"550885436":{"location":[48.5901121,8.3218358],"ct":"DE","tp":"CS","ts":"2022-09-02T15:00:22Z","tX":535,"tY":353,"tags":{"landuse":"grass","name":"Naturcamping Schönmünz","source":"bing"}},"600042231":{"location":[48.6194936,8.1207321],"ct":"DE","tp":"SD","ts":"2020-01-17T14:51:06Z","tX":535,"tY":353,"tags":{"access":"yes","fee":"no","lit":"yes","opening_hours":"24/7","sanitary_dump_station:accepted":"black_water;tank_chemicals;grey_water"}},"1052998064":{"location":[48.61635,8.2113456],"ct":"DE","tp":"CS","ts":"2022-04-19T11:49:26Z","tX":535,"tY":353,"tags":{"access":"yes","backcountry":"yes","camp_site":"basic","fee":"no"}},"1054098759":{"location":[48.6622183,8.3256208],"ct":"DE","tp":"CS","ts":"2024-02-25T14:16:20Z","tX":535,"tY":353,"tags":{"backcountry":"yes","camp_site":"basic","capacity:persons":"9","capacity:tents":"3","caravans":"no","drinking_water":"no","email":"info@trekking-schwarzwald.de","fee":"yes","name":"Trekking-Camp Schwarzenbach","openfire":"no","opening_hours":"Apr-Oct: \"needs reservation by phone or web\"","operator":"Naturpark Schwarzwald Mitte/Nord e.V.","phone":"+49 7223 957715 - 0","power_supply":"no","reservation":"required","shower":"no","tents":"yes","toilets":"yes","website":"https://www.trekking-schwarzwald.de/regionen/nordschwarzwald/camps/camp_forbach"}},"1278873786":{"location":[48.4651569,8.1510508],"ct":"DE","tp":"CS","ts":"2024-05-01T19:34:16Z","tX":535,"tY":353,"tags":{"capacity":"3","caravans":"no","fee":"yes","name":"Kimmig's Trekking Camp am Renchtalsteig","phone":"+49 176 83508437","ref:komoot.com":"highlight/1438482","reservation":"yes","tents":"yes","website":"https://www.kimmigs-ferienhaeusle.de/trekking-camp-am-renchtalsteig"}},"1282009632":{"location":[48.583772,8.1265384],"ct":"DE","tp":"CR","ts":"2024-05-12T05:54:37Z","tX":535,"tY":353,"tags":{"capacity:caravans":"8","caravans":"yes","charge":"10","fee":"yes","name":"Wohnmobileck am Heidenhof","payment:cash":"no","payment:coins":"yes","payment:girocard":"yes","power_supply":"yes","reservation":"no","shower":"no","static_caravans":"no","tents":"no","toilets":"no"}},"1809924900":{"location":[48.5103074,8.3733164],"ct":"DE","tp":"SD","ts":"2024-07-24T08:55:57Z","tX":535,"tY":353,"tags":{"access":"yes","fee":"yes","wheelchair":"yes"}},"2449335993":{"location":[48.4765345,8.1697724],"ct":"DE","tp":"CR","ts":"2024-09-04T19:19:14Z","tX":535,"tY":353,"tags":{"fee":"no","internet_access":"no","power_supply":"yes","sanitary_dump_station":"yes","wheelchair":"yes"}},"3460951801":{"location":[48.5381642,8.0940652],"ct":"DE","tp":"CR","ts":"2024-05-14T11:29:54Z","tX":535,"tY":353,"tags":{"addr:city":"Oberkirch","addr:housenumber":"29","addr:postcode":"77704","addr:street":"Burgstraße","capacity":"4","drinking_water":"yes","fee":"yes","name":"Schauenburg Waldstellplatz","power_supply":"yes","sanitary_dump_station":"yes","toilets":"no","website":"https://www.schauenburg.de/index.php?article_id=52"}},"3835681665":{"location":[48.4718487,8.4160875],"ct":"DE","tp":"CR","ts":"2022-06-10T14:49:52Z","tX":535,"tY":353,"tags":{"capacity":"6","electricity":"no","fee":"no","internet_access":"no","motorhome":"yes","name":"Stellplatz am Panorama Bad","opening_hours":"24/7","power_supply":"no","sanitary_dump_station":"yes","water_point":"yes","website":"https://www.ferien-in-freudenstadt.de","wheelchair":"limited"}},"4241001469":{"location":[48.5380797,8.0941307],"ct":"DE","tp":"SD","ts":"2016-06-13T09:16:32Z","tX":535,"tY":353,"tags":{"access":"yes","fee":"yes"}},"5735834321":{"location":[48.6888802,8.3621884],"ct":"DE","tp":"CR","ts":"2019-06-20T14:16:45Z","tX":535,"tY":353,"tags":{"addr:city":"Forbach","addr:housenumber":"1","addr:postcode":"76596","addr:street":"Murgtalstraße","capacity":"6","email":"Dieterle-B@t-online.de","internet_access":"wlan","name":"Forbach","opening_hours":"24/7","operator":"Dieterle"}},"5527677092":{"location":[48.4584978,8.3731044],"ct":"DE","tp":"SD","ts":"2024-02-10T12:14:48Z","tX":535,"tY":353,"tags":{"access":"customers","sanitary_dump_station:chemical_toilet":"no","sanitary_dump_station:gravity":"yes","sanitary_dump_station:grey_water":"yes","water_point":"yes"}},"5527678901":{"location":[48.4721805,8.416183],"ct":"DE","tp":"SD","ts":"2018-04-04T11:12:11Z","tX":535,"tY":353,"tags":{"fee":"yes","sanitary_dump_station:chemical_toilet":"no","sanitary_dump_station:grey_water":"yes","water_point":"yes"}},"6415809090":{"location":[48.5183693,8.1163249],"ct":"DE","tp":"SD","ts":"2021-10-26T05:41:41Z","tX":535,"tY":353,"tags":{}},"7557370625":{"location":[48.4768386,8.1696989],"ct":"DE","tp":"SD","ts":"2024-09-04T19:18:21Z","tX":535,"tY":353,"tags":{"fee":"no"}}}