{"14471619":{"location":[48.4208999,8.4239679],"ct":"DE","tp":"CS","ts":"2022-09-25T13:46:36Z","tX":535,"tY":354,"tags":{"name":"Trekking-Camp Loßburg"}},"89804929":{"location":[48.2914157,8.2786428],"ct":"DE","tp":"CS","ts":"2024-09-02T12:32:30Z","tX":535,"tY":354,"tags":{"addr:city":"Wolfach","addr:housenumber":"80","addr:postcode":"77709","addr:street":"Schiltacher Straße","cabins":"yes","caravans":"yes","email":"info@trendcamping.de","name":"Trend Camping","operator":"Priska und Vinzenz Blum","permanent_camping":"yes","phone":"+497834 859309","tents":"yes","toilets:wheelchair":"yes","website":"https://www.trendcamping.de/","wheelchair":"limited"}},"177618179":{"location":[48.3840924,8.3023791],"ct":"DE","tp":"CS","ts":"2024-10-03T02:51:21Z","tX":535,"tY":354,"tags":{"addr:city":"Bad Rippoldsau-Schapbach","addr:country":"DE","addr:housenumber":"8","addr:postcode":"77776","addr:street":"Rippoldsauer Straße","caravans":"yes","dog":"yes","drinking_water":"yes","email":"camping@alisehof.de","fax":"+49 7839 1263","internet_access":"wlan","name":"Schwarzwald-Camping Alisehof","phone":"+49 7839 203","power_supply":"yes","sanitary_dump_station":"yes","shower":"yes","tents":"yes","website":"https://www.alisehof.de/"}},"216999439":{"location":[48.290553,8.3387231],"ct":"DE","tp":"CS","ts":"2024-08-14T18:38:52Z","tX":535,"tY":354,"tags":{"caravans":"yes","drinking_water":"yes","name":"Campingplatz Schiltach","operator":"Hermann Brede","sanitary_dump_station":"yes","shower":"yes","tents":"yes","toilets":"yes","washing_machine":"yes","website":"https://www.campingplatz-schiltach.com/"}},"223815642":{"location":[48.3562761,8.4124957],"ct":"DE","tp":"CS","ts":"2020-11-21T09:15:49Z","tX":535,"tY":354,"tags":{"addr:city":"Alpirsbach","addr:housenumber":"18","addr:postcode":"72275","addr:street":"Grezenbühler Weg","caravans":"yes","email":"camping-alpirsbach@t-online.de","fax":"+49 7444 917815","internet_access":"wlan","internet_access:fee":"no","name":"Camping Alpirsbach","operator":"Ralf Rudolph","phone":"+49 7444 6313","sanitary_dump_station":"yes","tents":"yes","website":"https://www.camping-alpirsbach.de/"}},"299868409":{"location":[48.2986705,8.2276396],"ct":"DE","tp":"CR","ts":"2024-06-21T07:18:19Z","tX":535,"tY":354,"tags":{"access":"yes","capacity":"5","fee":"no","lit":"yes","maxstay":"1 day","name":"Wohnmobilstellplatz Wolfach","operator":"Stadt Wolfach","operator:type":"public","parking":"surface","power_supply":"no","sanitary_dump_station":"no","supervised":"no","surface":"asphalt","water_point":"no","website":"https://www.wolfach.info/praktische-Infos/Tourist-Information-Wolfach2/Tourist-Information-Wolfach"}},"347967730":{"location":[48.3174406,8.2187049],"ct":"DE","tp":"CR","ts":"2024-06-23T13:12:58Z","tX":535,"tY":354,"tags":{"access":"yes","capacity:caravans":"9","caravans":"yes","name":"Wohnmobil Stellplätze Oberwolfach","operator":"Gemeinde Oberwolfach"}},"355788984":{"location":[48.4295453,8.1806119],"ct":"DE","tp":"CS","ts":"2023-11-04T10:23:20Z","tX":535,"tY":354,"tags":{"access":"customers","addr:city":"Bad Peterstal-Griesbach","addr:housenumber":"53A","addr:postcode":"77740","addr:street":"Renchtalstraße","capacity":"50","caravans":"yes","fee":"yes","internet_access":"wlan","name":"Camping Traiermühle","phone":"+497806 8064","power_supply":"yes","sanitary_dump_station":"yes","tents":"yes","website":"https://traiermuehle.de/"}},"546192778":{"location":[48.2681099,8.2377162],"ct":"DE","tp":"CS","ts":"2024-09-02T12:30:54Z","tX":535,"tY":354,"tags":{"addr:city":"Wolfach","addr:housenumber":"79","addr:postcode":"77709","addr:street":"Talstraße","caravans":"yes","email":"Camping-Kirnbach@t-online.de","fax":"+49 7834 8670975","name":"Campingplatz Zur Mühle","phone":"+49 7834 775","tents":"yes","washing_machine":"yes","website":"https://www.camping-kirnbach.de/"}},"686097864":{"location":[48.4339746,8.2141618],"ct":"DE","tp":"CR","ts":"2020-10-26T22:38:38Z","tX":535,"tY":354,"tags":{"addr:city":"Bad Peterstal-Griesbach","addr:housenumber":"40","addr:postcode":"77740","addr:street":"Schwarzwaldstraße","capacity":"10","internet_access":"wlan","name":"Wohnmobilstellplatz \"An den Heilquellen\"","power_supply":"yes","sanitary_dump_station":"yes","website":"https://www.an-den-heilquellen.de/"}},"816544903":{"location":[48.286314,8.1658162],"ct":"DE","tp":"CR","ts":"2024-06-14T00:03:17Z","tX":535,"tY":354,"tags":{"capacity":"8","charge":"8 EUR","fee":"no","name":"Wohnmobilstellplatz Stadt Hausach","opening_hours":"24/7","power_supply":"yes","power_supply:charge":"1 EUR/kWh","power_supply:fee":"yes","sanitary_dump_station":"yes","water_point":"yes","water_point:charge":"1 EUR/100 liter","website":"https://www.hausach.de/freizeit-kultur-tourismus/besucher-in-hausach/wohnmobilstellplatz"}},"963690108":{"location":[48.3428343,8.3970028],"ct":"DE","tp":"CR","ts":"2024-11-22T11:01:49Z","tX":535,"tY":354,"tags":{"capacity":"5","caravan_site":"motorhome_stopover","caravan_site:type":"railway_station","caravans":"no","check_date":"2022-05-20","fee":"no","name":"Wohnmobilstellplatz Alpirsbach","opening_hours":"24/7","power_supply":"no","sanitary_dump_station":"no","surface":"gravel","tents":"no","website":"https://www.schwarzwald-tourismus.info/attraktionen/wohnmobilstellplatz-cd34bcaae0"}},"1200679595":{"location":[48.291128,8.3424781],"ct":"DE","tp":"CR","ts":"2024-11-20T08:07:25Z","tX":535,"tY":354,"tags":{"capacity":"12","caravan_site":"motorhome_stopover","caravan_site:type":"village","caravans":"no","fee":"no","maxstay":"24 hours","motorhome":"yes","name":"Parkplatz \"Lehwiese\"","parking":"surface","power_supply":"no","ref":"P1","tents":"no","water_point":"no","website":"https://www.schiltach.de/anreise/Parkmoeglichkeit?view=publish&item=parkingLocation&id=1","wheelchair":"yes"}},"1207540151":{"location":[48.2488721,8.3186266],"ct":"DE","tp":"CR","ts":"2023-09-13T18:05:59Z","tX":535,"tY":354,"tags":{"fee":"no","power_supply":"no","sanitary_dump_station":"no"}},"1265809712":{"location":[48.2934076,8.2200463],"ct":"DE","tp":"PK","ts":"2024-03-24T13:40:06Z","tX":535,"tY":354,"tags":{"fee":"no","motorhome":"yes","name":"Parkplatz Herlinsbachweg","parking":"surface"}},"9960154113":{"location":[48.4208334,8.4226793],"ct":"DE","tp":"CS","ts":"2022-08-18T07:30:09Z","tX":535,"tY":354,"tags":{"backcountry":"yes","camp_site":"basic","capacity:persons":"9","capacity:tents":"3","caravans":"no","drinking_water":"no","email":"info@trekking-schwarzwald.de","fee":"yes","name":"Trekking-Camp Loßburg","opening_hours":"Apr 1-Oct 31: \"needs reservation by phone or web\"","operator":"Naturpark Schwarzwald Mitte/Nord e.V.","phone":"+49 7223 957715 - 0","reservation":"required","shower":"no","tents":"yes","website":"https://www.trekking-schwarzwald.de/regionen/nordschwarzwald/camps/camp_lossburg"}},"10931113205":{"location":[48.4197572,8.2361443],"ct":"DE","tp":"CS","ts":"2024-02-27T12:52:14Z","tX":535,"tY":354,"tags":{"backcountry":"yes","name":"TrekkingCamp Himmelsterrassen","openfire":"yes","operator":"Holger Bohnert","phone":"+49 162 82 30 828","reservation":"required","tents":"yes","toilets":"yes","website":"https://holgerbohnert.de/angebot/schlafspot/"}},"11994920069":{"location":[48.2704344,8.4008344],"ct":"DE","tp":"CR","ts":"2024-06-29T13:13:48Z","tX":535,"tY":354,"tags":{"addr:street":"Reißer","capacity":"3","name":"P3","power_supply":"yes","sanitary_dump_station":"yes"}},"12136415379":{"location":[48.2873568,8.165459],"ct":"DE","tp":"CR","ts":"2024-08-25T20:04:59Z","tX":535,"tY":354,"tags":{"charge":"5 EUR + 1 EUR per person / night","fee":"yes"}},"11994920169":{"location":[48.2703757,8.4007922],"ct":"DE","tp":"SD","ts":"2024-06-29T13:13:48Z","tX":535,"tY":354,"tags":{}},"12136406513":{"location":[48.2871786,8.1654013],"ct":"DE","tp":"SD","ts":"2024-08-25T20:04:42Z","tX":535,"tY":354,"tags":{"fee":"no"}}}