{"4261992":{"location":[48.0846664,8.3654395],"ct":"DE","tp":"CR","ts":"2021-08-25T07:39:54Z","tX":535,"tY":355,"tags":{"capacity":"19","contact:email":"ackerloch@grillschopf.de","contact:fax":"+49 7721 52291","contact:mobile":"+49 175 8250735","contact:phone":"+49 7721 54421","fee":"yes","name":"Wohnmobilstellplatz Ackerloch Grillschopf","operator":"Iuliana Luca","power_supply":"yes","sanitary_dump_station":"yes","water_point":"yes","website":"https://grillschopf.de/wohnmobil-stellplaetze/"}},"28409545":{"location":[48.0495163,8.2089148],"ct":"DE","tp":"CR","ts":"2024-12-22T19:53:59Z","tX":535,"tY":355,"tags":{"caravan_site":"motorhome_stopover","caravan_site:type":"river","charge":"5 EUR","drinking_water":"no","fee":"yes","internet_access":"no","name":"Wohnmobilstellplatz Schillerstraße","panoramax":"12f5c438-9954-496a-86fd-33e732298826","power_supply":"no","sanitary_dump_station":"no","surface":"asphalt","toilets":"no","website":"https://www.furtwangen.de/startseite/tourismus+_+freizeit/wohnmobilstellplaetze.html","wheelchair":"yes"}},"37046100":{"location":[48.0570664,8.4249327],"ct":"DE","tp":"CS","ts":"2024-06-24T10:18:49Z","tX":535,"tY":355,"tags":{"access":"private","addr:city":"Villingen-Schwenningen","addr:country":"DE","addr:housenumber":"10","addr:street":"Alte Vöhrenbacher Straße","addr:suburb":"Villingen","capacity":"300","caravans":"no","description":"Kein öffentlicher Campingplatz! Jugendzeltplatz für Pfadfinder und andere Jugendgruppen. Neu erstellt 2010 mit großem Blockhaus.","group_only":"yes","name":"Jugendzeltplatz Villingen-Schwenningen","operator":"DPSG Villingen","tents":"yes","website":"http://www.jugendzeltplatz-vs.de/","wheelchair":"yes"}},"37134114":{"location":[48.0773119,8.3674162],"ct":"DE","tp":"CR","ts":"2025-06-19T10:56:21Z","tX":535,"tY":355,"tags":{"capacity":"17","fee":"yes","name":"Reisemobilpark Unterkirnach","operator":"Gemeinde Unterkirnach","power_supply":"yes","sanitary_dump_station":"yes","website":"https://www.unterkirnach.de/index.php?id=111"}},"79370112":{"location":[48.1097614,8.2011472],"ct":"DE","tp":"CS","ts":"2023-11-07T11:11:01Z","tX":535,"tY":355,"tags":{"addr:city":"Schönwald im Schwarzwald","addr:housenumber":"18","addr:postcode":"78141","addr:street":"Friedhofstraße","capacity":"15","caravans":"yes","ele":"1016","fee":"yes","internet_access":"wlan","name":"Lynx Camp & Camping Resort","operator":"Nicole E. Hardt","phone":"+49 7722 8686786","power_supply":"yes","tents":"yes","website":"https://www.lynx.camp/"}},"112715765":{"location":[48.1459225,8.1885912],"ct":"DE","tp":"CR","ts":"2024-12-25T13:33:20Z","tX":535,"tY":355,"tags":{"addr:city":"Schonach im Schwarzwald","addr:postcode":"78136","addr:street":"Obertalstraße","capacity":"10","caravan_site":"motorhome_stopover","caravan_site:type":"village;skiing","charge":"12 EUR","ele":"878","fee":"yes","name":"Reisemobilstellplatz Obertal","power_supply":"yes","sanitary_dump_station":"yes","surface":"grass_paver","water_point":"yes","website":"https://www.hochschwarzwald.de/attraktionen/reisemobilstellplatz-schonach-415429d43b"}},"124188483":{"location":[48.1215134,8.3333986],"ct":"DE","tp":"CR","ts":"2024-12-22T20:54:54Z","tX":535,"tY":355,"tags":{"capacity":"5","caravan_site":"motorhome_stopover","caravan_site:type":"lake;beach","fee":"no","lit":"no","motorhome":"designated","name":"Wohnmobilstellplatz am Klosterweiher","name:signed":"no","opening_hours":"24/7","power_supply":"no","sanitary_dump_station":"no","seasonal":"no","supervised":"no","surface":"grass_paver","water_point":"no","website":"https://www.hochschwarzwald.de/attraktionen/wohnmobilstellplatz-am-klosterweiher-71c98a24b1"}},"133788854":{"location":[48.0972889,8.1958147],"ct":"DE","tp":"CR","ts":"2023-07-06T13:30:19Z","tX":535,"tY":355,"tags":{"access":"yes","fee":"no","parking":"surface"}},"362236162":{"location":[48.1137777,8.2414723],"ct":"DE","tp":"CS","ts":"2019-08-25T10:10:56Z","tX":535,"tY":355,"tags":{"capacity":"40","caravans":"no","group_only":"yes","name":"Waldjugendzeltplatz Moosenberg","operator":"Forstrevier Schönwald","tents":"yes"}},"415321231":{"location":[48.1900978,8.3538546],"ct":"DE","tp":"PK","ts":"2024-03-24T13:40:06Z","tX":535,"tY":355,"tags":{"motorhome":"yes","name":"Transitplatz Tennenbronn"}},"497755350":{"location":[48.1018003,8.2813379],"ct":"DE","tp":"CS","ts":"2020-10-21T03:05:47Z","tX":535,"tY":355,"tags":{"access":"permissive","addr:city":"St. Georgen im Schwarzwald","addr:housenumber":"21","addr:postcode":"78112","addr:street":"Kesselbergweg","camp_site":"basic","capacity":"ab 10","caravans":"no","charge":"ab 9,50€","description":"Kein echter Campingplatz, nur Jugendgruppenhaus mit Zeltplatz","fee":"yes","group_only":"yes","internet_access":"wlan","internet_access:fee":"no","name":"Gruppenunterkunft Kesselberghaus","operator":"Jugenderholungs- und Bildungsstätten Südbanden e.V.","payment:cash":"yes","payment:wire_transfer":"yes","tents":"yes","toilets":"yes","website":"http://www.kesselberghaus.de/"}},"565690535":{"location":[48.0883517,8.249286],"ct":"DE","tp":"CS","ts":"2023-11-07T11:09:55Z","tX":535,"tY":355,"tags":{"group_only":"yes","name":"Zeltlagerplatz Stöcklewald","website":"https://www.stoecklewald.de/"}},"640965116":{"location":[48.0245444,8.2276692],"ct":"DE","tp":"CS","ts":"2023-09-11T06:43:09Z","tX":535,"tY":355,"tags":{"addr:city":"Furtwangen","addr:postcode":"78120","addr:street":"Linach","backcountry":"no","dog":"yes","email":"info@zumwildenmichel.de","motorhome":"yes","name":"Zum Wilden Michel","operator":"Urste & kó GmbH","phone":"+49 7723 7420","reservation":"yes","shower":"yes","tents":"yes","toilets":"yes","website":"https://www.zumwildenmichel.de"}},"996728845":{"location":[48.1405556,8.4056373],"ct":"DE","tp":"CR","ts":"2021-10-26T21:46:13Z","tX":535,"tY":355,"tags":{"capacity":"21","fee":"yes","name":"Bregnitzhof"}},"1084494053":{"location":[48.1952435,8.1858357],"ct":"DE","tp":"CR","ts":"2025-05-31T18:09:19Z","tX":535,"tY":355,"tags":{"access":"permit","power_supply":"yes","sanitary_dump_station":"yes"}},"1108262645":{"location":[48.1323221,8.2325204],"ct":"DE","tp":"CR","ts":"2024-12-20T18:35:42Z","tX":535,"tY":355,"tags":{"addr:city":"Triberg im Schwarzwald","addr:housenumber":"1","addr:postcode":"78098","addr:street":"An der Gutach","capacity":"6","capacity:caravans":"5","caravan_site":"motorhome_stopover","caravan_site:type":"hotel","description":"Sanatory dump station at Triberg railway station (1.5 km)","drinking_water":"yes","email":"info@daheim-triberg.de","fee":"yes","name":"daHeim Triberg","phone":"+49 77 22 77 68 710","power_supply":"yes","reservation":"yes","sanitary_dump_station":"no","toilets":"yes","water_point":"yes","website":"https://daheim-triberg.de/stellplaetze/"}},"1131959057":{"location":[48.0395462,8.1910134],"ct":"DE","tp":"CR","ts":"2024-12-22T19:55:50Z","tX":535,"tY":355,"tags":{"caravan_site":"motorhome_stopover","caravan_site:type":"countryside","charge":"5.00 EUR/24 hours","description":"Direkt beim Freizeitcenter Furtwangen in der Hinterbreg 15 befindet sich ein Wohnmobilstellplatz in ruhiger Lage. Am Ortsausgang von Furtwangen gelegen.","fee":"yes","name":"Wohnmobilstellplatz Hinterbreg","operator":"Freizeitcenter Furtwangen","power_supply":"no","sanitary_dump_station":"no","website":"https://www.furtwangen.de/startseite/tourismus+_+freizeit/wohnmobilstellplaetze.html"}},"1131961601":{"location":[48.0954149,8.1563439],"ct":"DE","tp":"CR","ts":"2024-12-22T19:58:54Z","tX":535,"tY":355,"tags":{"caravan_site":"motorhome_stopover","caravan_site:type":"hotel","charge":"10 EUR/night","fee":"yes","maxlength":"5.5","name":"Kolmenhof-Camper Stellplatz","website":"https://www.kolmenhof.de/t/campground"}},"1158249850":{"location":[48.2144338,8.1385671],"ct":"DE","tp":"CR","ts":"2025-01-28T13:02:24Z","tX":535,"tY":355,"tags":{"addr:city":"Elzach","addr:housenumber":"8","addr:postcode":"79215","addr:street":"Schulstraße","capacity":"12","caravan_site":"motorhome_stopover","caravan_site:type":"swimming_pool","caravans":"yes","charge":"15 EUR","email":"elzach@oberprechtal.de","fee":"yes","motorhome":"yes","name":"Oberprechtal Elzwiese","operator":"Gemeinde Oberprechtal","phone":"+49 7682 19433","power_supply":"yes","reservation":"no","website":"https://www.elzach.de/startseite/leben+_+erleben/urlaub+mit+dem+wohnmobil.html"}},"1174658921":{"location":[48.1453204,8.174777],"ct":"DE","tp":"CR","ts":"2023-05-20T22:29:16Z","tX":535,"tY":355,"tags":{"capacity":"3","name":"Wohnmobilstellplatz Wilhelmshöhe","opening_hours":"24/7","power_supply":"no","sanitary_dump_station":"no","tents":"no","water_point":"no"}},"1265811937":{"location":[48.2141078,8.2317732],"ct":"DE","tp":"CR","ts":"2024-03-24T13:49:28Z","tX":535,"tY":355,"tags":{"addr:city":"Hornberg","addr:housenumber":"2","addr:postcode":"78132","addr:street":"Rebbergstraße","capacity":"8","caravans":"no","charge":"13.40 EUR","description":"fee includes Konus-Gästekarte","email":"tourist-info@hornberg.de","fax":"+49 7833 793-29","fee":"yes","internet_access":"no","name":"Wohnmobilstellplatz Hornberg","operator":"Stadt Hornberg","phone":"+49 7833 793-44","power_supply":"yes","power_supply:charge":"1 EUR/2 kWh","sanitary_dump_station":"yes","tents":"no","water_point:charge":"1 EUR/80 liter","website":"https://www.hornberg.de/de/Tourismus-Freizeit/Wohnmobilstellplatz"}},"1283836350":{"location":[48.1535463,8.1206936],"ct":"DE","tp":"CR","ts":"2024-12-26T23:00:39Z","tX":535,"tY":355,"tags":{"bakery_service":"yes","capacity":"2","caravan_site":"motorhome_stopover","caravan_site:type":"farm_shop","email":"info@schneiderhofurlaub.de","fee":"yes","internet_access":"no","name":"Wohnmobilstellplatz Schneiderhof","phone":"+49 7682 87 24","power_supply":"yes","reservation":"required","sanitary_dump_station":"no"}},"1314722470":{"location":[48.1304873,8.2289245],"ct":"DE","tp":"CR","ts":"2024-12-20T18:35:42Z","tX":535,"tY":355,"tags":{"capacity":"3","caravan_site":"motorhome_stopover","caravan_site:type":"parking_lot","fee":"no","name":"Stellplatz Wallfahrtstraße Triberg","orientation":"parallel","power_supply":"no","sanitary_dump_station":"no","surface":"sett","water_point":"no"}},"1331465880":{"location":[48.0028484,8.3241834],"ct":"DE","tp":"CS","ts":"2024-11-06T20:31:05Z","tX":535,"tY":355,"tags":{"backcountry":"yes","capacity":"3","caravans":"no","drinking_water":"no","internet_access":"no","name":"Trekking-Camp zum Katzenwinkel","network":"Trekking Schwarzwald","opening_hours":"May 01 - Oct 31","operator":"Stadt Vöhrenbach","reservation":"required","sanitary_dump_station":"no","tents":"yes","toilets":"yes","website":"https://trekking-schwarzwald.de/regionen/suedschwarzwald/camps/camp_zum_katzenwinkel"}},"1867331605":{"location":[48.1457673,8.1886531],"ct":"DE","tp":"CR","ts":"2023-07-28T07:38:16Z","tX":535,"tY":355,"tags":{"addr:city":"Schonach im Schwarzwald","addr:postcode":"78136","addr:street":"Obertalstraße","capacity":"10","ele":"878","fee":"yes","name":"Reisemobilstellplatz Obertal","power_supply":"yes","sanitary_dump_station":"yes","water_point":"yes"}},"3761510040":{"location":[48.1316873,8.2529723],"ct":"DE","tp":"CR","ts":"2024-12-20T18:35:42Z","tX":535,"tY":355,"tags":{"capacity":"15","caravan_site":"motorhome_stopover","caravan_site:type":"village","fee":"no","internet_access":"no","motorhome":"yes","name":"Wohnmobilplatz Nussbach - Triberg","power_supply":"m","sanitary_dump_station":"no","shower":"no","toilets":"no","water_point":"no"}},"7750307749":{"location":[48.1526041,8.2659429],"ct":"DE","tp":"CS","ts":"2023-11-07T11:10:30Z","tX":535,"tY":355,"tags":{"name":"Hilserhof","website":"https://www.hilserhof.de/"}},"10991784818":{"location":[48.1590665,8.1720629],"ct":"DE","tp":"CS","ts":"2024-02-27T16:39:10Z","tX":535,"tY":355,"tags":{"access":"permit","backcountry":"yes","camp_site":"basic","capacity:persons":"9","capacity:tents":"3","caravans":"no","drinking_water":"yes","fee":"yes","lit":"no","motor_vehicle":"no","name":"Trekking-Camp Herrenwald","operator":"Naturpark Südschwarzwald","reservation":"required","shower":"no","surface":"fine_gravel","tents":"yes","website":"https://www.trekking-schwarzwald.de/regionen/suedschwarzwald/camps/camp_herrenwald"}},"10991967941":{"location":[48.1460929,8.1523213],"ct":"DE","tp":"CS","ts":"2024-02-27T16:39:10Z","tX":535,"tY":355,"tags":{"access":"permit","backcountry":"yes","camp_site":"basic","capacity:persons":"9","capacity:tents":"3","caravans":"no","drinking_water":"yes","fee":"yes","lit":"no","motor_vehicle":"no","name":"Trekking-Camp Fischbach","operator":"Naturpark Südschwarzwald","reservation":"required","shower":"no","surface":"fine_gravel","tents":"yes","website":"https://www.trekking-schwarzwald.de/regionen/suedschwarzwald/camps/camp_fischbach"}},"10991982676":{"location":[48.1226791,8.1895595],"ct":"DE","tp":"CS","ts":"2024-02-27T16:39:10Z","tX":535,"tY":355,"tags":{"access":"permit","backcountry":"yes","camp_site":"basic","capacity:persons":"9","capacity:tents":"3","caravans":"no","drinking_water":"yes","fee":"yes","lit":"no","motor_vehicle":"no","name":"Trekking-Camp Elzhof","operator":"Naturpark Südschwarzwald","reservation":"required","shower":"no","surface":"fine_gravel","tents":"yes","website":"https://www.trekking-schwarzwald.de/regionen/suedschwarzwald/camps/camp_elzhof"}},"11849607644":{"location":[48.1323565,8.4126143],"ct":"DE","tp":"CS","ts":"2024-07-24T08:01:05Z","tX":535,"tY":355,"tags":{"backcountry":"yes","capacity":"3","caravans":"no","fee":"yes","name":"Trekking-Camp Königsfeld","network":"Trekking Schwarzwald","opening_hours":"May 1 - Oct 31","reservation":"required","sanitary_dump_station":"no","tents":"yes","toilets":"yes","website":"https://trekking-schwarzwald.de/regionen/suedschwarzwald/camps/camp_koenigsfeld"}},"5650234164":{"location":[48.0479326,8.1418937],"ct":"DE","tp":"CR","ts":"2024-12-23T18:43:04Z","tX":535,"tY":355,"tags":{"capacity":"6","caravan_site":"motorhome_stopover","caravan_site:type":"village","name":"Wohnmobilstellplatz Gütenbach","power_supply":"no","reservation":"yes","sanitary_dump_station":"no","surface":"gravel","water_point":"no","website":"https://www.schwarzwald-tourismus.info/unterkuenfte/wohnmobilstellplatz-guetenbach-abe747d71a"}},"7750328488":{"location":[48.1528385,8.265688],"ct":"DE","tp":"CR","ts":"2021-07-09T21:36:37Z","tX":535,"tY":355,"tags":{"name":"Hilserhof","power_supply":"yes","sanitary_dump_station":"no"}},"12009590781":{"location":[48.1385514,8.2382081],"ct":"DE","tp":"CR","ts":"2024-12-23T18:39:01Z","tX":535,"tY":355,"tags":{"caravan_site":"motorhome_stopover","caravan_site:type":"railway_station","charge":"10 EUR","fee":"yes","name":"Wohnmobilstellplatz am Bahnhof Triberg","opening_hours":"24/7"}},"5258079430":{"location":[48.077066,8.3672646],"ct":"DE","tp":"SD","ts":"2017-12-20T13:04:14Z","tX":535,"tY":355,"tags":{"description":"Holiday Clean Anlage","fee":"no","operator":"Gemeinde Unterkirnach","water_point":"yes"}},"8077588054":{"location":[48.2142579,8.1388594],"ct":"DE","tp":"SD","ts":"2025-01-28T13:02:24Z","tX":535,"tY":355,"tags":{"access":"yes","fee":"no","name":"Oberprechtal Elzwiese","operator":"Gemeinde Oberprechtal"}},"9203370959":{"location":[48.140385,8.4061451],"ct":"DE","tp":"SD","ts":"2021-10-26T21:46:13Z","tX":535,"tY":355,"tags":{}},"12451075492":{"location":[48.0972419,8.1956226],"ct":"DE","tp":"CR","ts":"2024-12-25T13:33:20Z","tX":535,"tY":355,"tags":{"caravan_site":"motorhome_stopover","caravan_site:type":"skiing;parking_lot","fee":"no","name":"Wohnmobilstellplatz Schönwald","power_supply":"no","sanitary_dump_station":"no","surface":"asphalt","water_point":"no"}},"12879161688":{"location":[48.1711907,8.1087343],"ct":"DE","tp":"CS","ts":"2025-06-01T14:55:29Z","tX":535,"tY":355,"tags":{"bbq":"yes","capacity:persons":"6","capacity:tents":"3","caravans":"yes","dog":"yes","drinking_water":"yes","fee":"yes","power_supply":"yes","reservation":"required","shower":"yes","tents":"yes","toilets":"yes","website":"https://nomady.camp/en-US/l/entschleunigte-schwarzwald-idylle/6582bef3-cf40-4d9b-84d1-97a871d55304"}},"12879186057":{"location":[48.042664,8.1052729],"ct":"DE","tp":"CS","ts":"2025-06-01T15:12:39Z","tX":535,"tY":355,"tags":{"caravans":"no","dog":"yes","drinking_water":"yes","fee":"yes","openfire":"no","power_supply":"no","reservation":"required","shower":"no","tents":"yes","toilets":"no","website":"https://nomady.camp/en-US/l/idyllisch-zelten-am-zweitalersteig/6582bef3-8302-4839-b689-49e993aa9b46"}}}