{"13107135":{"location":[47.8870983,8.1396003],"ct":"DE","tp":"CS","ts":"2023-10-30T03:32:45Z","tX":535,"tY":356,"tags":{"caravans":"yes","email":"info@camping-sandbank.de","name":"Sandbank","permanent_camping":"yes","phone":"+49 7651 972 48 48","tents":"yes","website":"https://www.camping-sandbank.de/","wheelchair":"no"}},"17912267":{"location":[47.9070167,8.1619604],"ct":"DE","tp":"CR","ts":"2024-12-22T19:48:42Z","tX":535,"tY":356,"tags":{"caravan_site":"motorhome_stopover","caravan_site:type":"swimming_pool;street_side","description":"Outside parking_lot","fee":"no","name":"Großparkplatz P1 Titisee Am Badeparadies","website":"https://www.hochschwarzwald.de/attraktionen/grossparkplatz-p1-314fd9497e"}},"35460146":{"location":[47.7943912,8.2358087],"ct":"DE","tp":"CS","ts":"2025-05-21T05:20:07Z","tX":535,"tY":356,"tags":{"name":"Rothaus Camping","toilets:wheelchair":"no","website":"https://www.rothaus-camping.com/","wheelchair":"yes"}},"106946842":{"location":[47.8620939,8.2262595],"ct":"DE","tp":"CS","ts":"2023-10-30T03:36:49Z","tX":535,"tY":356,"tags":{"cabins":"yes","caravans":"yes","dog":"yes","fee":"yes","internet_access":"wlan","name":"Camping Kreuzhof","permanent_camping":"yes","power_supply":"yes","shower":"yes","source:outline":"Bing","stars":"4","tents":"yes","toilets":"yes","website":"https://camping-kreuzhof.de/"}},"111450557":{"location":[47.8175995,8.1670051],"ct":"DE","tp":"CS","ts":"2025-03-08T21:25:24Z","tX":535,"tY":356,"tags":{"access":"private","caravans":"yes","drinking_water":"yes","name":"Campingplatz Wolfsgrund","permanent_camping":"only","power_supply":"yes","shower":"yes","tents":"yes","toilets":"yes"}},"120360236":{"location":[47.8212695,8.1610392],"ct":"DE","tp":"CS","ts":"2024-11-15T12:52:58Z","tX":535,"tY":356,"tags":{"addr:city":"Schluchsee","addr:country":"DE","addr:housenumber":"1/1","addr:postcode":"79859","addr:street":"Gewann Zeltplatz","caravans":"yes","email":"info@camping-schluchsee.de","name":"Campingplatz Schluchsee","payment:cash":"yes","phone":"+49 76 56 5 73","stars":"4","tents":"yes","website":"https://www.camping-schluchsee.de/index.html"}},"130345188":{"location":[47.8849658,8.1308073],"ct":"DE","tp":"CS","ts":"2024-02-27T16:47:31Z","tX":535,"tY":356,"tags":{"addr:city":"Hinterzarten","addr:housenumber":"31a","addr:postcode":"79856","addr:street":"Bruderhalde","cabins":"yes","caravans":"yes","email":"info@camping-bankenhof.de","fee":"yes","internet_access":"wlan","internet_access:fee":"yes","name":"Bankenhof","phone":"+49 7652 13 51","static_caravans":"yes","tents":"yes","website":"https://www.camping-bankenhof.de/","wheelchair":"limited"}},"136884199":{"location":[47.8960021,8.137792],"ct":"DE","tp":"CS","ts":"2024-05-10T07:36:57Z","tX":535,"tY":356,"tags":{"caravans":"yes","drinking_water":"yes","email":"info@camping-buehlhof.de","name":"Bühlhof","phone":"+4915773155969","shower":"yes","tents":"yes","toilets":"yes","website":"https://www.camping-buehlhof.de/"}},"166803072":{"location":[47.8193856,8.1916329],"ct":"DE","tp":"CS","ts":"2021-01-17T19:01:29Z","tX":535,"tY":356,"tags":{"access":"customers","addr:city":"Schluchsee","addr:country":"DE","addr:housenumber":"26","addr:postcode":"79859","addr:street":"Unterer Mühlenweg","name":"Campingplatz Keller","permanent_camping":"only","website":"https://campingplatz-keller.de/"}},"170955217":{"location":[47.8359842,8.1318682],"ct":"DE","tp":"CS","ts":"2023-06-06T09:02:16Z","tX":535,"tY":356,"tags":{"addr:city":"Schluchsee","addr:housenumber":"8","addr:postcode":"79859","addr:street":"Vorderaha","cabins":"yes","caravans":"no","dog":"no","email":"info@segelzentrum-schluchsee.de","internet_access":"no","name":"NaturCamp Schluchsee e.V.","shower":"yes","tents":"yes","toilets":"yes","toilets:wheelchair":"yes","website":"https://www.naturcamp-schluchsee.de/","wheelchair":"yes","wheelchair:description":"Wassersportmöglichkeiten für Rollstuhlfahrer"}},"178047024":{"location":[47.8887851,8.1334167],"ct":"DE","tp":"CS","ts":"2023-08-06T17:09:39Z","tX":535,"tY":356,"tags":{"addr:city":"Hinterzarten","addr:housenumber":"25","addr:postcode":"79856","addr:street":"Bruderhalde","caravans":"yes","drinking_water":"yes","internet_access":"wlan","name":"Campingplatz Weiherhof","opening_hours":"24/7","phone":"+497652228","shower":"yes","tents":"yes","toilets":"yes","toilets:wheelchair":"yes","website":"http://www.camping-titisee.de/"}},"182465456":{"location":[47.7884297,8.2615706],"ct":"DE","tp":"CS","ts":"2021-01-04T14:14:37Z","tX":535,"tY":356,"tags":{"caravans":"no","email":"sekretariat@grafenhausen.de","group_only":"yes","name":"Jugendzeltplatz Schlüchtseewinkel","operator":"Gemeinde Grafenhausen","phone":"+49 7748 52021","tents":"yes"}},"185194362":{"location":[47.9299689,8.3660851],"ct":"DE","tp":"CS","ts":"2025-06-02T12:49:27Z","tX":535,"tY":356,"tags":{"addr:city":"Bräunlingen","addr:housenumber":"15","addr:postcode":"78199","addr:street":"Seestraße","addr:suburb":"Unterbrand","caravans":"yes","drinking_water":"yes","name":"Campingplatz Kirnbergsee","phone":"+49 7654 7510","power_supply":"yes","sanitary_dump_station":"yes","shower":"yes","tents":"yes","toilets":"yes","website":"https://campingplatz-kirnbergsee.de/"}},"188111327":{"location":[47.8125354,8.2832153],"ct":"DE","tp":"CS","ts":"2022-11-03T16:04:04Z","tX":535,"tY":356,"tags":{"capacity:persons":"70","caravans":"no","group_only":"yes","name":"Zeltplatzschule Öttiswald","operator":"ForstBW","tents":"yes","website":"https://jugendzeltplatz-öttiswald.de/"}},"220892540":{"location":[47.8151301,8.1811373],"ct":"DE","tp":"CR","ts":"2018-01-03T07:03:21Z","tX":535,"tY":356,"tags":{"addr:city":"Schluchsee","addr:country":"DE","addr:housenumber":"18","addr:postcode":"79859","addr:street":"Faulenfürster Straße","fee":"yes","name":"Wohnmobilstellplatz Schluchsee","operator":"Gemeinde Schluchsee","power_supply":"yes","start_date":"2013","tents":"no"}},"231937427":{"location":[47.8165604,8.3398341],"ct":"DE","tp":"CR","ts":"2025-01-30T17:26:29Z","tX":535,"tY":356,"tags":{"capacity":"12","caravan_site":"motorhome_stopover","caravan_site:type":"swimming_pool","charge":"9.70 EUR","dog":"yes","fee":"yes","internet_access":"wlan","internet_access:fee":"no","lit":"yes","maxstay":"3 days","name":"Beim Schwimmbad Benndorf","power_supply":"yes","power_supply:charge":"0.50 EUR/kWh","power_supply:maxcurrent":"16","reservation":"no","sanitary_dump_station":"yes","water_point":"yes","water_point:charge":"0.10 EUR/8 liter","water_point:fee":"yes"}},"385222594":{"location":[47.8680095,8.1256434],"ct":"DE","tp":"CR","ts":"2025-03-25T12:28:51Z","tX":535,"tY":356,"tags":{"caravan_site":"motorhome_stopover","caravan_site:type":"miniature_golf","charge":"10 EUR / 24h","disused:tourism":"caravan_site","drinking_water":"no","fee":"yes","name":"Wohnmobilstellplatz Minigolf Falkau","power_supply":"no","sanitary_dump_station":"no","toilets":"yes"}},"396761241":{"location":[47.8865068,8.1306426],"ct":"DE","tp":"CR","ts":"2022-09-20T10:26:10Z","tX":535,"tY":356,"tags":{"capacity":"8","contact:phone":"+49 7652 1351","description":"Stellplatz vor der Schranke.","fee":"yes","name":"Camping Bankenhof","operator":"Camping Bankenhof GmbH","power_supply":"no","sanitary_dump_station":"yes","toilets":"no","water_point":"yes","website":"https://www.camping-bankenhof.de/camping/camping-wohnmobilstellplatz-bankenhof-titisee.html"}},"895031524":{"location":[47.9257675,8.353989],"ct":"DE","tp":"CR","ts":"2025-04-07T11:16:25Z","tX":535,"tY":356,"tags":{"access":"yes","capacity":"3","description:de":"Schotterplatz direkt neben der Durchgangsstrasse, keinerlei Infrastruktur, 23€/Nacht","drinking_water":"no","fee":"yes","internet_access":"no","name":"Stellplatz am Waldrand unweit des Kirnbergsees","opening_hours":"24/7","operator":"roadsurfer & Forstbetrieb Fürst zu Fürstenberg","orientation":"perpendicular","parking":"surface","power_supply":"no","reservation":"yes","sanitary_dump_station":"no","supervised":"no","surface":"pebblestone","tents":"no","toilets":"no","website":"https://spots.roadsurfer.com/de-de/shop/stellplatz-am-waldrand-unweit-des-kirnbergsees~p69527","wheelchair":"yes"}},"1081415996":{"location":[47.8836883,8.1279402],"ct":"DE","tp":"CS","ts":"2022-07-26T13:00:04Z","tX":535,"tY":356,"tags":{"barrier":"fence","email":"info@camping-bankenhof.de","group_only":"yes","name":"Jugendzeltplatz Bankenhof","operator":"Campingplatz Bankenhof","phone":"+49 7652 13 51","toilets":"yes","website":"https://www.camping-bankenhof.de/"}},"1215146315":{"location":[47.8533525,8.1227437],"ct":"DE","tp":"CR","ts":"2025-03-25T09:31:50Z","tX":535,"tY":356,"tags":{"capacity":"6","caravan_site":"motorhome_stopover","caravan_site:type":"lake","charge":"18 EUR","check_in":"12:00","check_out":"12:00","drinking_water":"no","fee":"yes","name":"Camping am Badesee Windgfällweiher","power_supply":"no","sanitary_dump_station":"no","surface":"unpaved","toilets":"no","website":"https://spots.roadsurfer.com/de-de/shop/camping-am-badesee-windgfallweiher~p633888"}},"1297402107":{"location":[47.8585398,8.1154289],"ct":"DE","tp":"CR","ts":"2025-05-19T08:03:18Z","tX":535,"tY":356,"tags":{"capacity":"16","caravan_site":"motorhome_stopover","caravan_site:type":"railway_station","caravans":"no","charge":"10 EUR","description":"nur Wohnmobile, keine Wohnwagen","drinking_water":"yes","fee":"yes","name":"Wohnmobilstellplatz Feldberg","operator":"Gemeinde Feldberg","power_supply":"yes","power_supply:charge":"1 EUR/8 hours","power_supply:fee":"yes","reservation":"no","sanitary_dump_station":"no","seasonal":"no","toilets":"no","traffic_sign":"DE:283,1010-58;314,1010-67","water_point":"yes","water_point:charge":"1 EUR/100 liter","water_point:fee":"yes","website":"https://feldberg.org/themen-bewegen/wohnmobilstellplatz"}},"1322326262":{"location":[47.7868371,8.2446773],"ct":"DE","tp":"CR","ts":"2024-12-22T15:25:05Z","tX":535,"tY":356,"tags":{"capacity":"22","caravan_site":"motorhome_stopover","charge":"15 EUR","fee":"yes","name":"Wohnmobilstellplatz Feriendorf Grafenhausen","power_supply":"yes","sanitary_dump_station":"yes","water_point":"yes","water_point:fee":"yes","website":"https://ferienhaus-rothaus.de/"}},"1344861889":{"location":[47.9045255,8.1569888],"ct":"DE","tp":"CR","ts":"2024-12-22T19:48:42Z","tX":535,"tY":356,"tags":{"caravan_site":"motorhome_stopover","caravan_site:type":"parking_lot","charge":"19 EUR","fee":"yes","name":"Wohnmobilstellplatz P1 Titisee-Neustadt","opening_hours":"24/7","sanitary_dump_station":"yes","seasonal":"no","water_point":"yes","website":"https://www.schwarzwald-tourismus.info/unterkuenfte/grossparkplatz-p1-1a5f2c85d6"}},"1355022175":{"location":[47.8498864,8.2674031],"ct":"DE","tp":"CR","ts":"2025-01-28T21:43:43Z","tX":535,"tY":356,"tags":{"capacity":"8","caravan_site":"motorhome_stopover","caravan_site:type":"parking_lot","charge":"7.20 EUR","fee":"yes","name":"Wohnmobilstellplatz Bonndorf-Holzschlag","picnic_table":"yes","power_supply":"yes","sanitary_dump_station":"yes","tents":"no","water_point":"yes","website":"https://www.schwarzwald-tourismus.info/unterkuenfte/wohnmobilstellplatz-holzschlag-d890651a36"}},"1356213359":{"location":[47.8998053,8.3333237],"ct":"DE","tp":"CR","ts":"2025-05-15T18:54:31Z","tX":535,"tY":356,"tags":{"capacity":"7","caravan_site":"motorhome_stopover","caravan_site:type":"swimming_pool;town","charge":"8 EUR","contact:phone":"+49 7652 12068350","fee":"yes","fee:conditional":"no@(Sep 10-May 20)","name":"Am Waldbad Löffingen","power_supply":"yes","power_supply:fee":"no","sanitary_dump_station":"yes","sanitary_dump_station:fee":"no","sanitary_dump_station:seasonal":"yes","seasonal":"no","water_point":"yes","water_point:fee":"no","water_point:seasonal":"yes","website":"https://www.schluchtensteig.de/de/gastgeber/show.php?id=56"}},"1458062295":{"location":[47.949203,8.2552895],"ct":"DE","tp":"CR","ts":"2024-12-22T20:44:16Z","tX":535,"tY":356,"tags":{"capacity":"20","caravan_site":"motorhome_stopover","caravan_site:type":"sports_centre","charge":"10.80 EUR","contact:phone":"+49 657 910324","email":"info@eisenbach.de","fee":"yes","name":"Wohnmobilstellplatz Höchstberg Eisenbach","power_supply":"yes","power_supply:fee":"no","sanitary_dump_station":"yes","water_point":"yes","website":"https://www.hochschwarzwald.de/attraktionen/wohnmobilstellplatz-hoechstberg-eisenbach-a56ecf1016","wheelchair":"limited"}},"2329918710":{"location":[47.8499327,8.2673712],"ct":"DE","tp":"CR","ts":"2024-03-24T13:40:06Z","tX":535,"tY":356,"tags":{"capacity":"5","charge":"5€ + 1€/P","fee":"yes","name":"Wohnmobilstellplatz Bonndorf-Holzschlag","power_supply":"yes","sanitary_dump_station":"yes","tents":"no","water_point":"yes","website":"https://www.wutachschlucht.de/Sehenswuerdigkeiten/Wohnmobilstellplatz-Holzschlag"}},"2794734996":{"location":[47.8524874,8.3023237],"ct":"DE","tp":"CS","ts":"2024-04-24T16:19:18Z","tX":535,"tY":356,"tags":{"backcountry":"yes","camp_site":"basic","caravans":"no","check_date":"2024-04-13","name":"Trekking-Camp Göschweiler","reservation":"required","static_caravans":"no","tents":"yes","website":"https://www.trekking-schwarzwald.de/regionen/suedschwarzwald/camps/camp_goeschweiler"}},"3924340861":{"location":[47.8998612,8.3333646],"ct":"DE","tp":"CR","ts":"2019-03-21T01:29:31Z","tX":535,"tY":356,"tags":{"capacity":"7","contact:phone":"+49 7652 12068350","fee":"seasonal","name":"Am Waldbad","power_supply":"yes","sanitary_dump_station":"seasonal","water_point":"seasonal","website":"https://www.hochschwarzwald.de/Media/Unterkuenfte/Loeffingen-Privatvermieter-Wohnmobilstellplatz"}},"4881615623":{"location":[47.8204517,8.1632028],"ct":"DE","tp":"CS","ts":"2024-05-10T20:01:26Z","tX":535,"tY":356,"tags":{"addr:city":"Schluchsee","addr:housenumber":"2","addr:postcode":"79859","addr:street":"Gewann Zeltplatz","caravans":"no","drinking_water":"yes","email":"mail@schwarzwaldcamp.com","fee":"yes","name":"Schwarzwald-Camp","opening_hours":"Mo-Su 10:00-18:00","phone":"+49-7656-9884348","shower":"yes","tents":"yes","toilets":"yes","website":"https://www.schwarzwaldcamp.com/"}},"10041707811":{"location":[47.7660393,8.1448096],"ct":"DE","tp":"CS","ts":"2024-04-24T16:17:41Z","tX":535,"tY":356,"tags":{"access":"customers","backcountry":"yes","camp_site":"basic","capacity":"3","name":"Trekking-Camp Windberg","note":"Trekkingstelle mit Übernachtungsmöglichkeit nach Anmeldung https://www.trekking-schwarzwald.de/regionen/suedschwarzwald/camps/camp_menzenschwand","reservation":"required","tents":"yes","website":"https://www.trekking-schwarzwald.de/regionen/suedschwarzwald/camps/camp_blasien_windberg"}},"10870927719":{"location":[47.8565153,8.2915389],"ct":"DE","tp":"CS","ts":"2023-05-05T14:15:46Z","tX":535,"tY":356,"tags":{"access":"customers","addr:city":"Löffingen","addr:housenumber":"1","addr:postcode":"79843","addr:street":"Stallegg","capacity:persons":"Unbekannt","caravans":"no","charge":"15€/Erwachsene/Nacht,8€/Kinder/Nacht, 5€/Hunde/Nacht","fee":"yes","name":"Trekking Stallegg","operator":"Hofgut Stallegg","static_caravans":"no","tents":"yes"}},"4861891202":{"location":[47.9045408,8.1095253],"ct":"DE","tp":"CR","ts":"2024-12-22T19:51:29Z","tX":535,"tY":356,"tags":{"capacity":"10","caravan_site":"motorhome_stopover","caravan_site:type":"parking_lot","contact:phone":"+49 7652 91970","fee":"no","maxstay":"1 night","name":"Wohnmobilstellplatz Hinterzarten","power_supply":"no","sanitary_dump_station":"no","surface":"grass_paver","water_point":"no","website":"https://www.hochschwarzwald.de/attraktionen/wohnmobilstellplatz-hinterzarten-6ad5f4346a"}},"12133370200":{"location":[47.9055188,8.1580476],"ct":"DE","tp":"CR","ts":"2024-08-24T06:24:01Z","tX":535,"tY":356,"tags":{"fee":"yes"}},"5528134097":{"location":[47.8851503,8.1314799],"ct":"DE","tp":"SD","ts":"2024-08-24T19:32:14Z","tX":535,"tY":356,"tags":{"access":"customers","fee":"no","sanitary_dump_station:chemical_toilet":"yes","sanitary_dump_station:gravity":"yes","water_point":"yes"}},"5528134100":{"location":[47.8858706,8.1311608],"ct":"DE","tp":"SD","ts":"2024-08-24T19:32:23Z","tX":535,"tY":356,"tags":{"fee":"no","sanitary_dump_station:chemical_toilet":"yes","sanitary_dump_station:grey_water":"yes","water_point":"yes"}},"5528584022":{"location":[47.8856005,8.1315981],"ct":"DE","tp":"SD","ts":"2018-04-04T17:02:44Z","tX":535,"tY":356,"tags":{"sanitary_dump_station:chemical_toilet":"no","sanitary_dump_station:gravity":"yes","sanitary_dump_station:grey_water":"yes","water_point":"yes"}},"6205012090":{"location":[47.90522,8.1583387],"ct":"DE","tp":"SD","ts":"2024-12-22T19:48:42Z","tX":535,"tY":356,"tags":{"access":"yes","description":"inside a parking with 30min free","fee":"no"}},"12101757867":{"location":[47.7624405,8.1246587],"ct":"DE","tp":"SD","ts":"2024-08-10T06:11:44Z","tX":535,"tY":356,"tags":{"fee":"no"}},"12126064469":{"location":[47.8149017,8.180922],"ct":"DE","tp":"SD","ts":"2024-08-22T07:47:04Z","tX":535,"tY":356,"tags":{"fee":"no"}},"12133349065":{"location":[47.8581454,8.1159481],"ct":"DE","tp":"SD","ts":"2024-08-24T06:24:57Z","tX":535,"tY":356,"tags":{"fee":"no"}},"12442243308":{"location":[47.7600318,8.1316376],"ct":"DE","tp":"CR","ts":"2024-12-22T20:33:51Z","tX":535,"tY":356,"tags":{"caravan_site":"motorhome_stopover","charge":"12 EUR","fee":"yes","maxstay":"1 night","name":"Wohnmobilstellplatz St. Blasien","opening_hours":"24/7","power_supply":"no","sanitary_dump_station":"no","seasonal":"no","water_point":"no"}},"12442318145":{"location":[47.9556733,8.2263847],"ct":"DE","tp":"CR","ts":"2025-01-30T17:39:20Z","tX":535,"tY":356,"tags":{"caravan_site":"motorhome_stopover","caravan_site:type":"guest_house","charge":"60 EUR","check_in":"15:00-17:00","check_out":"10:00","email":"urlaub@haberjockelshof.de","fee":"yes","name":"Haberjockelshof","phone":"+49 7657 8353","power_supply":"yes","sanitary_dump_station":"no","shower":"yes","tents":"no","toilets":"yes","water_point":"yes","website":"https://haberjockelshof.de/ubernachtungen/wohnmobilstellplatz/"}},"12879276031":{"location":[47.8651584,8.1223154],"ct":"DE","tp":"CS","ts":"2025-06-01T15:58:35Z","tX":535,"tY":356,"tags":{"caravans":"yes","dog":"no","drinking_water":"yes","drinking_water:legal":"yes","fee":"yes","image":"https://sharetribe.imgix.net/5ede2979-d527-4c0f-af93-79b78112c8ae/6582bef3-344d-4a20-9110-2e36b2f5ad01?auto=format&fit=clip&h=2400&w=2400&s=48bad398d2439b710a97416f874cfd4d","openfire":"yes","power_supply":"yes","reservation":"required","shower":"yes","static_caravans":"no","tents":"yes","toilets":"yes","website":"https://nomady.camp/en-US/l/platzchen-an-der-sommerweide/6582bef3-0715-4cfc-8bc2-5c991b7aff86"}}}