{"2494118":{"location":[47.5635793,8.1376555],"ct":"CH","tp":"CS","ts":"2023-11-08T11:25:42Z","tX":535,"tY":357,"tags":{"addr:city":"Mettauertal","addr:housenumber":"115","addr:postcode":"5276","addr:street":"Hintere Egg","caravans":"yes","email":"waldesruh@swisscamps.ch","fax":"+41 62 875 02 66","fee":"yes","motorhome":"yes","name":"Camping Waldesruh","operator":"Camping Waldesruh, Sutter & Co.","phone":"+41 62 875 22 63","shower":"yes","tents":"yes","toilets":"yes","website":"https://www.campingwaldesruh.ch/"}},"40524084":{"location":[47.6476805,8.2483195],"ct":"DE","tp":"CS","ts":"2024-08-19T14:52:29Z","tX":535,"tY":357,"tags":{"addr:city":"Waldshut-Tiengen","addr:country":"DE","addr:housenumber":"39","addr:postcode":"79761","addr:street":"Neubergweg","addr:suburb":"Gurtweil","caravans":"yes","drinking_water":"yes","email":"info@schluechttal-naturcamping.de","name":"Schlüchttal Naturcamping","phone":"+49-7741-3366","power_supply":"yes","sanitary_dump_station":"yes","shower":"yes","tents":"yes","toilets":"yes","website":"https://www.schlüchttal-naturcamping.de/"}},"40814028":{"location":[47.5681595,8.4371156],"ct":"DE","tp":"CS","ts":"2024-11-15T21:29:04Z","tX":535,"tY":357,"tags":{"caravans":"yes","contact:mobile":"+49 160 4288068","description":"Naturnah, direkt am Rheinufer und neben dem Freibad gelegen, 5 Gehminuten ins Dorf (mit mehreren Gaststätten, Einzelhandel, Bäcker, Metzger und Bank), Feuerstelle, Ausstiegsmöglichkeit für Kajakfahrer und Schlauchboote. Rezeption an Schwimmbadkasse.","email":"eleonora111@web.de","name":"Campingplatz Hohentengen","operator":"Eleonora Petrovic","phone":"+49 7742 1841","shower":"yes","tents":"yes","toilets":"yes","website":"https://www.hohentengen.de/freizeit-und-tourismus/camping.html"}},"103687191":{"location":[47.6043519,8.2996804],"ct":"DE","tp":"CS","ts":"2023-11-08T11:29:53Z","tX":535,"tY":357,"tags":{"addr:city":"Küssaberg","addr:country":"DE","addr:housenumber":"56","addr:postcode":"79790","addr:street":"Oberdorf","addr:suburb":"Kadelburg","name":"Campingplatz Hochrhein","operator":"C & F am Rhein AG","phone":"+49 7741 4244","source":"Bing","website":"https://www.camping-hochrhein.de/","wheelchair":"yes"}},"104729892":{"location":[47.5675505,8.3808892],"ct":"DE","tp":"CS","ts":"2023-04-22T18:15:31Z","tX":535,"tY":357,"tags":{"addr:city":"Hohentengen am Hochrhein","addr:country":"DE","addr:housenumber":"18","addr:postcode":"79801","addr:street":"Rümikoner Straße","addr:suburb":"Lienheim","caravans":"yes","name":"Campingplatz Lienheim","opening_hours":"Apr 1 - Oct 31","payment:coins":"yes","payment:notes":"yes","phone":"+49 7742 8530","shower":"yes","source":"Bing","tents":"yes","toilets":"yes","website":"https://www.hohentengen.de/freizeit-und-tourismus/camping.html"}},"115498273":{"location":[47.611176,8.2250708],"ct":"DE","tp":"CS","ts":"2023-01-28T20:27:16Z","tX":535,"tY":357,"tags":{"name":"Rhein-Camping Waldshut","source":"AGIS 2011","website":"https://www.rheincamping.de/"}},"127029729":{"location":[47.7386784,8.143924],"ct":"DE","tp":"CS","ts":"2024-04-12T15:34:13Z","tX":535,"tY":357,"tags":{"access":"customers","addr:city":"Oberkutterau","addr:housenumber":"14","addr:postcode":"79837","addr:street":"Oberkutterau","name":"Campingplatz Gasthaus, Waldfrieden","phone":"+49 7672 1403"}},"129471974":{"location":[47.7521154,8.2921565],"ct":"DE","tp":"CS","ts":"2023-04-14T16:53:53Z","tX":535,"tY":357,"tags":{"caravans":"yes","email":"info@waldcamping-birkendorf.de","name":"Waldcamping Birkendorf","permanent_camping":"yes","phone":"+49 7743 5373","shower":"yes","static_caravans":"yes","tents":"yes","toilets":"yes","website":"https://www.waldcamping-birkendorf.de/"}},"132765951":{"location":[47.7139982,8.3193419],"ct":"DE","tp":"CS","ts":"2020-05-18T22:56:26Z","tX":535,"tY":357,"tags":{"addr:housenumber":"11a","addr:street":"Badstraße","name":"Ühlingen","website":"https://www.campingplatz-uehlingen.com/"}},"176942157":{"location":[47.6112009,8.2259088],"ct":"DE","tp":"CR","ts":"2025-05-18T19:26:52Z","tX":535,"tY":357,"tags":{"capacity":"44","caravan_site":"motorhome_stopover","caravan_site:type":"river","charge":"18 EUR","dog":"leashed","email":"info@rheincamping.de","fee":"yes","internet_access:fee":"no","name":"Wohnmobil-Park Waldshut","operator":"Rhein-Camping Waldshut","phone":"+49 77513152","power_supply":"yes","power_supply:capacity":"54","power_supply:charge":"1 EUR/1 kWh","power_supply:fee":"yes","reservation":"no","sanitary_dump_station:fee":"no","seasonal":"no","shower":"yes","shower:charge":"1 EUR","shower:fee":"yes","surface":"paving_stones","tents":"no","toilets":"yes","water_point":"yes","water_point:charge":"0.10 EUR/10 liter","water_point:fee":"no","website":"https://www.wohnmobil-park-waldshut.de/"}},"203104812":{"location":[47.718836,8.3459791],"ct":"DE","tp":"CS","ts":"2017-08-22T22:26:05Z","tX":535,"tY":357,"tags":{"name":"Stockenmühle","phone":"+49 7743 91126"}},"232430991":{"location":[47.5824275,8.307281],"ct":"CH","tp":"CS","ts":"2020-05-15T23:43:10Z","tX":535,"tY":357,"tags":{"name":"Camping und Caravanningclub Bad Zurzach","website":"https://ccbz.ch/"}},"237305891":{"location":[47.7370112,8.1601992],"ct":"DE","tp":"CR","ts":"2024-12-25T10:55:59Z","tX":535,"tY":357,"tags":{"attraction":"Natursportzentrum","capacity":"12","caravan_site":"motorhome_stopover","caravan_site:type":"nature","charge":"13 EUR","dog":"yes","fee":"yes","fee:description":"including Kurtaxe with public tranport pass","name":"Natursportzentrum Höchenschwand","power_supply":"yes","power_supply:charge":"2 EUR/6 hours","power_supply:fee":"yes","sanitary_dump_station":"yes","toilets":"no","water_point":"yes","water_point:charge":"2 EUR","water_point:fee":"yes","website":"https://www.ferienwelt-suedschwarzwald.de/attraktionen/wohnmobilstellplatz-im-natursportzentrum-96089c1717","wheelchair":"yes"}},"298843082":{"location":[47.7525304,8.1738946],"ct":"DE","tp":"CR","ts":"2025-04-15T15:01:52Z","tX":535,"tY":357,"tags":{"capacity":"6","caravan_site":"motorhome_stopover","caravan_site:type":"village","charge":"13.60 EUR","fee":"yes","internet_access":"no","name":"Am Minigolfplatz Häusern","opening_hours":"24/7","operator":"Gemeinde Häusern","power_supply":"yes","reservation":"no","sanitary_dump_station":"yes","water_point":"yes","website":"https://www.schwarzwald-tourismus.info/attraktionen/wohnmobilstellplatz-in-haeusern-ca76ad931c","wheelchair":"no"}},"395156638":{"location":[47.6664334,8.379335],"ct":"DE","tp":"CR","ts":"2018-11-10T12:20:03Z","tX":535,"tY":357,"tags":{"capacity":"9","contact:email":"h-aberle@t-online.de","contact:phone":"+49 7746 5170","fee":"yes","name":"Wohnmobilplatz Degernau","power_supply":"yes","website":"http://www.wohnmobilplatz-degernau.de","wheelchair":"yes"}},"405421022":{"location":[47.6255737,8.3140634],"ct":"DE","tp":"CR","ts":"2019-03-27T22:23:59Z","tX":535,"tY":357,"tags":{"addr:city":"Lauchringen","addr:country":"DE","addr:postcode":"79787","addr:street":"Badstraße","capacity":"19","contact:phone":"+49 7741 6095-0","fee":"yes","internet_access":"yes","name":"Wohnmobilstandplatz Lauchringen \"An der Wutach\"","operator":"Gemeinde Lauchringen","power_supply":"yes","sanitary_dump_station":"yes","toilets:wheelchair":"no","water_point":"yes","website":"https://www.lauchringen.de/php/tourismus/wohnmobilstandplatz","wheelchair":"no","wheelchair:description":"Kies/Schotterbelag für Rollstuhl nicht geeignet"}},"1268406439":{"location":[47.5873871,8.2898129],"ct":"CH","tp":"CR","ts":"2024-04-02T15:41:57Z","tX":535,"tY":357,"tags":{"capacity":"3","caravan_site":"motorhome_stopover","caravan_site:type":"parking_lot; swimming_pool","caravans":"no","fee":"yes","name":"Therme Zurzach","surface":"asphalt","tents":"no"}},"12175192915":{"location":[47.5676411,8.0989912],"ct":"DE","tp":"CS","ts":"2024-09-13T17:19:41Z","tX":535,"tY":357,"tags":{"addr:city":"Laufenburg (Baden)","addr:housenumber":"5A","addr:postcode":"79725","addr:street":"Fährstrasse","operator":"One Night Camps Luttingen","phone":"+49 1522 4034604","tents":"yes"}},"5157316630":{"location":[47.692232,8.2131802],"ct":"DE","tp":"CR","ts":"2023-01-21T17:52:57Z","tX":535,"tY":357,"tags":{"capacity":"3","email":"mail@gret-stube.de","name":"Stellplätze Gret-Stube","operator":"Gret-Stube","phone":"+49 7755288 9870","power_supply":"yes","website":"http://www.gret-stube.de/service.html"}},"8682779184":{"location":[47.7369946,8.1682511],"ct":"DE","tp":"SD","ts":"2024-12-22T15:15:27Z","tX":535,"tY":357,"tags":{"fee":"yes","power_supply":"yes","sanitary_dump_station":"yes","water_point":"yes","water_point:fee":"yes"}},"5882991960":{"location":[47.6662071,8.3797565],"ct":"DE","tp":"SD","ts":"2018-09-04T21:49:17Z","tX":535,"tY":357,"tags":{}},"9104258976":{"location":[47.6108504,8.2261005],"ct":"DE","tp":"SD","ts":"2021-09-19T19:44:56Z","tX":535,"tY":357,"tags":{}}}