{"34607570":{"location":[47.3556198,8.3391791],"ct":"CH","tp":"CS","ts":"2023-03-16T00:09:30Z","tX":535,"tY":358,"tags":{"access":"yes","addr:city":"Bremgarten AG","addr:housenumber":"2","addr:postcode":"5620","addr:street":"Bleicheweg","caravans":"yes","email":"schmid.bleiche@bluewin.ch","fee":"yes","motor_vehicle":"yes","name":"Campingplatz Bleiche","phone":"+41 56 631 73 70","stars":"1","static_caravans":"yes","tents":"yes","washing_machine":"yes","website":"https://www.sccv.ch/Campingplaetze/Listenansicht/Detail/Campingplatz-Bleiche/AG%20537/"}},"35342236":{"location":[47.3032312,8.2180837],"ct":"CH","tp":"CS","ts":"2023-11-11T11:43:15Z","tX":535,"tY":358,"tags":{"internet_access":"wlan","name":"Campingplatz Tennwil","website":"https://www.tennwil.ch/campingplatz/"}},"90069852":{"location":[47.376775,8.3114943],"ct":"CH","tp":"CS","ts":"2021-03-26T11:20:06Z","tX":535,"tY":358,"tags":{"name":"Camping Sulz","website":"https://www.camping-sulz.ch/"}},"118268221":{"location":[47.4138124,8.385142],"ct":"CH","tp":"CS","ts":"2025-05-05T10:06:47Z","tX":535,"tY":358,"tags":{"access":"private"}},"143920970":{"location":[47.420678,8.1054895],"ct":"CH","tp":"CS","ts":"2023-11-11T11:43:39Z","tX":535,"tY":358,"tags":{"alt_name":"Chläbmatte","description":"Eintritt nur mit gültigem INF-Ausweis (Jahresmarke)","email":"info@heliosport.ch","name":"Naturistengelände Chläb \"Födlesonni\"","nudism":"designated","phone":"+41 62 897 39 98","website":"https://www.heliosport.ch/"}},"402952895":{"location":[47.280838,8.3952959],"ct":"CH","tp":"CS","ts":"2023-11-04T09:38:26Z","tX":535,"tY":358,"tags":{"addr:city":"Ottenbach","addr:housenumber":"34","addr:postcode":"8913","addr:street":"Muristrasse","email":"info@camping-reussbruecke.ch","name":"Reussbrücke","operator":"Campingplatz Reussbrücke","phone":"+41 447612022","website":"https://www.camping-zurich.ch/"}},"988030140":{"location":[47.4287891,8.3749725],"ct":"CH","tp":"CR","ts":"2025-05-09T06:03:55Z","tX":535,"tY":358,"tags":{"access":"private"}},"2718785926":{"location":[47.3911174,8.3097381],"ct":"CH","tp":"CS","ts":"2025-04-18T20:11:09Z","tX":535,"tY":358,"tags":{"addr:city":"Stetten","addr:housenumber":"2","addr:postcode":"5608","addr:street":"Wildenau","capacity:caravans":"3","caravans":"yes","charge":"30.00 CHF/day","description":"Ferien zwischen Lauch und Kohl","email":"info@wildenau.ch","fee":"yes","name":"Wildenau Camping","phone":"+41 79 487 92 54","power_supply":"yes","static_caravans":"no","tents":"yes","toilets":"yes","website":"https://www.wildenau.ch/stellplatz.html"}},"11766221318":{"location":[47.4069285,8.1629297],"ct":"CH","tp":"CS","ts":"2024-03-27T14:16:45Z","tX":535,"tY":358,"tags":{"backcountry":"yes"}},"6295259298":{"location":[47.3713052,8.4223777],"ct":"CH","tp":"SD","ts":"2019-02-22T09:44:40Z","tX":535,"tY":358,"tags":{"access":"yes","fee":"no","operator":"Bantam Camping","water_point":"yes"}},"8850402481":{"location":[47.4293082,8.2364288],"ct":"CH","tp":"SD","ts":"2024-08-15T14:16:54Z","tX":535,"tY":358,"tags":{"access":"yes","description":"Richtung Bern","fee":"no","name":"Rastplatz Birrhard, A1 Zürich - Bern","note":"WML CH","power_supply":"no","sanitary_dump_station:chemical_toilet":"yes","sanitary_dump_station:grey_water":"yes","water_point":"yes"}}}