{"6648599":{"location":[47.1747217,8.0864179],"ct":"CH","tp":"CS","ts":"2024-10-17T09:26:32Z","tX":535,"tY":359,"tags":{"addr:city":"Sursee","addr:housenumber":"1","addr:postcode":"6210","addr:street":"Waldheim","fee":"yes","name":"Camping Sursee","operator":"Christian Koch & Alexandra Scheiwiller","phone":"+41 41 9211161","website":"https://www.camping-sursee.ch/"}},"87220884":{"location":[47.0501071,8.3387792],"ct":"CH","tp":"CS","ts":"2023-03-21T22:25:33Z","tX":535,"tY":359,"tags":{"addr:city":"Luzern","addr:housenumber":"19","addr:postcode":"6006","addr:street":"Lidostrasse","caravans":"yes","fee":"yes","name":"Camping International Lido Luzern","phone":"+41 41 3702146","static_caravans":"yes","tents":"yes","website":"https://www.camping-international.ch/web_final/camping_luzern_news_d.html"}},"166412041":{"location":[47.0614032,8.4028009],"ct":"CH","tp":"CS","ts":"2022-08-11T07:59:08Z","tX":535,"tY":359,"tags":{"access":"private","addr:city":"Merlischachen","addr:housenumber":"272","addr:postcode":"6402","addr:street":"Luzernerstrasse","name":"Camping Vierwaldstättersee","phone":"+41 41 850 08 04","website":"http://www.seecamping.ch"}},"171881691":{"location":[47.2452452,8.2239788],"ct":"CH","tp":"CS","ts":"2022-09-11T16:55:24Z","tX":535,"tY":359,"tags":{"addr:city":"Mosen","addr:housenumber":"5","addr:postcode":"6295","addr:street":"Campingstrasse","caravans":"yes","name":"Camping Seeblick","phone":"+41 41 917 16 66","tents":"yes","website":"http://www.camping-seeblick.ch/"}},"230811699":{"location":[47.1242989,8.1890887],"ct":"CH","tp":"CS","ts":"2024-08-07T12:34:30Z","tX":535,"tY":359,"tags":{"addr:city":"Sempach","addr:housenumber":"6","addr:postcode":"6204","addr:street":"Seelandstrasse","caravans":"yes","fee":"yes","internet_access":"wlan","name":"TCS Camping Sempach","opening_hours":"Jan off; Feb off; Mar 1-27 off; Oct 7-31 off; Nov off; Dec off","phone":"+41 41 4601466","stars":"4","tents":"yes","toilets:wheelchair":"yes","wheelchair":"yes"}},"238821775":{"location":[47.1450317,8.1265999],"ct":"CH","tp":"CS","ts":"2024-08-18T06:22:43Z","tX":535,"tY":359,"tags":{"addr:city":"Nottwil","addr:housenumber":"5","addr:postcode":"6207","addr:street":"St. Margrethen","name":"Campingplatz St. Margrethen","phone":"+41 41 937 14 04"}},"943648769":{"location":[47.2681203,8.2109888],"ct":"CH","tp":"CS","ts":"2021-05-16T21:51:12Z","tX":535,"tY":359,"tags":{}},"943648770":{"location":[47.2684402,8.2102201],"ct":"CH","tp":"CS","ts":"2021-05-16T21:51:12Z","tX":535,"tY":359,"tags":{}},"1177228201":{"location":[47.2646325,8.3001427],"ct":"CH","tp":"CR","ts":"2023-12-29T16:59:55Z","tX":535,"tY":359,"tags":{}},"9438530757":{"location":[47.1255138,8.1902459],"ct":"CH","tp":"CS","ts":"2024-08-07T11:56:49Z","tX":535,"tY":359,"tags":{"addr:city":"Sempach","addr:housenumber":"6","addr:postcode":"6204","addr:street":"Seelandstrasse","caravans":"yes","name":"Campingplatz Seeland TCS","phone":"+41 41 460 14 66","tents":"yes"}},"4949702121":{"location":[47.0565602,8.2724108],"ct":"CH","tp":"CR","ts":"2018-11-08T22:02:43Z","tX":535,"tY":359,"tags":{"name":"Waldegg Parkplatz","name:de":"Waldegg Parkplatz","name:en":"Parking","opening_hours":"24/7"}},"9053862656":{"location":[47.2530946,8.2379269],"ct":"CH","tp":"CR","ts":"2021-09-01T15:31:39Z","tX":535,"tY":359,"tags":{"capacity":"8","description":"CHF 20.-, ganzjährig, nur gegen Voranmeldung","email":"gabi.renggli@bluewin.ch","fee":"yes","name":"Stellplatz Käppeli","phone":"+41 78 635 35 21","power_supply":"yes"}},"9759552030":{"location":[47.27122,8.2075676],"ct":"CH","tp":"CR","ts":"2022-05-21T14:35:30Z","tX":535,"tY":359,"tags":{"capacity":"4","charge":"Mo-Fr 8 CHF; Sa-So: 12 CHF","description":"4 spaces along the football field","fee":"yes","power_supply":"no","sanitary_dump_station":"no"}},"5864239940":{"location":[47.110484,8.2344266],"ct":"CH","tp":"SD","ts":"2021-10-05T13:32:51Z","tX":535,"tY":359,"tags":{}},"8850402447":{"location":[47.0466331,8.316091],"ct":"CH","tp":"SD","ts":"2023-09-24T20:26:50Z","tX":535,"tY":359,"tags":{"description":"nur Grauwasser","name":"Alpenquai, Luzern","note":"WML CH"}},"10734437745":{"location":[47.0501109,8.337871],"ct":"CH","tp":"SD","ts":"2023-03-14T08:57:56Z","tX":535,"tY":359,"tags":{"name":"Grauwasserentsorgung Camping Lido Luzern"}}}