{"11065335":{"location":[46.8996157,8.266711],"ct":"CH","tp":"CS","ts":"2020-05-03T21:13:40Z","tX":535,"tY":360,"tags":{"name":"Kerns"}},"40797907":{"location":[46.8538619,8.1877698],"ct":"CH","tp":"CS","ts":"2024-02-01T07:00:07Z","tX":535,"tY":360,"tags":{"addr:city":"Giswil","addr:housenumber":"13","addr:postcode":"6074","addr:street":"Campingstrasse","caravans":"yes","drinking_water":"yes","ele":"485","name":"Camping International Giswil","operator":"FWS","phone":"+41 41 675 23 55","power_supply":"yes","shower":"yes","tents":"yes","toilets":"yes","website":"https://camping-international.ch/giswil/"}},"64549733":{"location":[46.9787099,8.4190622],"ct":"CH","tp":"CS","ts":"2023-07-16T10:31:01Z","tX":535,"tY":360,"tags":{"addr:city":"Buochs","addr:housenumber":"4","addr:postcode":"6374","addr:street":"Seefeld","caravans":"yes","email":"camping.buochs@tcs.ch","fax":"+41 41 620 64 84","name":"Camping Buochs-Vierwaldstättersee","operator":"Touring Club Schweiz (TCS)","phone":"+41 41 620 34 74","tents":"yes","website":"http://www.tcs-camping.ch/buochs"}},"106880133":{"location":[47.0111017,8.3109399],"ct":"CH","tp":"CS","ts":"2019-06-18T06:06:00Z","tX":535,"tY":360,"tags":{"addr:city":"Horw","addr:postcode":"6048","addr:street":"Seefeldstrasse","barrier":"fence","caravans":"yes","fee":"yes","internet_access":"wlan","name":"TCS Camping Luzern-Horw","operator":"TCS","payment:maestro":"yes","payment:mastercard":"yes","payment:postfinance_card":"yes","payment:reka":"yes","payment:visa":"yes","phone":"+41413403558","power_supply":"yes","stars":"4","tents":"yes","website":"https://www.tcs.ch/de/camping-reisen/camping-insider/campingplaetze/tcs-campingplaetze/campingplatz-luzern-horw.php"}},"289885550":{"location":[46.8099924,8.4229007],"ct":"CH","tp":"CS","ts":"2025-02-05T11:46:41Z","tX":535,"tY":360,"tags":{"addr:city":"Engelberg","addr:housenumber":"108","addr:postcode":"6390","addr:street":"Wasserfallstrasse","caravans":"yes","drinking_water":"yes","internet_access":"wlan","name":"Campingplatz Eienwäldli","phone":"+41 41 637 19 49","shower":"yes","tents":"yes","toilets":"yes"}},"418836038":{"location":[46.9464491,8.3112736],"ct":"CH","tp":"CS","ts":"2024-12-23T17:06:23Z","tX":535,"tY":360,"tags":{"addr:city":"Ennetmoos","addr:postcode":"6372","addr:street":"Neumatt","name":"Camping Hostetten","phone":"+41 41 610 47 64","url":"https://www.camping-hostetten.ch"}},"430230619":{"location":[46.8828936,8.2427961],"ct":"CH","tp":"CS","ts":"2024-08-26T13:02:11Z","tX":535,"tY":360,"tags":{"addr:city":"Sarnen","addr:housenumber":"20","addr:postcode":"6060","addr:street":"Seestrasse","caravans":"yes","drinking_water":"yes","email":"welcome@seefeldpark.ch","fee":"yes","internet_access":"wlan","internet_access:fee":"no","name":"Camping Seefeld","opening_hours":"week 01-53","phone":"+41 41 666 57 88","power_supply":"yes","shower":"yes","static_caravans":"yes","tents":"yes","toilets":"yes","website":"https://www.seefeldpark.ch/camping","wheelchair":"yes"}},"915004078":{"location":[46.8325818,8.179138],"ct":"CH","tp":"PK","ts":"2021-03-09T11:01:04Z","tX":535,"tY":360,"tags":{"capacity":"3","motor_vehicle":"no","motorhome":"yes","parking":"surface"}},"1100787225":{"location":[46.8563441,8.2146874],"ct":"CH","tp":"CS","ts":"2022-10-04T07:50:47Z","tX":535,"tY":360,"tags":{"name":"Campingplatz Ewil","phone":"+41 41 666 32 70","website":"https://www.camping-ewil.ch/"}},"4354398742":{"location":[46.9649025,8.2930856],"ct":"CH","tp":"CS","ts":"2022-01-22T02:23:03Z","tX":535,"tY":360,"tags":{"addr:city":"Alpnachstad","addr:housenumber":"6","addr:postcode":"6053","addr:street":"Niederstad","email":"camping@bachmattli.ch","fax":"+41 41 671 07 31","name":"Campingplatz Bachmattli","operator":"M. + J. Plank","phone":"+41 41 671 07 30","website":"https://www.bachmattli.ch/"}},"5380106521":{"location":[46.936651,8.298425],"ct":"CH","tp":"CS","ts":"2022-01-22T02:45:18Z","tX":535,"tY":360,"tags":{"addr:city":"Ennetmoos","addr:postcode":"6372","addr:street":"Mueterschwandenbergstrasse","name":"Camping Ebnet \"Bio Bauernhof\"","phone":"+41 41 610 13 05"}},"5832771679":{"location":[47.0388734,8.4144783],"ct":"CH","tp":"CS","ts":"2022-01-22T04:25:31Z","tX":535,"tY":360,"tags":{"addr:city":"Weggis","addr:country":"CH","addr:full":"Gerbeweid - Eichistrasse 2CH - 6353 Weggis","addr:housenumber":"2","addr:postcode":"6353","addr:street":"Eichistrasse","description":"Camping auf dem Bauernhof","name":"Campingplatz Gerbeweid","operator":"Familie Felber","phone":"+41 41 390 15 74"}},"9438433864":{"location":[46.9531299,8.2791093],"ct":"CH","tp":"CS","ts":"2023-12-03T08:10:43Z","tX":535,"tY":360,"tags":{"addr:city":"Alpnachstad","addr:housenumber":"1","addr:place":"Städerrried","addr:postcode":"6053","name":"Camping Städerried","phone":"+41 41 670 27 75"}},"4700658199":{"location":[46.8324898,8.1788535],"ct":"CH","tp":"CR","ts":"2017-02-23T07:47:09Z","tX":535,"tY":360,"tags":{}},"4986812021":{"location":[46.9972469,8.3031957],"ct":"CH","tp":"CR","ts":"2017-07-22T15:01:39Z","tX":535,"tY":360,"tags":{}},"8873064260":{"location":[46.9250023,8.2670854],"ct":"CH","tp":"CR","ts":"2021-06-28T18:43:30Z","tX":535,"tY":360,"tags":{}},"4393195902":{"location":[47.0120144,8.3110739],"ct":"CH","tp":"SD","ts":"2016-09-09T09:08:20Z","tX":535,"tY":360,"tags":{}},"5209858203":{"location":[46.8101171,8.4221787],"ct":"CH","tp":"SD","ts":"2022-07-13T20:44:09Z","tX":535,"tY":360,"tags":{"access":"yes","operator":"Camping Eienwäldli","water_point":"yes"}},"8850402437":{"location":[46.8833228,8.2440173],"ct":"CH","tp":"SD","ts":"2021-09-20T19:26:03Z","tX":535,"tY":360,"tags":{"description":"Ver-/ und Entsorgung auf dem Campingplatz während den Öffnungszeiten der Reception. CHF 7.-","name":"Seefeld Park Sarnen, Sarnen","note":"WML CH"}},"8850402457":{"location":[46.833151,8.177097],"ct":"CH","tp":"SD","ts":"2021-06-20T13:19:04Z","tX":535,"tY":360,"tags":{"name":"Tierkadaversammelstelle, Giswil","note":"WML CH"}}}