{"13162695":{"location":[46.724982,8.1717378],"ct":"CH","tp":"CS","ts":"2024-08-29T09:02:49Z","tX":535,"tY":361,"tags":{"access":"customers","addr:city":"Meiringen","addr:housenumber":"22","addr:postcode":"3860","addr:street":"Balmweidstrasse","caravans":"yes","email":"info@camping-meiringen.ch","fee":"yes","name":"Balmweid","operator":"Camping Balmweid","payment:cash":"yes","payment:coins":"yes","payment:notes":"yes","phone":"+41 33 971 51 15","shower":"yes","tents":"yes","website":"https://www.camping-meiringen.ch/"}},"74840868":{"location":[46.7381009,8.3622722],"ct":"CH","tp":"CS","ts":"2024-09-10T10:10:04Z","tX":535,"tY":361,"tags":{"access":"customers","addr:city":"Gadmen","addr:housenumber":"34E","addr:postcode":"3863","addr:street":"Obermad","area":"yes","caravans":"yes","drinking_water":"yes","email":"mail@camping-gadmen.ch","internet_access":"wlan","mobile":"0041/ (0)792850705","name":"Camping Gadmen","operator":"Lupita und Felix Meier","phone":"0041/ (0)339751230","power_supply":"yes","shower":"yes","source":"survey","tents":"yes","website":"https://www.camping-gadmen.ch/"}},"158525180":{"location":[46.7852071,8.1519271],"ct":"CH","tp":"CS","ts":"2024-07-23T06:20:17Z","tX":535,"tY":361,"tags":{"name":"Campingplatz Obsee","phone":"+41 41 6781463","website":"https://obsee.ch/"}},"197656656":{"location":[46.7099252,8.2151825],"ct":"CH","tp":"CS","ts":"2023-07-21T20:12:24Z","tX":535,"tY":361,"tags":{"addr:city":"Innertkirchen","addr:housenumber":"34","addr:place":"Hauptstrasse","addr:postcode":"3862","caravans":"yes","fee":"yes","internet_access":"wlan","name":"Camping Aareschlucht","tents":"yes","website":"https://www.camping-aareschlucht.ch/"}},"290229522":{"location":[46.7371521,8.196093],"ct":"CH","tp":"CS","ts":"2023-12-16T17:50:16Z","tX":535,"tY":361,"tags":{"caravans":"yes","drinking_water":"yes","internet_access":"wlan","internet_access:fee":"yes","name":"Hofstatt-Derfli","power_supply":"cee_17_blue","shower":"yes","tents":"yes","toilets":"yes","waste_disposal":"yes","website":"https://www.derfli.ch/"}},"301117822":{"location":[46.7467072,8.1538515],"ct":"CH","tp":"CS","ts":"2022-02-18T23:07:10Z","tX":535,"tY":361,"tags":{"addr:city":"Meiringen","addr:country":"CH","addr:housenumber":"737","addr:place":"Brunnenfluh","addr:postcode":"3860","building":"barn","ele":"772","name":"Tipidorf Hasli-Aktiv","website":"http://www.hasli-aktiv.ch/de/tipidorf"}},"410442515":{"location":[46.7333605,8.1707598],"ct":"CH","tp":"CS","ts":"2021-08-23T11:10:04Z","tX":535,"tY":361,"tags":{"addr:city":"Meiringen","addr:housenumber":"47","addr:postcode":"3860","addr:street":"Brünigstrasse","name":"Alpencamping","phone":"+41 33 971 36 76","website":"http://www.alpencamping.ch"}},"428554768":{"location":[46.7018683,8.2259433],"ct":"CH","tp":"CS","ts":"2024-10-28T17:52:50Z","tX":535,"tY":361,"tags":{"caravans":"yes","drinking_water":"yes","name":"Camping Grund","power_supply":"yes","sanitary_dump_station":"yes","shower":"yes","tents":"yes","toilets":"yes"}},"440249230":{"location":[46.7068589,8.2254762],"ct":"CH","tp":"CS","ts":"2025-04-07T17:21:20Z","tX":535,"tY":361,"tags":{"caravans":"yes","internet_access":"wlan","name":"Grimselblick","tents":"yes","website":"https://www.camping-grimselblick.ch/"}},"1241944557":{"location":[46.7070715,8.241774],"ct":"CH","tp":"CS","ts":"2024-01-22T13:37:39Z","tX":535,"tY":361,"tags":{"name":"Wyler"}},"4350245306":{"location":[46.5622012,8.3617135],"ct":"CH","tp":"CS","ts":"2016-08-14T22:23:33Z","tX":535,"tY":361,"tags":{}},"6593760147":{"location":[46.5608619,8.3445714],"ct":"CH","tp":"CS","ts":"2021-09-26T15:35:38Z","tX":535,"tY":361,"tags":{"access":"private","name":"Alpenlodge Grimselpass","tents":"allowed","url":"https://grimselpass.ch/"}},"8747425934":{"location":[46.56163,8.33489],"ct":"CH","tp":"CR","ts":"2022-06-21T08:59:31Z","tX":535,"tY":361,"tags":{"addr:city":"Grimselpass","addr:place":"Grimselpasshöhe","addr:postcode":"3864","capacity":"12","description":"Sommerhalbjahr 1.5. - 31.10., Parkplatz Hotel Alpenrösli, Bezahlung im Hotel","email":"alpenroesli@grimselpass.com","fee":"CHF 10.-","name":"Stellplatz Alpenrösli","phone":"+41 33 973 12 91","power_supply":"no","sanitary_dump_station":"no","tents":"no","website":"https://www.grimselpass.com/"}},"9041988308":{"location":[46.749134,8.097009],"ct":"CH","tp":"CR","ts":"2024-07-31T20:23:58Z","tX":535,"tY":361,"tags":{"capacity":"20","charge":"15","description":"Bezahlung an der Museumskasse oder im Kuvert.","fee":"yes","internet_access":"no","name":"Stellplatz Parking 1, Le ChenitBallenberg, Brienzwiler","power_supply":"no","sanitary_dump_station":"no"}},"9042004092":{"location":[46.7369097,8.3496878],"ct":"CH","tp":"CR","ts":"2023-08-05T08:36:18Z","tX":535,"tY":361,"tags":{"name":"Stellplatz Truft, Gadmen"}}}