{"5911093":{"location":[46.5036219,8.3098506],"ct":"CH","tp":"CS","ts":"2024-03-05T15:19:20Z","tX":535,"tY":362,"tags":{"addr:city":"Ulrichen","addr:housenumber":"3","addr:postcode":"3988","addr:street":"Wichel","motorcycle_friendly":"customary","name":"Campingplatz Nufenen","opening_hours":"Jun-Sep 00:00-24:00","operator":"Claude & Petra Pause","phone":"+41 27 9731437","website":"http://www.camping-nufenen.ch"}},"6045563":{"location":[46.454529,8.2264416],"ct":"CH","tp":"CS","ts":"2023-11-03T21:26:39Z","tX":535,"tY":362,"tags":{"cabins":"yes","caravans":"yes","email":"info@campingbrigga.ch","name":"Camping Brigga","phone":"+41 27 973 16 31","shower":"yes","tents":"yes","toilets":"yes","website":"https://www.campingbrigga.ch/"}},"10744771":{"location":[46.5369149,8.3609337],"ct":"CH","tp":"CS","ts":"2020-02-23T17:39:44Z","tX":535,"tY":362,"tags":{"addr:city":"Oberwald","addr:postcode":"3999","email":"info@holiday-camp.ch","name":"Forest-Lodge","phone":"+41 27 973 18 95","website":"https://www.forest-lodge.ch/"}},"60230464":{"location":[46.3698416,8.2042713],"ct":"CH","tp":"CS","ts":"2024-05-12T07:05:36Z","tX":535,"tY":362,"tags":{"addr:city":"Binn","addr:postcode":"3996","caravans":"yes","drinking_water":"yes","email":"info@camping-giessen.ch","fax":"+41 27 971 46 27","name":"Camping Giessen","operator":"Familie Guntern","phone":"+41 27 971 46 19","power_supply":"yes","sanitary_dump_station":"yes","shower":"yes","tents":"yes","toilets":"yes","website":"https://www.camping-giessen.ch/"}},"173068549":{"location":[46.4247941,8.4081042],"ct":"IT","tp":"CR","ts":"2024-08-24T15:07:25Z","tX":535,"tY":362,"tags":{"ele":"1748","fee":"yes","internet_access":"no"}},"265244406":{"location":[46.4101769,8.1398748],"ct":"CH","tp":"CS","ts":"2024-10-02T06:59:01Z","tX":535,"tY":362,"tags":{"name":"Camping Eggishorn","phone":"+41 27 971 03 16","website":"http://www.camping-eggishorn.ch"}},"297101485":{"location":[46.4566646,8.2297004],"ct":"CH","tp":"CS","ts":"2024-03-07T07:58:58Z","tX":535,"tY":362,"tags":{"name":"Camping Brigga (Sektor C)","website":"https://www.campingbrigga.ch/"}},"297101489":{"location":[46.4639849,8.2441103],"ct":"CH","tp":"CS","ts":"2024-09-14T17:48:44Z","tX":535,"tY":362,"tags":{"addr:city":"Reckingen","addr:postcode":"3998","capacity":"150","caravans":"yes","email":"info@campingaugenstern.ch","fax":"+41 27 973 26 77","motorhome":"yes","name":"Camping Riverside","opening_hours":"week 01-53","phone":"+41 27 973 13 95","shower":"yes","stars":"1","tents":"yes","toilets":"yes","website":"https://www.campingaugenstern.ch/"}},"297613129":{"location":[46.4843886,8.2608758],"ct":"CH","tp":"PK","ts":"2024-08-21T03:50:36Z","tX":535,"tY":362,"tags":{"access":"yes","motorhome":"yes","parking":"street_side","power_supply":"no","surface":"asphalt","toilets":"no"}},"304567882":{"location":[46.3458614,8.4267341],"ct":"IT","tp":"CS","ts":"2023-07-20T14:03:39Z","tX":535,"tY":362,"tags":{"access":"yes","caravans":"yes","fee":"yes","name":"Camping Pineta"}},"304581576":{"location":[46.3748386,8.4246486],"ct":"IT","tp":"CS","ts":"2014-09-22T19:57:27Z","tX":535,"tY":362,"tags":{"name":"Sagersboden"}},"1081216444":{"location":[46.3837668,8.4249922],"ct":"IT","tp":"CR","ts":"2023-08-25T21:47:50Z","tX":535,"tY":362,"tags":{"capacity":"30","fee":"yes","name":"Area Camper Punta Sabbioni","sanitary_dump_station":"yes","toilets":"yes","website":"http://www.puntasabbioni.it/"}},"8663161766":{"location":[46.4284664,8.1633836],"ct":"CH","tp":"CR","ts":"2023-11-03T21:26:32Z","tX":535,"tY":362,"tags":{"addr:city":"Bellwald","addr:place":"Parkplatz Sport- und Freizeitanlagen","addr:postcode":"3997","capacity":"2","description":"Inklusive: Strom, Wasser, WC Benützung","drinking_water":"yes","email":"sport@bellwald.ch","fee":"CHF 25.-","name":"Stellplatz Bellwald","note":"GrandTourCH","phone":"+41 79 628 74 18","power_supply":"yes","sanitary_dump_station":"no","website":"https://www.bellwald.ch/"}},"8747425935":{"location":[46.4662284,8.2447675],"ct":"CH","tp":"CR","ts":"2024-09-14T17:48:44Z","tX":535,"tY":362,"tags":{"addr:city":"Reckingen","addr:housenumber":"167","addr:postcode":"3998","addr:street":"Rottenweg","capacity":"20","description":"Schöner Platz mit hohen Lärchen, neben dem Freibad","email":"wjerjen@gmail.com","fee":"CHF 21 / per day per person; CHF 3,50 per electricity connection/day","name":"Wald-stellplatz Rhodania","opening_hours":"1 May - 31 Oct","phone":"+41 76 533 46 42","power_supply":"yes","sanitary_dump_station":"yes","socket:cee_blue":"yes","website":"https://www.waldstellplatz.ch/"}}}