{"304155358":{"location":[46.1565954,8.3068432],"ct":"IT","tp":"CR","ts":"2024-09-17T11:54:12Z","tX":535,"tY":363,"tags":{"addr:city":"Crevoladossola","addr:street":"Via Thomas Alva Edison","fee":"no","name":"Area sosta camper \"Lago Tana\"","power_supply":"no","sanitary_dump_station:chemical_toilet":"yes","website":"https://comune.crevoladossola.vb.it/it-it/vivere-il-comune/dove-dormire/area-sosta-camper-lago-tana-54829-1-b3bf2952adca2b9fa5dc8f655fb0668e"}},"394386014":{"location":[46.2975423,8.3629809],"ct":"IT","tp":"CR","ts":"2024-09-17T11:50:49Z","tX":535,"tY":363,"tags":{"addr:city":"Premia","addr:housenumber":"6","addr:postcode":"28866","addr:street":"Frazione Cadarese","email":"alestecamping@gmail.com","fee":"yes","name":"Area Camper Ale Ste","phone":"+39 366 52 21 920","power_supply":"yes","sanitary_dump_station":"yes","socket:cee_blue":"yes","tents":"yes","website":"https://www.alestecamping.it/"}},"448941852":{"location":[46.3150229,8.25531],"ct":"IT","tp":"CS","ts":"2009-07-27T13:06:15Z","tX":535,"tY":363,"tags":{}},"755439870":{"location":[46.2292785,8.2991129],"ct":"IT","tp":"CS","ts":"2024-09-17T11:46:27Z","tX":535,"tY":363,"tags":{"addr:city":"Crodo","addr:housenumber":"9","addr:postcode":"28862","addr:street":"Località Quartarone","caravans":"yes","dog":"yes","email":"campeggiocistella@tin.it","fax":"+39 0324 61493","fee":"yes","motorhome":"yes","name":"Campeggio Village Cistella","permanent_camping":"yes","phone":"+39 0324 61493","power_supply:maxcurrent":"3","socket:cee_blue":"yes","static_caravans":"yes","tents":"yes","washing_machine":"yes","website":"http://www.campeggiocistella.it/"}},"755439871":{"location":[46.2294512,8.3001979],"ct":"IT","tp":"CS","ts":"2024-09-17T11:46:27Z","tX":535,"tY":363,"tags":{"addr:city":"Crodo","addr:housenumber":"9","addr:postcode":"28862","addr:street":"Località Quartarone","caravans":"yes","dog":"yes","email":"campeggiocistella@tin.it","fax":"+39 0324 61493","fee":"yes","motorhome":"yes","name":"Campeggio Village Cistella","permanent_camping":"yes","phone":"+39 0324 61493","power_supply:maxcurrent":"3","socket:cee_blue":"yes","static_caravans":"yes","tents":"yes","washing_machine":"yes","website":"http://www.campeggiocistella.it/"}},"769743901":{"location":[46.1336443,8.1948982],"ct":"IT","tp":"CS","ts":"2024-09-17T11:59:51Z","tX":535,"tY":363,"tags":{"addr:city":"Bognanco","addr:housenumber":"21","addr:postcode":"28842","addr:street":"La Gomba","cabins":"yes","caravans":"yes","dog":"yes","drinking_water":"yes","fee":"yes","motorhome":"yes","name":"Camping Village Yolki Palki","phone":"+39 0324 234245","power_supply":"yes","power_supply:maxcurrent":"6","sanitary_dump_station":"yes","shower":"yes","socket:cee_blue":"yes","stars":"3","static_caravans":"yes","tents":"yes","toilets":"yes","website":"https://www.yolkipalki.it/"}},"1316137128":{"location":[46.247734,8.3306621],"ct":"IT","tp":"CR","ts":"2024-09-17T11:39:59Z","tX":535,"tY":363,"tags":{"fee":"no","name":"Parcheggio Camper Ristorante Campagna","power_supply":"no","sanitary_dump_station":"no"}},"5899829264":{"location":[46.2761347,8.1413415],"ct":"IT","tp":"CS","ts":"2024-08-29T16:18:15Z","tX":535,"tY":363,"tags":{"name":"Campeggio Isola","note":"Is currently closed as it was flooded. Not sure if or when it opens again.","opening_hours":"closed"}},"12144566834":{"location":[46.2494827,8.1726411],"ct":"IT","tp":"CS","ts":"2024-08-29T16:18:15Z","tX":535,"tY":363,"tags":{"group_only":"yes","name":"Ponte Campo Scout Camping Area","operator":"Municipality of Varzo (VB)","phone":"+39 3337148566","website":"http://alpeveglia.it/servizi/areacampeggio/"}},"12181444944":{"location":[46.2604032,8.3152125],"ct":"IT","tp":"CR","ts":"2024-09-17T06:05:16Z","tX":535,"tY":363,"tags":{"dog":"yes","email":"info@camperalpedevero.it","fee":"yes","fee_zone":"yes","internet_access":"yes","name":"Area Camper Alpe Devero","phone":"+39 335 8394350","sanitary_dump_station":"yes","socket:cee_blue":"yes","website":"https://www.camperalpedevero.it/"}}}