{"59242464":{"location":[45.6839095,8.1816505],"ct":"IT","tp":"CR","ts":"2024-09-04T19:21:15Z","tX":535,"tY":365,"tags":{"fee":"no","name":"Area camper Granero","power_supply":"no","sanitary_dump_station":"yes"}},"204589159":{"location":[45.7981448,8.4200697],"ct":"IT","tp":"CS","ts":"2025-06-20T12:39:04Z","tX":535,"tY":365,"tags":{"addr:city":"Orta San Giulio","addr:housenumber":"5","addr:postcode":"28016","addr:street":"Via Don Giovanni Bosco","cabins":"yes","caravans":"yes","contact:email":"info@campingcusio.it","contact:phone":"+390322 90290","dog":"yes","fee":"yes","motorhome":"yes","name":"Camping Cusio","power_supply":"yes","ref:vatin":"IT02619350032","socket:cee_blue":"yes","tents":"yes","website":"https://www.campingcusio.it/"}},"204593589":{"location":[45.8016564,8.4212611],"ct":"IT","tp":"CS","ts":"2025-06-20T12:35:43Z","tX":535,"tY":365,"tags":{"addr:housenumber":"28","addr:street":"Via Domodossola","cabins":"yes","camp_site":"serviced","caravans":"yes","contact:website":"https://www.campingorta.it/","dog":"yes","email":"info@campingorta.it","fee":"yes","name":"Camping Orta","payment:cash":"yes","payment:credit_cards":"yes","payment:debit_cards":"yes","phone":"+39 0322 90267","power_supply":"yes","power_supply:maxcurrent":"6","ref:cin":"IT003112B1XXOX8FAW","ref:vatin":"IT00535130033","socket:cee_blue":"yes","static_caravans":"yes","tents":"yes"}},"205540749":{"location":[45.8230052,8.4147211],"ct":"IT","tp":"CS","ts":"2025-06-20T12:24:00Z","tX":535,"tY":365,"tags":{"addr:housenumber":"32","addr:street":"Via Pratolungo","camp_site":"serviced","capacity:caravans":"60","caravans":"yes","contact:email":"info@campingroyal.com","contact:phone":"+390323888945","contact:website":"https://www.campingroyal.com/","contact:whatsapp":"+393487362673","dog":"yes","drinking_water":"yes","fee":"yes","name":"Camping Royal","permanent_camping":"yes","power_supply":"yes","ref:cin":"IT003116B1VVIBLLY2","ref:vatin":"IT01550000036","reservation":"recommended","sanitary_dump_station":"yes","shower":"yes","socket:cee_blue":"yes","stars":"2","static_caravans":"yes","swimming_pool":"yes","tents":"yes","toilets":"yes"}},"213523660":{"location":[45.7717626,8.0923998],"ct":"IT","tp":"CS","ts":"2014-11-15T17:45:16Z","tX":535,"tY":365,"tags":{"addr:city":"Scopello","addr:housenumber":"7","addr:postcode":"13028","addr:street":"Via Fondiaria","contact:fax":"+39 0163 71300","contact:phone":"+39 0163 71300","contact:website":"http://www.lagenziana.eu/","name":"Camping La Genziana","operator":"private"}},"215095017":{"location":[45.8090842,8.125318],"ct":"IT","tp":"CS","ts":"2024-11-30T10:42:46Z","tX":535,"tY":365,"tags":{"caravans":"yes","contact:city":"Scopa","contact:email":"info@campeggiodinelli.com","contact:housenumber":"51","contact:street":"Via Varallo","contact:website":"http://www.campeggiodinelli.com/","email":"info@campeggiodinelli.com","fee":"yes","internet_access":"wlan","internet_access:fee":"no","motorhome":"yes","name":"Campeggio Ai Dinelli","phone":"+39 0163 71517","power_supply":"yes","shower":"yes","socket:cee_blue":"yes","toilets":"yes","website":"http://www.campeggiodinelli.com/"}},"223051859":{"location":[45.8234303,8.2123278],"ct":"IT","tp":"CS","ts":"2023-06-26T11:09:32Z","tX":535,"tY":365,"tags":{"addr:city":"Varallo","addr:housenumber":"21","addr:postcode":"13019","addr:street":"Localit√† Balangera","name":"Campeggio Valsesia","operator":"Frigiolini Forestazioni","phone":"+39 0163 52307","stars":"2"}},"517085663":{"location":[45.8188895,8.4049018],"ct":"IT","tp":"CS","ts":"2025-06-20T12:33:40Z","tX":535,"tY":365,"tags":{"addr:housenumber":"29","addr:street":"Via Legro","barrier":"fence","caravans":"yes","dog":"yes","email":"info@campeggioallegro.it","fee":"yes","motorhome":"yes","name":"Allegro","phone":"+39 0323.89324","power_supply":"yes","ref:vatin":"IT02406420030","socket:cee_blue":"yes","static_caravans":"yes","tents":"yes","washing_machine":"yes","website":"https://www.campeggioallegro.it/"}},"517853410":{"location":[45.8113774,8.4109428],"ct":"IT","tp":"CS","ts":"2025-06-20T12:33:40Z","tX":535,"tY":365,"tags":{"addr:housenumber":"76","addr:street":"Corso Roma","camp_site":"serviced","caravans":"yes","contact:email":"info@campingverdelago.it","contact:phone":"+39 0323 89257","dog":"yes","fee":"yes","internet_access":"yes","internet_access:fee":"no","motorhome":"yes","name":"Verde Lago","power_supply":"yes","sanitary_dump_station":"yes","socket:cee_blue":"yes","source":"DigitalGlobe","tents":"yes","washing_machine":"yes","website":"https://www.campingverdelago.it/"}},"971626377":{"location":[45.7635296,8.4271154],"ct":"IT","tp":"CR","ts":"2021-08-09T11:50:52Z","tX":535,"tY":365,"tags":{}},"1287283097":{"location":[45.6106238,8.3540266],"ct":"IT","tp":"CR","ts":"2024-06-09T08:11:27Z","tX":535,"tY":365,"tags":{"capacity":"25","email":"gattinara@alicaservice.it","fee":"yes","name":"Alicamper Gattinara","opening_hours":"24/7","operator":"Alica Service","phone":"+39 351 6128066","power_supply":"yes","sanitary_dump_station":"yes","source":"https://www.comune.gattinara.vc.it/it-it/avvisi/2024/sabato-25-maggio-si-inaugura-l-area-camper-di-gattinara-317051-1-30bdcecd225796531a4cb5711e6b7877","start_date":"2024-05-25","website":"https://www.alicampergattinara.it/"}},"1316071694":{"location":[45.7731067,8.4323505],"ct":"IT","tp":"CS","ts":"2024-09-17T05:53:32Z","tX":535,"tY":365,"tags":{"caravans":"yes","dog":"yes","dog:fee":"yes","fee":"yes","internet_access":"wlan","motorhome":"yes","name":"Miami","name:es":"camping Miami","power_supply":"yes","socket:cee_blue":"yes","tents":"yes","website":"https://campingmiami.weebly.com/campingmiami.html"}},"2364110617":{"location":[45.8251963,8.409366],"ct":"IT","tp":"CS","ts":"2013-06-28T07:22:53Z","tX":535,"tY":365,"tags":{}},"3689512125":{"location":[45.7899782,8.3722436],"ct":"IT","tp":"SD","ts":"2015-08-10T13:21:51Z","tX":535,"tY":365,"tags":{}},"4076561989":{"location":[45.7944302,8.3829972],"ct":"IT","tp":"CR","ts":"2019-11-28T15:50:18Z","tX":535,"tY":365,"tags":{}},"5572904379":{"location":[45.7897763,8.372351],"ct":"IT","tp":"CR","ts":"2023-12-08T13:20:46Z","tX":535,"tY":365,"tags":{}},"5572904384":{"location":[45.7885905,8.3861142],"ct":"IT","tp":"CR","ts":"2018-04-23T07:44:12Z","tX":535,"tY":365,"tags":{}},"7371302471":{"location":[45.8182887,8.2495566],"ct":"IT","tp":"CR","ts":"2024-04-08T16:55:29Z","tX":535,"tY":365,"tags":{"check_date":"2024-04-08","name:signed":"no"}},"12180615110":{"location":[45.8011118,8.4209028],"ct":"IT","tp":"SD","ts":"2024-09-16T17:02:36Z","tX":535,"tY":365,"tags":{"fee":"yes","water_point":"yes"}}}