{"237770623":{"location":[45.3341859,8.4187687],"ct":"IT","tp":"SD","ts":"2020-12-12T00:23:09Z","tX":535,"tY":367,"tags":{"access":"yes","fee":"no","water_point":"yes"}},"1337648598":{"location":[45.3342346,8.4187468],"ct":"IT","tp":"CR","ts":"2024-11-25T07:06:27Z","tX":535,"tY":367,"tags":{"addr:city":"Vercelli","addr:postcode":"13100","addr:street":"Via Trento","fee":"no","name":"Area camper","power_supply":"no"}},"10863747559":{"location":[45.1249584,8.3981086],"ct":"IT","tp":"CR","ts":"2023-05-05T12:32:31Z","tX":535,"tY":367,"tags":{"addr:city":"Casale Monferrato","addr:housenumber":"135","addr:place":"Località Regina","addr:postcode":"15033","name":"Agricampeggio dal Barbalando"}},"11071445549":{"location":[45.3278337,8.4130157],"ct":"IT","tp":"SD","ts":"2024-03-21T10:19:00Z","tX":535,"tY":367,"tags":{"access":"yes","charge":"2€","fee":"yes","operator":"Camper Wc Wash","operator:website":"http://www.camperwcwash.com/","payment:coins":"yes","sanitary_dump_station:chemical_toilet":"yes","sanitary_dump_station:grey_water":"yes","water_point":"yes"}}}