{"128573671":{"location":[44.921735,8.2041673],"ct":"IT","tp":"CS","ts":"2021-01-28T23:35:13Z","tX":535,"tY":368,"tags":{"access":"permissive","addr:city":"Asti","addr:housenumber":"152","addr:postcode":"14100","addr:street":"Strada Valmanera","email":"info@campingcagniasti.it","name":"Camping Umberto Cagni","phone":"+39 0141 271 238","website":"https://www.campingcagniasti.it"}},"743147073":{"location":[44.9007903,8.2253346],"ct":"IT","tp":"CR","ts":"2024-11-21T09:06:44Z","tX":535,"tY":368,"tags":{"access":"yes","fee":"no","name":"Piazza Cosma Manera (gi√† Piazza d'Armi)","parking":"surface","power_supply":"no","sanitary_dump_station":"yes","website":"https://www.comune.asti.it/archivio28_focus_0_125.html"}},"1191381697":{"location":[44.9386262,8.2027445],"ct":"IT","tp":"CR","ts":"2023-10-30T18:06:15Z","tX":535,"tY":368,"tags":{"capacity":"9","fee":"yes","name":"Agripassione","power_supply":"yes","sanitary_dump_station":"yes","water_point":"yes","website":"https://agripassione.it/"}},"10777574641":{"location":[45.0074916,8.2586977],"ct":"IT","tp":"CR","ts":"2023-04-01T10:36:31Z","tX":535,"tY":368,"tags":{}},"12092180186":{"location":[44.8545019,8.1577067],"ct":"IT","tp":"CR","ts":"2024-08-04T17:11:40Z","tX":535,"tY":368,"tags":{"addr:city":"Revigliasco d'Asti","addr:housenumber":"12","addr:postcode":"14010","addr:street":"Strada Ripasso","name":"Revyland"}},"6682054541":{"location":[44.9035023,8.3629628],"ct":"IT","tp":"SD","ts":"2021-12-16T15:55:55Z","tX":535,"tY":368,"tags":{"fee":"yes"}},"9344107521":{"location":[44.9050132,8.3627476],"ct":"IT","tp":"SD","ts":"2021-12-16T16:01:42Z","tX":535,"tY":368,"tags":{"fee":"no","water_point":"yes"}}}