{"239791651":{"location":[44.7970333,8.242573],"ct":"IT","tp":"CS","ts":"2018-09-27T02:12:22Z","tX":535,"tY":369,"tags":{"name":"Le Fonti","phone":"+39 0141 954820","source":"Bing","toilets:wheelchair":"yes","wheelchair":"limited","wheelchair:description":"Der Zeltplatz hat WC die abgenutzt und schlecht gepflegt sind. Die WC: Duschwanne Sitzbrille u. Brauseschlauch defekt, keine Papierhalterung, Wasserabzug ohne Deckel. Pl√§tze terrassiert am Hang. Nur zu schaffen mit E-rolli, viel Armeinsatz oder Hilfe."}},"364490601":{"location":[44.733256,8.1814347],"ct":"IT","tp":"CS","ts":"2024-02-28T17:32:14Z","tX":535,"tY":369,"tags":{"addr:city":"Castiglione Tinella","addr:housenumber":"2","addr:postcode":"12053","addr:street":"Via Manzotti","capacity":"12","capacity:caravans":"12","capacity:tents":"12","caravans":"yes","charge":"20","fee":"yes","name":"Da Maurizio","operator":"Small family business with camping and apartments","tents":"yes","website":"https://www.damaurizio.eu"}},"1200592733":{"location":[44.7671391,8.224217],"ct":"IT","tp":"CS","ts":"2023-10-25T08:27:21Z","tX":535,"tY":369,"tags":{"addr:city":"Costigliole d'Asti","addr:housenumber":"12","addr:postcode":"14055","addr:street":"Via Valle Nizza","fee":"yes","name":"Agriturismo Eden","phone":"+39 0141 954332","static_caravans":"no","tents":"yes","website":"https://www.facebook.com/profile.php?id=100046316483597"}},"8180785217":{"location":[44.7276,8.11343],"ct":"IT","tp":"CR","ts":"2021-08-18T08:25:06Z","tX":535,"tY":369,"tags":{"addr:postcode":"12052","addr:street":"Via Circonvallazione","description":"Free of charge. No facilities at all. Playground close by. (visited in July 2021)","fee":"yes"}}}