{"25214087":{"location":[44.1650667,8.3378257],"ct":"IT","tp":"CR","ts":"2025-04-03T12:41:00Z","tX":535,"tY":371,"tags":{"addr:city":"Finale Ligure","addr:housenumber":"1","addr:street":"Viale Rinaldo Piaggio","capacity":"80","caravan_site":"motorhome_stopover","caravan_site:type":"beach","fee":"yes","maxstay":"36 hours","name":"Area Camper Caprazoppa","note":"area camper","operator":"Area sosta camper Caprazoppa","sanitary_dump_station":"yes","water_point":"yes"}},"25616990":{"location":[44.1544048,8.2836148],"ct":"IT","tp":"CR","ts":"2024-03-27T17:34:51Z","tX":535,"tY":371,"tags":{"caravan_site":"motorhome_stopover","caravan_site:type":"beach","caravans":"no","charge":"24 EUR","fee":"yes","name":"Area Camper ASD Pietra Ligure","phone":"+39 340301594","power_supply":"yes","power_supply:maxcurrent":"3","seasonal":"no","shower":"yes","smoothness":"intermediate","surface":"gravel","tents":"no","water_point":"yes","website":"https://www.areacamperpietra.it/"}},"159884032":{"location":[44.1757669,8.3494463],"ct":"IT","tp":"CS","ts":"2023-04-03T10:06:37Z","tX":535,"tY":371,"tags":{"caravans":"yes","drinking_water":"yes","name":"Tahiti","phone":"+39 019 600600","power_supply":"yes","shower":"yes","stars":"3","tents":"yes","toilets":"yes","website":"https://www.campingtahitifinaleligure.it/de/"}},"159893902":{"location":[44.1736825,8.3503159],"ct":"IT","tp":"CS","ts":"2024-07-10T08:39:15Z","tX":535,"tY":371,"tags":{"addr:city":"Finale Ligure","addr:postcode":"17024","addr:street":"Via Castelli","description":"Person 7-9 €, Tent 6-8 €, Motorcycle 2 €, Bungalow 50-75 €","fax":"+39 019 601669","internet_access":"wlan","internet_access:fee":"no","motorcycle_friendly":"customary","name":"Campeggio del Mulino","phone":"+39 019 601669","website":"https://www.campingmulino.it/"}},"159900726":{"location":[44.1888955,8.3757185],"ct":"IT","tp":"CS","ts":"2023-11-06T06:03:29Z","tX":535,"tY":371,"tags":{"fax":"+39 019 698250","name":"Camping San Martino - Le Manie","phone":"+39 019 698250","stars":"2","website":"https://www.campingsanmartino.it/"}},"178709006":{"location":[44.2237721,8.4105924],"ct":"IT","tp":"CS","ts":"2018-08-06T23:39:31Z","tX":535,"tY":371,"tags":{"name":"Camping Leo"}},"226739029":{"location":[44.2150846,8.3313452],"ct":"IT","tp":"CS","ts":"2020-01-24T14:29:32Z","tX":535,"tY":371,"tags":{"name":"Base Camp Cucco","website":"http://www.basecampcucco.com/it/"}},"236840321":{"location":[44.2267615,8.4086567],"ct":"IT","tp":"CS","ts":"2013-09-06T13:02:22Z","tX":535,"tY":371,"tags":{"name":"Rustia"}},"302293387":{"location":[44.1846479,8.3532237],"ct":"IT","tp":"CS","ts":"2023-04-23T19:00:12Z","tX":535,"tY":371,"tags":{"alt_name":"Eurocamping Calvisio","name":"Il Villaggio di Giuele","phone":"+39 019 601240","website":"https://www.ilvillaggiodigiuele.it/"}},"335272832":{"location":[44.2370908,8.4344613],"ct":"IT","tp":"CR","ts":"2024-07-12T07:50:20Z","tX":535,"tY":371,"tags":{"addr:city":"Spotorno","addr:street":"Via Aurelia","fee":"yes","name":"Area Sosta Camper Merello","power_supply":"no","sanitary_dump_station":"yes","toilets":"no"}},"360151360":{"location":[44.2925306,8.4059142],"ct":"IT","tp":"CR","ts":"2015-07-28T20:39:52Z","tX":535,"tY":371,"tags":{}},"390919820":{"location":[44.1481191,8.2670151],"ct":"IT","tp":"CS","ts":"2024-09-13T11:12:08Z","tX":535,"tY":371,"tags":{"caravans":"yes","drinking_water":"yes","name":"Dei Fiori","phone":"+39 019 625636","power_supply":"yes","shower":"yes","tents":"yes","toilets":"yes","website":"https://www.campingdeifiori.it/"}},"390920175":{"location":[44.1505518,8.2691835],"ct":"IT","tp":"CS","ts":"2023-04-06T12:19:15Z","tX":535,"tY":371,"tags":{"addr:city":"Pietra Ligure","cabins":"yes","caravans":"yes","fee":"yes","name":"Pian dei Boschi","phone":"+39 019 625425","restaurant":"yes","swimming_pool":"yes","tents":"yes","website":"https://www.piandeiboschi.it/"}},"460348023":{"location":[44.1817902,8.3896885],"ct":"IT","tp":"CS","ts":"2024-01-07T20:31:03Z","tX":535,"tY":371,"tags":{}},"462540380":{"location":[44.2379822,8.120805],"ct":"IT","tp":"CS","ts":"2016-12-29T11:09:47Z","tX":535,"tY":371,"tags":{"name":"Camping Laghetti","phone":"+39 019 679659"}},"496939761":{"location":[44.1852382,8.3074122],"ct":"IT","tp":"CS","ts":"2023-11-16T22:21:11Z","tX":535,"tY":371,"tags":{"addr:city":"Finale Ligure","addr:housenumber":"15b","addr:place":"Perti Basso","addr:postcode":"17024","addr:street":"Via Calice","name":"FinaleFreeride Outdoor Village","phone":"+39 019 937 6727","website":"https://www.finalefreerideoutdoorvillage.com/"}},"513746096":{"location":[44.129628,8.2446867],"ct":"IT","tp":"CS","ts":"2019-01-27T19:50:41Z","tX":535,"tY":371,"tags":{"name":"Stella","phone":"+39 019 671257"}},"539308173":{"location":[44.1372359,8.2469499],"ct":"IT","tp":"CS","ts":"2017-11-08T21:37:05Z","tX":535,"tY":371,"tags":{"name":"Holiday","phone":"+39 019 674274","website":"www.campingholiday.it"}},"613172802":{"location":[44.1615094,8.3134465],"ct":"IT","tp":"CS","ts":"2019-03-20T07:27:32Z","tX":535,"tY":371,"tags":{"name":"Park Mara","phone":"+39 019 610479","website":"https://www.campingparkmara.it/"}},"668410735":{"location":[44.2855701,8.4315958],"ct":"IT","tp":"CR","ts":"2019-02-05T08:46:22Z","tX":535,"tY":371,"tags":{}},"835916614":{"location":[44.1312539,8.241],"ct":"IT","tp":"CR","ts":"2020-08-11T01:27:58Z","tX":535,"tY":371,"tags":{"name":"Area Camper \"La Sosta\""}},"845318731":{"location":[44.1647545,8.2775816],"ct":"IT","tp":"CR","ts":"2024-08-17T13:32:58Z","tX":535,"tY":371,"tags":{"addr:city":"Tovo San Giacomo","addr:housenumber":"253","addr:postcode":"17020","addr:street":"Via Nicolo Rembado","internet_access":"yes","internet_access:fee":"customers","name":"Aloha area camper","power_supply":"yes","sanitary_dump_station":"yes","surface":"grass"}},"1296976918":{"location":[44.1960655,8.3893671],"ct":"IT","tp":"CS","ts":"2016-05-29T14:45:33Z","tX":535,"tY":371,"tags":{"name":"Camping Terre Rosse","website":"http://www.terrerossecamping.it/"}},"4221170055":{"location":[44.2156273,8.3552989],"ct":"IT","tp":"CS","ts":"2017-01-04T00:26:53Z","tX":535,"tY":371,"tags":{"addr:postcode":"17024","name":"Le Terrazze","phone":"+39 3277189810","website":"http://www.campingleterrazze.it/"}},"4977048545":{"location":[44.2220778,8.2534817],"ct":"IT","tp":"CS","ts":"2020-07-17T18:08:02Z","tX":535,"tY":371,"tags":{"caravans":"no","motor_vehicle":"no","name":"AgriBike Camping","phone":"+39 339 8236929","shower":"yes","static_caravans":"no","tents":"yes","toilets":"yes","website":"https://www.campingfinaleligure.it/"}},"7947299785":{"location":[44.1910259,8.128521],"ct":"IT","tp":"CR","ts":"2024-10-21T14:08:35Z","tX":535,"tY":371,"tags":{}},"11119075902":{"location":[44.1648717,8.2773952],"ct":"IT","tp":"CR","ts":"2023-08-16T14:37:54Z","tX":535,"tY":371,"tags":{"addr:city":"Tovo San Giacomo","addr:housenumber":"253","addr:postcode":"17020","addr:street":"Via Nicolo Rembado","fee":"yes","internet_access":"wlan","name":"Aloha","power_supply":"yes","sanitary_dump_station":"yes"}},"12285642567":{"location":[44.1155226,8.235666],"ct":"IT","tp":"CR","ts":"2024-10-24T16:01:13Z","tX":535,"tY":371,"tags":{"addr:city":"Borghetto","name":"Val Vartella Agri Camper Park"}},"11918232589":{"location":[44.0881528,8.2077261],"ct":"IT","tp":"SD","ts":"2024-05-19T18:17:20Z","tX":535,"tY":371,"tags":{"access":"yes"}},"11934690383":{"location":[44.2247655,8.3605212],"ct":"IT","tp":"SD","ts":"2024-05-26T10:30:26Z","tX":535,"tY":371,"tags":{}},"12421286390":{"location":[44.27491,8.4231235],"ct":"IT","tp":"SD","ts":"2024-12-13T19:59:31Z","tX":535,"tY":371,"tags":{}},"12421323064":{"location":[44.2220366,8.3302677],"ct":"IT","tp":"SD","ts":"2024-12-13T19:59:31Z","tX":535,"tY":371,"tags":{}},"12441750370":{"location":[44.0882222,8.2059772],"ct":"IT","tp":"SD","ts":"2024-12-22T15:45:38Z","tX":535,"tY":371,"tags":{"access":"yes"}}}