{"26859604":{"location":[43.923333,8.109167],"ct":"IT","tp":"CS","ts":"2024-09-02T12:33:05Z","tX":535,"tY":372,"tags":{"addr:city":"Cervo","addr:housenumber":"4","addr:postcode":"18010","capacity:caravans":"80","caravans":"yes","drinking_water":"yes","email":"info@campinglino.it","fee":"yes","internet_access":"wlan","motorhome":"yes","name":"Lino","operator":"Camping Lino Srl.","phone":"+39 0183 400087","power_supply":"yes","sanitary_dump_station":"yes","shower":"yes","socket:cee_blue":"yes","stars":"3","tents":"yes","toilets":"yes","website":"https://www.campinglino.it/"}},"26859885":{"location":[44.0444174,8.1137069],"ct":"IT","tp":"CS","ts":"2016-07-09T17:24:58Z","tX":535,"tY":372,"tags":{"addr:city":"Villanova d'Albenga","addr:housenumber":"16","addr:postcode":"17038","addr:street":"Strada per Ligo","name":"C'era una Volta","phone":"+39 0182 580461","website":"http://www.campingceraunavolta.it/"}},"40307767":{"location":[43.9221395,8.1085996],"ct":"IT","tp":"CS","ts":"2024-09-02T12:33:05Z","tX":535,"tY":372,"tags":{"addr:city":"Cervo","addr:housenumber":"29","addr:postcode":"18010","addr:street":"Via alla Foce","cabins":"yes","caravans":"yes","fee":"yes","motorhome":"yes","name":"Camping del Mare","power_supply":"yes","shower":"yes","socket:cee_blue":"yes","tents":"yes","toilets":"yes","washing_machine":"yes","website":"https://www.campingdelmare-cervo.com/"}},"160548207":{"location":[43.9225271,8.0984766],"ct":"IT","tp":"CS","ts":"2024-09-02T13:17:52Z","tX":535,"tY":372,"tags":{"addr:city":"San Bartolomeo al Mare","addr:housenumber":"8","addr:postcode":"18016","addr:street":"Via al Santuario","cabins":"yes","caravans":"yes","email":"info@campingrosa.it","motorhome":"yes","name":"Rosa","power_supply:maxcurrent":"6","shower":"yes","socket:cee_blue":"yes","tents":"yes","toilets":"yes","washing_machine":"yes","website":"https://www.campingrosa.it/"}},"222822714":{"location":[43.9661412,8.1637866],"ct":"IT","tp":"CS","ts":"2024-09-02T09:02:37Z","tX":535,"tY":372,"tags":{"caravans":"yes","dog":"yes","fee":"yes","name":"Camping Capo Mele","power_supply":"yes","shower":"yes","socket:cee_blue":"yes","source":"Aree ricreative e servizi: Dai dati realizzati da Regione Liguria Carta Tecnica Regionale 1:5000 dal 2007 - II Edizione 3D / DB Topografico","tents":"yes","toilets":"yes","website":"http://www.campingcapomele.it/"}},"225243737":{"location":[44.0852146,8.2089723],"ct":"IT","tp":"CS","ts":"2024-09-01T14:15:33Z","tX":535,"tY":372,"tags":{"building":"house","source":"Regione Liguria"}},"227286771":{"location":[44.0670625,8.2161801],"ct":"IT","tp":"CS","ts":"2013-06-25T07:03:45Z","tX":535,"tY":372,"tags":{"name":"Olimpia","phone":"+39 0182 540898"}},"227294938":{"location":[44.0527957,8.2236532],"ct":"IT","tp":"CS","ts":"2024-08-31T21:09:09Z","tX":535,"tY":372,"tags":{"addr:city":"Albenga","addr:housenumber":"17","addr:postcode":"17031","addr:street":"Via Ernesto Che Guevara","cabins":"yes","caravans":"yes","fee":"yes","motorhome":"yes","name":"Green Village","phone":"+39 0182 559248","power_supply":"yes","shower":"no","socket:cee_blue":"yes","stars":"2","tents":"yes","toilets":"yes","washing_machine":"yes","website":"https://www.greenvillagealbenga.it/"}},"227294939":{"location":[44.0536535,8.2242836],"ct":"IT","tp":"CS","ts":"2024-08-31T20:47:48Z","tX":535,"tY":372,"tags":{"addr:city":"Albenga","addr:housenumber":"19","addr:postcode":"17031","cabins":"yes","caravans":"yes","fee":"yes","motorhome":"yes","name":"Piccolo Paradiso","phone":"+39 0182 51734","power_supply":"yes","sanitary_dump_station":"yes","shower":"yes","socket:cee_blue":"yes","tents":"yes","toilets":"yes","website":"https://www.piccoloparadiso.com/tpapp/tppostdetails/16488/camping"}},"227295434":{"location":[44.0593104,8.2235867],"ct":"IT","tp":"CS","ts":"2024-08-31T21:30:35Z","tX":535,"tY":372,"tags":{"caravans":"yes","fee":"yes","motorhome":"designated","name":"Camping Mauro","phone":"+39 0182 52615","power_supply":"yes","socket:cee_blue":"yes","website":"https://campingmauro.it/"}},"227295508":{"location":[44.0616624,8.2242981],"ct":"IT","tp":"CS","ts":"2024-08-31T21:38:00Z","tX":535,"tY":372,"tags":{"addr:housenumber":"61","cabins":"yes","dog":"yes","name":"Lionetta","phone":"+39 0182 51638","website":"http://www.campinglionetta.it/default.aspx"}},"227295510":{"location":[44.0619887,8.2240873],"ct":"IT","tp":"CS","ts":"2013-06-25T07:53:59Z","tX":535,"tY":372,"tags":{"name":"Lionetta","phone":"+39 0182 51638"}},"235367966":{"location":[43.9574779,8.1454061],"ct":"IT","tp":"CR","ts":"2024-09-02T09:11:07Z","tX":535,"tY":372,"tags":{"addr:city":"Andora","addr:housenumber":"67","addr:street":"Via San Lazzaro","fee":"yes","internet_access":"no","name":"Flipper","power_supply":"yes","sanitary_dump_station":"yes","shower":"yes","socket:cee_blue":"yes","toilets":"yes","wheelchair":"yes"}},"235830029":{"location":[44.0813991,8.2170949],"ct":"IT","tp":"CS","ts":"2024-09-01T14:24:30Z","tX":535,"tY":372,"tags":{"addr:city":"Ceriale","addr:housenumber":"19","addr:postcode":"17023","addr:street":"Via Torino","caravans":"yes","dog":"leashed","name":"Camping Baciccia","phone":"+390182990743","power_supply":"yes","power_supply:maxcurrent":"6","shower":"yes","socket:cee_blue":"yes","stars":"3","tents":"yes","toilets":"yes","website":"https://www.campingbaciccia.it/"}},"256970876":{"location":[43.9258824,8.1006658],"ct":"IT","tp":"CS","ts":"2024-09-02T13:17:52Z","tX":535,"tY":372,"tags":{"caravans":"yes","dog":"yes","fee":"yes","motorhome":"yees","name":"Eden Park","phone":"+39 0183 400995","phone:mobile":"+39 320 2995666","power_supply":"yes","power_supply:maxcurrent":"6;10","shower":"yes","socket:cee_blue":"yes","toilets":"yes","website":"https://www.eden-park.it"}},"257434869":{"location":[43.9336674,8.132901],"ct":"IT","tp":"CS","ts":"2020-01-29T21:08:06Z","tX":535,"tY":372,"tags":{"addr:city":"Cervo","addr:country":"IT","addr:housenumber":"1","addr:postcode":"18010","addr:street":"Via Aurelia","email":"capomimosa@tiscali.it","name":"Capo Mimosa","phone":"+39 0183408155","website":"http://www.capo-mimosa.net/"}},"296976437":{"location":[44.0866718,8.2160958],"ct":"IT","tp":"CS","ts":"2024-09-01T14:08:13Z","tX":535,"tY":372,"tags":{"addr:city":"Ceriale","addr:housenumber":"50","addr:postcode":"17023","addr:street":"Via Asti","bbq":"yes","contact:whatsapp":"+39 334 6241855","dog":"yes","fee":"yes","internet_access":"wlan","internet_access:fee":"no","name":"Caravelle Camping village","phone":"+39 0182 992411","power_supply":"yes","shower":"hot","stars":"3","washing_machine":"yes","website":"https://www.caravellevillage.it/","wheelchair":"designated"}},"302321299":{"location":[44.0400511,8.2182819],"ct":"IT","tp":"CR","ts":"2024-09-01T22:03:08Z","tX":535,"tY":372,"tags":{"addr:city":"Albenga","addr:housenumber":"37","addr:postcode":"17031","addr:street":"Via Luigi Einaudi","cabins":"yes","caravans":"no","dog":"yes","email":"info@campeggioitalia.eu","mobile":"+39 328 1242939","motorhome":"designated","name":"Camping Italia","phone":"+39 0182 52884","power_supply":"yes","socket:cee_blue":"yes","website":"https://www.campeggioitalia.eu/"}},"302321300":{"location":[44.0398734,8.2165267],"ct":"IT","tp":"CS","ts":"2024-09-01T22:03:08Z","tX":535,"tY":372,"tags":{"addr:city":"Albenga","addr:housenumber":"100","addr:postcode":"17031","addr:street":"Via Luigi Einaudi","caravans":"yes","fee":"yes","internet_access":"wlan","internet_access:fee":"customers","motorhome":"yes","name":"Parco  Vacanze Riviera","phone":"+39 0182 50 211","power_supply":"yes","shower":"yes","socket:cee_blue":"yes","static_caravans":"yes","tents":"yes","toilets":"yes","washing_machine":"yes","website":"https://parcovacanzeriviera.it/"}},"327496621":{"location":[44.079628,8.2254174],"ct":"IT","tp":"CS","ts":"2024-09-01T13:48:29Z","tX":535,"tY":372,"tags":{"addr:city":"Ceriale","addr:housenumber":"36","addr:postcode":"17023","addr:street":"Via Pineo","cabins":"7","capacity:caravans":"20","capacity:tents":"20","caravans":"yes","dog":"leashed","internet_access":"yes","internet_access:fee":"no","motorhome":"yes","name":"Pineta Aurelio","phone":"+39 0182 990628","power_supply":"yes","shower":"yes","socket:cee_blue":"yes","static_caravans":"yes","tents":"yes","toilets":"yes","website":"https://www.pineta-aurelio.it/"}},"328302562":{"location":[44.0383013,8.2141763],"ct":"IT","tp":"CS","ts":"2024-09-02T07:10:42Z","tX":535,"tY":372,"tags":{"cabins":"yes","caravans":"no","name":"Parco Vacanze L'isola","tents":"no","website":"https://www.parcovacanzelisola.com/"}},"328302787":{"location":[44.0417129,8.2199158],"ct":"IT","tp":"CS","ts":"2024-09-01T22:03:08Z","tX":535,"tY":372,"tags":{"addr:city":"Albenga","addr:country":"IT","addr:housenumber":"40","addr:postcode":"17031","addr:street":"Via Don Giacomo Lasagna","cabins":"yes","caravans":"yes","dog":"yes","dryer":"yes","email":"info@campingallinara.com","fax":"+39 339 1410961","fee":"yes","internet_access":"wlan","name":"Gallinara","note":"Camper Maxheight 2.80m","phone":"+39 335 6611738","power_supply:maxcurrent":"4","socket:cee_blue":"yes","tents":"yes","washing_machine":"yes","website":"https://www.campingallinara.com/"}},"328303569":{"location":[44.0359995,8.2085307],"ct":"IT","tp":"CS","ts":"2024-09-02T07:10:42Z","tX":535,"tY":372,"tags":{"addr:city":"Albenga","addr:housenumber":"23","addr:postcode":"17031","addr:street":"Via Michelangelo","cabins":"y","caravans":"yes","dog":"yes","email":"info@campingdelfino.it","fee":"yes","internet_access":"yes","internet_access:fee":"customers","motorhome":"yes","name":"Camping Delfino","phone":"+39.0182.51998","phone:mobile":"+39.327.8613201","power_supply":"yes","power_supply:maxcurrent":"6","sanitary_dump_station":"yes","shower":"yes","socket:cee_blue":"yes","static_caravans":"yes","tents":"yes","toilets":"yes","website":"https://campingdelfino.it/"}},"328303650":{"location":[44.0322084,8.2021162],"ct":"IT","tp":"CS","ts":"2024-09-02T08:38:02Z","tX":535,"tY":372,"tags":{"addr:city":"Alassio","addr:housenumber":"47","addr:postcode":"17021","addr:street":"Via Giancardi","caravans":"yes","dog":"yes","email":"info@alassioholiday.it","fixme":"geometry","motorhome":"yes","name":"Monti e Mare","phone":"+39 338 6728146","power_supply":"yes","shower":"yes","socket:cee_blue":"yes","stars":"3","tents":"yes","toilets":"yes","website":"http://www.alassioholiday.it/"}},"328303845":{"location":[44.0438344,8.2228018],"ct":"IT","tp":"CS","ts":"2024-09-20T20:54:15Z","tX":535,"tY":372,"tags":{"addr:city":"Albenga","addr:country":"IT","addr:housenumber":"5","addr:postcode":"17013","addr:street":"Regione Foce","cabins":"yes","capacity:caravans":"84","capacity:tents":"84","caravans":"yes","dryer":"yes","email":"info@campingroma.com","fax":"+39 0182555075","fee":"yes","fixme":"geometry","hot_water":"yes","internet_access":"wlan","internet_access:fee":"customers","motor_vehicle":"yes","motorhome":"yes","name":"Camping Roma","permanent_camping":"yes","phone":"+39 018252317","power_supply":"yes","reservation":"yes","sanitary_dump_station":"yes","shower":"yes","socket:cee_blue":"yes","swimming_pool":"no","washing_machine":"yes"}},"328304541":{"location":[44.0824901,8.2257655],"ct":"IT","tp":"CS","ts":"2024-09-01T13:48:29Z","tX":535,"tY":372,"tags":{"name":"Delphis","phone":"+39 0182 990686","website":"https://parcovacanzedelphi.wixsite.com/delphis"}},"343106504":{"location":[44.0807284,8.17312],"ct":"IT","tp":"CS","ts":"2015-05-05T23:29:27Z","tX":535,"tY":372,"tags":{"name":"La Pineta","phone":"+39 0182 20493","website":"http://www.lapinetavacanze.it/"}},"350213717":{"location":[44.0846527,8.2094116],"ct":"IT","tp":"CS","ts":"2024-09-01T14:15:33Z","tX":535,"tY":372,"tags":{"caravans":"yes","fee":"yes","motorhome":"yes","name":"Bella Vista","phone":"+39 0182 54021","power_supply":"yes","power_supply:maxcurrent":"6","shower":"yes","socket:cee_blue":"yes","tents":"yes","toilets":"yes","website":"http://www.campingbellavista.it/"}},"430077629":{"location":[44.0206874,8.1903883],"ct":"IT","tp":"CS","ts":"2024-09-02T08:51:17Z","tX":535,"tY":372,"tags":{"addr:city":"Alassio","addr:housenumber":"11","addr:postcode":"17021","addr:street":"Via Francesca Maria Giancardi","cabins":"yes","caravans":"yes","dog":"yes","email":"infoparco@parcovacanzelavedetta.it","fee":"yes","name":"La vedetta","payment:cash":"yes","payment:credit_cards":"yes","payment:debit_cards":"yes","phone":"+39 0182 642407","power_supply":"yes","shower":"yes","socket:cee_blue":"yes","tents":"yes","toilets":"yes","website":"https://www.parcovacanzelavedetta.it/"}},"432626089":{"location":[44.0387783,8.2130351],"ct":"IT","tp":"CS","ts":"2024-09-02T07:10:42Z","tX":535,"tY":372,"tags":{"cabins":"yes","caravans":"no","name":"Parco Vacanze L'isola","tents":"no","website":"https://www.parcovacanzelisola.com/"}},"437897161":{"location":[44.0515419,8.2251743],"ct":"IT","tp":"CR","ts":"2016-08-19T02:00:11Z","tX":535,"tY":372,"tags":{"name":"Camping Rivamare"}},"437897672":{"location":[44.0528051,8.2219753],"ct":"IT","tp":"CR","ts":"2024-08-31T21:09:09Z","tX":535,"tY":372,"tags":{"addr:city":"Albenga","addr:housenumber":"45","addr:postcode":"17031","addr:street":"Viale Otto Marzo","bbq":"yes","dog":"yes","fee":"yes","name":"Agricampeggio Ca' de Mich√®","opening_hours":"Jan-Dec","payment:cash":"yes","payment:credit_cards":"yes","payment:debit_cards":"yes","power_supply":"yes","power_supply:maxcurrent":"6","sanitary_dump_station":"yes","shower":"yes","socket:cee_blue":"yes","toilets":"yes","website":"https://www.agricampeggiocademiche.it/"}},"437899402":{"location":[44.0524587,8.2248055],"ct":"IT","tp":"CS","ts":"2016-08-19T02:50:56Z","tX":535,"tY":372,"tags":{"name":"Internazionale","phone":"+39 0182 559248"}},"439784766":{"location":[43.9734959,8.1576195],"ct":"IT","tp":"CS","ts":"2024-09-17T17:38:37Z","tX":535,"tY":372,"tags":{"cabins":"yes","caravans":"yes","dog":"yes","dryer":"yes","internet_access":"yes","maxtents":"100","motorhome":"yes","name":"San Sebastiano","opening_hours":"09:00-12:00,15:00-20:00","phone":"+39 0182 690420","power_supply":"yes","socket:cee_blue":"yes","tents":"yes","washing_machine":"yes","website":"https://www.campingsansebastiano.it/"}},"473660133":{"location":[44.0822057,8.2274749],"ct":"IT","tp":"CS","ts":"2024-09-01T13:56:39Z","tX":535,"tY":372,"tags":{"caravans":"yes","dog":"yes","fee":"yes","motorhome":"yes","name":"Delphis","power_supply":"yes","power_supply:maxcurrent":"4.5","shower":"yes","socket:cee_blue":"yes","stars":"2","tents":"yes","toilets":"yes","washing_machine":"yes","website":"https://parcovacanzedelphi.wixsite.com/delphis"}},"488556492":{"location":[44.0361922,8.2104959],"ct":"IT","tp":"CS","ts":"2024-09-02T07:10:42Z","tX":535,"tY":372,"tags":{"addr:city":"Albenga","addr:housenumber":"17","addr:postcode":"17031","addr:street":"Via Michelangelo","capacity:caravans":"22","capacity:tents":"22","caravans":"yes","fee":"yes","motorhome":"yes","name":"Camping Sole","phone":"+39 0182.51957","phone:mobile":"+39 328.4812801","power_supply":"yes","shower":"yes","socket:cee_blue":"yes","tents":"yes","toilets":"yes","website":"https://www.residencesole.it/it/camping"}},"1159021191":{"location":[44.0417212,8.2179909],"ct":"IT","tp":"CS","ts":"2024-09-01T22:03:08Z","tX":535,"tY":372,"tags":{"addr:city":"Albenga","addr:housenumber":"45","addr:postcode":"17031","addr:street":"Via Don Giacomo Lasagna","capacity:caravans":"50","capacity:tents":"50","caravans":"yes","dog":"leashed","fee":"yes","name":"Capo Lena","payment:cash":"yes","payment:credit_cards":"yes","payment:debit_cards":"yes","phone":"+39 0182 542931","power_supply":"yes","socket:cee_blue":"yes","tents":"yes"}},"1191845733":{"location":[44.0731208,8.2249125],"ct":"IT","tp":"CS","ts":"2024-09-01T08:46:18Z","tX":535,"tY":372,"tags":{"access":"customers","addr:city":"Ceriale","addr:housenumber":"63","addr:street":"Via Pineo","caravans":"yes","facebook":"https://www.facebook.com/OasiCeriale","fee":"yes","motorhome":"yes","name":"Agricamping Oasi","phone":"+39 393 5054378","power_supply":"yes","shower":"yes","socket:cee_blue":"yes","toilets":"yes"}},"1191857027":{"location":[44.0755729,8.225204],"ct":"IT","tp":"CS","ts":"2024-09-01T08:51:31Z","tX":535,"tY":372,"tags":{"addr:city":"Ceriale","addr:street":"Via Pineo","caravans":"yes","motorhome":"yes","name":"Pineo mare","phone":"+39 0182 990312","stars":"2","tents":"yes"}},"1312686094":{"location":[44.0433764,8.2238657],"ct":"IT","tp":"CS","ts":"2024-09-01T21:34:08Z","tX":535,"tY":372,"tags":{"addr:city":"Albenga","addr:housenumber":"20","addr:postcode":"17031","addr:street":"Lungomare Cristoforo Colombo","cabins":"yes","caravans":"yes","motorhome":"yes","name":"Dei Fiori","phone":"+39 0182 559257","power_supply":"yes","power_supply:maxcurrent":"4,5","shower":"yes","socket:cee_blue":"yes","tents":"yes","toilets":"yes","website":"https://www.campingdeifiorialbenga.it/"}},"1312808724":{"location":[43.923545,8.1112352],"ct":"IT","tp":"CS","ts":"2024-09-10T19:20:08Z","tX":535,"tY":372,"tags":{"addr:city":"Cervo","addr:housenumber":"10","addr:postcode":"18010","addr:street":"Via Nazario Sauro","caravans":"yes","fee":"yes","name":"Camping Miramare","phone":"+39 0183 400285","phone:mobile":"+39 335 375734","power_supply":"yes","socket:cee_blue":"yes","static_caravans":"yes","tents":"yes","toilets":"yes","website":"https://www.campingmiramare.im.it/"}},"4293396526":{"location":[44.0311494,8.1004211],"ct":"IT","tp":"CS","ts":"2019-03-23T14:52:37Z","tX":535,"tY":372,"tags":{"name":"La Villa","phone":"+39 328 6919919","website":"http://www.agricampinglavilla.it/"}},"5199194591":{"location":[44.0398064,8.2165278],"ct":"IT","tp":"SD","ts":"2017-10-30T02:46:28Z","tX":535,"tY":372,"tags":{"access":"customers","fee":"no","operator":"Camping Riviera","water_point":"yes"}},"12151062249":{"location":[44.0363063,8.2090094],"ct":"IT","tp":"SD","ts":"2024-09-02T07:10:42Z","tX":535,"tY":372,"tags":{"access":"customers"}}}