{"395057480":{"location":[-35.2461699,149.8910078],"ct":"AU","tp":"CS","ts":"2017-03-25T06:46:27Z","tX":938,"tY":619,"tags":{"addr:city":"Oallen","addr:country":"AU","addr:postcode":"2622","addr:street":"Stewarts Crossing Road","alt_name":"Charleyong Crossing Camping Area","fee":"no","name":"Charleyong Crossing","source:name":"LPI Base Map Mar 2017","website":"https://www.caravancaravan.com.au/entity/charleyong-crossing-(stewarts-crossing)-camping-area/nsw"}},"545975297":{"location":[-35.4227558,149.7912706],"ct":"AU","tp":"CS","ts":"2024-04-27T03:25:58Z","tX":938,"tY":619,"tags":{"addr:city":"Braidwood","addr:postcode":"2622","addr:state":"NSW","addr:street":"Kings Highway","name":"Braidwood","operator":"Queanbeyan-Palerang Regional Council"}},"856567899":{"location":[-35.268157,150.035489],"ct":"AU","tp":"CS","ts":"2021-02-22T08:46:27Z","tX":938,"tY":619,"tags":{"addr:city":"Wog Wog","addr:postcode":"2622","addr:street":"Charleys Forest Road","alt_name":"Wog Wog Camping Area","contact:phone":"+61 2 4423 2170","fee":"no","name":"Wog Wog Campground","operator":"NSW National Parks and Wildlife Service","shower":"no","toilets":"yes"}},"1516204801":{"location":[-35.275929,150.1142787],"ct":"AU","tp":"CS","ts":"2011-11-25T06:08:51Z","tX":938,"tY":619,"tags":{"name":"Canowie Brook campsite"}},"5290770447":{"location":[-35.4398771,149.8016043],"ct":"AU","tp":"SD","ts":"2024-04-27T03:10:52Z","tX":938,"tY":619,"tags":{"addr:city":"Braidwood","addr:postcode":"2622","addr:state":"NSW","addr:street":"McKellar Street","fee":"no","water_point":"no"}}}