{"194297522":{"location":[-36.3711715,150.068808],"ct":"AU","tp":"CR","ts":"2022-07-13T19:12:54Z","tX":938,"tY":623,"tags":{"name":"Regatta Point Holiday Park"}},"236978582":{"location":[-36.3895889,149.8869166],"ct":"AU","tp":"CR","ts":"2023-12-17T07:06:58Z","tX":938,"tY":623,"tags":{"informal":"no","parking":"surface","surface":"asphalt"}},"253020660":{"location":[-36.4261357,150.0811223],"ct":"AU","tp":"CS","ts":"2024-05-03T04:40:55Z","tX":938,"tY":623,"tags":{"addr:housenumber":"1","addr:postcode":"2546","addr:state":"NSW","addr:street":"Lamont Street","addr:suburb":"Bermagui","capacity:caravans":"30","caravans":"yes","dog":"yes","email":"bermagui@reflectionsholidays.com.au","fee":"yes","name":"Reflections Bermagui - Holiday Park","phone":"+61 2 6493 4382","static_caravans":"yes","tents":"yes","website":"https://reflectionsholidays.com.au/parks/bermagui/"}},"696047594":{"location":[-36.5845348,150.0477263],"ct":"AU","tp":"CS","ts":"2023-04-29T08:10:38Z","tX":938,"tY":623,"tags":{"name":"Aragunnu Camping Area"}},"761755079":{"location":[-36.3815444,150.0695193],"ct":"AU","tp":"CR","ts":"2020-01-30T10:54:17Z","tX":938,"tY":623,"tags":{"brand":"Big 4","name":"Wallaga Lake Holiday Park","operator":"Big 4","website":"https://www.wallagalakeholidaypark.com.au/"}},"817738322":{"location":[-36.373778,150.0701414],"ct":"AU","tp":"CR","ts":"2021-10-21T11:59:33Z","tX":938,"tY":623,"tags":{"area":"yes","brand":"Big 4 Holiday Parks","brand:wikidata":"Q18636678","brand:wikipedia":"en:BIG4 Holiday Parks","name":"BIG4 Wallaga Lake Holiday Park","short_name":"Big4","website":"https://www.big4.com.au/caravan-parks/nsw/south-coast/big4-wallaga-lake-holiday-park"}},"1811172562":{"location":[-36.4684985,149.8662128],"ct":"AU","tp":"CS","ts":"2025-03-03T10:17:48Z","tX":938,"tY":623,"tags":{"addr:street":"Gordon Street","addr:suburb":"Quaama","name":"Dry River Rest Area","shower":"no","toilets":"yes","website":"https://www.caravancaravan.com.au/entity/quaama-rest-area/nsw"}},"2133428418":{"location":[-36.3741359,150.0688585],"ct":"AU","tp":"CR","ts":"2013-01-29T09:04:36Z","tX":938,"tY":623,"tags":{"name":"Ocean Lake Caravan Park"}},"10774238805":{"location":[-36.4225317,150.0362311],"ct":"AU","tp":"CS","ts":"2023-03-30T21:30:24Z","tX":938,"tY":623,"tags":{"name":"Bermaguie creek side camp"}},"6175585527":{"location":[-36.3892692,149.8868948],"ct":"AU","tp":"SD","ts":"2020-01-11T10:47:08Z","tX":938,"tY":623,"tags":{"opening_hours":"Mo-Su 10:00-23:59","source:location":"LPI NSW"}}}