{"190074500":{"location":[-37.0542864,149.901525],"ct":"AU","tp":"CS","ts":"2023-11-09T10:57:27Z","tX":938,"tY":625,"tags":{"addr:city":"Eden","addr:housenumber":"99","addr:postcode":"2551","addr:street":"Princes Highway","caravans":"yes","fee":"yes","name":"Eden Gateway Holiday Park","operator":"Top Tourist Parks","phone":"+61 2 6496 1798","power_supply":"yes","shower":"yes","tents":"yes","toilets":"yes","website":"https://www.edengateway.com.au/"}},"220545553":{"location":[-36.8841819,149.9033572],"ct":"AU","tp":"CR","ts":"2013-05-09T00:48:31Z","tX":938,"tY":625,"tags":{"name":"Sapphire Valley Caravan Park","source":"survey"}},"221694505":{"location":[-37.0987359,149.8725483],"ct":"AU","tp":"CR","ts":"2023-11-09T10:57:27Z","tX":938,"tY":625,"tags":{"addr:city":"Boydtown","addr:housenumber":"731","addr:postcode":"2551","addr:state":"NSW","addr:street":"Princes Highway","addr:suburb":"Boydtown","brand":"G'Day","fee":"yes","name":"Discovery Parks - Eden","operator":"G'day Parks","phone":"+61 2 6496 1572","power_supply":"yes","sanitary_dump_station":"yes","website":"https://gdayparks.com.au/parks/new-south-wales/south-coast/south-coast-eden"}},"233194577":{"location":[-36.9054912,149.8754995],"ct":"AU","tp":"CR","ts":"2013-08-12T01:36:11Z","tX":938,"tY":625,"tags":{"name":"Acacia Ponds Village"}},"254986489":{"location":[-36.9396967,149.9072554],"ct":"AU","tp":"CR","ts":"2015-11-02T09:24:11Z","tX":938,"tY":625,"tags":{"name":"Discovery Holiday Park Pambula Beach","source":"Discovery Holiday Park Pambula Beach"}},"305506181":{"location":[-37.0774195,149.875568],"ct":"AU","tp":"CR","ts":"2023-11-09T10:57:27Z","tX":938,"tY":625,"tags":{"addr:city":"Eden","addr:housenumber":"441","addr:street":"Princes Highway","brand":"Big 4 Holiday Parks","brand:wikidata":"Q18636678","brand:wikipedia":"en:BIG4 Holiday Parks","fee":"yes","internet_access":"wlan","internet_access:fee":"customers","internet_access:ssid":"Net4","name":"BIG4 Ingenia Holidays Eden Beachfront","phone":"+61 2 6496 1651","power_supply":"yes","reservation":"required","sanitary_dump_station":"yes","short_name":"Big4","website":"https://www.edenbeachfrontholidaypark.com.au/","wheelchair":"yes"}},"312042814":{"location":[-37.1013211,149.8757493],"ct":"AU","tp":"CR","ts":"2023-11-09T10:57:27Z","tX":938,"tY":625,"tags":{"addr:city":"Eden","addr:housenumber":"1","addr:postcode":"2551","addr:state":"NSW","addr:street":"Boydtown Park Road","addr:suburb":"Boydtown","fee":"yes","name":"Boydtown Beach Camping and Caravan Park","phone":"+61 405 447 361","power_supply":"yes","website":"http://www.boydtownbeachholidaypark.com.au/"}},"375032101":{"location":[-36.8875048,149.9300975],"ct":"AU","tp":"CR","ts":"2024-01-06T01:23:21Z","tX":938,"tY":625,"tags":{"brand":"Big 4 Holiday Parks","brand:wikidata":"Q18636678","brand:wikipedia":"en:BIG4 Holiday Parks","name":"NRMA Merimbula Beach Holiday Resort","operator":"NRMA","short_name":"Big4","source":"bing","website":"https://www.big4.com.au/caravan-parks/nsw/south-coast/nrma-merimbula-beach-holiday-resort"}},"384469143":{"location":[-37.0546321,149.9046932],"ct":"AU","tp":"CS","ts":"2023-11-08T04:55:53Z","tX":938,"tY":625,"tags":{"addr:street":"Princes Highway","caravans":"yes","fee":"yes","name":"Garden of Eden Caravan Park","note":"has sign 'a top park for tourists' but I don't think it is part of the 'Top Tourist Parks' chain","phone":"+61 2 6496 1172","power_supply":"yes","shower":"yes","tents":"yes","website":"http://www.edengarden.biz/"}},"384469289":{"location":[-36.9075412,149.8758754],"ct":"AU","tp":"CR","ts":"2019-03-17T08:00:57Z","tX":938,"tY":625,"tags":{"fixme":"border approximate","name":"Merimbula Lake Holiday Park","website":"https://merimbulalakeholidaypark.com.au/"}},"515697363":{"location":[-37.0512241,149.9151245],"ct":"AU","tp":"CS","ts":"2024-05-03T05:05:24Z","tX":938,"tY":625,"tags":{"addr:city":"Eden","addr:postcode":"2551","addr:street":"Aslings Beach Road","email":"Eden@reflectionsholidays.com.au","fee":"yes","name":"Reflections Eden - Holiday Park","operator":"Reflections Holidays","phone":"+61 2 6496 1139","power_supply":"yes","website":"https://reflectionsholidays.com.au/parks/eden/"}},"692670734":{"location":[-36.9309108,149.8814401],"ct":"AU","tp":"CS","ts":"2024-06-14T02:46:58Z","tX":938,"tY":625,"tags":{"access":"customers","addr:street":"Cnr Toallo Street & Munje Street","caravans":"yes","contact:facebook":"https://www.facebook.com/pages/Pambula-Town-Caravan-Park/1746908308874755","email":"Pambula@reflectionsholidays.com.au","fee":"yes","name":"Reflections Pambula - Holiday Park","operator":"Reflections Holidays","phone":"+61 2 6495 6708","shower":"yes","tents":"yes","toilets":"yes","website":"https://reflectionsholidays.com.au/parks/pambula/"}},"942462914":{"location":[-37.0783883,149.8761199],"ct":"AU","tp":"CR","ts":"2021-05-13T07:15:42Z","tX":938,"tY":625,"tags":{"internet_access":"wlan","internet_access:fee":"customers","power_supply":"yes","sanitary_dump_station":"yes"}},"942465129":{"location":[-37.0774908,149.877308],"ct":"AU","tp":"CR","ts":"2021-05-13T07:25:25Z","tX":938,"tY":625,"tags":{"sanitary_dump_station":"yes"}},"1050916092":{"location":[-36.8969218,149.9124463],"ct":"AU","tp":"CR","ts":"2022-10-26T22:13:27Z","tX":938,"tY":625,"tags":{"name":"Tween Waters","website":"https://aspenholidayparks.com.au/tween-waters-holiday-park/"}},"1811186655":{"location":[-36.8871344,149.871078],"ct":"AU","tp":"CS","ts":"2012-11-10T17:47:49Z","tX":938,"tY":625,"tags":{"name":"Merimbula Rv Motor Home Park"}},"2006787092":{"location":[-36.8868621,149.8713469],"ct":"AU","tp":"CR","ts":"2012-11-10T17:45:51Z","tX":938,"tY":625,"tags":{"name":"Merimbula Rv Motor Home Park"}},"10767315405":{"location":[-36.9944701,149.8591694],"ct":"AU","tp":"CS","ts":"2023-03-27T22:25:05Z","tX":938,"tY":625,"tags":{"name":"Creek side camp"}},"8727311046":{"location":[-37.0776786,149.8752666],"ct":"AU","tp":"SD","ts":"2021-05-13T07:16:55Z","tX":938,"tY":625,"tags":{"access":"customers","fee":"no"}},"11496014019":{"location":[-36.8863614,149.9314794],"ct":"AU","tp":"SD","ts":"2024-01-07T03:05:01Z","tX":938,"tY":625,"tags":{"access":"customers"}},"11496014020":{"location":[-36.8885582,149.9285585],"ct":"AU","tp":"SD","ts":"2024-01-07T03:05:01Z","tX":938,"tY":625,"tags":{"access":"customers"}}}