{"1342449531":{"location":[43.801625,-99.3875486],"ct":"US","tp":"CR","ts":"2024-12-13T15:22:22Z","tX":229,"tY":373,"tags":{"name":"Oasis Campground","phone":"+1-605-234-6959","source":"Bing"}},"2588639683":{"location":[43.8183661,-99.3291161],"ct":"US","tp":"CR","ts":"2017-06-15T01:30:57Z","tX":229,"tY":373,"tags":{"addr:city":"Chamberlain","addr:postcode":"57325","addr:state":"SD","backcountry":"no","caravans":"yes","email":"acc@midstatesd.net","fee":"yes","group_only":"no","internet_access":"wlan","name":"American Creek Campground","phone":"+1-605-234-5151","sanitary_dump_station":"yes","tents":"yes","website":"http://www.americancreekcampground.net/"}},"2591098147":{"location":[43.8015202,-99.3871392],"ct":"US","tp":"CR","ts":"2017-08-06T18:15:34Z","tX":229,"tY":373,"tags":{"name":"Oasis Campground","phone":"+1-605-234-6959","source":"Bing"}},"2591275096":{"location":[43.8259438,-99.3459757],"ct":"US","tp":"CR","ts":"2013-12-23T10:34:03Z","tX":229,"tY":373,"tags":{"source":"Bing"}},"2591275157":{"location":[43.8274647,-99.3445059],"ct":"US","tp":"CR","ts":"2013-12-23T10:34:04Z","tX":229,"tY":373,"tags":{"source":"Bing"}},"3424512806":{"location":[43.785197,-99.3382935],"ct":"US","tp":"SD","ts":"2015-03-29T10:08:54Z","tX":229,"tY":373,"tags":{}},"4866749549":{"location":[43.7673135,-99.3084776],"ct":"US","tp":"CS","ts":"2017-05-20T19:13:53Z","tX":229,"tY":373,"tags":{"addr:city":"Chamberlain","addr:housenumber":"2010","addr:postcode":"57325","addr:state":"SD","addr:street":"East King Avenue","capacity":"155","name":"Happy Campers Campground","website":"http://www.happycamperscampground.com/"}},"7633859607":{"location":[43.7807786,-99.4254282],"ct":"US","tp":"CS","ts":"2020-06-19T01:52:54Z","tX":229,"tY":373,"tags":{"addr:city":"Chaberlain","addr:state":"SD","backcountry":"yes","drinking_water":"no","name":"Dude Rach DFG","toilets:type":"pit latrine"}},"4915792623":{"location":[43.8182956,-99.3277151],"ct":"US","tp":"SD","ts":"2017-06-15T01:30:56Z","tX":229,"tY":373,"tags":{"access":"yes","name":"American Creek RV Dump Station"}}}