{"153303664":{"location":[30.0567941,-99.4740891],"ct":"US","tp":"CS","ts":"2012-03-05T05:24:13Z","tX":229,"tY":422,"tags":{"name":"Mo-Ranch Campgrounds"}},"561044444":{"location":[30.1201467,-99.1987667],"ct":"US","tp":"CR","ts":"2025-05-18T19:02:18Z","tX":229,"tY":422,"tags":{"name":"Buckhorn Lake RV Resort"}},"581008909":{"location":[30.0230754,-99.3653442],"ct":"US","tp":"CS","ts":"2024-07-01T05:31:02Z","tX":229,"tY":422,"tags":{"addr:city":"Hunt","addr:housenumber":"2430","addr:postcode":"78024","addr:state":"TX","addr:street":"State Highway 39","leisure":"summer_camp","name":"Heart Oâ€™ the Hills Summer Camp for Girls","phone":"+1 (830) 238-4650","website":"https://hohcamp.com/"}},"581009591":{"location":[30.009132,-99.3712632],"ct":"US","tp":"CS","ts":"2024-01-17T20:16:45Z","tX":229,"tY":422,"tags":{"addr:city":"Hunt","addr:housenumber":"2689","addr:postcode":"78024","addr:state":"TX","addr:street":"State Highway 39","leisure":"summer_camp","name":"Camp Mystic for Girls","phone":"+1 (830) 238-4660","website":"https://www.campmystic.com/"}},"581010649":{"location":[30.0638551,-99.3357417],"ct":"US","tp":"CS","ts":"2024-02-17T03:45:16Z","tX":229,"tY":422,"tags":{"addr:city":"Hunt","addr:housenumber":"1661","addr:postcode":"78024","addr:state":"TX","addr:street":"State Highway 39","description":"From cabin life to activity selection. From evening program to daily awards. From lesson planning to rest period challenges. Everything we do at La Junta is based upon long term success and short term victory.","leisure":"summer_camp","name":"Camp La Junta for Boys","phone":"+1 830-238-4621","website":"https://www.lajunta.com/"}},"581011562":{"location":[30.0639757,-99.3929409],"ct":"US","tp":"CS","ts":"2022-02-14T20:53:51Z","tX":229,"tY":422,"tags":{"addr:city":"Hunt","addr:housenumber":"1005","addr:postcode":"78024","addr:state":"TX","addr:street":"Farm-to-Market Road 1340","fax":"+1 830-238-4051","leisure":"summer_camp","name":"Camp Waldemar","phone":"+1 830-238-4821","website":"http://www.waldemar.com/index.html"}},"643019067":{"location":[30.0391268,-99.3496443],"ct":"US","tp":"CS","ts":"2018-11-11T04:04:12Z","tX":229,"tY":422,"tags":{"addr:city":"Hunt","addr:housenumber":"190","addr:postcode":"78024","addr:state":"TX","addr:street":"Flaming Arrow Road South","name":"Camp Flaming Arrow","operator":"YMCA"}},"796743322":{"location":[29.8409212,-99.2783616],"ct":"US","tp":"CR","ts":"2022-10-17T21:28:11Z","tX":229,"tY":422,"tags":{"addr:city":"Medina","addr:housenumber":"17740","addr:postcode":"78055","addr:state":"TX","addr:street":"State Highway 16 North","name":"Hill Country RV Resort and Event Center"}},"797128053":{"location":[30.0246239,-99.1463342],"ct":"US","tp":"CR","ts":"2022-10-02T04:44:23Z","tX":229,"tY":422,"tags":{"addr:city":"Kerrville","addr:housenumber":"312","addr:postcode":"78028","addr:state":"TX","addr:street":"Wood Drive","name":"Oak Grove Estates"}},"797128054":{"location":[30.0370749,-99.1415708],"ct":"US","tp":"CR","ts":"2022-08-15T16:42:31Z","tX":229,"tY":422,"tags":{"addr:city":"Kerrville","addr:housenumber":"32","addr:postcode":"78028","addr:state":"TX","addr:street":"Chaparral Drive","name":"Rio Robles Mobile Home & RV Park"}},"881054044":{"location":[30.0550005,-99.1614953],"ct":"US","tp":"CR","ts":"2021-02-14T16:07:49Z","tX":229,"tY":422,"tags":{"landuse":"residential","name":"Take-it-Easy RV Resort"}},"921714400":{"location":[30.1172457,-99.2970018],"ct":"US","tp":"CR","ts":"2022-06-17T02:22:17Z","tX":229,"tY":422,"tags":{"addr:city":"Ingram","addr:housenumber":"4279","addr:postcode":"78025","addr:state":"TX","addr:street":"Junction Highway","name":"Johnson Creek RV Resort & Park"}},"921715534":{"location":[30.0709765,-99.2061547],"ct":"US","tp":"CR","ts":"2024-01-17T09:46:09Z","tX":229,"tY":422,"tags":{"addr:city":"Kerrville","addr:country":"US","addr:housenumber":"2605","addr:postcode":"78028","addr:state":"TX","addr:street":"Junction Highway","branch":"Guadalupe River","brand":"Yogi Bear's Jellystone Park","brand:website":"https://www.campjellystone.com/","brand:wikidata":"Q8054389","contact:facebook":"https://www.facebook.com/JellystoneGuadalupe/","contact:instagram":"https://www.instagram.com/jellystoneguadaluperiver/","name":"Yogi Bear's Jellystone Park","phone":"+1-830-460-3262","website":"https://jellystoneguadalupe.com/"}},"943008834":{"location":[30.0693079,-99.2264571],"ct":"US","tp":"CR","ts":"2021-05-14T20:22:23Z","tX":229,"tY":422,"tags":{"addr:city":"Kerrville","addr:country":"US","addr:housenumber":"175","addr:postcode":"78028","addr:state":"TX","addr:street":"Riverview Road","contact:facebook":"https://www.facebook.com/bytherivercampground","email":"info@bytheriver.com","phone":"+1-830-367-5566","website":"https://www.bytheriver.com/"}},"1023629765":{"location":[30.072455,-99.20061],"ct":"US","tp":"CR","ts":"2022-01-22T14:48:11Z","tX":229,"tY":422,"tags":{"addr:city":"Kerrville","addr:country":"US","addr:housenumber":"2421","addr:postcode":"78028","addr:state":"TX","addr:street":"Junction Highway","name":"Hill Country RV Park","phone":"+1-830-895-3661","website":"http://hcrvpark.com/"}},"8757061217":{"location":[30.0918882,-99.1995573],"ct":"US","tp":"CS","ts":"2021-05-23T03:16:24Z","tX":229,"tY":422,"tags":{"name":"KOA - Kerrville"}}}