{"365974203":{"location":[29.6351466,-99.2111682],"ct":"US","tp":"CS","ts":"2023-10-19T18:26:11Z","tX":229,"tY":423,"tags":{"backcountry":"yes","name":"Wilderness Camp Area"}},"660763019":{"location":[29.6597005,-99.2140365],"ct":"US","tp":"CS","ts":"2010-03-05T19:40:34Z","tX":229,"tY":423,"tags":{"name":"Hermit's Shack Camp Area","openfire":"yes"}},"660786560":{"location":[29.6592343,-99.2134357],"ct":"US","tp":"CS","ts":"2010-03-05T19:40:35Z","tX":229,"tY":423,"tags":{"name":"Butterfly Springs Camp Area"}},"915407144":{"location":[29.8304752,-99.2810828],"ct":"US","tp":"CR","ts":"2022-10-17T21:28:11Z","tX":229,"tY":423,"tags":{"addr:city":"Medina","addr:housenumber":"17185","addr:postcode":"78055","addr:state":"TX","addr:street":"State Highway 16 North","name":"Rocky Point RV Park"}},"915738342":{"location":[29.6519276,-99.2799885],"ct":"US","tp":"CS","ts":"2021-03-11T08:08:51Z","tX":229,"tY":423,"tags":{"addr:city":"Tarpley","addr:housenumber":"12125","addr:postcode":"78883","addr:state":"TX","addr:street":"FM 470","name":"Cornerstone Conference Retreat"}},"915738358":{"location":[29.6606566,-99.2631308],"ct":"US","tp":"CR","ts":"2021-03-11T08:08:51Z","tX":229,"tY":423,"tags":{"addr:city":"Tarpley","addr:housenumber":"10965","addr:postcode":"78883","addr:state":"TX","addr:street":"FM 470","name":"Caribbean Cowboy RV Park"}},"11275713477":{"location":[29.6341853,-99.1854277],"ct":"US","tp":"CS","ts":"2023-10-19T18:26:11Z","tX":229,"tY":423,"tags":{"name":"Equestrian Camp Area"}}}