{"39276889":{"location":[-20.420894,-41.8111591],"ct":"BR","tp":"CS","ts":"2022-04-20T20:29:36Z","tX":393,"tY":571,"tags":{"area":"yes","name":"Terreirão"}},"103483273":{"location":[-20.4808534,-41.8297063],"ct":"BR","tp":"CS","ts":"2011-03-09T23:48:42Z","tX":393,"tY":571,"tags":{"name":"Macieira"}},"280384431":{"location":[-20.4579281,-41.8086259],"ct":"BR","tp":"CS","ts":"2023-05-16T15:08:55Z","tX":393,"tY":571,"tags":{"name":"Parque Caparaó - Casa Queimada","name:en":"Caparaó Park- Queimada House","name:pt":"Parque Caparaó - Casa Queimada"}},"778826642":{"location":[-20.5829453,-41.7597204],"ct":"BR","tp":"CS","ts":"2020-04-05T18:44:10Z","tX":393,"tY":571,"tags":{"addr:city":"Divino de São Lourenço","addr:postcode":"29590-000","addr:suburb":"Patrimônio da Penha","building:levels":"1","name":"Camping da Socorro"}},"788177434":{"location":[-20.590816,-41.7577404],"ct":"BR","tp":"CS","ts":"2020-04-05T13:48:02Z","tX":393,"tY":571,"tags":{"addr:city":"Divino de São Lourenço","addr:postcode":"29590-000","addr:suburb":"Patrimônio da Penha","name":"Camping Mandala"}}}