{"9693475217":{"location":[-22.1838963,-41.6933843],"ct":"BR","tp":"CS","ts":"2022-04-25T20:48:09Z","tX":393,"tY":576,"tags":{"addr:housenumber":"J - 1","name":"J - 1"}},"9693475218":{"location":[-22.1779371,-41.7050364],"ct":"BR","tp":"CS","ts":"2022-04-25T20:48:13Z","tX":393,"tY":576,"tags":{"addr:housenumber":"J - 3","name":"J - 3"}},"9693475219":{"location":[-22.1782008,-41.7183195],"ct":"BR","tp":"CS","ts":"2022-04-25T20:48:15Z","tX":393,"tY":576,"tags":{"addr:housenumber":"J - 4","name":"J - 4"}},"9693475317":{"location":[-22.1806693,-41.6963077],"ct":"BR","tp":"CS","ts":"2022-04-25T20:48:12Z","tX":393,"tY":576,"tags":{"addr:housenumber":"J - 2","name":"J - 2"}},"9693475417":{"location":[-22.1761582,-41.7302364],"ct":"BR","tp":"CS","ts":"2022-04-25T20:48:17Z","tX":393,"tY":576,"tags":{"addr:housenumber":"J - 5","name":"J - 5"}},"9693475517":{"location":[-22.1657595,-41.7471005],"ct":"BR","tp":"CS","ts":"2022-04-25T20:48:19Z","tX":393,"tY":576,"tags":{"addr:housenumber":"J - 6","name":"J - 6"}},"9693475817":{"location":[-22.1627962,-41.7680743],"ct":"BR","tp":"CS","ts":"2022-04-25T20:48:21Z","tX":393,"tY":576,"tags":{"addr:housenumber":"J - 7","name":"J - 7"}},"9693475818":{"location":[-22.1530076,-41.7833285],"ct":"BR","tp":"CS","ts":"2022-04-25T20:48:23Z","tX":393,"tY":576,"tags":{"addr:housenumber":"J - 8","name":"J - 8"}},"9693476118":{"location":[-22.1829612,-41.6951978],"ct":"BR","tp":"CS","ts":"2022-04-25T20:48:36Z","tX":393,"tY":576,"tags":{"addr:housenumber":"Furo- 2","name":"Furo- 2"}},"9693476119":{"location":[-22.1658396,-41.746623],"ct":"BR","tp":"CS","ts":"2022-04-25T20:48:38Z","tX":393,"tY":576,"tags":{"addr:housenumber":"Furo- 1","name":"FURO- 1"}},"9693476918":{"location":[-22.1658086,-41.7498332],"ct":"BR","tp":"CS","ts":"2022-04-25T20:48:40Z","tX":393,"tY":576,"tags":{"addr:housenumber":"Furo- 2","name":"Furo- 2"}},"9693477017":{"location":[-22.1849261,-41.6911383],"ct":"BR","tp":"CS","ts":"2022-04-25T20:48:34Z","tX":393,"tY":576,"tags":{"addr:housenumber":"Furo - 1","name":"Furo - 1"}}}