{"243505652":{"location":[-31.006112,115.3274868],"ct":"AU","tp":"CR","ts":"2021-08-24T04:58:13Z","tX":840,"tY":604,"tags":{"name":"Lancelin North End Caravan Park"}},"243505718":{"location":[-31.0258271,115.3296487],"ct":"AU","tp":"CR","ts":"2023-02-11T07:14:12Z","tX":840,"tY":604,"tags":{"addr:postcode":"6044","addr:state":"WA","addr:street":"Hopkins Street","addr:suburb":"Lancelin","dog":"yes","name":"Experience Lancelin Holiday Park","phone":"+61 8 9655 1056","power_supply":"yes","website":"https://lancelincaravanpark.com.au"}},"4546502690":{"location":[-30.942774,115.36933],"ct":"AU","tp":"CS","ts":"2016-12-09T13:18:51Z","tX":840,"tY":604,"tags":{"name":"Gravel Storage Campground","name:en":"Gravel Storage Campground"}},"5759811343":{"location":[-30.9203433,115.3675724],"ct":"AU","tp":"SD","ts":"2018-07-14T06:30:58Z","tX":840,"tY":604,"tags":{}},"6877455954":{"location":[-31.020522,115.3328988],"ct":"AU","tp":"SD","ts":"2019-10-14T08:57:16Z","tX":840,"tY":604,"tags":{"name":"Caravan dump station"}}}