{"366202435":{"location":[56.1636094,21.0212875],"ct":"LV","tp":"CS","ts":"2024-07-25T19:06:58Z","tX":571,"tY":318,"tags":{"image":"https://admin.pukarags.lv/storage/347/conversions/daudz-teltis-106-large.jpg","internet_access":"wlan","name":"Pūķargas","website":"https://www.pukarags.lv/"}},"2370272853":{"location":[55.992193,21.0742039],"ct":"LT","tp":"CS","ts":"2024-07-25T19:06:59Z","tX":571,"tY":318,"tags":{"capacity:tents":"2-4","drinking_water":"yes","fee":"yes","internet_access":"no","kitchen":"yes","shower":"yes; fee","tents":"yes","toilets":"yes","washing_machine":"yes"}},"3607572618":{"location":[56.0142443,21.0780631],"ct":"LT","tp":"CS","ts":"2024-07-25T19:07:00Z","tX":571,"tY":318,"tags":{"addr:city":"Palanga","addr:contact":"yes","addr:housenumber":"1A","addr:street":"Ošupio tak.","caravans":"yes","drinking_water":"yes","fee":"yes","internet_access":"yes","internet_access:fee":"no","internet_access:type":"wlan","kitchen":"yes","name":"Ošupis","phone":"+370 680 84332","shower":"yes; no fee","tents":"yes","toilets":"yes","washing_machine":"yes; fee","website":"https://www.osupis.lt/"}},"3701796288":{"location":[56.1647493,21.0236882],"ct":"LV","tp":"CS","ts":"2024-07-25T19:06:38Z","tX":571,"tY":318,"tags":{"description":"nicht sehr freundlich zu Touristen/not very tourist friendly"}},"5894298485":{"location":[56.0283876,21.091352],"ct":"LT","tp":"CR","ts":"2019-08-07T18:45:17Z","tX":571,"tY":318,"tags":{"image":"https://places.openmap.lt/pic/sventosios_kempingas.jpg","name":"Šventosios kempingas"}},"6589269009":{"location":[56.0023417,21.0755989],"ct":"LT","tp":"CR","ts":"2022-09-04T10:25:41Z","tX":571,"tY":318,"tags":{"addr:city":"Palanga","addr:contact":"yes","addr:housenumber":"6","addr:postcode":"00324","addr:street":"Ošupio tak.","name":"OpaKopa","website":"http://www.opakopa.lt/"}},"12073975131":{"location":[56.1314927,21.0401614],"ct":"LV","tp":"CS","ts":"2024-07-25T19:06:39Z","tX":571,"tY":318,"tags":{"name":"Jauntīlibi","phone":"+37129897589"}},"12073996286":{"location":[56.1375823,21.0371672],"ct":"LV","tp":"CS","ts":"2024-08-01T21:23:07Z","tX":571,"tY":318,"tags":{"barbecue_grill":"yes","caravans":"yes","description":"Ursprünglicher, einfacher & freundlicher Campingplatz/Origin, simple and friendly camp site.\n\n07-2024\n>10 Jahre/years 5€\nZelt/tent 1-4 Personen/people 5€\n... ?\nEspresso 2€ (dopio 3€) (10-19)","drinking_water":"yes","fee":"yes","fireplace":"yes","internet_access":"yes","internet_access:fee":"no","internet_access:type":"wlan","name":"Mikjāņu Sēta","phone":"+37126759199","shower":"cold;no fee","source":"survey","static_caravans":"no","tents":"yes","toilets":"yes"}}}