{"8536761":{"location":[55.8086695,21.0728259],"ct":"LT","tp":"CR","ts":"2019-03-21T21:15:25Z","tX":571,"tY":319,"tags":{"name":"Pajūrio takas","website":"https://www.pajuriotakas.lt/"}},"14535681":{"location":[55.8780309,21.0639015],"ct":"LT","tp":"CS","ts":"2022-09-03T09:41:49Z","tX":571,"tY":319,"tags":{"addr:city":"Palanga","addr:contact":"yes","addr:housenumber":"33I","addr:street":"Klaipėdos pl.","cabins":"yes","caravans":"yes","email":"info@palangacamping.lt","fee":"yes","name":"Palangos kempingas","phone":"+370 600 88811","power_supply":"yes","sanitary_dump_station":"yes","shower":"yes","tents":"yes","toilets":"yes","website":"https://palangacamping.lt/"}},"1092392013":{"location":[55.8013216,21.0710213],"ct":"LT","tp":"CS","ts":"2024-07-12T19:38:50Z","tX":571,"tY":319,"tags":{"addr:city":"Karklė","addr:contact":"yes","addr:housenumber":"10","addr:street":"Placio g.","caravans":"yes","drinking_water":"yes","internet_access":"wlan","kitchen":"yes","name":"Karkelbeck","phone":"+370 68 660389","picnic_table":"yes","power_supply":"yes","sanitary_dump_station":"yes","shower":"yes","tents":"yes","toilets":"yes","waste_disposal":"yes","website":"https://www.karkelbeck.lt/"}},"1092392026":{"location":[55.8098651,21.0732515],"ct":"LT","tp":"CS","ts":"2024-03-09T06:24:55Z","tX":571,"tY":319,"tags":{"cabins":"yes","caravans":"yes","dog":"leashed","fee":"yes","internet_access":"wlan","kitchen":"yes","name":"Karklės kopos","payment:cash":"yes","picnic_table":"yes","power_supply":"yes","shower":"hot","tents":"yes","toilets":"yes","website":"https://www.karkleskopos.lt/"}},"1160003816":{"location":[55.9632663,21.0735902],"ct":"LT","tp":"CR","ts":"2023-04-05T16:41:13Z","tX":571,"tY":319,"tags":{"addr:city":"Palanga","addr:contact":"yes","addr:housenumber":"43","addr:postcode":"00169","addr:street":"Užkanavės g.","email":"camping.atsea@gmail.com","name":"Poilsiavietė prie jūros","name:en":"Camping at the sea","name:lt":"Poilsiavietė prie jūros","phone":"+370 698 31 503","tents":"yes","website":"https://www.facebook.com/campingatthesea"}},"3002035772":{"location":[55.7989836,21.0787597],"ct":"LT","tp":"CS","ts":"2022-09-06T15:41:42Z","tX":571,"tY":319,"tags":{"bbq":"yes","cabins":"yes","caravans":"yes","fee":"yes","image":"https://olandokepure.lt/wp-content/uploads/2017/01/kempingas-1-min.jpg","internet_access":"wlan","kitchen":"yes","name":"Olando kepurė","phone":"+370 686 62915","picnic_table":"yes","power_supply":"yes","shower":"yes","tents":"yes","toilets":"yes","washing_machine":"yes","website":"https://olandokepure.lt/kempingas/"}},"3002035802":{"location":[55.8065254,21.0717939],"ct":"LT","tp":"CS","ts":"2022-09-06T15:41:42Z","tX":571,"tY":319,"tags":{"name":"Kempingas Žiogelis","name:en":"Camping Žiogelis","name:lt":"Kempingas Žiogelis"}}}