{"9390902":{"location":[34.9014994,136.8839901],"ct":"JP","tp":"CS","ts":"2022-03-29T04:58:28Z","tX":901,"tY":405,"tags":{"addr:block_number":"1","addr:city":"半田市","addr:housenumber":"1","addr:neighbourhood":"3","addr:province":"愛知県","addr:quarter":"池田町","bbq":"yes","drinking_water":"yes","fee":"yes","motor_vehicle":"yes","name":"半田運動公園デイキャンプ場","name:en":"Handa Undo Park Day Use Area","opening_hours":"Mo-Su 09:00-16:30; Dec 29-Jan 03 off","operator":"半田市","phone":"+81 569 27 6663","picnic_table":"yes","toilets":"yes","website":"https://www.city.handa.lg.jp/sports/bunka/leisure/sportsshisetsu/undokoen/daycampjo.html"}},"505581940":{"location":[34.8897582,136.8760847],"ct":"JP","tp":"CS","ts":"2023-11-07T07:37:23Z","tX":901,"tY":405,"tags":{"camp_site":"standard","capacity:persons":"50","drinking_water":"yes","fee":"yes","motor_vehicle":"yes","name":"常滑市グリーンスポーツセンター","name:en":"Tokoname City Green Sports Center","opening_hours:reception":"Apr-Oct Mo-Su 08:30-18:00, Nov-Mar Mo-Su 08:30-17:00","operator":"常滑市","phone":"+81 569 35 2797","tents":"yes","toilets":"yes","website":"https://www.city.tokoname.aichi.jp/kurashi/sportspark/1000999/1001007.html"}}}