{"4260661989":{"location":[24.3425092,54.4780542],"ct":"AE","tp":"CS","ts":"2018-03-06T21:49:09Z","tX":666,"tY":440,"tags":{"name":"Classic art","name:en":"Classic art"}},"4354332928":{"location":[24.3459418,54.4877305],"ct":"AE","tp":"CS","ts":"2018-03-06T21:49:10Z","tX":666,"tY":440,"tags":{"name":"Almariah Camp","name:en":"Almariah Camp"}},"4545196989":{"location":[24.2566358,54.3845585],"ct":"AE","tp":"CS","ts":"2019-02-12T11:31:38Z","tX":666,"tY":440,"tags":{"addr:street":"Abu Dhabi","name":"Hameem Beach","name:en":"Hameem Beach"}},"4545204389":{"location":[24.2615133,54.3948098],"ct":"AE","tp":"CS","ts":"2019-02-12T11:31:38Z","tX":666,"tY":440,"tags":{"addr:street":"Abu Dhabi","name":"Al Dhafra Fishing Zone 1","name:en":"Al Dhafra Fishing Zone 1"}},"4545204390":{"location":[24.3079632,54.2141903],"ct":"AE","tp":"CS","ts":"2019-02-12T11:31:38Z","tX":666,"tY":440,"tags":{"addr:street":"Abu Dhabi","name":"Al Aryam Island","name:en":"Al Aryam Island"}},"4552264843":{"location":[24.21799,54.4124494],"ct":"AE","tp":"CS","ts":"2019-02-12T11:31:39Z","tX":666,"tY":440,"tags":{"name":"Hameem Beach Entrance Test","name:en":"Hameem Beach Entrance Test"}},"4552276189":{"location":[24.2178971,54.4126164],"ct":"AE","tp":"CS","ts":"2019-02-12T11:31:40Z","tX":666,"tY":440,"tags":{"name":"Hameem Beach Entrance","name:en":"Hameem Beach Entrance"}},"4849360521":{"location":[24.3503018,54.4905658],"ct":"AE","tp":"CS","ts":"2019-02-17T12:38:31Z","tX":666,"tY":440,"tags":{"name":"Belhasha camp","name:en":"Belhasha camp"}},"8647902317":{"location":[24.4166333,54.3306768],"ct":"AE","tp":"CS","ts":"2024-04-20T19:26:10Z","tX":666,"tY":440,"tags":{"name":"Bab Al Nojoum","opening_hours":"24/7"}},"4559402489":{"location":[24.4785389,54.3526506],"ct":"AE","tp":"CR","ts":"2019-02-12T11:31:40Z","tX":666,"tY":440,"tags":{"name":"Building 365","name:en":"Building 365"}},"4840062222":{"location":[24.5174166,54.3794125],"ct":"AE","tp":"CR","ts":"2017-05-07T15:51:43Z","tX":666,"tY":440,"tags":{"addr:street":"ميناء زايد","name":"شركة ابناء المختار للخضار والفواكه","name:ar":"شركة ابناء المختار للخضار والفواكه","name:en":"Abna' almoktar"}}}