{"368871254":{"location":[37.2898833,127.2599106],"ct":"KR","tp":"CS","ts":"2019-01-06T16:54:21Z","tX":873,"tY":397,"tags":{"name":"경기학생용인야영장","name:en":"Gyeonggi Student Yongin Camping Site","name:ko":"경기학생용인야영장","name:ko-Latn":"Gyeonggihaksaengyonginyayeongjang","ncat":"야영장","source":"http://kr.open.gugi.yahoo.com"}},"383421061":{"location":[37.4291255,127.025323],"ct":"KR","tp":"CS","ts":"2023-03-13T19:17:51Z","tX":873,"tY":397,"tags":{"addr:city":"과천시","addr:housenumber":"102","addr:street":"대공원광장로","name":"서울대공원 자연캠프장","name:en":"Seoul Grand Park Natural Camp Site","name:ja":"ソウル大公園 自然キャンプ場","name:ko":"서울대공원 자연캠프장"}},"588988733":{"location":[37.3060187,126.9527837],"ct":"KR","tp":"CS","ts":"2018-05-19T07:47:36Z","tX":873,"tY":397,"tags":{"name":"왕송호수캠핑장","operator":"의왕도시공사","phone":"+82-31-8086-7371","tents":"yes","website":"http://uiwangpark.uuc.or.kr"}},"790957455":{"location":[37.1690301,127.1630924],"ct":"KR","tp":"CS","ts":"2020-04-12T08:05:12Z","tX":873,"tY":397,"tags":{}},"988823136":{"location":[37.1634242,127.2483851],"ct":"KR","tp":"CS","ts":"2021-10-02T09:36:18Z","tX":873,"tY":397,"tags":{}},"988823137":{"location":[37.162774,127.2526248],"ct":"KR","tp":"CS","ts":"2021-10-02T09:36:18Z","tX":873,"tY":397,"tags":{}},"1182158823":{"location":[37.216325,127.1647632],"ct":"KR","tp":"CS","ts":"2023-06-15T04:29:05Z","tX":873,"tY":397,"tags":{"name":"도란도란캠핑장"}},"1234109622":{"location":[37.257908,126.9161019],"ct":"KR","tp":"CS","ts":"2023-12-25T18:27:00Z","tX":873,"tY":397,"tags":{"name":"매송 캠핑장"}},"4102222295":{"location":[37.4043189,127.1025003],"ct":"KR","tp":"CR","ts":"2019-01-08T08:52:28Z","tX":873,"tY":397,"tags":{"addr:street":"판교로","name":"KSTEC","name:ko":"KSTEC","website":"http://www.kstec.co.kr"}},"4217130892":{"location":[37.4164288,127.0938114],"ct":"KR","tp":"CS","ts":"2016-05-31T11:51:35Z","tX":873,"tY":397,"tags":{"name":"koica"}},"5570615622":{"location":[37.2742723,127.0653865],"ct":"KR","tp":"CS","ts":"2019-01-08T08:58:04Z","tX":873,"tY":397,"tags":{"name":"광교오토캠핑장","name:ko":"광교오토캠핑장"}}}