{"368871169":{"location":[36.639191,126.926764],"ct":"KR","tp":"CS","ts":"2019-01-06T16:54:20Z","tX":873,"tY":399,"tags":{"name":"예동야영장","name:en":"Yedong Camping Site","name:ko":"예동야영장","name:ko-Latn":"Yedongyayeongjang","ncat":"야영장","source":"http://kr.open.gugi.yahoo.com"}},"368871293":{"location":[36.8012488,127.2261511],"ct":"KR","tp":"CS","ts":"2019-01-06T16:54:22Z","tX":873,"tY":399,"tags":{"name":"천안시용연청소년야영장","name:en":"Cheonansiyongyeon Youth Camping Site","name:ko":"천안시용연청소년야영장","name:ko-Latn":"Cheonansiyongyeoncheongsonyeonyayeongjang","ncat":"야영장","source":"http://kr.open.gugi.yahoo.com"}},"1167116198":{"location":[36.8570414,126.9800298],"ct":"KR","tp":"CS","ts":"2023-04-28T14:12:36Z","tX":873,"tY":399,"tags":{"name":"아산스파포래(SPAFORE)","operator":"아산스파비스"}},"1216662868":{"location":[36.7322324,127.027693],"ct":"KR","tp":"CS","ts":"2023-10-19T00:14:01Z","tX":873,"tY":399,"tags":{"name":"설화산산삼의숲캠핑장"}},"1355955942":{"location":[36.6108668,127.1231992],"ct":"KR","tp":"CS","ts":"2025-02-01T15:22:41Z","tX":873,"tY":399,"tags":{"name":"정안글램핑","name:en":"Jeongan Glamping","name:ko":"정안글램핑"}}}