{"227351453":{"location":[57.7352146,33.0907335],"ct":"RU","tp":"CS","ts":"2013-06-25T14:27:29Z","tX":606,"tY":309,"tags":{"name":"Валдайская Робинзонада"}},"381836616":{"location":[57.7288856,33.0602481],"ct":"RU","tp":"CS","ts":"2023-10-24T04:09:22Z","tX":606,"tY":309,"tags":{"addr:city":"Симаниха","addr:housenumber":"1","addr:postcode":"175425","addr:street":"Береговая улица","description":"База отдыха","leisure":"park","name":"База отдыха \"Великое озеро\"","phone":"+7 921 2041704","website":"http://velikoeozero.ru/"}},"847283598":{"location":[57.8421899,33.1002778],"ct":"RU","tp":"CS","ts":"2020-09-14T19:53:11Z","tX":606,"tY":309,"tags":{"name":"Озеро Русское","tents":"yes"}},"6268856928":{"location":[57.7307321,33.07863],"ct":"RU","tp":"CS","ts":"2023-11-19T10:41:53Z","tX":606,"tY":309,"tags":{"backcountry":"yes","fee":"yes","name":"У истока Велья","operator":"Национальный парк «Валдайский»","website":"https://www.valdaypark.ru/%d1%82%d1%83%d1%80%d0%b8%d1%81%d1%82%d0%b8%d1%87%d0%b5%d1%81%d0%ba%d0%b8%d0%b5-%d1%81%d1%82%d0%be%d1%8f%d0%bd%d0%ba%d0%b8/"}},"6268856929":{"location":[57.7307622,33.0836779],"ct":"RU","tp":"CS","ts":"2023-11-19T10:42:01Z","tX":606,"tY":309,"tags":{"backcountry":"yes","fee":"yes","name":"Уклейно 3","operator":"Национальный парк «Валдайский»","website":"https://www.valdaypark.ru/%d1%82%d1%83%d1%80%d0%b8%d1%81%d1%82%d0%b8%d1%87%d0%b5%d1%81%d0%ba%d0%b8%d0%b5-%d1%81%d1%82%d0%be%d1%8f%d0%bd%d0%ba%d0%b8/"}},"6268856930":{"location":[57.7311617,33.0856493],"ct":"RU","tp":"CS","ts":"2023-11-19T10:41:47Z","tX":606,"tY":309,"tags":{"backcountry":"yes","fee":"yes","name":"Уклейно 2","operator":"Национальный парк «Валдайский»","website":"https://www.valdaypark.ru/%d1%82%d1%83%d1%80%d0%b8%d1%81%d1%82%d0%b8%d1%87%d0%b5%d1%81%d0%ba%d0%b8%d0%b5-%d1%81%d1%82%d0%be%d1%8f%d0%bd%d0%ba%d0%b8/"}},"6268856931":{"location":[57.7313923,33.0873686],"ct":"RU","tp":"CS","ts":"2023-11-19T10:41:46Z","tX":606,"tY":309,"tags":{"backcountry":"yes","fee":"yes","name":"Уклейно 1","operator":"Национальный парк «Валдайский»","website":"https://www.valdaypark.ru/%d1%82%d1%83%d1%80%d0%b8%d1%81%d1%82%d0%b8%d1%87%d0%b5%d1%81%d0%ba%d0%b8%d0%b5-%d1%81%d1%82%d0%be%d1%8f%d0%bd%d0%ba%d0%b8/"}},"6268856932":{"location":[57.7305116,33.0880982],"ct":"RU","tp":"CS","ts":"2023-11-19T10:42:27Z","tX":606,"tY":309,"tags":{"backcountry":"yes","fee":"yes","name":"Павлово","operator":"Национальный парк «Валдайский»","website":"https://www.valdaypark.ru/%d1%82%d1%83%d1%80%d0%b8%d1%81%d1%82%d0%b8%d1%87%d0%b5%d1%81%d0%ba%d0%b8%d0%b5-%d1%81%d1%82%d0%be%d1%8f%d0%bd%d0%ba%d0%b8/"}},"6268856933":{"location":[57.7091995,33.0507699],"ct":"RU","tp":"CS","ts":"2023-11-19T10:41:47Z","tX":606,"tY":309,"tags":{"backcountry":"yes","fee":"yes","name":"Бузаниха","operator":"Национальный парк «Валдайский»","website":"https://www.valdaypark.ru/%d1%82%d1%83%d1%80%d0%b8%d1%81%d1%82%d0%b8%d1%87%d0%b5%d1%81%d0%ba%d0%b8%d0%b5-%d1%81%d1%82%d0%be%d1%8f%d0%bd%d0%ba%d0%b8/"}},"7793254385":{"location":[57.7308107,33.0622069],"ct":"RU","tp":"CR","ts":"2021-02-04T19:01:23Z","tX":606,"tY":309,"tags":{"name":"Кемпинг \"Великое озеро\"","opening_hours":"24/7","phone":"+7 921 2041704","website":"http://velikoeozero.ru/"}}}