{"485604729":{"location":[43.6469334,142.7918345],"ct":"JP","tp":"CS","ts":"2023-04-14T09:28:29Z","tX":918,"tY":373,"tags":{"name":"旭岳青少年野営場","wheelchair":"no"}},"1083221762":{"location":[43.6951788,142.9109985],"ct":"JP","tp":"CS","ts":"2022-08-02T13:52:59Z","tX":918,"tY":373,"tags":{"fee":"yes","name":"黒岳野営指定地","name:en":"Kurodake Camp Site","name:ja":"黒岳野営指定地","name:ja-Hira":"くろだけやえいしていち","source":"GSImaps/seamless;survey 2022-07-30","surface":"unpaved","wheelchair":"no"}},"1091961137":{"location":[43.6577134,142.9139576],"ct":"JP","tp":"CS","ts":"2022-09-04T22:20:13Z","tX":918,"tY":373,"tags":{"fee":"yes","name":"白雲岳野営指定地","name:en":"Hakuun Camp Site","name:ja":"白雲岳野営指定地","name:ja-Hira":"はくうんだけやえいしていち","reservation":"recommended","source":"GSImaps/seamless"}},"1092080881":{"location":[43.6654211,142.8620119],"ct":"JP","tp":"CS","ts":"2022-09-05T10:59:23Z","tX":918,"tY":373,"tags":{"name":"裏旭野営指定地","name:en":"Ura-Asahi Camp Site","name:ja":"裏旭野営指定地","name:ja-Hira":"うらあさひやえいしていち","source":"GSImaps/seamless"}},"6687160886":{"location":[43.7721041,142.9023753],"ct":"JP","tp":"CS","ts":"2024-07-05T01:52:33Z","tX":918,"tY":373,"tags":{"name":"層雲峡オートキャンプ場"}}}