{"430867330":{"location":[60.8992935,22.3659139],"ct":"FI","tp":"CR","ts":"2024-01-07T09:05:51Z","tX":575,"tY":292,"tags":{"addr:city":"Yläne","addr:housenumber":"131","addr:postcode":"21900","addr:street":"Kallionokantie","caravans":"yes","disused:website":"https://www.kallionokkacamping.fi/","drinking_water":"yes","fee":"yes","name":"Kallionokka","phone":"+358 50 547 9335","power_supply":"yes","sanitary_dump_station":"yes","sauna":"yes","shower":"yes","tents":"yes","toilets":"yes","website":"https://www.kallionokka.fi"}},"430867354":{"location":[60.8951739,22.3516316],"ct":"FI","tp":"CR","ts":"2017-08-29T15:36:58Z","tX":575,"tY":292,"tags":{"addr:city":"Yläne","addr:housenumber":"49","addr:postcode":"21900","addr:street":"Rantapolku","name":"SF-C Valasranta","operator":"TL Pyhäjärvi ry","website":"https://www.sf-caravantlpyhajarvi.fi"}},"519834778":{"location":[60.8956946,22.3525735],"ct":"FI","tp":"CS","ts":"2024-01-06T15:01:07Z","tX":575,"tY":292,"tags":{"name":"SF- C Valasranta","operator":"SF-C TL Pyhäjärvi ry"}},"1237531450":{"location":[60.9000559,22.3672594],"ct":"FI","tp":"CS","ts":"2024-01-06T15:01:07Z","tX":575,"tY":292,"tags":{"name":"Leirintäalue"}},"10065349017":{"location":[60.9000562,22.3658466],"ct":"FI","tp":"SD","ts":"2022-09-30T21:08:22Z","tX":575,"tY":292,"tags":{}}}