{"285944417":{"location":[49.280533,22.2062283],"ct":"PL","tp":"CS","ts":"2023-01-27T07:37:09Z","tX":575,"tY":350,"tags":{"capacity":"40","email":"sbn.rabe@gmail.com","facebook":"https://www.facebook.com/bazarabe/","fee":"yes","name":"Studencka Baza Namiotowa \"Rabe\"","opening_hours":"Jun-Aug","operator":"Oddział PTTK „Mazowsze”, Warszawa;Studencki Klub Podróżniczy „Czwórka”","phone":"+48 792385995","wikidata":"Q9347287","wikipedia":"pl:Studencka Baza Namiotowa Rabe"}},"285950555":{"location":[49.2552721,22.3629531],"ct":"PL","tp":"CS","ts":"2024-03-30T17:18:47Z","tX":575,"tY":350,"tags":{"capacity":"80","description":"Otwarte: lipiec – sierpień. Ceny: 6 zł, członkowie PTTK i studenci SGGW 5 zł, rabaty: Unia Baz, PTTK.","email":"sbn.lopienka@gmail.com","fee":"yes","name":"Baza namiotowa Łopienka","opening_hours":"Jul-Aug","operator":"Oddział Międzyuczelniany PTTK w Warszawie, Akademicki Klub Turystyczny SGGW Warszawa","phone":"+48 660380887","website":"https://www.facebook.com/lopienka","wikidata":"Q9347285","wikipedia":"pl:Studencka Baza Namiotowa „Łopienka”"}},"293479723":{"location":[49.3379671,22.4385548],"ct":"PL","tp":"CR","ts":"2018-03-27T11:36:43Z","tX":575,"tY":350,"tags":{}},"368167017":{"location":[49.2238589,22.3606682],"ct":"PL","tp":"CS","ts":"2024-03-28T00:17:16Z","tX":575,"tY":350,"tags":{"access":"customers","addr:city":"Cisna","addr:housenumber":"25","addr:place":"Dołżyca","addr:postcode":"38-607","email":"kontakt@motocyklemwbieszczady.pl","name":"Bieszczadzka Przystań Motocyklowa","phone":"+48 721 456 965","website":"https://www.motocyklemwbieszczady.pl/"}},"391297655":{"location":[49.1564831,22.4633513],"ct":"PL","tp":"CS","ts":"2018-08-11T13:56:30Z","tX":575,"tY":350,"tags":{"email":"kontakt@pttkwetlina.pl","motorcycle_friendly":"customary","website":"http://www.pttkwetlina.pl"}},"443006828":{"location":[49.1650118,22.4549646],"ct":"PL","tp":"CS","ts":"2018-06-06T13:41:12Z","tX":575,"tY":350,"tags":{"name":"Stare Sioło"}},"448300014":{"location":[49.357591,22.4242042],"ct":"PL","tp":"CS","ts":"2022-03-25T01:32:53Z","tX":575,"tY":350,"tags":{"name":"Zacisze","opening_hours":"24/7"}},"474495345":{"location":[49.2077527,22.3279943],"ct":"PL","tp":"CS","ts":"2024-06-25T07:57:57Z","tX":575,"tY":350,"tags":{"addr:country":"PL","addr:housenumber":"118","addr:place":"Cisna","addr:postcode":"38-607","cabins":"yes","caravans":"yes","contact:email":"majortramp@o2.pl","contact:facebook":"agroturystykatramp","contact:mobile":"+48 507947840","contact:website":"https://www.bieszczadytramp.pl/","drinking_water":"yes","fee":"yes","internet_access":"no","kitchen":"yes","motorhome":"yes","name":"Kamping Tramp","nudism":"no","picnic_table":"yes","power_supply":"yes","shower":"yes","source":"http://www.bieszczadytramp.pl","tents":"yes","toilets":"yes"}},"515281562":{"location":[49.360924,22.4373425],"ct":"PL","tp":"CS","ts":"2022-05-04T08:41:18Z","tX":575,"tY":350,"tags":{"caravans":"yes","name":"Wyspa Energetyk","tents":"yes"}},"537467166":{"location":[49.3631915,22.4324551],"ct":"PL","tp":"CS","ts":"2023-05-27T14:55:46Z","tX":575,"tY":350,"tags":{}},"537467183":{"location":[49.3677287,22.4360319],"ct":"PL","tp":"CS","ts":"2020-09-07T06:33:53Z","tX":575,"tY":350,"tags":{"contact:facebook":"https://www.facebook.com/bluemarinekemping/","contact:phone":"+48 720 979 313","name":"Blue Marine Kemping"}},"537474022":{"location":[49.3298074,22.4300756],"ct":"PL","tp":"CS","ts":"2024-06-23T13:05:33Z","tX":575,"tY":350,"tags":{}},"537474023":{"location":[49.3291529,22.4280309],"ct":"PL","tp":"CS","ts":"2017-11-01T17:29:15Z","tX":575,"tY":350,"tags":{}},"597926936":{"location":[49.2629005,22.4004013],"ct":"PL","tp":"CS","ts":"2024-03-29T00:16:07Z","tX":575,"tY":350,"tags":{}},"837112782":{"location":[49.2788493,22.2830916],"ct":"PL","tp":"CS","ts":"2020-08-14T12:51:32Z","tX":575,"tY":350,"tags":{}},"1046807296":{"location":[49.2958715,22.4755263],"ct":"PL","tp":"CR","ts":"2010-12-19T00:55:59Z","tX":575,"tY":350,"tags":{}},"8018266889":{"location":[49.2726229,22.2421338],"ct":"PL","tp":"CS","ts":"2020-10-18T10:19:05Z","tX":575,"tY":350,"tags":{}}}