{"666445490":{"location":[56.4334295,12.8311287],"ct":"SE","tp":"CR","ts":"2019-01-27T13:20:23Z","tX":548,"tY":316,"tags":{}},"725880484":{"location":[56.4560297,12.9192399],"ct":"SE","tp":"CS","ts":"2024-06-03T18:51:54Z","tX":548,"tY":316,"tags":{"caravans":"yes","drinking_water":"yes","name":"Skummeslövsstrands Camping","power_supply":"yes","sanitary_dump_station":"yes","shower":"yes","tents":"yes","toilets":"yes"}},"725880485":{"location":[56.4569853,12.9228035],"ct":"SE","tp":"CS","ts":"2021-04-13T21:28:31Z","tX":548,"tY":316,"tags":{}},"725880487":{"location":[56.4602607,12.9304631],"ct":"SE","tp":"CS","ts":"2024-08-02T06:23:37Z","tX":548,"tY":316,"tags":{"caravans":"yes","name":"Skummeslövs Eko-Camping","tents":"yes","website":"https://skummeslovscamping.se/"}},"788231620":{"location":[56.4536196,12.7835227],"ct":"SE","tp":"CR","ts":"2020-04-05T16:47:08Z","tX":548,"tY":316,"tags":{"access":"yes","capacity":"159","contact:email":"norrviken-camp@caravanclub.se","contact:fax":"+46 431 369160","contact:phone":"+46 431 369170","contact:website":"http://caravanclub.se/","dog":"yes","internet_access":"wlan","name":"Caravan Club Norrviken","operator":"Caravan Club of Sweden","power_supply:maxcurrent":"10","source:info":"caravanclub.se","source:location":"caravanclub.se","wheelchair":"yes"}},"928931302":{"location":[56.4383802,12.9152141],"ct":"SE","tp":"CS","ts":"2022-12-31T02:28:28Z","tX":548,"tY":316,"tags":{"addr:city":"Båstad","addr:country":"SE","addr:housenumber":"128","addr:postcode":"26943","addr:street":"Norra Vägen","name":"Båstad Camping","phone":"+46 431 75511","website":"https://www.bastadcamping.se/"}},"976890775":{"location":[56.5203345,12.9484454],"ct":"SE","tp":"CS","ts":"2025-03-16T21:30:04Z","tX":548,"tY":316,"tags":{"internet_access":"yes","name":"Mellbystrands Camping","shower":"yes","website":"https://mellbystrands.se/"}},"1068431593":{"location":[56.5155133,12.963357],"ct":"SE","tp":"CS","ts":"2025-03-14T10:12:06Z","tX":548,"tY":316,"tags":{"name":"Olles camping"}},"1083885954":{"location":[56.5017483,12.943919],"ct":"SE","tp":"CS","ts":"2022-12-31T02:31:30Z","tX":548,"tY":316,"tags":{"addr:city":"Mellbystrand","addr:country":"SE","addr:housenumber":"10","addr:postcode":"312 61","addr:street":"Kaninvägen","cabins":"yes","caravans":"yes","drinking_water":"yes","email":"info@havsstugorna.se","fee":"yes","kitchen":"yes","lit":"yes","name":"Havsstugorna","operator":"Bo-Göran, Lena, Jens-Peter.","phone":"+46 72 971 83 16","reservation":"recommended","shower":"yes","tents":"yes","toilets":"yes","website":"https://www.havsstugorna.se"}},"1385534775":{"location":[56.4741534,12.9927327],"ct":"SE","tp":"CS","ts":"2025-05-11T10:14:58Z","tX":548,"tY":316,"tags":{"addr:city":"Laholm","addr:country":"SE","addr:housenumber":"62","addr:postcode":"312 96","addr:street":"Lögnäsvägen","caravans":"yes","contact:email":"info@lognasgard.se","contact:phone":"+46 430 23076","contact:website":"https://www.lognasgard.se/camping/","name":"Lögnäs gård","sanitary_dump_station":"yes","tents":"yes"}},"1952528804":{"location":[56.4611515,12.7394319],"ct":"SE","tp":"CS","ts":"2023-08-22T14:51:56Z","tX":548,"tY":316,"tags":{"backcountry":"yes","caravans":"no","drinking_water":"no","impromptu":"yes","internet_access":"no","name:signed":"no","power_supply":"no","sanitary_dump_station":"no","shower":"no","tents":"yes"}},"4448464519":{"location":[56.43324,12.84316],"ct":"SE","tp":"SD","ts":"2017-09-23T18:46:18Z","tX":548,"tY":316,"tags":{"access":"yes","addr:place":"Båstads Hamn","boat":"yes","fee":"no","opening_hours":"24/7","sanitary_dump_station:accepted":"black_water","sanitary_dump_station:pump-out":"yes","seamark:small_craft_facility:category":"pump-out","seamark:type":"small_craft_facility","vehicle":"no","waterway":"sanitary_dump_station","website":"https://hamnkartan.azurewebsites.net"}}}