{"54202019":{"location":[55.3981976,12.863371],"ct":"SE","tp":"CS","ts":"2024-06-06T13:06:00Z","tX":548,"tY":321,"tags":{"access":"customers","addr:city":"Falsterbo","addr:country":"SE","addr:housenumber":"1","addr:postcode":"239 42","addr:street":"Reutersvärds väg","cabins":"yes","camp_site":"serviced","caravans":"yes","drinking_water":"yes","email":"info@falsterboresort.se","fee":"yes","hot_water":"yes","internet_access":"yes","internet_access:fee":"customers","motor_vehicle":"yes","name":"Falsterbo Camping & Resort","old_name":"Ljungens camping","payment:credit_cards":"yes","phone":"+46 40 6024020","power_supply":"yes","reservation":"yes","shower":"yes","tents":"yes","toilets":"yes","toilets:wheelchair":"yes","website":"https://falsterboresort.se/","wheelchair":"yes"}},"244261940":{"location":[55.4334572,12.8580499],"ct":"SE","tp":"CS","ts":"2019-08-14T18:30:27Z","tX":548,"tY":321,"tags":{"name":"Solhejdans Naturistcamping","phone":"+46-40 - 47 50 88","website":"https://www.scandinavianaturist.org/"}},"296888614":{"location":[55.5718265,12.908289],"ct":"SE","tp":"CS","ts":"2023-10-04T16:10:54Z","tX":548,"tY":321,"tags":{"addr:city":"Limhamn","addr:country":"SE","addr:housenumber":"101","addr:postcode":"216 11","addr:street":"Strandgatan","email":"malmo@firstcamp.se","fax":"+46 40 156420","internet_access":"wlan","name":"First Camp Malmö Sibbarp","operator":"First Camp Scandinavia AB","phone":"+46 40 155165","source":"Bing hires;website","toilets:wheelchair":"yes","website":"https://firstcamp.se/destination/sibbarp-malmo/","wheelchair":"yes"}},"517795993":{"location":[55.4276129,12.9521017],"ct":"SE","tp":"CR","ts":"2023-07-28T09:36:55Z","tX":548,"tY":321,"tags":{"capacity":"16","contact:website":"http://www.fotevikensmuseum.se/d/besok/stallplats","fee":"yes","internet_access":"no","name":"Ställplats Foteviken","name:en":"Motor Home Site Foteviken","opening_hours":"Feb 01 - Nov 30: open","operator":"Fotevikens vikingamuseum","power_supply":"yes","sanitary_dump_station":"yes","surface":"grass","tents":"yes","wheelchair":"yes"}},"844068511":{"location":[55.4160203,12.8326887],"ct":"SE","tp":"CR","ts":"2023-07-19T14:20:09Z","tX":548,"tY":321,"tags":{"access":"yes","capacity":"10","capacity:disabled":"0","fee":"yes","parking":"surface","power_supply":"yes","sanitary_dump_station":"customers","surface":"gravel"}},"11517784081":{"location":[55.4016995,12.9429333],"ct":"SE","tp":"CR","ts":"2024-01-14T23:46:13Z","tX":548,"tY":321,"tags":{"name":"Esatcionamento e Pernoita Autocaravanas","power_supply":"no","sanitary_dump_station":"no"}},"4448464186":{"location":[55.41103,12.93302],"ct":"SE","tp":"SD","ts":"2017-09-23T11:45:59Z","tX":548,"tY":321,"tags":{"access":"yes","boat":"yes","fee":"no","name":"Tömningsstation","opening_hours":"24/7","sanitary_dump_station:accepted":"black_water","sanitary_dump_station:pump-out":"yes","seamark:small_craft_facility:category":"pump-out","seamark:type":"small_craft_facility","vehicle":"no","waterway":"sanitary_dump_station","website":"https://hamnkartan.azurewebsites.net"}},"4448464187":{"location":[55.4160731,12.8305966],"ct":"SE","tp":"SD","ts":"2024-01-14T23:51:01Z","tX":548,"tY":321,"tags":{"access":"yes","boat":"yes","fee":"no","name":"Tömningsstation","opening_hours":"24/7","sanitary_dump_station:accepted":"black_water","sanitary_dump_station:basin":"yes","sanitary_dump_station:pump-out":"yes","vehicle":"no","water_point":"yes","website":"https://hamnkartan.azurewebsites.net"}},"11158696399":{"location":[55.3970503,12.865266],"ct":"SE","tp":"SD","ts":"2023-08-31T10:17:33Z","tX":548,"tY":321,"tags":{"access":"customers","fee":"no"}}}