{"41974316":{"location":[54.3796549,12.6614365],"ct":"DE","tp":"CS","ts":"2024-07-17T08:56:01Z","tX":548,"tY":326,"tags":{"addr:city":"Pruchten","addr:country":"DE","addr:housenumber":"2","addr:postcode":"18356","addr:street":"Am Campingplatz","caravans":"yes","drinking_water":"yes","email":"info@naturcamp.de","fax":"+49 38231 66346","fee":"yes","internet_access":"wlan","motorhome":"yes","name":"Naturcamp Pruchten","phone":"+49 38231 2045","power_supply":"yes","sanitary_dump_station":"yes","shop":"supermarket","stars":"4","tents":"yes","washing_machine":"yes","website":"https://www.naturcamp.de/","wheelchair":"yes"}},"65644560":{"location":[54.4395448,12.661688],"ct":"DE","tp":"CS","ts":"2019-03-30T07:55:34Z","tX":548,"tY":326,"tags":{"addr:city":"Zingst","addr:country":"DE","addr:housenumber":"1","addr:postcode":"18374","addr:street":"Am Bahndamm","area":"yes","email":"info@camping-zingst.de","name":"Campingplatz am Freesenbruch","phone":"+493823215786","website":"https://www.camping-zingst.de/"}},"116586336":{"location":[54.4403337,12.7260795],"ct":"DE","tp":"CS","ts":"2024-07-15T10:40:21Z","tX":548,"tY":326,"tags":{"addr:city":"Zingst","addr:country":"DE","addr:housenumber":"5","addr:postcode":"18374","addr:street":"Straminke","alt_name":"LVG Camping","caravans":"yes","drinking_water":"yes","fireplace":"yes","kitchen":"yes","leisure":"playground","motor_vehicle":"yes","motorhome":"yes","name":"Naturdüne Camping Resort Zingst","operator":"Achtern Diek Projekt GmbH","outdoor_seating":"yes","phone":"+49 38232 175 657","power_supply":"yes","sanitary_dump_station":"yes","shop":"bakery","shower":"yes","tents":"yes","website":"https://naturduene.de/","wheelchair":"yes"}},"180781505":{"location":[54.4378195,12.7078709],"ct":"DE","tp":"CS","ts":"2025-01-11T16:13:34Z","tX":548,"tY":326,"tags":{"addr:city":"Zingst","addr:country":"DE","addr:housenumber":"9","addr:postcode":"18374","addr:street":"Inselweg","caravans":"yes","hot_water":"yes","internet_access":"wlan","kitchen":"yes","leisure":"sauna","motorcar":"yes","motorhome":"yes","name":"Wellness-Camp Düne 6","power_supply":"yes","shower":"yes","stars":"5","tents":"yes","washing_machine":"yes","website":"https://www.wellness-camp.de/"}},"282036114":{"location":[54.372012,12.7247048],"ct":"DE","tp":"CR","ts":"2024-08-19T10:59:21Z","tX":548,"tY":326,"tags":{"addr:city":"Barth","addr:housenumber":"15","addr:postcode":"18356","addr:street":"Am Westhafen","bar":"yes","barrier":"no","bbq":"yes","capacity":"30","caravans":"yes","dog":"yes","drinking_water":"yes","internet_access":"yes","name":"Barther Segler-Verein","power_supply":"yes","restaurant":"yes","sanitary_dump_station":"yes","shower":"yes","toilets":"yes"}},"282078163":{"location":[54.3688642,12.7338255],"ct":"DE","tp":"CR","ts":"2014-06-22T23:47:35Z","tX":548,"tY":326,"tags":{"addr:city":"Barth","addr:postcode":"18356","addr:street":"Am Osthafen","fee":"yes","name":"Osthafen","power_supply":"yes"}},"516531767":{"location":[54.4404923,12.7080672],"ct":"DE","tp":"CR","ts":"2024-05-28T19:06:37Z","tX":548,"tY":326,"tags":{"contact:phone":"+49 38232 389010","fee":"yes","name":"Ostsee-Stellplatz","power_supply":"yes","ref":"18374 Zingst;Straminke Strandübergang 6","sanitary_dump_station":"no","water_point":"yes","website":"https://www.surfandwave.club/kurse/windsurfen/","wheelchair":"yes"}},"517914729":{"location":[54.3689236,12.7619252],"ct":"DE","tp":"CS","ts":"2022-09-14T09:29:45Z","tX":548,"tY":326,"tags":{"caravans":"yes","name":"Bernsteinreiter Naturcampingplatz","phone":"+49 160 93066325","shower":"yes","tents":"yes","toilets":"yes","website":"https://www.bernsteinreiter-barth.de/ostseeurlaub-reiterferien/naturcamping.html"}},"1275268352":{"location":[54.3712338,12.7237175],"ct":"DE","tp":"CR","ts":"2025-01-04T20:28:44Z","tX":548,"tY":326,"tags":{"addr:city":"Barth","addr:housenumber":"28","addr:postcode":"18356","addr:street":"Hafenstraße","capacity":"70","caravans":"yes","dish_washing":"yes","dog":"yes","drinking_water":"yes","internet_access":"yes","name":"VINETA CARAVANING","opening_hours":"13. April - 31. Oktober 2024","phone":"+ 49 (0)176 - 4333 4300","power_supply":"yes","sanitary_dump_station":"yes","shower":"yes","tents":"yes","toilets":"yes","washing_machine":"yes","website":"https://www.barther-yacht-service.de/ueber-uns/caravan-stellplaetze"}},"3583736733":{"location":[54.4398252,12.6604513],"ct":"DE","tp":"CR","ts":"2024-07-18T18:44:02Z","tX":548,"tY":326,"tags":{"addr:city":"Zingst","addr:housenumber":"1","addr:postcode":"18374","addr:street":"Am Bahndamm","capacity":"40","drinking_water":"yes","email":"info@camping-zingst.de","fee":"yes","internet_access":"yes","name":"Reise Mobil Hafen Am Freesebdruch","phone":"+493823215786","power_supply":"yes","sanitary_dump_station":"yes","shower":"yes","television":"yes","toilets":"yes"}},"11938213918":{"location":[54.4367669,12.7059045],"ct":"DE","tp":"SD","ts":"2024-05-27T20:53:02Z","tX":548,"tY":326,"tags":{"sanitary_dump_station:gravity":"yes"}}}