{"486568727":{"location":[54.3375355,12.8328079],"ct":"DE","tp":"CS","ts":"2024-11-29T20:37:00Z","tX":548,"tY":327,"tags":{"access":"customers","addr:city":"Groß Kordshagen","addr:housenumber":"50","addr:postcode":"18442","addr:street":"Schulstraße","alt_name":"Prima-Camping-Resort","backcountry":"no","bbq":"no","cabins":"yes","camp_site":"deluxe","capacity:caravans":"165","caravans":"yes","contact:email":"reservierung@prima-resorts.com","contact:facebook":"https://www.facebook.com/primaresorts/","contact:instagram":"https://www.instagram.com/resort_boddenblick/","contact:phone":"03391-34 68 600","contact:website":"https://prima-resorts.com","description":"165 Stellplätze, 35 Tiny Houses","dog":"leashed","drinking_water":"yes","fee":"yes","group_only":"no","internet_access":"wlan","motor_vehicle":"yes","motorhome":"yes","name":"Prima Resort Boddenblick","old_name":"Campingplatz Groß Kordshagen","operator":"Prima Camping Darß GmbH","payment:apple_pay":"yes","payment:cards":"yes","payment:cash":"no","payment:credit_cards":"yes","payment:debit_cards":"yes","payment:girocard":"yes","payment:google_pay":"yes","payment:maestro":"yes","payment:mastercard":"yes","payment:paypal":"yes","payment:visa":"yes","permanent_camping":"yes","power_supply":"yes","reservation":"recommended","shower":"yes","start_date":"2025","static_caravans":"yes","swimming_pool":"yes","toilets":"yes"}},"515826630":{"location":[54.3387195,12.9414019],"ct":"DE","tp":"CS","ts":"2024-05-28T19:06:37Z","tX":548,"tY":327,"tags":{"addr:city":"Niepars","addr:housenumber":"11","addr:postcode":"18442","addr:street":"Kranichblick","addr:suburb":"Duvendiek","email":"info@ostseelandurlaub.de","fax":"+49 38321 66256","fee":"yes","internet_access":"wlan","name":"Naturcamp \"Zu den 2 Birken\"","operator":"Peter Leupold","phone":"+49 38321 60128;+49 177 6841222"}},"5105273524":{"location":[54.1707467,12.7278166],"ct":"DE","tp":"CS","ts":"2017-09-17T15:52:43Z","tX":548,"tY":327,"tags":{"camp_site":"basic","caravans":"yes","fee":"yes","name":"Eixener See","sanitary_dump_station":"no"}},"6735325002":{"location":[54.3615139,12.8062543],"ct":"DE","tp":"CS","ts":"2020-07-25T19:19:07Z","tX":548,"tY":327,"tags":{"caravans":"yes","fee":"yes","name":"Wasserwanderrastplatz Hafen Dabitz","operator":"Hafenverein Dabitz e.V.","sanitary_dump_station":"no","tents":"yes","url":"http://www.hafen-dabitz.de/camping/"}},"12927357336":{"location":[54.341408,12.7768743],"ct":"DE","tp":"CR","ts":"2025-06-20T07:08:57Z","tX":548,"tY":327,"tags":{"addr:city":"Kenz-Küstrow","addr:housenumber":"19","addr:postcode":"18314","addr:street":"Hofstraße","internet_access":"yes","internet_access:fee":"customers","name":"Ritter Zipke","phone:mobile":"+49 176 88 222 887","power_supply":"yes","sanitary_dump_station":"no","website":"https://www.ritter-zipke.de/"}}}