{"287832901":{"location":[53.9971042,12.8312598],"ct":"DE","tp":"CS","ts":"2024-03-29T13:03:11Z","tX":548,"tY":328,"tags":{"addr:city":"Grammendorf","addr:housenumber":"25","addr:postcode":"18513","addr:street":"Nehringen","caravans":"no","drinking_water":"yes","name":"Wasserwanderplatz Nehringen","operator":"http://www.jgh-graureiher.de","power_supply":"yes","shower":"yes","tents":"yes","toilets":"yes"}},"287833283":{"location":[54.0961695,12.7580477],"ct":"DE","tp":"CS","ts":"2019-09-17T10:47:14Z","tX":548,"tY":328,"tags":{"addr:city":"Tribsees","addr:postcode":"18465","addr:street":"Nordquebbe","name":"Wasserwanderplatz Tribsees","operator":"www.kanuhaus.de"}},"762458326":{"location":[54.086652,12.7594494],"ct":"DE","tp":"CS","ts":"2024-05-28T19:06:37Z","tX":548,"tY":328,"tags":{"addr:city":"Tribsees","addr:housenumber":"18","addr:postcode":"18465","addr:street":"Willi-Braun-Straße","capacity":"50","charge":"15,00","description":"Stellplatz für Wohnmobile / Caravan und Zeltwiese für Fahrradfahrer / Biker und Wanderer","fee":"yes","internet_access":"wlan","internet_access:fee":"yes","name":"Tribsees","operator":"SEG Tourismus- und Eventservice GmbH","payment:cash":"yes","payment:credit_cards":"yes","payment:debit_cards":"yes","tents":"yes","wikidata":"Q803274","wikipedia":"de:Bahnstrecke Stralsund–Tribsees"}}}