{"12721420":{"location":[53.8247231,12.9155068],"ct":"DE","tp":"CS","ts":"2025-05-24T16:29:51Z","tX":548,"tY":329,"tags":{"addr:city":"Meesiger","addr:country":"DE","addr:postcode":"17111","addr:street":"Am Kummerower See","addr:suburb":"Gravelotte","caravans":"yes","check_date":"2022-12-25","contact:email":"Info@campingplatz-gravelotte.de","contact:fax":"+49 39994 10721","contact:phone":"+49 39994 10732","contact:website":"https://www.campingplatz-gravelotte.de/","fixme":"Im Winter geschlossen - aber bis wann?","internet_access":"wlan","motorhome":"yes","name":"Campingplatz und Wasserwanderrastplatz Gravelotte","opening_hours":"Mo-Sa 09:00-13:00, 15:00-17:00; Su 09:00-12:00","operator":"Gemeinde Meesiger","sanitary_dump_station":"yes","shower":"yes","tents":"yes","toilets":"yes","washing_machine":"yes"}},"60319633":{"location":[53.7996459,12.8769361],"ct":"DE","tp":"CS","ts":"2024-12-26T21:32:02Z","tX":548,"tY":329,"tags":{"addr:city":"Sommersdorf","addr:country":"DE","addr:housenumber":"2","addr:postcode":"17111","addr:street":"Am Hafen","capacity":"28","caravans":"yes","check_date":"2022-12-25","drinking_water":"yes","email":"info-sommersdorf@campingtour-mv.de","fax":"+49 39952 2974","fee":"yes","internet_access":"wlan","name":"Campingpark Sommersdorf","phone":"+49 39952 2973","power_supply":"yes","shower":"yes","tents":"yes","toilets":"yes","website":"https://www.camping-sommersdorf.de/"}},"60319638":{"location":[53.8766157,12.9590794],"ct":"DE","tp":"CS","ts":"2022-12-25T16:58:22Z","tX":548,"tY":329,"tags":{"backcountry":"yes","check_date":"2022-12-25","fee":"yes","motor_vehicle":"no","name":"Wasserwanderrastplatz Trittelwitz","openfire":"yes","operator":"Gemeinde Schönfeld-Trittelwitz, Frau Margot Baresel","phone":"+49 39994 10538","tents":"yes","toilets":"yes","website":"http://www.schoenfeld-trittelwitz.de/trittelwitz.html"}},"220744949":{"location":[53.8487752,12.8882323],"ct":"DE","tp":"CS","ts":"2023-11-01T16:58:37Z","tX":548,"tY":329,"tags":{"addr:city":"Verchen","addr:country":"DE","addr:housenumber":"16","addr:postcode":"17111","addr:street":"Seestraße","backcountry":"no","caravans":"no","check_date":"2022-12-25","fee":"yes","name":"Wasserwanderrastplatz Aalbude","operator":"Gemeinde Verchen, Herr Lange (Fährmann und Hafenmeister)","payment:cash":"only","phone":"+49 177 6848485","tents":"yes","website":"https://www.verchen.de/wasserwanderrastplatz.html"}},"304224347":{"location":[53.7719155,12.8350638],"ct":"DE","tp":"CS","ts":"2022-12-25T17:15:17Z","tX":548,"tY":329,"tags":{"addr:city":"Kummerow","addr:housenumber":"12","addr:postcode":"17139","addr:street":"Hafenstraße","check_date":"2022-12-25","fee":"yes","name":"Wasserwanderrastplatz Kummerow","opening_hours":"Nov-Mar off","operator":"Stadtverwaltung Friedland","power_supply":"yes","shower":"yes","tents":"yes"}},"373703566":{"location":[53.823577,12.7858575],"ct":"DE","tp":"CS","ts":"2023-09-23T16:56:38Z","tX":548,"tY":329,"tags":{"addr:city":"Neukalen","addr:housenumber":"3","addr:postcode":"17154","addr:street":"Schulstraße","caravans":"yes","check_date":"2022-12-25","drinking_water":"yes","email":"info@peenecamp.de","mobile":"+49 162 7662949","name":"Peenecamp Neukalen","phone":"+49 39956 296408","shower":"yes","tents":"yes","toilets":"yes","website":"http://peenecamp.de/"}},"421819891":{"location":[53.8925234,12.8513084],"ct":"DE","tp":"CR","ts":"2023-12-09T02:25:55Z","tX":548,"tY":329,"tags":{"capacity:motorhomes":"8","caravan_site:type":"lake","dog":"yes","fee":"no","internet_access":"no","name":"Dargun Klostersee","sanitary_dump_station":"no","shower":"no","water_point":"no","website":"https://www.dargun.de/hotels-accommodation.html"}},"986035549":{"location":[53.7961823,12.8137827],"ct":"DE","tp":"CS","ts":"2023-01-14T22:32:17Z","tX":548,"tY":329,"tags":{"addr:city":"Malchin OT Salem","addr:housenumber":"1","addr:postcode":"17139","addr:street":"Am Hafen","check_date":"2022-12-25","email":"info@ferienland-salem.de","fax":"+49 3994 234-400","fixme":"Ist das wirklich noch ein öffentlich zugänglicher Campingplatz? Auf der Website des Ferienlandes ist kein Hinweis zu finden.","internet_access":"no","name":"Ferienland Salem","operator":"Kolping-Tagungshäuser","phone":"+49 3994 234-0","tents":"yes","website":"https://www.ferienland-salem.de/"}},"1346456590":{"location":[53.7981691,12.8764625],"ct":"DE","tp":"CR","ts":"2024-12-26T21:32:02Z","tX":548,"tY":329,"tags":{"caravan_site:type":"beach;camp_site","caravans":"yes","charge":"16 EUR","charge:conditional":"13 EUR @ (low_season)","drinking_water":"yes","email":"info-sommersdorf@campingtour-mv.de","fax":"+49 39952 2974","fee":"yes","internet_access":"wlan","name":"Campingpark Sommersdorf Hafen vor der Schranke","phone":"+49 39952 2973","power_supply":"yes","power_supply:charge":"4 EUR","power_supply:fee":"yes","tents":"yes","toilets":"yes","toilets:charge":"2 EUR","toilets:fee":"yes","website":"https://www.camping-sommersdorf.de/"}},"12175315472":{"location":[53.7982596,12.8762542],"ct":"DE","tp":"CR","ts":"2024-09-13T18:01:26Z","tX":548,"tY":329,"tags":{}}}