{"12277310":{"location":[53.4157418,12.9545451],"ct":"DE","tp":"CS","ts":"2025-01-09T20:48:02Z","tX":548,"tY":331,"tags":{"addr:city":"Kratzeburg","addr:country":"DE","addr:housenumber":"3","addr:postcode":"17237","addr:street":"Dorfstraße","boat:rental":"yes","caravans":"yes","contact:email":"kontakt@camping36.de","contact:fax":"+49 39822 29188","contact:phone":"+49 39822 20285","contact:website":"https://www.camping36.de/","fee":"yes","name":"Camping36","old_name":"Naturfreund","operator":"Marcus Mohnfeld Camping36","tents":"yes","toilets:wheelchair":"no","wheelchair":"limited"}},"14946168":{"location":[53.3650739,12.893334],"ct":"DE","tp":"CS","ts":"2024-08-30T08:35:23Z","tX":548,"tY":331,"tags":{"backcountry":"yes","caravans":"no","drinking_water":"yes","fee":"yes","name":"Zeltplatz Fischerei Babke","openfire":"yes","operator":"Fischerei Babke","payment:cash":"only","phone":"+49 160 8460333","picnic_table":"yes","shower":"yes","static_caravans":"no","tents":"yes","toilets":"yes"}},"15395485":{"location":[53.3476646,12.9204959],"ct":"DE","tp":"CS","ts":"2025-01-11T17:55:38Z","tX":548,"tY":331,"tags":{"bathing_place":"yes","caravans":"yes","contact:phone":"+49 39829 20215","contact:website":"https://www.hexenwaeldchen.de/","description":"Natur-Campingplatz","dog":"yes","fixme":"Bitte Multipolygon auflösen, ABER History behalten. Danke","internet_access":"wlan","internet_access:fee":"customers","name":"Zum Hexenwäldchen","nudism":"no","operator":"Hexenwäldchen UG (haftungsbeschränkt) & Co.KG","power_supply":"yes","sauna":"yes","shower":"yes","tents":"yes","toilets":"yes","toilets:wheelchair":"no","washing_machine":"yes","wheelchair":"limited"}},"35565015":{"location":[53.346761,12.8245105],"ct":"DE","tp":"CS","ts":"2025-01-11T14:54:39Z","tX":548,"tY":331,"tags":{"access":"customers","addr:city":"Mirow","addr:country":"DE","addr:housenumber":"25","addr:postcode":"17252","addr:street":"Zietlitz","addr:suburb":"Schillersdorf","canoe":"camp_site","caravans":"yes","drinking_water":"yes","fee":"yes","ft_link":"www.freietonne.de?edit=31584","internet_access":"wlan","internet_access:fee":"yes","name":"C20 Campingplatz am Leppinsee","nudism":"customary","operator":"Haveltourist GmbH & Co. KG","power_supply":"yes","ref":"C 20","reservation":"recommended","sanitary_dump_station":"yes","shower":"yes","tents":"yes","toilets":"yes","website":"https://www.haveltourist.de/campingplatz-mecklenburgische-seenplatte/campingplatz-am-leppinsee.html","wheelchair":"limited"}},"37662520":{"location":[53.3959971,12.7851317],"ct":"DE","tp":"CS","ts":"2025-01-11T13:55:56Z","tX":548,"tY":331,"tags":{"addr:city":"Rechlin","addr:country":"DE","addr:housenumber":"15","addr:postcode":"17248","addr:street":"Müritzstraße","email":"tourismus-rechlin@t-online.de","fax":"+49 39823 21267","name":"Campingplatz „Boek“ C 16","operator":"Dienstleistungsgesellschaft Rechlin mbH","phone":"+49 39823 21807","website":"https://www.campingplatz-boek.de/"}},"38881285":{"location":[53.3811536,12.6871503],"ct":"DE","tp":"CS","ts":"2025-01-10T23:13:09Z","tX":548,"tY":331,"tags":{"name":"Müritzpark Ludorf","website":"https://www.mueritzpark-ludorf.m-vp.de/"}},"73423124":{"location":[53.4952151,12.6618197],"ct":"DE","tp":"CS","ts":"2023-12-31T09:19:54Z","tX":548,"tY":331,"tags":{"addr:city":"Waren (Müritz)","addr:country":"DE","addr:housenumber":"66","addr:postcode":"17192","addr:street":"Fontanestraße","caravans":"yes","contact:email":"info@camping-ecktannen.de","contact:facebook":"CampingPlatzEcktannen","contact:fax":"+49 3991 664675","contact:instagram":"campingplatzecktannen","contact:phone":"+49 3991 668513","contact:website":"https://www.camping-ecktannen.de/","contact:youtube":"@campingplatzecktannen6472","drinking_water":"yes","dryer":"yes","fee":"yes","ft_link":"www.freietonne.de?edit=8640","internet_access":"wlan","internet_access:fee":"customers","name":"Campingplatz Ecktannen","operator":"Waren (Müritz) Kur- und Tourismus GmbH","power_supply":"yes","sanitary_dump_station":"yes","shower":"yes","static_caravans":"yes","tents":"yes","toilets":"yes","washing_machine":"yes"}},"112879755":{"location":[53.3766423,12.7703582],"ct":"DE","tp":"CS","ts":"2024-01-09T19:22:04Z","tX":548,"tY":331,"tags":{"addr:city":"Rechlin","addr:country":"DE","addr:housenumber":"1","addr:postcode":"17248","addr:street":"Am Müritzufer","addr:suburb":"Boeker Mühle","barrier":"fence","cabins":"yes","caravans":"yes","contact:email":"info@camping-bolter-ufer.de","contact:fax":"+49 39823 169918","contact:phone":"+49 39823 169940","contact:website":"https://www.camping-bolter-ufer.de/willkommen-c15","dog":"leashed","drinking_water":"yes","fee":"yes","fence_type":"pole","fixme":"Re-check availability of \"contact:website\" in summer 2024.","internet_access":"wlan","motor_vehicle":"yes","name":"C15 Bolter Ufer","opening_hours":"Apr-Oct","operator":"Tourismus- und Dienstleistungsgesellschaft Rechlin mbH","power_supply":"yes","short_name":"Bolter Ufer","shortest_name":"C15","shower":"yes","tents":"yes","toilets":"yes","website":"https://www.mecklenburgische-seenplatte.de/reiseziele/campingplatz-bolter-ufer-c15"}},"128748925":{"location":[53.5162946,12.6812871],"ct":"DE","tp":"CR","ts":"2024-03-28T14:38:00Z","tX":548,"tY":331,"tags":{"caravan_site:type":"city","drinking_water":"no","fee":"yes","low_emission_zone":"no","name":"Wohnmobilstellplatz zum Amtsbrink","name:signed":"no","power_supply":"yes","sanitary_dump_station":"yes","source:name":"https://www.waren-tourismus.de/sites/default/files/paragraph/dateien/informationen_zu_oeffentl._parkplaetzen_1.pdf","surface":"compacted","toilets":"yes"}},"134163579":{"location":[53.5136902,12.6942906],"ct":"DE","tp":"CR","ts":"2023-12-12T01:56:29Z","tX":548,"tY":331,"tags":{"capacity":"40","charge":"17 EUR + 2.7 EUR/pax","check_out":"14:00","contact:phone":"+49 3991 668557","fee":"yes","internet_access":"no","name":"Blumen und Parken","power_supply":"yes","power_supply:charge":"0.5 EUR/kWh","sanitary_dump_station":"yes","shower":"yes","shower:charge":"1 EUR","toilets":"yes","website":"https://www.blumen-und-parken.de/"}},"221873348":{"location":[53.4992218,12.6642847],"ct":"DE","tp":"CR","ts":"2023-12-11T10:40:00Z","tX":548,"tY":331,"tags":{"capacity":"17","charge":"25-40 EUR including 2 pax","description":"Wohnmobilstellplatz vor der Schranke - nicht an die Schrankenzeiten gebunden.","dog":"yes","dog:fee":"yes","dog_park":"yes","fee":"yes","internet_access":"wlan","internet_access:fee":"customers","name":"Ecktannen","operator":"Campingplatz Ecktannen","power_supply":"yes","sanitary_dump_station":"yes","sanitary_dump_station:chemical_toilet":"yes","sanitary_dump_station:grey_water":"yes","shower":"yes","toilets":"yes","water_point":"yes","website":"https://www.camping-ecktannen.de/der-platz/wohnmobilstellplatz-vor-der-schranke"}},"231787609":{"location":[53.4628297,12.7991303],"ct":"DE","tp":"CR","ts":"2023-12-11T10:17:29Z","tX":548,"tY":331,"tags":{"capacity":"15","charge":"15 EUR","email":"info-ziegenwiese@t-online.de","fee":"yes","internet_access":"no","name":"Ziegenwiese","operator":"Jens Lemke","phone":"+49 3991 633842","power_supply":"yes","power_supply:charge":"2 EUR","seasonal":"no"}},"311084675":{"location":[53.3320399,12.9559673],"ct":"DE","tp":"CS","ts":"2025-01-03T10:39:46Z","tX":548,"tY":331,"tags":{"caravans":"yes","contact:website":"https://www.haveltourist.de/campingplatz_mecklenburgische_seenplatte/campingplatz-am-useriner-see.html","drinking_water":"yes","internet_access":"wlan","name":"Camping Useriner See","nudism":"customary","operator":"Haveltourist GmbH & Co. KG","power_supply":"yes","ref":"C59","sanitary_dump_station":"yes","shower":"yes","sport":"swimming","tents":"yes","toilets":"yes","washing_machine":"yes","waste_disposal":"yes"}},"685726231":{"location":[53.3727644,12.7617637],"ct":"DE","tp":"CS","ts":"2022-06-22T20:14:30Z","tX":548,"tY":331,"tags":{"name":"Naturcamping Bolter Kanal","website":"https://www.mueritz-camping.de/"}},"722036682":{"location":[53.4231291,12.9326882],"ct":"DE","tp":"CS","ts":"2024-08-20T12:16:57Z","tX":548,"tY":331,"tags":{"cabins":"yes","caravans":"yes","charge":"8 EUR","contact:phone":"+49 1628288586","drinking_water":"yes","fee":"yes","motor_vehicle":"yes","name:signed":"no","operator":"Pension zu den Linden","payment:cash":"yes","power_supply":"yes","sanitary_dump_station":"no","shower":"yes","surface":"grass","tents":"yes","toilets":"yes"}},"924324184":{"location":[53.484891,12.7594588],"ct":"DE","tp":"CR","ts":"2024-08-04T17:39:47Z","tX":548,"tY":331,"tags":{"capacity":"16","caravan_site":"motorhome_stopover","caravan_site:type":"national_park","charge":"15.00 EUR/1 night","dog":"yes","fee":"yes","name":"Wohnmobilstellplatz Nationalparkhaus - Federow","power_supply":"yes","sanitary_dump_station":"yes","sanitary_dump_station:chemical_toilet":"yes","sanitary_dump_station:grey_water":"yes"}},"1026332565":{"location":[53.3552216,12.7343105],"ct":"DE","tp":"CR","ts":"2025-01-11T14:25:44Z","tX":548,"tY":331,"tags":{"access":"yes","addr:city":"Rechlin","addr:country":"DE","addr:housenumber":"1b","addr:postcode":"17248","addr:street":"Boeker Landstraße","bicycle_rental":"yes","capacity":"47","charge":"22 EUR","check_in":"13:00","check_out":"11:00","description":"Reisemobil-Marina Müritz Camping Car Marina Müritz","fee":"yes","name":"Reisemobil-Marina Müritz","natural":"grassland","phone":"+49 0398232660","power_supply":"yes","reservation":"yes","sanitary_dump_station":"customers","sanitary_dump_station:chemical_toilet":"yes","sanitary_dump_station:grey_water":"yes","seasonal":"spring;summer;autumn","shower":"yes","source:name":"Sign on toilet building","toilets":"yes","water_point":"yes","website":"https://www.hafendorf-mueritz.de/an-land/reisemobil-marinas/","wheelchair":"yes"}},"1082530999":{"location":[53.4748671,12.8729711],"ct":"DE","tp":"CS","ts":"2025-01-09T18:36:58Z","tX":548,"tY":331,"tags":{"addr:city":"Schloen-Dratow","addr:country":"DE","addr:housenumber":"1f","addr:postcode":"17192","addr:street":"Klockow","addr:suburb":"Klockow","contact:email":"campingklockow@gmail.com","fee":"yes","internet":"http://www.kleinernaturzeltplatz.de/","name":"Campingplatz \"Zur hohlen Eiche\"","operator":"Petra Runge"}},"1090262367":{"location":[53.3549439,12.6883176],"ct":"DE","tp":"CS","ts":"2025-01-10T23:16:21Z","tX":548,"tY":331,"tags":{"alt_name":"Campingplatz & Ferienwohnung Zielow an der Müritz","contact:email":"koeppen@zielowcamp.de","contact:phone":"+49 157 74011583","name":"ZielowCamp","website":"https://www.zielowcamp.de/"}},"1187053172":{"location":[53.4802083,12.9881582],"ct":"DE","tp":"CR","ts":"2023-11-18T20:46:24Z","tX":548,"tY":331,"tags":{"contact:phone":"+49 15770152890","contact:website":"http://zahrenquartier.de/womo-stellplatz","fee":"yes","fixme":"capacity=* ; internet_access=*","name":"ZahrenQuartier","object:city":"Penzlin","object:country":"DE","object:housenumber":"9","object:postcode":"17217","object:street":"Hartwigsdorfer Weg","object:suburb":"Zahren","operator":"Petra Friedrich","power_supply":"yes","ref":"Womo-Stellplatz","shower":"yes","start_date":"2023-06-01","toilets":"yes","water":"yes"}},"3666066447":{"location":[53.5122595,12.6967767],"ct":"DE","tp":"CR","ts":"2023-08-14T15:26:58Z","tX":548,"tY":331,"tags":{"addr:city":"Waren (Müritz)","addr:country":"DE","addr:housenumber":"8","addr:postcode":"17192","addr:street":"Papenbergstraße","name":"Reisemobilstellplatz der Kinder- und Jugendkunstschule","website":"https://www.kulturverein-waren.de/"}},"5910361585":{"location":[53.3713458,12.7776914],"ct":"DE","tp":"CS","ts":"2024-07-27T14:06:21Z","tX":548,"tY":331,"tags":{"cabins":"no","caravans":"no","drinking_water":"yes","fee":"yes","name":"Alte Fahrt","object:city":"Rechlin","object:country":"DE","object:postcode":"17248","object:street":"Bolter Schleuse","operator":"Feriendorf \"Alte Fahrt\"","permanent_camping":"no","power_supply":"yes","shower":"yes","static_caravans":"no","tents":"yes","toilets":"yes"}},"9952129414":{"location":[53.4268802,12.9320068],"ct":"DE","tp":"CS","ts":"2025-01-09T20:44:38Z","tX":548,"tY":331,"tags":{"addr:city":"Kratzeburg","addr:country":"DE","addr:housenumber":"37","addr:postcode":"17237","addr:street":"Dalmsdorf","cabins":"yes","capacity":"5-10","caravans":"no","contact:email":"ingo@kanu-hecht.de","contact:mobile":"+49 172 9323625","contact:phone":"+49 39822 17988","contact:website":"https://www.kanu-hecht.de/","drinking_water":"yes","internet_access":"wlan","internet_access:fee":"no","name":"Kanu-Hecht","operator":"Ingo Hecht","picnic_table":"yes","power_supply":"no","reservation":"recommended","shower":"yes","tents":"yes","toilets":"yes","website":"https://www.kanu-hecht.de/radler-rast/allgemeines","wheelchair":"limited"}},"11151932369":{"location":[53.3598349,12.9377901],"ct":"DE","tp":"CS","ts":"2025-01-11T18:01:28Z","tX":548,"tY":331,"tags":{"access":"customers","caravans":"yes","contact:email":"pension.fischerhaus@t-online.de","contact:mobile":"+49 1702124754","contact:phone":"+49 39829 20212","description":"Anzahl Zelte / Wohnwagen / etc. ist sehr begrenzt.","drinking_water":"yes","fee":"yes","internet_access":"wlan","internet_access:fee":"customers","name":"Pension Fischerhaus","operator":"Doreen Dreier und Ines Krüger Pension Fischerhaus GbR","power_supply":"yes","reservation":"required","sanitary_dump_station":"yes","shower":"yes","static_caravans":"no","surface":"grass","tents":"yes","toilets":"yes","wheelchair":"yes"}},"8671340410":{"location":[53.4993573,12.6637803],"ct":"DE","tp":"SD","ts":"2021-04-27T09:46:41Z","tX":548,"tY":331,"tags":{}},"9082572188":{"location":[53.4846994,12.7595114],"ct":"DE","tp":"SD","ts":"2023-12-12T00:16:37Z","tX":548,"tY":331,"tags":{"access":"customers","fee":"no","motorhome":"designated","sanitary_dump_station:chemical_toilet":"yes","sanitary_dump_station:gravity":"yes","sanitary_dump_station:grey_water":"yes","water_point":"yes"}},"9462621324":{"location":[53.3556935,12.7340672],"ct":"DE","tp":"SD","ts":"2023-12-11T10:17:29Z","tX":548,"tY":331,"tags":{"access":"customers","motorhome":"designated","sanitary_dump_station:chemical_toilet":"yes","sanitary_dump_station:grey_water":"yes"}}}