{"27089873":{"location":[53.3009728,12.8070565],"ct":"DE","tp":"CS","ts":"2024-09-01T17:15:24Z","tX":548,"tY":332,"tags":{"caravans":"no","fee":"yes","name":"Kanustation Granzow","static_caravans":"no","surface":"grass","tents":"yes"}},"27671891":{"location":[53.2823603,12.8104459],"ct":"DE","tp":"CS","ts":"2019-05-23T17:22:17Z","tX":548,"tY":332,"tags":{"operator":"Strandhotel & Restaurant Mirow","phone":"+49 39833 22019","website":"https://www.strandhotel-mirow.de/zeltplatz/"}},"30529194":{"location":[53.2913507,12.9480836],"ct":"DE","tp":"CS","ts":"2024-05-04T21:11:57Z","tX":548,"tY":332,"tags":{"addr:city":"Wesenberg","addr:country":"DE","addr:housenumber":"1b","addr:postcode":"17255","addr:street":"Am Labus","apartment":"yes","caravans":"yes","chalet":"yes","contact:email":"info@ihr-familienpark.de","contact:fax":"+49 39832 26540","contact:phone":"+49 39832 20525","contact:website":"https://www.ihr-familienpark.de/","dog":"leashed","drinking_water":"yes","fee":"yes","motorhome":"yes","name":"Familienpark Am Kleinen Labussee","opening_hours:url":"https://www.ihr-familienpark.de/","operator":"Diane Vogt","power_supply":"yes","reservation":"yes","shower":"yes","start_date":"1995","strapline":"Ihr Familienpark","tents":"yes","toilets":"yes"}},"34068768":{"location":[53.1837503,12.9764523],"ct":"DE","tp":"CS","ts":"2025-01-18T21:24:30Z","tX":548,"tY":332,"tags":{"caravans":"yes","drinking_water":"yes","name":"Campingplatz am großen Pälitzsee","power_supply":"yes","shower":"yes","tents":"yes","toilets":"yes","website":"https://www.haveltourist.de/"}},"34068769":{"location":[53.1654016,12.8742819],"ct":"DE","tp":"CS","ts":"2020-05-02T09:29:51Z","tX":548,"tY":332,"tags":{"contact:website":"http://www.campingplatz-eckernkoppel.de/","name":"Eckernkoppel am Tietzowsee"}},"35603544":{"location":[53.2881756,12.7967322],"ct":"DE","tp":"CS","ts":"2024-08-20T20:22:16Z","tX":548,"tY":332,"tags":{"addr:city":"Mirow","addr:country":"DE","addr:housenumber":"1","addr:postcode":"17252","addr:street":"An der Clön","bathing_place":"yes","caravans":"yes","changing_table":"yes","contact:website":"https://kanustation.de/","dryer":"yes","fee":"yes","internet_access":"wlan","internet_access:fee":"customers","name":"Kanustation Mirow","operator":"Rolf Stamm","playground":"yes","tents":"yes","toilets":"yes","washing_machine":"yes"}},"35981763":{"location":[53.2233877,12.836304],"ct":"DE","tp":"CS","ts":"2023-09-06T02:37:30Z","tX":548,"tY":332,"tags":{"alt_name":"Naturcampingplatz Am Mössensee","bicycle_rental":"yes","boat_rental":"yes","caravans":"yes","contact:email":"info@naturcamp-moessensee.de","contact:phone":"+49 1522 4055646","contact:website":"https://www.naturcamp-moessensee.de/","description":"Für Buchungsanfragen nutzt bitte unsere Onlinereservierungsanfrage.","dog":"leashed","dryer":"yes","fee":"yes","internet_access":"wlan","internet_access:fee":"no","name":"C25 Naturcampingplatz am Mössensee","object:city":"Mirow","object:country":"DE","object:postcode":"17252","object:suburb":"Fleeth","old_name":"C25","operator":"Eberhard Prütz und Erbengemeinschaft nach Volker Prütz","pets":"yes","power_supply":"yes","shower:wheelchair":"yes","static_caravans":"yes","tents":"yes","toilets:wheelchair":"yes","washing_machine":"yes","wheelchair":"yes","wheelchair:description":"unbefestigte Wege"}},"39181663":{"location":[53.2076701,12.8026246],"ct":"DE","tp":"CS","ts":"2021-01-16T12:23:23Z","tX":548,"tY":332,"tags":{"cabins":"yes","caravans":"yes","dog":"leashed","drinking_water":"yes","fee":"yes","group_only":"no","internet_access":"no","motor_vehicle":"yes","name":"C48c Jugendbegegnungstätte Forsthof","nudism":"no","openfire":"yes","permanent_camping":"no","picnic_table":"yes","power_supply":"yes","shower":"yes","static_caravans":"yes","tents":"yes","toilets":"customers","washing_machine":"yes"}},"44660316":{"location":[53.2371397,12.8276937],"ct":"DE","tp":"CS","ts":"2024-09-01T14:23:56Z","tX":548,"tY":332,"tags":{"caravans":"yes","contact:email":"naturcamping-zotzensee@gmx.de","contact:mobile":"+49 1745882648","contact:phone":"+49 39833 22274","contact:website":"https://naturcamping-zotzensee.de","currency:EUR":"only","description":"Emails werden erst abends beantwortet, da vor Ort kein Internet. Nur schlechter (bis sehr schlechter) Handy-Empfang vor Ort. Schranke vor Ort gar nicht vorhanden.","dog":"leashed","drinking_water":"yes","dryer":"yes","fee":"yes","internet_access":"no","name":"C42 Naturcampingplatz am Zotzensee","object:city":"Mirow","object:country":"DE","object:postcode":"17252","object:suburb":"Peetsch","opening_hours":"Apr-Oct","operator":"Andreas Schult","payment:cash":"only","payment:credit_cards":"no","payment:debit_cards":"no","pets":"yes","power_supply":"yes","ref":"C 42","shower":"yes","static_caravans":"yes","tents":"yes","toilets":"yes","toilets:wheelchair":"no","washing_machine":"yes","wheelchair":"limited"}},"45860930":{"location":[53.2274912,12.9198698],"ct":"DE","tp":"CS","ts":"2023-09-16T12:04:44Z","tX":548,"tY":332,"tags":{"addr:city":"Wustrow","addr:country":"DE","addr:housenumber":"1","addr:postcode":"17255","addr:street":"Am Gobenowsee","caravans":"yes","contact:email":"gobenow@t-online.de","contact:fax":"+49 39828 26443","contact:phone":"+49 39828 20355","contact:website":"https://www.gobenowsee.m-vp.de/","drinking_water":"yes","fee":"yes","internet_access":"wlan","name":"Campingplatz Am Gobenowsee","opening_hours:url":"https://www.gobenowsee.m-vp.de/kontakt-service/lage-anfahrt/","operator":"Susanne Zobel","shower":"yes","static_caravans":"yes","tents":"yes"}},"60969786":{"location":[53.2123314,12.8810491],"ct":"DE","tp":"CS","ts":"2025-01-10T14:04:52Z","tX":548,"tY":332,"tags":{"addr:city":"Mirow","addr:country":"DE","addr:housenumber":"1","addr:postcode":"17252","addr:street":"Diemitz Schleuse","caravans":"yes","internet_access":"yes","name":"BiberTours Natur-Campingplatz C24","openfire":"yes","phone":"+49-39827-30599","scout":"yes","smoking":"yes","tents":"yes","website":"https://www.bibertours.com/","wheelchair":"no"}},"75802487":{"location":[53.284783,12.9479311],"ct":"DE","tp":"CS","ts":"2025-01-10T22:47:36Z","tX":548,"tY":332,"tags":{"access":"customers","addr:city":"Wesenberg","addr:country":"DE","addr:postcode":"17255","addr:street":"Am Weißen See","caravans":"yes","drinking_water":"yes","fee":"yes","internet_access":"wlan","name":"Campingpark Am Weissen See","operator":"Haveltourist GmbH & Co. KG","power_supply":"yes","sanitary_dump_station":"customers","shower":"yes","tents":"yes","toilets":"yes","website":"https://www.haveltourist.de/campingplatz-mecklenburgische-seenplatte/campingpark-am-weissen-see.html","wheelchair":"limited"}},"77815994":{"location":[53.2223879,12.9682209],"ct":"DE","tp":"CS","ts":"2025-01-01T11:34:11Z","tX":548,"tY":332,"tags":{"email":"info@kanuhof-wustrow.de","fax":"+49 39828 26481","name":"Kanuhof Wustrow","phone":"+49 39828 20083","picnic_table":"yes","shower":"yes","tents":"yes","toilets":"yes","toilets:wheelchair":"no","website":"https://kanuhof-wustrow.de/","wheelchair":"no"}},"93509258":{"location":[53.135724,12.8196541],"ct":"DE","tp":"CS","ts":"2025-01-09T11:59:47Z","tX":548,"tY":332,"tags":{"addr:city":"Rheinsberg","addr:country":"DE","addr:housenumber":"2","addr:postcode":"16837","addr:street":"Zechlinerhütter Straße","addr:suburb":"Kagar","caravans":"yes","dog":"yes","drinking_water":"yes","email":"anmeldung@camping-am-reiherholz.de","fax":"+49 33923 50979","fee":"yes","name":"Camping am Reiherholz","phone":"+49 33923 70363","power_supply":"yes","sanitary_dump_station":"yes","shower":"yes","tents":"yes","toilets":"yes","website":"https://www.camping-am-reiherholz.de/","wikidata":"Q123483340"}},"96095547":{"location":[53.1612425,12.7940934],"ct":"DE","tp":"CS","ts":"2025-01-09T12:15:08Z","tX":548,"tY":332,"tags":{"addr:city":"Rheinsberg","addr:country":"DE","addr:housenumber":"2","addr:postcode":"16837","addr:street":"Schookerberg","email":"camping-fleckenzechlin@web.de","fax":"+49 33923 71045","name":"Campingplätze am Grossen Zechliner See","phone":"+49 33923 71017","ref":"D82","website":"https://www.camping-fleckenzechlin.com/","wikidata":"Q123494446"}},"96095556":{"location":[53.1615346,12.8032244],"ct":"DE","tp":"CS","ts":"2025-01-24T13:23:06Z","tX":548,"tY":332,"tags":{"cabins":"yes","caravans":"yes","dog":"yes","email":"camping-fleckenzechlin@web.de","fax":"+49 33923 71045","fee":"yes","name":"Campingplätze am Grossen Zechliner See","phone":"+49 33923 71017","ref":"D83","shower":"yes","tents":"yes","toilets":"yes","website":"https://www.camping-fleckenzechlin.com/","wikidata":"Q123486013"}},"96358603":{"location":[53.1497275,12.8726291],"ct":"DE","tp":"CS","ts":"2023-11-30T13:18:53Z","tX":548,"tY":332,"tags":{"email":"schlabornhalbinsel@web.de","fax":"+49 33921 50918","name":"D 108 Schlabornhalbinsel","phone":"+49 33921 70295","website":"https://www.schlabornhalbinsel.de/"}},"117555586":{"location":[53.1457026,12.8906507],"ct":"DE","tp":"CS","ts":"2024-08-28T20:29:31Z","tX":548,"tY":332,"tags":{"caravans":"yes","drinking_water":"yes","name":"N37 Berner Land","phone":"+49 33921 70283","shower":"yes","tents":"yes","toilets":"yes","website":"https://www.berner-land.de/"}},"119943694":{"location":[53.2003503,12.8933835],"ct":"DE","tp":"CS","ts":"2020-08-29T05:50:02Z","tX":548,"tY":332,"tags":{"name":"Camp am Labussee","phone":"+49 3982820272","website":"http://www.camp-am-labussee.de/index.htm"}},"121266349":{"location":[53.2083238,12.7873524],"ct":"DE","tp":"CS","ts":"2025-01-10T14:16:27Z","tX":548,"tY":332,"tags":{"addr:city":"Schwarz","addr:country":"DE","addr:housenumber":"6","addr:postcode":"17252","addr:street":"Schwarzer Hof","caravans":"yes","ele":"55.88","email":"kontakt@waldcamping-zethner-see.de","name":"Waldcamping Zethner See","operator":"Peter Müller","phone":"+49-39827-79610","tents":"yes","website":"http://www.waldcamping-zethner-see.de/"}},"159324914":{"location":[53.2198724,12.8384568],"ct":"DE","tp":"CS","ts":"2023-09-06T02:37:30Z","tX":548,"tY":332,"tags":{"caravans":"yes","contact:email":"info@hügelland-camping.de","contact:website":"http://www.hügelland-camping.de/","description":"FKK-Bereich des C25","dog":"no","drinking_water":"yes","name":"Sonnen- und Naturfreunde e.V. Hügelland","nudism":"designated","opening_hours":"Apr-Oct","operator":"Sonnen- und Naturfreunde e.V. Hügelland","pets":"no","power_supply":"no","reservation":"recommended","static_caravans":"yes","tents":"yes"}},"162178832":{"location":[53.2051404,12.7931579],"ct":"DE","tp":"CS","ts":"2022-07-24T18:28:27Z","tX":548,"tY":332,"tags":{"internet_access":"no","name":"Camping Zethner See","website":"https://www.forsthof-schwarz.de/","wheelchair":"no"}},"165346518":{"location":[53.3177669,12.9442431],"ct":"DE","tp":"CS","ts":"2025-01-11T18:18:31Z","tX":548,"tY":332,"tags":{"addr:city":"Userin","addr:country":"DE","addr:postcode":"17237","addr:street":"Zwenzow","caravans":"yes","drinking_water":"yes","fee":"yes","internet_access":"wlan","name":"Zwenzower Ufer","operator":"Haveltourist GmbH & Co. KG","shower":"yes","tents":"yes","website":"https://www.haveltourist.de/campingplatz-mecklenburgische-seenplatte/zwenzower-ufer.html"}},"292299712":{"location":[53.1459945,12.8874922],"ct":"DE","tp":"CS","ts":"2024-08-28T20:29:30Z","tX":548,"tY":332,"tags":{"caravans":"yes","drinking_water":"yes","email":"naturcampbikowsee@web.de","name":"Naturcamp Bikowsee","phone":"+49 33921 70243","power_supply":"no","shower":"yes","tents":"yes","toilets":"yes","website":"https://www.naturcamp-bikowsee.de/"}},"295882834":{"location":[53.1239157,12.8563913],"ct":"DE","tp":"CS","ts":"2025-03-10T19:38:18Z","tX":548,"tY":332,"tags":{"caravans":"yes","dog":"yes","email":"steinablage.d100@campingspass.com","fee":"yes","name":"D100 - Steinablage","operator":"Camping- und Naturfreunde Steinablage D100 e.V.","power_supply":"yes","shower":"yes","tents":"yes","website":"https://www.campingspass.com/","wikidata":"Q123479329"}},"352794649":{"location":[53.207612,12.8678006],"ct":"DE","tp":"CS","ts":"2025-01-10T14:04:52Z","tX":548,"tY":332,"tags":{"addr:city":"Mirow","addr:country":"DE","addr:housenumber":"5","addr:postcode":"17252","addr:street":"Diemitz Schleuse","addr:suburb":"Diemitz","backcountry":"yes","caravans":"yes","email":"info@biberferienhof.de","internet_access":"wlan","internet_access:fee":"yes","name":"Biber-Camp","operator":"Biber Ferienhof","phone":"+4939827799888","sanitary_dump_station":"yes","tents":"yes","website":"https://www.biberferienhof.de/zeltplatz/","wheelchair":"no"}},"387544251":{"location":[53.1980334,12.9335685],"ct":"DE","tp":"CS","ts":"2025-01-18T21:19:37Z","tX":548,"tY":332,"tags":{"boat_rental":"yes","caravans":"yes","contact:email":"moin@ahoi-camp-canow.de","contact:facebook":"ahoicamp","contact:instagram":"ahoicamp","contact:phone":"+49 3982 8689786","contact:website":"https://ahoi-camp-canow.de/","dog":"leashed","drinking_water":"yes","fee":"yes","fixme":"Auf der \"contact:website\" taucht dieser Campingplatz nicht (mehr) auf. Also dieser Campingplatz neu im Angebot (Webseite veraltet) oder OSM veraltet (neuer \"operator\")?","internet_access":"wlan","internet_access:fee":"customers","name":"Ahoi Camp Canow","operator":"Ahoi Camp Canow GmbH","playground":"yes","power_supply":"yes","sanitary_dump_station":"yes","shower":"yes","start_date":"2024-06-14","static_caravans":"yes","tents":"yes","toilets":"yes","washing_machine":"yes"}},"387651723":{"location":[53.3192214,12.6984723],"ct":"DE","tp":"CS","ts":"2023-09-21T16:38:54Z","tX":548,"tY":332,"tags":{"name":"Camping am Müritzarm","website":"https://www.camping-mueritzarm.de/"}},"394199531":{"location":[53.2531452,12.9088416],"ct":"DE","tp":"CS","ts":"2024-09-01T10:07:45Z","tX":548,"tY":332,"tags":{"cabins":"yes","caravans":"yes","drinking_water":"yes","hot_water":"yes","internet_access":"yes","lgbtq":"welcome","lit":"yes","motor_vehicle":"yes","motorhome":"ye","name":"FKK Campingplatz am Rätzsee","nudism":"yes","operator":"Campingzeit am Rätzsee GmbH","permanent_camping":"yes","picnic_table":"yes","sanitary_dump_station":"yes","sauna":"yes","shower":"yes","static_caravans":"yes","tents":"yes","toilets":"yes","washing_machine":"yes","waste_disposal":"yes","website":"https://raetzsee.de/"}},"437150436":{"location":[53.2012844,12.8977606],"ct":"DE","tp":"CS","ts":"2024-05-28T19:06:37Z","tX":548,"tY":332,"tags":{"backcountry":"yes","capacity":"50","caravans":"yes","drinking_water":"yes","fee":"yes","internet_access":"no","name":"Kanucamp Canow","sanitary_dump_station":"yes","shower":"yes","tents":"yes","wheelchair":"no"}},"455230060":{"location":[53.2797442,12.9844894],"ct":"DE","tp":"CS","ts":"2025-01-09T13:49:52Z","tX":548,"tY":332,"tags":{"access":"yes","addr:city":"Wesenberg","addr:country":"DE","addr:housenumber":"1","addr:postcode":"17255","addr:street":"Havelmühle","caravans":"no","drinking_water":"yes","email":"info@kanu-muehle.de","fax":"+49 321 211 902 74","ft_link":"www.freietonne.de?edit=9021","name":"Kanumühle Wesenberg","operator":"Peggy Sarodnik","phone":"+49 39832 203 50","power_supply":"yes","shower":"yes","tents":"yes","toilets":"yes","waterway":"biwak","website":"https://www.kanu-muehle.de"}},"514034619":{"location":[53.2209857,12.8620101],"ct":"DE","tp":"CS","ts":"2024-03-28T21:37:59Z","tX":548,"tY":332,"tags":{"backcountry":"yes","canoe_rental":"yes","contact:website":"https://www.packundpaddel.de/","kayak_rental":"yes","name":"Pack & Paddel","rental":"kayak;canoe","sport":"canoe","tents":"yes"}},"529446360":{"location":[53.2908228,12.7951131],"ct":"DE","tp":"CS","ts":"2024-07-27T08:28:15Z","tX":548,"tY":332,"tags":{"backcountry":"no","caravans":"no","drinking_water":"yes","fee":"yes","name":"Jugendherberge Mirow","operator":"Jugendherberge Mirow","power_supply":"no","shower":"yes","tents":"yes","toilets":"yes","wheelchair":"no"}},"555963876":{"location":[53.306866,12.9997491],"ct":"DE","tp":"CS","ts":"2024-08-15T11:54:13Z","tX":548,"tY":332,"tags":{"cabins":"yes","caravans":"yes","dog":"yes","drinking_water":"yes","internet_access":"yes","motor_vehicle":"yes","motorhome":"yes","name":"Camping- & Ferienpark Havelberge","note":"grobe Abschätzung des Zeltplatzes mit Digital Globe Premium Luftbilder","phone":"+49 (0)3981 - 24790","power_supply":"yes","restaurant":"yes","sanitary_dump_station":"yes","shower":"yes","stars":"5","static_caravans":"yes","tents":"yes","toilets":"yes","washing_machine":"yes","website":"https://www.haveltourist.de/camping-ferienpark-havelberge.html"}},"576451374":{"location":[53.3011069,12.7402353],"ct":"DE","tp":"CS","ts":"2024-01-21T22:33:51Z","tX":548,"tY":332,"tags":{"access":"customers","fee":"yes","name":"Campingzone","opening_hours":"Müritz Airpark GmbH","operator":"Flugplatz","tents":"yes"}},"749816018":{"location":[53.1974173,12.947871],"ct":"DE","tp":"CS","ts":"2025-03-10T18:42:52Z","tX":548,"tY":332,"tags":{"addr:city":"Rheinsberg","addr:country":"DE","addr:housenumber":"15","addr:postcode":"16831","addr:street":"Birkenweg","addr:suburb":"Großzerlang","name":"VCP Bundeszeltplatz","operator":"Verband Christlicher Pfadfinderinnen und Pfadfinder","scout":"yes","website":"https://www.vcp-bundeszeltplatz.de","wikidata":"Q118611751"}},"828560239":{"location":[53.221454,12.8641603],"ct":"DE","tp":"CS","ts":"2025-01-10T14:46:54Z","tX":548,"tY":332,"tags":{"addr:city":"Mirow","addr:country":"DE","addr:hamlet":"Fleether Mühle","addr:housenumber":"4","addr:postcode":"17252","addr:street":"Fleether Mühle","addr:suburb":"Fleeth","email":"info@ferienidyll-am-raetzsee.de","fax":"+49 39833 22129","name":"Ferienidyll am Rätzsee","nudism":"yes","phone":"+49 39833 22095","website":"https://ferienidyll-am-raetzsee.de/"}},"1110499927":{"location":[53.1783879,12.946032],"ct":"DE","tp":"CS","ts":"2022-11-05T11:25:50Z","tX":548,"tY":332,"tags":{"name":"Campingplatz Schiefe Eiche","operator":"Camping-Verein-Pälitz-See e.V. \"Schiefe Eiche\""}},"1230468572":{"location":[53.2420636,12.9526408],"ct":"DE","tp":"CR","ts":"2023-12-12T01:56:29Z","tX":548,"tY":332,"tags":{"internet_access":"wlan","internet_access:fee":"no","name":"Kanufarm Am Heegesee Caravan- und Wohnmobilstellplatz","power_supply":"yes","seasonal":"summer","water_point":"yes","website":"https://kanufarm.de/uebernachtung/stellplatz-caravan/"}},"1327094229":{"location":[53.2761672,12.8136447],"ct":"DE","tp":"CR","ts":"2025-01-11T04:04:21Z","tX":548,"tY":332,"tags":{"addr:city":"Mirow","addr:country":"DE","addr:housenumber":"1A","addr:postcode":"17252","addr:street":"Schloßstraße","capacity":"9","caravan_site":"motorhome_stopover","caravan_site:type":"castle","caravans":"no","charge":"7 EUR","description":"beutiful area at the lake. A castle and a church. Several cafes and restaurants with great views over the lake.","fee":"yes","name":"Stellplatz am Schlossparkplatz Mirow","payment:description":"1 EUR/pax kurangabe, parking payment 08:00-18:00 5 EUR","power_supply":"yes","power_supply:capacity":"12","power_supply:fee":"yes","sanitary_dump_station":"yes","sanitary_dump_station:chemical_toilet":"yes","sanitary_dump_station:grey_water":"no","surface":"grass_paver","toilets":"yes","toilets:charge":"0.50 EUR","toilets:fee":"yes","wikimedia_commons":"Category:Mirow Motorhome Stopover"}},"1357819090":{"location":[53.2769292,12.8081309],"ct":"DE","tp":"CR","ts":"2025-02-07T16:10:58Z","tX":548,"tY":332,"tags":{"caravan_site":"motorhome_stopover","caravan_site:type":"lake","dog":"leashed","fee":"yes","name":"Bootsservice Rick & Rick","operator":"Bootsservice Rick & Rick","surface":"grass","water_point":"yes","website":"https://www.bootsservice-rick.de/","wikimedia_commons":"File:Bootsservice Rick & Rick motorhome stopover.jpg"}},"2044643745":{"location":[53.2760438,12.9868974],"ct":"DE","tp":"CS","ts":"2025-01-29T20:05:00Z","tX":548,"tY":332,"tags":{"addr:city":"Wesenberg","addr:country":"DE","addr:housenumber":"11","addr:postcode":"17255","addr:street":"Ahrensberger Weg","cabins":"yes","capacity:cabins":"3","caravans":"no","drinking_water":"yes","email":"info@pfahlhauscamp.de","fee":"yes","name":"Zeltplatz & Pfahlhauscamp Wesenberg","opening_hours":"Mo-Su 08:00-12:00, 13:00-17:00","phone":"+49 39832 26023","power_supply":"yes","shower":"yes","tents":"yes","toilets":"yes","website":"https://www.marina-wesenberg.de/pfahlhauscamp.html"}},"2435387328":{"location":[53.2766292,12.9868876],"ct":"DE","tp":"CR","ts":"2024-07-30T06:05:23Z","tX":548,"tY":332,"tags":{"capacity":"34","email":"info@wohnmobilstellplaetze-mecklenburg.de","fee":"yes","name":"Wohnmobilstellplatz Wesenberg","phone":"+49 39832 26023","power_supply":"yes","sanitary_dump_station":"yes","toilets":"yes","water_point":"yes","website":"https://www.wohnmobilstellplaetze-mecklenburg.de/"}},"3704679018":{"location":[53.2423876,12.9513108],"ct":"DE","tp":"CS","ts":"2020-08-09T20:03:58Z","tX":548,"tY":332,"tags":{"contact:email":"info@kanufarm.de","contact:phone":"+49 39828 26902","contact:website":"https://www.kanufarm.de/","name":"Kanufarm am Heegesee"}},"5069567643":{"location":[53.2204496,12.8584616],"ct":"DE","tp":"CS","ts":"2020-02-02T15:46:38Z","tX":548,"tY":332,"tags":{"caravans":"no","motorhome":"no","tents":"yes"}},"5419817134":{"location":[53.3224255,12.9680096],"ct":"DE","tp":"CS","ts":"2023-06-07T15:13:07Z","tX":548,"tY":332,"tags":{"addr:city":"Userin","addr:country":"DE","addr:housenumber":"19a","addr:postcode":"17237","addr:street":"Useriner Mühle","caravans":"yes","contact:email":"info@userinermuehle.de","contact:mobile":"+49 1704459484","contact:phone":"+49 3981 2568727","contact:website":"https://www.userinermuehle.de","drinking_water":"yes","dryer":"yes","fee":"yes","internet_access":"wlan","internet_access:fee":"no","name":"Useriner Mühle","operator":"Hans Räder","power_supply":"yes","shower":"yes","tents":"yes","toilets":"yes","toilets:wheelchair":"yes","washing_machine":"yes","wheelchair":"limited"}},"8889545397":{"location":[53.1622831,12.8695305],"ct":"DE","tp":"CS","ts":"2021-07-03T07:53:25Z","tX":548,"tY":332,"tags":{"description":"Einen Schlüssel für den Toilettencontainer bekommt man gegen 10€ Pfand am Kiosk, der täglich von 8h bis 17h geöffnet hat.","name":"Wasserwanderrastplatz"}},"11181488345":{"location":[53.2804265,12.9745504],"ct":"DE","tp":"CS","ts":"2024-08-02T21:03:00Z","tX":548,"tY":332,"tags":{"bicycle":"yes","canoe":"yes","caravans":"no","description":"Zeltplatz für Bootsfahrer und Radfahrer u.ä.","drinking_water":"yes","fee":"yes","hiking":"yes","motor_vehicle":"no","motorhome":"no","name":"Wasserwanderrastplatz Wesenberg","picnic_table":"yes","power_supply":"yes","shower":"yes","tents":"yes","toilets":"yes"}},"11938422198":{"location":[53.2071995,12.8599942],"ct":"DE","tp":"CS","ts":"2024-05-27T23:58:30Z","tX":548,"tY":332,"tags":{"addr:city":"Mirow","addr:country":"DE","addr:housenumber":"5","addr:postcode":"17252","addr:street":"Diemitz Schleuse","addr:suburb":"Diemitz","caravans":"yes","contact:phone":"+49 39827 799888","contact:website":"https://www.biberferienhof.de/zeltplatz/","description":"Rezeption auf der anderen Straßenseite.","fee":"yes","name":"Biber Ferienhof","operator":"Seenplatte Tour.s GmbH","surface":"unpaved","tents":"yes"}},"4483383489":{"location":[53.2769301,12.8080217],"ct":"DE","tp":"CR","ts":"2024-10-21T20:23:15Z","tX":548,"tY":332,"tags":{"caravan_site":"motorhome_stopover","caravan_site:type":"lake","fee":"yes","name":"Bootsservice Rick & Rick","operator":"Bootsservice Rick & Rick","surface":"grass","website":"https://www.bootsservice-rick.de/","wikimedia_commons":"File:Bootsservice Rick & Rick motorhome stopover.jpg"}},"11240833533":{"location":[53.1885875,12.9186596],"ct":"DE","tp":"CR","ts":"2025-03-10T18:42:52Z","tX":548,"tY":332,"tags":{"capacity":"10","caravans":"no","charge":"10 EUR","description":"Toiletten, Duschen, Trinkwasser im Sanitärgebäude \"Badeplatz\"","drinking_water":"no","fee":"yes","internet_access":"no","maxstay":"1 night","name":"Wohnmobilstellplatz Winkel Kleinzerlang","power_supply":"no","reservation":"no","sanitary_dump_station":"no","shower":"no","tents":"no","toilets":"no","water_point":"no"}},"12211565276":{"location":[53.1869432,12.9188022],"ct":"DE","tp":"CR","ts":"2025-03-10T18:42:52Z","tX":548,"tY":332,"tags":{"capacity":"10","caravans":"no","charge":"10 EUR","description":"Toiletten, Duschen, Trinkwasser im Sanitärgebäude \"Badeplatz\"","drinking_water":"no","fee":"yes","internet_access":"no","maxstay":"1 night","name":"Wohnmobilstellplatz Dorfstraße Kleinzerlang","power_supply":"no","reservation":"no","sanitary_dump_station":"no","shower":"no","tents":"no","toilets":"no","water_point":"no"}},"12213949537":{"location":[53.186053,12.9223941],"ct":"DE","tp":"CR","ts":"2024-10-01T11:32:41Z","tX":548,"tY":332,"tags":{"capacity":"10","caravans":"no","charge":"10 EUR","drinking_water":"no","fee":"yes","internet_access":"no","maxstay":"1 night","name":"Stellplatz Boote und Mehr","power_supply":"no","reservation":"no","sanitary_dump_station":"no","shower":"no","tents":"no","toilets":"no","water_point":"no"}},"6133179853":{"location":[53.2759452,12.8124713],"ct":"DE","tp":"SD","ts":"2024-10-21T20:23:15Z","tX":548,"tY":332,"tags":{"access":"yes","charge":"1 EUR","fee":"yes","name":"Sanistation Schloßinsel Mirow","sanitary_dump_station:chemical_toilet":"yes","sanitary_dump_station:grey_water":"no","water_point":"yes","water_point:charge":"1 EUR","water_point:fee":"yes","wikimedia_commons":"File:Sani Station Mirow.jpg"}},"6738436711":{"location":[53.2066608,12.8691858],"ct":"DE","tp":"SD","ts":"2020-07-21T20:04:57Z","tX":548,"tY":332,"tags":{}},"11145076899":{"location":[53.284061,12.9490005],"ct":"DE","tp":"SD","ts":"2023-12-05T16:19:50Z","tX":548,"tY":332,"tags":{"access":"customers","operator":"Campingpark Am Weissen See"}},"12143810769":{"location":[53.3301458,12.9553351],"ct":"DE","tp":"SD","ts":"2024-08-29T09:06:52Z","tX":548,"tY":332,"tags":{}},"12149481492":{"location":[53.2520528,12.9102217],"ct":"DE","tp":"SD","ts":"2024-09-01T10:07:45Z","tX":548,"tY":332,"tags":{}}}