{"169307517":{"location":[53.0074326,12.8197418],"ct":"DE","tp":"CS","ts":"2022-09-02T20:42:54Z","tX":548,"tY":333,"tags":{"addr:city":"Neuruppin","addr:housenumber":"1","addr:postcode":"16827","addr:street":"Grafendamm","addr:suburb":"Molchow","name":"Campingplatz Stendenitz","operator":"Campingplatz & Uferpflege Rottstiel e.V.","phone":"+49 3391 7138","toilets:wheelchair":"yes","website":"https://www.camping-rheinsberg-neuruppin.de/","wheelchair":"yes"}},"169780405":{"location":[52.9449748,12.7872459],"ct":"DE","tp":"CR","ts":"2016-06-03T14:20:56Z","tX":548,"tY":333,"tags":{"access":"private","description:de":"nur für Vereinsmitglieder und deren Angehörige"}},"236369438":{"location":[52.9754085,12.9824406],"ct":"DE","tp":"CS","ts":"2024-10-18T06:25:55Z","tX":548,"tY":333,"tags":{"addr:city":"Lindow (Mark)","addr:housenumber":"2","addr:postcode":"16835","addr:street":"Am Gudelacksee","caravans":"yes","name":"Weißer Sand","operator":"RK Reha-Konzept GmbH","phone":"+49 171 2632716","shower":"yes","tents":"yes","toilets":"yes","website":"https://www.campingplatz-weisser-sand.de/"}},"359246720":{"location":[53.0202915,12.821491],"ct":"DE","tp":"CS","ts":"2024-01-01T12:18:48Z","tX":548,"tY":333,"tags":{"addr:city":"Tornow","addr:housenumber":"1","addr:postcode":"16827","addr:street":"Forsthaus Tornow","name":"Campingplatz Tornow"}},"418263709":{"location":[53.1141368,12.8643635],"ct":"DE","tp":"CS","ts":"2023-11-18T11:30:33Z","tX":548,"tY":333,"tags":{"addr:city":"Warenthin","addr:housenumber":"20A","addr:postcode":"16831","addr:street":"Seestraße","camp_site":"basic","caravans":"yes","email":"info@campingplatz-warenthin.com","fee":"yes","internet_access":"wlan","mobile":"+49173 9384920","name":"Campingplatz Warenthin","phone":"+4933931 441129","tents":"yes","website":"http://www.campingplatz-warenthin.com/","wikidata":"Q123475401"}},"897977355":{"location":[53.0184492,12.8131045],"ct":"DE","tp":"CS","ts":"2024-05-10T13:27:25Z","tX":548,"tY":333,"tags":{"caravans":"yes","description":"Rezeption schließt schon gegen 16:00 Uhr. Außerdem wird Schlüssel für das Waschhaus benötigt. Teuer (Eine Person & Zelt 19.50€ in Hauptsaison).","drinking_water":"yes","name":"Am Rottstielfließ","phone":"+493392970644","power_supply":"yes","sanitary_dump_station":"yes","shower":"yes","tents":"yes","toilets":"yes","website":"https://www.camping-rheinsberg-neuruppin.de/campingplatz-am-forsthaus-rottstielfliess/"}},"1136275996":{"location":[53.0159061,12.8277355],"ct":"DE","tp":"CS","ts":"2023-01-29T19:20:17Z","tX":548,"tY":333,"tags":{"name":"Großer Rehwinkel"}},"7803462277":{"location":[52.9762957,12.9555053],"ct":"DE","tp":"CS","ts":"2022-08-19T09:52:27Z","tX":548,"tY":333,"tags":{"access":"yes","backcountry":"yes","name":"Biwakplatz Insel Werder","operator":"Stadt Lindow","website":"https://www.reiseland-brandenburg.de/poi/ruppiner-seenland/wasserwanderrast-und-gastliegeplaetze/biwakplatz-insel-werder-lindow-mark/?no_cache=1"}},"9906334394":{"location":[52.9169481,12.8048651],"ct":"DE","tp":"CR","ts":"2024-10-19T17:35:14Z","tX":548,"tY":333,"tags":{"caravan_site":"motorhome_stopover","caravan_site:type":"sports_centre","caravans":"no","charge":"6 EUR","description":"Anmeldung an der Rezeption des Sportcenters","drinking_water":"no","fee":"yes","name":"Wohnmobilstellplatz Sportcenter Neuruppin","power_supply":"no","sanitary_dump_station":"no","tents":"no","website":"https://www.ruppiner-seenland.de/poi/ruppiner-seenland/wohnmobilstellplaetze/wohnmobilstellplatz-am-sportcenter-neuruppin/"}}}