{"27156827":{"location":[52.5709121,12.9661756],"ct":"DE","tp":"CS","ts":"2023-10-28T18:53:55Z","tX":548,"tY":335,"tags":{"addr:city":"Brieselang","addr:housenumber":"11","addr:postcode":"14656","addr:street":"Brieselanger Straße","addr:suburb":"Zeestow","name":"Camping am Havelkanal","operator":"Familie Gaedicke","website":"http://camping-am-havelkanal.de/","wikidata":"Q123225508"}},"484882224":{"location":[52.5254697,12.7194327],"ct":"DE","tp":"CS","ts":"2023-12-07T06:25:59Z","tX":548,"tY":335,"tags":{"addr:city":"Nauen","addr:housenumber":"6a","addr:postcode":"14641","addr:street":"Am See","addr:suburb":"Wachow","email":"campingplatzwachow@googlemail.com","name":"Dauercampingplatz Wachow","operator":"Lydia Jaß","phone":"+4915202577070","website":"http://www.campingplatz-wachow.de/"}},"695832287":{"location":[52.5022331,12.6631798],"ct":"DE","tp":"CS","ts":"2022-12-19T07:50:00Z","tX":548,"tY":335,"tags":{"addr:city":"Beetzseeheide","addr:postcode":"14778","addr:street":"Flachsberg","addr:suburb":"Gortz","fee":"yes","name":"Campingplatz Flachsberg"}},"6822527103":{"location":[52.4841082,12.8229278],"ct":"DE","tp":"CS","ts":"2022-03-30T07:13:35Z","tX":548,"tY":335,"tags":{"access":"permissive","backcountry":"yes","caravans":"no","fee":"no","name":"Wasserwanderrastplatz Lilienweg","permanent_camping":"no","shower":"no","tents":"yes","toilets":"no","website":"https://tourismus.ketzin.de/seite/354372/wasserwanderrastpl%C3%A4tze.html"}},"11886085607":{"location":[52.6283092,12.7546455],"ct":"DE","tp":"CR","ts":"2024-05-07T08:32:33Z","tX":548,"tY":335,"tags":{"capacity":"1","caravans":"no","dog":"yes","tents":"no"}}}