{"70452080":{"location":[52.3190548,12.9246951],"ct":"DE","tp":"CS","ts":"2025-03-19T09:13:21Z","tX":548,"tY":336,"tags":{"addr:city":"Schwielowsee","addr:housenumber":"1","addr:postcode":"14548","addr:street":"Eugen-Bracht-Weg","addr:suburb":"Ferch","caravans":"yes","drinking_water":"yes","fee":"yes","name":"Campingplatz Neue Scheune","power_supply":"yes","shower":"yes","static_caravans":"yes","tents":"yes","toilets":"yes","website":"https://camping-ferch.de/","wikidata":"Q123364825"}},"94870083":{"location":[52.3584788,12.9426185],"ct":"DE","tp":"CS","ts":"2023-11-08T10:55:52Z","tX":548,"tY":336,"tags":{"addr:city":"Werder (Havel)","addr:housenumber":"4-9","addr:postcode":"14542","addr:street":"Fercher Straße","alt_name":"Blütencamping Riegelspitze","caravans":"yes","dog":"yes","email":"info@bluetencamping.de","fax":"+493327-74 17 25","fee":"yes","internet_access":"wlan","internet_access:fee":"yes","name":"Riegelspitze","phone":"+493327-423 97","shower":"yes","static_caravans":"yes","tents":"yes","toilets":"yes","website":"http://www.campingplatz-riegelspitze.de/","wikidata":"Q123368876"}},"112392162":{"location":[52.4704635,12.8497037],"ct":"DE","tp":"CS","ts":"2023-05-08T12:59:55Z","tX":548,"tY":336,"tags":{"addr:city":"Ketzin/Havel","addr:country":"DE","addr:housenumber":"33","addr:postcode":"14669","addr:street":"Friedrich-Ludwig-Jahn-Weg","barrier":"fence","contact:mobile":"+49 171 4239252","contact:phone":"+49 33233 21150","contact:website":"https://www.havelcamping-ketzin.de/","name":"Campingplatz an der Havel","toilets:wheelchair":"yes","wheelchair":"yes"}},"126895118":{"location":[52.3599721,13.0062261],"ct":"DE","tp":"CS","ts":"2024-08-18T19:15:14Z","tX":548,"tY":336,"tags":{"addr:city":"Potsdam","addr:housenumber":"41","addr:postcode":"14471","addr:street":"An der Pirschheide","alt_name":"Königlicher Campingpark Sanssouci zu Potsdam/Berlin","baby":"yes","cabins":"yes","camp_site":"deluxe","capacity:caravans":"170","capacity:permanent_camping":"70","caravans":"yes","contact:email":"info@camping-potsdam.de","contact:facebook":"https://www.facebook.com/CampingBerlinPotsdam","contact:fax":"+49 331 951 33 297","contact:foursquare":"https://www.foursquare.com/v/4c5c33906ebe2d7fa754cf2e","contact:phone":"+49 331 951 0988","contact:website":"https://www.camping-potsdam.de/","dog":"leashed","dryer":"yes","ele":"35","fee":"yes","fee:url":"https://www.camping-potsdam.de/index.php/de/preise-angebote","internet_access":"wlan","internet_access:fee":"no","kitchen":"yes","name":"Campingpark Sanssouci","opening_hours":"Apr-Dec Mo-Su,PH open; Jan-Mar closed || \"Möglichkeit, einen reinen Stellplatz zu buchen. Anreise nur nach vorheriger Anmeldung.\"","operator":"Freizeit-recra GmbH","operator:type":"business","permanent_camping":"yes","power_supply":"cee_17_blue","power_supply:frequency":"50","power_supply:maxcurrent":"16","power_supply:voltage":"230","reservation":"recommended","sanitary_dump_station":"yes","shower":"yes","stars":"5","static_caravans":"yes","surface":"earth","tents":"yes","toilets":"yes","toilets:wheelchair":"yes","washing_machine":"yes","wheelchair":"yes","wikidata":"Q123218508"}},"194311274":{"location":[52.3781686,12.9369036],"ct":"DE","tp":"CR","ts":"2025-03-28T11:04:35Z","tX":548,"tY":336,"tags":{"addr:city":"Werder","addr:postcode":"14542","addr:street":"Unter den Linden","capacity":"20","drinking_water":"no","fee":"yes","name":"Wohnmobilstellplatz an der Föhse","power_supply":"yes","sanitary_dump_station":"no","toilets":"no","wheelchair":"yes"}},"339894287":{"location":[52.3533316,12.99247],"ct":"DE","tp":"CS","ts":"2023-10-28T11:41:08Z","tX":548,"tY":336,"tags":{"addr:city":"Schwielowsee","addr:housename":"Campingplatz Himmelreich","addr:housenumber":"38","addr:postcode":"14548","addr:street":"Wentorfinsel","addr:suburb":"Caputh","caravans":"yes","name":"Campingplatz Himmelreich","note":"Ausmaße leider nur geschätzt","operator":"Maximilian Ernst Georg Gross , Roger Gross","phone":"+49 33209 70475","tents":"yes","website":"https://www.berlin-potsdam-camping.de/","wikidata":"Q123222563"}},"374423534":{"location":[52.4727973,12.8422399],"ct":"DE","tp":"CS","ts":"2024-05-29T18:29:53Z","tX":548,"tY":336,"tags":{"caravans":"yes","name":"Ferienhof Havelblick","tents":"yes","website":"https://www.ferienhof-havelblick.de/campingplatz-ketzin"}},"434688417":{"location":[52.3266353,12.9614101],"ct":"DE","tp":"CS","ts":"2024-01-28T16:01:33Z","tX":548,"tY":336,"tags":{"addr:city":"Schwielowsee","addr:housenumber":"200","addr:postcode":"14548","addr:street":"Schwielowseestraße","addr:suburb":"Caputh","alt_name":"Campingplatz Flottstelle","capacity:caravans":"7","capacity:tents":"8","caravans":"yes","dog":"no","email":"campingclub-flottstelle@gmx.de","fax":"+493320922366","fee":"yes","internet_access":"wlan","internet_access:fee":"yes","name":"Campingclub - Flottstelle 90 e.V.","opening_hours":"Mo-Su 08:00-20:00","operator":"Campingclub Flottstelle 90 e. V.","payment:cash":"yes","phone":"+493320970497","power_supply":"yes","shower":"yes","tents":"yes","website":"https://www.campingclub-flottstelle.de/","wikidata":"Q123359635","wikimedia_commons":"File:Campingplatz Flottstelle - geo.hlipp.de - 39292.jpg"}},"499331814":{"location":[52.3148664,12.9450797],"ct":"DE","tp":"CS","ts":"2025-01-05T14:23:51Z","tX":548,"tY":336,"tags":{"addr:housenumber":"50","addr:postcode":"14548","addr:street":"Dorfstraße","addr:suburb":"Ferch","caravans":"yes","email":"post@schwielowsee-camping.de","fee":"yes","name":"Schwielowsee Camping","operator":"Schwielowsee Camping LTD","phone":"+49 33209 70295","shower":"yes","tents":"yes","toilets":"yes","website":"http://www.schwielowsee-camping.de/","wikidata":"Q123360775"}},"499342897":{"location":[52.4560298,12.9667507],"ct":"DE","tp":"CR","ts":"2024-04-05T09:37:28Z","tX":548,"tY":336,"tags":{"alt_name":"Potsdam Wohnmobilstellplatz in Marquardt","bakery_service":"yes","capacity:caravans":"5","caravan_site":"motorhome_stopover","caravan_site:type":"restaurant","dog":"yes","name":"Zum alten Krug Potsdam","parking":"surface","power_supply":"yes","seasonal":"no","water_point":"yes","website":"https://krug-marquardt.de/kontakt/"}},"502779683":{"location":[52.3489615,12.7055497],"ct":"DE","tp":"CR","ts":"2023-01-30T13:06:06Z","tX":548,"tY":336,"tags":{"addr:city":"Kloster Lehnin","addr:country":"DE","addr:housenumber":"1","addr:postcode":"14797","addr:street":"Am See","addr:suburb":"Netzen","capacity":"18","fee":"yes","name":"Seehof Netzen","operator":"Hotel Restaurant Seehof","phone":"+49 33827670","power_supply":"yes","sanitary_dump_station":"customers","website":"http://www.seehof-netzen.de","wheelchair":"yes"}},"607649032":{"location":[52.3302069,12.7450303],"ct":"DE","tp":"CS","ts":"2022-07-13T15:11:56Z","tX":548,"tY":336,"tags":{"addr:housenumber":"49","addr:street":"Zum Strandbad","fee":"yes","leisure":"beach_resort","name":"Strandbad Lehnin","old_name":"Holzablage","phone":"+49 171 9793941","sport":"swimming","website":"https://www.strandbad-lehnin.de"}},"728041960":{"location":[52.4685057,12.8508318],"ct":"DE","tp":"CS","ts":"2023-11-08T18:52:35Z","tX":548,"tY":336,"tags":{"addr:city":"Ketzin/Havel","addr:housenumber":"28","addr:postcode":"14669","addr:street":"Friedrich-Ludwig-Jahn-Weg","alt_name":"Bootsliegeplatz & Camping Ketzin","caravans":"yes","contact:website":"http://www.bootsliegeplatz-ketzin.de/campingplatz/index.html","drinking_water":"yes","email":"inhaber@bootsliegeplatz-ketzin.de","fax":"+4933233 - 30926","fee":"yes","name":"Campingplatz am Wasser","operator":"Bootsliegeplatz Ketzin","phone":"+4933233 - 80631","sanitary_dump_station":"yes","shower":"yes","tents":"yes","toilets":"yes","wikidata":"Q123371559"}},"739075535":{"location":[52.3605553,12.9172538],"ct":"DE","tp":"CS","ts":"2019-10-27T12:37:40Z","tX":548,"tY":336,"tags":{"addr:city":"Werder (Havel)","addr:country":"DE","addr:housenumber":"41","addr:postcode":"14542","addr:street":"Jahnufer","addr:suburb":"Glindow","contact:email":"info@hogab.de","contact:phone":"+49 3327 408 55","contact:website":"http://hogab.de/","fee":"yes","internet_access":"wlan","internet_access:fee":"yes","name":"Campingplatz Glindowsee","operator":"hogab gmbh","operator:type":"business","wheelchair":"yes"}},"893387213":{"location":[52.3312009,12.9338179],"ct":"DE","tp":"CS","ts":"2023-11-07T23:01:16Z","tX":548,"tY":336,"tags":{"addr:city":"Werder (Havel)","addr:country":"DE","addr:housenumber":"10","addr:postcode":"14542","addr:street":"Löcknitz","addr:suburb":"Petzow","caravans":"yes","contact:email":"info@camping-loecknitz.de","contact:phone":"+49 33209 224 42","contact:website":"https://camping-löcknitz.de/","dog":"yes","fee":"yes","fixme":"Zufahrt Campingplatz war falsch, richtige erkunden!","name":"Camping & Caravan","tents":"yes","wikidata":"Q123364898"}},"1022717345":{"location":[52.3452203,12.7257623],"ct":"DE","tp":"CS","ts":"2022-01-19T23:32:27Z","tX":548,"tY":336,"tags":{"addr:city":"Kloster Lehnin","addr:country":"DE","addr:housenumber":"68","addr:postcode":"14797","addr:street":"Zum Trechwitzer Berg","addr:suburb":"Trechwitz","email":"info@ferien-netzener-see.de","fax":"+4933827048362","name":"Ferienanlage Netzener See","phone":"+4933827048360","website":"https://ferien-netzener-see.de/"}},"1133482261":{"location":[52.3225265,12.7381507],"ct":"DE","tp":"CS","ts":"2023-01-19T14:18:47Z","tX":548,"tY":336,"tags":{"addr:city":"Kloster Lehnin","addr:housenumber":"13","addr:postcode":"14797","addr:street":"Wiesenweg","email":"urlaub@ferienanlage-lehnin.de","name":"Ferien Freizeitanlage Lehnin","note":"Manfred Streubel","phone":"+49 3381 301770","website":"https://www.ferienanlage-lehnin.de/"}},"1348684828":{"location":[52.3310666,12.9339444],"ct":"DE","tp":"CS","ts":"2025-01-05T12:12:33Z","tX":548,"tY":336,"tags":{"addr:city":"Werder (Havel)","addr:country":"DE","addr:housenumber":"10","addr:postcode":"14542","addr:street":"Löcknitz","addr:suburb":"Petzow","caravans":"yes","contact:website":"https://camping-löcknitz.de/","dog":"yes","email":"info@camping-loecknitz.de","fax":"+49 33209 80790","fee":"yes","name":"Camping & Caravan am Schwielowsee","phone":"+49 33209 22442","tents":"yes","wikidata":"Q123364898"}},"6822455062":{"location":[52.4706844,12.8445196],"ct":"DE","tp":"CS","ts":"2024-09-20T08:27:01Z","tX":548,"tY":336,"tags":{"backcountry":"yes","caravans":"no","description":"Feuerstelle, Dusche, Toilette","fee":"yes","name":"Wasserwanderrastplatz Strandbad Ketzin","website":"https://ketziner-havelstrand.de/biwakplatz.html"}},"6822527102":{"location":[52.4778305,12.7914092],"ct":"DE","tp":"CS","ts":"2022-03-30T07:13:35Z","tX":548,"tY":336,"tags":{"backcountry":"yes","caravans":"no","name":"Wasserwanderrastplatz Zachow","shower":"no","tents":"yes","toilets":"no","website":"https://tourismus.ketzin.de/seite/354372/wasserwanderrastpl%C3%A4tze.html"}},"6822527104":{"location":[52.4744218,12.8399706],"ct":"DE","tp":"CS","ts":"2023-04-04T15:08:19Z","tX":548,"tY":336,"tags":{"capacity":"8","caravans":"no","drinking_water":"no","fee":"no","maxtents":"3","name":"Wasserwanderrastplatz Havelpromenade","permanent_camping":"no","phone":"+49 33233 720216","shower":"no","tents":"yes","toilets":"no","website":"https://tourismus.ketzin.de/seite/354372/wasserwanderrastpl%C3%A4tze.html"}},"9044842905":{"location":[52.2966579,12.8549719],"ct":"DE","tp":"CR","ts":"2024-12-03T18:47:06Z","tX":548,"tY":336,"tags":{"caravan_site:type":"farm_shop;restaurant","charge":"28 EUR","charge:conditional":"24 EUR @ (Sep 16-Apt 27)","dog":"yes","dog_friendly":"yes","fee":"yes","name":"Wohnmobilstellplatz Spargelhof Klaistow","sanitary_dump_station":"yes","sanitary_dump_station:chemical_toilet":"yes","sanitary_dump_station:grey_water":"yes","toilets":"yes","water_point":"yes","water_point:fee":"no","website":"https://www.spargelhof-klaistow.de/wohnmobil-stellplatz/"}},"9815423513":{"location":[52.3183977,12.7361413],"ct":"DE","tp":"CR","ts":"2022-07-21T13:53:08Z","tX":548,"tY":336,"tags":{"addr:city":"Kloster Lehnin","addr:postcode":"14797","addr:street":"Kaltenhausen","capacity:caravans":"4","internet_access":"no","name":"Wohnmobilstellplatz mit Strom am Rosenpark","power_supply":"yes","sanitary_dump_station":"no"}},"9026625634":{"location":[52.3534057,12.9903432],"ct":"DE","tp":"SD","ts":"2021-08-22T16:22:54Z","tX":548,"tY":336,"tags":{"access":"customers","operator":"Campingplatz Himmelreich","sanitary_dump_station:basin":"yes","sanitary_dump_station:round_drain":"yes"}},"12636174765":{"location":[52.3724431,12.8451153],"ct":"DE","tp":"CS","ts":"2025-03-04T16:19:41Z","tX":548,"tY":336,"tags":{}}}