{"94141449":{"location":[51.6876278,12.8002366],"ct":"DE","tp":"CS","ts":"2023-11-08T22:28:59Z","tX":548,"tY":339,"tags":{"addr:city":"Bad Schmiedeberg","addr:country":"DE","addr:housenumber":"1","addr:postcode":"06905","addr:street":"Lausiger-Teich-Straße","bbq":"yes","caravans":"yes","email":"camping@lausiger-teiche.de","fax":"+49 34926 57474","internet_access":"wlan","internet_access:fee":"yes","name":"Campingpark & Wohnmobilhafen \"Am Großen Lausiger Teich\"","phone":"+49 34926 57475","power_supply":"yes","tents":"yes","washing_machine":"yes","website":"https://lausiger-teiche.de/"}},"500117172":{"location":[51.827599,12.8198432],"ct":"DE","tp":"CS","ts":"2020-09-02T20:00:57Z","tX":548,"tY":339,"tags":{"addr:city":"Zahna-Elster","addr:country":"DE","addr:housenumber":"9p","addr:postcode":"06895","addr:street":"Elbstraße","addr:suburb":"Elster","charge":"5.00 EUR/adult","contact:phone":"+49 35383 21444","contact:website":"http://www.kv-harmonie-elster.de/","fee":"yes","internet_access":"wlan","internet_access:fee":"no","internet_access:ssid":"Bootshaus","name":"Kanuverein \"Harmonie\" Elster/Elbe","operator":"Kanuverein \"Harmonie\" Elster/Elbe","payment:cash":"yes","power_supply":"yes","sanitary_dump_station":"no","shower":"yes","tents":"yes","toilets":"yes"}},"572410635":{"location":[51.6303023,12.8559463],"ct":"DE","tp":"CS","ts":"2023-01-31T08:22:01Z","tX":548,"tY":339,"tags":{"addr:city":"Dommitzsch","addr:country":"DE","addr:housenumber":"1","addr:postcode":"04880","addr:street":"Mahlitzscher Dorfstraße","addr:suburb":"Mahlitzsch","barrier":"fence","caravans":"yes","email":"lindemuehlenberg@web.de","name":"Campingplatz Lindemühlenberg","phone":"+49 34223 40646, +49 172 1902877","tents":"yes","website":"https://www.duebenerheidetourist.de/2-camping/dommitzsch-camping.html"}},"895332415":{"location":[51.6685124,12.9072842],"ct":"DE","tp":"CS","ts":"2023-08-12T08:35:37Z","tX":548,"tY":339,"tags":{"addr:city":"Annaburg","addr:housenumber":"42","addr:postcode":"06925","addr:street":"Hinterfährstraße","caravans":"yes","email":"info@campingplatz-prettin.de","mobile":"+49 172 3473334","name":"Campingplatz Prettin","operator":"Tourismuszentrum Prettin","phone":"+49 35386 22249;+49 172 23473334","tents":"yes","website":"https://www.campingplatz-prettin.de/","wheelchair":"yes"}},"3718364539":{"location":[51.7602129,12.828185],"ct":"DE","tp":"CS","ts":"2018-02-11T16:32:34Z","tX":548,"tY":339,"tags":{"addr:city":"Jessen (Elster)","addr:housenumber":"4","addr:postcode":"06917","addr:street":"Elbstraße","addr:suburb":"Klöden","email":"kontakt@auf-der-tenne.de","fee":"yes","name":"Auf der Tenne","phone":"+49 35388 20251","website":"www.auf-der-Tenne.de"}}}