{"28014723":{"location":[51.4062701,12.9402612],"ct":"DE","tp":"CS","ts":"2021-07-22T08:13:05Z","tX":548,"tY":340,"tags":{"addr:city":"Dahlen","addr:housenumber":"1","addr:postcode":"04774","addr:street":"Hauptweg","addr:suburb":"Ochsensaal","caravans":"yes","contact:phone":"+4917671827614","contact:website":"http://www.camping-dammühlenteich.de","email":"contact@camping-dammühlenteich.de","name":"Campingplatz Dammühlenteich","tents":"yes"}},"28047966":{"location":[51.4708798,12.9517742],"ct":"DE","tp":"CS","ts":"2022-08-01T13:24:58Z","tX":548,"tY":340,"tags":{"addr:city":"Belgern-Schildau","addr:country":"DE","addr:housenumber":"1","addr:postcode":"04889","addr:street":"Dahlienweg","caravans":"yes","contact:mobile":"+49 163 4868034","contact:phone":"+49 34221 50406 or 50731","contact:website":"http://www.stadtverwaltung-schildau.de/html/seebad.html#cam","name":"Campingplatz Seebad Neumühle","operator":"Stadt Schildau","tents":"yes","website":"https://www.belgernschildau.de/texte/seite.php?id=285347","wheelchair":"limited"}},"133413026":{"location":[51.4679319,12.8494025],"ct":"DE","tp":"CS","ts":"2020-02-03T00:22:50Z","tX":548,"tY":340,"tags":{"addr:city":"Mockrehna","addr:country":"DE","addr:housenumber":"5","addr:postcode":"04862","addr:street":"Hohburger Straße","addr:suburb":"Wildschütz","caravans":"yes","name":"Campingplatz Wildschütz (\"Am Wildschützer Bruch\")","phone":"+49 34244 50299","tents":"yes"}},"462638079":{"location":[51.5452863,12.9894677],"ct":"DE","tp":"CS","ts":"2023-02-27T14:59:36Z","tX":548,"tY":340,"tags":{"addr:city":"Torgau","addr:housenumber":"30","addr:postcode":"04860","addr:street":"Turnierplatzweg","caravans":"yes","email":"info@campingplatz-torgau.de","fee":"yes","internet_access":"no","name":"Campingplatz am Großen Teich","operator":"Stadt Torgau","phone":"+49 3421 902875","shower":"yes","tents":"yes","website":"https://www.campingplatz-torgau.de"}},"484539715":{"location":[51.4714964,12.6796536],"ct":"DE","tp":"CS","ts":"2019-03-31T16:32:10Z","tX":548,"tY":340,"tags":{"addr:city":"Eilenburg","addr:country":"DE","addr:housenumber":"1","addr:postcode":"04838","addr:street":"Zum See","caravans":"yes","name":"Freizeit- und Erholungszentrum Eilenburg","phone":"+49 3423 659933, +49 177 2222005","tents":"yes","website":"https://www.camp-eb.de/"}},"603040911":{"location":[51.5015736,12.7623423],"ct":"DE","tp":"CS","ts":"2018-06-28T14:10:00Z","tX":548,"tY":340,"tags":{}},"656219416":{"location":[51.578909,12.7294144],"ct":"DE","tp":"CS","ts":"2018-12-19T11:58:44Z","tX":548,"tY":340,"tags":{"addr:city":"Laußig","addr:country":"DE","addr:housenumber":"4","addr:postcode":"04849","addr:street":"Neumühle","addr:suburb":"Pressel","caravans":"yes","name":"Campingplatz Presseler Teich","phone":"+49 34243 26221 or 72898","tents":"yes"}},"5499254158":{"location":[51.5550638,13.0051775],"ct":"DE","tp":"CR","ts":"2023-06-11T16:17:27Z","tX":548,"tY":340,"tags":{"capacity":"4","fee":"no","name":"Parkplatz P2 Torgau","power_supply":"yes","sanitary_dump_station":"yes","water_supply":"yes"}},"6562634134":{"location":[51.4114054,12.7983699],"ct":"DE","tp":"CR","ts":"2022-09-30T20:13:13Z","tX":548,"tY":340,"tags":{"name":"Wohnmobil - Stellplätze Hohburg","parking":"lane","power_supply":"yes"}},"6562634135":{"location":[51.4113865,12.7988152],"ct":"DE","tp":"CR","ts":"2022-03-28T07:28:52Z","tX":548,"tY":340,"tags":{"capacity":"1","power_supply":"yes","sanitary_dump_station":"no"}},"5493361438":{"location":[51.5450217,12.9895631],"ct":"DE","tp":"SD","ts":"2018-03-21T10:42:45Z","tX":548,"tY":340,"tags":{}}}