{"28580395":{"location":[51.2090109,12.7546984],"ct":"DE","tp":"CS","ts":"2024-09-28T17:05:01Z","tX":548,"tY":341,"tags":{"access":"private","caravans":"no","contact:instagram":"https://www.instagram.com/vcpsachsen/?hl=de","email":"pfadfinderheim@xn--vcpsachsen-qu6e.de","group_only":"yes","name":"Biwakplatz","operator":"VCP Landesverband Sachsen e.V.","phone":"+49 351 47005745","power_supply":"yes","scout":"yes","shower":"yes","static_caravans":"no","tents":"yes","toilets":"yes","website":"https://www.vcp-sachsen.de/hoefgen/"}},"31890780":{"location":[51.3952052,13.0053361],"ct":"DE","tp":"CS","ts":"2011-05-27T13:09:14Z","tX":548,"tY":341,"tags":{}},"191445540":{"location":[51.2408768,12.684663],"ct":"DE","tp":"CS","ts":"2020-08-12T17:05:36Z","tX":548,"tY":341,"tags":{"addr:city":"Grimma","addr:housenumber":"1","addr:postcode":"04668","addr:street":"Am Münchteich","caravans":"yes","name":"Münchteich","phone":"+49 3437 764620, +49 172 5985003","tents":"yes","website":"http://www.stadt-grimma.de/06_tourismus/camping.php"}},"297354864":{"location":[51.2807314,12.8836279],"ct":"DE","tp":"CS","ts":"2025-05-06T23:40:11Z","tX":548,"tY":341,"tags":{"addr:city":"Grimma","addr:country":"DE","addr:postcode":"04668","addr:street":"Rodaer Landstraße","addr:suburb":"Mutzschen","caravans":"yes","name":"Campingplatz Mutzschen-Roda","old_addr:street":"Nerchauer Straße","phone":"+49 3431 611216, +49 341 9015985, +49 177 5611216, +49 172 3718824","tents":"yes","website":"https://www.campingplatz-mutzschen-roda.de/"}},"450336936":{"location":[51.1918062,12.800036],"ct":"DE","tp":"CS","ts":"2016-10-08T19:15:08Z","tX":548,"tY":341,"tags":{"addr:city":"Grimma","addr:country":"DE","addr:housenumber":"10-12","addr:postcode":"04668","addr:street":"Zum Thümmlitzsee","addr:suburb":"Förstgen","caravans":"yes","name":"Ferienpark Thümmlitzsee (\"Thümmlitz Erholung\")","phone":"+49 34384 71232, +49 163 2568149","tents":"yes","website":"http://www.thuemmlitzsee.de"}},"502697531":{"location":[51.2420477,12.7374114],"ct":"DE","tp":"CR","ts":"2021-08-05T17:52:19Z","tX":548,"tY":341,"tags":{"addr:city":"Grimma","addr:postcode":"04668","addr:street":"Nerchauer Straße","capacity":"19","fee":"yes","name":"Unterer Bahnhof","operator":"M&D Gastro Service Grimma","power_supply":"yes","sanitary_dump_station":"yes","website":"http://www.stadt-grimma.de/tourismus_caravan","website_1":"https://www.caravanplatz-grimma.de/"}},"1287121781":{"location":[51.3062225,12.7373108],"ct":"DE","tp":"CR","ts":"2024-05-27T16:21:53Z","tX":548,"tY":341,"tags":{"addr:city":"Bennewitz","addr:housenumber":"114","addr:postcode":"04828","addr:street":"Grimmaische Straße","name":"Tabak Baude Rothersdorf"}},"3915298345":{"location":[51.3651416,12.7261474],"ct":"DE","tp":"CR","ts":"2025-01-07T02:06:06Z","tX":548,"tY":341,"tags":{"caravan_site":"motorhome_stopover","caravan_site:type":"parking_lot","description":"Die Stadt erlaubt hier das kurzfristige Abstellen von Wohnwagen. Es ist keine Infrastruktur vorhanden.","fee":"no","name":"Wohnmobil-Stellplatz am Dreibrückenbad Wurzen","power_supply":"no","sanitary_dump_station":"no","tents":"no","water_point":"no","website":"https://www.tourismus-wurzen.de/info/poi/wohnmobil-stellplatz-am-dreibrueckenbad-901005535-22901.html"}}}