{"110677853":{"location":[51.1304219,12.8327092],"ct":"DE","tp":"CS","ts":"2025-03-08T07:02:03Z","tX":548,"tY":342,"tags":{"addr:city":"Colditz","addr:country":"DE","addr:housenumber":"5","addr:postcode":"04680","addr:street":"Im Tiergarten","caravans":"yes","email":"inf@campingplatz-colditz.de","fax":"+49 34381 43122","name":"Waldcamping Colditz","phone":"+49 34381 43122","tents":"yes","website":"http://www.campingplatz-colditz.de","wheelchair":"limited"}},"118277278":{"location":[51.0060778,12.987137],"ct":"DE","tp":"CS","ts":"2019-03-31T16:51:55Z","tX":548,"tY":342,"tags":{"addr:city":"Mittweida","addr:country":"DE","addr:housenumber":"5","addr:postcode":"09648","addr:street":"An der Talsperre","addr:suburb":"Lauenhain","caravans":"yes","name":"Campingplatz Lauenhain","phone":"+49 34327 93153, +49 3727 3133","tents":"yes","website":"https://kriebsteintalsperre.de/pitcms/.kriebsteintalsperre/hauptordner4/folge2_5"}},"118277281":{"location":[51.0003493,12.9898876],"ct":"DE","tp":"CS","ts":"2024-05-22T03:40:43Z","tX":548,"tY":342,"tags":{"addr:city":"Mittweida","addr:country":"DE","addr:postcode":"09648","addr:street":"Auenblickstraße","caravans":"yes","name":"Campingplatz Mittweidaer Aue","phone":"+49 3727 3133","tents":"yes","website":"https://kriebsteintalsperre.de/pitcms/.kriebsteintalsperre/hauptordner4/folge3_5"}},"285455060":{"location":[51.0286912,12.9934119],"ct":"DE","tp":"CS","ts":"2024-10-29T22:45:51Z","tX":548,"tY":342,"tags":{"addr:city":"Mittweida","addr:country":"DE","addr:housenumber":"16","addr:postcode":"09648","addr:street":"Talsperrenstraße","addr:suburb":"Falkenhain","caravans":"yes","contact:phone":"+49 3727 2952","contact:website":"http://www.talsperre-kriebstein.de/info-zelten--Camping.html","name":"Campingplatz Falkenhain","operator":"Jugendherberge Falkenhain","tents":"yes","wheelchair":"limited"}},"328643077":{"location":[51.0063174,12.9850155],"ct":"DE","tp":"CS","ts":"2024-05-22T15:06:45Z","tX":548,"tY":342,"tags":{"addr:city":"Mittweida","addr:housenumber":"5","addr:postcode":"09648","addr:street":"An der Talsperre","contact:website":"https://abenteuercamp-lauenhain.de/","group_only":"yes","name":"Abenteuercamp Lauenhain","operator":"Heiko Rudolph"}},"801951883":{"location":[51.0033143,12.7676165],"ct":"DE","tp":"CR","ts":"2024-04-04T23:56:48Z","tX":548,"tY":342,"tags":{"capacity":"2","caravan_site":"motorhome_stopover","caravan_site:type":"parking_lot","caravans":"no","name":"Wechselburg Wanderparkplatz","power_supply":"no","sanitary_dump_station":"no","tents":"no","toilets":"no"}},"1097534970":{"location":[51.002612,12.7703553],"ct":"DE","tp":"CR","ts":"2022-09-24T17:19:58Z","tX":548,"tY":342,"tags":{"capacity:caravans":"8","fee":"no","internet_access":"no","name":"Wohnmobilstellplatz Wechselburg","power_supply":"no","sanitary_dump_station":"no"}},"1301238159":{"location":[51.0243569,12.767427],"ct":"DE","tp":"CR","ts":"2024-07-14T05:36:16Z","tX":548,"tY":342,"tags":{"capacity":"4","drinking_water":"no","fee":"no","name":"Wohnmobilstellplatz \"Rochlitzer Berg\"","parking_space":"normal","power_supply":"no","sanitary_dump_station":"no","surface":"asphalt","tents":"no","toilets":"no","traffic_sign":"DE:314,1048-17","wheelchair":"yes"}},"1350361165":{"location":[51.1280612,12.8133564],"ct":"DE","tp":"CR","ts":"2025-01-11T13:16:01Z","tX":548,"tY":342,"tags":{"addr:street":"Wettiner Ring","caravan_site":"motorhome_stopover","caravan_site:type":"town","fee":"no","maxstay":"1 night","name":"Wohnmobilstellplatz am Tiergarten - Colditz","power_supply":"no","sanitary_dump_station":"no","surface":"gravel","water_point":"no","website":"https://www.leipzig.travel/poi/wohnmobilstellplatz-am-tiergarten-in-colditz"}},"3914220638":{"location":[51.048938,12.7457506],"ct":"DE","tp":"CR","ts":"2023-05-07T20:11:08Z","tX":548,"tY":342,"tags":{"capacity:pitches":"5","contact:website":"http://www.ferienhaus-spreer.de/cara01.htm","email":"reerps@hotmail.com","name":"Spreer's Ferienhaus","phone":"+49 3737 42890"}},"7226963387":{"location":[51.1279753,12.813287],"ct":"DE","tp":"CR","ts":"2024-01-06T14:02:45Z","tX":548,"tY":342,"tags":{"addr:street":"Wettiner Ring"}},"7997287510":{"location":[51.1527989,12.8336419],"ct":"DE","tp":"CR","ts":"2024-08-17T09:42:46Z","tX":548,"tY":342,"tags":{"fee":"no","name":"Wasserschloss Podelwitz","sanitary_dump_station":"no","toilets":"no"}},"10570414209":{"location":[51.04354,12.803505],"ct":"DE","tp":"CR","ts":"2023-01-20T12:02:20Z","tX":548,"tY":342,"tags":{"capacity":"3","fee":"no","name":"Wohnmobilstellplatz \"Uferstraße\"","power_supply":"no","sanitary_dump_station":"no","tents":"no","traffic_sign":"DE:314,1048-17"}}}