{"118501406":{"location":[50.6070804,12.6580668],"ct":"DE","tp":"CS","ts":"2023-11-15T12:46:43Z","tX":548,"tY":344,"tags":{"addr:city":"Aue-Bad Schlema","addr:country":"DE","addr:housenumber":"11","addr:postcode":"08280","addr:street":"Silberbachstraße","caravans":"yes","dog":"yes","dryer":"yes","email":"info@camping-silberbach.de","fax":"+49 3772 372638","internet_access":"wlan","internet_access:fee":"no","kitchen":"yes","name":"Campingplatz Silberbach","payment:cash":"yes","phone":"+49 3772 372032","power_supply":"yes","sauna":"yes","tents":"yes","washing_machine":"yes","website":"https://www.camping-silberbach.de/"}},"164360498":{"location":[50.535227,12.7830086],"ct":"DE","tp":"CR","ts":"2023-04-04T18:12:30Z","tX":548,"tY":344,"tags":{"capacity":"8","fee":"yes","internet_access":"no","name":"Wohnmobilstellplatz Uferstraße","operator":"Stadtverwaltung Schwarzenberg","power_supply":"yes","reservation":"yes","sanitary_dump_station":"yes","surface":"paving_stones","tents":"no","wheelchair":"yes"}},"287901972":{"location":[50.709093,12.8442192],"ct":"DE","tp":"CS","ts":"2023-11-08T00:30:51Z","tX":548,"tY":344,"tags":{"caravans":"yes","name":"Waldcamping Erzgebirgsbad Thalheim","phone":"+49 3721 265033","tents":"yes","website":"https://www.waldcamping-erzgebirgsbad.de/"}},"319709246":{"location":[50.643478,12.9116926],"ct":"DE","tp":"CS","ts":"2023-08-07T18:29:13Z","tX":548,"tY":344,"tags":{"addr:city":"Geyer","addr:country":"DE","addr:housenumber":"65","addr:postcode":"09468","addr:street":"Thumer Straße","caravans":"yes","drinking_water":"yes","internet_access":"wlan","name":"Campingpark Greifensteine","phone":"+49 37346 1303 or 1454","power_supply":"yes","shower":"yes","tents":"yes","toilets":"yes","website":"http://www.campingpark-greifensteine.de"}},"319709251":{"location":[50.6485407,12.9093374],"ct":"DE","tp":"CS","ts":"2024-06-18T14:59:42Z","tX":548,"tY":344,"tags":{"caravans":"yes","internet_access":"wlan","landuse":"grass","name":"Campingplatz MC Ehrenfriedersdorf","permanent_camping":"only","power_supply":"no","tents":"yes","toilets":"yes"}},"432380527":{"location":[50.7336229,12.697501],"ct":"DE","tp":"CR","ts":"2022-02-14T21:09:31Z","tX":548,"tY":344,"tags":{"addr:city":"Oelsnitz/Erzgeb.","addr:postcode":"09376","addr:street":"Hinterm Hedwigschacht","capacity":"15","fee":"yes","internet_access":"no","name":"Wohnmobilstellplatz Am Gradierwerk","operator":"Stadtverwaltung Oelsnitz/Erzgeb.","power_supply":"yes","sanitary_dump_station":"yes","wheelchair":"yes"}},"598808603":{"location":[50.7191573,12.9783514],"ct":"DE","tp":"CR","ts":"2025-06-03T15:41:23Z","tX":548,"tY":344,"tags":{"capacity":"8","drinking_water":"yes","fee":"yes","internet_access":"wlan","name":"Wohnmobilstellplatz Gelenau","operator":"Gemeinde Gelenau","power_supply":"yes","sanitary_dump_station":"yes"}},"642093848":{"location":[50.5819606,12.7922348],"ct":"DE","tp":"CR","ts":"2019-08-26T18:13:22Z","tX":548,"tY":344,"tags":{"capacity":"8","fee":"yes","name":"SP am Freizeitpark","power_supply":"no","sanitary_dump_station":"yes"}},"1155603338":{"location":[50.5801663,12.6875191],"ct":"DE","tp":"CR","ts":"2025-01-11T15:23:27Z","tX":548,"tY":344,"tags":{"addr:city":"Aue-Bad Schlema","addr:country":"DE","addr:housenumber":"3","addr:postcode":"08280","addr:street":"Brückenstraße","capacity":"14","caravan_site":"motorhome_stopover","caravan_site:type":"river;town","charge":"18 EUR","email":"mail@stellplatz-georgi-aue.de","fee":"yes","name":"Stellplatz Georgi Aue","opening_hours":"24/7","phone":"+49 3771 246 3822","power_supply":"yes","power_supply:fee":"yes","reservation":"no","sanitary_dump_station":"customers","water_point":"yes","water_point:fee":"no","website":"https://stellplatz-georgi-aue.de/"}},"1160556891":{"location":[50.7348184,12.7684112],"ct":"DE","tp":"CR","ts":"2024-05-03T12:37:23Z","tX":548,"tY":344,"tags":{"drinking_water":"no","fee":"yes","name":"Alte Ziegelei","power_supply":"no","sanitary_dump_station":"no","toilets":"no"}},"1369084237":{"location":[50.5985022,12.660475],"ct":"DE","tp":"CR","ts":"2016-02-13T20:49:17Z","tX":548,"tY":344,"tags":{"fee":"yes","name":"Stellplatz Kurhotel","power_supply":"yes"}},"5382662253":{"location":[50.5869227,12.6958941],"ct":"DE","tp":"CR","ts":"2025-01-11T15:23:27Z","tX":548,"tY":344,"tags":{"capacity":"2","caravan_site":"motorhome_stopover","caravan_site:type":"parking_lot","description":"no fee at night","fee":"yes","fixme":"Vorort nochmal prüfen","name":"Wohnmobilstellplatz Anton-Günther-Platz","name:signed":"no"}},"9504831712":{"location":[50.6525016,12.6645074],"ct":"DE","tp":"CR","ts":"2025-01-11T15:12:58Z","tX":548,"tY":344,"tags":{"addr:city":"Hartenstein","addr:postcode":"08118","addr:street":"Talstraße","capacity":"2","capacity:caravans":"2","caravan_site:type":"parking_lot","fee":"no","internet_access":"no","name":"Hartenstein Parkplatz Talstraße","name:signed":"no","power_supply":"no","sanitary_dump_station":"no","surface":"asphalt","toilets":"no"}},"9506049632":{"location":[50.7334429,12.6973134],"ct":"DE","tp":"SD","ts":"2022-02-14T21:09:31Z","tX":548,"tY":344,"tags":{}},"12487408188":{"location":[50.5718382,12.9977582],"ct":"DE","tp":"CR","ts":"2025-01-09T23:52:27Z","tX":548,"tY":344,"tags":{"caravan_site":"motorhome_stopover","caravan_site:type":"town","fee":"yes","name":"Wohnmobilstellplatz Silberlandhalle - Annaberg-Buchholz","power_supply":"yes","seasonal":"no","website":"https://www.annaberg-buchholz.de/tourismus/anreise-parken-nahverkehr/parkmoeglichkeiten.php"}}}