{"1050544104":{"location":[49.3961539,12.6993542],"ct":"DE","tp":"CS","ts":"2023-11-09T00:58:12Z","tX":548,"tY":349,"tags":{"addr:city":"Waldmünchen","addr:country":"DE","addr:housenumber":"6","addr:postcode":"93449","addr:street":"Alte Ziegelhütte","area":"yes","cabins":"yes","caravans":"yes","dog":"yes","dryer":"yes","email":"info@campingplatz-waldmuenchen.de","fax":"+49 9672 91212","name":"Campingplatz Waldmünchen","opening_hours":"07:00-13:00,15:00-22:00","phone":"+49 9972 1469","power_supply":"yes","tents":"yes","washing_machine":"yes","website":"https://www.campingplatz-waldmuenchen.de/","wheelchair":"yes"}},"1317061712":{"location":[49.4018992,12.8549522],"ct":"CZ","tp":"CS","ts":"2024-09-21T10:35:13Z","tX":548,"tY":349,"tags":{"addr:city":"Babylon","caravans":"yes","fee":"yes","internet_access":"wlan","name":"Autokemp Babylon","payment:cash":"yes","payment:mastercard":"yes","payment:visa":"yes","power_supply":"yes","sanitary_dump_station":"yes","seasonal":"summer","shower":"yes","tents":"yes","toilets":"yes","toilets:wheelchair":"no","website":"https://www.autokempbabylon.cz/","wheelchair":"limited"}},"2493523577":{"location":[49.5067009,12.9069507],"ct":"CZ","tp":"CS","ts":"2013-10-12T09:18:33Z","tX":548,"tY":349,"tags":{"name":"Delta Podhájí autokemp"}}}