{"155029009":{"location":[49.3114473,12.8589918],"ct":"DE","tp":"CS","ts":"2024-08-19T11:17:46Z","tX":548,"tY":350,"tags":{"addr:city":"Furth im Wald","addr:country":"DE","addr:housenumber":"33","addr:postcode":"93437","addr:street":"Daberger Straße","area":"yes","caravans":"yes","contact:email":"drachencamping@gmail.com","contact:mobile":"+49 179 4392949","contact:phone":"+49 9973 1811","contact:website":"https://www.campingplatz-einberg.de/","description":"Sign in, Entrance 1","dog":"leashed","name":"Campingplatz Einberg","power_supply":"yes","source":"local_knowledge","surface":"grass","tents":"yes","wheelchair":"limited"}},"176278415":{"location":[49.1794235,12.8642393],"ct":"DE","tp":"CS","ts":"2023-04-10T17:37:35Z","tX":548,"tY":350,"tags":{"access":"yes","addr:city":"Bad Kötzting","addr:country":"DE","addr:housenumber":"42","addr:postcode":"93444","addr:street":"Jahnstraße","bbq":"yes","boat:rental":"yes","cabins":"yes","capacity:caravans":"35","capacity:tents":"23","caravans":"yes","dog":"leashed","drinking_water":"yes","dryer":"yes","email":"bohemia-tours@t-online.de","fee":"yes","hot_water":"no","internet_access":"wlan","kitchen":"no","lit":"yes","mobile":"+49 170 1252251","name":"Adventure Camp Bad Kötzting","openfire":"yes","operator":"Martin Bredl","permanent_camping":"yes","phone":"+4915254184537","picnic_table":"no","power_supply":"yes","reservation":"recommended","sanitary_dump_station":"yes","shower":"yes","static_caravans":"yes","swimming_pool":"no","tents":"yes","toilets":"yes","washing_machine":"yes","waste_disposal":"yes","website":"https://www.bohemiatours.de/adventure-camp","wheelchair":"yes"}},"176279218":{"location":[49.206412,12.8390318],"ct":"DE","tp":"CS","ts":"2023-04-15T16:14:45Z","tX":548,"tY":350,"tags":{"addr:city":"Bad Kötzting","addr:country":"DE","addr:housenumber":"1","addr:postcode":"93444","addr:street":"Ammermühle","addr:suburb":"Ramsried","dryer":"yes","motor_vehicle":"yes","name":"Campingplatz Ammermühle","phone":"+49 9941 8984","shower":"yes","tents":"yes","toilets":"yes","washing_machine":"yes"}},"176279219":{"location":[49.1795443,12.8626998],"ct":"DE","tp":"CS","ts":"2023-04-15T16:14:45Z","tX":548,"tY":350,"tags":{"addr:city":"Bad Kötzting","addr:country":"DE","addr:housenumber":"41","addr:postcode":"93444","addr:street":"Jahnstraße","caravans":"yes","dryer":"yes","name":"Campingurlaub auf dem Bauernhof","phone":"+49 9941 6196","power_supply":"yes","washing_machine":"yes"}},"176280065":{"location":[49.2061704,12.920448],"ct":"DE","tp":"CS","ts":"2023-08-09T19:52:45Z","tX":548,"tY":350,"tags":{"addr:city":"Hohenwarth","addr:country":"DE","addr:housenumber":"3","addr:postcode":"93480","addr:street":"Ferienzentrum","caravans":"yes","dryer":"yes","email":"info@campingplatz-hohenwarth.de","fax":"+49 9946 477","name":"Campingplatz Hohenwarth","phone":"+49 9946 367","power_supply":"yes","tents":"yes","washing_machine":"yes","website":"https://www.campingplatz-hohenwarth.de/"}},"180206762":{"location":[49.1603586,12.8095065],"ct":"DE","tp":"CS","ts":"2024-08-07T19:05:59Z","tX":548,"tY":350,"tags":{"addr:city":"Blaibach","addr:country":"DE","addr:housenumber":"7","addr:postcode":"93476","addr:street":"Oberes Dorf","cabins":"yes","caravans":"yes","dog":"yes","drinking_water":"yes","dryer":"yes","email":"info@aquahema.de","fax":"+49 9941 7030","name":"Kanu & Camping aqua hema","phone":"+49 9941 4128","power_supply":"yes","tents":"yes","washing_machine":"yes","website":"https://www.aquahema.de/","wheelchair":"yes"}},"297138486":{"location":[49.2221031,12.6770265],"ct":"DE","tp":"CS","ts":"2024-04-24T16:16:44Z","tX":548,"tY":350,"tags":{"addr:city":"Cham","addr:country":"DE","addr:housenumber":"31","addr:postcode":"93413","addr:street":"Badstraße","fee":"yes","name":"Kanu Club Graf Luckner","operator":"Kanu Club Graf Luckner","website":"http://www.kc-cham.de/zelt-und-wohnmobilstellplatz/"}},"304540879":{"location":[49.2999237,12.7764715],"ct":"DE","tp":"CS","ts":"2019-02-16T22:22:09Z","tX":548,"tY":350,"tags":{"addr:city":"Furth im Wald","addr:country":"DE","addr:housenumber":"14","addr:postcode":"93437","addr:street":"Kühberg","caravans":"yes","dryer":"yes","email":"info@pension-waldesruh.com","fax":"+49 9973 2193","name":"Campingplatz Waldesruh","opening_hours":"Apr 01-Oct 31","phone":"+49 9973 1083","power_supply":"yes","tents":"yes","washing_machine":"yes","website":"https://www.landhotel-waldesruh.com/"}},"1328723027":{"location":[49.1751069,12.8606003],"ct":"DE","tp":"CR","ts":"2025-01-05T16:32:11Z","tX":548,"tY":350,"tags":{"capacity":"4","caravan_site":"motorhome_stopover","caravan_site:type":"swimming_pool","charge":"5 EUR +tax /day","fee":"yes","maxstay":"3 days","name":"Wohnmobilstellplatz AQACUR Badewelt - Bad Kötzting","power_supply":"yes","power_supply:charge":"2 EUR/6 hours","power_supply:fee":"yes","sanitary_dump_station":"yes","surface":"asphalt","toilets":"no","water_point":"yes","website":"https://www.bayerischer-wald.de/BayWald/ukv/house/Bad-Koetzting-Campingplatz-Wohnmobilstellplatz-bei-der-AQACUR-Badewelt-GER00020060438024377"}},"1348745637":{"location":[49.2446759,12.9556697],"ct":"DE","tp":"CR","ts":"2025-01-05T17:37:23Z","tX":548,"tY":350,"tags":{"charge":"6 EUR+tax","fee":"yes","name":"Wohnmobil-Stellplatz Sport & Freizeitzentrum Hohenbogen","power_supply:capacity":"4","power_supply:charge":"1 EUR/1.5 KWh","sanitary_dump_station":"yes","sanitary_dump_station:chemical_toilet":"yes","sanitary_dump_station:grey_water":"yes","socket:cee_blue":"yes","water_point":"yes","water_point:charge":"1 EUR/80 liter","website":"https://hohenbogen.de/wohnmobil-stellplatz/"}},"1348794238":{"location":[49.2222922,12.6772423],"ct":"DE","tp":"CR","ts":"2025-01-05T21:46:12Z","tX":548,"tY":350,"tags":{"bbq":"yes","caravan_site":"motorhome_stopover","caravan_site:type":"river;canoe","charge":"18 EUR","fee":"yes","internet_access":"wlan","internet_access:fee":"no","name":"Kanu Club \"Graf Luckner\" Wohnmobilstellplatz","power_supply":"yes","power_supply:capacity":"4","sanitary_dump_station":"yes","sanitary_dump_station:chemical_toilet":"yes","sanitary_dump_station:grey_water":"yes","socket:cee_blue":"yes","water_point":"yes","website":"https://kc-cham.de/zelt-u-wohnmobilstellplatz/"}},"10002459118":{"location":[49.2446978,12.9554972],"ct":"DE","tp":"CR","ts":"2022-09-05T16:13:17Z","tX":548,"tY":350,"tags":{}},"9023147828":{"location":[49.1798573,12.8642332],"ct":"DE","tp":"SD","ts":"2021-08-22T17:35:30Z","tX":548,"tY":350,"tags":{"operator":"Chemietoilette"}},"10002427819":{"location":[49.2436257,12.9574659],"ct":"DE","tp":"SD","ts":"2022-09-05T16:09:39Z","tX":548,"tY":350,"tags":{}},"12475988901":{"location":[49.1831579,12.8492947],"ct":"DE","tp":"CR","ts":"2025-01-05T17:07:32Z","tX":548,"tY":350,"tags":{"capacity":"16","caravan_site":"motorhome_stopover","caravan_site:type":"village","charge":"15 EUR","fee":"yes","maxstay":"7 nights","name":"Wohnmobilstellplatz Alte Kaserne - Bad Kötzting","phone":"+49 9941 40032150","power_supply":"yes","power_supply:capacity":"16","power_supply:charge":"1 EUR/KWh","power_supply:fee":"yes","sanitary_dump_station":"yes","sanitary_dump_station:chemical_toilet":"yes","sanitary_dump_station:grey_water":"yes","seasonal":"no","socket:cee_blue":"yes","surface":"pebblestone","water_point":"yes","water_point:charge":"1 EUR/50 liter","water_point:fee":"yes","website":"https://www.bayerischer-wald.de/BayWald/ukv/house/Bad-Koetzting-Campingplatz-Wohnmobilstellplatz-Alte-Kaserne-GER00020062950036322"}}}