{"119102230":{"location":[49.1170798,12.837307],"ct":"DE","tp":"CS","ts":"2019-03-29T09:06:07Z","tX":548,"tY":351,"tags":{"addr:city":"Prackenbach","addr:country":"DE","addr:housenumber":"6","addr:postcode":"94267","addr:street":"Dorfstraße","caravans":"yes","email":"info@urlaub-bayern.net","fax":"+49 9942 905467","name":"Camping Hastreiter","phone":"+49 9942 8844","tents":"yes","website":"https://www.urlaub-bayern.net/"}},"176051833":{"location":[49.0696277,12.9123198],"ct":"DE","tp":"CS","ts":"2023-08-19T16:30:59Z","tX":548,"tY":351,"tags":{"addr:city":"Viechtach","addr:country":"DE","addr:housenumber":"1","addr:postcode":"94234","addr:street":"Schnitzmühle","caravans":"yes","drinking_water":"yes","dryer":"yes","email":"info@schnitzmuehle.de","fax":"+49 9942 948170","kitchen":"yes","name":"Adventure Camp Schnitzmühle","phone":"+49 9942 9481-0","power_supply":"yes","shower":"yes","tents":"yes","toilets":"yes","washing_machine":"yes","website":"https://www.schnitzmuehle.de/"}},"228338580":{"location":[49.1011252,12.876178],"ct":"DE","tp":"CS","ts":"2025-01-13T21:06:52Z","tX":548,"tY":351,"tags":{"addr:housenumber":"12","addr:street":"Leitenweg","name":"Camping Höllensteinsee","website":"https://www.camping-hoellensteinsee.de/"}},"233453625":{"location":[49.0838005,12.8515093],"ct":"DE","tp":"CS","ts":"2023-09-19T11:49:23Z","tX":548,"tY":351,"tags":{"name":"Knaus Campingpark Viechtach","website":"https://www.knauscamp.de/viechtach.html"}},"235201915":{"location":[49.0791011,12.7499378],"ct":"DE","tp":"CS","ts":"2019-03-29T08:57:27Z","tX":548,"tY":351,"tags":{"addr:city":"Rattenberg","addr:country":"DE","addr:housenumber":"7","addr:place":"Unterholzen","addr:postcode":"94371","caravans":"yes","email":"info@campingperlbach.de","fax":"+49 9963 2426","name":"Naturcampingplatz Perlbach","opening_hours":"08:00-22:00","phone":"+49 9963 701","tents":"yes","website":"https://www.campingperlbach.de/"}},"439865861":{"location":[48.9739165,12.6884045],"ct":"DE","tp":"CS","ts":"2019-08-25T10:10:56Z","tX":548,"tY":351,"tags":{"caravans":"no","group_only":"yes","name":"Jugendzeltplatz","operator":"KJR Straubing-Bogen","tents":"yes"}},"1050705906":{"location":[48.9817479,12.9893214],"ct":"DE","tp":"CR","ts":"2025-01-05T16:33:43Z","tX":548,"tY":351,"tags":{"capacity":"16","caravan_site":"motorhome_stopover","caravan_site:type":"village","charge":"10 EUR","contact:email":"tourist-info@ruhmannsfelden.de","contact:mobile":"+49170 81 32 294","contact:website":"https://www.ruhmannsfelden.de/tourismus/wohnmobilstellplatz/","description":"Im Juli ist der Stellplatz wegen Volksfestbetrieb geschlossen.","fee":"yes","name":"Wohnmobilstellplatz Ruhmannsfelden","opening_hours":"24/7; Jul off","power_supply":"yes","power_supply:charge":"1 EUR/KWh","power_supply:fee":"yes","sanitary_dump_station":"yes","sanitary_dump_station:chemical_toilet":"yes","sanitary_dump_station:grey_water":"yes","surface":"gravel_turf","water_point":"yes","water_point:capacity":"6","water_point:fee":"no"}},"1315304194":{"location":[48.9860744,12.7537345],"ct":"DE","tp":"CR","ts":"2025-01-05T18:33:54Z","tX":548,"tY":351,"tags":{"booking:website":"https://www.alpacacamping.de/properties/11931","caravan_site":"motorhome_stopover","caravan_site:type":"countryside","charge":"13.40 EUR","dog":"yes","fee":"yes","name":"Wohnmobilstellplatz an der Wassertretanlage","network":"Alpaca Camping","opening_hours":"24/7","power_supply":"no","sanitary_dump_station":"no","surface":"compacted","water_point":"no","website":"https://www.bayerischer-wald.de/attraktion/wohnmobilstellplatz-an-der-wassertretanlage-e51826550a"}},"1348761255":{"location":[49.0784103,12.8827512],"ct":"DE","tp":"CR","ts":"2025-01-05T18:53:01Z","tX":548,"tY":351,"tags":{"caravan_site":"motorhome_stopover","caravan_site:type":"parking_lot","fee":"no","maxstay":"3 days","name":"Parkplatz an der Bierfeldstraße - P1 Zentrum","power_supply":"no","sanitary_dump_station":"no","water_point":"no","website":"https://www.bayerischer-wald.de/attraktion/parkplatz-an-der-bierfeldstrasse-p1-zentrum-oeffentlicher-parkplatz-da9c74fb39"}},"4336558929":{"location":[49.0293973,12.838895],"ct":"DE","tp":"CR","ts":"2016-08-05T06:43:31Z","tX":548,"tY":351,"tags":{"fee":"yes","name":"Stellplatz Berghütte Zum Pröller"}},"4336585439":{"location":[49.0154584,12.7035291],"ct":"DE","tp":"CR","ts":"2016-08-05T07:04:43Z","tX":548,"tY":351,"tags":{"fee":"yes","name":"Reisemobilstellplatz Bachwies"}},"9655409935":{"location":[48.9819564,12.9897819],"ct":"DE","tp":"SD","ts":"2022-04-10T07:34:52Z","tX":548,"tY":351,"tags":{}},"12476170638":{"location":[48.971607,12.7590511],"ct":"DE","tp":"CR","ts":"2025-01-05T18:37:49Z","tX":548,"tY":351,"tags":{"booking:website":"https://www.alpacacamping.de/properties/11933","caravan_site":"motorhome_stopover","caravan_site:type":"village","charge":"13.40 EUR","fee":"yes","name":"Wohnmobilstellplatz am Perlbachstadion","network":"Alpaca Camping","power_supply":"no","reservation":"yes","sanitary_dump_station":"no","water_point":"no","website":"https://www.alpacacamping.de/properties/11933"}},"12476197069":{"location":[48.9886879,12.7598762],"ct":"DE","tp":"CR","ts":"2025-01-05T19:03:18Z","tX":548,"tY":351,"tags":{"caravan_site":"motorhome_stopover","caravan_site:type":"countryside","charge":"13.40 EUR","fee":"yes","name":"Wohnmobilstellplatz beim Kreisobstlehrgarten","opening_hours":"24/7","power_supply":"no","sanitary_dump_station":"no","water_point":"no","website":"https://www.alpacacamping.de/properties/11932"}}}