{"31782141":{"location":[47.9468243,12.7562406],"ct":"DE","tp":"CS","ts":"2022-08-17T10:35:30Z","tX":548,"tY":356,"tags":{"addr:city":"Waging a. See","addr:country":"DE","addr:housename":"Gut Horn","addr:postcode":"83329","caravans":"yes","email":"info@gut-horn.de","fax":"+49 8681 4282","name":"Gut Horn","phone":"+49 8681 227","power_supply":"yes","tents":"yes","website":"https://www.gut-horn.de/"}},"32206487":{"location":[47.9433366,12.7465507],"ct":"DE","tp":"CS","ts":"2025-04-21T10:26:07Z","tX":548,"tY":356,"tags":{"addr:city":"Waging am See","addr:country":"DE","addr:housenumber":"1","addr:postcode":"83329","addr:street":"Am See","caravans":"yes","dog":"yes","drinking_water":"yes","email":"info@strandcamp.de","fax":"+49 8681 45010","fee":"yes","internet_access":"wlan","internet_access:fee":"customers","name":"Strandcamping Waging am See","operator":"Andreas Barmbichler","phone":"+49 8681 552","power_supply":"yes","sanitary_dump_station":"yes","shower":"yes","tents":"yes","toilets":"yes","website":"https://www.strandcamp.de/","wheelchair":"yes"}},"32209598":{"location":[47.9530237,12.7516999],"ct":"DE","tp":"CS","ts":"2024-06-19T18:44:22Z","tX":548,"tY":356,"tags":{"addr:city":"Waging am See","addr:country":"DE","addr:housenumber":"2","addr:postcode":"83329","addr:street":"Hauptstraße","addr:suburb":"Tettenhausen","caravans":"yes","email":"campingplatz-tettenhausen@t-online.de","fax":"+49 8681 698650","name":"Campingplatz Tettenhausen","phone":"+49 8681 1622 oder 358","power_supply":"yes","tents":"yes","website":"https://www.strandbad-tettenhausen.de/"}},"41421931":{"location":[47.9369684,12.7607798],"ct":"DE","tp":"CS","ts":"2025-01-09T16:49:39Z","tX":548,"tY":356,"tags":{"addr:city":"Waging am See","addr:country":"DE","addr:housenumber":"1","addr:postcode":"83329","addr:street":"Am Schwanenplatz","caravans":"yes","dryer":"yes","email":"info@schwanenplatz.de","fax":"+49 8681 4276","internet_access":"wlan","internet_access:fee":"yes","name":"Schwanenplatz","phone":"+49 8681 281","power_supply":"yes","tents":"yes","washing_machine":"yes","website":"https://www.schwanenplatz.de/","wheelchair":"yes"}},"174811351":{"location":[47.7675353,12.7553243],"ct":"DE","tp":"CS","ts":"2025-04-11T19:15:24Z","tX":548,"tY":356,"tags":{"addr:city":"Inzell","addr:country":"DE","addr:housenumber":"44","addr:postcode":"83334","addr:street":"Kreuzfeldstraße","caravans":"yes","email":"info@camping-inzell.de","internet_access":"wlan","name":"Camping Lindlbauer","phone":"+49 8665 9289988","power_supply":"yes","tents":"yes","toilets:wheelchair":"yes","website":"https://www.camping-inzell.de/","wheelchair":"yes"}},"275785655":{"location":[47.912979,12.9121622],"ct":"DE","tp":"CS","ts":"2019-08-25T10:10:56Z","tX":548,"tY":356,"tags":{"caravans":"no","group_only":"yes","name":"Jugendzeltplatz","tents":"yes","website":"http://www.kjr-bgl.de/?site=5"}},"322555423":{"location":[47.8923142,12.9442867],"ct":"DE","tp":"CR","ts":"2023-07-02T04:48:59Z","tX":548,"tY":356,"tags":{"email":"info@paulbauernhof.de","fax":"+49 8682 894388","fee":"yes","motorhome":"designated","name":"Paulbauernhof","operator":"Paulbauernhof - Johann & Theresia Heinz","phone":"+49 8682 1867","power_supply":"yes","toilets":"yes","website":"https://www.paulbauernhof.de/"}},"585489217":{"location":[47.921238,12.7941592],"ct":"DE","tp":"CS","ts":"2023-08-12T18:30:28Z","tX":548,"tY":356,"tags":{"addr:city":"Petting","addr:country":"DE","addr:housenumber":"2","addr:place":"Hainz am See","addr:postcode":"83367","capacity:pitches":"50","caravans":"yes","description":"Autofreier Ferienplatz am Waginger See","dryer":"yes","email":"ferienpark@hainzamsee.de","internet_access":"wlan","mobile":"+49 160 95891048","name":"Camping \"Ferienpark Hainz am See\"","phone":"+49 8686 287","power_supply":"yes","shower":"yes","tents":"yes","washing_machine":"yes","website":"https://www.hainzamsee.de/"}},"692354322":{"location":[47.9289391,12.802141],"ct":"DE","tp":"CS","ts":"2023-10-30T14:31:11Z","tX":548,"tY":356,"tags":{"addr:city":"Petting","addr:country":"DE","addr:housenumber":"7","addr:postcode":"83367","addr:street":"Strandbadstraße","addr:suburb":"Kühnhausen","email":"office@camping-wagner.de","fax":"+49 8686 984476","name":"Campingplatz-Strandbad Wagner","phone":"+49 8686 984477","power_supply":"yes","tents":"yes","website":"https://www.camping-wagner.de/"}},"1097699659":{"location":[47.9281697,12.8027991],"ct":"DE","tp":"CS","ts":"2023-04-10T17:37:35Z","tX":548,"tY":356,"tags":{"addr:city":"Petting","addr:country":"DE","addr:housenumber":"11","addr:postcode":"83367","addr:street":"Strandbadstraße","addr:suburb":"Kühnhausen","caravans":"yes","description":"campsite also caravan and room 4 rent","email":"stadlerflo@web.de","internet_access":"wlan","mobile":"+49 160 1504550","name":"Camping-Stadler","phone":"+49 8686 8037","power_supply":"yes","shower":"yes","tents":"yes","toilets":"yes","website":"https://www.camping-stadler.de/"}},"1125453375":{"location":[47.9624644,12.7323204],"ct":"DE","tp":"CS","ts":"2023-10-30T14:31:40Z","tX":548,"tY":356,"tags":{"addr:city":"Taching am See","addr:country":"DE","addr:housenumber":"1","addr:postcode":"83373","addr:street":"Am Strandbad","caravans":"yes","dog":"yes","email":"info@seecamping-taching.de","fax":"+49 8681 4715 946","name":"Seecamping Taching","phone":"+49 8681 9548","power_supply":"yes","tents":"yes","website":"https://www.seecamping-taching.de/"}},"1218846767":{"location":[47.9162601,12.9043888],"ct":"DE","tp":"CS","ts":"2024-02-04T14:13:35Z","tX":548,"tY":356,"tags":{"name":"Camping Abtsee"}},"1346492286":{"location":[47.9136787,12.8108993],"ct":"DE","tp":"CR","ts":"2025-01-30T17:20:20Z","tX":548,"tY":356,"tags":{"addr:city":"Petting","addr:housenumber":"11a","addr:postcode":"83367","addr:street":"Seestraße","capacity":"8","caravan_site":"motorhome_stopover","caravan_site:type":"farm_shop","caravans":"yes","charge":"20 EUR","dog":"yes","dog:charge":"2 EUR","dog:fee":"yes","fee":"yes","name":"Wohnmobilstellplatz am Schneiderhof Petting","phone":"+49 08686 984725","power_supply":"yes","power_supply:charge":"0.80 EUR/KWh","power_supply:fee":"yes","reservation":"yes","sanitary_dump_station":"yes","website":"https://www.stellplatz-schneiderhof.de/"}},"2902508860":{"location":[47.8918485,12.7746317],"ct":"DE","tp":"CS","ts":"2014-06-06T09:29:49Z","tX":548,"tY":356,"tags":{"name":"Camping auf dem Bauernhof"}},"4089493713":{"location":[47.8428769,12.9889832],"ct":"DE","tp":"SD","ts":"2016-04-01T06:57:10Z","tX":548,"tY":356,"tags":{"fee":"no","name":"Entsorgung Toiletten","operator":"Klärwerk Freilassing","water_point":"no"}},"4089493715":{"location":[47.8428877,12.9899676],"ct":"DE","tp":"SD","ts":"2016-04-01T06:57:10Z","tX":548,"tY":356,"tags":{"fee":"no","operator":"Klärwerk Freilassing","water_point":"no"}},"4189465546":{"location":[47.7594673,12.7527429],"ct":"DE","tp":"CR","ts":"2019-03-29T04:09:22Z","tX":548,"tY":356,"tags":{"capacity":"4","fee":"yes","name":"Am Hausernhof","power_supply":"yes","sanitary_dump_station:chemical_toilet":"yes","sanitary_dump_station:grey_water":"no","tents":"no","water_point":"yes","website":"https://www.hausernhof.de/wohnmobilstellplatz-ferienwohnungen-inzell.htm"}},"5922768960":{"location":[47.9221985,12.9133612],"ct":"DE","tp":"CS","ts":"2024-04-01T06:14:08Z","tX":548,"tY":356,"tags":{"addr:city":"Laufen","addr:country":"DE","addr:housenumber":"44","addr:place":"Moosham","addr:postcode":"83410","caravans":"yes","drinking_water":"yes","email":"ferienhof-schauer@web.de","fax":"+49 8682 954862","name":"Frechn Hof - Ferienhof Schauer","phone":"+49 8682 7123","shower":"yes","survey:date":"2018-08-17","tents":"yes","website":"https://www.ferienhof-schauer.de/"}},"9954295077":{"location":[47.9435681,12.8218685],"ct":"DE","tp":"CS","ts":"2022-08-16T17:40:30Z","tX":548,"tY":356,"tags":{"address":"Pöllner 1, 83417 Kirchanschöring","caravans":"yes","name":"Naturcamping auf dem bauernhof","nudism":"no","operator":"Margit Spitz","phone":"+49 8685 314","tents":"yes","website":"https://naturcamping-bauernhof.de"}},"7325416773":{"location":[47.9334861,12.9382297],"ct":"DE","tp":"CR","ts":"2024-12-28T23:10:38Z","tX":548,"tY":356,"tags":{"capacity":"4","caravan_site":"motorhome_stopover","caravan_site:type":"parking_lot;river;town","fee":"no","maxstay":"48 hours","name":"Wohnmobilstellplatz Laufen","sanitary_dump_station":"no","website":"https://laufen.bayern/wohnmobilstellplatz.html"}},"7688396650":{"location":[47.9137064,12.810851],"ct":"DE","tp":"CR","ts":"2022-09-12T10:36:56Z","tX":548,"tY":356,"tags":{"addr:city":"Petting","addr:housenumber":"11a","addr:postcode":"83367","addr:street":"Seestraße","name":"Wohnmobilstellplatz am Schneiderhof","power_supply":"yes","sanitary_dump_station":"yes"}}}