{"27542613":{"location":[47.7427336,12.6648074],"ct":"DE","tp":"CS","ts":"2019-07-13T10:22:45Z","tX":548,"tY":357,"tags":{"addr:city":"Ruhpolding","addr:country":"DE","addr:housenumber":"5","addr:place":"Ort","addr:postcode":"83324","caravans":"yes","dog":"no","name":"Campingplatz Ortnerhof","phone":"+49 8663 1764","power_supply":"yes","source":"website","tents":"yes","toilets:wheelchair":"yes","website":"https://www.camping-ruhpolding.de/"}},"36326729":{"location":[47.7460044,12.8964207],"ct":"DE","tp":"CS","ts":"2024-12-28T17:07:17Z","tX":548,"tY":357,"tags":{"addr:city":"Bad Reichenhall","addr:country":"DE","addr:housenumber":"1","addr:postcode":"83451","addr:street":"Strailachweg","camp_site":"serviced","caravans":"yes","email":"Camping-Staufeneck@t-online.de","name":"Staufeneck","opening_hours":"Apr-Oct","operator":"Melanie Schön","phone":"+49 8651 2134","power_supply":"yes","source":"website","tents":"yes","website":"https://www.camping-staufeneck.de/","wikidata":"Q123226202"}},"36326786":{"location":[47.6766101,12.9354601],"ct":"DE","tp":"CS","ts":"2021-03-17T23:20:35Z","tX":548,"tY":357,"tags":{"addr:city":"Bischofswiesen","addr:country":"DE","addr:housenumber":"7","addr:postcode":"83483","addr:street":"Klaushäuslweg","caravans":"yes","email":"Camping-Winkl@t-online.de","fax":"+49 8652 979831","name":"Campingplatz Winkl-Landthal","opening_hours":"Jan 01-Oct 31,Dec 01-31","phone":"+49 8652 8164","source":"website","tents":"yes","website":"https://www.camping-winkl.de/"}},"169138470":{"location":[47.5951873,12.9863054],"ct":"DE","tp":"CS","ts":"2024-08-24T10:35:11Z","tX":548,"tY":357,"tags":{"addr:city":"Schönau am Königssee","addr:country":"DE","addr:housenumber":"71","addr:postcode":"83471","addr:street":"Königsseer Fußweg","caravans":"yes","drinking_water":"yes","email":"Camping-Grafenlehen@t-online.de","fax":"+49 8652 690768","name":"Grafenlehen","opening_hours":"Mo-Su 08:00-12:30; Mo-Su 13:30-20:00","phone":"+49 8652 6554488","power_supply":"yes","shower":"yes","tents":"yes","website":"https://www.camping-grafenlehen.de/"}},"174716692":{"location":[47.6000052,12.9890289],"ct":"DE","tp":"CS","ts":"2022-06-23T13:05:54Z","tX":548,"tY":357,"tags":{"addr:city":"Schönau am Königssee","addr:country":"DE","addr:housenumber":"70","addr:postcode":"83471","addr:street":"Königsseer Fußweg","caravans":"yes","dog":"yes","email":"info@camping-muehlleiten.de","fax":"+49 8652 69194","name":"Camping Mühlleiten","phone":"+49 8652 4584","power_supply":"yes","stars":"4","tents":"yes","website":"https://www.camping-muehlleiten.de/"}},"174787106":{"location":[47.6271084,12.8706851],"ct":"DE","tp":"CS","ts":"2023-05-09T19:02:30Z","tX":548,"tY":357,"tags":{"addr:city":"Ramsau b. Berchtesgaden","addr:country":"DE","addr:housenumber":"110","addr:postcode":"83486","addr:street":"Alte Reichenhaller Straße","caravans":"yes","dog":"yes","drinking_water":"yes","dryer":"yes","email":"info@camping-simonhof.de","fax":"+49 8657 983395","internet_access":"wlan","internet_access:fee":"no","kitchen":"yes","name":"Campingplatz Simonhof","payment:cash":"yes","payment:credit_cards":"no","phone":"+49 8657 284","power_supply":"yes","shower":"yes","tents":"yes","toilets":"yes","washing_machine":"yes","website":"https://www.camping-simonhof.de/"}},"180370694":{"location":[47.5749768,12.7078984],"ct":"AT","tp":"CS","ts":"2022-11-24T13:38:23Z","tX":548,"tY":357,"tags":{"access":"customers","addr:city":"St. Martin bei Lofer","addr:country":"AT","addr:housenumber":"39","addr:postcode":"5092","addr:street":"Grubhof","name":"Camping Grubhof","operator":"Stainer","phone":"+43 6588 8237 0","website":"https://www.grubhof.com/"}},"225329686":{"location":[47.7344606,12.8752989],"ct":"DE","tp":"CR","ts":"2023-11-04T17:07:20Z","tX":548,"tY":357,"tags":{"capacity":"25","fee":"yes","internet_access":"wlan","name":"Rupertus Therme","power_supply":"yes","sanitary_dump_station":"yes","water_point":"yes","website":"https://www.rupertustherme.de/de/wohnmobilpark/"}},"374744306":{"location":[47.5923381,12.9856769],"ct":"DE","tp":"CR","ts":"2025-04-04T01:37:34Z","tX":548,"tY":357,"tags":{"caravan_site":"motorhome_stopover","caravan_site:type":"parking_lot","caravans":"yes","charge":"25 EUR","charge:description":"10 EUR/8 hours","contact:website":"https://www.koenigssee.de/parkplaetze-tarife","fee":"yes","maxstay":"48 hours","name":"Wohnmobilstellplatz Großparkplatz Königssee","ref":"P2","sanitary_dump_station":"yes","toilets":"yes","water_point":"yes"}},"1133533814":{"location":[47.5278486,12.7417916],"ct":"AT","tp":"CS","ts":"2023-11-06T08:12:09Z","tX":548,"tY":357,"tags":{"area":"yes","caravans":"no","description":"Barrierefreier Jugend- und Familienzeltplatz","ele":"674","name":"OEAV Campingplatz \"Ferienwiese\"","website":"https://www.alpenverein.at/jugend/freizeit/ferienwiese"}},"1313225851":{"location":[47.5931746,12.986301],"ct":"DE","tp":"SD","ts":"2024-09-04T12:00:10Z","tX":548,"tY":357,"tags":{"access":"yes","network":"Camperclean"}},"9215608227":{"location":[47.5928868,12.9854161],"ct":"DE","tp":"CR","ts":"2021-11-01T07:31:43Z","tX":548,"tY":357,"tags":{"fee":"yes"}},"7737655228":{"location":[47.594948,12.9861808],"ct":"DE","tp":"SD","ts":"2020-07-29T13:34:06Z","tX":548,"tY":357,"tags":{"access":"yes","description":"Entsorgungsstation mit Frischwasser Versorgung Kosten 1€ ca. 80 ltr. 10 Cent ca. 8-10 Ltr.","fee":"no","name":"Holiday Clean","operator":"Camping Grafenlehen","water_point":"yes"}}}