{"6757936":{"location":[47.2819157,12.8143499],"ct":"AT","tp":"CS","ts":"2023-12-29T19:52:14Z","tX":548,"tY":358,"tags":{"addr:city":"Bruck an der Großglocknerstraße","addr:housenumber":"40","addr:postcode":"5671","addr:street":"Krössenbachstraße","camp_site":"deluxe","caravans":"yes","contact:email":"info@sportcamp.at","drinking_water":"yes","fee":"yes","landuse":"camp_site","name":"Sportcamp Woferlgut","operator":"Sportcamp Woferlgut GmbH & Co. KG","phone":"+43 6545 730 30","power_supply":"yes","restaurant":"yes","sauna":"yes","shower":"yes","spa":"yes","stars":"4","static_caravans":"yes","swimming_pool":"yes","tents":"yes","toilets":"yes","website":"https://www.sportcamp.at/"}},"7332923":{"location":[47.3649815,12.7629095],"ct":"AT","tp":"CS","ts":"2023-12-12T16:43:54Z","tX":548,"tY":358,"tags":{"addr:city":"Viehhofen","addr:housenumber":"52","addr:postcode":"5752","addr:street":"Glemmerstraße","caravans":"yes","fee":"yes","name":"Campingplatz Glemmerhof","operator":"Familie Ronacher","phone":"+43 6542 68576","shower":"yes","tents":"yes","toilets":"yes","website":"https://www.glemmerhof.at/"}},"137085625":{"location":[47.3775901,12.7954262],"ct":"AT","tp":"CS","ts":"2024-06-12T06:52:13Z","tX":548,"tY":358,"tags":{"access":"private","addr:city":"Maishofen","addr:housenumber":"56","addr:postcode":"5751","addr:street":"Neunbrunnen","capacity:persons":"60","caravans":"yes","drinking_water":"yes","email":"info@camping-neunbrunnen.at","fee":"yes","name":"Campingplatz Bad Neunbrunnen","note":"Unser Campingplatz hat für Urlaubsgäste geschlossen.  Für Saison- und Dauercamper ist weiterhin geöffnet.  Wir bedanken uns recht herzlich für die Sommersaison!  Reservierungsanfragen für kommenden Sommer sind ab 1.1.2024 möglich.  Wir würden uns freuen S","opening_date":"2024-05-18","operator":"Familie Fahrnberger","phone":"+43 6542 68548","power_supply":"no","shower":"yes","tents":"yes","toilets":"yes","website":"https://www.camping-neunbrunnen.at/"}},"189098570":{"location":[47.3017363,12.8153262],"ct":"AT","tp":"CS","ts":"2024-10-16T17:09:41Z","tX":548,"tY":358,"tags":{"addr:city":"Zell am See","addr:housenumber":"196","addr:postcode":"5700","addr:street":"Seeuferstraße","caravan":"yes","caravans":"yes","contact:email":"info@panoramacamp.at","contact:phone":"+43 6542 - 56228","drinking_water":"yes","fee":"yes","name":"Panorama Camp","operator":"Familie Josef Bründlinger","power_supply":"yes","sanitary_dump_station":"yes","shower":"yes","source":"geoimage.at","tents":"yes","toilets":"yes","website":"https://www.panoramacamp.at/"}},"256676521":{"location":[47.3394483,12.8104168],"ct":"AT","tp":"CS","ts":"2024-09-23T12:23:43Z","tX":548,"tY":358,"tags":{"addr:city":"Zell am See","addr:country":"AT","addr:housename":"Seecamp","addr:housenumber":"34","addr:postcode":"5700","addr:street":"Thumersbacherstraße","caravans":"yes","check_date":"2024-03-26","drinking_water":"yes","name":"Seecamp","note":"https://www.seecamp.at/de/restaurant/kontaktoeffnungszeiten/","phone":"+43 6542 72115","shower":"yes","tents":"yes","website":"https://www.seecamp.at/"}},"488156722":{"location":[47.3008947,12.9454225],"ct":"AT","tp":"CS","ts":"2017-01-22T14:01:56Z","tX":548,"tY":358,"tags":{"name":"Oberhasenberghof","name:nl":"svr camping nr 8","website":"http://www.oberhasenberghof.at"}},"1186692389":{"location":[47.4369506,12.7697824],"ct":"AT","tp":"CR","ts":"2023-11-10T04:53:33Z","tX":548,"tY":358,"tags":{"capacity":"6","fee":"70 EUR","internet_access":"wlan","name":"Camperplatzl","operator":"Familie Bettina & Michael Millauer","power_supply":"yes","reservation":"required","sanitary_dump_station":"customers","tents":"yes","website":"https://www.wohnmobilstellplatz-leogang.com/"}},"1900379778":{"location":[47.4082011,12.8740462],"ct":"AT","tp":"CR","ts":"2012-09-05T12:35:47Z","tX":548,"tY":358,"tags":{}},"11008622451":{"location":[47.4175126,12.877458],"ct":"AT","tp":"CS","ts":"2023-06-26T19:23:40Z","tX":548,"tY":358,"tags":{"addr:housenumber":"26","addr:street":"Ramseiden","name":"Theurerhof","phone":"+436644339199","website":"gasthof-saalfelden at"}},"5480855223":{"location":[47.4169445,12.8772665],"ct":"AT","tp":"CR","ts":"2018-05-06T09:45:52Z","tX":548,"tY":358,"tags":{"name":"Theurerhof","website":"http://www.theurerhof.at"}},"10013274126":{"location":[47.4497411,12.8310695],"ct":"AT","tp":"CR","ts":"2022-09-10T13:16:03Z","tX":548,"tY":358,"tags":{"name":"Obergründbichlgut"}},"10013331917":{"location":[47.4519288,12.832772],"ct":"AT","tp":"CR","ts":"2024-07-12T16:08:20Z","tX":548,"tY":358,"tags":{"charge":"18 EUR/night","fee":"yes","name":"Stellplatz am Steinernen Meer","sanitary_dump_station":"yes"}}}