{"113211607":{"location":[47.2649407,12.7469447],"ct":"AT","tp":"CS","ts":"2017-06-13T20:30:22Z","tX":548,"tY":359,"tags":{"name":"Camping zur Mühle","phone":"+43 6547 8254","website":"http://www.campkaprun.at"}},"144931139":{"location":[47.1975029,12.9775146],"ct":"AT","tp":"CS","ts":"2023-08-14T11:21:50Z","tX":548,"tY":359,"tags":{"area":"yes","caravans":"yes","contact:email":"camping@andrelwirt.at","drinking_water":"yes","name":"Nationalpark Camping Andrelwirt","phone":"+4365446411","power_supply":"yes","shower":"yes","tents":"yes","toilets":"yes","website":"https://www.campingplatz-salzburg.com/"}},"432768838":{"location":[47.2239768,12.8270566],"ct":"AT","tp":"CS","ts":"2023-09-26T06:15:26Z","tX":548,"tY":359,"tags":{"addr:city":"Taxenbacher-Fusch","addr:country":"AT","addr:housenumber":"z15","addr:postcode":"5672","addr:street":"Großglockner Hochalpenstraße","caravans":"yes","drinking_water":"yes","email":"hotel@lampenhaeusl.at","fee":"yes","lastcheck":"2016-07-23","name":"Lampenhäusl Camping","operator":"Hotel Lampenhäusl GmbH & Co KG","phone":"+43 6546 2150","power_supply":"yes","shower":"yes","tents":"yes","toilets":"yes","website":"https://www.lampenhaeusl.at/"}},"1706201585":{"location":[47.2646964,12.7468302],"ct":"AT","tp":"CR","ts":"2018-08-22T15:35:41Z","tX":548,"tY":359,"tags":{"fee":"yes","internet_access":"wlan","name":"Camping zur Mühle","website":"http://www.campkaprun.at"}}}