{"158802655":{"location":[46.8225282,12.7715336],"ct":"AT","tp":"CS","ts":"2023-11-04T01:38:44Z","tX":548,"tY":360,"tags":{"addr:city":"Lienz","addr:housenumber":"7","addr:postcode":"9900","addr:street":"Falkenweg","caravans":"yes","check_date":"2023-04-08","dog":"yes","drinking_water":"yes","email":"camping.falken@tirol.com","fee":"yes","internet_access":"wlan","internet_access:fee":"no","name":"Comfort Camping Falken","operator":"Paul Falkner","payment:cards":"no","payment:cash":"yes","payment:credit_cards":"no","payment:debit_cards":"no","phone":"+43 664 4107973","power_supply":"yes","shower":"yes","tents":"yes","toilets":"yes","website":"https://www.camping-falken.com/","wheelchair":"yes"}},"173469227":{"location":[46.9085187,12.9116065],"ct":"AT","tp":"CS","ts":"2023-11-04T01:38:31Z","tX":548,"tY":360,"tags":{"name":"Camping Lindlerhof","website":"https://www.lindlerhof.at/"}},"173470457":{"location":[46.8066196,12.8022166],"ct":"AT","tp":"CS","ts":"2022-09-30T16:28:58Z","tX":548,"tY":360,"tags":{"addr:city":"Tristach","addr:housenumber":"1","addr:postcode":"9907","addr:street":"Seewiesenweg","caravans":"yes","email":"seewiese@outlook.com","fee":"yes","internet_access":"wlan","internet_access:fee":"no","name":"Camping Seewiese","operator":"Camping Seewiese OG","phone":"+43 4852 69767","shower":"yes","source":"geoimage.at","tents":"yes","toilets":"yes","website":"http://www.campingtirol.com"}},"179438034":{"location":[46.8127399,12.7643884],"ct":"AT","tp":"CS","ts":"2024-01-13T20:41:37Z","tX":548,"tY":360,"tags":{"addr:city":"Amlach","addr:housenumber":"20","addr:postcode":"9908","addr:street":"Seestraße","caravans":"yes","email":"info@amlacherhof.at","fee":"yes","internet_access":"wlan","internet_access:fee":"yes","name":"Dolomiten Camping Amlacherhof","phone":"+43 4852 62317;+43 699 17623171","power_supply":"yes","shower":"yes","tents":"yes","toilets":"yes","washing_machine":"yes","website":"https://www.amlacherhof.at/de/camping/services-einrichtungen"}},"227297998":{"location":[47.0225519,12.8615437],"ct":"AT","tp":"CS","ts":"2024-07-05T19:13:58Z","tX":548,"tY":360,"tags":{"addr:city":"Heiligenblut am Großglockner","addr:housenumber":"30","addr:postcode":"9844","addr:street":"Pockhorn","email":"lorenz_schmidl@rbgkraiffeisen.at","name":"Möllfluss Camping","operator":"Familie Schmidl","phone":"+43 4824 2129","source":"geoimage.at MaxRes;https://www.tauernhoehenwege.org/dql/huetten/index.php?id=34"}},"227319354":{"location":[47.037406,12.8386163],"ct":"AT","tp":"SD","ts":"2019-02-06T13:10:19Z","tX":548,"tY":360,"tags":{"addr:city":"Heiligenblut am Großglockner","addr:country":"AT","addr:housenumber":"15","addr:postcode":"9844","addr:street":"Hadergasse","building":"yes","source":"geoimage.at MaxRes"}},"227319364":{"location":[47.0369065,12.8390265],"ct":"AT","tp":"CS","ts":"2023-10-31T15:46:47Z","tX":548,"tY":360,"tags":{"caravans":"yes","drinking_water":"yes","email":"nationalpark-camping@heiligenblut.at","fee":"yes","internet_access":"wlan","internet_access:fee":"no","internet_access:ssid":"Camping Fleissner","name":"Nationalpark Camping Großglockner","name:fr":"Camping du Parc National Großglockner","phone":"+43 4824 2048","power_supply":"yes","sanitary_dump_station":"customers","shower":"yes","tents":"yes","toilets":"yes","website":"https://www.nationalpark-camping.at/de/"}},"528385504":{"location":[46.8703669,12.6789312],"ct":"AT","tp":"CS","ts":"2023-08-29T19:00:35Z","tX":548,"tY":360,"tags":{"addr:city":"Ainet","addr:country":"AT","addr:housenumber":"108b","addr:postcode":"9951","addr:street":"Schlaitnerstraße","capacity":"100","caravans":"yes","email":"info@ota.at","fee":"yes","internet_access":"wlan","internet_access:fee":"no","mobile":"+43664 35 60 450","name":"Camping Adventurepark Osttirol","operator":"Adventurepark Osttirol","phone":"+43 4853 200 30","shower":"yes","tents":"yes","toilets":"yes","was:addr:place":"Ainet","website":"https://www.ota.at/de/camp-2/campingplatz"}},"7918131523":{"location":[47.0370184,12.8392171],"ct":"AT","tp":"SD","ts":"2020-09-17T19:46:05Z","tX":548,"tY":360,"tags":{"access":"customers","sanitary_dump_station:basin":"yes","sanitary_dump_station:round_drain":"yes"}}}