{"2015439":{"location":[45.591959,12.8686466],"ct":"IT","tp":"CS","ts":"2024-09-30T09:20:10Z","tX":548,"tY":365,"tags":{"addr:city":"Caorle","addr:housenumber":"10","addr:postcode":"30021","addr:street":"Via Duca degli Abruzzi","caravans":"yes","email":"info@campingcaorle.it","fee":"yes","motorhome":"yes","name":"Campeggio Santa Margherita","operator":"Azienda Speciale Don Moschetta","phone":"+39 0421 81276","power_supply":"yes","power_supply:maxcurrent":"10","ref:vatin":"IT04053410272","socket:cee_blue":"yes","tents":"yes","website":"https://www.campingcaorle.it/"}},"6234113":{"location":[45.6059597,12.8848391],"ct":"IT","tp":"CR","ts":"2024-09-29T20:03:22Z","tX":548,"tY":365,"tags":{"addr:city":"Caorle","addr:housenumber":"1","addr:postcode":"30021","addr:street":"Viale Aldo Moro","capacity:caravans":"70","dog":"yes","internet_access":"wlan","internet_access:fee":"customers","name":"Ai Parchi","power_supply":"yes","power_supply:maxcurrent":"4.5","sanitary_dump_station":"yes","socket:cee_blue":"yes","tents":"no","website":"https://www.campercaorle.it/"}},"10003392":{"location":[45.6155076,12.9044284],"ct":"IT","tp":"CS","ts":"2024-09-30T17:15:27Z","tX":548,"tY":365,"tags":{"addr:housenumber":"28","addr:street":"Viale dei Cacciatori","caravans":"yes","dog":"yes","fee":"yes","motorhome":"yes","name":"Village Laguna","power_supply":"yes","power_supply:maxcurrent":"6","socket:cee_blue":"yes","tents":"yes","website":"https://www.campinglagunavillage.com/"}},"12823403":{"location":[45.6163293,12.9071634],"ct":"IT","tp":"CS","ts":"2024-09-30T20:40:06Z","tX":548,"tY":365,"tags":{"addr:housenumber":"28","addr:street":"Via dei Cacciatori","caravans":"yes","leisure":"camping","motorhome":"yes","name":"Camping Village Laguna","phone":"+39 0421 210165","tents":"yes"}},"26515971":{"location":[45.6303741,13.001294],"ct":"IT","tp":"CS","ts":"2024-10-01T11:53:00Z","tX":548,"tY":365,"tags":{"addr:housenumber":"115","addr:street":"Viale dei Ginepri","cabins":"yes","caravans":"yes","internet_access":"wlan","internet_access:fee":"customers","name":"Camping Lido","note":"Landsat will be inaccurate","power_supply":"yes","power_supply:maxcurrent":"6","socket:cee_blue":"yes","stars":"3","tents":"yes","toilets:wheelchair":"yes","website":"https://www.campinglido.com","wheelchair":"yes"}},"185672453":{"location":[45.6282803,12.9954538],"ct":"IT","tp":"SD","ts":"2022-08-20T11:54:31Z","tX":548,"tY":365,"tags":{"building":"hut"}},"196818812":{"location":[45.6289698,12.9896994],"ct":"IT","tp":"CS","ts":"2024-10-01T11:53:00Z","tX":548,"tY":365,"tags":{"addr:city":"Bibione","addr:country":"IT","addr:housenumber":"16","addr:postcode":"30028","addr:province":"Venezia","addr:state":"Italia","addr:street":"Viale della Laguna","capacity:caravans":"744","caravans":"yes","contact:email":"capalonga@bibionemare.com","contact:facebook":"https://m.facebook.com/campingcapalonga/","fax":"+39 0431 438986","fee":"yes","motorhome":"yes","name":"Capalonga","nudism":"no","phone":"+39 0431 438351","power_supply":"yes","power_supply:maxcurrent":"10","socket:cee_blue":"yes","tents":"yes","website":"https://www.capalonga.com","wheelchair":"yes"}},"399112939":{"location":[45.6237535,12.9553332],"ct":"IT","tp":"CR","ts":"2024-05-07T13:29:34Z","tX":548,"tY":365,"tags":{"charge":"12,00 â‚¬/24h","drinking_water":"yes","fee":"yes","internet_access":"no","name":"Vallevecchia","power_supply":"no","sanitary_dump_station":"no","shower":"yes","tents":"no","toilets":"yes","wheelchair":"yes"}},"952330206":{"location":[45.6161732,12.9088541],"ct":"IT","tp":"CS","ts":"2024-09-30T20:40:06Z","tX":548,"tY":365,"tags":{"addr:housenumber":"4","addr:street":"Via dei Casoni","cabins":"yes","caravans":"yes","dog":"yes","drinking_water":"yes","fee":"yes","motorhome":"yes","name":"Camping Falconera","phone":"+39 0421 84282","power_supply":"yes","power_supply:maxcurrent":"y","reservation":"yes","sanitary_dump_station":"yes","shower":"yes","socket:cee_blue":"yes","stars":"2","tents":"yes","toilets":"yes","website":"https://www.campeggiofalconera.com/"}},"1088142152":{"location":[45.6275099,12.9923127],"ct":"IT","tp":"SD","ts":"2022-08-22T12:11:06Z","tX":548,"tY":365,"tags":{"building":"hut"}},"1329694327":{"location":[45.8039737,12.8883328],"ct":"IT","tp":"CR","ts":"2024-10-31T18:48:21Z","tX":548,"tY":365,"tags":{}},"11264813469":{"location":[45.6143935,12.9043579],"ct":"IT","tp":"CS","ts":"2024-09-30T20:33:18Z","tX":548,"tY":365,"tags":{"addr:housenumber":"4","addr:street":"Viale dei Cacciatori","cabins":"yes","caravans":"yes","drinking_water":"yes","email":"info@villaggiosole.it","fee":"yes","name":"Sole","phone":"+39 0421 81908","power_supply":"yes","shower":"yes","socket:cee_blue":"yes","static_caravans":"yes","survey:date":"2023-10-15","tents":"yes","toilets":"yes","website":"https://www.villaggiosole.it/","wheelchair":"yes"}},"6765125860":{"location":[45.7816535,12.9930247],"ct":"IT","tp":"SD","ts":"2022-11-02T23:03:47Z","tX":548,"tY":365,"tags":{"access":"yes","fee":"no","opening_hours":"24/7","sanitary_dump_station:basin":"yes","sanitary_dump_station:round_drain":"yes","water_point":"yes","website":"https://www.turismofvg.it/rnode/28661?UrlBack=aHR0cHM6Ly93d3cudHVyaXNtb2Z2Zy5pdC9QT0kvTWFwP0ZpbHRlcj0yMzcwI0ZpbHRlcj0yMzcwJlBhZ2VyU3RhcnRJbmRleD0w"}},"12302215514":{"location":[45.8039992,12.8885405],"ct":"IT","tp":"SD","ts":"2024-10-31T18:48:21Z","tX":548,"tY":365,"tags":{}},"12302215515":{"location":[45.8039626,12.8884723],"ct":"IT","tp":"SD","ts":"2024-10-31T18:48:21Z","tX":548,"tY":365,"tags":{}},"12302215516":{"location":[45.8039279,12.8884105],"ct":"IT","tp":"SD","ts":"2024-10-31T18:48:21Z","tX":548,"tY":365,"tags":{}},"12302215517":{"location":[45.8038952,12.8883408],"ct":"IT","tp":"SD","ts":"2024-10-31T18:48:21Z","tX":548,"tY":365,"tags":{}}}