{"4990928":{"location":[45.5647946,12.7957454],"ct":"IT","tp":"CS","ts":"2024-09-29T19:20:50Z","tX":548,"tY":366,"tags":{"access":"private","addr:housenumber":"1","addr:street":"Via Selva Rosata","caravans":"yes","dog":"yes","motorhome":"yes","name":"San Francesco","official_name":"Centro Vacanze Villagio San Francesco","opening_hours":"Mo-Su 07:00-13:00, 15:00-00:00","power_supply":"yes","power_supply:maxcurrent":"10","stars":"5","tents":"yes"}},"9713541":{"location":[45.5736723,12.8032865],"ct":"IT","tp":"CS","ts":"2024-09-30T09:17:52Z","tX":548,"tY":366,"tags":{"addr:city":"Caorle","addr:country":"IT","addr:housenumber":"6","addr:postcode":"30021","addr:street":"Via Selva Rosata","alt_name":"Green Camping Altanea","capacity:caravans":"100","caravans":"yes","dog":"yes","email":"info@campingaltanea.it","fee":"yes","name":"Camping Altanea","nudism":"no","power_supply":"yes","power_supply:maxcurrent":"6","stars":"3","tents":"yes","website":"https://www.campingaltanea.it"}},"9713544":{"location":[45.5528879,12.7701635],"ct":"IT","tp":"CS","ts":"2024-09-29T19:17:20Z","tX":548,"tY":366,"tags":{"addr:city":"Eraclea","addr:country":"IT","addr:housenumber":"15","addr:postcode":"30020","addr:street":"Viale dei Fiori","caravans":"yes","email":"info@portofelice.it","fee":"yes","internet_access":"wlan","motorhome":"yes","name":"Portofelice Camping Village","phone":"+39 0421 66411","power_supply":"yes","power_supply:maxcurrent":"8","website":"https://www.portofelice.it"}},"16882490":{"location":[45.5274264,12.6970611],"ct":"IT","tp":"CS","ts":"2024-09-29T19:00:47Z","tX":548,"tY":366,"tags":{"addr:city":"Jesolo","addr:hamlet":"Lido di Jesolo","addr:postcode":"30016","addr:street":"Via Adria","caravans":"yes","contact:facebook":"https://www.facebook.com/CampingParcoCapraro","contact:instagram":"https://instagram.com/campingparcocapraro","email":"info@parcocapraro.it","fee":"yes","motorhome":"yes","name":"Parco Capraro","phone":"+39 0421 961073","power_supply":"yes","power_supply:maxcurrent":"8","socket:cee_blue":"yes","stars":"3","static_caravans":"yes","tents":"yes","website":"https://www.parcocapraro.it"}},"117641619":{"location":[45.5716589,12.8152393],"ct":"IT","tp":"CS","ts":"2024-09-29T19:30:37Z","tX":548,"tY":366,"tags":{"addr:city":"Caorle","addr:country":"IT","addr:housenumber":"201","addr:postcode":"30021","addr:street":"Viale Altanea","caravans":"yes","fee":"yes","internet_access":"wlan","name":"Camping Pra' delle Torri","phone":"+39 0421 299445","power_supply":"yes","power_supply:maxcurrent":"6","shower":"yes","socket:cee_blue":"yew","tents":"yes","website":"https://www.pradelletorri.it","wheelchair":"yes"}},"142776014":{"location":[45.528315,12.7204413],"ct":"IT","tp":"CS","ts":"2024-01-03T08:28:52Z","tX":548,"tY":366,"tags":{"addr:housenumber":"144","addr:street":"Viale Oriente","contact:website":"https://www.jesolocampingvillage.com","description":"Bonus Vacanze 2020","drinking_water":"yes","email":"jesolocampingvillage@clubdelsole.com","name":"Jesolo Mare Camping Village","old_name":"Adriatico","phone":"+39 0421 961085","power_supply":"yes","shower":"yes","toilets":"yes"}},"184131602":{"location":[45.5289576,12.701692],"ct":"IT","tp":"CS","ts":"2024-07-27T23:11:53Z","tX":548,"tY":366,"tags":{"addr:housenumber":"132","addr:street":"Via Correr","caravans":"yes","drinking_water":"yes","email":"parcocignobianco@libero.it","name":"Cigno Bianco","phone":"+39 0421 961655","shower":"yes","tents":"yes","website":"http://www.campingcignobianco.com"}},"238787799":{"location":[45.5305656,12.7228817],"ct":"IT","tp":"CS","ts":"2024-09-29T19:12:18Z","tX":548,"tY":366,"tags":{"addr:city":"Jesolo","addr:country":"IT","addr:hamlet":"Lido di Jesolo","addr:housenumber":"144","addr:postcode":"30016","addr:province":"Venezia","addr:street":"Viale Oriente","caravans":"yes","contact:email":"info@campingwaikiki.com","contact:phone":"+39 0421 980186","drinking_water":"yes","fee":"yes","internet_access":"wlan","motorhome":"yes","name":"Village Waikiki","power_supply":"yes","power_supply:maxcurrent":"10","shower":"yes","socket:cee_blue":"yes","stars":"4","tents":"no","toilets":"yes","website":"http://www.campingweikiki.com"}},"288160898":{"location":[45.5771367,12.8279907],"ct":"IT","tp":"CS","ts":"2023-08-15T18:51:06Z","tX":548,"tY":366,"tags":{"addr:city":"Caorle Lido Altanea","addr:country":"IT","addr:housenumber":"18","addr:postcode":"30021","addr:street":"Viale dei Cigni","bbq":"yes","cabins":"yes","camp_site":"deluxe","caravans":"yes","email":"info@marelago.it","fax":"+39 0421 299 519","hot_water":"yes","internet_access":"wlan","motor_vehicle":"yes","name":"Camping Marelago","nudism":"no","official_name":"Camping Marelago di GIOVE S.p.A.","phone":"+39 0421 299 025","reservation":"recommended","shower":"yes","stars":"3","static_caravans":"yes","tents":"yes","toilets":"yes","washing_machine":"yes","waste_disposal":"yes","website":"https://www.marelago.it"}},"622411922":{"location":[45.5228664,12.6884651],"ct":"IT","tp":"CR","ts":"2024-06-24T12:18:05Z","tX":548,"tY":366,"tags":{"addr:city":"Jesolo","addr:hamlet":"Jesolo Pineta","addr:housenumber":"28","addr:postcode":"30016","addr:street":"Via Don Giovanni Bosco","contact:email":"jesolocamper@libero.it","contact:mobile":"+39 338 223 1462","contact:phone":"+39 0421 363679","contact:website":"http://www.jesolocamper.it/","fee":"yes","name":"Don Bosco","stars":"1"}},"1090260073":{"location":[45.5508316,12.7612229],"ct":"IT","tp":"CR","ts":"2024-06-20T01:20:39Z","tX":548,"tY":366,"tags":{"charge":"12,00 â‚¬/h","drinking_water":"yes","fee":"00:00-24:00","name":"Park Fiori","power_supply":"no","sanitary_dump_station":"customers","toilets":"yes","wheelchair":"yes"}},"1226741128":{"location":[45.525435,12.6905279],"ct":"IT","tp":"CS","ts":"2024-09-29T18:41:46Z","tX":548,"tY":366,"tags":{"addr:housenumber":"102A","addr:street":"Via Corer","caravans":"yes","drinking_water":"yes","fee":"yes","motorhome":"yes","name":"Area sosta camping Albatros","phone":"+39 3923332200","power_supply":"yes","power_supply:maxcurrent":"3","sanitary_dump_station":"yes","socket:cee_blue":"yes","website":"https://campingalbatros.it/#:~:text=Area%20sosta%20Camper%20Jesolo.%20Jesolo.%20Dalla%20passione%20per%20il%20turismo"}},"1234542545":{"location":[45.5225464,12.6872991],"ct":"IT","tp":"CR","ts":"2024-06-24T12:18:05Z","tX":548,"tY":366,"tags":{"fee":"yes","internet_access":"wlan","name":"Area Sosta Camper dei Dogi","power_supply":"yes","website":"https://campingparkdeidogi.com/"}},"1234723120":{"location":[45.5233368,12.6921085],"ct":"IT","tp":"CS","ts":"2024-01-06T10:52:20Z","tX":548,"tY":366,"tags":{"addr:city":"Jesolo","addr:country":"IT","addr:hamlet":"Jesolo Pineta","addr:housenumber":"13","addr:postcode":"30016","addr:street":"Via Vettor Pisani","email":"jesolocamper@libero.it","mobile":"+39 338 223 1462","name":"BoscoPineta","phone":"+39 0421 363679","sanitary_dump_station":"yes","stars":"1","website":"http://www.jesolocamper.it/"}},"1236243249":{"location":[45.5196878,12.6878235],"ct":"IT","tp":"CS","ts":"2024-01-08T07:54:55Z","tX":548,"tY":366,"tags":{"addr:city":"Jesolo","addr:hamlet":"Lido di Jesolo","addr:housenumber":"44","addr:postcode":"30016","addr:street":"Viale Oriente","dog":"no","drinking_water":"yes","email":"info@villaggiomarzotto.it","fax":"+39 0421 363098","name":"Villaggio Marzotto","phone":"+39 0421 961068","power_supply":"yes","shower":"yes","toilets":"yes","website":"https://villaggiomarzotto.it/"}},"1236351854":{"location":[45.523081,12.7002073],"ct":"IT","tp":"CS","ts":"2024-08-14T14:44:33Z","tX":548,"tY":366,"tags":{"addr:city":"Jesolo","addr:housenumber":"78","addr:postcode":"30016","addr:street":"Viale Oriente","drinking_water":"yes","internet_access":"wlan","name":"Malibu Beach","phone":"+39 0421 362212","power_supply":"yes","shower":"yes","stars":"4","toilets":"yes","website":"https://campingmalibubeach.com/"}},"5879196984":{"location":[45.5232541,12.686798],"ct":"IT","tp":"SD","ts":"2023-12-27T07:00:34Z","tX":548,"tY":366,"tags":{}},"5879198685":{"location":[45.5217328,12.688448],"ct":"IT","tp":"SD","ts":"2023-12-27T07:00:34Z","tX":548,"tY":366,"tags":{}},"9986250862":{"location":[45.5508088,12.7606929],"ct":"IT","tp":"SD","ts":"2023-07-28T18:44:07Z","tX":548,"tY":366,"tags":{}},"11457304712":{"location":[45.5250251,12.6969921],"ct":"IT","tp":"SD","ts":"2023-12-26T20:09:09Z","tX":548,"tY":366,"tags":{}},"11457304727":{"location":[45.5287223,12.6962598],"ct":"IT","tp":"SD","ts":"2023-12-26T20:09:09Z","tX":548,"tY":366,"tags":{}}}