{"374598068":{"location":[43.3556782,12.7675347],"ct":"IT","tp":"CS","ts":"2015-10-10T19:42:04Z","tX":548,"tY":374,"tags":{"name":"area sosta camper"}},"696241986":{"location":[43.3503029,12.6839545],"ct":"IT","tp":"CS","ts":"2024-08-10T16:46:34Z","tX":548,"tY":374,"tags":{"caravans":"yes","name":"Rio Verde","tents":"yes","website":"https://www.campingrioverde.it/"}},"1139022483":{"location":[43.5149473,12.7368514],"ct":"IT","tp":"CS","ts":"2023-04-29T16:30:05Z","tX":548,"tY":374,"tags":{"addr:city":"Frontone","addr:postcode":"61040","addr:street":"Via Cinisco","caravans":"yes","email":"erica.casadei@virgilio.it","name":"Il Cinisco","phone":"+393294910202","shower":"yes","tents":"yes","toilets":"yes","website":"https://ilcinisco.it/"}},"1282921809":{"location":[43.4313852,12.8541002],"ct":"IT","tp":"CR","ts":"2024-09-14T20:57:53Z","tX":548,"tY":374,"tags":{"fee":"no","name":"Area Camper Sassoferrato"}},"1288986166":{"location":[43.4226755,12.8515526],"ct":"IT","tp":"CS","ts":"2024-09-14T21:04:07Z","tX":548,"tY":374,"tags":{"addr:housenumber":"3","addr:street":"Via Sentinate","caravans":"yes","fee":"yes","name":"Area Camper Sentinum","operator":"Agriturismo Antico Muro","power_supply":"yes","shower":"yee","socket:cee_blue":"yes","tents":"yes","toilets":"yes","website":"https://www.agriturismoanticomuro.it/"}},"1315594365":{"location":[43.5421967,12.8853347],"ct":"IT","tp":"CS","ts":"2024-09-14T22:25:54Z","tX":548,"tY":374,"tags":{"addr:city":"Arcevia","addr:housenumber":"54","addr:postcode":"60011","addr:street":"Frazione Caudino","caravans":"yes","fee":"yes","internet_access":"wlan","internet_access:fee":"no","motorhome":"yes","name":"Camping Sensazione","power_supply":"yes","power_supply:maxcurrent":"4","socket:cee_blue":"yes","tents":"yes","website":"https://campingsensazione.com/"}},"3781944957":{"location":[43.4915988,12.7710843],"ct":"IT","tp":"SD","ts":"2015-10-11T12:10:01Z","tX":548,"tY":374,"tags":{}},"3782216476":{"location":[43.4044753,12.9768222],"ct":"IT","tp":"CR","ts":"2023-08-21T14:49:05Z","tX":548,"tY":374,"tags":{"capacity":"6","email":"grotte@frasassi.com","fee":"no","internet_access":"no","maxstay":"48 hours","name":"Area Sosta Genga","opening_hours":"Jan-Dec","permanent_camping":"no","phone":"+39 0732 90090","power_supply":"yes","sanitary_dump_station":"yes","toilets":"yes","water_point":"yes"}},"6538203600":{"location":[43.3493905,12.6832317],"ct":"IT","tp":"SD","ts":"2019-06-10T20:26:31Z","tX":548,"tY":374,"tags":{}},"11904641845":{"location":[43.431303,12.8542289],"ct":"IT","tp":"SD","ts":"2024-11-06T03:00:05Z","tX":548,"tY":374,"tags":{"fee":"no"}}}