{"387585491":{"location":[43.1803885,12.9742722],"ct":"IT","tp":"CR","ts":"2017-03-31T12:36:00Z","tX":548,"tY":375,"tags":{"fee":"yes","name":"Il Buchetto","operator":"Comune di Pioraco"}},"387585493":{"location":[43.1833675,12.9349127],"ct":"IT","tp":"CR","ts":"2020-12-07T21:50:29Z","tX":548,"tY":375,"tags":{"capacity":"15","fee":"yes","maxstay":"72 hours","name":"Al Ponte","sanitary_dump_station":"yes","toilets":"yes","water_point":"yes"}},"835411954":{"location":[43.2600076,12.8144773],"ct":"IT","tp":"CS","ts":"2023-05-07T16:50:29Z","tX":548,"tY":375,"tags":{"addr:city":"Gualdo Tadino","addr:postcode":"06023","addr:street":"Strada Provinciale di Valsorda","bar":"yes","bbq":"yes","contact:facebook":"https://www.facebook.com/campingvalsorda/","fee":"yes","leisure":"playground","name":"Camping Valsorda","phone":"+39 075 913261","picnic_table":"yes","restaurant":"yes","stars":"1"}},"877807085":{"location":[43.2228419,12.9302845],"ct":"IT","tp":"CR","ts":"2020-11-26T09:28:08Z","tX":548,"tY":375,"tags":{"name":"Area di sosta camper di Palazzo","operator":"Comune di Esanatoglia","sanitary_dump_station":"yes","surface":"fine_gravel"}},"1517031954":{"location":[43.1680157,12.7975306],"ct":"IT","tp":"CR","ts":"2011-11-25T22:29:47Z","tX":548,"tY":375,"tags":{"name":"Villa della Cupa"}},"10642737829":{"location":[43.311427,12.8575473],"ct":"IT","tp":"CS","ts":"2024-10-15T20:51:07Z","tX":548,"tY":375,"tags":{"addr:city":"Fabriano","addr:housenumber":"52","addr:postcode":"60044","addr:street":"Localit√† Cortina San Venanzo","caravans":"yes","email":"info@ollyfarm.it","name":"Olly farm","phone":"+39 370 376 1494","shower":"yes","tents":"yes","website":"https://www.ollyfarm.it/"}},"10642796251":{"location":[43.2640243,12.9787697],"ct":"IT","tp":"CS","ts":"2024-09-15T08:55:45Z","tX":548,"tY":375,"tags":{"addr:city":"Esanatoglia","addr:housenumber":"79","addr:postcode":"62024","addr:street":"Localita Masciano","caravans":"yes","fee":"yes","motorhome":"yes","name":"Faranghe!","power_supply":"yes","power_supply:maxcurrent":"6","socket:cee_blue":"yes","tents":"yes","toilets":"yes","website":"https://faranghe.eu/"}},"4443770891":{"location":[43.2443213,12.9993732],"ct":"IT","tp":"CR","ts":"2024-03-30T21:42:27Z","tX":548,"tY":375,"tags":{"fee":"no","sanitary_dump_station":"yes","water_point":"yes"}},"11983723697":{"location":[43.0880187,13.0045992],"ct":"IT","tp":"CR","ts":"2024-06-15T19:38:49Z","tX":548,"tY":375,"tags":{}}}