{"182673736":{"location":[38.1521042,12.7325541],"ct":"IT","tp":"CS","ts":"2024-11-04T09:13:14Z","tX":548,"tY":394,"tags":{"cabins":"yes","caravans":"yes","dog":"yes","dryer":"yes","email":"info@elbahira.it","fee":"yes","internet_access":"wlan","name":"El Bahira","payment:cash":"yes","payment:credit_card":"yes","payment:mastercard":"yes","payment:visa":"yes","phone":"+39 0923 972577;+39 0923 972552","power_supply":"yes","power_supply:maxcurrent":"3","shower":"yes","socket:cee_blue":"yes","stars":"4","tents":"yes","toilets":"yes","washing_machine":"yes","website":"https://www.elbahira.it/"}},"240487123":{"location":[38.0545396,12.8430029],"ct":"IT","tp":"CR","ts":"2023-04-08T12:44:32Z","tX":548,"tY":394,"tags":{"charge":"25€","fee":"yes","name":"Area Fontana Andrea","parking":"surface","phone":"+39 0924 39020","power_supply":"no"}},"244963999":{"location":[38.1728168,12.7410871],"ct":"IT","tp":"CS","ts":"2024-11-04T08:47:40Z","tX":548,"tY":394,"tags":{"addr:city":"San Vito Lo Capo","addr:housenumber":"40","addr:postcode":"91010","addr:street":"Via del Secco","description":"L'attività della struttura denominata Camping Soleado è stata sospesa come da Ordinanza n. 2 dell'1/07/2024 del Responsabile del SUAP dell'Unione dei Comuni Elimo Ericini.","email":"info@campingsoleado.eu","name":"Camping Soleado","name:it":"Camping Soleado","operator":"International Camping Soleado","phone":"+39 0923 972166","ref:vatin":"IT02610820819","website":"https://www.campingsoleado.eu/"}},"245055218":{"location":[38.171722,12.7482589],"ct":"IT","tp":"CS","ts":"2024-11-04T08:47:40Z","tX":548,"tY":394,"tags":{"addr:city":"San Vito Lo Capo","addr:housenumber":"90","addr:postcode":"91010","addr:street":"Via del Secco","cabins":"yes","caravans":"yes","contact:email":"lapineta@camping.it","contact:phone":"+39 0923 972818","contact:website":"http://www.campinglapineta.it/italy/","drinking_water":"yes","motorhome":"yes","name":"La Pineta","operator":"La Pineta San Vito lo Capo srl","power_supply":"yes","ref:vatin":"01273710812","shower":"yes","socket:cee_blue":"yes","tents":"yes","toilets":"yes"}},"393210424":{"location":[38.0562258,12.8377423],"ct":"IT","tp":"CS","ts":"2016-01-29T19:44:15Z","tX":548,"tY":394,"tags":{"name":"Camping Baia di Guidaloca","website":"http://www.campinguidaloca.it"}},"393262762":{"location":[38.0461761,12.833719],"ct":"IT","tp":"CS","ts":"2023-04-22T18:45:07Z","tX":548,"tY":394,"tags":{"addr:city":"Castellammare del Golfo","addr:housenumber":"27","addr:postcode":"91014","addr:street":"Contrada da Barone","caravans":"yes","name":"Camping Lu Baruni","opening_hours":"Apr 1 - Sep 30","phone":"+39 0924 39133","shower":"yes","stars":"3","tents":"yes","toilets":"yes","website":"http://www.lubaruni.com/"}},"395149686":{"location":[38.0674039,12.8173187],"ct":"IT","tp":"CS","ts":"2023-09-12T17:37:35Z","tX":548,"tY":394,"tags":{"caravans":"yes","drinking_water":"yes","name":"Agricampeggio Scopello","phone":"+39 328 442 8721","tents":"yes","website":"http://www.agricampeggioscopello.it"}},"648241850":{"location":[38.1623336,12.737452],"ct":"IT","tp":"CR","ts":"2024-11-04T09:11:32Z","tX":548,"tY":394,"tags":{"addr:city":"San Vito Lo Capo","addr:postcode":"91010","addr:street":"Strada Provinciale16","capacity":"30","contact:mobile":"+39 347 6851567","contact:phone":"+39 0923 972787","fee":"yes","internet_access:fee":"yes","name":"Area Sosta Camper Giovanni","operator":"PRIVATO","power_supply":"yes","sanitary_dump_station":"yes"}},"648242900":{"location":[38.1666258,12.7367599],"ct":"IT","tp":"CR","ts":"2024-11-04T09:11:32Z","tX":548,"tY":394,"tags":{"addr:city":"San Vito Lo Capo","addr:street":"Via Savoia","capacity":"100","contact:phone":"+39 339 3976829","fee":"yes","internet_access":"wlan","name":"Area di sosta Camper da Francesca","power_supply":"yes","sanitary_dump_station":"yes"}},"1160426721":{"location":[38.0250101,12.8904156],"ct":"IT","tp":"CR","ts":"2024-01-26T20:02:35Z","tX":548,"tY":394,"tags":{"addr:street":"Strada Statale 187 di Castellammare del Golfo","fee":"yes","name":"La playa","name:it":"La playa"}},"1180073509":{"location":[38.0243638,12.8924963],"ct":"IT","tp":"CS","ts":"2024-01-26T20:02:24Z","tX":548,"tY":394,"tags":{"caravans":"yes","drinking_water":"yes","name":"camping Nausicaa","power_supply":"yes","sanitary_dump_station":"yes","shower":"yes","tents":"yes","toilets":"yes","website":"http://www.nausicaa-camping.it/"}}}