{"1373230406":{"location":[-30.8804369,-60.0343292],"ct":"AR","tp":"CS","ts":"2025-03-31T03:03:33Z","tX":341,"tY":604,"tags":{"addr:city":"Saladero Mariano Cabal","addr:postcode":"S3001","addr:street":"Río San Javier","name":"Camping Los Ceibos"}},"1373230407":{"location":[-30.8809833,-60.0347927],"ct":"AR","tp":"CS","ts":"2025-04-01T17:17:57Z","tX":341,"tY":604,"tags":{"addr:city":"Saladero Mariano Cabal","addr:postcode":"S3001","addr:street":"Río San Javier","name":"Camping Comunal"}},"4098417180":{"location":[-30.9501892,-59.8001294],"ct":"AR","tp":"CS","ts":"2016-04-05T21:50:41Z","tX":341,"tY":604,"tags":{"name":"Zona costanera"}},"4106780137":{"location":[-30.9531096,-59.802034],"ct":"AR","tp":"CS","ts":"2016-05-15T05:36:27Z","tX":341,"tY":604,"tags":{"addr:city":"Santa Elena","addr:postcode":"3192","addr:street":"Avenida Costanera","description":"Este es uno de los niveles geográficos más bajos de nuestra ciudad, lo que lo hace muy vulnerable a las crecientes del Río Paraná. Es una de las primeras zonas inundadas.","name":"Camping Municipal"}}}