{"776897129":{"location":[36.9100533,-104.4284097],"ct":"US","tp":"CR","ts":"2020-02-28T03:35:49Z","tX":214,"tY":398,"tags":{"addr:city":"Raton","addr:housenumber":"700","addr:postcode":"87740","addr:state":"NM","addr:street":"Washington Street","name":"Enchanted Hills Mobile Home Park"}},"779610383":{"location":[37.1437883,-104.5700679],"ct":"US","tp":"CR","ts":"2020-03-09T15:47:36Z","tX":214,"tY":398,"tags":{"name":"Carpios Ridge Campground"}},"11191776137":{"location":[36.8823786,-104.4291724],"ct":"US","tp":"CS","ts":"2023-09-14T22:53:17Z","tX":214,"tY":398,"tags":{"name":"camp"}},"9287221994":{"location":[37.1394299,-104.5180827],"ct":"US","tp":"CR","ts":"2021-11-27T02:32:21Z","tX":214,"tY":398,"tags":{"addr:city":"Trinidad","addr:postcode":"81082","addr:state":"CO","addr:street":"Santa Fe Trail","capacity":"11"}},"9287267585":{"location":[37.13021,-104.5188937],"ct":"US","tp":"CR","ts":"2023-09-20T05:29:53Z","tX":214,"tY":398,"tags":{"addr:city":"Trinidad","addr:housenumber":"9800","addr:postcode":"81082","addr:state":"CO","addr:street":"Santa Fe Trail","name":"Summit RV Park","note":"office located inside Rodeway Inn motel","phone":"+1-719-846-2251","website":"https://www.summitrvpark.com/"}}}