{"784622294":{"location":[34.9470662,-104.6622933],"ct":"US","tp":"CR","ts":"2024-05-27T19:37:30Z","tX":214,"tY":405,"tags":{"addr:city":"Santa Rosa","addr:housenumber":"2136","addr:postcode":"88435","addr:state":"NM","addr:street":"Route 66","name":"Santa Rosa Campground & RV Park"}},"11431570910":{"location":[34.9360182,-104.695979],"ct":"US","tp":"CS","ts":"2023-12-24T15:25:51Z","tX":214,"tY":405,"tags":{"addr:city":"Santa Rosa","addr:country":"US","addr:housenumber":"602","addr:postcode":"88435","addr:state":"NM","addr:street":"Black Street","mobile":"575-472-3820","name":"Ramblin' Rose RV Park","opening_hours":"Mo-Su 08:00-22:00","website":"http://ramblinroservcampgroundnm.com"}},"11769788020":{"location":[35.0368661,-104.6904314],"ct":"US","tp":"CS","ts":"2024-03-28T20:17:17Z","tX":214,"tY":405,"tags":{"name":"Rocky Point Campground"}},"11769788021":{"location":[35.0311541,-104.6790752],"ct":"US","tp":"CS","ts":"2024-03-28T20:17:17Z","tX":214,"tY":405,"tags":{"name":"Juniper Park Campground"}},"11769683831":{"location":[34.9447768,-104.6830189],"ct":"US","tp":"CR","ts":"2024-03-28T20:00:41Z","tX":214,"tY":405,"tags":{"name":"La Loma RV Park"}},"9733601142":{"location":[34.9470041,-104.6620869],"ct":"US","tp":"SD","ts":"2022-05-11T21:44:33Z","tX":214,"tY":405,"tags":{}}}