{"367569188":{"location":[33.4147199,-104.5422228],"ct":"US","tp":"CR","ts":"2015-08-26T08:09:14Z","tX":214,"tY":411,"tags":{"source":"Bing"}},"368228555":{"location":[33.4077466,-104.5061928],"ct":"US","tp":"CR","ts":"2015-08-30T02:58:39Z","tX":214,"tY":411,"tags":{"name":"Spring River RV Park","source":"Bing"}},"369217084":{"location":[33.3930336,-104.4983865],"ct":"US","tp":"CR","ts":"2019-04-18T06:07:18Z","tX":214,"tY":411,"tags":{"addr:city":"Roswell","addr:housenumber":"1706","addr:postcode":"88203","addr:state":"NM","addr:street":"East 2nd Street","email":"trailervillage@pvtnetworks.net","name":"Trailer Village RV Park","opening_hours":"Su-Sa 09:00-21:00","phone":"575-623-6040","source":"Bing","website":"https://www.trailervillagervpark.com/"}},"369217091":{"location":[33.3938859,-104.4819559],"ct":"US","tp":"CR","ts":"2017-10-08T23:14:30Z","tX":214,"tY":411,"tags":{"addr:city":"Roswell","addr:housenumber":"2806","addr:postcode":"88203","addr:state":"NM","addr:street":"East 2nd Street","name":"Red Barn RV Park","phone":"+1 575 623 4897","source":"Bing","website":"http://www.redbarnrvparkroswellnm.com/"}},"1315460432":{"location":[33.3518324,-104.5249663],"ct":"US","tp":"CR","ts":"2024-09-14T06:45:10Z","tX":214,"tY":411,"tags":{"addr:housenumber":"331","addr:street":"West Brasher Road","name":"Town & Country RV Park"}},"6793988086":{"location":[33.3019922,-104.4654597],"ct":"US","tp":"CR","ts":"2023-11-30T02:03:15Z","tX":214,"tY":411,"tags":{"name":"Midway RV Park","phone":"+1-575-622-0531","website":"http://www.midwayrvparknm.com"}}}