{"540446954":{"location":[19.2152533,-104.6921265],"ct":"MX","tp":"CS","ts":"2022-05-20T00:29:54Z","tX":214,"tY":456,"tags":{"addr:city":"Melaque","addr:housenumber":"40","addr:postcode":"48980","addr:street":"Zafiro","addr:unit":"17","email":"bungalowslagunadeltule@outlook.com","fee":"yes","internet_access":"wlan","internet_access:fee":"no","name":"Camping Laguna del Tule","phone":"+52 315 35 57241","phone_1":"+52 315 35 55395","tourism_1":"caravan_site","website":"http://www.campinglagunadeltule.com.mx"}},"5227058122":{"location":[19.2161853,-104.69298],"ct":"MX","tp":"CS","ts":"2018-03-19T17:07:29Z","tX":214,"tY":456,"tags":{"addr:housenumber":"40","addr:postcode":"48980","addr:street":"Zafiro","email":"bungalowslagunadeltule@outlook.com","internet_access":"wlan","name":"Laguna del Tule Bungalos & RV","name:en":"Cmping Laguna del Tule","phone":"+523153555395","website":"http://www.campinglagunadeltule.com.mx"}},"5412458724":{"location":[19.2164346,-104.6930372],"ct":"MX","tp":"CR","ts":"2018-03-19T17:07:30Z","tX":214,"tY":456,"tags":{"addr:street":"Calle Topacio No. 231, Melaque Jalisco Mexico C.P. 48980., 48980 Puerto Vallarta, Jalisco","name":"Laguna del Tule","name:en":"Laguna del Tule RV","phone":"+52(315)355-5395"}}}