{"4950866523":{"location":[43.3665324,59.6659483],"ct":"UZ","tp":"CS","ts":"2021-01-13T18:48:27Z","tX":681,"tY":374,"tags":{"name":"Issi suw","name:en":"Yssy suu","name:ru":"Ыссы суу"}},"5826624555":{"location":[43.3662826,59.6665031],"ct":"UZ","tp":"CS","ts":"2018-08-12T08:48:27Z","tX":681,"tY":374,"tags":{}},"6715406721":{"location":[43.3662167,59.6099964],"ct":"UZ","tp":"CS","ts":"2019-08-16T10:54:54Z","tX":681,"tY":374,"tags":{"name:en":"Yurt","name:ru":"Юрта"}},"6715406722":{"location":[43.3663044,59.6101707],"ct":"UZ","tp":"CS","ts":"2019-08-16T10:54:54Z","tX":681,"tY":374,"tags":{"name:en":"Yurt","name:ru":"Юрта"}},"6715406723":{"location":[43.3663473,59.6101278],"ct":"UZ","tp":"CS","ts":"2019-08-16T10:54:54Z","tX":681,"tY":374,"tags":{"name:en":"Yurt","name:ru":"Юрта"}},"6715406724":{"location":[43.3663922,59.6100661],"ct":"UZ","tp":"CS","ts":"2019-08-16T10:54:54Z","tX":681,"tY":374,"tags":{"name:en":"Yurt","name:ru":"Юрта"}},"6715406725":{"location":[43.3664312,59.6100205],"ct":"UZ","tp":"CS","ts":"2019-08-16T10:54:54Z","tX":681,"tY":374,"tags":{"name:en":"Yurt","name:ru":"Юрта"}},"6715406726":{"location":[43.3664721,59.6099803],"ct":"UZ","tp":"CS","ts":"2019-08-16T10:54:54Z","tX":681,"tY":374,"tags":{"name:en":"Yurt","name:ru":"Юрта"}},"6715406727":{"location":[43.3665111,59.6099427],"ct":"UZ","tp":"CS","ts":"2019-08-16T10:54:54Z","tX":681,"tY":374,"tags":{"name:en":"Yurt","name:ru":"Юрта"}},"6715406728":{"location":[43.3665462,59.6098945],"ct":"UZ","tp":"CS","ts":"2019-08-16T10:54:54Z","tX":681,"tY":374,"tags":{"name:en":"Yurt","name:ru":"Юрта"}},"6715406729":{"location":[43.366593,59.6098489],"ct":"UZ","tp":"CS","ts":"2019-08-16T10:54:54Z","tX":681,"tY":374,"tags":{"name:en":"Yurt","name:ru":"Юрта"}},"6715406730":{"location":[43.3666203,59.609814],"ct":"UZ","tp":"CS","ts":"2019-08-16T10:54:54Z","tX":681,"tY":374,"tags":{"name:en":"Yurt","name:ru":"Юрта"}},"6715406731":{"location":[43.364216,59.6114837],"ct":"UZ","tp":"CS","ts":"2019-08-16T10:54:54Z","tX":681,"tY":374,"tags":{"name:en":"Yurt","name:ru":"Юрта"}},"6715406732":{"location":[43.3641789,59.611531],"ct":"UZ","tp":"CS","ts":"2019-08-16T10:54:54Z","tX":681,"tY":374,"tags":{"name:en":"Yurt","name:ru":"Юрта"}},"6715406733":{"location":[43.364133,59.611568],"ct":"UZ","tp":"CS","ts":"2019-08-16T10:54:54Z","tX":681,"tY":374,"tags":{"name:en":"Yurt","name:ru":"Юрта"}},"6715406734":{"location":[43.3640972,59.6116034],"ct":"UZ","tp":"CS","ts":"2019-08-16T10:54:54Z","tX":681,"tY":374,"tags":{"name:en":"Yurt","name:ru":"Юрта"}},"6715406735":{"location":[43.3640557,59.6116481],"ct":"UZ","tp":"CS","ts":"2019-08-16T10:54:54Z","tX":681,"tY":374,"tags":{"name:en":"Yurt","name:ru":"Юрта"}},"6715406738":{"location":[43.3726211,59.6188569],"ct":"UZ","tp":"CS","ts":"2021-01-13T18:48:27Z","tX":681,"tY":374,"tags":{"name:en":"Yurt (Ger)","name:ru":"Юрта"}},"6715406739":{"location":[43.3726108,59.6189383],"ct":"UZ","tp":"CS","ts":"2021-01-13T18:48:27Z","tX":681,"tY":374,"tags":{"name:en":"Yurt (Ger)","name:ru":"Юрта"}},"6715406740":{"location":[43.3725983,59.6190065],"ct":"UZ","tp":"CS","ts":"2021-01-13T18:48:27Z","tX":681,"tY":374,"tags":{"name:en":"Yurt (Ger)","name:ru":"Юрта"}},"6715406741":{"location":[43.3725931,59.6190889],"ct":"UZ","tp":"CS","ts":"2021-01-13T18:48:27Z","tX":681,"tY":374,"tags":{"name:en":"Yurt (Ger)","name:ru":"Юрта"}},"6715406742":{"location":[43.3725858,59.6191618],"ct":"UZ","tp":"CS","ts":"2021-01-13T18:48:27Z","tX":681,"tY":374,"tags":{"name:en":"Yurt (Ger)","name:ru":"Юрта"}},"6715406743":{"location":[43.3725788,59.6192305],"ct":"UZ","tp":"CS","ts":"2021-01-13T18:48:27Z","tX":681,"tY":374,"tags":{"name:en":"Yurt (Ger)","name:ru":"Юрта"}},"6715406744":{"location":[43.3725682,59.6192881],"ct":"UZ","tp":"CS","ts":"2021-01-13T18:48:27Z","tX":681,"tY":374,"tags":{"name:en":"Yurt (Ger)","name:ru":"Юрта"}},"6715406745":{"location":[43.3725571,59.6193645],"ct":"UZ","tp":"CS","ts":"2021-01-13T18:48:27Z","tX":681,"tY":374,"tags":{"name:en":"Yurt (Ger)","name:ru":"Юрта"}},"6715406746":{"location":[43.3725479,59.6194418],"ct":"UZ","tp":"CS","ts":"2021-01-13T18:48:27Z","tX":681,"tY":374,"tags":{"name:en":"Yurt (Ger)","name:ru":"Юрта"}},"6715406747":{"location":[43.3725384,59.619504],"ct":"UZ","tp":"CS","ts":"2021-01-13T18:48:27Z","tX":681,"tY":374,"tags":{"name:en":"Yurt (Ger)","name:ru":"Юрта"}},"6715406748":{"location":[43.3725255,59.6195769],"ct":"UZ","tp":"CS","ts":"2021-01-13T18:48:27Z","tX":681,"tY":374,"tags":{"name:en":"Yurt (Ger)","name:ru":"Юрта"}},"6715406980":{"location":[43.3666857,59.6661236],"ct":"UZ","tp":"CS","ts":"2021-01-13T18:48:27Z","tX":681,"tY":374,"tags":{"name:en":"Yurt (Ger)","name:ru":"Юрта"}},"6715406981":{"location":[43.3667083,59.6662574],"ct":"UZ","tp":"CS","ts":"2021-01-13T18:48:27Z","tX":681,"tY":374,"tags":{"name:en":"Yurt (Ger)","name:ru":"Юрта"}},"6715406982":{"location":[43.3667262,59.6663344],"ct":"UZ","tp":"CS","ts":"2021-01-13T18:48:27Z","tX":681,"tY":374,"tags":{"name:en":"Yurt (Ger)","name:ru":"Юрта"}}}