{"34596877":{"location":[34.7724177,-118.8786427],"ct":"US","tp":"CS","ts":"2016-12-23T00:57:38Z","tX":173,"tY":406,"tags":{"fee":"yes","name":"Edison Canyon Campground","operator":"Hungry Valley SVRA","source":"Hungry Valley SVRA","website":"http://ohv.parks.ca.gov/?page_id=25607"}},"85205913":{"location":[34.8143218,-119.1004013],"ct":"US","tp":"CS","ts":"2019-12-31T05:51:51Z","tX":173,"tY":406,"tags":{"caravans":"yes","name":"McGill Campground","seasonal":"summer","source":"usgs_imagery_2008;survey;image","source_ref":"AM909_DSCV9965","website":"https://www.fs.usda.gov/recarea/lpnf/recreation/camping-cabins/recarea/?recid=10989&actid=29"}},"85211453":{"location":[34.8100644,-119.1090219],"ct":"US","tp":"CS","ts":"2019-12-31T05:51:51Z","tX":173,"tY":406,"tags":{"caravans":"yes","name":"Mount Pinos Campground","seasonal":"summer","source":"usgs_imagery_2008;survey;image","source_ref":"AM909_DSCW0000","website":"https://www.fs.usda.gov/recarea/lpnf/recreation/camping-cabins/recarea/?recid=10990&actid=29"}},"227076661":{"location":[34.8141203,-119.1234967],"ct":"US","tp":"CS","ts":"2023-08-24T20:05:43Z","tX":173,"tY":406,"tags":{"access":"foot","caravans":"no","description":"First come, first serve. Walk in from Chula Vista Parking.","drinking_water":"no","name":"Chula Vista Campground","operator":"US Forest Service","shower":"no","source":"survey;GPS","tents":"yes","toilets":"yes","website":"https://www.fs.usda.gov/recarea/lpnf/recreation/camping-cabins/recarea/?recid=10982&actid=29"}},"367711483":{"location":[34.7456627,-118.8738294],"ct":"US","tp":"CS","ts":"2016-12-06T07:16:16Z","tX":173,"tY":406,"tags":{"name":"Lower Scrub Oaks Campground","operator":"Hungry Valley SVRA","source":"Hungry Valley SVRA","website":"http://ohv.parks.ca.gov/?page_id=25607"}},"367712028":{"location":[34.7502302,-118.8776167],"ct":"US","tp":"CS","ts":"2016-12-06T07:16:32Z","tX":173,"tY":406,"tags":{"name":"Upper Scrub Oaks Campground","operator":"Hungry Valley SVRA","source":"Hungry Valley SVRA","website":"http://ohv.parks.ca.gov/?page_id=25607"}},"367712157":{"location":[34.7611957,-118.8685316],"ct":"US","tp":"CS","ts":"2016-12-23T01:01:00Z","tX":173,"tY":406,"tags":{"name":"Circle Canyon Campground","source":"Hungry Valley SVRA","website":"http://ohv.parks.ca.gov/?page_id=25607"}},"367712244":{"location":[34.7639523,-118.8765626],"ct":"US","tp":"CS","ts":"2016-12-25T02:48:53Z","tX":173,"tY":406,"tags":{"name":"Honey Valley Group Camp","source":"Hungry Valley SVRA","website":"http://ohv.parks.ca.gov/?page_id=25607"}},"367712465":{"location":[34.7658325,-118.8785921],"ct":"US","tp":"CS","ts":"2016-12-25T02:49:08Z","tX":173,"tY":406,"tags":{"name":"Sterling Canyon Campground","source":"Hungry Valley SVRA","website":"http://ohv.parks.ca.gov/?page_id=25607"}},"367712548":{"location":[34.7600749,-118.8823076],"ct":"US","tp":"CS","ts":"2016-12-06T07:16:55Z","tX":173,"tY":406,"tags":{"fee":"yes","name":"Cottonwood Campground","operator":"Hungry Valley SVRA","source":"Hungry Valley SVRA","website":"http://ohv.parks.ca.gov/?page_id=25607"}},"367712748":{"location":[34.7919423,-118.8710498],"ct":"US","tp":"CS","ts":"2022-05-11T22:18:59Z","tX":173,"tY":406,"tags":{"addr:city":"Gorman","addr:postcode":"92343","addr:state":"CA","addr:street":"Hungry Valley Road","building:levels":"1","leisure":"park","name":"Hungry Valley SVRA Entrance","operator":"California Department of Parks and Recreation","operator:type":"public","operator:wikidata":"Q2933976","website":"http://ohv.parks.ca.gov/?page_id=1192"}},"367714411":{"location":[34.7302864,-118.8703709],"ct":"US","tp":"CS","ts":"2016-12-06T07:15:36Z","tX":173,"tY":406,"tags":{"fee":"yes","name":"Smith Forks Campground","operator":"Hungry Valley SVRA","source":"Hungry Valley SVRA","website":"http://ohv.parks.ca.gov/?page_id=25607"}},"367714415":{"location":[34.7230112,-118.8633285],"ct":"US","tp":"CS","ts":"2016-12-06T07:14:59Z","tX":173,"tY":406,"tags":{"fee":"yes","name":"Aliklik Campground","source":"Hungry Valley","website":"http://ohv.parks.ca.gov/?page_id=25607"}},"367714416":{"location":[34.7262958,-118.8677615],"ct":"US","tp":"CS","ts":"2016-12-06T07:15:11Z","tX":173,"tY":406,"tags":{"name":"ATV Campground","source":"Hungry Valley SVRA","website":"http://ohv.parks.ca.gov/?page_id=25607"}},"367714417":{"location":[34.7217982,-118.846165],"ct":"US","tp":"CS","ts":"2016-12-06T07:14:33Z","tX":173,"tY":406,"tags":{"fee":"yes","name":"Lane Ranch Campground","operator":"Hungry Valley SVRA","source":"Hungry Valley SVRA","website":"http://ohv.parks.ca.gov/?page_id=25607"}},"759754439":{"location":[34.8097116,-119.1750715],"ct":"US","tp":"CS","ts":"2023-11-18T00:00:57Z","tX":173,"tY":406,"tags":{"backcountry":"yes","bbq":"no","caravans":"no","description":"Water available at boxed spring approximately in the middle of the camp.","drinking_water":"yes","name":"Sheep Camp","openfire":"yes","operator":"US Forest Service","shower":"no","source":"USGS scanned topo","tents":"yes","toilets":"no","website":"https://www.hikelospadres.com/sheep-campground.html"}},"987636089":{"location":[34.8451714,-119.0802251],"ct":"US","tp":"CS","ts":"2024-05-05T20:21:13Z","tX":173,"tY":406,"tags":{"addr:city":"Frazier Park","addr:housenumber":"11157","addr:postcode":"93225","addr:state":"CA","addr:street":"Cuddy Valley Road","name":"Camp Bethany Pines","source":"usgs_imagery_2008;survey;image","source_ref":"AM909_DSCV9934"}},"1347205990":{"location":[34.7161782,-118.9296251],"ct":"US","tp":"CS","ts":"2024-12-30T02:33:30Z","tX":173,"tY":406,"tags":{"caravans":"yes","drinking_water":"no","fee":"yes","name":"Kings Campground","operator":"Los Padres National Forest","reservation":"no","tents":"yes","website":"https://www.fs.usda.gov/recarea/lpnf/recarea/?recid=10987"}},"1347238220":{"location":[34.6507159,-119.0686387],"ct":"US","tp":"CS","ts":"2024-12-30T04:11:53Z","tX":173,"tY":406,"tags":{"drinking_water":"no","fee":"yes","name":"Halfmoon Campground","operator":"Los Padres National Forest","reservation":"no","tents":"yes","website":"https://www.fs.usda.gov/recarea/lpnf/recarea/?recid=10985"}},"1347244768":{"location":[34.7059851,-118.9395172],"ct":"US","tp":"CS","ts":"2024-12-30T05:15:49Z","tX":173,"tY":406,"tags":{"caravans":"yes","drinking_water":"no","fee":"no","name":"Gold Hill Camping Area","operator":"Los Padres National Forest","reservation":"no","tents":"yes"}},"1347514671":{"location":[34.6914904,-119.132604],"ct":"US","tp":"CS","ts":"2024-12-31T06:40:08Z","tX":173,"tY":406,"tags":{"capacity":"12","drinking_water":"no","fee":"yes","name":"Pine Springs Çampground","operator":"Los Padres National Forest","website":"https://www.fs.usda.gov/recarea/lpnf/recarea/?recid=10993"}},"1347675503":{"location":[34.6276021,-119.1141478],"ct":"US","tp":"CS","ts":"2024-12-31T19:25:56Z","tX":173,"tY":406,"tags":{"alt_name":"Snedden Campground","drinking_water":"no","fee":"no","name":"Thorn Meadows Campground","operator":"Los Padres National Forest","website":"https://www.fs.usda.gov/recarea/lpnf/recarea/?recid=10996"}},"1520429179":{"location":[34.6263127,-119.114187],"ct":"US","tp":"CS","ts":"2020-02-20T05:02:37Z","tX":173,"tY":406,"tags":{"alt_name":"Snedden Campground","name":"Thorn Meadows"}},"1520430949":{"location":[34.6913672,-119.1327761],"ct":"US","tp":"CS","ts":"2018-07-03T06:25:25Z","tX":173,"tY":406,"tags":{"name":"Pine Springs Çampground"}},"1712128606":{"location":[34.8271581,-118.8735],"ct":"US","tp":"SD","ts":"2015-03-29T15:21:29Z","tX":173,"tY":406,"tags":{}},"2388619503":{"location":[34.779413,-119.1685992],"ct":"US","tp":"CS","ts":"2023-11-17T23:58:08Z","tX":173,"tY":406,"tags":{"backcountry":"yes","caravans":"no","description":"Shown on Forest Service map as a \"primitive camp\".","name":"Lily Meadows Camp","openfire":"yes","operator":"US Forest Service","shower":"no","source":"USGS scanned topo","tents":"yes","toilets":"no","website":"https://www.hikelospadres.com/llly-meadows-campground.html"}},"4120765108":{"location":[34.7853664,-119.0010415],"ct":"US","tp":"CS","ts":"2016-04-14T09:26:17Z","tX":173,"tY":406,"tags":{"name":"Chuchupate Campground"}},"7111108458":{"location":[34.6162105,-119.1769986],"ct":"US","tp":"CS","ts":"2023-11-17T23:53:34Z","tX":173,"tY":406,"tags":{"backcountry":"yes","caravans":"no","description":"Reliable year round water found at the spring just above the main camp","name":"Pine Mountain Lodge Campsite","website":"https://www.hikelospadres.com/pine-mtn-lodge-campground.html"}},"7112816128":{"location":[34.6284231,-119.1404253],"ct":"US","tp":"CS","ts":"2023-11-18T00:02:42Z","tX":173,"tY":406,"tags":{"backcountry":"yes","caravans":"no","description":"Water Sources: There is seasonal water along both nearby creeks but they do dry up in the summer time. While swimming is not an option, you can plunge and bath when water levels are high.","name":"Cedar Creek Camp","website":"https://www.hikelospadres.com/cedar-creek-campground.html"}},"7112816474":{"location":[34.6420947,-119.163658],"ct":"US","tp":"CS","ts":"2023-11-17T23:51:13Z","tX":173,"tY":406,"tags":{"backcountry":"yes","caravans":"no","description":"Usually water near the camp.","name":"Fishbowls Camp","website":"https://www.hikelospadres.com/fishbowls-campground.html"}},"7229461814":{"location":[34.6508792,-119.0683758],"ct":"US","tp":"CS","ts":"2020-02-20T05:02:37Z","tX":173,"tY":406,"tags":{"name":"Halfmoon"}},"9733590976":{"location":[34.7919359,-118.871038],"ct":"US","tp":"CS","ts":"2022-05-11T22:21:32Z","tX":173,"tY":406,"tags":{"access":"yes","addr:city":"Gorman","addr:postcode":"92343","addr:state":"CA","addr:street":"Hungry Valley Road","fee":"yes","leisure":"park","name":"Hungry Valley SVRA","operator":"California Department of Parks and Recreation","operator:type":"public","operator:wikidata":"Q2933976","payment:cash":"yes","payment:credit_cards":"yes"}},"10155690427":{"location":[34.8581818,-119.174417],"ct":"US","tp":"CS","ts":"2022-11-03T22:35:09Z","tX":173,"tY":406,"tags":{"backcountry":"no","cabins":"no","caravans":"yes","fee":"yes","lit":"no","motor_vehicle":"yes","motorhome":"yes","name":"Pine Mountain Club Campground","operator":"Pine Mountain Club Property Owners Association","permanent_camping":"no","reservation":"required","shower":"yes","tents":"yes","toilets":"yes","website":"https://pinemountainclub.net/campground/"}},"12228389198":{"location":[34.6761637,-118.9781731],"ct":"US","tp":"CS","ts":"2024-10-05T20:28:21Z","tX":173,"tY":406,"tags":{"name":"Dutchman Campground"}},"12228418103":{"location":[34.6998451,-119.0004596],"ct":"US","tp":"CS","ts":"2024-10-05T20:28:21Z","tX":173,"tY":406,"tags":{"name":"Sunset Campground"}},"11918976034":{"location":[34.8265969,-118.8707381],"ct":"US","tp":"SD","ts":"2024-05-20T02:34:52Z","tX":173,"tY":406,"tags":{}}}