{"106200513":{"location":[45.8835144,-75.0832831],"ct":"CA","tp":"CS","ts":"2017-09-26T11:38:29Z","tX":298,"tY":364,"tags":{"name":"Camping de la Pinède","source":"NRCan-CanVec-7.0"}},"106203437":{"location":[45.866014,-75.0917716],"ct":"CA","tp":"CS","ts":"2022-01-27T19:04:44Z","tX":298,"tY":364,"tags":{"addr:city":"Lac-Simon","addr:housenumber":"917","addr:street":"Route 315","name":"Camping 4 vents","source":"NRCan-CanVec-7.0"}},"473601521":{"location":[45.8347405,-75.1544865],"ct":"CA","tp":"CS","ts":"2020-10-21T12:23:23Z","tX":298,"tY":364,"tags":{"name":"Camping du lac de la cédrière"}},"476670352":{"location":[46.0098315,-74.9016721],"ct":"CA","tp":"CR","ts":"2019-01-11T19:14:58Z","tX":298,"tY":364,"tags":{"name":"Camping Lac-des-Plages"}},"732438524":{"location":[45.9227396,-75.0440411],"ct":"CA","tp":"CS","ts":"2022-01-27T19:04:44Z","tX":298,"tY":364,"tags":{"addr:housenumber":"1490","addr:street":"Chemin du Haut-des-Côtes","name":"Camping Haut-Des-Côtes"}},"983602021":{"location":[45.9179824,-75.0994841],"ct":"CA","tp":"CS","ts":"2022-01-27T19:04:44Z","tX":298,"tY":364,"tags":{"addr:city":"Lac-Simon","addr:housenumber":"1040","addr:street":"Chemin du Tour-du-Lac","name":"Domaine Canard Blanc","source":"NRCan-CanVec-7.0"}},"1025307717":{"location":[45.9445448,-75.1100981],"ct":"CA","tp":"CS","ts":"2022-01-27T19:04:44Z","tX":298,"tY":364,"tags":{"name":"Paradis Du Campeur"}},"1025307718":{"location":[45.8997771,-75.0956537],"ct":"CA","tp":"CS","ts":"2022-01-27T19:04:44Z","tX":298,"tY":364,"tags":{"addr:city":"Lac-Simon","addr:housenumber":"1300","addr:street":"4e Rang Sud","name":"Camping Pavillon","source":"NRCan-CanVec-7.0"}},"1025307719":{"location":[45.8921142,-75.0953286],"ct":"CA","tp":"CR","ts":"2022-01-27T19:04:44Z","tX":298,"tY":364,"tags":{"name":"L`Anse aux Bouleaux","source":"NRCan-CanVec-7.0"}},"1180784838":{"location":[46.0387224,-75.0885572],"ct":"CA","tp":"CS","ts":"2023-06-10T00:04:26Z","tX":298,"tY":364,"tags":{"addr:city":"Duhamel","addr:housenumber":"2225","addr:street":"Chemin du Lac-Gagnon Ouest","name":"Duhamel Camping et Chalets","source":"NRCan-CanVec-7.0"}},"1193140043":{"location":[46.0076287,-75.0912949],"ct":"CA","tp":"CS","ts":"2023-08-06T19:19:09Z","tX":298,"tY":364,"tags":{"caravans":"yes","drinking_water":"yes","name":"Centre touristique du Lac-Simon SEPAQ","shower":"yes","source":"NRCan-CanVec-7.0","tents":"yes"}},"1222589116":{"location":[45.8525812,-75.2039864],"ct":"CA","tp":"CS","ts":"2017-02-09T15:41:24Z","tX":298,"tY":364,"tags":{"source":"NRCan-CanVec-7.0"}}}