{"732796796":{"location":[42.5545101,-74.9276733],"ct":"US","tp":"CS","ts":"2024-06-24T12:30:46Z","tX":298,"tY":377,"tags":{"addr:city":"Maryland","addr:housenumber":"509","addr:postcode":"12116","addr:state":"NY","addr:street":"Boy Scout Road","caravans":"no","fee":"yes","leisure":"summer_camp","name":"Henderson Scout Reservation","note":"Rough Approximation of shape","operator":"Boy Scouts of America","static_caravans":"no","tents":"yes"}},"906039315":{"location":[42.5820436,-75.1196719],"ct":"US","tp":"CS","ts":"2021-02-11T15:59:46Z","tX":298,"tY":377,"tags":{"backcountry":"no","drinking_water":"yes","group_only":"no","name":"Deer Run Camping Area","power_supply":"no","sanitary_dump_station":"yes","toilets":"yes"}},"906220580":{"location":[42.5799669,-75.1345363],"ct":"US","tp":"CS","ts":"2021-02-11T15:59:46Z","tX":298,"tY":377,"tags":{"backcountry":"no","dog":"yes","drinking_water":"yes","group_only":"no","name":"Hilltop Camping Area","openfire":"yes","power_supply":"yes","reservation":"yes","sanitary_dump_station":"no","toilets":"yes","wheelchair":"no"}},"8413811981":{"location":[42.5813655,-75.1220315],"ct":"US","tp":"SD","ts":"2021-02-11T05:32:16Z","tX":298,"tY":377,"tags":{}}}