{"199581223":{"location":[41.3212292,-75.2059598],"ct":"US","tp":"CS","ts":"2013-01-05T03:53:50Z","tX":298,"tY":382,"tags":{"name":"Pines Camground"}},"278509368":{"location":[41.4544185,-75.0003405],"ct":"US","tp":"CS","ts":"2020-09-04T15:59:46Z","tX":298,"tY":382,"tags":{"addr:city":"Greeley","addr:housenumber":"440","addr:postcode":"18425","addr:state":"PA","addr:street":"PA-590","name":"Camp Lee Mar / Lee Mar tábor","name:cs":"Lee Mar tábor","name:en":"Camp Lee Mar","name:hu":"Lee Mar tábor"}},"1236537995":{"location":[41.4503046,-75.1811554],"ct":"US","tp":"CS","ts":"2024-10-21T20:07:51Z","tX":298,"tY":382,"tags":{"caravans":"yes","fee":"yes","name":"Wilsonville Recreation Area Campground","openfire":"yes","phone":"+15702264382","sanitary_dump_station":"yes","shower":"yes","tents":"yes","toilets":"yes","website":"http://www.wilsonvillecampground.com/"}},"1238474388":{"location":[41.4035393,-75.039905],"ct":"US","tp":"CS","ts":"2024-02-06T07:44:26Z","tX":298,"tY":382,"tags":{"addr:city":"Greeley","addr:housenumber":"1620","addr:postcode":"18425","addr:state":"PA","addr:street":"US-6","group_only":"yes","leisure":"summer_camp","name":"Camp Timber Tops"}},"1376389659":{"location":[41.3820718,-74.9390643],"ct":"US","tp":"CR","ts":"2011-07-28T02:01:38Z","tX":298,"tY":382,"tags":{"name":"Trails End Campground"}},"4577380596":{"location":[41.3245315,-75.005151],"ct":"US","tp":"CS","ts":"2020-08-05T13:49:14Z","tX":298,"tY":382,"tags":{"addr:city":"Milford","addr:housenumber":"105","addr:postcode":"18337","addr:state":"PA","addr:street":"Office Way North","name":"Lake Adventure Community Association","name:en":"Lake Adventure Community Association"}},"5965230226":{"location":[41.2575892,-74.9929189],"ct":"US","tp":"CS","ts":"2018-10-08T01:30:47Z","tX":298,"tY":382,"tags":{"name":"E-14 CCC Camp"}},"5965230407":{"location":[41.2589237,-74.9929241],"ct":"US","tp":"CS","ts":"2018-10-08T01:30:48Z","tX":298,"tY":382,"tags":{"name":"E-13 Silver Lake"}},"7737226459":{"location":[41.3455555,-74.883276],"ct":"US","tp":"CS","ts":"2020-07-22T14:34:15Z","tX":298,"tY":382,"tags":{"addr:city":"Milford","addr:housenumber":"570","addr:postcode":"18337","addr:state":"PA","addr:street":"Sawkill Road","group_only":"yes","name":"Camp Nah-Jee-Wah"}},"7765801332":{"location":[41.2715878,-74.9445767],"ct":"US","tp":"CS","ts":"2020-07-29T15:33:02Z","tX":298,"tY":382,"tags":{"addr:city":"Dingmans Ferry","addr:housenumber":"143","addr:postcode":"18328","addr:state":"PA","addr:street":"Nichecronk Road","group_only":"yes","name":"Camp Speers YMCA"}},"7775708040":{"location":[41.2515994,-74.9545077],"ct":"US","tp":"CS","ts":"2020-08-01T15:24:51Z","tX":298,"tY":382,"tags":{"addr:city":"Dingmans Ferry","addr:housenumber":"570","addr:postcode":"18328","addr:state":"PA","addr:street":"Silver Lake Road","group_only":"yes","name":"Bobov Mesivta Camp"}},"7802210334":{"location":[41.2916005,-75.2238459],"ct":"US","tp":"CS","ts":"2020-08-10T22:55:44Z","tX":298,"tY":382,"tags":{"addr:city":"Greentown","addr:housenumber":"16","addr:postcode":"18426","addr:state":"PA","addr:street":"Edgar Lane","name":"Wilson Campground"}},"7857101969":{"location":[41.3939595,-75.1381251],"ct":"US","tp":"CS","ts":"2020-08-29T17:07:08Z","tX":298,"tY":382,"tags":{"name":"White Deer Camp"}},"7873685640":{"location":[41.4150171,-75.0509674],"ct":"US","tp":"CS","ts":"2020-09-03T20:46:02Z","tX":298,"tY":382,"tags":{"addr:city":"Greeley","addr:housenumber":"1687","addr:postcode":"18425","addr:state":"PA","addr:street":"US-6","group_only":"yes","name":"Lake Owego Camp"}},"7874141120":{"location":[41.416318,-75.0192226],"ct":"US","tp":"CS","ts":"2020-09-04T02:22:21Z","tX":298,"tY":382,"tags":{"addr:city":"Greeley","addr:housenumber":"105","addr:postcode":"18425","addr:state":"PA","addr:street":"Weber Road","group_only":"yes","name":"Camp Shohola"}},"7874141233":{"location":[41.4134924,-75.0176452],"ct":"US","tp":"CS","ts":"2020-09-04T02:22:21Z","tX":298,"tY":382,"tags":{"addr:city":"Greeley","addr:housenumber":"222","addr:postcode":"18425","addr:state":"PA","addr:street":"Greeley Lake Road","name":"Lake Greeley Camp"}},"7874141302":{"location":[41.4081491,-75.0151137],"ct":"US","tp":"CS","ts":"2020-09-04T02:22:21Z","tX":298,"tY":382,"tags":{"addr:city":"Greeley","addr:housenumber":"185","addr:postcode":"18425","addr:state":"PA","addr:street":"Pine Forest Road","name":"Pine Forest Camp"}},"12133140845":{"location":[41.3211747,-75.2306745],"ct":"US","tp":"CS","ts":"2024-08-24T00:18:13Z","tX":298,"tY":382,"tags":{"name":"Equestrian Campground"}}}