{"11286999":{"location":[41.0074123,-75.0969338],"ct":"US","tp":"CS","ts":"2024-08-06T19:07:26Z","tX":298,"tY":383,"tags":{"addr:city":"Columbia","addr:housenumber":"2","addr:postcode":"07832","addr:state":"NJ","addr:street":"Old Mine Road","name":"Worthington State Forest Campground","operator":"NJ Department of Environmental Protection","website":"https://www.njportal.com/DEP/NJOutdoors/Park/Details?locationId=20"}},"16864104":{"location":[41.080595,-74.9089649],"ct":"US","tp":"CS","ts":"2023-12-23T17:34:18Z","tX":298,"tY":383,"tags":{"cabins":"yes","group_only":"yes","leisure":"summer_camp","name":"Fairview Lake YMCA Camp","operator":"YMCA of the Oranges","website":"https://www.fairviewlakeymca.org/"}},"41775663":{"location":[41.1470081,-74.8910251],"ct":"US","tp":"CS","ts":"2021-07-25T01:29:08Z","tX":298,"tY":383,"tags":{"fee":"yes","name":"Bear Creek Campgrounds","source":"NJ2002LULC"}},"41775824":{"location":[41.099547,-74.9082619],"ct":"US","tp":"CS","ts":"2023-11-29T01:12:36Z","tX":298,"tY":383,"tags":{"abandoned":"yes","access":"yes","caravans":"no","fee":"no","name":"Camp Ken-Etiwa-Pec","operator":"National Park Service","source":"NJ2002LULC","static_caravans":"no","tents":"no"}},"41776308":{"location":[41.0969654,-74.9653035],"ct":"US","tp":"CS","ts":"2024-09-24T18:49:53Z","tX":298,"tY":383,"tags":{"access":"yes","caravans":"yes","group_only":"yes","landuse":"grass","name":"River Bend Group Campsite","operator":"Delaware Water Gap National Recreation Area","source":"NJ2002LULC","tents":"yes"}},"41776787":{"location":[41.017258,-74.9277845],"ct":"US","tp":"CS","ts":"2024-02-01T02:03:23Z","tX":298,"tY":383,"tags":{"access":"customers","addr:city":"Hardwick","addr:housenumber":"62","addr:postcode":"07825","addr:state":"NJ","addr:street":"Sunset Lake Road","caravans":"no","name":"Happiness Is Camping","source":"NJ2002LULC","static_caravans":"no","tents":"no","website":"https://www.happinessiscamping.org/"}},"41777043":{"location":[41.0138343,-75.0233777],"ct":"US","tp":"CS","ts":"2023-12-04T12:59:58Z","tX":298,"tY":383,"tags":{"disused":"yes","name":"Yards Creek Boy Scout Camp"}},"231284222":{"location":[41.0614965,-74.9454959],"ct":"US","tp":"CS","ts":"2020-05-23T20:51:19Z","tX":298,"tY":383,"tags":{"name":"Camp No-Be-Bo-Sco","openfire":"yes","operator":"Northern New Jersey Council, Boy Scouts of America","scouts":"yes","tents":"yes"}},"260995984":{"location":[41.0384385,-74.9977229],"ct":"US","tp":"CS","ts":"2014-02-10T22:20:54Z","tX":298,"tY":383,"tags":{"name":"AMC Mohican Outdoor Center"}},"520389647":{"location":[41.049936,-75.0758597],"ct":"US","tp":"CS","ts":"2024-01-03T07:49:38Z","tX":298,"tY":383,"tags":{"addr:city":"East Stroudsburg","addr:housenumber":"227","addr:postcode":"18302","addr:state":"PA","addr:street":"Hollow Road","cabins":"yes","caravans":"yes","fee":"yes","internet_access":"wlan","internet_access:fee":"no","name":"Delaware Water Gap / Pocono Mountain KOA Holiday","openfire":"yes","operator":"KOA","phone":"+1 (570) 223-8000","power_supply":"yes","sanitary_dump_station":"yes","shower":"yes","tents":"yes","toilets":"yes","website":"https://koa.com/campgrounds/delaware-water-gap"}},"574905500":{"location":[41.1194668,-75.0663894],"ct":"US","tp":"CS","ts":"2024-01-03T08:03:06Z","tX":298,"tY":383,"tags":{"addr:city":"East Stroudsburg","addr:housenumber":"6837","addr:postcode":"18302","addr:state":"PA","addr:street":"Timothy Lake Road","capacity":"195","caravans":"yes","fee":"yes","internet_access":"wlan","internet_access:fee":"yes","name":"Timothy Lake North","operator":"Thousand Trails","phone":"+1-877-570-2267","shower":"yes","tents":"yes","toilets":"yes","website":"https://thousandtrails.com/pennsylvania/timothy-lake-north-rv/"}},"574909610":{"location":[41.1061102,-75.0585438],"ct":"US","tp":"CS","ts":"2024-01-03T08:06:08Z","tX":298,"tY":383,"tags":{"addr:city":"East Stroudsburg","addr:housenumber":"2043","addr:postcode":"18302","addr:state":"PA","addr:street":"Allegheny Lane","capacity":"312","caravans":"yes","fee":"yes","internet_access":"wlan","internet_access:fee":"yes","name":"Timothy Lake South","operator":"Thousand Trails","shower":"yes","tents":"yes","toilets":"yes"}},"824877059":{"location":[41.0537041,-75.1491174],"ct":"US","tp":"CS","ts":"2020-07-10T13:25:50Z","tX":298,"tY":383,"tags":{"addr:city":"East Stroudsburg","addr:housenumber":"418","addr:postcode":"18301","addr:state":"PA","addr:street":"Craigs Meadow Road","leisure":"summer_camp","name":"Camp Dora Golding","website":"https://campdoragolding.com/"}},"824943151":{"location":[41.0348847,-75.2188194],"ct":"US","tp":"CS","ts":"2020-07-10T17:32:05Z","tX":298,"tY":383,"tags":{"addr:city":"East Stroudsburg","addr:housenumber":"188","addr:postcode":"18301","addr:state":"PA","addr:street":"Campground Road","area":"yes","name":"Cranberry Run Campground","phone":"+15704211462","website":"https://www.poconocamping.com/"}},"995174669":{"location":[41.1021807,-75.0830537],"ct":"US","tp":"CS","ts":"2010-11-19T20:06:14Z","tX":298,"tY":383,"tags":{"name":"Camp Great Bend"}},"995174675":{"location":[41.1056489,-75.0902206],"ct":"US","tp":"CS","ts":"2018-09-04T00:33:02Z","tX":298,"tY":383,"tags":{"name":"Camp Big Springs"}},"995174679":{"location":[41.1293716,-75.1075154],"ct":"US","tp":"CS","ts":"2010-11-19T20:06:14Z","tX":298,"tY":383,"tags":{"name":"Camp Firestone"}},"1126395680":{"location":[41.1176881,-75.0838552],"ct":"US","tp":"CS","ts":"2023-01-02T02:57:03Z","tX":298,"tY":383,"tags":{}},"1236534606":{"location":[41.0469405,-75.154078],"ct":"US","tp":"CS","ts":"2024-01-03T07:53:22Z","tX":298,"tY":383,"tags":{"addr:city":"East Stroudsburg","addr:housenumber":"415","addr:postcode":"18301","addr:state":"PA","addr:street":"Taylor Drive","cabins":"yes","caravans":"yes","fee":"yes","name":"Mountain Vista Campground","openfire":"yes","phone":"+15702230111","sanitary_dump_station":"yes","shower":"yes","tents":"yes","toilets":"yes","website":"https://mountainvistacampground.com/"}},"1236535109":{"location":[41.141907,-75.1576542],"ct":"US","tp":"CS","ts":"2024-01-03T08:00:18Z","tX":298,"tY":383,"tags":{"caravans":"yes","drinking_water":"yes","fee":"yes","name":"Otter Lake Camp Resort","openfire":"yes","phone":"+15702230123","power_supply":"yes","sanitary_dump_station":"yes","shower":"yes","tents":"yes","toilets":"yes","website":"https://otterlake.com/"}},"1314697310":{"location":[41.0891175,-74.9880626],"ct":"US","tp":"CS","ts":"2011-06-07T01:25:01Z","tX":298,"tY":383,"tags":{}},"1314697311":{"location":[41.0892711,-74.987097],"ct":"US","tp":"CS","ts":"2011-06-07T01:25:01Z","tX":298,"tY":383,"tags":{}},"1314697312":{"location":[41.0893844,-74.9893608],"ct":"US","tp":"CS","ts":"2011-06-07T01:25:01Z","tX":298,"tY":383,"tags":{}},"1314697313":{"location":[41.0898048,-74.9903049],"ct":"US","tp":"CS","ts":"2018-04-22T04:03:55Z","tX":298,"tY":383,"tags":{}},"1314697314":{"location":[41.0904436,-74.9907233],"ct":"US","tp":"CS","ts":"2011-06-07T01:25:01Z","tX":298,"tY":383,"tags":{}},"5445752023":{"location":[40.9996113,-75.0899867],"ct":"US","tp":"CS","ts":"2018-03-01T14:32:02Z","tX":298,"tY":383,"tags":{"name":"Backpacker Campsite 2"}},"6006253238":{"location":[41.021604,-75.1156328],"ct":"US","tp":"CS","ts":"2024-01-03T07:46:12Z","tX":298,"tY":383,"tags":{"access":"customers","addr:city":"East Stroudsburg","addr:housenumber":"446","addr:postcode":"18301","addr:state":"PA","addr:street":"Mount Nebo Road","caravans":"yes","fee":"yes","name":"Camp OUT Campground","tents":"yes","website":"https://campoutpoconos.com/"}},"6434482825":{"location":[41.152048,-75.2065314],"ct":"US","tp":"CS","ts":"2019-04-28T20:01:16Z","tX":298,"tY":383,"tags":{"name":"Carpathian Village"}},"6471208579":{"location":[41.0728379,-75.1110887],"ct":"US","tp":"CS","ts":"2019-05-13T23:09:20Z","tX":298,"tY":383,"tags":{"addr:city":"East Stroudsburg","addr:housenumber":"48","addr:postcode":"18302","addr:state":"PA","addr:street":"Pocono Springs Way","name":"Pocono Springs Camp"}},"6647097285":{"location":[41.0554877,-74.9628241],"ct":"US","tp":"CS","ts":"2019-07-25T15:12:29Z","tX":298,"tY":383,"tags":{"name":"Forest campsite"}},"7746750592":{"location":[41.1172265,-74.967485],"ct":"US","tp":"CS","ts":"2020-07-25T14:53:01Z","tX":298,"tY":383,"tags":{"group_only":"yes","name":"Valley View Group Campground"}},"7771345670":{"location":[41.2081768,-74.9240331],"ct":"US","tp":"CS","ts":"2020-07-30T23:02:21Z","tX":298,"tY":383,"tags":{"addr:city":"Dingmans Ferry","addr:housenumber":"127","addr:postcode":"18328","addr:state":"PA","addr:street":"Log and Twig Road","group_only":"yes","name":"Camp Gan Israel in the Poconos"}},"9140623486":{"location":[41.1469207,-74.8940683],"ct":"US","tp":"CS","ts":"2021-10-02T21:06:38Z","tX":298,"tY":383,"tags":{"addr:city":"Walpack Township","addr:housenumber":"9","addr:postcode":"07851","addr:state":"NJ","addr:street":"Route 615","name":"Bear Creek Campgrounds","phone":"973-948-4384"}},"11014250939":{"location":[41.1042861,-75.0889338],"ct":"US","tp":"CS","ts":"2023-06-29T16:21:38Z","tX":298,"tY":383,"tags":{"group_only":"yes","name":"Chippewa"}},"11014250961":{"location":[41.105319,-75.0875843],"ct":"US","tp":"CS","ts":"2023-06-29T16:21:38Z","tX":298,"tY":383,"tags":{"group_only":"yes","name":"Mohawk"}},"11014250970":{"location":[41.1027152,-75.0867718],"ct":"US","tp":"CS","ts":"2023-06-29T16:21:38Z","tX":298,"tY":383,"tags":{"group_only":"yes","name":"Running Fox"}},"11014250982":{"location":[41.1023153,-75.085139],"ct":"US","tp":"CS","ts":"2023-06-29T16:21:38Z","tX":298,"tY":383,"tags":{"group_only":"yes","name":"Deer Run"}},"11014250987":{"location":[41.106994,-75.0936046],"ct":"US","tp":"CS","ts":"2023-06-29T16:21:38Z","tX":298,"tY":383,"tags":{"group_only":"yes","name":"Comanche"}},"11014250997":{"location":[41.105012,-75.0896173],"ct":"US","tp":"CS","ts":"2023-06-29T16:21:38Z","tX":298,"tY":383,"tags":{"group_only":"yes","name":"Chinook"}},"11014251000":{"location":[41.1026901,-75.0828552],"ct":"US","tp":"CS","ts":"2023-06-29T16:21:38Z","tX":298,"tY":383,"tags":{"group_only":"yes","name":"Twin Hill"}},"11014257522":{"location":[41.1037094,-75.0839038],"ct":"US","tp":"CS","ts":"2023-06-29T16:21:38Z","tX":298,"tY":383,"tags":{"group_only":"yes","name":"North Wind"}},"11014257549":{"location":[41.105589,-75.0884179],"ct":"US","tp":"CS","ts":"2023-06-29T16:21:38Z","tX":298,"tY":383,"tags":{"group_only":"yes","name":"Navajo"}},"11014257559":{"location":[41.1048953,-75.0874065],"ct":"US","tp":"CS","ts":"2023-06-29T16:21:38Z","tX":298,"tY":383,"tags":{"group_only":"yes","name":"Little Mohawk"}},"11014257561":{"location":[41.103363,-75.0863024],"ct":"US","tp":"CS","ts":"2023-06-29T16:21:38Z","tX":298,"tY":383,"tags":{"group_only":"yes","name":"Two Feathers"}},"11014257562":{"location":[41.1027977,-75.0848668],"ct":"US","tp":"CS","ts":"2023-06-29T16:21:38Z","tX":298,"tY":383,"tags":{"group_only":"yes","name":"Bear Paw"}},"11014261779":{"location":[41.1062307,-75.0900032],"ct":"US","tp":"CS","ts":"2023-06-29T16:34:31Z","tX":298,"tY":383,"tags":{"group_only":"yes","name":"Staff"}},"11016168064":{"location":[41.1079293,-75.0892934],"ct":"US","tp":"CS","ts":"2023-06-30T14:22:00Z","tX":298,"tY":383,"tags":{"group_only":"yes","name":"Shawnee"}},"11016168067":{"location":[41.1078186,-75.0899972],"ct":"US","tp":"CS","ts":"2023-06-30T14:22:00Z","tX":298,"tY":383,"tags":{"group_only":"yes","name":"Seneca"}},"11016168073":{"location":[41.1078941,-75.0903723],"ct":"US","tp":"CS","ts":"2023-06-30T14:22:00Z","tX":298,"tY":383,"tags":{"group_only":"yes","name":"Shoshone"}},"11016168082":{"location":[41.1069511,-75.090409],"ct":"US","tp":"CS","ts":"2023-06-30T14:22:00Z","tX":298,"tY":383,"tags":{"group_only":"yes","name":"Pueblo"}},"11016168086":{"location":[41.1075371,-75.090404],"ct":"US","tp":"CS","ts":"2023-06-30T14:22:00Z","tX":298,"tY":383,"tags":{"group_only":"yes","name":"Shenandoah"}},"11016244372":{"location":[41.1065313,-75.0923358],"ct":"US","tp":"CS","ts":"2023-06-30T15:08:35Z","tX":298,"tY":383,"tags":{"group_only":"yes","name":"Cherokee"}},"11016244380":{"location":[41.1055042,-75.0927345],"ct":"US","tp":"CS","ts":"2023-06-30T15:08:35Z","tX":298,"tY":383,"tags":{"group_only":"yes","name":"Cheyenne"}},"11016256034":{"location":[41.1074028,-75.0921911],"ct":"US","tp":"CS","ts":"2023-06-30T15:22:09Z","tX":298,"tY":383,"tags":{"group_only":"yes","name":"Cayuga"}},"11102502874":{"location":[41.0830991,-74.9766514],"ct":"US","tp":"CS","ts":"2023-08-09T17:46:42Z","tX":298,"tY":383,"tags":{"access":"yes","backcountry":"yes","capacity:persons":"30","caravans":"no","fee":"no","fireplace":"yes","name":"Alosa Campsites R2-R6","operator":"Delaware Water Gap NRA","static_caravans":"no","tents":"yes"}},"11446650808":{"location":[41.0792445,-74.9167977],"ct":"US","tp":"CS","ts":"2023-12-23T17:34:18Z","tX":298,"tY":383,"tags":{"name":"Upper Wakegan Unit"}},"11446650809":{"location":[41.0789958,-74.9169403],"ct":"US","tp":"CS","ts":"2023-12-23T17:34:18Z","tX":298,"tY":383,"tags":{"name":"Lower Wakegan Unit"}}}