{"40217021":{"location":[40.8870177,-75.0633232],"ct":"US","tp":"CS","ts":"2014-02-22T22:01:40Z","tX":298,"tY":384,"tags":{"name":"Delaware River Family Campground","source":"NJ2002LULC"}},"714786003":{"location":[40.9122807,-75.022417],"ct":"US","tp":"CS","ts":"2023-10-27T06:23:53Z","tX":298,"tY":384,"tags":{"name":"TripleBrook Camping Resort","source":"NJ2002LULC","website":"https://triplebrook.com/"}},"826210217":{"location":[40.9348223,-75.1158783],"ct":"US","tp":"CR","ts":"2024-01-05T19:26:25Z","tX":298,"tY":384,"tags":{"name":"Shady Acres Campground","openfire":"yes","phone":"+15708976230","power_supply":"yes","tents":"no","website":"https://campshadyacres.com/"}},"1237127054":{"location":[40.8714052,-75.0575388],"ct":"US","tp":"CS","ts":"2024-01-05T01:04:33Z","tX":298,"tY":384,"tags":{"caravans":"yes","fee":"yes","name":"Driftstone Campground","openfire":"yes","phone":"+15708976859","sanitary_dump_station":"yes","shower":"yes","tents":"yes","toilets":"yes","website":"http://www.driftstone.com/"}},"5947134947":{"location":[40.9454912,-75.2006149],"ct":"US","tp":"CS","ts":"2019-04-12T23:07:57Z","tX":298,"tY":384,"tags":{"addr:city":"Stroudsburg","addr:housenumber":"355","addr:postcode":"18360","addr:state":"PA","addr:street":"Bangor Mountain Road","name":"Camp Dina"}},"11482326764":{"location":[40.9280553,-75.1508278],"ct":"US","tp":"CS","ts":"2024-01-03T10:00:00Z","tX":298,"tY":384,"tags":{"caravans":"yes","drinking_water":"yes","fee":"yes","name":"Hickory Lake Campground","openfire":"yes","phone":"+15708975811","power_supply":"yes","sanitary_dump_station":"yes","shower":"yes","tents":"yes","toilets":"yes","website":"https://www.hickorylakecampground.com/"}}}