{"86177632":{"location":[38.6051399,-75.0661121],"ct":"US","tp":"CS","ts":"2019-09-29T09:20:34Z","tX":298,"tY":392,"tags":{"name":"South Inlet Campground","source":"Bing Aerial Imagery, local knowledge"}},"158245077":{"location":[38.6262233,-75.1040711],"ct":"US","tp":"CS","ts":"2023-08-26T23:45:20Z","tX":298,"tY":392,"tags":{"ele":"1","gnis:feature_id":"216147","name":"Massey Landing","wikidata":"Q15250698"}},"196122181":{"location":[38.7759331,-75.096946],"ct":"US","tp":"CS","ts":"2023-08-10T14:52:37Z","tX":298,"tY":392,"tags":{"addr:city":"Lewes","addr:housenumber":"15411","addr:postcode":"19958","addr:state":"DE","addr:street":"Campground Road","name":"Cape Henlopen State Park Campground","operator":"Delaware State Parks","operator:wikidata":"Q5253364"}},"225521725":{"location":[38.6100452,-75.066199],"ct":"US","tp":"CR","ts":"2021-02-10T18:03:47Z","tX":298,"tY":392,"tags":{"name":"North Inlet Campground"}},"476445314":{"location":[38.6660759,-75.2118655],"ct":"US","tp":"CS","ts":"2019-10-04T21:05:30Z","tX":298,"tY":392,"tags":{"name":"Holly Lake Campground"}},"476445316":{"location":[38.6603321,-75.1982864],"ct":"US","tp":"CS","ts":"2021-05-04T02:06:47Z","tX":298,"tY":392,"tags":{"name":"Holly Lake Campground"}},"547314300":{"location":[38.5560471,-75.2230132],"ct":"US","tp":"CS","ts":"2023-08-26T03:04:24Z","tX":298,"tY":392,"tags":{"addr:city":"Dagsboro","addr:housenumber":"30738","addr:postcode":"19939","addr:state":"DE","addr:street":"Gulls Way Drive","fee":"yes","internet_access":"wlan","name":"Gulls Way Campground"}},"548442004":{"location":[38.5613407,-75.0843035],"ct":"US","tp":"CS","ts":"2017-12-21T20:38:02Z","tX":298,"tY":392,"tags":{"name":"Pine Tree Campground"}},"744518071":{"location":[38.7684574,-75.0884263],"ct":"US","tp":"CS","ts":"2021-08-22T13:13:42Z","tX":298,"tY":392,"tags":{"name":"Primitive Youth Campground","openfire":"yes","picnic_table":"yes","shower":"no","tents":"only","toilets":"yes"}},"749452747":{"location":[38.6265734,-75.1042054],"ct":"US","tp":"CS","ts":"2019-11-25T14:13:08Z","tX":298,"tY":392,"tags":{"addr:city":"Millsboro","addr:housenumber":"20628","addr:postcode":"19966","addr:state":"DE","addr:street":"Long Beach Drive","name":"Massey's Landing Campground"}},"1091502131":{"location":[38.5868284,-75.12115],"ct":"US","tp":"CR","ts":"2022-09-03T06:11:12Z","tX":298,"tY":392,"tags":{}},"6968103642":{"location":[38.7401942,-75.2335066],"ct":"US","tp":"CS","ts":"2019-11-12T05:06:16Z","tX":298,"tY":392,"tags":{"name":"Tall Pines Campground","website":"https://www.tallpines-del.com/"}},"6968112329":{"location":[38.7395985,-75.1306622],"ct":"US","tp":"CS","ts":"2023-10-24T12:33:02Z","tX":298,"tY":392,"tags":{"name":"Big Oaks Campground","website":"https://bigoakscamping.com/index.html"}},"6968088869":{"location":[38.6326504,-75.1387546],"ct":"US","tp":"CR","ts":"2023-10-24T12:43:17Z","tX":298,"tY":392,"tags":{"name":"Lighthouse Beach RV Resort","website":"https://www.lighthousebeachde.com/"}}}