{"387205456":{"location":[40.5822585,-82.8110692],"ct":"US","tp":"CS","ts":"2024-06-25T07:01:24Z","tX":276,"tY":385,"tags":{"addr:city":"Mount Gilead","addr:housenumber":"4185","addr:postcode":"43338","addr:state":"OH","addr:street":"Mc Kibbben Road","fee":"yes","name":"Yogi Bear's Jellystone Park Camp-Resort at Dogwood Valley","phone":"+1-419-946-5230","website":"https://www.dogwoodvalleycampground.com/"}},"480720155":{"location":[40.5477211,-82.8086081],"ct":"US","tp":"CR","ts":"2017-03-15T20:01:27Z","tX":276,"tY":385,"tags":{}},"521774158":{"location":[40.5231008,-82.7625657],"ct":"US","tp":"CS","ts":"2017-09-06T10:40:07Z","tX":276,"tY":385,"tags":{"name":"Outpost","operator":"Flying Horse Farms"}},"694033835":{"location":[40.7074388,-82.650066],"ct":"US","tp":"CR","ts":"2019-06-02T10:06:35Z","tX":276,"tY":385,"tags":{"name":"Clear Fork Reservoir Campground","phone":"+1-419-884-6277"}},"728420086":{"location":[40.4822298,-82.8545683],"ct":"US","tp":"CR","ts":"2019-09-26T11:08:02Z","tX":276,"tY":385,"tags":{}},"10754811600":{"location":[40.5440257,-82.8110231],"ct":"US","tp":"CR","ts":"2023-03-23T01:38:10Z","tX":276,"tY":385,"tags":{}}}