{"365951567":{"location":[29.8969996,-82.8668253],"ct":"US","tp":"CS","ts":"2015-08-16T08:10:10Z","tX":276,"tY":422,"tags":{"name":"Ellie Ray Campground"}},"1162357034":{"location":[29.954309,-82.798233],"ct":"US","tp":"CR","ts":"2023-04-14T04:28:10Z","tX":276,"tY":422,"tags":{}},"1162357035":{"location":[29.9232543,-82.9241793],"ct":"US","tp":"CR","ts":"2023-04-14T04:28:10Z","tX":276,"tY":422,"tags":{}},"1162357036":{"location":[29.9088115,-82.8655397],"ct":"US","tp":"CR","ts":"2023-04-14T04:28:10Z","tX":276,"tY":422,"tags":{}},"1162699473":{"location":[29.8970702,-82.8664751],"ct":"US","tp":"CR","ts":"2023-04-15T03:55:31Z","tX":276,"tY":422,"tags":{}},"1172923655":{"location":[30.1171329,-82.6592569],"ct":"US","tp":"CR","ts":"2023-05-15T05:12:32Z","tX":276,"tY":422,"tags":{}},"1172923681":{"location":[29.9871219,-82.7648577],"ct":"US","tp":"CR","ts":"2023-05-15T05:12:32Z","tX":276,"tY":422,"tags":{}},"1172923682":{"location":[29.9806774,-82.7496357],"ct":"US","tp":"CR","ts":"2023-05-15T05:12:32Z","tX":276,"tY":422,"tags":{}},"3670735861":{"location":[29.898089,-82.8659077],"ct":"US","tp":"CR","ts":"2015-07-28T18:36:53Z","tX":276,"tY":422,"tags":{"addr:city":"Branford","addr:housenumber":"3349","addr:postcode":"32008","addr:state":"FL","addr:street":"NW 110th Street","name":"Ellie Ray's RV Resort & Lounge","phone":"386-935-9518"}},"12521684201":{"location":[29.9826008,-82.7506157],"ct":"US","tp":"CS","ts":"2025-01-21T23:40:37Z","tX":276,"tY":422,"tags":{"contact:facebook":"IchetuckneeCamping","internet_access":"wlan","name":"Ichetucknee Springs Campground","opening_hours":"24/7","phone":"+13864972285","website":"https://www.ichetuckneespringscampground.com/"}},"12645393301":{"location":[29.9108821,-82.7721508],"ct":"US","tp":"CS","ts":"2025-03-08T13:19:07Z","tX":276,"tY":422,"tags":{"internet_access":"wlan","name":"Bowmanâ€™s Landing","phone":"(813) 300-0912","website":"https://www.bowmanslanding.com"}}}