{"233281774":{"location":[28.3377557,-82.6258337],"ct":"US","tp":"CR","ts":"2022-05-19T06:32:25Z","tX":276,"tY":427,"tags":{"addr:city":"Hudson","addr:housenumber":"11517","addr:postcode":"34669","addr:street":"State Road 52","area":"yes","name":"Lakewood Travel Park","website":"https://lakewoodtravelpark.com/"}},"1013099994":{"location":[28.3259433,-82.7035116],"ct":"US","tp":"CR","ts":"2021-12-17T15:54:21Z","tX":276,"tY":427,"tags":{"name":"Sundance Lakes"}},"1013100009":{"location":[28.3240819,-82.7030397],"ct":"US","tp":"CR","ts":"2021-12-18T19:12:17Z","tX":276,"tY":427,"tags":{"name":"Ja Mar North"}},"1013104935":{"location":[28.3192089,-82.7035015],"ct":"US","tp":"CR","ts":"2021-12-17T16:18:40Z","tX":276,"tY":427,"tags":{"name":"Ja Mar South"}},"1013104936":{"location":[28.3182188,-82.7025823],"ct":"US","tp":"CR","ts":"2021-12-17T16:18:40Z","tX":276,"tY":427,"tags":{"name":"Jasmine Lakes Travel park"}},"1013359035":{"location":[28.3113059,-82.7052574],"ct":"US","tp":"CR","ts":"2021-12-18T17:57:02Z","tX":276,"tY":427,"tags":{"name":"Oak Springs RV Resoirt"}},"1020426024":{"location":[28.3717007,-82.6589134],"ct":"US","tp":"CR","ts":"2022-01-12T01:47:39Z","tX":276,"tY":427,"tags":{"name":"Barrington Hills RV Resort"}},"1023429783":{"location":[28.3215176,-82.6970223],"ct":"US","tp":"CR","ts":"2022-01-24T01:30:33Z","tX":276,"tY":427,"tags":{"name":"Tropic Breeze RV Resort"}},"1052342410":{"location":[28.359696,-82.6981189],"ct":"US","tp":"CR","ts":"2022-04-17T00:01:35Z","tX":276,"tY":427,"tags":{"name":"Old Dixie Highway RV Park"}},"1148352596":{"location":[28.5426012,-82.6278925],"ct":"US","tp":"CS","ts":"2023-02-21T22:40:38Z","tX":276,"tY":427,"tags":{"addr:city":"Bayport","addr:country":"US","addr:housenumber":"8092","addr:postcode":"34607","addr:state":"FL","addr:street":"Marys Fish Camp Road","email":"marysfishcampbayport1@gmail.com","name":"Mary's Fish Camp","opening_hours":"Mo-Fr 08:00-18:00","phone":"+1-352-597-3474","website":"https://marysfishcamp.org/"}}}