{"203228511":{"location":[-36.1066575,174.2282982],"ct":"NZ","tp":"CS","ts":"2024-03-18T05:06:20Z","tX":1007,"tY":622,"tags":{"email":"info@paparoamotorcamp.co.nz","name":"Paparoa Motor Camp","phone":"+64 9 431 6515","website":"https://paparoamotorcamp.co.nz/"}},"243329000":{"location":[-36.1341738,174.1892184],"ct":"NZ","tp":"CS","ts":"2024-03-19T01:18:29Z","tX":1007,"tY":622,"tags":{"addr:city":"Matakohe","addr:country":"NZ","addr:district":"Northland","addr:housenumber":"66","addr:street":"Church Road","email":"matakoheholidaypark@xtra.co.nz","name":"Matakohe Holiday Park","phone":"+64 9 431 6431","website":"https://www.matakoheholidaypark.co.nz/"}},"6315044885":{"location":[-36.1564583,174.2284421],"ct":"NZ","tp":"CS","ts":"2024-03-18T05:06:20Z","tX":1007,"tY":622,"tags":{"name":"Pahi beach motorcamp"}},"4583330990":{"location":[-36.2488675,174.100099],"ct":"NZ","tp":"CR","ts":"2022-03-26T08:30:45Z","tX":1007,"tY":622,"tags":{"addr:street":"Bay View Road","name":"Kellys Bay Campground"}}}