{"592147060":{"location":[49.5422569,-124.7574102],"ct":"CA","tp":"CS","ts":"2022-05-26T23:37:46Z","tX":157,"tY":349,"tags":{"capacity":"10","email":"info@explorebcparks.ca","fee":"yes","internet_access":"no","name":"Fillongley Provincial Campground","operator":"Quality Recreation Ltd.","phone":"+1-250-308-4479","website":"https://www.env.gov.bc.ca/bcparks/explore/parkpgs/fillongley/"}},"1302618230":{"location":[49.4000213,-124.6130424],"ct":"CA","tp":"CS","ts":"2024-07-20T00:52:14Z","tX":157,"tY":349,"tags":{"caravans":"yes","internet_access":"wlan","name":"Qualicum First Nation Campground","tents":"yes"}},"9702017968":{"location":[49.4935283,-124.6661547],"ct":"CA","tp":"CS","ts":"2023-08-19T23:57:46Z","tX":157,"tY":349,"tags":{"access":"private","name":"Heron Rocks (Private)","operator":"Heron Rocks Friendship Centre","website":"https://heronrocks.ca/"}},"11683709118":{"location":[49.5334154,-124.70971],"ct":"CA","tp":"CS","ts":"2024-03-02T05:38:41Z","tX":157,"tY":349,"tags":{"name":"Bradsdadsland Campground"}},"5517682119":{"location":[49.4728798,-124.7949089],"ct":"CA","tp":"CR","ts":"2018-06-20T15:13:20Z","tX":157,"tY":349,"tags":{"addr:housenumber":"8248","addr:street":"South Island Highway","name":"Lighthouse RV Park","phone":"+1-250-335-1667"}},"11887354269":{"location":[49.4024034,-124.6248253],"ct":"CA","tp":"CR","ts":"2024-05-07T18:44:44Z","tX":157,"tY":349,"tags":{"addr:housenumber":"5970","addr:postcode":"V9K2N1","addr:street":"West Island Highway","name":"Qualicum Bay Resort","website":"https://resortbc.com/"}}}