{"11333883":{"location":[49.3355637,-124.7409837],"ct":"CA","tp":"CS","ts":"2021-07-24T18:54:07Z","tX":157,"tY":350,"tags":{"name":"Twin Pines Campground","website":"https://www.rdn.bc.ca/camping-at-horne-lake"}},"11333884":{"location":[49.3377703,-124.7402775],"ct":"CA","tp":"CS","ts":"2021-07-24T18:54:07Z","tX":157,"tY":350,"tags":{"name":"Paradise Bay Campground","shower":"no","website":"https://www.rdn.bc.ca/camping-at-horne-lake"}},"11333885":{"location":[49.3477156,-124.7394983],"ct":"CA","tp":"CS","ts":"2021-07-24T18:54:07Z","tX":157,"tY":350,"tags":{"caravans":"yes","internet_access":"no","name":"North Park Campground","openfire":"yes","shower":"no","tents":"yes","website":"https://www.rdn.bc.ca/camping-at-horne-lake"}},"328492363":{"location":[49.2639453,-124.7549184],"ct":"CA","tp":"CR","ts":"2019-07-17T21:24:14Z","tX":157,"tY":350,"tags":{"addr:housenumber":"2404","addr:street":"Timberlane Road","name":"Timberlodge Motor Inn & RV Campground","phone":"+1-250-723-9415","website":"https://www.timberlodgerv.ca/"}},"418543967":{"location":[49.3082131,-124.551485],"ct":"CA","tp":"CS","ts":"2022-05-26T23:44:41Z","tX":157,"tY":350,"tags":{"capacity":"41","email":"office@rlcparks.ca","fee":"yes","internet_access":"no","name":"Little Qualicum Falls - Lower Campground","operator":"R.L.C. Enterprize Ltd.","phone":"+1-250-474-1336","power_supply":"no","sanitary_dump_station":"no","website":"https://www.env.gov.bc.ca/bcparks/explore/parkpgs/little_qualicum_falls/","wheelchair":"yes"}},"418543968":{"location":[49.3111512,-124.5500312],"ct":"CA","tp":"CS","ts":"2022-05-26T23:33:54Z","tX":157,"tY":350,"tags":{"capacity":"55","email":"office@rlcparks.ca","fee":"yes","internet_access":"no","name":"Little Qualicum Falls - Upper Campground","operator":"R.L.C. Enterprize Ltd.","phone":"+1-250-474-1336","power_supply":"no","sanitary_dump_station":"no","website":"https://www.env.gov.bc.ca/bcparks/explore/parkpgs/little_qualicum_falls/"}},"445987048":{"location":[49.3620155,-124.4845621],"ct":"CA","tp":"CS","ts":"2015-01-21T05:47:10Z","tX":157,"tY":350,"tags":{"addr:housenumber":"246","addr:street":"Riverbend Road","caravans":"yes","name":"Cedar Grove RV Park & Campground"}},"842289663":{"location":[49.3473707,-124.6079579],"ct":"CA","tp":"CR","ts":"2024-10-14T07:32:52Z","tX":157,"tY":350,"tags":{"addr:housenumber":"2650","addr:street":"Turnbull Road","name":"Spider Lake Springs"}},"3650589876":{"location":[49.2649913,-124.7840656],"ct":"CA","tp":"SD","ts":"2019-12-06T17:07:08Z","tX":157,"tY":350,"tags":{"access":"yes","fee":"no","name":"Free Sanidump","water_point":"no"}},"4189300998":{"location":[49.2929092,-124.5224375],"ct":"CA","tp":"CS","ts":"2024-10-11T07:35:14Z","tX":157,"tY":350,"tags":{"addr:city":"Qualicum Beach","addr:housenumber":"1268","addr:street":"Chatsworth Road","capacity":"15","fee":"yes","name":"Whiskey Creek RV Campground"}},"5898329086":{"location":[49.2614778,-124.6710914],"ct":"CA","tp":"CS","ts":"2018-09-11T04:25:02Z","tX":157,"tY":350,"tags":{"name":"free camping near a river","name:he":"אזור חניה חינם ללילה"}}}