{"85522715":{"location":[47.9177746,-124.6074197],"ct":"US","tp":"CS","ts":"2023-11-25T17:06:32Z","tX":157,"tY":356,"tags":{"capacity":"94","fee":"yes","name":"Mora Campground","operator":"National Park Service","sanitary_dump_station":"yes","sanitary_dump_station:fee":"yes","toilets":"yes","toilets:disposal":"flush","website":"https://www.nps.gov/olym/planyourvisit/visiting-mora-and-rialto.htm","wheelchair":"yes"}},"878593361":{"location":[47.9025091,-124.6295645],"ct":"US","tp":"CR","ts":"2023-04-15T13:54:38Z","tX":157,"tY":356,"tags":{"addr:city":"LA Push","addr:housenumber":"330","addr:postcode":"98350","addr:state":"WA","addr:street":"Ocean Front Drive","name":"Lonesome Creek RV Park","source:date":"2019-06-15","source:url":"https://quileuteoceanside.com/wp-content/uploads/2019/05/OceansideResortMap-2019.pdf"}},"878593363":{"location":[47.9071545,-124.6353362],"ct":"US","tp":"CR","ts":"2020-11-28T11:48:09Z","tX":157,"tY":356,"tags":{"addr:city":"LA Push","addr:housenumber":"330","addr:postcode":"98350","addr:state":"WA","addr:street":"Ocean Front Drive","name":"Ocean Park Creek RV Park","source:date":"2019-06-15","source_ref":"https://quileuteoceanside.com/wp-content/uploads/2019/05/OceansideResortMap-2019.pdf"}},"978195988":{"location":[47.9256021,-124.5396183],"ct":"US","tp":"CS","ts":"2023-04-08T22:39:26Z","tX":157,"tY":356,"tags":{"access":"customers","fee":"yes","operator":"Manitou Lodge Bed and Breakfast"}},"1079277473":{"location":[47.9124915,-124.5368715],"ct":"US","tp":"CR","ts":"2022-07-17T17:48:02Z","tX":157,"tY":356,"tags":{"addr:city":"Forks","addr:housenumber":"33","addr:street":"Mora Road","area":"yes","name":"Riverview RV Park","website":"https://quileuteoceanside.com"}},"1081234833":{"location":[47.9135311,-124.5337467],"ct":"US","tp":"CS","ts":"2024-09-03T02:00:34Z","tX":157,"tY":356,"tags":{"access":"customers","addr:city":"Forks","addr:housenumber":"7764","addr:postcode":"98331","addr:state":"WA","addr:street":"La Push Road","cabins":"yes","camp_site":"serviced","caravans":"yes","fee":"yes","internet_access":"wlan","kitchen":"no","lit":"no","name":"3 Rivers Resort","phone":"+1-360-374-5300","picnic_table":"yes","reservation":"yes","sanitary_dump_station":"no","shower":"customers","tents":"yes","toilets":"customers","washing_machine":"yes","website":"https://www.3riversresort.net/"}},"1152737116":{"location":[47.858949,-124.5574347],"ct":"US","tp":"CS","ts":"2023-03-12T19:26:28Z","tX":157,"tY":356,"tags":{"access":"yes","backcountry":"yes","caravans":"no","name":"Scotts Creek Camping Area","openfire":"yes","operator":"National Park Service","shower":"no","static_caravans":"no","tents":"yes","toilets":"no"}},"1153873734":{"location":[47.9650029,-124.6653904],"ct":"US","tp":"CS","ts":"2023-03-12T19:32:14Z","tX":157,"tY":356,"tags":{"access":"yes","backcountry":"yes","caravans":"no","name":"Dispersed Camping","openfire":"yes","operator":"National Park Service","shower":"no","static_caravans":"no","tents":"yes","toilets":"no"}},"1153873735":{"location":[47.9559266,-124.6636275],"ct":"US","tp":"CS","ts":"2023-03-12T19:32:14Z","tX":157,"tY":356,"tags":{"access":"yes","backcountry":"yes","caravans":"no","name":"Dispersed Camping","openfire":"yes","operator":"National Park Service","shower":"no","static_caravans":"no","tents":"yes","toilets":"no"}},"1153873736":{"location":[47.9431055,-124.6511747],"ct":"US","tp":"CS","ts":"2025-06-16T21:07:17Z","tX":157,"tY":356,"tags":{"access":"yes","backcountry":"yes","camp_site":"basic","caravans":"no","name":"Hole-in-the-Wall Camp","openfire":"yes","operator":"National Park Service","shower":"no","static_caravans":"no","tents":"yes","toilets":"yes"}},"2845323610":{"location":[47.7708577,-124.467849],"ct":"US","tp":"CS","ts":"2024-05-10T23:30:51Z","tX":157,"tY":356,"tags":{"access":"yes","backcountry":"yes","caravans":"no","name":"Established Campsite","note":"a very small one","openfire":"yes","operator":"National Park Service","static_caravans":"no","tents":"yes","toilets":"no"}},"2845372306":{"location":[47.7987618,-124.480751],"ct":"US","tp":"CS","ts":"2023-03-08T17:43:05Z","tX":157,"tY":356,"tags":{"access":"yes","backcountry":"yes","caravans":"no","name":"Mosquito Creek Camping Area","openfire":"yes","operator":"National Park Service","static_caravans":"no","tents":"yes","toilets":"no"}},"3083849191":{"location":[47.8608887,-124.5575295],"ct":"US","tp":"CS","ts":"2014-09-18T00:59:55Z","tX":157,"tY":356,"tags":{}},"3083849195":{"location":[47.8674899,-124.56921],"ct":"US","tp":"CS","ts":"2024-05-10T23:30:51Z","tX":157,"tY":356,"tags":{"access":"yes","backcountry":"yes","caravans":"no","name":"Established Campsites","openfire":"yes","operator":"National Park Service","static_caravans":"no","tents":"yes","toilets":"no"}},"4339196489":{"location":[47.9170195,-124.555288],"ct":"US","tp":"CS","ts":"2023-07-10T23:30:07Z","tX":157,"tY":356,"tags":{"addr:city":"Forks","addr:housenumber":"1071","addr:postcode":"98331","addr:state":"WA","addr:street":"Mora Road","backcountry":"no","camp_site":"deluxe","caravans":"no","drinking_water":"yes","hot_water":"yes","kitchen":"yes","name":"Cycle Camp","operator":"Cycle Camp Inc.","payment:cash":"yes","reservation":"no","shower":"hot","static_caravans":"no","table":"yes","tents":"yes","toilets":"yes","washing_machine":"yes","website":"www.rainforestrun.com/about.html"}},"6584546452":{"location":[47.962626,-124.663835],"ct":"US","tp":"CS","ts":"2023-03-12T19:32:14Z","tX":157,"tY":356,"tags":{"access":"yes","backcountry":"yes","caravans":"no","name":"Dispersed Camping","openfire":"yes","operator":"National Park Service","shower":"no","static_caravans":"no","tents":"yes","toilets":"no"}},"9721737662":{"location":[47.8362971,-124.539376],"ct":"US","tp":"CS","ts":"2023-03-08T17:43:05Z","tX":157,"tY":356,"tags":{"access":"yes","backcountry":"yes","caravans":"no","name":"Toleak Point Camping Area","openfire":"yes","operator":"National Park Service","static_caravans":"no","tents":"yes","toilets":"no"}},"9721737664":{"location":[47.846184,-124.550001],"ct":"US","tp":"CS","ts":"2023-03-08T17:43:05Z","tX":157,"tY":356,"tags":{"access":"yes","backcountry":"yes","caravans":"no","name":"Strawberry Point Camping Area","openfire":"yes","operator":"National Park Service","static_caravans":"no","tents":"yes","toilets":"no"}},"9721737665":{"location":[47.8390507,-124.539],"ct":"US","tp":"CS","ts":"2023-03-08T17:43:05Z","tX":157,"tY":356,"tags":{"access":"yes","backcountry":"yes","caravans":"no","name":"Toleak Point Camping Area","openfire":"yes","operator":"National Park Service","static_caravans":"no","tents":"yes","toilets":"no"}},"10008054507":{"location":[47.9153988,-124.5525359],"ct":"US","tp":"CS","ts":"2023-07-01T17:02:57Z","tX":157,"tY":356,"tags":{"addr:city":"Forks","addr:housenumber":"937","addr:postcode":"98331","addr:state":"WA","addr:street":"Mora Road","email":"talie2002@yahoo.com","fee":"yes","name":"Prior Homestead Campground","payment:cash":"yes"}},"10721848356":{"location":[47.8782639,-124.5870776],"ct":"US","tp":"CS","ts":"2023-03-08T17:52:39Z","tX":157,"tY":356,"tags":{"access":"yes","backcountry":"yes","caravans":"no","name":"Third Beach Camping Area","openfire":"yes","operator":"National Park Service","static_caravans":"no","tents":"yes","toilets":"no"}},"10721848357":{"location":[47.8909041,-124.6264967],"ct":"US","tp":"CS","ts":"2023-03-08T17:52:39Z","tX":157,"tY":356,"tags":{"access":"yes","backcountry":"yes","caravans":"no","name":"Second Beach Camping Area","openfire":"yes","operator":"National Park Service","static_caravans":"no","tents":"yes","toilets":"no"}},"9897609022":{"location":[47.9172004,-124.6048064],"ct":"US","tp":"SD","ts":"2022-07-19T14:05:39Z","tX":157,"tY":356,"tags":{"fee":"yes"}}}