{"10071807":{"location":[58.7221239,11.1993398],"ct":"SE","tp":"CS","ts":"2019-09-24T13:27:20Z","tX":543,"tY":304,"tags":{"contact:website":"http://www.saltvikscamping.se/","name":"Saltviks Camping"}},"10553742":{"location":[58.68784,11.2247658],"ct":"SE","tp":"CS","ts":"2020-01-07T12:16:14Z","tX":543,"tY":304,"tags":{"addr:city":"Grebbestad","addr:postcode":"457 95","addr:street":"Sövallsvägen","name":"Sövalls Camping"}},"10921243":{"location":[58.7110717,11.2328546],"ct":"SE","tp":"CS","ts":"2023-08-06T10:44:34Z","tX":543,"tY":304,"tags":{"addr:city":"Grebbestad","addr:country":"SE","addr:housenumber":"2","addr:postcode":"45795","addr:street":"Norra Edsvik","backcountry":"no","caravans":"yes","check_date":"2023-08-06","dog":"yes","drinking_water":"yes","email":"edsvik@firstcamp.se","fee":"yes","group_only":"no","internet_access":"wlan","internet_access:fee":"customers","internet_access:ssid":"First Camp Guest","name":"First Camp Edsvik - Grebbestad","phone":"+46 525 10 39 4","power_supply":"yes","reservation":"yes","sanitary_dump_station":"yes","shower":"yes","static_caravans":"yes","tents":"yes","toilets":"yes","website":"https://firstcamp.de/reiseziele/edsvik-grebbestad"}},"725693879":{"location":[58.8119638,11.2265414],"ct":"SE","tp":"CS","ts":"2019-09-17T21:23:48Z","tX":543,"tY":304,"tags":{"name":"Galtö camping"}},"4347046232":{"location":[58.7568311,11.1783936],"ct":"SE","tp":"SD","ts":"2017-09-29T00:47:43Z","tX":543,"tY":304,"tags":{"access":"yes","addr:place":"Havstenssund, norra hamn (Kommun: Tanum Longitud: 11.177129 Latitud: 58.755962)","boat":"yes","fee":"no","opening_hours":"24/7","sanitary_dump_station:accepted":"black_water","sanitary_dump_station:pump-out":"yes","seamark:small_craft_facility:category":"pump-out","seamark:type":"small_craft_facility","vehicle":"no","waterway":"sanitary_dump_station","website":"https://hamnkartan.azurewebsites.net"}},"4347049715":{"location":[58.8008808,11.1636491],"ct":"SE","tp":"SD","ts":"2020-01-18T18:35:14Z","tX":543,"tY":304,"tags":{"access":"yes","boat":"yes","description":"Tömningsstation","fee":"no","opening_hours":"24/7","sanitary_dump_station:accepted":"black_water","sanitary_dump_station:pump-out":"yes","seamark:small_craft_facility:category":"pump-out","seamark:type":"small_craft_facility","vehicle":"no","waterway":"sanitary_dump_station","website":"https://hamnkartan.azurewebsites.net"}}}