{"24166219":{"location":[54.490076,11.0188068],"ct":"DE","tp":"CS","ts":"2023-04-15T13:19:29Z","tX":543,"tY":326,"tags":{"addr:city":"Fehmarn","addr:housenumber":"1","addr:postcode":"23769","addr:street":"Wallnau","caravans":"yes","email":"wallnau@strandcamping.de","fax":"+49 4372 1829","name":"Strandcamping Wallnau","phone":"+49 4372 456","shower":"yes","static_caravans":"yes","tents":"yes","toilets":"yes","toilets:wheelchair":"yes","website":"https://www.strandcamping.de/","wheelchair":"yes"}},"24166626":{"location":[54.4122709,11.099627],"ct":"DE","tp":"CS","ts":"2024-09-16T17:18:03Z","tX":543,"tY":326,"tags":{"caravans":"yes","drinking_water":"yes","internet_access":"wlan","name":"Camping Strukkamphuk","power_supply":"yes","sanitary_dump_station":"yes","shower":"yes","tents":"yes","toilets":"yes","toilets:wheelchair":"yes","website":"https://www.strukkamphuk.de/","wheelchair":"yes"}},"24944003":{"location":[54.4049969,11.1774444],"ct":"DE","tp":"CS","ts":"2025-02-11T11:07:58Z","tX":543,"tY":326,"tags":{"addr:city":"Fehmarn","addr:housenumber":"100","addr:postcode":"23769","addr:street":"Wulfener Hals Weg","backcountry":"no","caravans":"yes","contact:email":"info@wulfenerhals.de","contact:phone":"+49 4371 8628 0","contact:website":"https://www.wulfenerhals.de/","dog":"yes","email":"info@wulfenerhals.de","fee":"yes","group_only":"no","internet_access":"wlan","internet_access:fee":"yes","internet_access:operator":"Wulfner Hals","name":"Wulfener Hals","operator":"Riechey Freizeitanlagen GmbH & Co. KG","payment:apple_pay":"yes","payment:cash":"yes","payment:credit_cards":"yes","payment:debit_cards":"yes","payment:girocard":"yes","payment:mastercard":"yes","payment:notes":"yes","payment:visa":"yes","phone":"+49 4371 86 28 0","reservation":"recommended","shower":"yes","stars":"5","tents":"yes","toilets":"yes","website":"https://www.wulfenerhals.de/camping-fehmarn.html","wheelchair":"limited"}},"28446867":{"location":[54.5080275,11.1931198],"ct":"DE","tp":"CR","ts":"2021-08-21T11:14:59Z","tX":543,"tY":326,"tags":{"fee":"yes","internet_access":"no","name":"Wohnmobilparkplatz Grüner Brink","power_supply":"no","sanitary_dump_station":"no"}},"50597668":{"location":[54.4532436,11.0134828],"ct":"DE","tp":"CS","ts":"2024-06-29T18:03:00Z","tX":543,"tY":326,"tags":{"caravans":"yes","description:de":"Bargeloser Campingplatz","fee":"yes","name":"Campingplatz Flüggerteich","payment:cards":"yes","payment:cash":"no","tents":"no","url":"http://www.flueggerteich.de/"}},"50597670":{"location":[54.4540165,11.0076525],"ct":"DE","tp":"CS","ts":"2024-09-22T16:14:45Z","tX":543,"tY":326,"tags":{"access":"customers","addr:city":"Fehmarn","addr:housenumber":"2","addr:postcode":"23769","addr:street":"Flügge","caravans":"yes","dog":"yes","dryer":"yes","email":"info@fluegger-strand.de","fee":"yes","internet_access":"yes","internet_access:fee":"yes","kitchen":"yes","name":"Camping Flügger Strand","note":"Campingplatz mit Tour- und Dauercampern, Mietwohnwagen und Ferienhäusern","opening_hours":"Apr-Sep","operator":"Familie Köneking","payment:cash":"yes","payment:credit_card":"yes","payment:girocard":"yes","payment:mastercard":"yes","payment:visa":"yes","phone":"+49 4372 714","power_supply":"yes","sanitary_dump_station":"yes","tents":"yes","washing_machine":"yes","website":"https://www.fluegger-strand.de/"}},"50891813":{"location":[54.5284608,11.0987621],"ct":"DE","tp":"CS","ts":"2024-04-27T17:54:17Z","tX":543,"tY":326,"tags":{"access":"customers","addr:city":"Fehmarn","addr:housenumber":"24","addr:postcode":"23769","addr:street":"Altenteil","caravans":"yes","drinking_water":"yes","fee":"yes","name":"Belt-Camping-Fehmarn","operator":"Familie Averhoff","power_supply":"yes","shower":"yes","tents":"yes","toilets":"yes","toilets:wheelchair":"yes","website":"https://www.belt-camping-fehmarn.de/","wheelchair":"yes"}},"50893749":{"location":[54.5036774,11.2145275],"ct":"DE","tp":"CS","ts":"2024-07-22T07:32:35Z","tX":543,"tY":326,"tags":{"addr:city":"Fehmarn","addr:postcode":"23769","caravans":"yes","contact:fax":"+49 4371 864702","contact:mobile":"+49 171 2851288","contact:phone":"+49 4371 3492","drinking_water":"yes","name":"Camping Puttgarden","postal_code":"23769","sanitary_dump_station":"yes","shower":"yes","tents":"yes","toilets":"yes","website":"https://camping-puttgarden.de/"}},"50905946":{"location":[54.5221747,11.1479549],"ct":"DE","tp":"CS","ts":"2025-01-31T13:37:54Z","tX":543,"tY":326,"tags":{"caravans":"yes","drinking_water":"yes","name":"Camping am Niobe","sanitary_dump_station":"no","toilets":"yes","website":"https://www.camping-am-niobe.de/"}},"50955131":{"location":[54.5309919,11.0773442],"ct":"DE","tp":"CS","ts":"2023-08-02T10:05:14Z","tX":543,"tY":326,"tags":{"addr:city":"Fehmarn","addr:housenumber":"21","addr:place":"Altenteil","addr:postcode":"23769","caravans":"yes","dog":"leashed","drinking_water":"yes","email":"moin@ahoi-camps.de","internet_access":"wlan","internet_access:fee":"yes","name":"Ahoi-Camp Fehmarn","opening_hours":"01.04.-30.09.","operator":"Camper´s Friend GmbH, Hamburg","phone":"+49 4372 9999778","power_supply":"yes","reservation":"yes","shower":"yes","tents":"yes","toilets":"yes","website":"https://ahoi-camp-fehmarn.de/","wheelchair":"yes"}},"51000622":{"location":[54.4141762,11.2448842],"ct":"DE","tp":"CS","ts":"2024-05-10T21:43:52Z","tX":543,"tY":326,"tags":{"addr:city":"Fehmarn","addr:country":"DE","addr:housenumber":"100","addr:postcode":"23769","addr:street":"Zum Meeresstrand","addr:suburb":"Meeschendorf","caravans":"yes","drinking_water":"yes","name":"Insel Camp Fehmarn","shower":"yes","tents":"yes","website":"https://www.inselcamp.de/","wheelchair":"yes"}},"51042633":{"location":[54.4044152,11.1417801],"ct":"DE","tp":"CS","ts":"2024-04-27T17:47:01Z","tX":543,"tY":326,"tags":{"addr:city":"Fehmarn","addr:housenumber":"70","addr:postcode":"23769","addr:street":"Fehmarnsund","capacity:permanent_camping":"300","capacity:touristic":"200","caravans":"yes","contact:email":"campingmiramar@t-online.de","contact:fax":"+49 4371 868044","contact:phone":"+49 4371 3220","dog":"yes","drinking_water":"yes","fee":"yes","motor_vehicle":"yes","motorhome":"yes","name":"Miramar","permanent_camping":"yes","power_supply":"yes","sanitary_dump_station":"yes","shower":"yes","static_caravans":"yes","surface":"grass","tents":"yes","toilets":"yes","washing_machine":"yes","website":"https://camping-miramar.de/"}},"51240805":{"location":[54.5001005,11.1799227],"ct":"DE","tp":"CS","ts":"2021-08-12T07:21:20Z","tX":543,"tY":326,"tags":{"capacity":"50","contact:email":"info@campingplatz-johannisberg.de","contact:phone":"+49 4371 6059926","fee":"yes","name":"Campingplatz Johannisberg","operator":"Marcus Klemp & Thorge Weier","power_supply":"yes","sanitary_dump_station":"yes","water_point":"yes","website":"https://www.campingplatz-johannisberg.de/"}},"51433446":{"location":[54.4148361,11.2437596],"ct":"DE","tp":"CS","ts":"2024-05-09T21:54:44Z","tX":543,"tY":326,"tags":{"addr:city":"Fehmarn","addr:housenumber":"110","addr:postcode":"23769","addr:street":"Zum Meeresstrand","addr:suburb":"Meeschendorf","description":"Mittagsruhe von 13 - 15 Uhr","fee":"yes","name":"Europa-Camping","operator":"Martina Vintz","phone":"+49 4371 2419","surface":"grass","website":"https://europacamping-vintz.de/"}},"51729472":{"location":[54.4124219,11.1953635],"ct":"DE","tp":"PK","ts":"2022-07-20T20:25:38Z","tX":543,"tY":326,"tags":{"access":"yes","capacity:disabled":"2","fee":"Mar 01-Oct 31 10:00-18:00","motorcar":"yes","motorcycle":"yes","motorhome":"yes","name":"Südstrand West","parking":"surface","wheelchair":"yes"}},"51729474":{"location":[54.4108601,11.2025704],"ct":"DE","tp":"PK","ts":"2024-04-27T17:12:42Z","tX":543,"tY":326,"tags":{"access":"yes","fee":"Mar 01-Oct 31 10:00-18:00","motorcar":"yes","motorcycle":"yes","motorhome":"yes","name":"Südstrand Mitte","parking":"surface"}},"91958354":{"location":[54.4070584,11.1742412],"ct":"DE","tp":"CR","ts":"2023-09-15T14:43:45Z","tX":543,"tY":326,"tags":{"addr:city":"Fehmarn","addr:country":"DE","addr:housenumber":"1","addr:postcode":"23769","addr:street":"Wulfener Hals Weg","addr:suburb":"Wulfen","contact:fax":"+49 4371 3723","contact:phone":"+49 4371 8628-0","email":"camping@wulfenerhals.de","fee":"yes","name":"Wohnmobilpark Wulfener Hals","power_supply":"yes","website":"https://www.wulfenerhals.de/"}},"172558342":{"location":[54.5271713,11.1132596],"ct":"DE","tp":"CS","ts":"2023-04-04T06:45:17Z","tX":543,"tY":326,"tags":{"name":"Teichhof Camping","website":"https://www.fehmarn-teichhof.de/"}},"311074904":{"location":[54.4425382,11.1893433],"ct":"DE","tp":"CR","ts":"2024-04-27T17:47:01Z","tX":543,"tY":326,"tags":{"addr:city":"Fehmarn","addr:postcode":"23769","addr:street":"Am Steinkamp","bbq":"yes","capacity":"25","caravan_site":"motorhome_stopover","charge":"30 EUR","fee":"yes","internet_access":"yes","internet_access:fee":"customers","name":"Wohnmobilstellplatz Hintz","power_supply":"yes","sanitary_dump_station":"yes","seasonal":"no"}},"360564640":{"location":[54.3772096,10.9554976],"ct":"DE","tp":"CR","ts":"2024-10-01T20:48:50Z","tX":543,"tY":326,"tags":{"addr:city":"Heiligenhafen","addr:postcode":"23774","addr:street":"Eichholzweg","capacity":"18","caravan_site":"motorhome_stopover","caravan_site:type":"harbour","caravans":"no","charge":"14 EUR","charge:category":"D","fee":"yes","internet_access":"wlan","internet_access:fee":"customers","laundry":"yes","motorhome":"yes","name":"Reisemobil Stellplatz Heiligenhafen Binnensee","operator":"HVB - Heiligenhafener Verkehrsbetriebe","power_supply":"yes","reservation":"no","sanitary_dump_station":"no","surface":"asphalt","toilets":"no","water_point":"no","website":"https://www.reisemobilstellplatz-heiligenhafen.de/"}},"391057334":{"location":[54.445848,11.0886845],"ct":"DE","tp":"SD","ts":"2019-07-11T10:26:03Z","tX":543,"tY":326,"tags":{"access":"customers","operator":"Seglerverein Lemkenhafen e. V."}},"445860867":{"location":[54.5213389,11.1550217],"ct":"DE","tp":"CR","ts":"2025-01-31T13:37:54Z","tX":543,"tY":326,"tags":{"caravan_site":"motorhome_stopover","caravan_site:type":"beach;camp_site","caravans":"no","fee":"yes","maxstay":"2 nights","name":"Camping am Niobe","tents":"no"}},"567075813":{"location":[54.3773616,10.9536535],"ct":"DE","tp":"CR","ts":"2024-06-16T15:21:23Z","tX":543,"tY":326,"tags":{"addr:city":"Heiligenhafen","addr:housenumber":"17","addr:postcode":"23774","addr:street":"Eichholzweg","capacity":"81","caravans":"no","charge":"15 EUR","drinking_water":"yes","dryer":"yes","fee":"yes","internet_access":"wlan","internet_access:fee":"no","motorhome":"yes","name":"Reisemobil Stellplatz Heiligenhafen","note":"Bezahlung am Automat","operator":"HVB - Heiligenhafener Verkehrsbetriebe","power_supply":"yes","reservation":"no","sanitary_dump_station":"yes","surface":"paving_stones","toilets":"yes","washing_machine":"yes","water_point":"yes","website":"https://www.reisemobilstellplatz-heiligenhafen.de/"}},"592326683":{"location":[54.5264364,11.1176246],"ct":"DE","tp":"CS","ts":"2012-07-22T18:41:15Z","tX":543,"tY":326,"tags":{"name":"Camping am Deich","url":"http://www.urlaub-in-der-ersten-reihe.de/"}},"620247738":{"location":[54.4576623,11.041672],"ct":"DE","tp":"CS","ts":"2024-07-10T11:45:38Z","tX":543,"tY":326,"tags":{"addr:city":"Fehmarn","addr:housenumber":"10","addr:postcode":"23769","addr:street":"Dörpdiek","addr:suburb":"Sulsdorf","capacity":"20","caravans":"yes","dog":"no","fee":"yes","name":"Minicamping Kleingarn","operator":"Familie Kleingarn","toilets":"yes","website":"https://bauernhof-kleingarn.de/"}},"620579179":{"location":[54.4574632,11.0472991],"ct":"DE","tp":"CS","ts":"2024-07-10T11:45:38Z","tX":543,"tY":326,"tags":{"addr:city":"Fehmarn","addr:housenumber":"11","addr:postcode":"23769","addr:street":"Gollendorfer Weg","capacity":"20","dog":"yes","fee":"yes","name":"Minicamping Kleingarn","operator":"Familie Kleingarn","website":"https://bauernhof-kleingarn.de/"}},"808831715":{"location":[54.4127735,11.2081595],"ct":"DE","tp":"CR","ts":"2024-04-27T17:12:42Z","tX":543,"tY":326,"tags":{"caravan_site":"motorhome_stopover","caravan_site:type":"harbour","caravans":"no","charge":"12 EUR","fee":"yes","name":"Stellplatz Parkplatz Burgtiefe Südstrand","tents":"no"}},"840088011":{"location":[54.4240492,11.2255783],"ct":"DE","tp":"CR","ts":"2020-08-24T08:36:58Z","tX":543,"tY":326,"tags":{}},"1268254197":{"location":[54.4141602,11.2489546],"ct":"DE","tp":"CR","ts":"2025-01-31T13:44:31Z","tX":543,"tY":326,"tags":{"caravan_site":"motorhome_stopover","caravan_site:type":"beach;camp_site","charge":"22 EUR","charge:conditional":"18 EUR @ (\"low_season\")","email":"info@camping-suedstrand.de","fee":"yes","name":"WoMo Camping Südstrand Fehmarn","power_supply":"yes","power_supply:maxcurrent":"6","reservation":"no","sanitary_dump_station":"yes","toilets":"no","website":"https://www.camping-suedstrand.de/de/wohnmobile.php"}},"1277616283":{"location":[54.4122549,11.1951864],"ct":"DE","tp":"CR","ts":"2024-04-27T17:12:42Z","tX":543,"tY":326,"tags":{"capacity":"4","caravan_site":"motorhome_stopover","caravan_site:type":"harbour","charge":"12 EUR","fee":"yes","internet_access":"no","maxstay":"24 hours","name":"Stellplatz Burgtiefe an Yachthafen","power_supply":"no","reservation":"no","sanitary_dump_station":"no","tents":"no"}},"1277616284":{"location":[54.4114558,11.2022291],"ct":"DE","tp":"CR","ts":"2024-04-27T17:12:42Z","tX":543,"tY":326,"tags":{"capacity":"18","caravan_site":"motorhome_stopover","caravan_site:type":"beach","caravans":"no","charge":"12 EUR","description":"Parkplatz ohne weitere direkte Infrastruktur, Toiletten Richtung Strand oder Hafen","dog":"yes","fee":"yes","maxstay":"24 hours","name":"Stellplatz Fehmarn Südstrand Mitte","power_supply":"no","sanitary_dump_station":"no","tents":"no","toilets":"no","water_point":"no"}},"1300519372":{"location":[54.4479347,11.0511544],"ct":"DE","tp":"CR","ts":"2024-12-27T14:17:33Z","tX":543,"tY":326,"tags":{"caravan_site":"motorhome_stopover","caravan_site:type":"harbour","email":"heinrich.scheel@t-online.de","fee":"yes","name":"Ferienhof Scheel Campingwiese","phone":"+49 4372 223","power_supply":"yes","reservation":"yes","seasonal":"yes","surface":"grass","website":"https://www.ferienhof-scheel.de/"}},"3161537130":{"location":[54.4205091,11.192583],"ct":"DE","tp":"CR","ts":"2020-03-01T09:01:53Z","tX":543,"tY":326,"tags":{"capacity":"15","fee":"yes","name":"Stellplatz am Kommunalhafen","operator":"Gemeinde Burgstaaken","phone":"+49 4371 506320","power_supply":"no","sanitary_dump_station":"no","website":"https://www.fehmarn.de/fileadmin/Mediendatenbank/Pdf/Flyer/Fehmarn_Wohnmobilstellplaetze.pdf"}},"3161537131":{"location":[54.4160292,11.243946],"ct":"DE","tp":"CR","ts":"2024-04-01T23:31:35Z","tX":543,"tY":326,"tags":{"name":"Wohnmobilstellplatz Insel-Camp Fehmarn"}},"6420466847":{"location":[54.5290384,11.0928789],"ct":"DE","tp":"CR","ts":"2024-04-27T17:54:17Z","tX":543,"tY":326,"tags":{"capacity":"6","caravan_site":"motorhome_stopover","caravan_site:type":"camp_site","charge":"17 EUR","fee":"yes","name":"Wohnmobilstellplatz Belt-Camping-Fehmarn","operator":"Camping Am Belt","power_supply":"yes","sanitary_dump_station":"yes","website":"https://www.belt-camping-fehmarn.de/camping-accommodation/motorhomes"}},"7733123524":{"location":[54.437379,11.1930487],"ct":"DE","tp":"CR","ts":"2020-07-21T06:52:16Z","tX":543,"tY":326,"tags":{"fee":"yes","name":"Parkplatz West","note":"genauere Position folgt im August","opening_hours":"24/7","operator":"Stadt Fehmarn","power_supply":"no","reservation":"no","sanitary_dump_station":"no"}},"11202009511":{"location":[54.5307261,11.0813042],"ct":"DE","tp":"CR","ts":"2024-04-27T18:05:05Z","tX":543,"tY":326,"tags":{"access":"customers","capacity":"15","fee":"yes","maxlength":"6","name":"Surferstellplätze Ahoi Camp","operator":"Ahoi Camp","reservation":"recommended","surface":"ground"}},"5462727511":{"location":[54.3778704,10.9540644],"ct":"DE","tp":"SD","ts":"2025-01-19T22:56:57Z","tX":543,"tY":326,"tags":{"description":"Grauwasser Entsorgung für zwei Fahrzeuge möglich - Frischwasser Versorgung kostenpflichtig jeweils 25 Cent Abbuchung an zwei Wassersäulen >Bezahlung mit Service Karte","fee":"yes"}},"9331774307":{"location":[54.4423381,11.1895002],"ct":"DE","tp":"SD","ts":"2021-12-12T11:25:44Z","tX":543,"tY":326,"tags":{"access":"permit","fee":"yes","water_point":"yes"}},"10917909682":{"location":[54.4035606,11.1398097],"ct":"DE","tp":"SD","ts":"2023-05-22T09:28:49Z","tX":543,"tY":326,"tags":{"sanitary_dump_station:chemical_toilet":"yes"}},"11892365478":{"location":[54.4134181,11.2459703],"ct":"DE","tp":"SD","ts":"2024-05-09T21:54:44Z","tX":543,"tY":326,"tags":{"access":"customers","fee":"no","opening_hours":"24/7","sanitary_dump_station:basin":"yes"}},"11895736698":{"location":[54.4156899,11.2455676],"ct":"DE","tp":"SD","ts":"2024-05-10T20:51:17Z","tX":543,"tY":326,"tags":{"access":"customers","fee":"no","opening_hours":"24/7","sanitary_dump_station:basin":"yes"}},"11895798481":{"location":[54.4160146,11.2444505],"ct":"DE","tp":"SD","ts":"2024-05-10T21:43:52Z","tX":543,"tY":326,"tags":{}}}