{"7673845":{"location":[54.3442266,11.0643383],"ct":"DE","tp":"CS","ts":"2022-09-25T07:33:40Z","tX":543,"tY":327,"tags":{"email":"info@camping-seekamp.de","fax":"+49 4365 8390","name":"Campingplatz Seekamp","phone":"+49 4365 456","website":"https://www.camping-seekamp.de/"}},"22795363":{"location":[54.3044184,11.072653],"ct":"DE","tp":"CS","ts":"2023-11-06T17:13:38Z","tX":543,"tY":327,"tags":{"name":"Costa Sahna","website":"https://costa-sahna.de/"}},"33752813":{"location":[54.3263358,11.0691105],"ct":"DE","tp":"CS","ts":"2024-01-12T10:24:47Z","tX":543,"tY":327,"tags":{"addr:city":"Neukirchen","addr:housenumber":"7","addr:postcode":"23779","addr:street":"Ostermader Kamp","addr:suburb":"Ostermade","alt_website":"http://www.campingplatz-am-ostseestrand.de","caravans":"yes","fee":"yes","name":"Campingplatz Behnke","operator":"https://www.entspannt-am-ostseestrand.de/platzplan.html","static_caravans":"yes","tents":"yes","website":"https://www.entspannt-am-ostseestrand.de/platzplan.html"}},"33752820":{"location":[54.3221688,11.0711117],"ct":"DE","tp":"CS","ts":"2021-06-23T11:20:32Z","tX":543,"tY":327,"tags":{"name":"Hohes Ufer","website":"https://www.camping-hohes-ufer.de/"}},"33752841":{"location":[54.3397676,11.0670989],"ct":"DE","tp":"CS","ts":"2023-08-18T20:33:08Z","tX":543,"tY":327,"tags":{"caravans":"yes","email":"info@suetel.de","fax":"+49 4365 979451","name":"Campingplatz Sütel","operator":"Christoph Wiese-Dohse","phone":"+49 4365 451","tents":"yes","website":"https://www.campingplatz-suetel.de"}},"37892758":{"location":[54.1632475,10.9987048],"ct":"DE","tp":"CS","ts":"2021-05-28T07:33:35Z","tX":543,"tY":327,"tags":{"name":"Porta del Sol","website":"https://www.porta-del-sol.de/"}},"37892759":{"location":[54.162718,11.0048978],"ct":"DE","tp":"CS","ts":"2021-05-28T08:19:09Z","tX":543,"tY":327,"tags":{"name":"Hohe Leuchte","website":"https://camping-groemitz.de/camping-hohe-leuchte/camping"}},"42733860":{"location":[54.361046,11.0885942],"ct":"DE","tp":"CS","ts":"2023-08-02T10:05:18Z","tX":543,"tY":327,"tags":{"addr:city":"Großenbrode","addr:country":"DE","addr:housenumber":"3","addr:postcode":"23775","addr:street":"Südstrand","caravans":"yes","drinking_water":"yes","fee":"yes","internet_access":"wlan","name":"Camping-Strandparadies-Großenbrode","power_supply":"yes","shower":"yes","tents":"yes","toilets":"yes","toilets:wheelchair":"yes","website":"http://www.camping-strandparadies-grossenbrode.de/","wheelchair":"yes"}},"47818045":{"location":[54.2539193,11.0765796],"ct":"DE","tp":"CS","ts":"2023-07-21T07:57:13Z","tX":543,"tY":327,"tags":{"caravans":"yes","drinking_water":"yes","internet_access":"wlan","name":"FKK-Camping Ostsee Rosenfelder Strand","nudism":"yes","shower":"yes","tents":"yes","toilets":"yes","wheelchair":"yes"}},"68102146":{"location":[54.3555727,11.0779101],"ct":"DE","tp":"CR","ts":"2023-04-04T13:20:03Z","tX":543,"tY":327,"tags":{"addr:city":"Großenbrode","addr:country":"DE","addr:housenumber":"29","addr:postcode":"23775","addr:street":"Am Kai","contact:mobile":"+49 1522 9224071","fee":"yes","name":"Wohnmobilhafen Wassersportzentrum Großenbrode","power_supply":"yes","sanitary_dump_station":"yes","water_point":"yes","website":"https://www.wassersportzentrum.net/"}},"68102148":{"location":[54.3610775,11.0852713],"ct":"DE","tp":"CR","ts":"2023-04-04T13:18:29Z","tX":543,"tY":327,"tags":{"capacity":"45","contact:email":"info@wohnmobilhafen.de","contact:mobile":"+49 171 5050305","contact:phone":"+49 4367 347","fee":"yes","internet_access":"wlan","internet_access:fee":"no","name":"Wohnmobilhafen Reise","power_supply":"yes","sanitary_dump_station":"yes","water_point":"yes","website":"https://www.wohnmobilhafen-reise.de/","wheelchair":"limited"}},"90883502":{"location":[54.2330597,11.0827883],"ct":"DE","tp":"CS","ts":"2023-09-15T14:43:45Z","tX":543,"tY":327,"tags":{"caravans":"no","email":"breul@freizeit-schwalm-eder.de","group_only":"yes","name":"Jugendcampingplatz Dahme","note":"Kein öffentlicher Platz - Nur angemeldete Jugendgruppen!","phone":"+49 5681 775494","tents":"yes","website":"https://www.freizeit-schwalm-eder.de/27.html"}},"103411047":{"location":[54.2421707,11.0771173],"ct":"DE","tp":"CS","ts":"2024-05-31T07:21:37Z","tX":543,"tY":327,"tags":{"caravans":"yes","name":"Camping Stieglitz","tents":"yes","website":"https://camping-stieglitz.de/"}},"103411078":{"location":[54.2378229,11.0790477],"ct":"DE","tp":"CS","ts":"2024-08-06T20:44:08Z","tX":543,"tY":327,"tags":{"name":"Euro-Camping Zedano / Chemnitzer Platz","website":"https://www.zedano.de/"}},"119422449":{"location":[54.266987,11.0789893],"ct":"DE","tp":"CS","ts":"2023-04-06T09:51:30Z","tX":543,"tY":327,"tags":{"backcountry":"no","caravans":"yes","contact:email":"info@rosenfelder-strand.de","contact:fax":"+49 4365 97867-19","contact:phone":"+49 4365 97867-0","contact:website":"https://www.rosenfelder-strand.de/","dog":"yes","drinking_water":"yes","fee":"yes","internet_access":"wlan","internet_access:fee":"customers","name":"Rosenfelder Strand Ostsee Camping","opening_hours":"Mar-Oct","operator":"Ulrich Bormann","power_supply":"yes","reservation":"recommended","sanitary_dump_station":"yes","shower":"yes","static_caravans":"yes","tents":"yes","toilets":"yes","toilets:wheelchair":"yes","wheelchair":"yes"}},"119422453":{"location":[54.2744414,11.075256],"ct":"DE","tp":"CS","ts":"2024-07-17T04:41:41Z","tX":543,"tY":327,"tags":{"addr:city":"Heringsdorf","addr:housenumber":"1003","addr:postcode":"23777","addr:street":"Strandstraße","name":"Camping Club Süssau"}},"119422467":{"location":[54.2725727,11.0790052],"ct":"DE","tp":"CS","ts":"2020-02-09T16:17:55Z","tX":543,"tY":327,"tags":{"name":"Campingplatz Seestern","operator":"Willi Nath","phone":"+49 4365 7459"}},"119422468":{"location":[54.2747775,11.0813656],"ct":"DE","tp":"CS","ts":"2024-07-17T04:43:57Z","tX":543,"tY":327,"tags":{"addr:housenumber":"27","addr:street":"Strandstraße","name":"Auszeit 27 (ehemals Camping Poseidon)"}},"119565866":{"location":[54.167593,11.0203427],"ct":"DE","tp":"CS","ts":"2021-09-05T16:38:22Z","tX":543,"tY":327,"tags":{"name":"Campingplatz Sonnenland","website":"https://www.groemitz.de/campingplatz-sonnenland"}},"119565928":{"location":[54.1840472,11.0516878],"ct":"DE","tp":"CS","ts":"2021-05-19T08:40:34Z","tX":543,"tY":327,"tags":{"addr:city":"Kellenhusen","addr:housenumber":"16-18","addr:postcode":"23746","addr:street":"Kirschenallee","name":"Campingparadies Kellenhusen","website":"http://www.camping-dahme.de/camping_kellenhusen.php"}},"134903299":{"location":[54.3319503,11.069685],"ct":"DE","tp":"CS","ts":"2021-06-28T06:54:37Z","tX":543,"tY":327,"tags":{"name":"Seepark Sütel","website":"http://seepark-suetel-camping.de/"}},"157071250":{"location":[54.2790283,11.0807333],"ct":"DE","tp":"CS","ts":"2023-11-06T17:13:25Z","tX":543,"tY":327,"tags":{"caravans":"yes","drinking_water":"yes","name":"Camping Park Süssau","power_supply":"yes","shower":"yes","tents":"yes","toilets":"yes","website":"https://www.campingpark-suessau.de/"}},"299530946":{"location":[54.2718593,11.0814647],"ct":"DE","tp":"CS","ts":"2021-04-15T08:36:53Z","tX":543,"tY":327,"tags":{"name":"Camping am Minigolf","operator":"Gerd Heino","phone":"+49 4365284","website":"https://www.camping-ostsee-urlaub.com/"}},"385866107":{"location":[54.1864471,10.9653425],"ct":"DE","tp":"CR","ts":"2021-06-10T19:40:00Z","tX":543,"tY":327,"tags":{"addr:city":"Grömitz","addr:housenumber":"8","addr:postcode":"23743","addr:street":"Kattenberg","addr:suburb":"Cismar","capacity":"5","contact:phone":"+49 4366 1241","fee":"yes","name":"Stellplatz Hofanlage Kattenberg","power_supply":"yes","sanitary_dump_station":"yes","website":"http://www.cismar.de/kreativ/kattenberg.ht"}},"385871240":{"location":[54.1976343,10.9212596],"ct":"DE","tp":"CR","ts":"2021-06-19T11:54:03Z","tX":543,"tY":327,"tags":{"addr:city":"Manhagen","addr:housenumber":"23","addr:postcode":"23738","addr:street":"Dorfstraße","capacity":"5","contact:phone":"+49 4363 731","fee":"yes","name":"Wohnmobil Übernachtungsplatz An der Pferdekoppel","power_supply":"yes","sanitary_dump_station":"yes"}},"505593210":{"location":[54.3332787,11.0665574],"ct":"DE","tp":"CR","ts":"2017-10-23T14:46:31Z","tX":543,"tY":327,"tags":{"name":"Wohnmobilhafen Seepark Sütel","website":"http://seepark-suetel-camping.de/wohnmobilhafen/"}},"835832537":{"location":[54.2362471,11.0800226],"ct":"DE","tp":"CS","ts":"2020-08-10T16:41:05Z","tX":543,"tY":327,"tags":{"name":"Euro-Camping Zedano / Berliner Platz","website":"https://www.zedano.de/"}},"835832539":{"location":[54.2406022,11.0798422],"ct":"DE","tp":"CS","ts":"2020-08-10T16:41:05Z","tX":543,"tY":327,"tags":{"name":"Euro-Camping Zedano / Erfurter Platz","website":"https://www.zedano.de/"}},"835832540":{"location":[54.2348813,11.0810702],"ct":"DE","tp":"CS","ts":"2020-08-10T16:41:05Z","tX":543,"tY":327,"tags":{"name":"Euro-Camping Zedano / Anhalter Platz","website":"https://www.zedano.de/"}},"948068808":{"location":[54.1627747,11.0030765],"ct":"DE","tp":"CS","ts":"2021-05-28T08:19:09Z","tX":543,"tY":327,"tags":{"name":"Campingparadies Neumann"}},"957054082":{"location":[54.3205771,11.0699308],"ct":"DE","tp":"CS","ts":"2021-06-22T07:30:32Z","tX":543,"tY":327,"tags":{"name":"Mobilheimstellplatz \"Klintdoerp\"","website":"https://camping-hohes-ufer.de/klintdoerp.html"}},"961848326":{"location":[54.3593678,11.0380518],"ct":"DE","tp":"CS","ts":"2023-04-04T13:26:41Z","tX":543,"tY":327,"tags":{"contact:phone":"+49 4362 6283","name":"Wiesencamping Lütjenbrode","website":"https://www.wiesencamping.de/"}},"1025610176":{"location":[54.3274631,11.0714733],"ct":"DE","tp":"CS","ts":"2024-01-12T10:24:47Z","tX":543,"tY":327,"tags":{"name":"Campingplatz Christiansen","operator":"Dirk Christiansen"}},"1262706520":{"location":[54.2390494,11.078235],"ct":"DE","tp":"CS","ts":"2024-09-14T08:39:16Z","tX":543,"tY":327,"tags":{"name":"Euro-Camping Zedano / Danziger Platz","website":"https://www.zedano.de/"}},"3892044676":{"location":[54.1950096,10.9924369],"ct":"DE","tp":"CR","ts":"2023-11-06T17:13:34Z","tX":543,"tY":327,"tags":{"addr:city":"Grömitz","addr:postcode":"23743","addr:suburb":"Cismar","capacity":"5","contact:mobile":"+49 170 7060678","fee":"yes","name":"Stellplatz Henriettenhof-Herrenhaus","phone":"+49 4366 884488","power_supply":"yes","sanitary_dump_station":"yes","website":"https://henriettenhof-herrenhaus.de/"}},"8617301390":{"location":[54.2415719,11.0338897],"ct":"DE","tp":"CS","ts":"2023-07-16T04:34:10Z","tX":543,"tY":327,"tags":{"access":"yes","backcountry":"yes","camp_site":"basic","capacity:tents":"2","caravans":"no","contact:email":"post@meeresbrise.de","contact:phone":"+49 4364 471866","fee":"no","maxstay":"1 day","motor_vehicle":"no","name":"Trekkingplatz Gruber See","openfire":"no","operator":"Stiftung Naturschutz Schleswig-Holstein","reservation":"no","shower":"no","tents":"yes","toilets":"no","website":"https://www.naturschutz-sh.de/wildes-sh/trekkingplatz-gruber-see"}},"5562678321":{"location":[54.2653507,11.0781978],"ct":"DE","tp":"CR","ts":"2018-04-18T21:25:19Z","tX":543,"tY":327,"tags":{"addr:city":"Grube","addr:housenumber":"1","addr:postcode":"23749","addr:street":"Rosenfelder Strand","name":"Rosenfelder Strand Ostsee Camping","toilets:wheelchair":"yes","website":"https://www.rosenfelder-strand.de/","wheelchair":"yes"}},"8913031479":{"location":[54.2509197,11.0763106],"ct":"DE","tp":"SD","ts":"2021-07-12T07:30:11Z","tX":543,"tY":327,"tags":{}},"10734422809":{"location":[54.2687027,11.0787857],"ct":"DE","tp":"SD","ts":"2023-03-14T08:47:35Z","tX":543,"tY":327,"tags":{}},"10734422858":{"location":[54.2665156,11.0793342],"ct":"DE","tp":"SD","ts":"2023-03-14T08:47:35Z","tX":543,"tY":327,"tags":{}},"10734422862":{"location":[54.2667974,11.080264],"ct":"DE","tp":"SD","ts":"2023-03-14T08:47:35Z","tX":543,"tY":327,"tags":{}},"10734422865":{"location":[54.2660385,11.0813735],"ct":"DE","tp":"SD","ts":"2023-03-14T08:47:35Z","tX":543,"tY":327,"tags":{}},"10734422974":{"location":[54.2654215,11.0796781],"ct":"DE","tp":"SD","ts":"2023-04-02T11:44:12Z","tX":543,"tY":327,"tags":{}},"12100747931":{"location":[54.3615202,11.0890704],"ct":"DE","tp":"SD","ts":"2024-08-09T13:34:11Z","tX":543,"tY":327,"tags":{"access":"customers","fee":"no","water_point":"yes"}}}