{"14361101":{"location":[54.1189289,10.9199086],"ct":"DE","tp":"CS","ts":"2024-05-13T18:59:05Z","tX":543,"tY":328,"tags":{"caravans":"yes","email":"info@camping-walkyrien.de","fax":"+49 4562 223851","name":"Camping Walkyrien","opening_hours":"Apr 01-Oct 23","phone":"+49 4562 6787","sanitary_dump_station":"customers","stars":"4","tents":"yes","website":"https://www.camping-walkyrien.de/"}},"27492207":{"location":[53.9797608,11.2151249],"ct":"DE","tp":"CS","ts":"2021-08-14T09:44:54Z","tX":543,"tY":328,"tags":{"addr:city":"Boltenhagen","addr:country":"DE","addr:housenumber":"54","addr:postcode":"23946","addr:street":"Ostseeallee","area":"yes","fee":"yes","internet_access":"wlan","internet_access:fee":"no","name":"Regenbogen-Camp","opening_hours:checkin":"Mo-Su 14:00-20:00","opening_hours:checkout":"Mo-Su 08:00-10:00","opening_hours:reception":"Mo-Su 08:00-20:00","phone":"+493882542222","website":"https://www.regenbogen.ag/ferienanlagen/boltenhagen.html","wheelchair":"yes"}},"31304772":{"location":[54.1277415,10.9296609],"ct":"DE","tp":"CS","ts":"2021-08-31T13:44:36Z","tX":543,"tY":328,"tags":{"addr:city":"Schashagen","addr:country":"DE","addr:postcode":"23730","addr:street":"Scharberg","addr:suburb":"Bliesdorf-Strand","contact:email":"info@ostseecamping.de","contact:fax":"+4945621446","contact:phone":"+4945627122","contact:website":"https://www.ostseecamping.de/","name":"Campingplatz Kagelbusch","stars":"5","website":"https://www.ostseecamping.de/","wheelchair":"yes"}},"31304841":{"location":[54.1225168,10.9253805],"ct":"DE","tp":"CS","ts":"2020-07-22T12:36:26Z","tX":543,"tY":328,"tags":{"caravans":"yes","contact:email":"info@campingland-ostsee.de","contact:fax":"+494562255925","contact:phone":"+4945626056","contact:website":"https://campingland-ostsee.de/","name":"Campingland Ostsee","sanitary_dump_station":"yes","tents":"yes","website":"https://campingland-ostsee.de/","wheelchair":"yes"}},"37892761":{"location":[54.161729,10.9925163],"ct":"DE","tp":"CS","ts":"2024-05-03T15:53:12Z","tX":543,"tY":328,"tags":{"caravans":"yes","name":"Camping Ahoi","tents":"no","website":"http://www.ahoi-camping.de/"}},"37892762":{"location":[54.158419,10.9844132],"ct":"DE","tp":"CS","ts":"2021-05-30T09:10:01Z","tX":543,"tY":328,"tags":{"addr:city":"Grömitz","addr:country":"DE","addr:housenumber":"101","addr:postcode":"23743","addr:street":"Mittelweg","name":"Lerchengrund","note":"dieser Campingplatz hat ausschliesslich feste Dauermieter","wheelchair":"limited"}},"52379367":{"location":[54.1569047,10.989474],"ct":"DE","tp":"CS","ts":"2020-10-25T16:46:08Z","tX":543,"tY":328,"tags":{"name":"Camping Mare","website":"https://camping-groemitz.de/camping-mare/camping"}},"121793045":{"location":[54.1078928,10.9026118],"ct":"DE","tp":"CS","ts":"2019-07-28T15:04:21Z","tX":543,"tY":328,"tags":{"name":"Campingplatz Elfenschlucht","operator":"Campingplatz Elfenschlucht / Kleine Elfe","website":"https://www.campingplatz-elfenschlucht.de/"}},"121793046":{"location":[54.1061905,10.899895],"ct":"DE","tp":"CS","ts":"2019-07-28T15:04:21Z","tX":543,"tY":328,"tags":{"name":"Campingplatz Kleine Elfe","operator":"Campingplatz Elfenschlucht / Kleine Elfe","website":"https://www.campingplatz-elfenschlucht.de"}},"223697762":{"location":[53.9814822,11.2174419],"ct":"DE","tp":"CR","ts":"2019-08-18T12:54:43Z","tX":543,"tY":328,"tags":{"capacity":"20","fee":"yes","internet_access":"wlan","internet_access:fee":"no","name":"SP Regenbogen Camp","power_supply":"yes","sanitary_dump_station":"yes","website":"http://www.regenbogen-camp.de/camping_boltenhagen.html","wheelchair":"yes"}},"223697763":{"location":[53.9803892,11.2188398],"ct":"DE","tp":"CR","ts":"2024-04-09T17:19:24Z","tX":543,"tY":328,"tags":{"addr:city":"Boltenhagen","addr:housenumber":"58b","addr:postcode":"23946","addr:street":"Ostseeallee","capacity":"50","drinking_water":"no","fax":"+49 38825 29314","fee":"yes","internet_access":"no","name":"Krämer´s Wohnmobilhafen","phone":"+49 38825 23288","power_supply":"yes","sanitary_dump_station":"yes","toilets":"yes","website":"https://www.kraemerswohnmobilhafen.de/"}},"223697764":{"location":[53.9806679,11.2180004],"ct":"DE","tp":"CR","ts":"2023-09-21T16:39:25Z","tX":543,"tY":328,"tags":{"addr:city":"Boltenhagen","addr:housenumber":"58","addr:postcode":"23946","addr:street":"Ostseeallee","capacity":"50","fee":"yes","name":"SP Banana Jack","phone":"+49 163 1418141","power_supply":"yes","sanitary_dump_station":"yes","website":"https://www.bananajack.de/","wheelchair":"yes"}},"233384654":{"location":[54.1598228,10.9855797],"ct":"DE","tp":"CS","ts":"2021-05-31T07:31:58Z","tX":543,"tY":328,"tags":{"addr:city":"Grömitz","addr:country":"DE","addr:housenumber":"111","addr:postcode":"23743","addr:street":"Mittelweg","name":"Camaro","website":"https://www.camping-ferienpark-camaro-groemitz.de/"}},"732632928":{"location":[54.1556652,10.9858156],"ct":"DE","tp":"CS","ts":"2021-05-30T09:10:01Z","tX":543,"tY":328,"tags":{"addr:city":"Grömitz","addr:housenumber":"101","addr:postcode":"23743","addr:street":"Blankwasserweg","name":"Feriencamp Lensterstrand","website":"https://ksvnms.sport-id.de"}},"732632929":{"location":[54.1585758,10.9904678],"ct":"DE","tp":"CR","ts":"2024-03-19T18:10:27Z","tX":543,"tY":328,"tags":{"addr:city":"Grömitz","addr:country":"DE","addr:housenumber":"1","addr:postcode":"23743","addr:street":"Lenster Weg","capacity":"154","caravans":"no","contact:phone":"+49 4562 266 1028","description":"Einfahrt und Ausfahrt über Schrankenanlage mit Nummernschild Erkennung - Check in am Automat. - Gebühr zuzüglich Kurtaxe Wasser und Strom","fee":"yes","internet_access":"wlan","internet_access:fee":"no","motorhome":"designated","name":"Wohnmobilpark \"Achtern Diek\"","power_supply":"yes","sanitary_dump_station":"yes","start_date":"2020-04-30","website":"https://www.womo-groemitz.de"}},"833404959":{"location":[54.0086522,11.1707585],"ct":"DE","tp":"CR","ts":"2010-07-25T21:16:06Z","tX":543,"tY":328,"tags":{"name":"Womo SP Redewisch"}},"948068805":{"location":[54.1613265,11.0010796],"ct":"DE","tp":"CS","ts":"2021-05-28T08:19:09Z","tX":543,"tY":328,"tags":{"name":"Jugendcamp Grömitz"}},"948068807":{"location":[54.1624281,10.9998514],"ct":"DE","tp":"CS","ts":"2021-05-28T08:28:24Z","tX":543,"tY":328,"tags":{"name":"Campingplatz Hanseatic"}},"948955368":{"location":[54.1593496,10.9920538],"ct":"DE","tp":"CS","ts":"2021-05-31T07:31:58Z","tX":543,"tY":328,"tags":{}},"948955370":{"location":[54.1605605,10.9886079],"ct":"DE","tp":"CS","ts":"2021-05-31T07:31:58Z","tX":543,"tY":328,"tags":{}},"1079198071":{"location":[54.120696,10.9243279],"ct":"DE","tp":"CR","ts":"2022-07-17T09:52:57Z","tX":543,"tY":328,"tags":{"name":"Wohnmobilpark Meerblick","website":"https://wohnmobilpark-meerblick.de/"}},"1282564969":{"location":[54.1188775,10.920962],"ct":"DE","tp":"CR","ts":"2024-05-13T18:59:05Z","tX":543,"tY":328,"tags":{"capacity":"54","caravan_site":"motorhome_stopover","caravan_site:type":"camp_site","email":"info@camping-walkyrien.de","fax":"+49 4562 223851","fee":"yes","name":"Wohnmobilpark Ostseeblick","phone":"+49 4562 6787","power_supply":"yes","sanitary_dump_station":"yes","water_point":"yes","website":"https://www.camping-walkyrien.de/show_content_107.1.Wohnmobilpark_Ostseeblick.html"}},"7736951615":{"location":[54.1220455,10.9230334],"ct":"DE","tp":"CR","ts":"2023-01-21T17:35:34Z","tX":543,"tY":328,"tags":{"contact:email":"info@campingland-ostsee.de","contact:fax":"+494562255925","contact:phone":"+4945626056","contact:website":"https://campingland-ostsee.de/","fee":"yes","name":"Campingland Ostsee","power_supply":"yes","sanitary_dump_station":"yes"}},"8784564251":{"location":[54.15784,10.990439],"ct":"DE","tp":"SD","ts":"2021-05-31T06:37:39Z","tX":543,"tY":328,"tags":{}},"9885967036":{"location":[54.1193058,10.9209997],"ct":"DE","tp":"SD","ts":"2022-07-17T09:41:10Z","tX":543,"tY":328,"tags":{}},"9892958459":{"location":[54.1211243,10.9235242],"ct":"DE","tp":"SD","ts":"2022-07-17T09:52:57Z","tX":543,"tY":328,"tags":{}},"10050049419":{"location":[54.1610969,10.9925586],"ct":"DE","tp":"SD","ts":"2022-09-24T23:42:34Z","tX":543,"tY":328,"tags":{}}}