{"135300336":{"location":[53.151853,11.1854735],"ct":"DE","tp":"CR","ts":"2021-02-01T09:03:26Z","tX":543,"tY":332,"tags":{"addr:city":"Dömitz","addr:country":"DE","addr:housenumber":"2","addr:postcode":"19303","addr:street":"Ringstraße","addr:suburb":"Rüterberg","capacity":"10","caravans":"yes","description":"Toilettenkassettenentleerung nur biologisch.","email":"wohnmobil-rueterberg@web.de","fee":"yes","name":"Wohnmobilstellplatz Dorfrepublik Rüterberg","power_supply":"yes","sanitary_dump_station":"yes","sanitary_dump_station:chemical_toilet":"no","shower":"yes","toilets":"yes","water_point":"yes","website":"http://www.wohnmobilstellplatz-rueterberg.de"}},"222387858":{"location":[53.1773302,10.9952556],"ct":"DE","tp":"CS","ts":"2023-07-29T18:36:39Z","tX":543,"tY":332,"tags":{"addr:city":"Hitzacker","addr:country":"DE","addr:housenumber":"1","addr:postcode":"29456","addr:street":"Reetsmoor","addr:suburb":"Tießau","caravans":"yes","contact:email":"info@campingpark-hitzacker.de","contact:fax":"+49 5861 6868","contact:phone":"+49 5861 2725 or 7838","contact:website":"http://www.campingplatz-hitzacker.de/","name":"Campingplatz \"Waldbächlein\"","operator":"Werner Lange","permanent_camping":"yes","tents":"yes"}},"456407310":{"location":[53.2259629,10.9120361],"ct":"DE","tp":"CS","ts":"2022-06-02T18:45:37Z","tX":543,"tY":332,"tags":{"addr:country":"DE","addr:housenumber":"141","addr:postcode":"29490","addr:street":"Elbuferstraße","caravans":"yes","fax":"+49 5853 274","name":"Campingplatz \"Elbufer\"","operator":"Thomas Lütjens","phone":"+49 5853 256, +49 170 5720208","tents":"yes","website":"https://www.campingplatz-elbufer.de/"}},"528992250":{"location":[53.1546049,11.1773427],"ct":"DE","tp":"CR","ts":"2009-10-11T18:34:17Z","tX":543,"tY":332,"tags":{"name":"Dorfrepublik Rüterberg"}},"1340800776":{"location":[53.1224906,11.2470556],"ct":"DE","tp":"CR","ts":"2024-12-07T15:31:16Z","tX":543,"tY":332,"tags":{"capacity":"2","caravan_site":"motorhome_stopover","caravan_site:type":"zoo","email":"kamele-im-wendland@freenet.de","fee":"purchase","name":"Erholungs-Oase Kamele im Wendland","phone":"+49 5865 6999940","reservation":"yes","sanitary_dump_station":"no","seasonal":"no","water_point":"yes","website":"https://www.kamele-im-wendland.com/wohnmobilstellplatz/"}},"3785758291":{"location":[53.1916553,11.0011037],"ct":"DE","tp":"CS","ts":"2020-07-07T21:16:36Z","tX":543,"tY":332,"tags":{"addr:city":"Amt Neuhaus","addr:country":"DE","addr:housenumber":"2","addr:postcode":"19273","addr:street":"Elbstraße","addr:suburb":"Rassau","email":"camping@bankerhof.de","name":"Camping Bankerhof","phone":"+49 38845 449825","shower":"yes","tents":"yes","toilets":"yes","website":"https://www.bankerhof.com/"}},"8431037833":{"location":[53.12225,11.245802],"ct":"DE","tp":"CR","ts":"2021-02-17T07:41:58Z","tX":543,"tY":332,"tags":{}},"8832188398":{"location":[53.1497421,11.0504893],"ct":"DE","tp":"CR","ts":"2023-07-22T14:51:38Z","tX":543,"tY":332,"tags":{"capacity":"25","contact:phone":"+49 5861 808317","description":"Übernachten erlaubt aber Camping verboten, wird vom Ordnungsamt kontrolliert.","fee":"no","maxstay":"24 hours","name":"Bleichwiese","operator":"Stadt Hitzacker","power_supply":"yes","sanitary_dump_station":"yes","water_point":"yes","website":"https://www.elbtalaue.de/home/meine-samtgemeinde/samtgemeinde-elbtalaue/stadt-hitzacker-elbe/wohnmobilparkplatz.aspx"}},"11415601272":{"location":[53.2917103,10.9523338],"ct":"DE","tp":"CR","ts":"2023-12-13T20:56:35Z","tX":543,"tY":332,"tags":{"caravan_site:type":"lake","charge":"9 EUR","fee":"yes","maxstay":"2 days","name":"Rosiener See","power_supply":"yes","power_supply:fee":"yes","sanitary_dump_station":"no","website":"https://www.amt-neuhaus.de/start/tourismus-freizeit-kultur/tourismus/wohnmobile.aspx"}}}