{"171666144":{"location":[51.9330623,11.2088744],"ct":"DE","tp":"CS","ts":"2022-02-24T07:34:25Z","tX":543,"tY":338,"tags":{"addr:city":"Gröningen","addr:country":"DE","addr:housenumber":"1","addr:postcode":"39397","addr:street":"Am Campingplatz","bbq":"yes","cabins":"yes","caravans":"yes","contact:email":"hans-peter-lemgau@t-online.de","contact:phone":"+49 160 94140988","contact:website":"http://www.bootsverleih-campinganderbode.de","name":"Campingplatz mit Wassersport und Bootsverleih / Gröninger Bode Bootsverleih","openfire":"yes","opening_hours":"Apr-Oct 08:00-22:00","operator":"Hans-Peter Lemgau","tents":"yes"}},"242064587":{"location":[51.9098976,11.084789],"ct":"DE","tp":"CS","ts":"2020-09-15T13:45:05Z","tX":543,"tY":338,"tags":{"fee":"yes","name":"Camping am See","website":"https://www.camping-am-see.de/"}},"3617969564":{"location":[51.8965786,11.0460893],"ct":"DE","tp":"CR","ts":"2021-10-26T04:13:00Z","tX":543,"tY":338,"tags":{"capacity":"5","contact:phone":"+49 3941 551815","fee":"no","name":"Düsterngraben","name:signed":"no","operator":"Stadt Halberstadt","power_supply":"yes","sanitary_dump_station":"no","water_point":"no","website":"https://www.halberstadt.de/de/duesterngraben-copy-1445603656.html","wheelchair":"limited"}},"3617984730":{"location":[51.9004894,11.0565881],"ct":"DE","tp":"CR","ts":"2016-04-10T08:57:30Z","tX":543,"tY":338,"tags":{"name":"Walter-Krienitz-Platz"}},"11255827674":{"location":[51.8775623,11.0493547],"ct":"DE","tp":"CR","ts":"2023-11-12T12:06:16Z","tX":543,"tY":338,"tags":{"capacity":"6","fax":"+49 3941 687822","fee":"yes","motorhome":"designated","name":"Stellplatz am Erlebnisbad","opening_hours":"24/7","operator":"Betriebsgesellschaft Freizeit- und Sportzentrum Halberstadt mbH","phone":"+49 3941 68780","power_supply":"yes","website":"https://www.fsz-halberstadt.de/fsz/wohnmobilstellplatz.html"}}}