{"118114904":{"location":[51.734274,10.9079981],"ct":"DE","tp":"CS","ts":"2019-10-14T11:46:27Z","tX":543,"tY":339,"tags":{"fax":"+49 39456 569535","name":"Reiterhof an der Talsperre","phone":"+49 39456 56950","website":"http://www.reiterhof-an-der-talsperre.de"}},"132831898":{"location":[51.7550748,11.0500093],"ct":"DE","tp":"CS","ts":"2023-09-30T14:40:21Z","tX":543,"tY":339,"tags":{"addr:city":"Thale","addr:country":"DE","addr:housenumber":"3","addr:postcode":"06502","addr:street":"Wendhusenstraße","caravans":"yes","fee":"yes","name":"KlosterCamping Thale","phone":"+49 3947 63185","shower":"yes","tents":"yes","toilets":"yes","website":"https://klostercamping-thale.de/home"}},"181391458":{"location":[51.7416778,11.2338791],"ct":"DE","tp":"CR","ts":"2023-10-06T15:20:48Z","tX":543,"tY":339,"tags":{"addr:city":"Ballenstedt","addr:housenumber":"13","addr:place":"Asmusstedt","addr:postcode":"06493","capacity":"40","email":"info@flugplatz-ballenstedt.de","fee":"yes","internet_access":"wlan","name":"Wohnmobilstellplatz am Verkehrslandeplatz Ballenstedt","parking":"surface","phone":"+49 39483215","power_supply":"yes","sanitary_dump_station":"yes","website":"https://www.flugplatz-ballenstedt.de/"}},"218318064":{"location":[51.7911132,11.1396724],"ct":"DE","tp":"CR","ts":"2024-10-28T21:27:38Z","tX":543,"tY":339,"tags":{"caravan_site":"motorhome_stopover","caravan_site:type":"town","charge":"20 EUR","fee":"yes","internet_access":"no","name":"Marschlinger Hof","operator":"Stadt Quedlinburg","power_supply":"cee_17_blue","power_supply:voltage":"230","wheelchair":"yes","wikimedia_commons":"File:Quedlinburg Märschlinger Hof WoMo stellplatz.jpg"}},"218318205":{"location":[51.7871402,11.134613],"ct":"DE","tp":"CR","ts":"2024-10-28T22:42:08Z","tX":543,"tY":339,"tags":{"caravan_site":"motorhome_stopover","caravan_site:type":"town","charge":"22 EUR","description":"Also possible to park on other spaces. When you pay the tourist tax, you get a token for 8 hours electricity","description:charge":"parking fee per RV + tourist tav per pax","fee":"yes","internet_access":"yes","internet_access:fee":"no","internet_access:ssid":"harz.freifunk.net","name":"Schlossparkplatz","picnic_table":"yes","power_supply":"yes","power_supply:capacity":"8","power_supply:charge":"2 EUR/8 hours","power_supply:fee":"yes, included","water_point":"yes","water_point:charge":"2 EUR","water_point:fee":"yes","wheelchair":"yes","wikimedia_commons":"Category:Quedlinburg Schloßparkplatz Motorhome Stopover"}},"288835264":{"location":[51.7686422,10.9921247],"ct":"DE","tp":"CR","ts":"2024-07-19T11:19:59Z","tX":543,"tY":339,"tags":{"addr:city":"Blankenburg (Harz)","addr:housenumber":"31A","addr:postcode":"06502","addr:street":"Harzstraße","addr:suburb":"Timmenrode","capacity":"7","check_date:website":"2021-05-10","contact:email":"info@teichwirtschaft-timmenrode.de","contact:phone":"+49 171 4346051","contact:website":"https://www.teichwirtschaft-timmenrode.de/CMS/caravanplatz.html","fee":"yes","name":"Reisemobilstellplatz \"Am Forellenteich\"","operator":"Teichwirtschaft Timmenrode GbR","power_supply":"yes","sanitary_dump_station":"yes","water_point":"yes","wheelchair":"no"}},"343903452":{"location":[51.7265845,11.1202158],"ct":"DE","tp":"CR","ts":"2024-04-05T22:37:24Z","tX":543,"tY":339,"tags":{"caravan_site":"motorhome_stopover","caravan_site:type":"hotel","caravans":"no","name":"Hotel \"Am Kurpark\"","tents":"no"}},"357244506":{"location":[51.7730684,11.1803012],"ct":"DE","tp":"CS","ts":"2021-02-24T02:54:29Z","tX":543,"tY":339,"tags":{"caravans":"no","contact:facebook":"de-de.facebook.com/TrappenbergQuedlinburg","email":"trappenberg@fcg-quedlinburg.de","group_only":"yes","landuse":"meadow","name":"Trappenberg Quedlinburg - Freizeit- und Pfadfindergelände der Freien Christengemeinde Quedlinburg","operator":"Freie Christengemeinde Quedlinburg","phone":"+493946417162","scout":"yes","tents":"yes","website":"http://www.fcg-quedlinburg.de/download/trappenbergflyer.pdf"}},"438492699":{"location":[51.685072,11.1101056],"ct":"DE","tp":"CS","ts":"2023-05-16T06:19:59Z","tX":543,"tY":339,"tags":{"addr:city":"Quedlinburg","addr:country":"DE","addr:housenumber":"3","addr:postcode":"06485","addr:street":"Bremer Dammteich","addr:suburb":"Gernrode","name":"Harz-Camp Bremer Teich - Dauercampingbereich","operator":"Harz-Camp Bremer Teich","phone":"+49 39485-60810","static_caravans":"yes","website":"https://www.harz-camp-gernrode.de/"}},"479722112":{"location":[51.6872654,11.110038],"ct":"DE","tp":"CS","ts":"2023-05-16T06:19:59Z","tX":543,"tY":339,"tags":{"addr:city":"Quedlinburg","addr:country":"DE","addr:housenumber":"3","addr:postcode":"06485","addr:street":"Bremer Dammteich","addr:suburb":"Gernrode","name":"Harz-Camp Bremer Teich","operator":"Harz-Camp Bremer Teich","phone":"+49 39485-60810","website":"https://www.harz-camp-gernrode.de/"}},"583953652":{"location":[51.7888188,10.9607972],"ct":"DE","tp":"CR","ts":"2024-04-05T22:22:29Z","tX":543,"tY":339,"tags":{"capacity":"6","caravan_site":"motorhome_stopover","caravan_site:type":"town","charge":"6 EUR","dog":"yes","fee":"yes","name":"Wohnmobilstellplatz Blankenburg","power_supply":"yes","surface":"paving_stones","tents":"no","website":"https://www.blankenburg.de/tourismus/gastgeber/wohnmobilstellplatz/"}},"583953656":{"location":[51.7892773,10.9593388],"ct":"DE","tp":"CR","ts":"2023-01-18T18:01:20Z","tX":543,"tY":339,"tags":{"capacity":"6","dog":"yes","fee":"yes","name":"Wohnmobilstellplatz Schnappelberg","power_supply":"yes","tents":"no"}},"946016535":{"location":[51.7928514,11.1480872],"ct":"DE","tp":"CR","ts":"2024-10-27T19:55:43Z","tX":543,"tY":339,"tags":{"capacity":"10","caravan_site":"motorhome_stopover","caravan_site:type":"town","charge":"18 EUR","fee":"yes","internet_access":"no","name":"Wohnmobilstellplatz An den Fischteichen Quedlinburg","power_supply":"yes"}},"1065910174":{"location":[51.7471182,11.0277787],"ct":"DE","tp":"CR","ts":"2024-10-10T18:26:02Z","tX":543,"tY":339,"tags":{"check_date":"2022-10-29","fee":"yes","internet_access":"no","name":"Wohnmobilparkplatz Am Bodetal","opening_hours":"24/7","payment:cards":"yes","power_supply":"no","sanitary_dump_station":"yes","toilets":"no","wheelchair":"yes"}},"1120041091":{"location":[51.8126925,10.9527883],"ct":"DE","tp":"PK","ts":"2022-12-07T08:20:23Z","tX":543,"tY":339,"tags":{"fee":"no","motorhome":"yes","note":"nur tagsüber","parking":"lane","parking:condition:right":"Wohnmobile tagsüber","power_supply":"no","sanitary_dump_station":"no","surface":"asphalt"}},"1182468102":{"location":[51.8342456,11.2105239],"ct":"DE","tp":"CR","ts":"2024-08-20T12:58:03Z","tX":543,"tY":339,"tags":{"cabins":"no","capacity":"9","dog":"yes","fee":"yes","internet_access":"no","name":"Wohnmobilstellplatz \"Schützenhaus an der Bode\"","operator":"AlpacaCamping GmbH","power_supply":"no","sanitary_dump_station":"no","website":"https://www.alpacacamping.de/"}},"1188480622":{"location":[51.7579023,11.0358363],"ct":"DE","tp":"CR","ts":"2024-11-29T14:17:23Z","tX":543,"tY":339,"tags":{"addr:city":"Thale","addr:housenumber":"43","addr:postcode":"06502","addr:street":"Kahlenbergstraße","capacity":"80","caravan_site":"motorhome_stopover","caravan_site:type":"town","charge":"128EUR","email":"womopark24cosic@web.de","facebook":"https://www.facebook.com/p/Womopark24-Thale-Harz-100094405922840","fee":"yes","internet_access":"wlan","internet_access:fee":"no","name":"Womopark24 Thale Harz","opening_hours":"24/7","phone":"+49 1517 0575336","power_supply":"yes","sanitary_dump_station":"yes","shower":"yes","toilets":"yes","website":"https://www.promobil.de/stellplatz/womopark24-thale-644f9c4c2dc692000846e539.html","wheelchair":"yes"}},"1213635964":{"location":[51.7234038,11.2469029],"ct":"DE","tp":"CR","ts":"2023-10-06T15:20:48Z","tX":543,"tY":339,"tags":{"addr:city":"Ballenstedt","addr:housenumber":"2","addr:postcode":"06493","addr:street":"Neue Bahnhofstraße","capacity":"8","email":"info@gsh-harz","fee":"yes","name":"Wohnmobilstellplatz Am Gäste und Seminarhaus Harz Ballenstedtt in Ballenstedt","operator":"Gäste & Seminarhaus Harz","parking":"surface","phone":"+49 39483 83178","power_supply":"yes","sanitary_dump_station":"yes","website":"https://www.promobil.de/stellplatz/am-gaeste-und-seminarhaus-harz-ballenstedtt-60bb9760410b64060027bea9.html"}},"1213635965":{"location":[51.7769851,11.1144181],"ct":"DE","tp":"CR","ts":"2023-10-06T15:20:48Z","tX":543,"tY":339,"tags":{"fee":"yes","internet_access":"no","name":"Wohnmobilstellplatz An der Koppel zwischen Bäumen in Quedlinburg","power_supply":"yes","sanitary_dump_station":"no","website":"https://www.alpacacamping.de/properties/1771?clientId=5&utm_source=listingpartner_stellplatzradar&utm_medium=app"}},"1276595266":{"location":[51.7975201,10.9624605],"ct":"DE","tp":"CR","ts":"2024-04-26T23:04:56Z","tX":543,"tY":339,"tags":{"capacity":"5","email":"info@wohnmobilstellplatz-schultze.de","fee":"yes","mobile":"+49 171 6419932","name":"Schultze & Co","operator":"Karsten Winter","power_supply":"yes","reservation":"recommended","sanitary_dump_station":"customers","website":"https://www.wohnmobilstellplatz-schultze.de/","wheelchair":"limited"}},"1286825137":{"location":[51.7238974,11.1605356],"ct":"DE","tp":"PK","ts":"2024-05-26T14:34:49Z","tX":543,"tY":339,"tags":{"caravan":"yes","fixme":"Ausgewiesene Wohnwagenstellfläche?"}},"1311118580":{"location":[51.6918189,11.0337786],"ct":"DE","tp":"CR","ts":"2024-08-25T21:02:06Z","tX":543,"tY":339,"tags":{"addr:city":"Thale","addr:country":"DE","addr:housenumber":"3a","addr:postcode":"06502","addr:street":"Waldstraße","addr:suburb":"Friedrichsbrunn","capacity":"30","internet_access":"wlan","internet_access:fee":"customers","name":"Wohnmobilstellplatz Bocksberg","power_supply":"yes","sanitary_dump_station":"yes","website":"https://www.harzmobil.de/"}},"12195477491":{"location":[51.6734418,11.168424],"ct":"DE","tp":"CS","ts":"2024-09-28T17:03:12Z","tX":543,"tY":339,"tags":{"group_only":"yes","mapillary":"5094306147321280; 497548105353382","name":"Pfadfinderzentrum Ostharz (PZO)","website":"https://www.pzostharz.de/"}},"7819515289":{"location":[51.7911386,11.139441],"ct":"DE","tp":"SD","ts":"2020-08-17T08:12:57Z","tX":543,"tY":339,"tags":{"model":"ST-SAN","sanitary_dump_station:chemical_toilet":"no","sanitary_dump_station:fee":"no","sanitary_dump_station:gravity":"no","sanitary_dump_station:grey_water":"no","sanitary_dump_station:suction":"no"}},"12294670767":{"location":[51.7872974,11.1345557],"ct":"DE","tp":"SD","ts":"2024-10-28T20:20:54Z","tX":543,"tY":339,"tags":{"access":"customers","description":"access from paid parking lot","fee":"no","sanitary_dump_station:chemical_toilet":"yes","sanitary_dump_station:grey_water":"no"}}}