{"43946943":{"location":[51.5971844,11.0570455],"ct":"DE","tp":"CS","ts":"2016-12-18T12:30:12Z","tX":543,"tY":340,"tags":{}},"61884951":{"location":[51.5377663,10.9259955],"ct":"DE","tp":"CS","ts":"2024-02-09T11:03:10Z","tX":543,"tY":340,"tags":{"addr:city":"Nordhausen","addr:country":"DE","addr:housenumber":"20","addr:postcode":"99734","addr:street":"Zur Wolfsmühle","addr:suburb":"Rodishain","caravans":"yes","name":"Campingplatz Wolfsmühle","phone":"+49 34653 348","source":"website","tents":"yes","website":"https://www.wolfsmuehle.de/"}},"109448068":{"location":[51.5879528,11.1415628],"ct":"DE","tp":"CS","ts":"2024-05-12T17:44:03Z","tX":543,"tY":340,"tags":{"addr:city":"Harzgerode","addr:housenumber":"60c","addr:postcode":"06493","addr:street":"Hinterdorf","name":"Campingplatz Panoramablick","operator":"Heinz Ludwig","website":"https://www.harz-camping.net/"}},"136762524":{"location":[51.4256777,11.0025445],"ct":"DE","tp":"CR","ts":"2025-01-07T00:19:36Z","tX":543,"tY":340,"tags":{"access":"yes","charge":"15 EUR","description":"before the gate","dog:charge":"2.50 EUR","dog:fee":"yes","fee":"yes","name":"Seecamping Kelbra Quick-Camping","operator":"Seecamping Kelbra","parking":"surface","power_supply":"yes","seasonal":"no","website":"https://www.stausee-kelbra.de/de/oeffnungszeiten-preise/tourist-camping.html"}},"274101099":{"location":[51.617405,10.9487938],"ct":"DE","tp":"CR","ts":"2016-09-26T10:26:07Z","tX":543,"tY":340,"tags":{"fee":"no","name":"Breitenstein","power_supply":"yes"}},"304488517":{"location":[51.4269247,11.0072198],"ct":"DE","tp":"CS","ts":"2023-10-31T07:52:43Z","tX":543,"tY":340,"tags":{"addr:city":"Kelbra (Kyffhäuser)","addr:country":"DE","addr:housenumber":"150","addr:postcode":"06537","addr:street":"Lange Straße","caravans":"yes","fee":"yes","name":"Seecamping Kelbra","openfire":"yes","tents":"yes","website":"https://www.stausee-kelbra.de/"}},"470631771":{"location":[51.6122466,11.0859152],"ct":"DE","tp":"CS","ts":"2023-03-06T07:28:34Z","tX":543,"tY":340,"tags":{"addr:city":"Harzgerode","addr:housenumber":"1","addr:postcode":"06493","addr:street":"Am Birnbaumteich","addr:suburb":"Neudorf im Harz","caravans":"yes","email":"info@ferienpark-birnbaumteich.de","group_only":"no","internet_access":"wlan","internet_access:fee":"no","motor_vehicle":"yes","name":"Ferienpark Birnbaumteich","open_fire":"yes","static_caravans":"yes","tents":"yes","website":"https://ferienpark-birnbaumteich.de/"}},"1333778723":{"location":[51.6104806,11.0822028],"ct":"DE","tp":"CR","ts":"2024-12-14T13:55:19Z","tX":543,"tY":340,"tags":{"caravan_site":"motorhome_stopover","caravan_site:type":"camp_site","fee":"yes","name":"Wohnmobil Parkplatz Ferienpark Birnbaumteich","surface":"grass","website":"https://ferienpark-birnbaumteich.de/camping/"}},"12927871370":{"location":[51.4812654,11.1235428],"ct":"DE","tp":"CS","ts":"2025-06-20T10:11:03Z","tX":543,"tY":340,"tags":{"addr:city":"Südharz / OT Wickerode","addr:housenumber":"6","addr:postcode":"06536","addr:street":"Auf der Hütte","camp_site":"basic","name":"Camping Stellplatz Landvergnügen","opening_hours":"We-Fr 10:00-16:00; Sa 10:00-12:00","operator":"Detlef Thiele","phone":"+49 34651 2706","website":"https://suedharzerforellenzucht.wordpress.com/"}}}