{"28180565":{"location":[50.8730514,11.1750281],"ct":"DE","tp":"CS","ts":"2024-07-01T10:43:14Z","tX":543,"tY":343,"tags":{"addr:city":"Hohenfelden","addr:country":"DE","addr:housenumber":"9","addr:postcode":"99448","addr:street":"Am Stausee","capacity:caravans":"450","caravans":"yes","contact:email":"info@stausee-hohenfelden.de","contact:fax":"+49 36450 42082","contact:phone":"+49 36450 42081","internet_access":"wlan","internet_access:fee":"yes","maxtents":"100","motorhome":"yes","name":"Camping Freizeitpark Stausee Hohenfelden","power_supply":"yes","sanitary_dump_station":"yes","tents":"yes","washing_machine":"yes","website":"https://www.campingplatz-hohenfelden.de/"}},"35030057":{"location":[50.9534329,11.1483802],"ct":"DE","tp":"CR","ts":"2020-01-04T13:00:04Z","tX":543,"tY":343,"tags":{"addr:city":"Grammetal","addr:housenumber":"7a","addr:postcode":"99428","addr:street":"Kalte Küche","addr:suburb":"Obernissa","capacity":"10","contact:phone":"+49 36203 50837","fee":"yes","name":"Womo-Stellplatz Lassek","power_supply":"yes","sanitary_dump_station":"no","website":"https://www.womos-obernissa.de/"}},"176783485":{"location":[50.9076989,10.9091617],"ct":"DE","tp":"CS","ts":"2024-09-22T22:58:14Z","tX":543,"tY":343,"tags":{"access":"private","caravans":"no","drinking_water":"yes","group_only":"yes","name":"Pfadfinderzentrum Drei Gleichen","note":"Zelten im Thüringer Drei-Städte-Eck Erfurt-Arnstadt-Gotha","operator":"Pfadfinderzentrum Drei Gleichen e.V.","phone":"+49 36202 799048","power_supply":"yes","scout":"yes","shower":"yes","smoking":"no","surface":"grass","tents":"yes","toilets":"yes","website":"https://www.pfadfinderzentrum.org/","wheelchair":"yes"}},"230929427":{"location":[50.9544135,11.0669698],"ct":"DE","tp":"CR","ts":"2023-11-09T15:15:00Z","tX":543,"tY":343,"tags":{"addr:city":"Erfurt","addr:housenumber":"11","addr:postcode":"99097","addr:street":"Rottenbacher Weg","addr:suburb":"Melchendorf","capacity":"15","contact:phone":"+49 361 413980","fee":"yes","internet_access":"wlan","name":"Wohnmobilpark Trautmann","power_supply":"yes","sanitary_dump_station":"yes","water_point":"yes","website":"https://www.caravan-erfurt.de/"}},"1298058505":{"location":[50.9565194,10.9854587],"ct":"DE","tp":"CR","ts":"2024-07-01T10:35:05Z","tX":543,"tY":343,"tags":{"addr:city":"Erfurt","addr:housenumber":"30","addr:postcode":"99094","addr:street":"Gothaer Straße","capacity":"48","caravans":"no","charge":"23 EUR","dog":"yes","email":"info@erfurt-wohnmobil.de","fee":"yes","internet_access":"wlan","laundry":"yes","name":"Wohnmobilstellplatz Tor zur Stadt Erfurt","payment:cash":"yes","payment:visa":"yes","payment:visa_debit":"yes","phone":"+4936165314820","power_supply":"yes","power_supply:charge":"0.80 EUR/kWh","power_supply:fee":"yes","reservation":"yes","sanitary_dump_station":"yes","shower":"yes","tents":"no","toilets":"yes","water_point":"yes","water_point:fee":"no","website":"https://www.erfurt-wohnmobil.de"}},"3884425636":{"location":[50.8357895,10.9546873],"ct":"DE","tp":"CR","ts":"2024-05-25T20:41:24Z","tX":543,"tY":343,"tags":{"capacity":"4","drinking_water":"no","fee":"yes","name":"Stellplatz Sport- und Freizeitbad Arnstadt","power_supply":"yes","sanitary_dump_station":"no","toilets":"no","wheelchair":"yes"}},"9981540892":{"location":[50.955958,10.9843113],"ct":"DE","tp":"SD","ts":"2024-09-17T15:54:55Z","tX":543,"tY":343,"tags":{"water_point":"yes"}},"12182420352":{"location":[50.9558848,10.9843775],"ct":"DE","tp":"SD","ts":"2024-09-17T15:54:55Z","tX":543,"tY":343,"tags":{"water_point":"yes"}}}