{"14317963":{"location":[50.1122311,10.9828802],"ct":"DE","tp":"CS","ts":"2025-06-07T20:47:03Z","tX":543,"tY":346,"tags":{"addr:city":"Bad Staffelstein","addr:country":"DE","addr:housenumber":"3","addr:postcode":"96231","addr:street":"Seestraße","caravans":"yes","drinking_water":"yes","dryer":"yes","email":"info@aquariese.de","fax":"+49 9573 222997","name":"Kurcampingplatz Bad Staffelstein","permanent_camping":"yes","phone":"+49 9573 222996","power_supply":"yes","sanitary_dump_station":"yes","shower":"yes","tents":"yes","toilets":"yes","washing_machine":"yes","website":"http://www.aquariese.de/"}},"52361778":{"location":[50.1570564,11.0864359],"ct":"DE","tp":"CS","ts":"2025-06-19T07:27:35Z","tX":543,"tY":346,"tags":{"addr:city":"Lichtenfels","addr:country":"DE","addr:housenumber":"52","addr:postcode":"96215","addr:street":"Krößwehrstraße","caravans":"yes","dog":"yes","drinking_water":"yes","dryer":"yes","email":"info@maincamping.de","fax":"+49 9571 946851","internet_access":"wlan","kitchen":"yes","name":"Maincamping Lichtenfels","opening_hours":"Apr 01-Oct 15","operator":"Stadt Lichtenfels","phone":"+49 9571 71729","power_supply":"yes","sanitary_dump_station":"yes","shower":"yes","source":"extrapolation","tents":"yes","toilets":"yes","washing_machine":"yes","website":"https://lichtenfels.de/kultur-und-tourismus/campingplatz-maincamping"}},"190322352":{"location":[50.1124271,10.9856854],"ct":"DE","tp":"CR","ts":"2024-04-25T09:27:35Z","tX":543,"tY":346,"tags":{"capacity":"20","description":"Stellplatz vorm Campingplatz","drinking_water":"no","fee":"yes","name":"Stellplatz am AquaRiese-Bad","power_supply":"no","sanitary_dump_station":"no","toilets":"no","wheelchair":"yes"}},"299663913":{"location":[50.252913,10.9641571],"ct":"DE","tp":"CR","ts":"2024-10-17T17:37:39Z","tX":543,"tY":346,"tags":{"capacity":"8","fee":"yes","maxstay":"48 hours","name":"Anger","power_supply":"no"}},"352730475":{"location":[50.0759161,10.9566522],"ct":"DE","tp":"CS","ts":"2022-05-24T19:37:57Z","tX":543,"tY":346,"tags":{"addr:city":"Ebensfeld","addr:housenumber":"1","addr:postcode":"96250","addr:street":"Badweg","fee":"yes","name":"Zeltplatz Ebensfeld","operator":"Markt Ebensfeld","payment:cash":"yes","phone":"+49 151 52623651","shower":"yes","tents":"yes","website":"https://www.ebensfeld.de/de/tourismus/naturbad.php"}},"368040225":{"location":[50.2255946,10.9659358],"ct":"DE","tp":"CS","ts":"2023-09-23T17:15:33Z","tX":543,"tY":346,"tags":{"capacity":"60","caravans":"no","email":"jugendheimtriebsdorf@web.de","group_only":"yes","name":"Zeltplatz Ahornin Triebsdorf","operator":"Die Falken, OV Coburg","tents":"yes","website":"http://www.falkenheim-triebsdorf.de"}},"368189660":{"location":[50.1582177,11.0717096],"ct":"DE","tp":"CS","ts":"2023-07-16T05:39:30Z","tX":543,"tY":346,"tags":{"access":"private","email":"vorstand@psc-coburg.de","name":"Paddel- und Segelclub Coburg-Schney e.V.","note":"nur für DKV-Mitglieder","phone":"+49 9561 60272","website":"https://www.psc-coburg.de/pscplatz.htm"}},"368191948":{"location":[50.1595044,11.0762906],"ct":"DE","tp":"CS","ts":"2023-07-16T05:39:30Z","tX":543,"tY":346,"tags":{"access":"private","contact:email":"faltboot@awv-coburg.de","contact:phone":"+49 9571 72291","contact:website":"https://www.awv-coburg.de/faltboot/vereinsgelaende","name":"AWV Coburg","note":"nur für DKV-Mitglieder"}},"368194105":{"location":[50.1349173,11.0135527],"ct":"DE","tp":"CS","ts":"2024-08-10T15:08:14Z","tX":543,"tY":346,"tags":{"access":"private","email":"ursula.boehm@web.de","mobile":"+49 171 6711689","name":"SV Coburg","note":"nur DKV-Mitglieder","phone":"+49 9561 62404","website":"http://www.sv-coburg.de/"}},"371468390":{"location":[50.1081454,10.9883674],"ct":"DE","tp":"CR","ts":"2024-04-04T21:23:12Z","tX":543,"tY":346,"tags":{"bakery_service":"yes","capacity":"27","caravan_site":"motorhome_stopover","caravan_site:type":"town","charge":"15 EUR","fee":"yes","internet_access":"wlan","internet_access:fee":"no","name":"Wohnmobilstellplatz - Obermain Therme Bad Staffelstein","operator":"Obermaintherme","payment:cash":"yes","power_supply":"yes","power_supply:charge":"0.80 EUR/kWh","reservation":"no","sanitary_dump_station":"yes","sanitary_dump_station:fee":"no","water_point":"yes","website":"https://www.obermaintherme.de/wohnmobilstellplatz/","wheelchair":"yes"}},"376504653":{"location":[50.2751632,11.0711289],"ct":"DE","tp":"CS","ts":"2023-12-24T12:01:51Z","tX":543,"tY":346,"tags":{"caravans":"no","email":"sauloch@pfadfinder-foerderer.de","group_only":"yes","lit":"no","name":"Jugendzeltplatz Sauloch","openfire":"yes","operator":"Pfadfinderfördererkreis e.V., Rödental","phone":"+49 9563 309412","scout":"yes","tents":"yes","website":"https://www.huetten-haeuser-zeltplaetze.de/sauloch/"}},"513653550":{"location":[50.2084721,11.1957182],"ct":"DE","tp":"CS","ts":"2024-06-28T15:27:14Z","tX":543,"tY":346,"tags":{"name":"Auf der Höh","operator":"Familie Hanft","sanitary_dump_station":"customers","website":"https://www.bikes-in-schneckenlohe.de/index2.html","wheelchair":"limited"}},"513653551":{"location":[50.2081725,11.1958808],"ct":"DE","tp":"CR","ts":"2024-06-28T15:27:55Z","tX":543,"tY":346,"tags":{"capacity":"10","contact:email":"Bikes.In@t-online.de","contact:phone":"+49 9266 8779","fee":"yes","internet_access":"no","name":"Auf der Höh","operator":"Familie Hanft","power_supply":"yes","sanitary_dump_station":"yes","water_point":"yes","website":"https://www.bikes-in-schneckenlohe.de/index2.html","wheelchair":"limited"}},"673094958":{"location":[50.2699942,10.975568],"ct":"DE","tp":"CR","ts":"2024-08-17T06:03:34Z","tX":543,"tY":346,"tags":{"capacity":"22","contact:phone":"+49 9561 749-1640","fee":"yes","name":"Vesteblick","operator":"SÜC Bus und Aquaria GmbH","power_supply":"no","sanitary_dump_station":"yes","toilets":"no","water_point":"yes","website":"https://www.aquaria-coburg.de/Wohnmobilstellplaetze/Wohnmobilstellplaetze.php"}},"680752534":{"location":[50.2487642,11.2194803],"ct":"DE","tp":"CR","ts":"2025-01-12T10:03:00Z","tX":543,"tY":346,"tags":{"capacity":"27","caravan_site":"motorhome_stopover","caravan_site:type":"village","charge":"12 EUR","charge:conditional":"7 EUR @ (Nov-Mar)","dog":"yes","dog:charge":"2 EUR","dog:fee":"yes","fee":"yes","internet_access":"wlan","internet_access:fee":"no","laundry":"yes","name":"Frankenpark Mitwitz","power_supply":"yes","power_supply:charge":"1 EUR/1 KWh","power_supply:fee":"yes","reservation":"from 2 days","sanitary_dump_station":"yes","sanitary_dump_station:chemical_toilet":"yes","sanitary_dump_station:chemical_toilet:charge":"1 EUR","sanitary_dump_station:chemical_toilet:fee":"yes","sanitary_dump_station:grey_water":"yes","shower":"yes","surface":"fine_gravel","toilets":"yes","water_point:charge":"1 EUR/100 liter","water_point:fee":"yes","water_source":"yes","website":"https://www.frankenpark-mitwitz.de/"}},"708233226":{"location":[50.1439228,11.0799328],"ct":"DE","tp":"PK","ts":"2024-01-16T20:01:28Z","tX":543,"tY":346,"tags":{"motorhome":"yes","surface":"asphalt"}},"1282142589":{"location":[50.2870758,11.2411647],"ct":"DE","tp":"CR","ts":"2025-01-11T02:15:04Z","tX":543,"tY":346,"tags":{"caravan_site":"motorhome_stopover","caravan_site:type":"hotel","charge":"15 EUR","dog":"yes","dog:fee":"no","email":"info@butz-butz.de","fee":"yes","name":"Wohnmobilstellplätze am Aparthotel Rotheul","phone":"+49 036764 818880","sanitary_dump_station":"yes","shower":"yes","shower:fee":"no","surface":"grass_paver","toilets":"yes","toilets:fee":"no","water_point":"yes","website":"https://www.aparthotel-rotheul.de/hotel"}},"1335281348":{"location":[50.0864886,11.2388705],"ct":"DE","tp":"CR","ts":"2024-06-11T19:53:48Z","tX":543,"tY":346,"tags":{"contact:phone":"+49 9575 9220-0","fee":"no","name":"Stellplatz am städtischen Bauhof","power_supply":"yes","sanitary_dump_station":"yes","toilets":"no","water_point":"yes","website":"https://www.stadt-weismain.de/tourismus/ubernachten-in-weismain/stellplatz-fur-wohnmobile/"}},"2009287246":{"location":[50.1123741,10.9840689],"ct":"DE","tp":"SD","ts":"2020-06-18T05:35:24Z","tX":543,"tY":346,"tags":{"fee":"?","sanitary_dump_station:accepted":"black_water;tank_chemicals;grey_water"}},"7112669871":{"location":[50.2798239,10.923347],"ct":"DE","tp":"CS","ts":"2020-12-02T13:50:59Z","tX":543,"tY":346,"tags":{"email":"callenberg@pfadfinder-foerderer.de","fee":"yes","fixme":"Als Fläche kartieren und genaue Größe bestimmen","name":"Zeltplatz Callenberg","operator":"Pfadfinder","website":"https://huetten-haeuser-zeltplaetze.de/unterkuenfte/pfadfinderzentrum-callenberg/"}},"8214198081":{"location":[50.1102149,10.9753739],"ct":"DE","tp":"CS","ts":"2025-01-02T07:13:49Z","tX":543,"tY":346,"tags":{"access":"private","name":"Schloss Oberau","permanent_camping":"only","website":"https://www.schloss-oberau.de/campingplatz.html"}},"4788784539":{"location":[50.2249131,10.9017496],"ct":"DE","tp":"CR","ts":"2017-04-11T18:50:08Z","tX":543,"tY":346,"tags":{"fee":"no","power_supply":"no","sanitary_dump_station":"no","tents":"no","water_point":"no"}},"5047553575":{"location":[50.2351377,11.2360337],"ct":"DE","tp":"CR","ts":"2025-01-11T01:05:14Z","tX":543,"tY":346,"tags":{"capacity":"3","caravan_site":"motorhome_stopover","caravan_site:type":"guest_house","fee":"yes","name":"Freienhäuser zur Schäferei Wohnmobilstellplatz","phone":"+49 9264 915735","power_supply":"yes","sanitary_dump_station":"no","water_point":"yes","website":"https://www.haeusles.de/"}},"5682217027":{"location":[50.2632977,10.9900403],"ct":"DE","tp":"CR","ts":"2025-05-07T18:45:19Z","tX":543,"tY":346,"tags":{"capacity":"5","caravan_site":"motorhome_stopover","caravan_site:type":"castle","charge":"3 EUR/24 h","fee":"yes","internet_access":"no","name":"Veste Coburg","power_supply":"no","sanitary_dump_station":"no","tents":"no"}},"5022021628":{"location":[50.2082248,11.1957745],"ct":"DE","tp":"SD","ts":"2018-01-21T14:20:23Z","tX":543,"tY":346,"tags":{"sanitary_dump_station:chemical_toilet":"yes","sanitary_dump_station:grey_water":"yes"}},"5373070715":{"location":[50.1083176,10.9887284],"ct":"DE","tp":"SD","ts":"2021-11-03T10:59:10Z","tX":543,"tY":346,"tags":{"access":"permissive","fee":"no","operator":"Therme Staffelstein","water_point":"yes"}},"6303357584":{"location":[50.2698104,10.9760161],"ct":"DE","tp":"SD","ts":"2024-08-17T05:46:13Z","tX":543,"tY":346,"tags":{"fee":"no"}},"11898438154":{"location":[50.2873425,11.2421365],"ct":"DE","tp":"SD","ts":"2024-05-12T11:57:55Z","tX":543,"tY":346,"tags":{}}}