{"28377635":{"location":[49.790335,11.2049268],"ct":"DE","tp":"CS","ts":"2024-10-22T12:30:50Z","tX":543,"tY":348,"tags":{"addr:city":"Ebermannstadt","addr:country":"DE","addr:housenumber":"3a","addr:postcode":"91320","addr:street":"Rothenbühl","caravans":"yes","fee":"yes","internet_access":"no","name":"Campingplatz Rothenbühl","opening_hours":"Apr-Oct","operator":"Karl Bieger","phone":"+49 1792238462","static_caravans":"yes","tents":"yes","website":"https://www.campingplatz-bieger.de/","wheelchair":"limited"}},"35548320":{"location":[49.7740023,11.2198597],"ct":"DE","tp":"CS","ts":"2018-04-12T17:48:05Z","tX":543,"tY":348,"tags":{"caravans":"no","contact:website":"http://campingplatz-wohlmuthshüll.de/","name":"Dauercampingplatz Sponsel","static_caravans":"yes","tents":"no"}},"43174490":{"location":[49.6317157,10.9482005],"ct":"DE","tp":"CS","ts":"2020-10-10T13:47:47Z","tX":543,"tY":348,"tags":{"addr:city":"Erlangen","addr:country":"DE","addr:housenumber":"44","addr:postcode":"91056","addr:street":"Campingstraße","alt_name":"Camping Rangau","cabin":"no","caravans":"yes","contact:fax":"+49 9135 724743","contact:phone":"+49 9135 8866","contact:website":"https://www.camping-rangau.de/","dish_washing":"yes","dog":"yes","dryer":"yes","fee":"yes","internet_access":"wlan","name":"Campingplatz Rangau","opening_hours":"Apr-Sep: Mo-Su,PH 07:00-13:00,15:00-22:00","operator":"Camping-Club Rangau e.V.","sanitary_dump_station":"yes","shower":"yes","stars":"4","surface":"grass","tents":"yes","toilets":"yes","washing_machine":"yes"}},"100319493":{"location":[49.7230496,11.0502971],"ct":"DE","tp":"CS","ts":"2023-11-20T23:52:07Z","tX":543,"tY":348,"tags":{"access":"yes","addr:city":"Forchheim","addr:housenumber":"6","addr:postcode":"91301","addr:street":"Föhrenweg","barrier":"fence","fee":"yes","fence_type":"wire","name":"Yachtclub Forchheim 1969 e.V.","operator":"Yachtclub-Forchheim 1969 e.V.","shower":"yes","toilets":"yes","website":"https://yachtclub-forchheim.de/"}},"101186129":{"location":[49.7910141,11.1265798],"ct":"DE","tp":"CR","ts":"2022-01-30T17:17:46Z","tX":543,"tY":348,"tags":{"name":"Feuerstein"}},"129022363":{"location":[49.7992802,11.1608356],"ct":"DE","tp":"CS","ts":"2020-01-05T17:46:02Z","tX":543,"tY":348,"tags":{"fee":"yes","group_only":"yes","name":"Zeltplatz Lindersberg","operator":"DPSG Diözesanverband Bamberg","website":"https://www.dpsg-bamberg.de/haeuser/pfadfinderhaus-lindersberg/zeltplatz/"}},"191106631":{"location":[49.7208528,11.0491997],"ct":"DE","tp":"CR","ts":"2024-05-16T11:52:10Z","tX":543,"tY":348,"tags":{"capacity":"22","caravan_site":"motorhome_stopover","caravan_site:type":"sports_centre","charge":"9€","contact:email":"tourist@forchheim.de","contact:mobile":"+49 173 8638631","contact:phone":"+49 9191 714-337","description":"Entsorgungsmöglichkeit besteht kostenlos bei der städtischen Kläranlage (Zur Staustufe 14, Tel. +49 9191 3930)","fee":"yes","name":"Stellplatz auf der Sportinsel","power_supply":"yes","sanitary_dump_station":"extern","website":"https://www.forchheim.de/content/wohnmobilstellplatz-forchheim"}},"592396131":{"location":[49.6947927,10.9477526],"ct":"DE","tp":"CS","ts":"2023-11-04T04:37:27Z","tX":543,"tY":348,"tags":{"group_only":"yes","name":"VCP Hemhofen","website":"https://www.vcp-hemhofen.de/"}},"775592955":{"location":[49.6884609,11.2227858],"ct":"DE","tp":"CR","ts":"2024-03-11T10:36:33Z","tX":543,"tY":348,"tags":{"fee":"yes","name":"Wohnmobilstellplatz Hotel Schloßberg","operator":"Hotel Schloßberg","reservation":"no","shower":"no","tents":"no","toilets":"no","website":"https://stellplatz.info/wohnmobilstellplatz/hotel-schlo%C3%9Fberg"}},"796666106":{"location":[49.7479884,11.0419251],"ct":"DE","tp":"CS","ts":"2024-06-28T15:25:39Z","tX":543,"tY":348,"tags":{"access":"members","barrier":"fence","capacity":"52","capacity:caravans":"4","caravans":"yes","club":"camping","description":"Dauercampingplatz","name":"Caravan Club Forchheim","opening_hours":"Apr-Sep","operator":"Caravan-Club-Forchheim e.V.","permanent_camping":"yes","reservation":"recommended","tents":"yes","website":"https://www.caravan-club-forchheim.de"}},"800513024":{"location":[49.7449852,11.0435462],"ct":"DE","tp":"CS","ts":"2020-05-05T20:13:17Z","tX":543,"tY":348,"tags":{"addr:city":"Forchheim","addr:housenumber":"8","addr:postcode":"91301","addr:street":"Zur Staustufe","caravans":"no","group_only":"yes","name":"Jugendzeltplatz der Stadt Forchheim","operator":"Stadt Forchheim","tents":"yes","toilets:wheelchair":"yes","wheelchair":"yes","wheelchair:description":"Euro WC-Schlüssel Behinderten WC"}},"805117849":{"location":[49.7434133,11.0424404],"ct":"DE","tp":"CR","ts":"2023-11-19T15:57:37Z","tX":543,"tY":348,"tags":{"barrier":"fence","name":"Motoryachtclub Forchheim"}},"1078526171":{"location":[49.7674893,11.0366685],"ct":"DE","tp":"CS","ts":"2022-07-31T13:39:26Z","tX":543,"tY":348,"tags":{"access":"permit","group_only":"yes","name":"Campingplatz Kreisfeuerwehrverband","operator":"Kreisfeuerwehrverband"}},"4061447551":{"location":[49.7829427,11.1888248],"ct":"DE","tp":"CR","ts":"2018-12-16T20:15:04Z","tX":543,"tY":348,"tags":{"name":"Stellplatz am Oberen Tor"}},"6405004521":{"location":[49.7077744,11.1540015],"ct":"DE","tp":"CS","ts":"2023-04-19T07:02:25Z","tX":543,"tY":348,"tags":{"addr:place":"Schlaifhausen","caravans":"no","name":"Zeltwiese Gasthaus Kroder","phone":"+49 9199 416","shower":"yes","tents":"yes","toilets":"yes","website":"https://www.gasthaus-kroder.de"}},"5611834638":{"location":[49.8117839,10.9862023],"ct":"DE","tp":"CR","ts":"2024-03-11T08:22:20Z","tX":543,"tY":348,"tags":{"charge":"8€","fee":"no","name":"Wohnmobilstellplatz Hirschaid","operator":"Gemeinde Markt Hirschaid","power_supply":"yes","water_point":"yes"}},"7056570806":{"location":[49.8078132,11.2172408],"ct":"DE","tp":"SD","ts":"2019-12-14T14:17:15Z","tX":543,"tY":348,"tags":{"sanitary_dump_station:chemical_toilet":"yes","sanitary_dump_station:fee":"no","sanitary_dump_station:gravity":"yes","sanitary_dump_station:grey_water":"yes","sanitary_dump_station:suction":"no"}},"11144536921":{"location":[49.720521,11.0494438],"ct":"DE","tp":"SD","ts":"2023-08-25T18:50:24Z","tX":543,"tY":348,"tags":{"description":"100 ltr 1€ - 10 ltr 10 cent","name":"Holiday Clean"}}}