{"24541931":{"location":[48.9340535,10.9684881],"ct":"DE","tp":"CS","ts":"2025-06-02T19:15:05Z","tX":543,"tY":351,"tags":{"addr:city":"Pappenheim","addr:housenumber":"1","addr:postcode":"91788","addr:street":"Badweg","caravans":"yes","drinking_water":"yes","email":"info@campingplatz-pappenheim.de","name":"Naturcamping Pappenheim","permanent_camping":"yes","phone":"+4917645850611","power_supply":"yes","shower":"yes","source":"http://www.altmuehltal.de/pappenheim/sport/campingplatz.htm","tents":"yes","toilets":"yes","website":"https://campingplatz-pappenheim.de/"}},"26692370":{"location":[49.1128974,10.9677479],"ct":"DE","tp":"CS","ts":"2021-04-01T16:09:55Z","tX":543,"tY":351,"tags":{"cabins":"yes","caravans":"yes","internet_access":"wlan","name":"Waldcamping am Brombachsee","operator":"Waldcamping Brombach Fügl e.K.","power_supply":"yes","static_caravans":"yes","tents":"yes","website":"https://www.waldcamping-brombach.de/","wheelchair":"yes"}},"31259847":{"location":[49.0200202,10.9964918],"ct":"DE","tp":"CS","ts":"2025-05-29T09:17:20Z","tX":543,"tY":351,"tags":{"addr:city":"Weißenburg in Bayern","addr:country":"DE","addr:housenumber":"10","addr:postcode":"91781","addr:street":"Eichstätter Landstraße","caravans":"yes","name":"Am alten Badeweiher","phone":"+49 9141 5222","tents":"yes","website":"https://www.campingplatz-weissenburg.de/"}},"32883087":{"location":[49.1503194,10.9101016],"ct":"DE","tp":"CR","ts":"2025-04-24T19:37:19Z","tX":543,"tY":351,"tags":{"capacity":"50","description":"Kosten 126€ (Stand 04/2025) - Offen von 15.03.-15.11. Entsorgung Chemie und Grauwasser auf unterhalb liegenden Parkplatz, keine Wohnwagen","fee":"yes","name":"Wohnmobilstellplatz Panorama","operator":"Willi und Renate Müller","phone":"+49 9837 328","power_supply":"yes","sanitary_dump_station":"yes","toilets":"no","water_point":"yes","website":"https://www.wohnmobilstellplatz-brombachsee.de/"}},"35452068":{"location":[48.9527042,10.9118453],"ct":"DE","tp":"PK","ts":"2025-04-02T16:02:43Z","tX":543,"tY":351,"tags":{"access":"yes","drinking_water":"no","fee":"no","motorhome":"yes","name":"Volksfestplatz","opening_hours":"09:00-22:00","parking":"surface","power_supply":"no","sanitary_dump_station":"no","traffic_sign":"DE:314,1048-17"}},"38919400":{"location":[48.9607693,10.9184633],"ct":"DE","tp":"CR","ts":"2025-06-11T19:31:29Z","tX":543,"tY":351,"tags":{"addr:city":"Treuchtlingen","addr:country":"DE","addr:postcode":"91757","addr:street":"Kästleinsmühlenstraße","capacity":"91","caravans":"no","charge":"17 EUR","dog":"yes","drinking_water":"no","fax":"+49 9142 960066","fee":"yes","internet_access":"wlan","internet_access:fee":"yes","lit":"yes","name":"Reisemobil-Stellplatz am Kurpark","opening_hours":"open; Jan 10-Feb 28 off","operator":"Stadt Treuchtlingen","phone":"+49 9142 960060","power_supply":"yes","reservation":"no","sanitary_dump_station":"yes","tents":"no","toilets":"yes","website":"https://www.tourismus-treuchtlingen.de/poi/reisemobil-stellplatz_am_kurpa-1850/","wheelchair":"yes","wheelchair:description":"3 speziell behindertengerecht ausgestattete Stellplätze"}},"117948985":{"location":[48.9496438,10.9122836],"ct":"DE","tp":"CS","ts":"2023-07-09T20:03:51Z","tX":543,"tY":351,"tags":{"caravans":"no","name":"Zelt- und Bootsrastplatz Treuchtlingen","opening_hours":"Apr 1-Sep 30","phone":"+49-9145-8364538","shower":"yes","tents":"yes","toilets":"yes","website":"https://www.zeltplatz-treuchtlingen.de/"}},"171659995":{"location":[49.0808063,11.1855144],"ct":"DE","tp":"CS","ts":"2024-05-04T09:18:54Z","tX":543,"tY":351,"tags":{"addr:city":"Thalmässing","addr:postcode":"91177","addr:street":"Reinwarzhofen","group_only":"yes","name":"Willy-Brandt-Zeltlagerplatz Reinwarzhofen","operator":"Verein zur Förderung der Jugendarbeit","website":"https://www.willybrandtzeltlagerplatz.de/"}},"238181486":{"location":[49.1477429,10.9110615],"ct":"DE","tp":"CR","ts":"2025-04-24T19:37:30Z","tX":543,"tY":351,"tags":{"capacity":"50","drinking_water":"no","fee":"yes","name":"Stellplatz am Igelsbachsee","note":"Park und Übernachtungspauschale 12€","power_supply":"yes","sanitary_dump_station":"yes","surface":"grass","toilets":"no"}},"254028827":{"location":[49.129033,11.1113741],"ct":"DE","tp":"CS","ts":"2023-09-16T21:55:14Z","tX":543,"tY":351,"tags":{"addr:housenumber":"12","addr:street":"Rambacher Str","caravans":"yes","email":"office@campingplatz-heideck.de","name":"Campingplatz am Freibad","phone":"+49 9122 8896190","shower":"yes","swimming_pool":"yes","tents":"yes","toilets":"yes","website":"http://campingplatz-heideck.de/"}},"389419854":{"location":[49.1220948,10.9276],"ct":"DE","tp":"CR","ts":"2025-04-24T07:56:52Z","tX":543,"tY":351,"tags":{"fee":"yes","name":"Stellplatz Ramsberg","power_supply":"yes","wheelchair":"yes"}},"1000364805":{"location":[49.0244169,10.9734897],"ct":"DE","tp":"CR","ts":"2025-05-29T09:20:11Z","tX":543,"tY":351,"tags":{"addr:city":"Weißenburg in Bayern","addr:country":"DE","addr:housenumber":"5","addr:postcode":"91781","addr:street":"Badstraße","capacity":"6","dog":"yes","fee":"no","internet_access":"wlan","internet_access:fee":"no","internet_access:ssid":"@BayernWLAN","name":"Wohnmobilstellplatz am Limesbad","opening_hours":"open; PH open; Aug off","power_supply":"yes","sanitary_dump_station":"yes","water_supply":"yes","website":"https://www.weissenburg.de/poi/wohnmobilstellplatz_am_limesba-1579/"}},"1311303822":{"location":[48.9298344,10.9725598],"ct":"DE","tp":"CR","ts":"2025-01-04T20:26:53Z","tX":543,"tY":351,"tags":{"capacity":"5","caravan_site":"motorhome_stopover","caravan_site:type":"town","fee":"no","internet_access":"wlan","internet_access:fee":"no","internet_access:ssid":"@BayernWLAN","name":"Wohnmobilstellplatz Pappenheim","power_supply":"yes","power_supply:capacity":"4","power_supply:fee":"yes","sanitary_dump_station":"no","water_point":"no","website":"https://pappenheim.de/tourismus/unterkuenfte/in-pappenheim/wohnmobilstellplatz/"}},"3373038693":{"location":[48.9603563,10.9182361],"ct":"DE","tp":"SD","ts":"2025-06-11T19:32:32Z","tX":543,"tY":351,"tags":{"fee":"no","sanitary_dump_station:accepted":"black_water;tank_chemicals"}},"5503403186":{"location":[49.1473795,10.9108324],"ct":"DE","tp":"SD","ts":"2018-03-25T16:12:23Z","tX":543,"tY":351,"tags":{"fee":"no","water_point":"yes"}},"11032086396":{"location":[49.0246493,10.9729299],"ct":"DE","tp":"SD","ts":"2023-07-07T10:16:05Z","tX":543,"tY":351,"tags":{}},"12784540050":{"location":[49.122729,10.9285919],"ct":"DE","tp":"SD","ts":"2025-04-24T20:30:51Z","tX":543,"tY":351,"tags":{"fee":"no","opening_hours":"24/7","sanitary_dump_station:basin":"yes"}}}