{"37484233":{"location":[48.8841598,11.1976918],"ct":"DE","tp":"CR","ts":"2023-12-25T11:25:25Z","tX":543,"tY":352,"tags":{"alt_name":"Der Wohnmobil- und Zeltplatz der Stadt Eichstätt","cabins":"yes","capacity:motorhomes":"70","caravans":"unknown","charge":"12 EUR","dog":"yes","fee":"yes","name":"Wohnmobilstellplatz Eichstätt","note":"website mentions caravans, but WM photo shows caravans not allowed","opening_hours":"24/7","opening_hours:toilets":"Apr-Oct","phone":"+49 8421 908147","power_supply":"yes","power_supply:charge":"0.5 EUR/kWh","power_supply:fee":"yes","sanitary_dump_station":"yes","sanitary_dump_station:chemical_toilet":"yes","sanitary_dump_station:grey_water":"yes","seasonal":"no","shower":"yes","shower:charge":"0.5 EUR","tents":"yes","toilets":"yes","website":"https://www.eichstaett.de/poi/wohnmobilstellplatz_eichstaett-257/","wikimedia_commons":"Category:Wohnmobil- und Zeltplatz der Stadt Eichstätt"}},"127840064":{"location":[48.8737819,11.0766446],"ct":"DE","tp":"CS","ts":"2025-05-31T14:13:56Z","tX":543,"tY":352,"tags":{"access":"customers","addr:city":"Dollnstein","addr:housenumber":"11a","addr:postcode":"91795","addr:street":"Brückenstraße","barrier":"fence","cabins":"yes","caravans":"yes","drinking_water":"yes","fee":"yes","internet_access":"wlan","name":"Campingplatz Dollnstein","payment:cash":"yes","phone":"+49 8422 843","power_supply":"yes","sanitary_dump_station":"yes","shower":"yes","tents":"yes","toilets":"yes","washing_machine":"yes","website":"https://www.campingplatz-dollnstein.de/","wheelchair":"yes"}},"166679285":{"location":[48.874508,11.0299723],"ct":"DE","tp":"CR","ts":"2023-07-25T04:09:52Z","tX":543,"tY":352,"tags":{"capacity":"20","fee":"yes","name":"Stellplatz Hammermühle","phone":"+49 9141 73470","power_supply":"yes","sanitary_dump_station":"yes","toilets":"no","water_point":"yes","website":"http://www.zeltplatz-hammermühle.de/"}},"174903230":{"location":[48.8738412,11.1016205],"ct":"DE","tp":"CS","ts":"2019-12-11T13:09:48Z","tX":543,"tY":352,"tags":{"caravans":"yes","name":"Zeltplatz Dollnstein-Breitenfurt","phone":"+49 8422 567","shower":"yes","tents":"yes","toilets":"yes","website":"http://www.zeltplatz.altmuehlhaus.de/"}},"233966686":{"location":[48.7406495,11.1844366],"ct":"DE","tp":"CR","ts":"2023-12-09T06:56:21Z","tX":543,"tY":352,"tags":{"fee":"yes","name":"Schlösslwiese","power_supply":"yes","wheelchair":"yes"}},"260619840":{"location":[48.735477,11.2375275],"ct":"DE","tp":"CS","ts":"2019-08-25T10:10:56Z","tX":543,"tY":352,"tags":{"caravans":"no","group_only":"yes","name":"Jugendzeltplatz Schwaighölzl","operator":"Kreisjugendring","power_supply":"yes","shower":"yes","tents":"yes","toilets":"yes"}},"286801043":{"location":[48.7395534,11.1866933],"ct":"DE","tp":"CS","ts":"2023-06-18T16:20:25Z","tX":543,"tY":352,"tags":{"caravans":"yes","drinking_water":"yes","internet_access":"no","name":"Campingplatz Donau-Ruderclub Neuburg","phone":"+49 8431 6477640","power_supply":"yes","shower":"yes","tents":"yes","toilets":"yes","website":"https://www.drcn.de/camping/"}},"295332947":{"location":[48.873672,11.031284],"ct":"DE","tp":"CS","ts":"2023-07-26T08:55:23Z","tX":543,"tY":352,"tags":{"caravans":"yes","drinking_water":"yes","name":"Zeltplatz Hammermühle","phone":"+49 9141 8364515","power_supply":"yes","shower":"yes","tents":"yes","toilets":"yes","website":"http://www.zeltplatz-hammermühle.de/"}},"669713661":{"location":[48.8277379,11.092439],"ct":"DE","tp":"CS","ts":"2021-01-30T00:53:44Z","tX":543,"tY":352,"tags":{"caravans":"no","fee":"yes","group_only":"yes","name":"Jugendzeltplatz Urdonautal Wellheim","openfire":"yes","operator":"Informationszentrum Naturpark Altmühltal","reservation":"required","tents":"yes","website":"https://www.naturpark-altmuehltal.de/poi/jugendzeltplatz_urdonautal-789/"}},"672122076":{"location":[48.8919475,10.999156],"ct":"DE","tp":"CS","ts":"2025-06-18T16:48:16Z","tX":543,"tY":352,"tags":{"caravans":"no","name":"Die AktivMühle","postal_code":"91807","shower":"yes","tents":"yes","toilets":"yes","website":"https://www.aktivmuehle.de/camping"}},"1088251207":{"location":[48.6920803,10.9058467],"ct":"DE","tp":"CR","ts":"2025-05-06T07:10:09Z","tX":543,"tY":352,"tags":{"addr:city":"Rain","addr:country":"DE","addr:housenumber":"6","addr:postcode":"86641","addr:street":"Kraftwerkstraße","capacity":"8","caravans":"no","drinking_water:fee":"yes","electricity:fee":"yes","fee":"no","internet_access":"no","name":"Stellplatz Rain","operator":"Stadt Rain","power_supply":"yes","sanitary_dump_station":"yes","shower":"no","toilets":"no","website":"https://rain.de/verwaltung-buerger/rathaus-und-behoerden/wohnmobil-stellplatz_id8823"}},"2912571326":{"location":[48.7402595,11.1827045],"ct":"DE","tp":"SD","ts":"2023-11-19T15:24:00Z","tX":543,"tY":352,"tags":{"fee":"no","sanitary_dump_station:accepted":"black_water;tank_chemicals"}},"11293583326":{"location":[48.8285514,11.0841912],"ct":"DE","tp":"CR","ts":"2023-10-27T16:58:17Z","tX":543,"tY":352,"tags":{"fee":"5","name":"Wohnmobilstellplatz Wellheim","power_supply":"no"}},"11994753735":{"location":[48.6918926,10.9059006],"ct":"DE","tp":"SD","ts":"2024-06-20T15:38:06Z","tX":543,"tY":352,"tags":{}}}