{"2248038":{"location":[48.4363242,10.9291441],"ct":"DE","tp":"CS","ts":"2020-11-11T23:58:27Z","tX":543,"tY":354,"tags":{"addr:city":"Affing","addr:country":"DE","addr:housenumber":"6","addr:postcode":"86444","addr:street":"Seeweg","addr:suburb":"Mühlhausen","cabins":"yes","camp_site":"serviced","capacity":"50","caravans":"yes","dog":"leashed","drinking_water":"yes","internet_access":"wlan","motor_vehicle":"yes","name":"Lech-Camping","nudism":"no","openfire":"no","operator":"Lech Camping GmbH","permanent_camping":"no","power_supply":"yes","reservation":"recommended","shower":"yes","tents":"yes","toilets":"yes","washing_machine":"yes","website":"https://www.lech-camping.de"}},"168766200":{"location":[48.4314196,10.9204969],"ct":"DE","tp":"CS","ts":"2024-09-17T19:58:31Z","tX":543,"tY":354,"tags":{"access":"customers","addr:city":"Affing","addr:housenumber":"36","addr:postcode":"86444","addr:street":"Augsburger Straße","addr:suburb":"Mühlhausen","bbq":"yes","camp_site":"serviced","capacity":"50","caravans":"yes","description":"Es gibt hier nur noch Dauerstellplätze!","dog":"leashed","drinking_water":"yes","fee":"yes","internet_access":"wlan","motor_vehicle":"yes","name":"Ludwigshof","nudism":"no","openfire":"no","permanent_camping":"only","power_supply":"yes","reservation":"no","shower":"yes","static_caravans":"yes","tents":"no","toilets":"yes","washing_machine":"yes","website":"https://campingludwigshof.de/"}},"439449451":{"location":[48.3574259,10.9912394],"ct":"DE","tp":"CR","ts":"2024-08-28T07:57:03Z","tX":543,"tY":354,"tags":{"addr:city":"Friedberg","addr:housenumber":"29","addr:postcode":"86316","addr:street":"Herrgottsruhstraße","capacity":"4","caravans":"no","description":"Direkt neben der barocken Wallfahrtskirche Herrgottsruh. Zufahrt über Pater-Franz-Reinisch-Straße","fee":"no","internet_access":"no","maxstay":"3 nights","name":"Stellplatz Wallfahrtskirche Herrgottsruh","note":"Entsorgung am Stellplatz Gerberwiese","operator":"Stadt Friedberg","power_supply":"no","reservation":"no","sanitary_dump_station":"no","tents":"no","website":"https://www.friedberg.de/kultur-tourismus/tourismus/unterkuenfte-stellplaetze/wohnmobilstellplaetze/","wheelchair":"yes"}},"825417420":{"location":[48.354404,10.974428],"ct":"DE","tp":"CR","ts":"2024-08-28T07:57:03Z","tX":543,"tY":354,"tags":{"addr:city":"Friedberg","addr:housenumber":"2","addr:postcode":"86316","addr:street":"Gerberweg","capacity":"6","caravans":"no","maxstay":"48 hours","name":"Stellplatz Gerberwiese","opening_hours":"24/7","parking_space":"motorhome","power_supply":"yes","reservation":"no","sanitary_dump_station":"yes","shower":"no","tents":"no","toilets":"no","water_point":"yes","website":"https://www.friedberg.de/kultur-tourismus/tourismus/unterkuenfte-stellplaetze/wohnmobilstellplaetze/"}},"861101087":{"location":[48.3545963,10.9745979],"ct":"DE","tp":"SD","ts":"2024-04-16T10:26:24Z","tX":543,"tY":354,"tags":{"access":"yes","fee":"no","opening_hours":"24/7","sanitary_dump_station:basin":"no"}},"870563715":{"location":[48.4119958,10.9224518],"ct":"DE","tp":"CS","ts":"2024-09-22T22:35:01Z","tX":543,"tY":354,"tags":{"addr:city":"Augsburg","addr:country":"DE","addr:housenumber":"54b","addr:postcode":"86169","addr:street":"Mühlhauser Straße","camp_site":"serviced","caravans":"yes","dog":"leashed","drinking_water":"yes","email":"info@caravaningpark.de","fee":"yes","group_only":"no","image":"https://static.wixstatic.com/media/7e3b69_792a8657365c47e9a54459aabe2569ff~mv2.png","internet_access":"wlan","motor_vehicle":"yes","name":"Campingplatz Bella Augusta","nudism":"no","permanent_camping":"yes","phone":"+49 821 707575","power_supply":"yes","reservation":"recommended","rooms":"yes","shower":"yes","stars":"3","static_caravans":"yes","tents":"yes","toilets":"yes","website":"https://www.bella-augusta.de/"}},"1190651543":{"location":[48.3653934,10.9653136],"ct":"DE","tp":"CR","ts":"2024-08-26T13:18:55Z","tX":543,"tY":354,"tags":{"capacity":"5","caravans":"no","description":"Entsorgung am Stellplatz Gerberwiese","fee":"no","maxstay":"3 days","name":"Stellplatz am Friedberger Baggersee","operator":"Stadt Friedberg","power_supply":"no","reservation":"no","sanitary_dump_station":"no","shower":"no","toilets":"no","water_point":"no","website":"https://www.friedberg.de/kultur-tourismus/tourismus/unterkuenfte-stellplaetze/wohnmobilstellplaetze/"}},"1310032987":{"location":[48.3619418,10.9681063],"ct":"DE","tp":"CR","ts":"2024-08-30T10:11:06Z","tX":543,"tY":354,"tags":{"addr:city":"Friedberg","addr:postcode":"86316","addr:street":"Seestraße","capacity":"14","caravans":"no","charge":"20 EUR/night","description":"Buchen über Website möglich / Entsorgung am Stellplatz Gerberwiese / Momentan geöffnet von Juni - September.","fee":"yes","fixme":"Der Platz soll in Zukunft (2025?) fester Stellplatz mit Entsorgung werden","maxstay":"3 days","name":"Stellplatz am Friedberger Baggersee","opening":"Jun-Sep","operator":"Stadt Friedberg","power_supply":"no","reservation":"yes","sanitary_dump_station":"no","shower":"no","tents":"no","toilets":"no","water_point":"no","website":"https://www.friedberg.de/kultur-tourismus/tourismus/unterkuenfte-stellplaetze/wohnmobilstellplaetze/"}},"3978121302":{"location":[48.3894863,10.9034875],"ct":"DE","tp":"CR","ts":"2024-04-22T09:47:58Z","tX":543,"tY":354,"tags":{"capacity":"4","caravans":"no","drinking_water":"yes","fee":"yes","name":"Stellplatz beim TSG Augsburg","opening_hours":"24/7","operator":"TSG 1885 Augsburg e.V.","power_supply":"yes","reservation":"no","website":"https://www.tsg-augsburg.de/wohnmobilstellplaetze/"}},"12364553939":{"location":[48.3895386,10.9034078],"ct":"DE","tp":"SD","ts":"2024-11-22T09:46:57Z","tX":543,"tY":354,"tags":{"access":"yes","fee":"yes","water_point":"yes"}}}