{"1437303":{"location":[48.0569517,11.1349323],"ct":"DE","tp":"CS","ts":"2023-11-08T04:34:12Z","tX":543,"tY":355,"tags":{"fee":"yes","name":"Campingplatz Baumann","website":"https://www.campingplatz-baumann.de/"}},"36372116":{"location":[48.0467247,11.1794539],"ct":"DE","tp":"CS","ts":"2021-06-06T10:29:47Z","tX":543,"tY":355,"tags":{"addr:city":"Seefeld","addr:country":"DE","addr:housenumber":"29","addr:postcode":"82229","addr:street":"Wörthseestraße","caravans":"yes","name":"Campingplatz am Wörthsee","phone":"+49 8152 3962586","power_supply":"yes","tents":"yes","website":"http://www.campingplatz-am-woerthsee.de"}},"38252408":{"location":[48.0276349,11.0964664],"ct":"DE","tp":"CS","ts":"2024-02-02T12:18:00Z","tX":543,"tY":355,"tags":{"caravans":"yes","fax":"+49-8806-958-643","name":"Campingplatz Utting","opening_hours":"Mo-Su 08:30-12:30,14:30-20:00","phone":"+49-8806-7245","tents":"yes","toilets:wheelchair":"yes","website":"https://ammersee-campingplatz.de/","wheelchair":"yes"}},"60226821":{"location":[48.2022196,11.1740383],"ct":"DE","tp":"CS","ts":"2019-05-25T10:42:02Z","tX":543,"tY":355,"tags":{"caravans":"yes","group_only":"yes","internet_access":"wlan","name":"Jugendzeltplatz","phone":"+498145998565","power_supply":"yes","tents":"yes","website":"https://www.fzp-mammendorf.de/zeltplatz/"}},"62323772":{"location":[48.0435899,11.1695056],"ct":"DE","tp":"CS","ts":"2023-08-19T14:25:28Z","tX":543,"tY":355,"tags":{"addr:city":"Inning am Ammersee","addr:country":"DE","addr:housenumber":"3","addr:postcode":"82266","addr:street":"Weichstraße","caravans":"yes","drinking_water":"yes","name":"Campingplatz Adria Grill","phone":"+49 8152 70360","tents":"yes"}},"172270071":{"location":[48.049307,11.1322212],"ct":"DE","tp":"CS","ts":"2024-08-07T17:11:31Z","tX":543,"tY":355,"tags":{"addr:city":"Inning am Ammersee","addr:housenumber":"1","addr:postcode":"82266","addr:street":"Strandweg","addr:suburb":"Buch","caravans":"yes","dog":"yes","drinking_water":"yes","fee":"yes","maxtents":"6","motor_vehicle":"yes","name":"Campingplatz Jäschock","permanent_camping":"yes","reservation":"recommended","shower":"yes","tents":"yes","toilets":"yes","wifi":"customers"}},"222031463":{"location":[48.0022635,11.0146688],"ct":"DE","tp":"CS","ts":"2019-08-25T10:10:56Z","tX":543,"tY":355,"tags":{"caravans":"no","group_only":"yes","name":"Jugendzeltplatz Windachsee","tents":"yes","website":"https://www.gruppenunterkuenfte.de/Jugendzeltplatz-Windachsee__i3141.html"}},"299845610":{"location":[48.0289732,11.198766],"ct":"DE","tp":"CS","ts":"2024-05-08T13:48:22Z","tX":543,"tY":355,"tags":{"addr:city":"Seefeld","addr:country":"DE","addr:housenumber":"2","addr:postcode":"82229","addr:street":"Am Pilsensee","bbq":"yes","cabins":"yes","caravans":"yes","contact:email":"info@camping-pilsensee.de","contact:phone":"+49 8152 7232","dog":"yes","drinking_water":"yes","fee":"yes","hot_water":"yes","internet_access":"wlan","internet_access:fee":"customers","kitchen":"yes","name":"Campingplatz Pilsensee","openfire":"no","power_supply":"yes","reservation":"recommended","sanitary_dump_station":"customers","shower":"hot","tents":"yes","toilets":"yes","website":"https://www.camping-pilsensee.de/"}},"496725215":{"location":[48.1730695,11.2433855],"ct":"DE","tp":"CR","ts":"2020-11-05T12:07:58Z","tX":543,"tY":355,"tags":{"access":"no","caravans":"yes","drinking_water":"yes","fee":"yes","internet_access":"wlan","internet_access:fee":"no","name":"Wohnmobilstellplatz an der AmperOase","opening_hours":"24/7","operator":"Stadt Fürstenfeldbruck","power_supply":"yes","reservation":"no","sanitary_dump_station":"customers","tents":"no","toilets":"yes","waste_disposal":"yes"}},"1286839225":{"location":[48.049501,11.1312669],"ct":"DE","tp":"CS","ts":"2024-05-26T16:49:44Z","tX":543,"tY":355,"tags":{"caravans":"yes","description":"Dauercamper","name":"Campingplatz Roming","permanent_camping":"yes","tents":"yes"}},"4789395041":{"location":[48.1350832,11.2100501],"ct":"DE","tp":"CR","ts":"2017-04-12T05:50:40Z","tX":543,"tY":355,"tags":{"addr:city":"Schöngeising","addr:housenumber":"3","addr:postcode":"82296","addr:street":"Enterbruck","name":"Wohnmobilstellplatz Familie Sedlmeier"}},"10770188709":{"location":[48.1795183,10.9684285],"ct":"DE","tp":"CR","ts":"2023-03-29T06:57:47Z","tX":543,"tY":355,"tags":{"access":"customers","note":"Nur für Wohnmobile","operator":"SAMOK AIR"}},"12175433873":{"location":[48.1876218,11.2325174],"ct":"DE","tp":"CR","ts":"2024-09-13T19:33:50Z","tX":543,"tY":355,"tags":{}},"5182931494":{"location":[48.1734279,11.2434176],"ct":"DE","tp":"SD","ts":"2024-10-27T14:21:41Z","tX":543,"tY":355,"tags":{"fee":"yes"}},"8904965932":{"location":[48.0304773,11.199056],"ct":"DE","tp":"SD","ts":"2021-07-08T17:56:16Z","tX":543,"tY":355,"tags":{"access":"customers","fee":"no"}}}