{"25916067":{"location":[47.840119,11.1357704],"ct":"DE","tp":"CR","ts":"2024-07-28T19:31:15Z","tX":543,"tY":356,"tags":{"capacity":"8-12","caravans":"no","dog":"yes","drinking_water":"no","fee":"yes","name":"Wohnmobilstellplatz Stadt Weilheim","operator":"Stadt Weilheim","power_supply":"yes","sanitary_dump_station":"yes","tents":"no","toilets":"no","url":"https://www.weilheim.de/touristinfo/uebernachtung-mobilitaet/wohnmobilstellplatz"}},"38304208":{"location":[47.9655319,11.1051834],"ct":"DE","tp":"CS","ts":"2022-11-22T13:56:39Z","tX":543,"tY":356,"tags":{"addr:city":"Dießen am Ammersee","addr:country":"DE","addr:housenumber":"85","addr:postcode":"86911","addr:street":"Seeweg-Süd","addr:suburb":"Riederau","name":"Campingplatz Sankt Alban","phone":"+49 8807 7305","source":"website","website":"https://www.camping-ammersee.de/"}},"79819860":{"location":[47.9864319,11.164526],"ct":"DE","tp":"CR","ts":"2023-11-06T05:45:30Z","tX":543,"tY":356,"tags":{"addr:housenumber":"24","addr:place":"Mühlfeld","caravans":"no","contact:mobile":"+49 152 53479331","fee":"yes","internet_access":"wlan","internet_access:fee":"customers","name":"Wohnmobilstellplatz Herrsching","opening_hours":"09:00-19:00","operator":"Familie Ketterer","power_supply":"yes","sanitary_dump_station":"yes","toilets":"customers","water_point":"yes","website":"https://www.wohnmobilstellplatz-herrsching.de/"}},"90911237":{"location":[47.7862195,11.0846948],"ct":"DE","tp":"CS","ts":"2019-03-24T23:03:22Z","tX":543,"tY":356,"tags":{"addr:city":"Peißenberg","addr:country":"DE","addr:housenumber":"51","addr:postcode":"82380","addr:street":"Badstraße","caravans":"yes","email":"info@camping-ammertal.de","fax":"+49 8803 60843","internet_access":"wlan","internet_access:fee":"yes","name":"Campingplatz Ammertal","phone":"+49 8803 2797","power_supply":"yes","tents":"yes","website":"https://www.camping-ammertal.de/"}},"90911245":{"location":[47.7796792,11.0600629],"ct":"DE","tp":"CS","ts":"2023-04-15T17:11:53Z","tX":543,"tY":356,"tags":{"caravans":"no","drinking_water":"yes","group_only":"yes","internet_access":"no","name":"Jugendzeltplatz des Kreisjugendring Weilheim-Schongau","power_supply":"yes","shower":"yes","smoking":"no","tents":"yes","toilets":"yes","website":"https://www.kjr-wm-sog.de/Zeltplatz/Jugendzeltplatz.html","wheelchair":"no"}},"166616631":{"location":[47.8088329,10.8984722],"ct":"DE","tp":"CR","ts":"2024-06-03T08:31:26Z","tX":543,"tY":356,"tags":{"addr:city":"Schongau","addr:postcode":"86956","addr:street":"Lechuferstraße","capacity":"40","caravans":"no","dog":"yes","fee":"yes","name":"Lechau-West","parking":"surface","payment:credit_cards":"yes","power_supply":"yes","sanitary_dump_station":"yes","shower":"no","tents":"no","toilets":"yes","toilets:wheelchair":"yes","website":"https://www.schongau.de/de/Schongau-erleben/Wohnmobilplatz","wheelchair":"yes"}},"335232752":{"location":[47.9749172,11.1863797],"ct":"DE","tp":"CR","ts":"2024-04-09T05:58:40Z","tX":543,"tY":356,"tags":{"capacity":"40","caravans":"yes","charge":"19 EUR/d","fee":"yes","name":"Andechs","permanent_camping":"no","power_supply":"yes","sanitary_dump_station":"yes","shower":"no","tents":"no","toilets":"yes","website":"https://www.wohnmobilstellplatz-andechs.de/"}},"447161111":{"location":[47.9529972,11.105171],"ct":"DE","tp":"CR","ts":"2024-11-11T16:26:27Z","tX":543,"tY":356,"tags":{"addr:city":"Dießen am Ammersee","addr:postcode":"86911","addr:street":"Windermerestraße","cabins":"no","capacity":"15","caravans":"no","charge":"14.50 EUR","drinking_water":"no","fee":"yes","internet_access":"no","maxstay":"72 hours","motorhome":"yes","name":"Wohnmobilstellplatz Dießen am Ammersee","power_supply":"yes","sanitary_dump_station":"yes","tents":"no","toilets":"no","website":"https://www.starnbergammersee.de/detail/id=6076acb707bca56b2082f5cc","wikimedia_commons":"File:Motorhome Stopover - Germany, Dießen am Ammersee.JPG"}},"844957291":{"location":[47.8241882,11.0407342],"ct":"DE","tp":"CS","ts":"2020-09-07T07:51:57Z","tX":543,"tY":356,"tags":{"access":"no","name":"Biwakplatz","operator":"Bundeswehr"}},"1149359458":{"location":[47.7637116,10.9939806],"ct":"DE","tp":"CS","ts":"2023-04-04T22:13:26Z","tX":543,"tY":356,"tags":{"name":"Lugenau"}},"1250869849":{"location":[47.7827648,11.0648456],"ct":"DE","tp":"CR","ts":"2024-02-15T17:56:37Z","tX":543,"tY":356,"tags":{"addr:city":"Peißenberg","addr:housenumber":"8","addr:postcode":"82380","addr:street":"Pestalozzistraße","name":"Wohnmobilstellplatz Peißenberg - Rigi Rutsch‘n","website":"https://www.pfaffen-winkel.de/detail/id=633c2adf1dd7d0230ce0c990"}},"1288945965":{"location":[47.7932524,10.922933],"ct":"DE","tp":"CR","ts":"2024-06-02T17:15:51Z","tX":543,"tY":356,"tags":{"addr:city":"Peiting","addr:housenumber":"20","addr:postcode":"86971","addr:street":"Ammergauer Straße","area":"yes","capacity":"5","caravans":"no","internet_access":"no","maxstay":"3 days","name":"Parkplatz am Wellenfreibad Peiting","power_supply":"no","sanitary_dump_station":"no","shower":"no","tents":"no","toilets":"no","website":"https://www.peiting.de/tourismus/unterkuenfte/wohnmobilstellplaetze/"}},"9063046694":{"location":[47.7975204,11.0639376],"ct":"DE","tp":"CR","ts":"2024-06-21T15:20:50Z","tX":543,"tY":356,"tags":{"addr:city":"Peißenberg","addr:postcode":"82380","addr:street":"Moosleite","capacity":"10","caravans":"no","description":"Entsorgung bei der Fa. Gerard und der Kläranlage Peißenberg","fee":"no","internet_access":"no","name":"Stellplatz an der Moosleiten","power_supply":"no","sanitary_dump_station":"no","shower":"no","tents":"no","toilets":"no","website":"https://www.peissenberg.de"}},"12067798326":{"location":[47.9325526,11.1535885],"ct":"DE","tp":"CR","ts":"2024-07-22T09:42:54Z","tX":543,"tY":356,"tags":{"name":"Wohnmobil-Stellplätze"}},"4519338974":{"location":[47.9517254,11.1059442],"ct":"DE","tp":"SD","ts":"2018-12-01T16:36:30Z","tX":543,"tY":356,"tags":{"access":"yes","description":"Chemietoilettenentsorgung","fee":"no","operator":"Markt Dießen","water_point":"yes"}},"5058035994":{"location":[47.8399017,11.1365435],"ct":"DE","tp":"SD","ts":"2024-07-28T19:30:06Z","tX":543,"tY":356,"tags":{"fee":"no","sanitary_dump_station:chemical_toilet":"yes","sanitary_dump_station:fee":"no","sanitary_dump_station:gravity":"yes","sanitary_dump_station:grey_water":"yes","sanitary_dump_station:suction":"no"}},"6631356430":{"location":[47.7837966,11.0777787],"ct":"DE","tp":"SD","ts":"2019-07-19T12:56:51Z","tX":543,"tY":356,"tags":{"sanitary_dump_station:chemical_toilet":"yes","sanitary_dump_station:fee":"no","sanitary_dump_station:grey_water":"yes","water_point":"yes"}},"9656192153":{"location":[47.8523483,11.1414404],"ct":"DE","tp":"SD","ts":"2022-04-10T15:47:52Z","tX":543,"tY":356,"tags":{"addr:housenumber":"77","addr:street":"Paradeisstraße","description":"47.85235,11.14144","name":"Weilheim"}},"10969232737":{"location":[47.8524291,11.1414473],"ct":"DE","tp":"SD","ts":"2023-06-11T14:07:31Z","tX":543,"tY":356,"tags":{"name":"Wasser-Ver- und -Entsorgung inkl. WC"}},"11804154977":{"location":[47.9751589,11.1856224],"ct":"DE","tp":"SD","ts":"2024-04-09T05:58:03Z","tX":543,"tY":356,"tags":{}},"12175408198":{"location":[47.9867586,11.1649978],"ct":"DE","tp":"SD","ts":"2024-09-13T19:28:49Z","tX":543,"tY":356,"tags":{"sanitary_dump_station:chemical_toilet":"yes"}}}