{"1904568":{"location":[47.6847604,11.1776489],"ct":"DE","tp":"CS","ts":"2021-02-13T14:01:36Z","tX":543,"tY":357,"tags":{"addr:city":"Seehausen a.Staffelsee","addr:country":"DE","addr:housenumber":"41","addr:postcode":"82418","addr:street":"Burgweg","email":"info@camping-staffelsee.de","name":"Campingplatz Halbinsel Burg","phone":"+49 8841 9870","website":"https://www.camping-staffelsee.de/","wheelchair":"yes"}},"26176693":{"location":[47.7063496,11.2164145],"ct":"DE","tp":"CS","ts":"2025-01-20T13:18:54Z","tX":543,"tY":357,"tags":{"addr:city":"Murnau am Staffelsee","addr:country":"DE","addr:housenumber":"2","addr:postcode":"82418","addr:street":"Seestraße","addr:suburb":"Hofheim","caravans":"yes","email":"office@camping-brugger.de","name":"Camping Brugger am Riegsee","phone":"+49 8847 728","power_supply":"yes","tents":"yes","website":"https://www.camping-brugger.de/"}},"38313380":{"location":[47.590417,11.0688176],"ct":"DE","tp":"CS","ts":"2025-01-31T11:57:28Z","tX":543,"tY":357,"tags":{"addr:city":"Oberammergau","addr:country":"DE","addr:housenumber":"56b","addr:postcode":"82487","addr:street":"Ettaler Straße","caravans":"yes","dog":"yes","email":"info@camping-oberammergau.de","fax":"+49 8822 94197","internet_access":"wlan","name":"Camping-Park Oberammergau","phone":"+49 8822 94105","power_supply":"yes","seasonal":"yes","source":"website","tents":"yes","url":"http://www.campingpark-oberammergau.de/","website":"https://www.campingpark-oberammergau.de/"}},"38748767":{"location":[47.5903778,11.0670743],"ct":"DE","tp":"CS","ts":"2012-08-10T06:26:56Z","tX":543,"tY":357,"tags":{"caravans":"no","name":"Tipi Camp Oberammergau","operator":"DJH Oberammergau","scout":"yes","tents":"no","website":"http://devel.imperia.djh.de/jh/bayern/oberammergau/programme/zeltplatz/05133.shtml.de"}},"40274690":{"location":[47.7270936,10.9663416],"ct":"DE","tp":"CS","ts":"2024-09-11T15:56:59Z","tX":543,"tY":357,"tags":{"addr:city":"Rottenbuch","addr:country":"DE","addr:housenumber":"1","addr:postcode":"82401","addr:street":"Solder","caravans":"yes","drinking_water":"yes","email":"info@camping-rottenbuch.de","fax":"+49 8867 8300","internet_access":"terminal","name":"Terrassen-Camping am Richterbichl","phone":"+49 8867 1500","power_supply":"yes","shower":"yes","source":"website","stars":"4","tents":"yes","website":"https://www.camping-rottenbuch.de/"}},"46932609":{"location":[47.7010107,11.2282899],"ct":"DE","tp":"CS","ts":"2025-03-08T10:26:01Z","tX":543,"tY":357,"tags":{"addr:city":"Murnau am Staffelsee","addr:country":"DE","addr:housenumber":"21","addr:postcode":"82418","addr:street":"Seestraße","caravans":"yes","drinking_water":"yes","email":"Seestube-Riegsee@t-online.de","fax":"+49 8841 672761","name":"Campingplatz Riegsee","operator":"Gemeinde Riegsee","phone":"+49 8841 2677","power_supply":"yes","tents":"yes","website":"https://www.seestube-riegsee.de/"}},"47131964":{"location":[47.65762,11.0438985],"ct":"DE","tp":"CR","ts":"2023-11-03T20:45:01Z","tX":543,"tY":357,"tags":{"addr:city":"Bad Kohlgrub","addr:country":"DE","addr:housenumber":"95","addr:postcode":"82433","addr:street":"Sonnen","addr:suburb":"Sonnen","capacity":"16","fee":"yes","internet_access":"wlan","internet_access:fee":"customers","name":"Campingoase Reindl","operator":"Florian Reindl","phone":"+49 8845 7410 0","power_supply":"yes","sanitary_dump_station":"yes","tents":"yes","website":"https://www.campingoase-reindl.de/"}},"149923805":{"location":[47.6920614,11.1725839],"ct":"DE","tp":"CS","ts":"2023-11-03T20:45:19Z","tX":543,"tY":357,"tags":{"caravans":"no","dog":"no","email":"info@buchau-campinginsel.de","name":"Camping Insel Buchau am Staffelsee","phone":"+49 8841 4881701","place":"islet","tents":"yes","website":"https://www.buchau-campinginsel.de/","wikidata":"Q21042027","wikipedia":"de:Buchau (Insel)"}},"149943098":{"location":[47.6978047,11.1602582],"ct":"DE","tp":"CS","ts":"2020-09-26T08:33:53Z","tX":543,"tY":357,"tags":{"addr:city":"Uffing am Staffelsee","addr:country":"DE","addr:housenumber":"4","addr:place":"Aichalehof","addr:postcode":"82449","dog":"yes","fax":"+49 8846 914633","name":"Campingplatz Aichalehof","opening_hours":"May 1-Oct 3","phone":"+49 8846 211","power_supply":"yes","tents":"yes","toilets:wheelchair":"yes","website":"https://www.aichalehof.de/","wheelchair":"yes"}},"421645644":{"location":[47.6843729,11.1929133],"ct":"DE","tp":"CR","ts":"2024-12-27T17:35:54Z","tX":543,"tY":357,"tags":{"capacity":"4","caravan_site":"motorhome_stopover","caravan_site:type":"railway_station","charge":"5 EUR/24h","description":"Parkgebühr am Automat (nimmt alle Münzen)","drinking_water":"no","fee":"yes","maxstay":"72 hours","name":"P2 am Bahnhof","operator":"Gemeindewerke Murnau","power_supply":"yes","power_supply:capacity":"6","power_supply:charge":"1 EUR/2 KWh","power_supply:fee":"yes","sanitary_dump_station":"yes","socket:cee_blue":"yes","toilets":"no","water_point":"yes","water_point:charge":"1 EUR/100 liter","water_point:fee":"yes","website":"https://www.gw-murnau.de/de/wohnmobilstellplaetze-bahnhof.html","wheelchair":"yes"}},"965680103":{"location":[47.6875884,10.9972302],"ct":"DE","tp":"CR","ts":"2024-12-27T17:55:36Z","tX":543,"tY":357,"tags":{"capacity":"8","caravan_site":"motorhome_stopover","caravan_site:type":"lake","charge":"12 EUR","fee":"yes","name":"Stellplatz Bad Bayersoien","power_supply:fee":"yes","reservation":"no","sanitary_dump_station":"yes","water_point":"yes","water_point:fee":"yes","website":"https://www.ammergauer-alpen.de/en/poi/stellplatz-bad-bayersoien"}},"1057930903":{"location":[47.630894,11.2252016],"ct":"DE","tp":"CR","ts":"2024-12-27T17:51:45Z","tX":543,"tY":357,"tags":{"access":"yes","capacity:disabled":"2","capacity:pitches":"6","caravan_site":"motorhome_stopover","caravan_site:type":"village;swimming_pool","caravans":"no","charge":"15 EUR","dog":"leashed","fee":"yes","fee:description":"includes 2 EUR woucher for local delicatessen","maxstay":"3 days","motorhome":"designated","name":"Wohnmobilstellplatz Ohlstadt","openfire":"no","power_supply":"yes","power_supply:fee":"yes","reservation":"no","sanitary_dump_station":"customers","shower":"no","surface":"asphalt","tents":"no","toilets":"no","water_point":"yes","water_point:fee":"yes","website":"https://www.ohlstadt.de/de/wohnmobilstellplatz.html"}},"1076137178":{"location":[47.5691999,10.9539231],"ct":"DE","tp":"PK","ts":"2024-12-26T22:12:07Z","tX":543,"tY":357,"tags":{"motorhome":"yes","motorhome:overnight":"no","name:signed":"no","parking":"surface","toilets":"no"}},"1082533752":{"location":[47.6444058,11.0287307],"ct":"DE","tp":"CR","ts":"2023-07-17T13:56:34Z","tX":543,"tY":357,"tags":{"caravan_site:type":"hotel","caravans":"no","motorhome":"designated","name":"Ammertaler Hof Wohnmobilstellplatz","power_supply":"yes","power_supply:charge":"EUR 0.5/kWh","power_supply:fee":"https://www.ammerrock.de/gaststaette/","shower":"yes","tents":"no","toilets":"yes","water_point":"yes","website":"https://www.ammerrock.de/schlafen/"}},"1355614808":{"location":[47.7275653,11.0429656],"ct":"DE","tp":"CR","ts":"2025-01-31T08:10:15Z","tX":543,"tY":357,"tags":{"capacity":"3","caravan_site":"motorhome_stopover","caravan_site:type":"mountains","charge":"75 EUR","fee":"yes","name":"Alpen Camping Bussjägerhof","power_supply":"yes","reservation":"recommended","sanitary_dump_station":"yes","seasonal":"yes","shower":"yes","toilets":"yes","water_point":"yes"}},"1566050602":{"location":[47.6875667,10.9972031],"ct":"DE","tp":"CR","ts":"2021-07-19T16:25:51Z","tX":543,"tY":357,"tags":{"power_supply":"yes","stars":"1"}},"1862845750":{"location":[47.6925808,11.1653382],"ct":"DE","tp":"CS","ts":"2023-11-03T20:45:05Z","tX":543,"tY":357,"tags":{"access":"private","caravans":"no","group_only":"yes","name":"Jugendfreizeitgelände Lindenbichl","tents":"yes","website":"https://www.jugendwerk-weilheim.de/?action=page&id=43"}},"4189335494":{"location":[47.5904913,11.0691965],"ct":"DE","tp":"CR","ts":"2025-01-31T11:57:28Z","tX":543,"tY":357,"tags":{"bakery_service":"yes","caravan_site":"motorhome_stopover","caravan_site:type":"camp_site","charge":"20 EUR","dog":"yes","dog:charge":"2 EUR","dog:fee":"yes","fee":"yes","name":"Reisemobilhafen Oberammergau","power_supply":"yes","power_supply:fee":"yes","sanitary_dump_station":"yes","sanitary_dump_station:fee":"yes","seasonal":"yes","water_point":"yes","water_point:fee":"yes","website":"https://www.campingpark-oberammergau.de/page/de/weitere-angebote/reisemobilhafen"}},"7891213985":{"location":[47.6641613,11.0205858],"ct":"DE","tp":"CS","ts":"2020-09-09T19:50:21Z","tX":543,"tY":357,"tags":{}},"5604208792":{"location":[47.6799202,11.1956478],"ct":"DE","tp":"CR","ts":"2024-12-27T17:35:54Z","tX":543,"tY":357,"tags":{"caravan_site":"motorhome_stopover","caravan_site:type":"parking_lot","fee":"no","maxweight":"7.5","name":"Parkplatz Kellerstraße - Murnau am Staffelsee","power_supply":"no","sanitary_dump_station":"no","water_point":"no"}},"12043481071":{"location":[47.6845357,11.1930707],"ct":"DE","tp":"SD","ts":"2024-07-09T12:41:26Z","tX":543,"tY":357,"tags":{"access":"yes","fee":"no","water_point":"yes"}},"12456325933":{"location":[47.6830722,11.2017189],"ct":"DE","tp":"CR","ts":"2024-12-27T17:35:54Z","tX":543,"tY":357,"tags":{"caravan_site":"motorhome_stopover","caravan_site:type":"parking_lot","fee":"no","name":"Wohnmobilstellplatz Murnau am Staffelsee - Kemmelallee","power_supply":"no","sanitary_dump_station":"no","tents":"no","water_point":"no"}}}