{"34024734":{"location":[47.4805923,11.0541911],"ct":"DE","tp":"CS","ts":"2025-01-27T16:30:12Z","tX":543,"tY":358,"tags":{"addr:city":"Garmisch-Partenkirchen","addr:country":"DE","addr:housenumber":"2","addr:postcode":"82467","addr:street":"Griesener Straße","caravans":"yes","dog":"yes","drinking_water":"yes","email":"info@pure-camping.de","fax":"+4988219439116","fee":"yes","name":"Camping Erlebnis Zugspitze","operator":"Camping Resort Zugspitze GmbH","payment:cash":"yes","payment:credit_cards":"yes","phone":"+4988219439111","power_supply":"yes","sanitary_dump_station":"yes","shower":"yes","source":"website","stars":"3","tents":"yes","toilets":"yes","website":"https://www.pure-camping.de/"}},"38547417":{"location":[47.4272947,10.9400062],"ct":"AT","tp":"CS","ts":"2024-12-30T07:32:36Z","tX":543,"tY":358,"tags":{"addr:city":"Ehrwald","addr:country":"AT","addr:postcode":"6632","addr:street":"Obermoos","caravans":"yes","email":"welcome@zugspitz-resort.at","name":"5-Sterne-Camping Zugspitz Resort","operator":"Zillertaler Gletscherbahn GmbH & Co KG","phone":"+43 5673 2309","shower":"yes","source":"website","tents":"yes","toilets":"yes","website":"https://www.zugspitz-resort.at/camping/campingresort-im-ueberblick/"}},"38898691":{"location":[47.4104697,10.9244091],"ct":"AT","tp":"CS","ts":"2025-01-09T11:40:02Z","tX":543,"tY":358,"tags":{"addr:city":"Ehrwald","addr:country":"AT","addr:housenumber":"34","addr:postcode":"6632","addr:street":"Zugspitzstraße","caravans":"yes","email":"info@campingehrwald.at","fax":"+43 5673 26664","internet_access":"wlan","name":"Camping Dr.Lauth","phone":"+43 5673 2666","shower":"yes","source":"extrapolation","tents":"yes","toilets":"yes","website":"https://www.campingehrwald.at/"}},"38898705":{"location":[47.3817729,10.9022153],"ct":"AT","tp":"CS","ts":"2022-11-27T14:32:46Z","tX":543,"tY":358,"tags":{"addr:city":"Biberwier","addr:country":"AT","addr:housenumber":"8","addr:postcode":"6633","addr:street":"Schmitte","caravans":"yes","email":"info@biberhof.at","internet_access":"wlan","internet_access:fee":"no","name":"Camping Biberhof","operator":"Feriencenter Biberhof","phone":"+43 5673 2950","shower":"yes","tents":"yes","toilets":"yes","website":"https://www.biberhof.at/"}},"56015598":{"location":[47.2899412,11.1642815],"ct":"AT","tp":"CS","ts":"2022-09-06T11:13:17Z","tX":543,"tY":358,"tags":{"addr:city":"Pettnau","addr:housenumber":"121","addr:postcode":"6408","addr:street":"Tiroler Straße","caravans":"yes","email":"doriskoell@aon.at","name":"Camping Tiefental","phone":"+43 664 4663003","shower":"yes","tents":"yes","toilets":"yes","website":"http://www.camping-tiefental.at"}},"61412013":{"location":[47.4831983,11.0598026],"ct":"DE","tp":"CS","ts":"2020-10-25T22:23:38Z","tX":543,"tY":358,"tags":{}},"359275431":{"location":[47.4779027,11.0534707],"ct":"DE","tp":"CS","ts":"2025-05-25T04:47:11Z","tX":543,"tY":358,"tags":{"addr:housenumber":"9","addr:postcode":"82491","addr:street":"Griesener Straße","caravans":"yes","drinking_water":"yes","internet_access":"wlan","name":"Camping Resort Zugspitze","phone":"+4988219439115","power_supply":"yes","sanitary_dump_station":"yes","shower":"yes","stars":"5","tents":"no","toilets":"yes","website":"https://www.perfect-camping.de/"}},"453701472":{"location":[47.4907373,11.0966243],"ct":"DE","tp":"PK","ts":"2024-12-26T22:16:56Z","tX":543,"tY":358,"tags":{"access":"yes","fee":"yes","motorhome":"yes","park_ride":"yes","parking":"surface"}},"640496669":{"location":[47.3216224,11.0817474],"ct":"AT","tp":"CS","ts":"2020-01-02T15:16:26Z","tX":543,"tY":358,"tags":{"access":"customers","caravans":"no","group_only":"yes","name":"Pfadfinder Lagerplatz","scout":"yes","tents":"yes"}},"665637530":{"location":[47.397635,11.1798986],"ct":"AT","tp":"CS","ts":"2025-02-16T20:07:07Z","tX":543,"tY":358,"tags":{"addr:city":"Leutasch","addr:country":"AT","addr:housenumber":"230b","addr:postcode":"6105","addr:street":"Reindlau","caravans":"yes","email":"frontoffice@campingleutasch.com","fax":"+43 5214 65700","name":"Austria Parks Camping Leutasch - Seefeld","old_name":"EuroParcs Leutasch · Seefeld","operator":"Recreatiepark Duinhoeve BV","phone":"+43 5214 65700","sauna":"yes","shower":"yes","tents":"yes","toilets":"yes","website":"https://www.austriaparks.at/camping-leutasch"}},"742248894":{"location":[47.5048585,11.1074405],"ct":"DE","tp":"CR","ts":"2025-06-14T06:15:26Z","tX":543,"tY":358,"tags":{"addr:city":"Garmisch-Partenkirchen","addr:country":"DE","addr:postcode":"82467","addr:street":"Wankbahnstraße","capacity":"110","caravan_site":"motorhome_stopover","caravan_site:type":"ski_resort","charge":"26 EUR","contact:email":"camp@zugspitze.de","contact:phone":"+49 8821 7972550","contact:website":"https://zugspitze.de/camp","fee":"yes","internet_access":"wlan","internet_access:fee":"yes","name":"Camp am Wank","opening_hours":"Mo-Su, PH 8:30-12:00, 14:00-16:00","power_supply":"yes","power_supply:charge":"1 EUR/1.5 kWh","power_supply:fee":"yes","reservation":"no","sanitary_dump_station":"yes","shower":"yes","tents":"no","trailer":"no"}},"962325543":{"location":[47.337518,11.1785478],"ct":"AT","tp":"CR","ts":"2024-10-09T21:02:19Z","tX":543,"tY":358,"tags":{"capacity":"70","caravans":"no","check_date":"2024-10-09","contact:email":"info@camperpark-seefeld.at","contact:phone":"+43 5212 20033","contact:website":"https://www.camperpark-seefeld.at","dog":"yes","fee":"yes","landuse":"construction","name":"CamperPark Seefeld","opening_hours":"closed","permanent_camping":"no","power_supply":"yes","power_supply:maxcurrent":"16","power_supply:voltage":"230","reservation":"recommended","sanitary_dump_station":"customers","static_caravans":"no","tents":"no","water_point":"yes","wheelchair":"yes"}},"1021990947":{"location":[47.3140595,11.0357777],"ct":"AT","tp":"CS","ts":"2022-09-06T08:29:18Z","tX":543,"tY":358,"tags":{"addr:city":"Wildermieming","addr:housenumber":"1","addr:postcode":"6413","addr:street":"Gerhardhof","caravans":"yes","email":"kontakt@gerhardhof.at","name":"Gerhardhof Camping","operator":"Sonnenplateau Camping Gerhardhof GmbH","phone":"+43 5264 5240 20 / +43 5264 5240","shower":"yes","tents":"yes","toilets":"yes","website":"https://gerhardhof.com/"}},"1092869436":{"location":[47.3317132,11.1104019],"ct":"AT","tp":"CR","ts":"2025-06-09T09:45:29Z","tX":543,"tY":358,"tags":{"addr:city":"Buchen/Mösern","addr:housenumber":"6 - 8","addr:postcode":"6410","addr:street":"Buchen","caravans":"no","description":"Wir bieten unseren Wohnmobil begeisterten Gästen einen gratis Stellplatz für eine Nacht an wenn sie bei uns Essen.","drinking_water":"yes","fax":"+43 512 2199217626","fee":"no","internet_access":"no","motorhome":"designated","name":"Wohnmoblil Stellplatz Landgasthof Ropferhof","phone":"+43 664 964 6334","power_supply":"yes","shower":"no","tents":"no","toilets":"no","website":"https://www.ropferhof.at/restaurant/wohnmobil-stellplatz/"}},"12093138701":{"location":[47.4812898,11.0542097],"ct":"DE","tp":"CS","ts":"2024-08-05T11:03:13Z","tX":543,"tY":358,"tags":{"name":"Zugspitz Rauschen-Mobile Homes"}},"12093138801":{"location":[47.4805392,11.0557746],"ct":"DE","tp":"CS","ts":"2024-08-05T11:03:14Z","tX":543,"tY":358,"tags":{"name":"Camping Erlebnis Zugspitze-REZEPTION"}},"9031990520":{"location":[47.490483,11.0966377],"ct":"DE","tp":"CR","ts":"2021-09-19T13:11:56Z","tX":543,"tY":358,"tags":{"fee":"yes","power_supply":"no","sanitary_dump_station":"no"}},"4697588628":{"location":[47.5043984,11.1066802],"ct":"DE","tp":"SD","ts":"2024-05-15T10:27:11Z","tX":543,"tY":358,"tags":{"water_point":"no"}},"5818982395":{"location":[47.4775365,11.0517076],"ct":"DE","tp":"SD","ts":"2024-01-16T10:58:30Z","tX":543,"tY":358,"tags":{"fee":"yes"}},"7759477832":{"location":[47.4805781,11.0549958],"ct":"DE","tp":"SD","ts":"2024-01-16T10:54:25Z","tX":543,"tY":358,"tags":{"fee":"yes"}},"7860602359":{"location":[47.3144579,11.035394],"ct":"AT","tp":"CS","ts":"2020-08-31T07:49:25Z","tX":543,"tY":358,"tags":{"addr:city":"Wildermieming","addr:housenumber":"1","addr:postcode":"6413","addr:street":"Gerhardhof","name":"Camping Gerhardhof","phone":"+43 5264 5240","shower":"yes","website":"https://gerhardhof.com/"}},"9425873004":{"location":[47.3141632,11.0342691],"ct":"AT","tp":"SD","ts":"2022-01-17T16:08:06Z","tX":543,"tY":358,"tags":{"access":"customers","operator":"Sonnenplateau Camping Gerhardhof GmbH"}},"11076711141":{"location":[47.3371812,11.1778874],"ct":"AT","tp":"SD","ts":"2023-07-30T11:07:39Z","tX":543,"tY":358,"tags":{"access":"customers"}}}