{"3215949":{"location":[46.5981894,11.1506804],"ct":"IT","tp":"CS","ts":"2023-10-17T18:54:36Z","tX":543,"tY":361,"tags":{"addr:city":"Lana","addr:housenumber":"25","addr:postcode":"39011","addr:street":"Feldweg","caravans":"yes","email":"info@alpinfitness-waldcamping.it","fax":"+39 0473 557291","name":"Alpin Fitness Waldcamping","operator":"Alpin Fitness Waldcamping OHG","phone":"+39 0473 568138","stars":"3","tents":"yes","website":"https://www.alpinfitness-waldcamping.it/"}},"42739832":{"location":[46.7283699,11.2026198],"ct":"IT","tp":"CS","ts":"2024-10-10T11:17:26Z","tX":543,"tY":361,"tags":{"access":"customers","breakfast":"buffet","caravans":"yes","contact:email":"info@campingpasseier.com","contact:fax":"+39 0473 645454","contact:phone":"+39 0473 645454","ele":"450","internet_access":"wlan","name":"Camping Passeier","operator":"Familie Fleischmann","sauna":"yes","service:bicycle:rental":"yes","shower":"yes","source:date":"2022-02-17","source:de":"Unterkunftsverzeichnis Passeiertal  2024, S. 38, schriftliche Erlaubnis des Tourismusvereins Passeiertal vom 2016-08-16 für die Verwendung der Daten für OSM","source:it":"Elenco degli alloggi della Val Passiria 2024, pagina 38, autorizzazione in forma scritta dell’Associazione turistica Val Passiria del 2016-08-16, per utilizzare i dati su OSM","swimming_pool":"yes","tents":"yes","toilets":"yes","website":"https://www.campingpasseier.com/"}},"42740595":{"location":[46.7269644,11.2015547],"ct":"IT","tp":"CS","ts":"2024-02-17T08:35:04Z","tX":543,"tY":361,"tags":{"contact:email":"radlstadl@campingsaltaus.it","contact:phone":"+39 0473 868038","internet_access":"wlan","name":"Camping Radlstadl Saltaus","operator":"Fam. Pircher","source:date":"2024-02-17","source:de":"Unterkunftsverzeichnis Passeiertal  2024, S. 38, schriftliche Erlaubnis des Tourismusvereins Passeiertal vom 2016-08-16 für die Verwendung der Daten für OSM","source:it":"Elenco degli alloggi della Val Passiria 2028, pagina 38, autorizzazione in forma scritta dell’Associazione turistica Val Passiria del 2016-08-16, per utilizzare i dati su OSM","stars":"2","website":"https://campingsaltaus.it"}},"42918220":{"location":[46.6117653,11.1678454],"ct":"IT","tp":"CS","ts":"2021-09-13T20:45:40Z","tX":543,"tY":361,"tags":{"addr:city":"Lana","addr:housenumber":"10","addr:postcode":"39011","addr:street":"Feldgatterweg - Via Feldgatter","email":"info@schlosshof.it","fax":"+39 0473 563508","name":"Schlosshof","phone":"+39 0473 561469","source":"tvlana","stars":"4","website":"https://www.schlosshof.it/","wheelchair":"yes"}},"42973422":{"location":[46.5989113,11.1461491],"ct":"IT","tp":"CS","ts":"2024-08-02T07:46:46Z","tX":543,"tY":361,"tags":{"addr:city":"Völlan/Lana","addr:housenumber":"6","addr:postcode":"39011","addr:street":"Zehentweg - Via delle Decime","caravans":"yes","check_date":"2024-08-02","drinking_water":"yes","email":"info@camping-voellan.com","fax":"+39 0473 557249","internet_access":"wlan","internet_access:fee":"customers","name":"Naturcamping Völlan;Camping Völlan","owner":"Holzner Elmar","phone":"+39 0473 568056","power_supply":"yes","sanitary_dump_station":"yes","shower":"yes","source":"tvlana","stars":"3","tents":"yes","toilets":"yes","website":"https://www.camping-voellan.com/"}},"59503285":{"location":[46.6422848,11.0088754],"ct":"IT","tp":"CS","ts":"2024-07-09T19:44:38Z","tX":543,"tY":361,"tags":{"addr:city":"Naturns - Naturno","addr:city:de":"Naturns","addr:city:it":"Naturno","addr:housenumber":"8","addr:postcode":"39025","addr:street":"Dornsberger-Weg - Via Dornsberg","addr:street:de":"Dornsberger-Weg","addr:street:it":"Via Dornsberg","cabins":"yes","caravans":"yes","drinking_water":"yes","email":"info@waldcamping.com","fax":"+39 0473 668072","fee":"yes","internet_access":"wlan","internet_access:fee":"no","name":"Waldcamping Naturns","operator":"Familie Tribus","phone":"+39 0473 667298","power_supply":"yes","sanitary_dump_station":"yes","shower":"yes","stars":"4","swimming_pool":"indoor","tents":"yes","toilets":"yes","washing_machine":"yes","website":"https://www.waldcamping.com/"}},"118823198":{"location":[46.6626483,11.1581684],"ct":"IT","tp":"CS","ts":"2024-05-23T19:48:10Z","tX":543,"tY":361,"tags":{"barrier":"fence","caravans":"yes","ele":"325","email":"info@merano.eu","fax":"+39 0473 235524","name":"Camping Merano","name:de":"Camping Meran","phone":"+39 0473 231249","shower":"yes","stars":"3","tents":"no","toilets":"yes","website":"https://www.merano-suedtirol.it/de/meran/hotel-unterkunft/camping.html"}},"205946846":{"location":[46.567657,11.2235731],"ct":"IT","tp":"CS","ts":"2023-09-05T13:19:59Z","tX":543,"tY":361,"tags":{"addr:city":"Terlan - Terlano","addr:city:de":"Terlan","addr:city:it":"Terlano","addr:hamlet":"Vilpian - Vilpiano","addr:hamlet:de":"Vilpian","addr:hamlet:it":"Vilpiano","addr:housenumber":"50","addr:postcode":"39018","addr:street":"Meraner Straße - Via Merano","addr:street:de":"Meraner Straße","addr:street:it":"Via Merano","email":"info@campingganthaler.com","name":"Camping Ganthaler","phone":"+39 0471 678716","ref:vatin":"IT02202040214","website":"http://www.campingganthaler.com/"}},"222417407":{"location":[46.6115985,11.1746796],"ct":"IT","tp":"CS","ts":"2024-08-19T11:10:20Z","tX":543,"tY":361,"tags":{"addr:city":"Lana","addr:country":"IT","addr:housenumber":"25","addr:postcode":"39011","addr:street":"Feldgatterweg","capacity":"140","caravans":"yes","dog":"leashed","dryer":"yes","email":"info@camping-arquin.it","fax":"+39 0473 561857","internet_access":"wlan","internet_access:fee":"no","name":"Arquin","nudism":"no","phone":"+39 0473 561187","power_supply":"yes","reservation":"yes","sanitary_dump_station":"customers","stars":"4","tents":"yes","toilets:wheelchair":"yes","washing_machine":"yes","website":"https://www.camping-arquin.it/","wheelchair":"yes"}},"237153549":{"location":[46.671223,11.2037572],"ct":"IT","tp":"CS","ts":"2023-08-07T09:52:03Z","tX":543,"tY":361,"tags":{"caravans":"yes","drinking_water":"yes","internet_access":"wlan","internet_access:fee":"yes","name":"Hermitage","shower":"yes","stars":"4","tents":"yes","website":"https://www.prinzrudolf.com/camping-meran"}},"238557897":{"location":[46.5628311,11.1770774],"ct":"IT","tp":"CS","ts":"2024-09-25T19:38:35Z","tX":543,"tY":361,"tags":{"access":"yes","addr:city":"Tisens - Tesimo","caravans":"yes","dog":"leashed","drinking_water":"yes","fee":"yes","internet_access":"wlan","internet_access:fee":"no","internet_access:ssid":"CARAVAN-ARQUIN","name":"Natur Caravanpark Tisens","phone":"+39 0473 927 131","power_supply":"yes","reservation":"yes","sanitary_dump_station":"yes","shower":"yes","stars":"4","tents":"yes","toilets":"yes","website":"https://naturcaravanpark-tisens.com/"}},"253360064":{"location":[46.6478329,11.0061181],"ct":"IT","tp":"CS","ts":"2019-03-24T21:01:39Z","tX":543,"tY":361,"tags":{"email":"info@campingadler.com","fax":"+39 0473 668346","internet_access":"wlan","internet_access:fee":"no","name":"Camping Adler","operator":"Familie Gamper","phone":"+39 0473 667242","stars":"3","website":"https://www.campingadler.com/"}},"808439367":{"location":[46.6757688,11.1668195],"ct":"IT","tp":"CS","ts":"2024-09-05T09:16:47Z","tX":543,"tY":361,"tags":{"access":"customers","capacity":"58","caravans":"yes","contact:email":"info@schneeburghof.com","contact:mobile":"+39 351 7689026","contact:phone":"+39 0473 923595","drinking_water":"yes","internet_access":"wlan","name":"Camper-Stellplatz Schneeburghof","opening_hours":"2024 Jan 01 -Dec 31","operator":"Fam. Gerhard Waldner","power_supply":"yes","shower":"yes","source:date":"2024-09-05","source:de":"Unterkunftsverzeichnis Dorf Tirol 2024, S. 87, schriftliche Erlaubnis des Tourismusvereins Dorf Tirol vom 2016-09-06  für die Verwendung der Daten für OSM","source:it":"Elenco degli alloggi di Tirolo 2024, pagina 87, autorizzazione in forma scritta dell’Associazione turistica Tirolo del 2016-09-06, per utilizzare i dati su OSM","swimming_pool":"yes","tents":"no","toilets":"yes","website":"https://www.schneeburghof.com/","wheelchair":"yes"}},"987765707":{"location":[46.6388353,10.9998865],"ct":"IT","tp":"CS","ts":"2021-09-28T17:01:04Z","tX":543,"tY":361,"tags":{"addr:street":"Kellerbachweg","capacity":"100","description":"Scout's camp site of the Naturns Scout Group","email":"naturns@pfadfinder.it","fixme":"Genaue Ausmaße","group_only":"yes","name":"Zeltlagerplatz Naturns","operator":"Pfadfinderstamm Naturns","shower":"yes","toilets":"yes","website":"https://naturns.pfadfinder.bz/zeltlagerplatz-naturns"}},"994886924":{"location":[46.6440981,11.2257138],"ct":"IT","tp":"PK","ts":"2021-10-20T11:34:37Z","tX":543,"tY":361,"tags":{"charge":"3 EUR","fee":"yes","hgv":"no","motorhome":"yes","parking":"surface","supervised":"no"}},"1319010810":{"location":[46.5773387,11.1983358],"ct":"IT","tp":"CS","ts":"2024-09-28T14:42:35Z","tX":543,"tY":361,"tags":{"addr:city":"Gargazon","addr:country":"IT","addr:housenumber":"33","addr:postcode":"39010","addr:street":"Bahnhofstraße","caravans":"yes","email":"hello@campingkomodo.it","name":"KOMODO Camping Gargazon","phone":"+39 339 5675661","sanitary_dump_station":"yes","tents":"yes","website":"https://www.campingkomodo.it/"}},"6872769034":{"location":[46.6426782,11.0076419],"ct":"IT","tp":"SD","ts":"2019-10-12T08:52:04Z","tX":543,"tY":361,"tags":{}},"9843518528":{"location":[46.6112278,11.1747315],"ct":"IT","tp":"SD","ts":"2022-06-24T08:52:14Z","tX":543,"tY":361,"tags":{}},"9931313637":{"location":[46.5623799,11.1760015],"ct":"IT","tp":"SD","ts":"2022-08-04T09:21:41Z","tX":543,"tY":361,"tags":{"fee":"no","operator":"Natur Caravanpark Tisens","sanitary_dump_station:chemical_toilet":"no","sanitary_dump_station:grey_water":"yes","water_point":"yes"}},"9931332017":{"location":[46.5629056,11.1770342],"ct":"IT","tp":"SD","ts":"2022-08-04T09:21:41Z","tX":543,"tY":361,"tags":{"access":"customers","fee":"no","sanitary_dump_station:chemical_toilet":"yes","sanitary_dump_station:grey_water":"no","water_point":"yes"}},"12397022328":{"location":[46.6772498,11.0625295],"ct":"IT","tp":"CS","ts":"2024-12-06T00:44:26Z","tX":543,"tY":361,"tags":{"access":"yes","addr:city":"Partschins - Parcines","addr:postcode":"39020","addr:street":"Zielstraße - Via Ziel","capacity:caravans":"121","caravans":"yes","contact:email":"info@campingamsonnenberg.com","dog":"no","fee":"yes","name":"Camping am Sonnenberg","opening_hours":"2025 Jun-Oct,Dec-2026 Jan","operator":"Familie Solin","sauna":"yes","source:date":"2024-12-05","source:de":"Unterkunftsverzeichnis Partschins 2025, S. 32 schriftliche Erlaubnis des Tourismusvereins Partschins vom 2016-08-12  für die Verwendung der Daten für OSM","source:it":"Elenco degli alloggi a Parcines 2025, pagina 32, autorizzazione ufficiale dell‘ Associazione turistica di Parcines dal 2016-08-12 per l‘utilizzo dei dati su OSM","stars":"4","static_caravans":"yes","swimming_pool":"yes","tents":"no"}}}