{"9920689":{"location":[45.8549038,11.0979737],"ct":"IT","tp":"CR","ts":"2019-08-24T11:03:28Z","tX":543,"tY":364,"tags":{"name":"Artènatura"}},"36806471":{"location":[46.0445343,11.1393252],"ct":"IT","tp":"PK","ts":"2024-01-06T17:17:12Z","tX":543,"tY":364,"tags":{"access":"yes","capacity":"102","capacity:disabled":"yes","fee":"no","motorhome":"yes","name":"Parcheggio Villazzano Stazione FS","park_ride":"yes","parking":"surface"}},"56300285":{"location":[45.9024393,11.0370373],"ct":"IT","tp":"CR","ts":"2024-09-02T10:28:40Z","tX":543,"tY":364,"tags":{"capacity":"14","charge":"16€/die","fee":"yes","lit":"yes","maxstay":"48 hours","name":"Area Camper Quercia","operator":"Società Multiservizi Rovereto Srl","parking":"surface","payment:cash":"no","payment:credit_cards":"yes","payment:debit_cards":"yes","power_supply":"yes","sanitary_dump_station":"yes","shower":"yes","surface":"grass_paver","toilets":"yes","water_supply":"running_water","website":"https://areacamperquercia.it/","wheelchair":"yes"}},"71550219":{"location":[45.8842499,11.0115975],"ct":"IT","tp":"CR","ts":"2023-04-08T21:32:09Z","tX":543,"tY":364,"tags":{"access":"customers","fee":"no","name:signed":"no","parking":"surface","surface":"asphalt","toilets":"no","wheelchair":"yes"}},"124801575":{"location":[45.9419472,11.2364097],"ct":"IT","tp":"CS","ts":"2023-01-05T20:00:08Z","tX":543,"tY":364,"tags":{"caravans":"yes","name":"Neve e Sole","tents":"yes"}},"171059391":{"location":[45.9672116,10.9132796],"ct":"IT","tp":"CR","ts":"2024-08-18T22:46:10Z","tX":543,"tY":364,"tags":{"addr:housenumber":"3","addr:postcode":"38074","addr:street":"Località Oltra","name":"Benuzzi-Oberhofer","phone":"+39 0464 504218","power_supply":"yes","sanitary_dump_station":"yes","website":"https://www.agritur-oltra.com/"}},"215666956":{"location":[46.0240496,11.0400514],"ct":"IT","tp":"PK","ts":"2024-11-12T18:48:54Z","tX":543,"tY":364,"tags":{"access":"yes","fee":"yes","fee:conditional":"no @ (Apr-Aug)","motorhome":"yes","parking":"surface","surface":"asphalt"}},"215666957":{"location":[46.023973,11.0404532],"ct":"IT","tp":"PK","ts":"2024-11-12T18:48:54Z","tX":543,"tY":364,"tags":{"access":"yes","fee":"yes","fee:conditional":"no @ (Apr-Aug)","motorhome":"yes","parking":"surface","surface":"asphalt"}},"224157850":{"location":[46.0071,11.2462512],"ct":"IT","tp":"CS","ts":"2014-09-03T06:49:15Z","tX":543,"tY":364,"tags":{"name":"Fleiola"}},"256542505":{"location":[45.9993226,10.92439],"ct":"IT","tp":"CR","ts":"2014-01-14T08:55:03Z","tX":543,"tY":364,"tags":{"name":"Paolino"}},"298271532":{"location":[46.0383202,11.2362949],"ct":"IT","tp":"CS","ts":"2014-08-17T08:46:03Z","tX":543,"tY":364,"tags":{"name":"San Cristoforo"}},"298271996":{"location":[46.0283456,11.2320771],"ct":"IT","tp":"CS","ts":"2023-07-22T21:59:36Z","tX":543,"tY":364,"tags":{"addr:city":"Pergine Valsugana","addr:country":"IT","addr:hamlet":"Valcanover","addr:housenumber":"2","addr:postcode":"38057","addr:street":"Via di Mezzo Lago","cabins":"yes","caravans":"yes","email":"info@campingpuntaindiani.it","motor_vehicle":"yes","name":"Punta Indiani","nudism":"no","payment:cash":"yes","phone":"+39 0461 548062","power_supply":"yes","tents":"yes","washing_machine":"yes","website":"https://www.campingpuntaindiani.it/"}},"301398703":{"location":[46.0062794,11.2464736],"ct":"IT","tp":"CS","ts":"2024-08-03T14:47:53Z","tX":543,"tY":364,"tags":{"caravans":"yes","drinking_water":"yes","name":"Penisola Verde","power_supply":"yes","sanitary_dump_station":"yes","shower":"yes","tents":"yes","toilets":"yes"}},"545094991":{"location":[46.0487167,11.1209989],"ct":"IT","tp":"CR","ts":"2024-01-06T17:17:12Z","tX":543,"tY":364,"tags":{"addr:city":"Trento","addr:postcode":"38123","addr:street":"Via Fersina","capacity":"33","contact:phone":"+39 335 7877747","contact:website":"https://www.trentinomobilita.it/sosta-camper","fee":"yes","name":"Area di sosta camper - Via Fersina","opening_hours":"Mo-Su 07:00-22:00","operator":"Trentino Mobilità","operator:type":"public","power_supply":"yes","reservation":"no","sanitary_dump_station":"yes","surface":"asphalt","surveillance":"yes","toilets":"yes","water_point":"yes"}},"854338747":{"location":[45.8528573,10.9389035],"ct":"IT","tp":"CS","ts":"2023-05-24T12:50:16Z","tX":543,"tY":364,"tags":{"email":"info@alberodellemele.eu","name":"Agricampeggio L'albero delle mele","website":"https://alberodellemele.eu/"}},"885117021":{"location":[45.9714723,10.9405974],"ct":"IT","tp":"CS","ts":"2020-12-24T17:19:02Z","tX":543,"tY":364,"tags":{"access":"customers","addr:city":"Drena","addr:postcode":"38074","addr:street":"Loc. Al Castello","email":"campingresortdrena@gmail.com","name":"Camping Resort Drena","phone":"+39 328 422 19 84","ref:vatin":"IT02132950227","stars":"3","website":"https://www.campingresortdrena.it","wheelchair":"limited"}},"885117023":{"location":[45.9716284,10.9395491],"ct":"IT","tp":"CR","ts":"2020-12-15T23:31:09Z","tX":543,"tY":364,"tags":{"internet_access":"no","name":"Parcheggio Camping Resort Drena","wheelchair":"yes"}},"1054640195":{"location":[46.0057002,11.0902014],"ct":"IT","tp":"CR","ts":"2024-10-23T14:08:58Z","tX":543,"tY":364,"tags":{"capacity":"13","fee":"no","internet_access":"no","name":"Area sosta camper","power_supply":"yes","sanitary_dump_station":"yes","toilets":"no","water_point":"yes"}},"1063499264":{"location":[45.9906976,10.9478089],"ct":"IT","tp":"CS","ts":"2022-08-01T21:58:47Z","tX":543,"tY":364,"tags":{"addr:city":"Cavedine","addr:postcode":"38073","addr:street":"Via Trebi","name":"Camping le Marocche","phone":"+39 328 6865544","website":"https://www.campinglemarocche.com/"}},"1076884460":{"location":[46.0096508,11.1140533],"ct":"IT","tp":"CS","ts":"2022-07-08T15:57:18Z","tX":543,"tY":364,"tags":{"access":"customers","addr:city":"Trento","addr:housenumber":"37","addr:street":"Via delle Ischie","capacity:caravans":"4","name":"Locanda de L'Arguta","operator":"Nicolli Alesandro"}},"1181829270":{"location":[45.8980784,10.9742784],"ct":"IT","tp":"CR","ts":"2024-06-18T08:33:14Z","tX":543,"tY":364,"tags":{}},"1190881906":{"location":[46.0103732,11.1106055],"ct":"IT","tp":"CS","ts":"2024-04-11T10:12:12Z","tX":543,"tY":364,"tags":{"access":"customers","addr:city":"Romagnano","addr:housenumber":"35","addr:postcode":"38123","addr:street":"Via delle Ischie","addr:unit":"B","caravans":"yes","drinking_water":"yes","fee":"yes","name":"Agricamping Bauer Trento","power_supply":"yes","sanitary_dump_station":"yes","shower":"yes","tents":"yes","toilets":"yes","toilets:wheelchair":"yes","wheelchair":"limited"}},"1217880186":{"location":[45.9049457,11.1833182],"ct":"IT","tp":"CS","ts":"2024-08-07T07:35:02Z","tX":543,"tY":364,"tags":{"addr:housenumber":"115","addr:street":"Strada Provinciale dei Francolini","caravans":"yes","email":"booking@essenzaalpina.it","internet_access":"yes","internet_access:fee":"no","name":"Camping Essenza Alpina","phone":"+39 046 41851063","stars":"4","website":"https://www.essenzalpina.it"}},"1314371435":{"location":[46.0508004,11.2359132],"ct":"IT","tp":"CR","ts":"2024-09-09T13:15:39Z","tX":543,"tY":364,"tags":{"addr:housenumber":"23/A","addr:street":"Via al Lago","name":"Soleando Camper Parking"}},"2841347980":{"location":[45.9040517,11.0370081],"ct":"IT","tp":"CR","ts":"2024-10-01T11:20:36Z","tX":543,"tY":364,"tags":{"access":"private","fee":"yes","name":"Area sosta camper Holiday Camper Club","sanitary_dump_station":"yes"}},"7580327460":{"location":[45.9140018,11.1709974],"ct":"IT","tp":"CR","ts":"2022-07-09T19:16:45Z","tX":543,"tY":364,"tags":{"access":"yes","fee":"no","parking":"surface","power_supply":"no","sanitary_dump_station":"yes"}},"11762486173":{"location":[45.9575281,11.0317647],"ct":"IT","tp":"CR","ts":"2024-03-26T00:24:44Z","tX":543,"tY":364,"tags":{"access":"yes","capacity":"15","drinking_water":"yes","fee":"no","name":"Area sosta Bellaria","power_supply":"no","sanitary_dump_station":"yes","surface":"compacted","toilets":"no","wheelchair":"yes"}},"12058827424":{"location":[46.0642309,11.2467581],"ct":"IT","tp":"CR","ts":"2024-07-17T08:44:52Z","tX":543,"tY":364,"tags":{"addr:city":"Pergine Valsugana","addr:postcode":"38057","addr:street":"Via Luigi Senesi","fee":"no","note":"4 posti","power_supply":"no","sanitary_dump_station":"no","source":"https://www.visitvalsugana.it/it/dormire-mangiare/aree-sosta-camper/area-sosta-camper-pergine-valsugana_17331_idar/"}},"12165512414":{"location":[46.049711,11.2343639],"ct":"IT","tp":"CR","ts":"2024-09-09T12:56:47Z","tX":543,"tY":364,"tags":{}},"11405276615":{"location":[45.9016203,11.0268804],"ct":"IT","tp":"SD","ts":"2023-12-09T12:13:17Z","tX":543,"tY":364,"tags":{}},"11405276954":{"location":[45.9020729,11.0259123],"ct":"IT","tp":"SD","ts":"2023-12-09T12:13:17Z","tX":543,"tY":364,"tags":{}},"11473501958":{"location":[46.0052371,11.090233],"ct":"IT","tp":"SD","ts":"2024-07-25T21:36:49Z","tX":543,"tY":364,"tags":{"access":"yes","fee":"no","name":"area sosta camper Garniga Terme","operator":"area sosta camper Garniga Terme","source":"gps;survey","water_point":"yes"}},"12082232964":{"location":[46.0052071,11.090305],"ct":"IT","tp":"SD","ts":"2024-07-30T05:31:44Z","tX":543,"tY":364,"tags":{"access":"yes","fee":"no"}},"12151379047":{"location":[45.9025562,11.0368593],"ct":"IT","tp":"SD","ts":"2024-09-02T10:29:07Z","tX":543,"tY":364,"tags":{"charge":"3€","fee":"yes"}}}