{"182282922":{"location":[45.4464252,10.9185765],"ct":"IT","tp":"CR","ts":"2024-08-13T13:48:59Z","tX":543,"tY":366,"tags":{"name":"Agricamping"}},"256547312":{"location":[45.3926042,10.994226],"ct":"IT","tp":"CS","ts":"2024-08-29T09:51:31Z","tX":543,"tY":366,"tags":{"addr:city":"Verona","addr:housenumber":"44","addr:postcode":"37135","addr:street":"Via Forte Tomba","bbq":"yes","capacity:caravans":"150","caravans":"yes","drinking_water":"yes","email":"info@campingverona.com","fee":"yes","internet_access":"wlan","name":"Camping Verona Village","operator":"Brennero srl","phone":"+39 045/2050660","power_supply":"yes","sanitary_dump_station":"yes","shower":"yes","static_caravans":"yes","tents":"yes","toilets":"yes","website":"https://www.campingverona.com/","wheelchair":"yes"}},"293017883":{"location":[45.43382,10.9783542],"ct":"IT","tp":"CR","ts":"2022-03-01T09:41:41Z","tX":543,"tY":366,"tags":{"capacity":"38","email":"urp@amt.it","fee":"yes","name":"Area Camper Verona \"Porta Palio\"","note":"Aperto/Open 24/7 -- Tariffe Prima ora / 1 Std 3€ -- 4ora / 4 Std. 5€ -- 24 ore / 1 day 10€","operator":"AMT Spa","phone":"+39 045 2320025","power_supply":"yes","sanitary_dump_station":"yes","website":"https://www.amt.it/camper/"}},"374680548":{"location":[45.4235225,11.2449796],"ct":"IT","tp":"CR","ts":"2024-07-29T06:59:38Z","tX":543,"tY":366,"tags":{"addr:city":"Soave","addr:postcode":"37038","addr:street":"Via Invalidi del Lavoro","capacity":"20","fee":"yes","name:signed":"no","opening_hours":"24/7","power_supply":"yes","sanitary_dump_station":"yes"}},"534614867":{"location":[45.3872403,10.9187248],"ct":"IT","tp":"CS","ts":"2024-08-29T10:02:36Z","tX":543,"tY":366,"tags":{"addr:city":"Dossobuono","addr:country":"IT","addr:housenumber":"62","addr:postcode":"37062","addr:street":"Via Comotto","capacity:caravans":"15","caravans":"yes","email":"info@cortecomotto.it","fee":"yes","name":"Agricampeggio Corte Comotto","phone":"+39 3475093229","power_supply":"yes","tents":"yes","website":"https://www.agricampeggiocortecomotto.it/it/home/"}},"682534734":{"location":[45.4559878,11.1719129],"ct":"IT","tp":"CR","ts":"2024-07-29T07:04:20Z","tX":543,"tY":366,"tags":{"addr:city":"Illasi","addr:housenumber":"13","addr:street":"Via Giustina","capacity":"12","fee":"yes","power_supply":"yes","sanitary_dump_station":"yes"}},"836896700":{"location":[45.5500344,11.0044742],"ct":"IT","tp":"CR","ts":"2020-08-13T18:55:32Z","tX":543,"tY":366,"tags":{"capacity":"6","internet_access":"no","power_supply":"no","sanitary_dump_station":"no"}},"907261056":{"location":[45.4503668,11.0041213],"ct":"IT","tp":"CS","ts":"2022-09-17T06:27:08Z","tX":543,"tY":366,"tags":{"addr:city":"Verona","addr:country":"IT","addr:housenumber":"2","addr:postcode":"37129","addr:street":"Via Castel San Pietro","backcountry":"no","bbq":"yes","caravans":"yes","check_date":"2022-09-17","drinking_water":"yes","email":"info@campingcastelsanpietro.com","fax":"+39 045 592037","fee":"yes","group_only":"no","hot_water":"yes","internet_access":"wlan","internet_access:fee":"no","kitchen":"yes","name":"Camping Castel San Pietro","openfire":"no","opening_hours":"08:00-22:00","payment:mastercard":"yes","payment:visa":"yes","phone":"+39 045 592037","picnic_table":"yes","power_supply":"yes","reservation":"yes","sanitary_dump_station":"yes","shower":"yes","swimming_pool":"no","tents":"yes","toilets":"yes","washing_machine":"yes","website":"https://www.campingcastelsanpietro.com/","wheelchair":"limited"}},"1217774802":{"location":[45.4533843,10.9580161],"ct":"IT","tp":"CS","ts":"2024-11-28T13:09:37Z","tX":543,"tY":366,"tags":{"addr:city":"Verona","addr:housenumber":"28","addr:postcode":"37138","addr:street":"Via Luigi Galvani","bbq":"yes","caravans":"yes","dog":"leashed","drinking_water":"yes","fee":"yes","name":"Il Parco Dell'Adige","nudism":"no","reservation":"recommended","sanitary_dump_station":"yes","shower":"yes","static_caravans":"yes","tents":"no","toilets":"yes","website":"https://ilparcodelladige.com/"}},"3780634088":{"location":[45.4236112,11.2452034],"ct":"IT","tp":"SD","ts":"2024-07-29T06:59:38Z","tX":543,"tY":366,"tags":{"water_point":"yes"}},"11925738759":{"location":[45.423753,11.0376129],"ct":"IT","tp":"CS","ts":"2024-11-24T09:17:54Z","tX":543,"tY":366,"tags":{"backcountry":"yes","capacity":"6","caravans":"yes","charge":"15 EUR/night","drinking_water":"yes","fee":"yes","internet_access":"no","name":"La Folaga Rossa","phone":"+3474426582","power_supply":"no","sanitary_dump_station":"no","sauna":"no","shower":"yes","swimming_pool":"no","tents":"yes","toilets":"yes","website":"http://www.folaga.it/","wheelchair":"no"}},"8184925458":{"location":[45.4180028,11.082925],"ct":"IT","tp":"CR","ts":"2020-12-02T16:08:43Z","tX":543,"tY":366,"tags":{"access":"yes","fee":"no","water_point":"yes"}},"8184925459":{"location":[45.4181233,11.0827667],"ct":"IT","tp":"CR","ts":"2020-12-02T16:08:43Z","tX":543,"tY":366,"tags":{"access":"yes","fee":"no","water_point":"yes"}},"10963347586":{"location":[45.4337493,11.1816253],"ct":"IT","tp":"CR","ts":"2023-06-08T11:28:56Z","tX":543,"tY":366,"tags":{"fee":"yes","power_supply":"no","sanitary_dump_station":"yes","toilets":"no","water_point":"yes"}},"6472521999":{"location":[45.5677002,11.1104021],"ct":"IT","tp":"SD","ts":"2019-05-14T17:58:28Z","tX":543,"tY":366,"tags":{"access":"yes","water_point":"yes"}},"6768690516":{"location":[45.4343444,10.9780345],"ct":"IT","tp":"SD","ts":"2019-09-03T07:42:52Z","tX":543,"tY":366,"tags":{"access":"yes","charge":"3 euro","fee":"yes","water_point":"yes"}},"11390110090":{"location":[45.4099957,11.2344979],"ct":"IT","tp":"SD","ts":"2023-12-02T17:04:26Z","tX":543,"tY":366,"tags":{}},"12143828968":{"location":[45.3924863,10.9948812],"ct":"IT","tp":"SD","ts":"2024-08-29T09:11:43Z","tX":543,"tY":366,"tags":{"access":"customers","water_point":"yes"}},"12320699756":{"location":[45.4831028,11.1266344],"ct":"IT","tp":"CR","ts":"2024-12-02T14:02:06Z","tX":543,"tY":366,"tags":{"fixme":"Da verificare sul posto, mi sembra un parcheggio standard, non una zona dedicata per camper"}}}