{"200877595":{"location":[44.3010153,11.1869065],"ct":"IT","tp":"CS","ts":"2024-11-19T13:46:39Z","tX":543,"tY":371,"tags":{"email":"info@calescope.com","name":"Camping Naturista Ca' le Scope","nudism":"yes","phone":"+39 34 55 01 18 92","website":"https://calescope.com/"}},"260721297":{"location":[44.2919577,11.2202525],"ct":"IT","tp":"CS","ts":"2024-08-05T10:32:47Z","tX":543,"tY":371,"tags":{"addr:housenumber":"65","addr:postcode":"40040","addr:street":"Via Ginepri","caravans":"yes","dog":"yes","email":"info@rivadelsetta.com","name":"Riva del Setta","phone":"+39 051 677 7749","power_supply":"yes","ref:corine_land_cover":"1421","source":"http://dati.emilia-romagna.it/dato/item/11-11-uso-del-suolo-2008.html","tents":"yes","website":"http://www.rivadelsetta.com/"}},"260889233":{"location":[44.1674234,11.2120105],"ct":"IT","tp":"CS","ts":"2023-01-26T22:29:36Z","tX":543,"tY":371,"tags":{"addr:city":"Pian del Voglio","addr:country":"IT","addr:housenumber":"10","addr:postcode":"40048","addr:street":"Via del Lavoro","caravans":"yes","email":"info@campingrelax.it","internet_access":"wlan","internet_access:fee":"no","name":"Camping Relax","payment:coins":"yes","payment:girocard":"no","payment:mastercard":"yes","payment:notes":"yes","payment:visa":"yes","phone":"+39 0534 98228","ref:corine_land_cover":"1421","sanitary_dump_station":"yes","source":"http://dati.emilia-romagna.it/dato/item/11-11-uso-del-suolo-2008.html","stars":"4","tents":"yes","website":"http://www.campingrelax.it/","wheelchair":"limited"}},"374469404":{"location":[44.1265543,11.1124808],"ct":"IT","tp":"CR","ts":"2024-08-30T12:09:40Z","tX":543,"tY":371,"tags":{"addr:city":"Camugnano","addr:housenumber":"89","addr:postcode":"40032","addr:street":"Via Brasimone","bbq":"yes","fee":"yes","internet_access":"no","name":"La Guardata","phone":"+393475631631","power_supply":"yes","sanitary_dump_station":"yes","socket:cee_blue":"yes","toilets":"yes","toilets:wheelchair":"yes","website":"http://www.sostacamperbologna.it/"}},"424584157":{"location":[44.1278287,11.0305682],"ct":"IT","tp":"CS","ts":"2023-10-30T05:48:16Z","tX":543,"tY":371,"tags":{"addr:city":"Suviana","addr:country":"IT","addr:housenumber":"12","addr:postcode":"40030","addr:street":"Via Lungo Lago","cabins":"yes","caravans":"yes","email":"info@campingsuviana.com","name":"Bar Pineta Camping del Lago","payment:coins":"yes","payment:notes":"yes","phone":"+39 3285822862","tents":"yes","website":"https://www.campingsuviana.com/"}},"617197133":{"location":[44.2560606,10.9335722],"ct":"IT","tp":"CS","ts":"2023-02-17T17:55:56Z","tX":543,"tY":371,"tags":{"addr:city":"Montese","addr:housenumber":"80","addr:postcode":"41055","addr:street":"Via Testa","name":"Ecochiocciola","phone":"+39 059 980065","source":"survey","website":"https://www.ecochiocciola.com/"}},"627590666":{"location":[44.1247764,11.0345308],"ct":"IT","tp":"CS","ts":"2023-06-30T06:11:30Z","tX":543,"tY":371,"tags":{"caravans":"yes","drinking_water":"yes","name":"Palasubra Suviana Camping (MISTRAL)","power_supply":"yes","shower":"yes","tents":"yes","toilets":"yes","website":"http://albergoostellopedrelli.it/"}},"630249324":{"location":[44.2488516,11.2273889],"ct":"IT","tp":"CS","ts":"2024-11-07T06:45:42Z","tX":543,"tY":371,"tags":{"caravans":"yes","dog":"yes","email":"info@campinglequerce.it","name":"Camping Le Querce","phone":"+39  320 259 7004","power_supply":"yes","power_supply:maxcurrent":"6","tents":"yes","website":"http://www.campinglequerce.it/"}},"1165008912":{"location":[44.2662411,10.9446794],"ct":"IT","tp":"CR","ts":"2024-09-22T22:38:36Z","tX":543,"tY":371,"tags":{"addr:city":"Montese","addr:postcode":"41055","addr:street":"Via Campo del Sole","capacity":"12","fee":"no","name":"Area Camper Montese","opening_hours":"24/7","power_supply":"yes","power_supply:fee":"no","sanitary_dump_station":"public"}},"1302196689":{"location":[44.1819128,10.9755113],"ct":"IT","tp":"CR","ts":"2024-07-18T06:13:30Z","tX":543,"tY":371,"tags":{"addr:city":"Gaggio Montano","addr:postcode":"40041","addr:street":"Via Papa Giovanni XXIII","area":"yes","capacity":"10","fee":"no","name":"Area CamperSilla","power_supply":"yes"}},"1302517699":{"location":[44.1509876,10.980513],"ct":"IT","tp":"CR","ts":"2025-05-10T09:19:16Z","tX":543,"tY":371,"tags":{"email":"gruppocasio@virgilio.it","fee":"yes","name":"Area sosta Gruppo Casio","phone":"+39 333 7337235;+39  329 4229029","power_supply":"yes","sanitary_dump_station":"no","website":"https://www.gruppocasio.it/"}},"2948688502":{"location":[44.33279,10.9798058],"ct":"IT","tp":"CS","ts":"2016-12-05T21:01:39Z","tX":543,"tY":371,"tags":{"name":"Camping Montequestiolo"}},"9085905229":{"location":[44.2078513,11.2483544],"ct":"IT","tp":"CS","ts":"2023-05-01T10:10:07Z","tX":543,"tY":371,"tags":{"addr:city":"San Benedetto Val di Sambro","addr:housenumber":"33","addr:postcode":"40048","addr:street":"Via Cà di Monti","capacity":"5","charge":"30€/Night (Camper 2 adults and 1 +393317515432","dog":"yes","group_only":"no","name":"Agriturismo Fattoria Cà di Sole","payment:cash":"yes","payment:coins":"yes","phone":"+393317515432","power_supply":"yes","reservation":"yes","sanitary_dump_station":"no","shower":"yes","toilets":"yes","website":"https://www.cadisole.it"}},"9060441610":{"location":[44.3111615,11.1968207],"ct":"IT","tp":"CR","ts":"2025-05-12T10:40:10Z","tX":543,"tY":371,"tags":{"description":"Parcheggio ampio e sterrato gratuito, senza illuminazione e altro servizio, adatto anche alla sosta notturna","name":"Parcheggio Il Poggiolo","power_supply":"no","sanitary_dump_station":"no"}},"11115030005":{"location":[44.2960648,11.1250751],"ct":"IT","tp":"CR","ts":"2024-08-06T10:39:13Z","tX":543,"tY":371,"tags":{"addr:housenumber":"123","addr:postcode":"40030","addr:street":"via Carviano","contact:instagram":"azienda.canova_123","drinking_water":"no","fee":"no","name":"Azienda Ca nova 123","opening_hours":"24/7","phone":"+39 3472338354","power_supply":"no","sanitary_dump_station":"no","toilets":"no","website":"https://www.aziendaagricolacanova.it/"}},"12082679094":{"location":[44.1205251,11.0457499],"ct":"IT","tp":"CR","ts":"2024-07-30T09:50:32Z","tX":543,"tY":371,"tags":{"addr:city":"Camugnano","addr:postcode":"40032","name":"La Spiaggetta","power_supply":"no"}},"9060425574":{"location":[44.2887356,11.1126282],"ct":"IT","tp":"SD","ts":"2021-09-03T14:15:08Z","tX":543,"tY":371,"tags":{"access":"yes","fee":"no","operator":"Camper Service Vergato","sanitary_dump_station":"yes","water_point":"yes"}},"12802913186":{"location":[44.0907852,11.1623775],"ct":"IT","tp":"CR","ts":"2025-05-01T19:52:28Z","tX":543,"tY":371,"tags":{"power_supply":"yes","sanitary_dump_station":"yes"}}}