{"7594950":{"location":[43.9891153,11.2414599],"ct":"IT","tp":"CR","ts":"2023-10-09T06:58:44Z","tX":543,"tY":372,"tags":{"addr:city":"Barberino di Mugello","addr:street":"Via del Lago","fee":"yes","internet_access":"wlan","name":"Area Sosta Camper bilancino","opening_hours":"Mo-Su 08:00-22:00","phone":"+39 335 5270375","power_supply":"yes","sanitary_dump_station":"yes","surface":"grass_paver"}},"258614864":{"location":[43.8983565,11.0948939],"ct":"IT","tp":"CR","ts":"2015-01-31T11:07:28Z","tX":543,"tY":372,"tags":{}},"348685591":{"location":[43.8410852,10.9127422],"ct":"IT","tp":"CS","ts":"2024-08-27T15:14:19Z","tX":543,"tY":372,"tags":{"addr:city":"Lamporecchio","addr:housenumber":"11","addr:postcode":"51035","addr:street":"Via Nardini","motorhome":"yes","name":"Barco Reale","phone":"+39057388332","power_supply":"yes","power_supply:maxcurrent":"6;10;16","shower":"yes","socket:cee_blue":"yes","static_caravans":"no","tents":"yes","toilets":"yes","website":"https://www.barcoreale.it/"}},"435000139":{"location":[43.8417297,11.1773933],"ct":"IT","tp":"CR","ts":"2023-10-30T14:58:55Z","tX":543,"tY":372,"tags":{"fee":"18","internet_access":"wlan","name":"Antica Etruria","phone":"+39 366 3450565","power_supply":"yes","sanitary_dump_station":"yes","website":"https://anticaetruria.it/"}},"3935858109":{"location":[43.9438887,10.9156512],"ct":"IT","tp":"CR","ts":"2023-08-11T09:48:09Z","tX":543,"tY":372,"tags":{"fee":"no","internet_access":"no","name":"Camper Service Olla Pistoia","sanitary_dump_station":"yes","toilets":"no"}},"5548163594":{"location":[43.8589358,11.1090145],"ct":"IT","tp":"CR","ts":"2024-08-13T20:24:18Z","tX":543,"tY":372,"tags":{"addr:city":"Prato","addr:postcode":"59100","addr:street":"Viale Leonardo da Vinci","capacity":"50","fee":"no","internet_access":"no","name":"Parcheggio Scambiatore Piazzale del Museo","power_supply":"no","sanitary_dump_station":"yes"}},"5548163593":{"location":[43.8587847,11.1090779],"ct":"IT","tp":"SD","ts":"2018-04-12T13:51:30Z","tX":543,"tY":372,"tags":{"access":"yes","fee":"no"}},"5548163595":{"location":[43.8976889,11.0708932],"ct":"IT","tp":"SD","ts":"2023-02-08T19:07:11Z","tX":543,"tY":372,"tags":{"access":"yes","operator":"CONAD"}}}