{"26859508":{"location":[43.721389,11.218611],"ct":"IT","tp":"CS","ts":"2012-07-16T02:50:14Z","tX":543,"tY":373,"tags":{"name":"Firenze Inter"}},"43786608":{"location":[43.7521664,11.2446937],"ct":"IT","tp":"CR","ts":"2024-08-16T08:34:51Z","tX":543,"tY":373,"tags":{"capacity":"40","fee":"yes","name":"Parcheggio Gelsomino","phone":"+39 055 36 33 62","power_supply":"no","sanitary_dump_station":"yes","toilets":"yes","website":"https://www.scaf.fi.it/gelsomino.html"}},"102984923":{"location":[43.7240894,11.2176341],"ct":"IT","tp":"CS","ts":"2022-08-03T11:47:40Z","tX":543,"tY":373,"tags":{"caravans":"yes","email":"internazionale@florencevillage.com","name":"Camping Internazionale","phone":"+390552374704","shower":"yes","tents":"yes","toilets":"yes","website":"https://campinginternazionalefirenze.com/"}},"235337678":{"location":[43.5817012,11.1379401],"ct":"IT","tp":"CS","ts":"2023-11-07T19:01:34Z","tX":543,"tY":373,"tags":{"name":"Panorama del Chianti","website":"https://www.campingchianti.it/"}},"766158240":{"location":[43.780597,10.9284098],"ct":"IT","tp":"CR","ts":"2024-09-01T09:57:02Z","tX":543,"tY":373,"tags":{"addr:city":"Vinci","addr:postcode":"50059","addr:street":"Via Girolamo Calvi","caravans":"no","dog":"yes","maxstay":"24 hours","name":"Area Sosta Camper Vinci","power_supply":"no","sanitary_dump_station":"yes","tents":"no","toilets":"no","water_point":"yes"}},"1304661599":{"location":[43.7623103,11.2088153],"ct":"IT","tp":"CR","ts":"2024-08-02T15:18:00Z","tX":543,"tY":373,"tags":{"addr:city":"Firenze","addr:housenumber":"241","addr:street":"Via di Scandicci","name":"Florence Park Scandicci","phone":"+39 328 5474412","power_supply":"yes","sanitary_dump_station":"no"}},"1312581971":{"location":[43.7826733,10.986788],"ct":"IT","tp":"CS","ts":"2024-09-01T09:54:47Z","tX":543,"tY":373,"tags":{"addr:city":"Limite sull'Arno","addr:housenumber":"71","addr:postcode":"50050","addr:street":"Via Castra","bbq":"yes","cabins":"yes","description":"Camping with bar/restaurant, swimming pool and mini-market\n\nServizio navetta su prenotazione a pagamento da/per Empoli e stazione treni","dog":"yes","dryer":"yes","email":"info@campingsangiusto.it","fax":"+39 055 8711856","fixme":"Confini area approssimativi","internet_access":"yes","internet_access:fee":"no","internet_access:type":"wifi","mobile":"+39 331 3555801;+39 334 1545667","name":"Camping Village San Giusto","phone":"+39 055 8712304","power_supply":"yes","power_supply:maxcurrent":"6","shower":"hot","socket:cee_blue":"yes","toilets":"yes","washing_machine":"yes","website":"https://www.campingsangiusto.com/"}},"1338260540":{"location":[43.7365057,11.0046996],"ct":"IT","tp":"CR","ts":"2024-11-27T11:21:56Z","tX":543,"tY":373,"tags":{"fee":"no","name":"Parcheggio e Area camper comunale","power_supply":"no"}},"3186367475":{"location":[43.5979079,11.1764831],"ct":"IT","tp":"CS","ts":"2014-11-14T11:53:37Z","tX":543,"tY":373,"tags":{"addr:city":"Tavarnelle Val di Pesa","addr:housenumber":"1","addr:postcode":"50028","addr:street":"Strada Romita","ele":"310","name":"Agricamping Romita","note":"Simple, but nice and friendly. Swimming pool available.","operator":"campingromita.it","phone":"+39 335 803 63 46","source":"own visit in June 2014","website":"http://www.campingromita.it"}},"4945337285":{"location":[43.6805067,11.1114961],"ct":"IT","tp":"CS","ts":"2017-07-01T09:19:56Z","tX":543,"tY":373,"tags":{"addr:city":"Montespertoli","addr:housenumber":"2","addr:postcode":"50025","addr:street":"Via San Vincenzo","email":"info@cipollatico.com","name":"Agricampeggio Cipollatico","phone":"+39 0571 659195"}},"10751549270":{"location":[43.6911885,10.9758848],"ct":"IT","tp":"CS","ts":"2024-09-01T09:43:12Z","tX":543,"tY":373,"tags":{"addr:street":"Via Montaioncino","name":"Agricamping Agricampeggio Montaioncino","operator":"Azienda Agricola Montaioncino","phone":"+390571929334","website":"http://montaioncino.it"}},"4794008922":{"location":[43.79595,11.24864],"ct":"IT","tp":"CR","ts":"2024-04-21T16:20:03Z","tX":543,"tY":373,"tags":{"drinking_water":"no","fee":"yes","name":"Flog","power_supply":"no","sanitary_dump_station":"no","toilets":"no"}},"5903433552":{"location":[43.7804227,10.9282065],"ct":"IT","tp":"SD","ts":"2020-01-24T06:47:57Z","tX":543,"tY":373,"tags":{"operator":"smalimento acque reflue"}},"10808119118":{"location":[43.6574833,11.0839853],"ct":"IT","tp":"SD","ts":"2023-04-13T16:03:42Z","tX":543,"tY":373,"tags":{"access":"yes"}},"12378578814":{"location":[43.7365667,11.0044831],"ct":"IT","tp":"SD","ts":"2024-11-27T11:21:56Z","tX":543,"tY":373,"tags":{"access":"yes","fee":"no","water_point":"yes"}}}