{"89624026":{"location":[43.4540668,11.0539979],"ct":"IT","tp":"CS","ts":"2024-08-09T14:05:41Z","tX":543,"tY":374,"tags":{"addr:city":"San Gimignano","addr:postcode":"53037","addr:street":"Strada Comunale di Santa Lucia","caravans":"yes","contact:email":"info@boschettodipiemma.it","contact:fax":"+39 0577 907453","contact:phone":"+39 0577 940352;+39 0577 907134","contact:website":"https://www.boschettodipiemma.it/","dog":"yes","fixme":"border","name":"Boschetto di Piemma","power_supply":"cee_17_blue","tents":"yes"}},"93927348":{"location":[43.5458608,11.1792386],"ct":"IT","tp":"CS","ts":"2014-05-24T12:26:58Z","tX":543,"tY":374,"tags":{"name":"Campeggio Semifonte"}},"478976530":{"location":[43.4620458,11.1458288],"ct":"IT","tp":"CR","ts":"2024-10-14T17:01:15Z","tX":543,"tY":374,"tags":{"access":"yes","fee":"no","parking":"surface","surface":"asphalt"}},"609021947":{"location":[43.385924,11.2280669],"ct":"IT","tp":"CR","ts":"2024-12-25T08:40:25Z","tX":543,"tY":374,"tags":{"drinking_water":"yes","fee":"yes","name":"Area Sosta Camper La Posta","power_supply":"yes","sanitary_dump_station":"yes","toilets":"yes","url":"http://www.monteriggioniturismo.it/en/info-turistiche/area-camper-la-posta/"}},"1212997850":{"location":[43.3873453,11.0805104],"ct":"IT","tp":"CS","ts":"2023-10-04T10:54:40Z","tX":543,"tY":374,"tags":{"description":"Privatly maintained camping and picnic site at the via francigena","name":"Piro e More","website":"https://m.facebook.com/CAMPO-PIRO-E-MORE-107172088510077/"}},"1219059123":{"location":[43.40005,11.2478596],"ct":"IT","tp":"CS","ts":"2023-10-28T18:05:58Z","tX":543,"tY":374,"tags":{"email":"info@luxorcamping.com","name":"Luxor","phone":"+39 0577 743047","website":"http://www.luxorcamping.com"}},"1266936177":{"location":[43.4520247,11.0558105],"ct":"IT","tp":"CR","ts":"2024-10-21T14:37:02Z","tX":543,"tY":374,"tags":{"addr:city":"San Gimignano","addr:postcode":"53037","addr:street":"Strada Comunale di Santa Lucia","capacity":"50","caravans":"no","contact:phone":"+39 0577 990377 374","fee":"yes","motorhome":"yes","name":"P5 Santa Lucia","power_supply":"no","tents":"no","website":"https://www.comune.sangimignano.si.it/it/page/p5-parcheggio-per-camper"}},"1719004738":{"location":[43.4549659,11.0359973],"ct":"IT","tp":"CR","ts":"2014-08-31T15:05:38Z","tX":543,"tY":374,"tags":{"name":"Stellplatz Via di Castell San Gimignano"}},"2318795649":{"location":[43.3442614,11.115439],"ct":"IT","tp":"CS","ts":"2013-05-24T19:35:53Z","tX":543,"tY":374,"tags":{"internet_access":"no","name":"Casale","power_supply":"yes"}},"2385313428":{"location":[43.5465144,11.0461411],"ct":"IT","tp":"SD","ts":"2023-08-28T10:48:56Z","tX":543,"tY":374,"tags":{"sanitary_dump_station:accepted":"black_water;tank_chemicals;grey_water"}},"10751346827":{"location":[43.5450184,11.0616767],"ct":"IT","tp":"CS","ts":"2024-07-17T07:08:37Z","tX":543,"tY":374,"tags":{"addr:city":"Certaldo","addr:postcode":"50052","addr:street":"Strada provinciale di San Donnino","caravans":"yes","fee":"yes","name":"Agricampeggio Poggio ai Pini","phone":"+39 389 956 4156","website":"http://www.poggioaipini.it"}}}