{"13238217":{"location":[42.5459669,11.1749713],"ct":"IT","tp":"CS","ts":"2024-09-10T14:05:15Z","tX":543,"tY":378,"tags":{"addr:city":"Fonteblanda","addr:country":"IT","addr:housenumber":"221","addr:postcode":"58015","addr:street":"Via Aurelia","caravans":"yes","dog":"yes","email":"info@campeggioideal.it","fee":"yes","name":"Camping Ideal","phone":"+39 0564 885379","power_supply":"yes","socket:cee_blue":"yes","tents":"yes","website":"http://www.campeggioideal.it"}},"26859868":{"location":[42.466667,11.189167],"ct":"IT","tp":"CS","ts":"2007-03-28T17:22:54Z","tX":543,"tY":378,"tags":{"created_by":"JOSM","name":"Veliero"}},"175150392":{"location":[42.4331028,11.1598438],"ct":"IT","tp":"CR","ts":"2024-09-10T12:32:57Z","tX":543,"tY":378,"tags":{"addr:city":"Orbetello","addr:street":"Strada Provinciale Giannella","camp_site":"reception","capacity":"40","caravans":"yes","contact:mobile":"+39 360 709528","email":"info@lanini.it","fee":"yes","internet_access":"yes","internet_access:fee":"no","name":"Parco Sosta Lanini","note":"open MÃ¤rz - November","phone":"+39 0564 820102","power_supply":"yes","sanitary_dump_station":"yes","socket:cee_blue":"yes","website":"http://www.lanini.it"}},"353834091":{"location":[42.4629706,11.1869891],"ct":"IT","tp":"CS","ts":"2024-09-10T12:58:47Z","tX":543,"tY":378,"tags":{"addr:city":"Orbetello","addr:housenumber":"166","addr:postcode":"58010","addr:street":"Strada Provinciale di Giannella","cabins":"yes","caravans":"yes","dog":"yes","email":"info@orbetellocampingvillage.com","fee":"yes","internet_access":"yes","motorhome":"yes","name":"Orbetello Camping Village","note":"Spiaggia per cani, Agility Dog, Dog Wash","payment:cash":"yes","payment:credit_cards":"yes","payment:debit_cards":"yes","power_supply":"yes","socket:cee_blue":"yes","static_caravans":"yes","tents":"yes","washing_machine":"yes","website":"https://www.orbetellocampingvillage.com/"}},"507509856":{"location":[42.4174032,11.2043139],"ct":"IT","tp":"CR","ts":"2024-09-10T12:30:11Z","tX":543,"tY":378,"tags":{"addr:street":"Via Provinciale Orbetellana","bbq":"yes","capacity":"130","fee":"yes","name":"Area Sosta Camper Le Miniere","note":"open April - September","phone":"+393341556285","power_supply":"yes","sanitary_dump_station":"yes","socket:cee_blue":"yes","website":"https://www.areasostacamperleminiere.com/"}},"825436713":{"location":[42.410292,11.2086118],"ct":"IT","tp":"CS","ts":"2024-09-10T12:30:11Z","tX":543,"tY":378,"tags":{"addr:place":"Feniglia","cabins":"yes","capacity:caravans":"142","capacity:tents":"142","caravans":"yes","dog":"yes","fee":"yes","motorhome":"yes","name":"Camping Feniglia","payment:cash":"yes","payment:credit_cards":"yes","payment:debit_cards":"yes","phone":"+39 0564 831090","power_supply":"yes","power_supply:maxcurrent":"16","shower":"yes","socket:cee_blue":"yes","static_caravans":"yes","tents":"yes","toilets":"yes","website":"https://www.campingfeniglia.it/"}},"959893783":{"location":[42.5199265,11.1912469],"ct":"IT","tp":"CS","ts":"2024-09-10T13:42:00Z","tX":543,"tY":378,"tags":{"cabins":"yes","caravans":"yes","dog":"yes","email":"info@campingvillageoasi.it","fee":"yes","internet_access":"yes","motorhome":"yes","name":"Camping Village Oasi","note":"Cani inn umero limitato, non possono andare in spiaggia","phone":"+39 0564 871588","power_supply":"yes","power_supply:maxcurrent":"5","reservation":"yes","socket:cee_blue":"yes","stars":"2","static_caravans":"yes","tents":"yes","website":"https://www.campingvillageoasi.it/"}},"983863419":{"location":[42.536779,11.1816319],"ct":"IT","tp":"CS","ts":"2024-09-10T14:01:48Z","tX":543,"tY":378,"tags":{"cabins":"yes","caravans":"yes","dog":"no","email":"info@campeggioacapulco.com","fee":"yes","motorhome":"yes","name":"Campeggio Acapulco","phone":"+390564870165","power_supply":"yes","shower":"yes","socket:cee_blue":"yes","stars":"2","static_caravans":"yes","tents":"yes","toilets":"yes","website":"https://campeggioacapulco.com/"}},"983863420":{"location":[42.5349657,11.1831743],"ct":"IT","tp":"CS","ts":"2024-09-10T14:01:48Z","tX":543,"tY":378,"tags":{"cabins":"yes","caravans":"yes","email":"info@campinghawaii.it","fee":"yes","motorhome":"yes","name":"Camping Hawai","phone":"+39 0564 870164","power_supply":"yes","socket:cee_blue":"yes","tents":"yes","website":"https://campinghawaii.it/"}},"983863421":{"location":[42.5336412,11.1840503],"ct":"IT","tp":"CS","ts":"2024-09-10T14:01:48Z","tX":543,"tY":378,"tags":{"caravans":"yes","dog":"permissive","email":"info@campingcamporegio.it","fee":"yes","motorhome":"yes","name":"Camping Campo Regio","note":"I cani sono ammessi tutto l'anno ad esclusione del periodo Luglio-Agosto.","phone":"+39 0564 87 01 63","power_supply":"yes","socket:cee_blue":"yes","static_caravans":"yes","tents":"yes","website":"https://www.campingcamporegio.it/it"}},"983863422":{"location":[42.5325423,11.1846826],"ct":"IT","tp":"CS","ts":"2024-09-10T13:42:00Z","tX":543,"tY":378,"tags":{"cabins":"yes","caravans":"yes","fee":"yes","motorhome":"yes","name":"Camping Il Gabbiano","power_supply":"yes","power_supply:maxcurrent":"6","socket:cee_blue":"yes","tents":"yes"}},"1304792184":{"location":[42.529123,11.1870238],"ct":"IT","tp":"CS","ts":"2024-09-10T13:42:00Z","tX":543,"tY":378,"tags":{"addr:city":"Albinia","addr:postcode":"58015","addr:street":"Via Aurelia","area":"yes","caravans":"yes","dog":"leashed","email":"info@campingvillageafrica.it","fee":"yes","internet_access":"wlan","name":"Camping Africa","operator":"Voltoncino SRL","phone":"+39 0564 870245","power_supply":"yes","power_supply:maxcurrent":"4.5","socket:cee_blue":"yes","stars":"2","tents":"yes"}},"1304792185":{"location":[42.5262712,11.1886848],"ct":"IT","tp":"CS","ts":"2024-09-10T13:42:00Z","tX":543,"tY":378,"tags":{"addr:city":"Albinia","addr:postcode":"58015","addr:street":"Via Aurelia","area":"yes","caravans":"yes","fee":"yes","name":"Village Camping Voltoncino","phone":"+39 0564 870158","power_supply":"yes","power_supply:maxcurrent":"3","socket:cee_blue":"yes","stars":"2","static_caravans":"no","tents":"yes","website":"https://www.voltoncino.it/it/voltoncino/camping.asp"}},"1304792186":{"location":[42.524394,11.1893851],"ct":"IT","tp":"CS","ts":"2024-09-10T13:42:00Z","tX":543,"tY":378,"tags":{"area":"yes","caravans":"yes","fee":"yes","name":"Marina Chiara Camping","phone":"+39 0564 870304","power_supply":"yes","power_supply:maxcurrent":"3","socket:cee_blue":"yes","tents":"yes","website":"https://www.voltoncino.it/it/marinachiara/camping.asp"}},"1314633631":{"location":[42.4564907,11.1839458],"ct":"IT","tp":"CS","ts":"2024-09-10T12:43:55Z","tX":543,"tY":378,"tags":{"cabins":"yes","caravans":"yes","dog":"yes","fee":"yes","motorhome":"yes","name":"Giannella Camping","note":"Spiaggia per cani","power_supply":"yes","power_supply:maxcurrent":"3;6","socket:cee_blue":"yes","static_caravans":"yes","tents":"yes","website":"https://www.giannellacamping.com/"}},"1314636908":{"location":[42.4680306,11.1874621],"ct":"IT","tp":"CR","ts":"2024-09-10T12:58:47Z","tX":543,"tY":378,"tags":{"fee":"yes","name":"Parcheggio Giannella","payment:cash":"yes","payment:debit_cards":"yes","power_supply":"no","sanitary_dump_station":"no"}},"1314641229":{"location":[42.4965016,11.1931146],"ct":"IT","tp":"CS","ts":"2024-09-10T13:17:19Z","tX":543,"tY":378,"tags":{"caravans":"yes","name":"Argentario Camping Village","phone":"+39 0564 87 03 02","power_supply":"yes","power_supply:maxcurrent":"3;6","shower":"yes","socket:cee_blue":"yes","static_caravans":"yes","tents":"yes","toilets:wheelchair":"no","washing_machine":"yes","website":"https://argentariocampingvillage.com/","wheelchair":"yes"}},"1314641231":{"location":[42.5006718,11.1936154],"ct":"IT","tp":"CS","ts":"2024-09-10T13:17:19Z","tX":543,"tY":378,"tags":{"area":"yes","caravans":"yes","dog":"yes","fee":"yes","fixme":"geometry","internet_access":"yes","internet_access:fee":"no","motorhome":"yes","name":"Camping Bocche d'Albegna","note":"Cani ammessi in spiaggia","power_supply":"yes","power_supply:maxcurrent":"6","sanitary_dump_station":"yes","socket:cee_blue":"yes","tents":"yes","washing_machine":"yes","website":"https://bocchedalbegna.com/"}},"1314643193":{"location":[42.5090846,11.1956094],"ct":"IT","tp":"CR","ts":"2024-09-10T13:26:20Z","tX":543,"tY":378,"tags":{"addr:housenumber":"151/5","addr:street":"Via Aurelia","dog":"yes","email":"info@aidelfini.it","fee":"yes","name":"Ai delfini","phone":"+39 0564 870351","phone:mobile":"+39 389 9270263","power_supply":"yes","shower":"yes","socket:cee_blue":"yes","toilets":"yes","washing_machine":"yes","website":"https://www.aidelfini.it/"}},"5065060097":{"location":[42.5318758,11.185745],"ct":"IT","tp":"CS","ts":"2017-08-28T21:08:19Z","tX":543,"tY":378,"tags":{"name":"Village Golfo degli Etruschi","stars":"2"}},"11715962052":{"location":[42.4304072,11.1330356],"ct":"IT","tp":"CS","ts":"2024-03-11T08:39:00Z","tX":543,"tY":378,"tags":{"backcountry":"yes","impromptu":"yes"}},"5766163464":{"location":[42.4151461,11.207263],"ct":"IT","tp":"CR","ts":"2018-07-17T15:03:28Z","tX":543,"tY":378,"tags":{}},"6915792110":{"location":[42.4329598,11.1597824],"ct":"IT","tp":"SD","ts":"2019-10-25T13:24:17Z","tX":543,"tY":378,"tags":{"access":"customers","fee":"no","operator":"parco sosta lanini","water_point":"yes"}}}