{"4200278892":{"location":[48.0897915,106.7625176],"ct":"MN","tp":"CS","ts":"2016-05-22T14:08:22Z","tX":815,"tY":355,"tags":{"name":"zuslan ar gunt"}},"4740989821":{"location":[48.0915132,106.7933574],"ct":"MN","tp":"CS","ts":"2017-09-17T18:14:29Z","tX":815,"tY":355,"tags":{"email":"Bayaraa0707@yahoo.com","name":"Цагаан өргөө","name:en":"Tsagaan urguu","name:mn":"Цагаан өргөө","operator":"Баярсайхан П","phone":"99112171","website":"http://www.white-house.webon.mn"}},"4793701528":{"location":[48.0122296,106.7752305],"ct":"MN","tp":"CS","ts":"2017-04-14T16:37:41Z","tX":815,"tY":355,"tags":{"name":"Зуслан"}},"4930920022":{"location":[48.0199292,106.7333928],"ct":"MN","tp":"CS","ts":"2017-06-22T13:45:34Z","tX":815,"tY":355,"tags":{"name":"Найрамдал","name:en":"nairamdal","name:mn":"Найрамдал"}},"4963104824":{"location":[48.0086787,106.788835],"ct":"MN","tp":"CS","ts":"2017-07-11T05:50:22Z","tX":815,"tY":355,"tags":{"name":"бумбатын рашаан","name:mn":"бумбатын рашаан"}},"5015691322":{"location":[48.0742697,106.7559304],"ct":"MN","tp":"CS","ts":"2017-08-05T02:10:15Z","tX":815,"tY":355,"tags":{"name":"ar gunt","name:mn":"ar gunt"}},"7455697285":{"location":[48.0540881,106.8616582],"ct":"MN","tp":"CS","ts":"2020-04-28T03:29:05Z","tX":815,"tY":355,"tags":{"name":"Цэнгэг хүрээ","name:en":"Tsengeg Khuree"}}}