{"5187885721":{"location":[-6.1087275,106.5288317],"ct":"ID","tp":"CS","ts":"2017-10-25T06:39:31Z","tX":815,"tY":529,"tags":{"addr:housenumber":"88","addr:postcode":"15540","addr:street":"Rajeg Mulya","name:en":"Rajeg Gardenia Blok E9","opening_hours":"24/7"}},"7216569385":{"location":[-6.2435046,106.8291232],"ct":"ID","tp":"CR","ts":"2020-02-16T14:30:50Z","tX":815,"tY":529,"tags":{"name:en":"Mnb2"}},"7216592386":{"location":[-6.2473762,106.8319322],"ct":"ID","tp":"CR","ts":"2020-02-16T14:44:53Z","tX":815,"tY":529,"tags":{"name:en":"Bc1"}},"7216599485":{"location":[-6.2477971,106.8307248],"ct":"ID","tp":"CR","ts":"2020-02-16T14:41:43Z","tX":815,"tY":529,"tags":{"name:en":"Mnd1"}},"7216670885":{"location":[-6.2339269,106.8496995],"ct":"ID","tp":"CR","ts":"2020-02-16T15:26:19Z","tX":815,"tY":529,"tags":{"name:en":"Mnd1.10pm"}},"7216730086":{"location":[-6.2507479,106.8145309],"ct":"ID","tp":"CR","ts":"2020-02-16T16:00:33Z","tX":815,"tY":529,"tags":{"name:en":"Bcci2.24"}},"7238198285":{"location":[-6.2861468,106.8192238],"ct":"ID","tp":"CR","ts":"2020-02-24T07:20:15Z","tX":815,"tY":529,"tags":{"name:en":"Mn1.bolnitsa"}},"7238306685":{"location":[-6.2662631,106.8061075],"ct":"ID","tp":"CR","ts":"2020-02-24T08:23:54Z","tX":815,"tY":529,"tags":{"name:en":"Cimn2.23"}},"7238375285":{"location":[-6.2666364,106.8042661],"ct":"ID","tp":"CR","ts":"2020-02-24T08:59:59Z","tX":815,"tY":529,"tags":{"name:en":"Bcmn2.23"}},"7238375286":{"location":[-6.2658194,106.7986265],"ct":"ID","tp":"CR","ts":"2020-02-24T09:00:01Z","tX":815,"tY":529,"tags":{"name:en":"Dk1.24"}},"7238375287":{"location":[-6.2635648,106.7944455],"ct":"ID","tp":"CR","ts":"2020-02-24T09:00:02Z","tX":815,"tY":529,"tags":{"name:en":"Br1"}},"7238382800":{"location":[-6.2640875,106.7923459],"ct":"ID","tp":"CR","ts":"2020-02-24T09:15:41Z","tX":815,"tY":529,"tags":{"name:en":"Мн2.24"}},"7238404986":{"location":[-6.2639411,106.7923331],"ct":"ID","tp":"CR","ts":"2020-02-24T09:37:43Z","tX":815,"tY":529,"tags":{"name:en":"Br1"}},"7238455785":{"location":[-6.2633864,106.7884481],"ct":"ID","tp":"CR","ts":"2020-02-24T09:41:47Z","tX":815,"tY":529,"tags":{"name:en":"Mn1"}},"7281918585":{"location":[-6.2487256,106.7779646],"ct":"ID","tp":"CR","ts":"2020-03-10T09:08:34Z","tX":815,"tY":529,"tags":{"name:en":"Bn..."}},"7284165585":{"location":[-6.2418052,106.7876556],"ct":"ID","tp":"CR","ts":"2020-03-11T07:11:15Z","tX":815,"tY":529,"tags":{"name:en":"Mnbn2...nooooo"}},"7284191885":{"location":[-6.2633905,106.7445989],"ct":"ID","tp":"CR","ts":"2020-03-11T07:30:59Z","tX":815,"tY":529,"tags":{"name:en":"Bc1cim.noooooo"}},"7284202385":{"location":[-6.2674841,106.7428656],"ct":"ID","tp":"CR","ts":"2020-03-11T07:38:41Z","tX":815,"tY":529,"tags":{"name:en":"Bc.mn.nooooo"}},"7284210386":{"location":[-6.2625716,106.7370033],"ct":"ID","tp":"CR","ts":"2020-03-11T07:53:22Z","tX":815,"tY":529,"tags":{"name:en":"Mn1..."}},"7284228485":{"location":[-6.2626607,106.7317175],"ct":"ID","tp":"CR","ts":"2020-03-11T07:53:24Z","tX":815,"tY":529,"tags":{"name:en":"Mn.bc3.noooo.ouuuu"}},"7284228585":{"location":[-6.2624169,106.7296851],"ct":"ID","tp":"CR","ts":"2020-03-11T07:53:25Z","tX":815,"tY":529,"tags":{"name:en":"Mn1..."}},"7284228586":{"location":[-6.2631299,106.7265999],"ct":"ID","tp":"CR","ts":"2020-03-11T07:53:27Z","tX":815,"tY":529,"tags":{"name:en":"Ci1.nooooo.ouuuuu"}},"7284256486":{"location":[-6.262357,106.7217674],"ct":"ID","tp":"CR","ts":"2020-03-11T08:03:10Z","tX":815,"tY":529,"tags":{"name:en":"Бч.мн2..."}},"7284256685":{"location":[-6.2632687,106.7143816],"ct":"ID","tp":"CR","ts":"2020-03-11T08:03:11Z","tX":815,"tY":529,"tags":{"name:en":"Бч.мн.2.нооооо"}},"7284287085":{"location":[-6.2606053,106.7100711],"ct":"ID","tp":"CR","ts":"2020-03-11T08:07:14Z","tX":815,"tY":529,"tags":{"name:en":"Бч.мн2.ноооо"}},"7284295285":{"location":[-6.2579074,106.7043596],"ct":"ID","tp":"CR","ts":"2020-03-11T08:13:07Z","tX":815,"tY":529,"tags":{"name:en":"Ин.бч2.ноооо"}},"7284295385":{"location":[-6.2593155,106.7040949],"ct":"ID","tp":"CR","ts":"2020-03-11T08:13:09Z","tX":815,"tY":529,"tags":{"name:en":"Бч..."}},"7287659685":{"location":[-6.3147814,106.7570059],"ct":"ID","tp":"CR","ts":"2020-03-12T07:39:07Z","tX":815,"tY":529,"tags":{"name:en":"Mn.br.nooooo.ouuuu"}},"7287659785":{"location":[-6.3140143,106.7542916],"ct":"ID","tp":"CR","ts":"2020-03-12T07:39:09Z","tX":815,"tY":529,"tags":{"name:en":"Bc1..."}},"7296290885":{"location":[-6.2484997,106.7016005],"ct":"ID","tp":"CR","ts":"2020-03-15T07:34:29Z","tX":815,"tY":529,"tags":{"name:en":"Мн2.оууууу.нооо"}},"7296290985":{"location":[-6.2482291,106.7014693],"ct":"ID","tp":"CR","ts":"2020-03-15T07:34:30Z","tX":815,"tY":529,"tags":{"name:en":"Бн1.нооо"}},"7296290986":{"location":[-6.2480895,106.7011626],"ct":"ID","tp":"CR","ts":"2020-03-15T07:34:32Z","tX":815,"tY":529,"tags":{"name:en":"Си.мн .."}},"7296318285":{"location":[-6.244611,106.69437],"ct":"ID","tp":"CR","ts":"2020-03-15T07:58:07Z","tX":815,"tY":529,"tags":{"name:en":"Ин.ст2.оуууу"}},"7296318286":{"location":[-6.2444145,106.6932456],"ct":"ID","tp":"CR","ts":"2020-03-15T07:58:31Z","tX":815,"tY":529,"tags":{"name:en":"Бч1.ноооооо"}},"7296328485":{"location":[-6.2439652,106.6908617],"ct":"ID","tp":"CR","ts":"2020-03-15T08:08:02Z","tX":815,"tY":529,"tags":{"name:en":"Бч1.нооооооо"}},"7296359585":{"location":[-6.2289081,106.7031421],"ct":"ID","tp":"CR","ts":"2020-03-15T08:39:58Z","tX":815,"tY":529,"tags":{"name:en":"Бч1.нооо..."}},"7379080985":{"location":[-6.2468674,106.7947236],"ct":"ID","tp":"CR","ts":"2020-04-08T07:30:20Z","tX":815,"tY":529,"tags":{"name:en":"Sinaaaaa.noo"}},"7379115987":{"location":[-6.2441447,106.7918137],"ct":"ID","tp":"CR","ts":"2020-04-08T07:50:09Z","tX":815,"tY":529,"tags":{"name:en":"Mn.noooo.ouuu"}},"7987398287":{"location":[-6.3027345,106.7515217],"ct":"ID","tp":"CR","ts":"2020-10-08T08:53:58Z","tX":815,"tY":529,"tags":{"name:en":"Bc,ci"}}}