{"766698669":{"location":[-6.3315635,106.7521002],"ct":"ID","tp":"CS","ts":"2020-01-26T15:39:10Z","tX":815,"tY":530,"tags":{"addr:city":"South Tangerang","addr:housenumber":"50","addr:postcode":"15411","addr:street":"Jalan Cimandiri Raya","name":"Civita Youth Camp","opening_hours":"Mo-Fr 08:00-16:00","operator":"Keuskupan Agung Jakarta","website":"https://www.civitakaj.com"}},"1207704632":{"location":[-6.6460288,106.8698248],"ct":"ID","tp":"CS","ts":"2023-09-16T01:46:32Z","tX":815,"tY":530,"tags":{"access":"customers","addr:district":"Bogor","addr:full":"Jalan Raya Golf Gunung Geulis, No. 139, Pasir Angin, Gunung Geulis, Gadog, Kabupaten Bogor","addr:housenumber":"139","addr:street":"Jalan Raya Golf Gunung Geulis","addr:village":"Gadog","area":"yes","backcountry":"no","contact:whatsapp":"+62 812-9108-3078","drinking_water":"no","fee":"yes","name":"Perkemahan Gadog Boemi Kaliandra","openfire":"yes","opening_hours":"24/7","phone":"+62 812-8146-897","picnic_table":"yes","power_supply":"yes","reservation":"required","sanitary_dump_station":"yes","short_name":"Perkemahan GBK","shower":"yes","source":"survey","tents":"yes","toilets":"yes","wheelchair":"no"}},"1388416955":{"location":[-6.3296811,106.6949834],"ct":"ID","tp":"CS","ts":"2025-05-21T03:02:16Z","tX":815,"tY":530,"tags":{}},"12075139226":{"location":[-6.3482407,106.6523421],"ct":"ID","tp":"CS","ts":"2024-07-26T11:42:40Z","tX":815,"tY":530,"tags":{}},"7287820485":{"location":[-6.625557,106.7923713],"ct":"ID","tp":"CR","ts":"2020-03-12T08:50:01Z","tX":815,"tY":530,"tags":{"name:en":"بيت ابو البراء"}}}