{"4621858292":{"location":[40.3369127,49.8221377],"ct":"AZ","tp":"CS","ts":"2017-01-21T11:39:58Z","tX":653,"tY":386,"tags":{}},"7054306985":{"location":[40.2855446,49.7375812],"ct":"AZ","tp":"CS","ts":"2023-09-25T17:57:14Z","tX":653,"tY":386,"tags":{"name:en":"Orca"}},"11266858272":{"location":[40.3878821,49.8556819],"ct":"AZ","tp":"CS","ts":"2023-10-16T13:32:09Z","tX":653,"tY":386,"tags":{"name":"alliance business center(alliance plaza)"}},"5302348022":{"location":[40.4386532,49.7792215],"ct":"AZ","tp":"CR","ts":"2017-12-24T17:28:37Z","tX":653,"tY":386,"tags":{"name:en":"TİR park"}},"6025218593":{"location":[40.3927764,49.803919],"ct":"AZ","tp":"CR","ts":"2018-10-30T16:33:40Z","tX":653,"tY":386,"tags":{"addr:street":"Abbas Mirzə Şərifzadə küçəsi"}},"6025219227":{"location":[40.3932438,49.8141904],"ct":"AZ","tp":"CR","ts":"2022-06-02T20:33:07Z","tX":653,"tY":386,"tags":{"addr:street":"Akademik Şəfaət Mehdiyev","phone":"0708220447"}},"7706473786":{"location":[40.4385219,49.8647964],"ct":"AZ","tp":"CR","ts":"2020-07-12T03:44:50Z","tX":653,"tY":386,"tags":{"name:en":"Tamet sexi Şaiq"}}}