{"12892830":{"location":[56.1607448,15.7284525],"ct":"SE","tp":"CS","ts":"2023-05-12T15:55:43Z","tX":556,"tY":318,"tags":{"addr:street":"Trummenäsvägen","name":"Trummenäs Camping","website":"https://www.trummenascamping.se/"}},"292512032":{"location":[56.0860707,15.70038],"ct":"SE","tp":"CS","ts":"2021-07-30T11:22:09Z","tX":556,"tY":318,"tags":{"name":"Sturkö Camping","phone":"+46 455 42482","website":"https://www.caravanclub.se/sturkoe-campinginfo"}},"783555379":{"location":[56.1656715,15.5939702],"ct":"SE","tp":"CR","ts":"2023-04-18T16:16:55Z","tX":556,"tY":318,"tags":{"note":"Only RV (husbil), no caravan(husvagn)","power_supply":"yes","sanitary_dump_station":"no","toilets":"yes"}},"842323095":{"location":[56.115956,15.6069152],"ct":"SE","tp":"CS","ts":"2024-08-10T09:23:02Z","tX":556,"tY":318,"tags":{"caravans":"yes","contact:email":"info@stenbracka.se","contact:fax":"+46 455 460 85","contact:phone":"+46 455 462 85","contact:website":"http://www.stenbracka.se/","drinking_water":"yes","name":"Camping Hägnan","power_supply":"yes","sanitary_dump_station":"yes","shower":"yes","tents":"yes","toilets":"yes"}},"965254421":{"location":[56.1031232,15.8187836],"ct":"SE","tp":"CS","ts":"2021-07-17T20:40:41Z","tX":556,"tY":318,"tags":{}},"1076181220":{"location":[56.1172488,15.7497972],"ct":"SE","tp":"CS","ts":"2022-12-31T02:29:08Z","tX":556,"tY":318,"tags":{"access":"yes","addr:city":"Senoren","addr:country":"SE","addr:housenumber":"46","addr:postcode":"373 54","addr:street":"Södra Torprundan","name":"Kustgården","website":"https://kustgardensenoren.se/"}},"1123113198":{"location":[56.1021919,15.469658],"ct":"SE","tp":"CR","ts":"2023-06-19T17:26:57Z","tX":556,"tY":318,"tags":{"addr:city":"Hasslö","addr:country":"SE","addr:housenumber":"6","addr:postcode":"373 65","addr:street":"Vindkraftsvägen","capacity:caravans":"60","contact:email":"petersandberg7780@hotmail.se","contact:phone":"+46 709-32 92 14","name":"Vindhaga ställplats","power_supply":"yes","sanitary_dump_station":"yes","toilets":"yes"}},"2407224892":{"location":[56.1103085,15.5433669],"ct":"SE","tp":"CS","ts":"2023-10-28T09:26:47Z","tX":556,"tY":318,"tags":{"name":"Folketshus Camping","phone":"+46 455 339564;+46 708 701511","website":"https://www.aspofolketshus.se/"}},"5030081922":{"location":[56.1608567,15.7292513],"ct":"SE","tp":"CR","ts":"2017-08-12T08:39:51Z","tX":556,"tY":318,"tags":{}},"4448464504":{"location":[56.151944,15.566667],"ct":"SE","tp":"SD","ts":"2017-09-23T18:46:16Z","tX":556,"tY":318,"tags":{"access":"yes","addr:place":"Saltö Fiskhamn","boat":"yes","fee":"no","opening_hours":"24/7","sanitary_dump_station:accepted":"black_water","sanitary_dump_station:pump-out":"yes","seamark:small_craft_facility:category":"pump-out","seamark:type":"small_craft_facility","vehicle":"no","waterway":"sanitary_dump_station","website":"https://hamnkartan.azurewebsites.net"}},"10958176137":{"location":[56.1700119,15.5940091],"ct":"SE","tp":"SD","ts":"2023-06-05T20:23:15Z","tX":556,"tY":318,"tags":{"access":"yes","fee":"no","note":"Summer only, closed during Winter","opening_hours":"24/7","sanitary_dump_station:round_drain":"yes","water_point":"yes"}}}