{"26860240":{"location":[54.1813643,15.5944818],"ct":"PL","tp":"CR","ts":"2022-10-11T12:37:55Z","tX":556,"tY":327,"tags":{"caravans":"yes","email":"baltic78@post.pl","fax":"+48 94 3524569","internet_access":"wlan","name":"Baltic 78","phone":"+48 606 411 954, +48 94 3524569","ref:pfcc":"78","stars":"3","tents":"yes","toilets":"yes","website":"http://www.camping.kolobrzeg.pl/","wheelchair":"yes"}},"288759494":{"location":[54.2061011,15.7182748],"ct":"PL","tp":"CS","ts":"2025-03-03T09:18:24Z","tX":556,"tY":327,"tags":{"area":"yes","caravans":"yes","email":"meridian@ta.pl","name":"Camping Meridian","payment:cash":"yes","smoking":"outside","tents":"yes","website":"https://dom-meridian.com/camping/"}},"291433990":{"location":[54.2062617,15.7357597],"ct":"PL","tp":"CR","ts":"2025-06-08T10:19:48Z","tX":556,"tY":327,"tags":{"contact:facebook":"https://www.facebook.com/profile.php?id=100069963549870","contact:instagram":"https://www.instagram.com/kemping_ku_morzu/","name":"Kemping Ku Morzu","phone":"+48 600 944 644","power_supply":"yes","tents":"yes","website":"https://www.kempingkumorzu.com/"}},"438819668":{"location":[54.1817554,15.5951758],"ct":"PL","tp":"CS","ts":"2024-07-31T22:08:59Z","tX":556,"tY":327,"tags":{"addr:city":"Kołobrzeg","addr:housenumber":"1","addr:postcode":"78-100","addr:street":"4 Dywizji Wojska Polskiego","capacity:persons":"672","caravans":"yes","check_date":"2024-07-31","contact:facebook":"https://www.facebook.com/CampingBaltic/","email":"baltic78@post.pl","fax":"+48 94 3524569","fee":"yes","internet_access":"wlan","name":"Baltic 78","phone":"+48 606 411 954, +48 94 3524569","ref:pfcc":"78","sanitary_dump_station":"yes","stars":"4","tents":"yes","washing_machine":"yes","website":"http://www.camping.kolobrzeg.pl/","wheelchair":"yes"}},"458526405":{"location":[54.2071346,15.7301251],"ct":"PL","tp":"CS","ts":"2024-07-18T05:59:23Z","tX":556,"tY":327,"tags":{"caravans":"yes","email":"biuro@wito.pl","fee":"yes","landuse":"commercial","name":"Wito","phone":"+48 600 357 171; +48 602 717 157","power_supply":"yes","shower":"yes","tents":"yes","toilets":"yes","website":"https://wito.pl/"}},"702022843":{"location":[54.2116316,15.7602886],"ct":"PL","tp":"CR","ts":"2019-07-06T05:14:03Z","tX":556,"tY":327,"tags":{"email":"jakub@pod-brzozami.pl","fax":"+48 94 35 15 709","name":"Grajkowo","operator":"Jakub Grajek","phone":"+48 502 812 055","website":"http://grajkowo.com/"}},"702022845":{"location":[54.2137946,15.7593724],"ct":"PL","tp":"CS","ts":"2024-07-31T22:08:59Z","tX":556,"tY":327,"tags":{"access":"yes","addr:city":"Ustronie Morskie","addr:country":"PL","addr:district":"kołobrzeski","addr:housenumber":"2a","addr:postcode":"78-111","addr:province":"zachodniopomorskie","addr:street":"Targowa","addr:subdistrict":"Ustronie Morskie","capacity:persons":"102","caravans":"yes","check_date":"2024-07-31","email":"jakub@brzozy.pl","fee":"yes","internet_access":"wlan","name":"Camping Pod Brzozami","phone":"+48 502 812 055","sanitary_dump_station":"yes","stars":"4","tents":"yes","website":"https://brzozy.pl/","wheelchair":"yes"}},"702203695":{"location":[54.2140203,15.7629773],"ct":"PL","tp":"CS","ts":"2019-07-07T10:01:49Z","tX":556,"tY":327,"tags":{"name":"Sandra","operator":"Hanna i Andrzej Biernaccy","phone":"+48 508 141 401","tents":"yes","website":"http://www.sandra.afr.pl/"}},"966594349":{"location":[54.1977973,15.6606821],"ct":"PL","tp":"CR","ts":"2024-07-11T16:28:42Z","tX":556,"tY":327,"tags":{"fee":"yes","landuse":"residential","name":"OAZA Kołobrzeg-Podczele","phone":"+48 609 500 991","toilets":"yes","website":"https://oazakolobrzeg-podczele.pl/"}},"1085774061":{"location":[54.2211196,15.7768837],"ct":"PL","tp":"CS","ts":"2022-08-12T09:07:20Z","tX":556,"tY":327,"tags":{"addr:city":"Ustronie Morskie","addr:housenumber":"3","addr:postcode":"78-111","addr:street":"Sosnowa","caravans":"yes","contact:facebook":"https://www.facebook.com/Ustronie.Morskie.Park/","contact:instagram":"https://www.instagram.com/ustronie_park/","email":"kontakt@ustroniepark.pl","internet_access":"wlan","internet_access:fee":"no","name":"Ustronie Park","phone":"+48 730 622 322","reservation":"yes","tents":"yes","website":"https://www.ustroniepark.pl/"}},"2415679301":{"location":[54.2160533,15.7690991],"ct":"PL","tp":"CR","ts":"2023-07-02T11:59:38Z","tX":556,"tY":327,"tags":{"addr:city":"Ustronie Morskie","addr:housenumber":"26","addr:postcode":"78-111","addr:street":"Wojska Polskiego","fee":"yes","kitchen":"yes","name":"Camping AWF Poznań","phone":"+48 94 351 50 04","power_supply":"yes","stars":"2","tents":"yes","toilets":"yes","website":"http://awf.obitur.pl"}},"2915641878":{"location":[54.2071859,15.7309516],"ct":"PL","tp":"CR","ts":"2023-07-02T11:59:38Z","tX":556,"tY":327,"tags":{"name":"Dla Ciebie","phone":"+48 607 969 730","power_supply":"yes","tents":"yes"}},"5812197737":{"location":[54.2138931,15.7474706],"ct":"PL","tp":"CS","ts":"2023-11-11T22:22:38Z","tX":556,"tY":327,"tags":{"addr:city":"Ustronie Morskie","addr:country":"PL","addr:district":"kołobrzeski","addr:housenumber":"9","addr:postcode":"78-111","addr:province":"zachodniopomorskie","addr:street":"Bolesława Chrobrego","addr:subdistrict":"Ustronie Morskie","internet_access":"wlan","name":"Domki kempingowe Mewa","phone":"+48 601 778 521;+48 884 789 130","website":"https://mewa.fajnewczasy.com/"}},"6512021788":{"location":[54.2078265,15.7229545],"ct":"PL","tp":"CS","ts":"2019-05-30T19:10:54Z","tX":556,"tY":327,"tags":{"name":"Ośrodek wypoczynkowy Proszeczek"}},"4324721584":{"location":[54.1783835,15.559341],"ct":"PL","tp":"SD","ts":"2023-04-17T09:32:29Z","tX":556,"tY":327,"tags":{"access":"customers","sanitary_dump_station:pump-out":"yes"}},"6501528038":{"location":[54.1812596,15.5948564],"ct":"PL","tp":"SD","ts":"2019-05-29T05:52:44Z","tX":556,"tY":327,"tags":{"sanitary_dump_station":"customers"}},"6592718938":{"location":[54.2130627,15.7600963],"ct":"PL","tp":"SD","ts":"2019-07-06T05:14:03Z","tX":556,"tY":327,"tags":{"access":"customers"}}}