{"1307087922":{"location":[54.160695,15.4919652],"ct":"PL","tp":"CS","ts":"2025-05-07T05:54:34Z","tX":556,"tY":328,"tags":{"addr:city":"Grzybowo","addr:housenumber":"9","addr:postcode":"78-132","addr:street":"Namiotowa","bar":"no","capacity:persons":"300","caravans":"yes","check_date":"2024-07-31","dog":"yes","drinking_water":"yes","email":"anaked@wp.pl","fee":"yes","group_only":"no","internet_access":"wlan","internet_access:fee":"no","name":"Bursztynek","nudism":"no","opening_hours":"Mo-Su 06:00-22:00","phone":"+48 692 559 723","power_supply":"yes","ref:pfcc":"89","reservation":"no","sanitary_dump_station":"yes","shower":"yes","stars":"3","swimming_pool":"no","tents":"yes","toilets":"yes","toilets:paper_supplied":"yes","washing_machine":"yes","website":"https://camping-grzybowo.pl/","wheelchair":"yes"}},"1903123151":{"location":[54.0868586,15.7057473],"ct":"PL","tp":"CS","ts":"2012-09-06T21:22:33Z","tX":556,"tY":328,"tags":{"internet_access":"no"}},"4012359688":{"location":[54.1607972,15.5226971],"ct":"PL","tp":"SD","ts":"2016-02-22T17:43:19Z","tX":556,"tY":328,"tags":{"image":"http://www.camperteam.pl/forum/files/1c_440.jpg","opening_hours":"24/7","sanitary_dump_station":"yes","sanitary_dump_station:chemical_toilet":"yes","sanitary_dump_station:fee":"yes","sanitary_dump_station:gravity":"yes","sanitary_dump_station:grey_water":"yes","sanitary_dump_station:suction":"no"}},"12106770071":{"location":[54.1617815,15.4916651],"ct":"PL","tp":"SD","ts":"2024-08-13T08:50:58Z","tX":556,"tY":328,"tags":{"access":"customers","fee":"no","opening_hours":"24/7","sanitary_dump_station:round_drain":"yes"}},"12128186455":{"location":[54.1579629,15.5665236],"ct":"PL","tp":"SD","ts":"2024-08-23T08:47:39Z","tX":556,"tY":328,"tags":{"access":"customers","fee":"yes","operator":"Camper System","payment:contactless":"yes","sanitary_dump_station:round_drain":"yes","water_point":"yes"}}}