{"295417225":{"location":[53.1548383,15.8076657],"ct":"PL","tp":"CS","ts":"2022-09-19T08:24:56Z","tX":556,"tY":332,"tags":{"name":"Biwak Barnimie","operator":"DPN","ref":"132","source":"Drawieński Park Narodowy"}},"661116806":{"location":[53.2033624,15.7623756],"ct":"PL","tp":"CS","ts":"2024-07-01T15:18:48Z","tX":556,"tY":332,"tags":{"capacity":"50","fee":"yes","name":"Miejsce biwakowania „Drawnik”","operator":"Drawieński Park Narodowy","source":"http://dpn.pl/miejsca-biwakowania"}},"764641262":{"location":[53.3137136,15.7739374],"ct":"PL","tp":"CS","ts":"2020-01-19T20:35:47Z","tX":556,"tY":332,"tags":{"name":"Camping","name:de":"Zeltolatz","name:en":"Camping place"}},"3051014591":{"location":[53.2339098,15.7662],"ct":"PL","tp":"CS","ts":"2016-08-25T16:55:27Z","tX":556,"tY":332,"tags":{"name":"Pole namiotowe Rozlewisko","operator":"Jan Węgrowski","phone":"+48 694 123 037","website":"http://biwakrozlewisko.w.interiowo.pl/"}},"4366566972":{"location":[53.216043,15.7616135],"ct":"PL","tp":"CS","ts":"2016-08-25T16:22:45Z","tX":556,"tY":332,"tags":{"addr:city":"Drawno","addr:country":"PL","addr:housenumber":"9","addr:postcode":"73-220","addr:street":"Kolejowa","alt_name":"Kemping numer 22","email":"stanica@igra.pl","internet_access":"wlan","internet_access:fee":"no","name":"Stanica Wodna PTTK","phone":"+48 95 768 21 55; +48 603 630 836","website":"http://www.stanica.ikona.pl/"}},"6659201955":{"location":[53.318984,15.7819735],"ct":"PL","tp":"CS","ts":"2019-07-29T21:59:25Z","tX":556,"tY":332,"tags":{"name":"Karpik"}},"6760314261":{"location":[53.2322086,15.7541777],"ct":"PL","tp":"CS","ts":"2019-08-30T18:26:26Z","tX":556,"tY":332,"tags":{"name":"Emilex"}},"6779070086":{"location":[53.2334768,15.7711336],"ct":"PL","tp":"CS","ts":"2019-09-07T10:04:08Z","tX":556,"tY":332,"tags":{"name":"Biwak"}},"9428576138":{"location":[53.2701374,15.7705081],"ct":"PL","tp":"CS","ts":"2022-01-20T22:08:10Z","tX":556,"tY":332,"tags":{"description":"Kawał pola, staw, las, rzeka, namioty i zniewalająca cisza…","email":"goscin@goscin.pl","name":"Gościn nad Drawą","opening_hours":"24/7","phone":"+48693079077","website":"http://roscin.pl"}},"9942424649":{"location":[53.2183154,15.7533655],"ct":"PL","tp":"CS","ts":"2022-08-09T12:26:37Z","tX":556,"tY":332,"tags":{"contact:facebook":"https://www.facebook.com/PKNowak","contact:phone":"+48 697 455 594","contact:website":"kajaks@wp.pl","name":"Pole Kempingowo Namiotowe Nowak","website":"https://pknowak.pl/"}},"6185713387":{"location":[53.2194412,15.7726],"ct":"PL","tp":"CR","ts":"2019-01-05T13:08:51Z","tX":556,"tY":332,"tags":{"name":"Plusk"}}}