{"699250644":{"location":[52.972757,15.7203988],"ct":"PL","tp":"CS","ts":"2023-06-24T07:12:29Z","tX":556,"tY":333,"tags":{"addr:city":"Dobiegniew","addr:country":"PL","addr:postcode":"66-520","caravans":"yes","dog":"yes","drinking_water":"yes","name":"Camping Osiek","opening_hours":"Mo-Su 11:00-19:00","operator":"Dobiegniew","power_supply":"yes","sanitary_dump_station":"yes","seasonal":"summer","shower":"yes","tents":"yes","toilets":"yes","website":"http://dobiegniew.pl/dla-turysty/baza-turystyczna-gminy-dobiegniew/"}},"785292273":{"location":[52.9741899,15.7732153],"ct":"PL","tp":"CS","ts":"2023-06-23T23:33:02Z","tX":556,"tY":333,"tags":{"addr:city":"Dobiegniew","caravans":"yes","dog":"yes","drinking_water":"yes","internet_access":"no","name":"Camping Wielgie","opening_hours":"Mo-Su 11:00-19:00","operator":"Dobiegniew","power_supply":"yes","sanitary_dump_station":"yes","seasonal":"summer","shower":"yes","tents":"yes","toilets":"yes","website":"http://dobiegniew.pl/dla-turysty/baza-turystyczna-gminy-dobiegniew/"}},"1184732619":{"location":[52.941174,15.696375],"ct":"PL","tp":"CS","ts":"2023-06-25T03:13:25Z","tX":556,"tY":333,"tags":{"addr:city":"Ługi","addr:country":"PL","addr:postcode":"66-520","caravans":"yes","dog":"yes","drinking_water":"yes","name":"Camping Ługi","operator":"Dobiegniew","power_supply":"yes","sanitary_dump_station":"yes","seasonal":"summer","shower":"yes","tents":"yes","toilets":"yes","water_point":"yes","website":"http://dobiegniew.pl/dla-turysty/baza-turystyczna-gminy-dobiegniew/","wheelchair":"yes"}},"2425764803":{"location":[53.0117704,15.636755],"ct":"PL","tp":"CR","ts":"2013-08-20T17:25:13Z","tX":556,"tY":333,"tags":{}},"2425764815":{"location":[53.0133152,15.6385414],"ct":"PL","tp":"CS","ts":"2016-05-25T10:07:59Z","tX":556,"tY":333,"tags":{"alt_name":"Biwakowisko Ostromęcko","name":"Pole namiotowe Ostromęcko"}},"2858521983":{"location":[53.0765512,15.6976004],"ct":"PL","tp":"CS","ts":"2014-05-14T18:17:09Z","tX":556,"tY":333,"tags":{}},"2858524440":{"location":[53.0923123,15.6667401],"ct":"PL","tp":"CS","ts":"2014-05-14T18:17:11Z","tX":556,"tY":333,"tags":{}},"2862548848":{"location":[53.0795789,15.7871907],"ct":"PL","tp":"CR","ts":"2014-05-16T16:55:34Z","tX":556,"tY":333,"tags":{"name":"Siedem Sosen"}},"2862548849":{"location":[53.0796219,15.7870652],"ct":"PL","tp":"CS","ts":"2014-05-16T16:55:34Z","tX":556,"tY":333,"tags":{}},"2940723806":{"location":[53.069633,15.7627514],"ct":"PL","tp":"CS","ts":"2014-08-17T13:07:20Z","tX":556,"tY":333,"tags":{"name":"biwak"}},"3815663651":{"location":[53.1106249,15.7922023],"ct":"PL","tp":"CS","ts":"2015-11-03T15:34:28Z","tX":556,"tY":333,"tags":{}}}