{"35082556":{"location":[50.736724,15.6073603],"ct":"CZ","tp":"CS","ts":"2024-08-22T11:58:53Z","tX":556,"tY":343,"tags":{"access":"customers","addr:city":"Špindlerův Mlýn","addr:housenumber":"276","addr:postcode":"54351","addr:street":"Špindlerův Mlýn","area":"yes","cabins":"yes","caravans":"yes","description:en":"Large camp site close to the mountains. Reservation is recommended in the summer, it can get quite busy.","email":"info@bcmedvedin.cz","fee":"yes","internet_access":"wlan","internet_access:fee":"no","name":"Base camp Medvědín","phone":"+420 771 145 755","power_supply":"yes","reservation":"recommended","sanitary_dump_station":"yes","shower":"yes","tents":"yes","toilets":"yes","website":"https://www.bcmedvedin.cz"}},"200296816":{"location":[50.8290112,15.544402],"ct":"PL","tp":"CS","ts":"2022-09-19T08:24:56Z","tX":556,"tY":343,"tags":{"fee":"yes","name":"Baza Pod Ponurą Małpą","power_supply":"yes","tents":"yes"}},"204062810":{"location":[50.8957988,15.7426199],"ct":"PL","tp":"CS","ts":"2023-04-29T06:53:51Z","tX":556,"tY":343,"tags":{"barrier":"fence","cabins":"yes","caravans":"yes","contact:email":"campingpark@interia.pl","contact:fax":"+48 75 769 29 69","contact:phone":"+48 691 301 435; +48 607 340 162; +48 75 752 45 25","contact:website":"http://www.camping.karkonosz.pl/","internet_access":"wlan","internet_access:fee":"no","name":"Auto-Camping Park","ref:pfcc":"130","shower":"yes","stars":"2","tents":"yes","toilets":"yes"}},"350307276":{"location":[50.7804363,15.7622205],"ct":"PL","tp":"CS","ts":"2025-06-07T17:12:48Z","tX":556,"tY":343,"tags":{"name":"Pod Lipami Kemping","natural":"grassland"}},"404483777":{"location":[50.8963667,15.7422309],"ct":"PL","tp":"CR","ts":"2022-05-10T10:56:11Z","tX":556,"tY":343,"tags":{"building":"roof","name":"Auto-Camping Park"}},"515851507":{"location":[50.7938476,15.7699022],"ct":"PL","tp":"CS","ts":"2024-07-01T00:18:44Z","tX":556,"tY":343,"tags":{"addr:city":"Ścięgny","addr:housenumber":"9","addr:postcode":"58-534","addr:street":"Widokowa","barrier":"fence","caravans":"yes","email":"biuro@camp66.pl","fee":"yes","internet_access":"wlan","internet_access:fee":"no","name":"Camp 66","phone":"+48 792 566 569","power_supply":"yes","sanitary_dump_station":"yes","shower":"yes","tents":"yes","toilets":"yes","website":"https://camp66.pl/","wheelchair":"yes"}},"2896122489":{"location":[50.9052046,15.5361794],"ct":"PL","tp":"CS","ts":"2022-07-12T21:16:33Z","tX":556,"tY":343,"tags":{"access":"customers","addr:housenumber":"73","addr:place":"Mała Kamienica","addr:postcode":"58-512","capacity:caravans":"2","capacity:persons":"12","email":"kontakt@jozefowka.eu","name":"Izerska Polanka","phone":"+48 604 567 868","source:addr":"starakamienica.e-mapa.net","website":"https://www.izerskapolanka.eu"}},"3028731214":{"location":[50.8343578,15.5106507],"ct":"PL","tp":"CS","ts":"2023-08-29T12:18:48Z","tX":556,"tY":343,"tags":{"addr:city":"Szklarska Poręba","addr:housename":"6A","addr:street":"Partyzantów","caravans":"yes","email":"podrozami@op.pl","motorhome":"yes","name":"Nad Rozkosznym Stawem","phone":"+48 609 997 771","shower":"yes","tents":"yes","toilets":"yes","website":"https://www.nadrozkosznymstawem.pl/"}},"3028744060":{"location":[50.8263168,15.5218163],"ct":"PL","tp":"CS","ts":"2014-10-07T00:32:03Z","tX":556,"tY":343,"tags":{"internet_access":"wlan","internet_access:fee":"no","name":"Kemping Pod Mostem","website":"http://szklarskie.info"}},"3668127730":{"location":[50.8062952,15.7677139],"ct":"PL","tp":"CS","ts":"2023-01-30T22:41:00Z","tX":556,"tY":343,"tags":{"addr:city:simc":"0192086","addr:housenumber":"260","addr:place":"Miłków","addr:postcode":"58-535","alt_name":"Ośrodek Rekreacyjno-Wypoczynkowy Wiśniowa Polana Camping Nr 142","capacity":"80","caravans":"yes","email":"wisniowapolana@gmail.com","fee":"yes","internet_access":"wlan","internet_access:fee":"no","name":"Camping Wiśniowa Polana nr 142","name:en":"Camping Wisniowa Polana Milkow no 142","phone":"+48 661 784 852; +48 504 645 926","power_supply":"yes","tents":"yes","website":"http://www.camping-milkow.karkonosz.pl"}},"4302091752":{"location":[50.8176633,15.5396902],"ct":"PL","tp":"CS","ts":"2016-08-07T16:29:44Z","tX":556,"tY":343,"tags":{"addr:city":"Szklarska Poręba","addr:country":"PL","addr:housenumber":"45A","addr:postcode":"58-580","addr:street":"Jana Kasprowicza","name":"Baza Harcerska ZHP Czerwonak","operator":"ZHP Hufiec Czerwonak"}},"5854033385":{"location":[50.7885045,15.7039977],"ct":"PL","tp":"CS","ts":"2018-08-24T15:32:58Z","tX":556,"tY":343,"tags":{"internet_access":"wlan","name":"Kemp Tatry","opening_hours":"Mo-Su 09:00-18:00"}},"10614654095":{"location":[50.7804685,15.7382702],"ct":"PL","tp":"CR","ts":"2023-02-07T14:21:49Z","tX":556,"tY":343,"tags":{"contact:facebook":"https://www.facebook.com/people/Camper-Park-Panorama/100082643092033","contact:phone":"+48 608 644 839","name":"Camper Park Panorama","website":"https://www.camperparkpanorama.pl"}},"11181555013":{"location":[50.7935671,15.7704337],"ct":"PL","tp":"SD","ts":"2023-09-10T16:40:50Z","tX":556,"tY":343,"tags":{}}}