{"17584030":{"location":[50.1031657,15.7175969],"ct":"CZ","tp":"CR","ts":"2024-05-12T01:30:12Z","tX":556,"tY":346,"tags":{}},"17584031":{"location":[50.1027438,15.7195171],"ct":"CZ","tp":"CR","ts":"2024-05-12T21:44:14Z","tX":556,"tY":346,"tags":{"addr:city":"Stéblová","addr:postcode":"53345","addr:street":"333","start_date":"2024-05-12"}},"17612440":{"location":[50.0990866,15.7137901],"ct":"CZ","tp":"CR","ts":"2024-06-25T15:22:34Z","tX":556,"tY":346,"tags":{}},"295335668":{"location":[50.2689016,15.6063232],"ct":"CZ","tp":"CS","ts":"2025-04-10T06:27:25Z","tX":556,"tY":346,"tags":{"barrier":"fence","fence_type":"chain_link","name":"Kemp Lodín","website":"https://www.camplodin.cz/"}},"1282062927":{"location":[50.1018547,15.7177497],"ct":"CZ","tp":"CR","ts":"2024-05-12T21:44:14Z","tX":556,"tY":346,"tags":{"addr:city":"Stéblová","addr:postcode":"53345","addr:street":"333","start_date":"2024-05-12"}},"1284422546":{"location":[50.0964617,15.7158974],"ct":"CZ","tp":"CR","ts":"2024-06-25T15:22:34Z","tX":556,"tY":346,"tags":{"caravans":"yes"}},"1383787290":{"location":[50.2681613,15.6075389],"ct":"CZ","tp":"CS","ts":"2025-05-06T10:51:06Z","tX":556,"tY":346,"tags":{"barrier":"fence"}}}