{"16162886":{"location":[48.9139979,15.8148465],"ct":"CZ","tp":"CS","ts":"2023-12-12T15:25:21Z","tX":556,"tY":352,"tags":{"addr:city":"Šumná","addr:postcode":"67102","addr:street":"Vranocská pláž","cabins":"yes","capacity":"468","caravans":"yes","email":"recepce@vranovska-plaz.cz","fee":"yes","name":"Camping Vranovská pláž","operator":"Vranocská pláž s.r.o.","phone":"+420 724 101 725","ref:nap":"15313","shower":"hot","stars":"4","static_caravans":"yes","tents":"yes","toilets":"yes"}},"80863358":{"location":[48.7904746,15.6636796],"ct":"AT","tp":"CS","ts":"2022-02-09T21:27:14Z","tX":556,"tY":352,"tags":{"charge":"17 €","name":"Camping Edlersee"}},"460020384":{"location":[48.8691318,15.6062518],"ct":"AT","tp":"CR","ts":"2021-08-16T12:54:48Z","tX":556,"tY":352,"tags":{"internet_access":"no","name":"Wohnmobilstellplatz Drosendorf"}},"758437004":{"location":[48.8967823,15.8109046],"ct":"CZ","tp":"CS","ts":"2019-12-24T20:33:48Z","tX":556,"tY":352,"tags":{"name":"Camp Drops","tents":"yes"}},"1082395031":{"location":[48.8442791,15.7211388],"ct":"AT","tp":"CS","ts":"2022-07-29T19:36:38Z","tX":556,"tY":352,"tags":{"access":"yes","caravans":"yes","dog":"leashed","fee":"yes","name":"Seecamping Langau","permanent_camping":"yes","power_supply":"yes","shower":"yes","static_caravans":"yes","tents":"yes","toilets":"yes","washing_machine":"yes","website":"https://www.camping.info/%C3%B6sterreich/nieder%C3%B6sterreich/seecamping-langau-19359"}},"10141234290":{"location":[48.7203675,15.5289925],"ct":"AT","tp":"CS","ts":"2022-10-30T20:04:02Z","tX":556,"tY":352,"tags":{"caravans":"yes","contact:mobile":"+4367761148166","description":"Platzgebühr für Gäste pro Nacht: Erwachsene 5,00€; Kinder 2,50€; Warmwasser Dusche 5,00€; Zelt 5,00€; Auto 5,00€; Wohnmobil 7,00 Euro mit Strom 10€","fee":"yes","motor_vehicle":"yes","name":"Waldcamp  Messern","tents":"yes"}},"5057911921":{"location":[48.9128456,15.690719],"ct":"CZ","tp":"CS","ts":"2024-08-25T16:54:53Z","tX":556,"tY":352,"tags":{"addr:housenumber":"247","addr:postcode":"67106","addr:street":"Podhradí nad Dyjí","email":"drevotvarka@email.cz","name":"Rekreační středisko Dřevotvárka","phone":"+420728514906","website":"https://drevotvarka.cz/"}},"12019946116":{"location":[48.9008043,15.6076099],"ct":"CZ","tp":"CS","ts":"2024-07-13T13:38:50Z","tX":556,"tY":352,"tags":{"access":"customers","addr:city":"Vratěnín","addr:housenumber":"92","addr:postcode":"671 07","addr:street":"Vratěnín","capacity:caravans":"25","capacity:persons":"90","capacity:tents":"30","caravans":"yes","dog":"leashed","image":"https://www.campvelo.cz/wp-content/uploads/2023/07/IMG_6083.jpg","mobile":"+420 604 23 89 25","name":"CampVelo","operator":"Irena Boving","sanitary_dump_station":"yes","static_caravans":"no","tents":"yes","website":"https://www.campvelo.cz/"}}}