{"997856843":{"location":[48.5117891,15.6328378],"ct":"AT","tp":"CR","ts":"2021-10-31T08:27:02Z","tX":556,"tY":353,"tags":{"capacity":"2","power_supply":"no","toilets":"no"}},"3503649464":{"location":[48.4707121,15.6979974],"ct":"AT","tp":"CR","ts":"2023-04-24T20:49:12Z","tX":556,"tY":353,"tags":{"addr:city":"Langenlois","addr:country":"AT","addr:housenumber":"21","addr:postcode":"3550","addr:street":"Krumpöck-Allee","capacity":"7","charge":"10€","fee":"yes","motorhome":"designated","name":"Reisemobilstellplatz Langenlois","operator":"Hotel Schloss Haindorf","phone":"+43 2734 2693","power_supply":"yes","website":"https://www.langenlois.at/tourismus/reisemobilstellplatz.html"}},"3509080753":{"location":[48.6455037,15.817248],"ct":"AT","tp":"CR","ts":"2018-12-30T21:02:30Z","tX":556,"tY":353,"tags":{"addr:city":"Eggenburg","addr:postcode":"3730","addr:street":"Erzherzog-Karl-Ring","capacity":"8","charge":"3€","email":"tourismusinfo@eggenburg.at","fee":"yes","internet_access":"no","internet_access:fee":"no","name":"Wohnmobilstellplatz Eggenburg","phone":"+43 2984 3400","power_supply":"yes","sanitary_dump_station":"yes"}},"9992931217":{"location":[48.6724047,15.6609796],"ct":"AT","tp":"CR","ts":"2022-12-21T16:17:56Z","tX":556,"tY":353,"tags":{"capacity":"4","sanitary_dump_station":"yes","water_point":"yes"}},"12736895692":{"location":[48.579283,15.8136379],"ct":"AT","tp":"CR","ts":"2025-04-07T16:00:22Z","tX":556,"tY":353,"tags":{"capacity":"4","fee":"no","name":"Amethystwelt Maissau","operator":"Amethystwelt Maissau","power_supply":"yes","power_supply:charge":"0.5€ / kWh"}},"12736909346":{"location":[48.5799862,15.8116579],"ct":"AT","tp":"SD","ts":"2025-04-07T16:03:14Z","tX":556,"tY":353,"tags":{"access":"yes","charge":"1€","fee":"yes","operator":"Amethystwelt Maissau"}}}