{"24778521":{"location":[48.4034632,15.5924483],"ct":"AT","tp":"CS","ts":"2022-12-02T15:27:30Z","tX":556,"tY":354,"tags":{"addr:city":"Krems an der Donau","addr:country":"AT","addr:housenumber":"19","addr:postcode":"3500","addr:street":"Yachthafenstraße","caravans":"yes","email":"donaucampingkrems@aon.at","landuse":"recreation_ground","name":"ÖAMTC Donaupark Camping","operator":"ÖAMTC","phone":"+43 2732 844 55","tents":"yes","toilets:wheelchair":"yes","website":"https://www.campingkrems.at/","wheelchair":"yes"}},"161822057":{"location":[48.4505295,15.551904],"ct":"AT","tp":"CS","ts":"2024-07-09T13:30:55Z","tX":556,"tY":354,"tags":{"addr:city":"Senftenberg","addr:postcode":"3541","addr:street":"Hiesberg","capacity:tents":"10","name":"Campingplatz Senftenberg","note":"10 Stellplätze","operator":"Marktgemeinde Senftenberg","phone":"+43 2719 2319-0","source":"node 454357181","tents":"yes","website":"https://www.senftenberg.at/2103/campingplatz"}},"171757331":{"location":[48.3908112,15.5166238],"ct":"AT","tp":"CS","ts":"2024-04-04T19:58:31Z","tX":556,"tY":354,"tags":{"addr:city":"Rossatz-Arnsdorf","addr:country":"AT","addr:housenumber":"21","addr:place":"Rossatzbach","addr:postcode":"3602","caravans":"yes","description":"Durch den Umbau und die Neugestaltung des Campingplatzes stehen derzeit nur eine begrenzte Anzahl an Stellplätzen zur Verfügung.|Alle Stromanschlüsse sind auf Eurostecker umgestellt, bitte denken Sie an die dafür notwendigen Adapter.","email":"camping@rossatz-arnsdorf.at","fee":"yes","internet_access:fee":"yes","name":"Wachau-Camping Rossatz","opening_hours":"Mar-Oct","phone":"+43 676 848 814 800","power_supply":"yes","shower":"hot","tents":"yes","toilets":"yes","website":"https://wachaucamping-rossatz.at"}},"232639769":{"location":[48.4184319,15.6616519],"ct":"AT","tp":"CS","ts":"2023-11-06T01:30:07Z","tX":556,"tY":354,"tags":{"caravans":"yes","internet_access":"wlan","name":"Camping Weingut Ettenauer","phone":"+43 664 116 48 08","source":"personal visit","tents":"yes","website":"https://www.ettenauerweine.com/"}},"493387646":{"location":[48.3874189,15.5174936],"ct":"AT","tp":"CR","ts":"2020-03-13T05:47:38Z","tX":556,"tY":354,"tags":{"caravans":"yes","fee":"yes","surface":"asphalt","tents":"no"}},"518968711":{"location":[48.2247543,15.6594925],"ct":"AT","tp":"CS","ts":"2024-01-21T17:28:37Z","tX":556,"tY":354,"tags":{"addr:city":"St. Pölten","addr:country":"AT","addr:housenumber":"15","addr:postcode":"3100","addr:street":"Bimbo Binder-Promenade","cabins":"yes","caravans":"yes","fee":"yes","name":"Camping am See","permanent_camping":"yes","phone":"+43 676 898798 898","sanitary_dump_station":"yes","tents":"yes","washing_machine":"yes","website":"https://www.campingamsee.at/"}},"1094092083":{"location":[48.2780379,15.706804],"ct":"AT","tp":"CR","ts":"2024-04-02T15:37:12Z","tX":556,"tY":354,"tags":{"capacity":"8","caravans":"no","name":"Stellplatz Herzogenburg","power_supply":"yes","sanitary_dump_station":"yes","tents":"no","water_point":"yes","website":"https://www.herzogenburg.at/?kat=4266&ukat=4260"}},"1201485376":{"location":[48.3961419,15.5862186],"ct":"AT","tp":"CR","ts":"2024-03-21T10:39:46Z","tX":556,"tY":354,"tags":{"addr:city":"Mautern an der Donau","addr:country":"AT","addr:housenumber":"15 A","addr:postcode":"3512","addr:street":"Austraße","capacity":"11","caravans":"no","fee":"yes","name":"Teichstellplätze Mautern","operator":"Donaucamping Krems","phone":"+43 2732 84 455","reservation":"no","sanitary_dump_station":"yes","tents":"no","water_point":"yes","website":"https://www.campingkrems.at/teich-stellplatze-mautern/","wheelchair":"yes"}}}