{"17395970":{"location":[46.7184295,15.8025156],"ct":"AT","tp":"CS","ts":"2024-03-27T17:40:26Z","tX":556,"tY":361,"tags":{"addr:city":"Mureck","addr:housenumber":"40","addr:place":"Misselsdorf","addr:postcode":"8480","caravans":"yes","email":"info@roecksee.at","fax":"+43 3472 2292 5","fee":"yes","internet_access":"wlan","name":"Camping Röcksee","opening_hours":"Apr 1 - Sep 30","operator":"Röck Josef KG","phone":"+43 3472 2292","power_supply":"yes","shower":"hot","tents":"yes","washing_machine":"yes","website":"http://roecksee.at/camping"}},"129316219":{"location":[46.7178289,15.7982016],"ct":"AT","tp":"CS","ts":"2024-03-27T17:40:26Z","tX":556,"tY":361,"tags":{"addr:city":"Mureck","addr:housenumber":"73","addr:place":"Misselsdorf","addr:postcode":"8480","caravans":"yes","email":"camping.gosdorf@gmx.net","fee":"yes","name":"MurAuen Camping Gosdorf","opening_hours":"Apr 1 - Oct 31","operator":"Sport- und Freizeitanlagen der Stadt Mureck GmbH","phone":"+43 3472 21 11 0","power_supply":"yes","shower":"hot","tents":"yes","washing_machine":"yes","website":"https://www.mureck.gv.at/campingplatz"}},"158834729":{"location":[46.7711602,15.5362724],"ct":"AT","tp":"CS","ts":"2023-07-03T13:48:49Z","tX":556,"tY":361,"tags":{"name":"Pfadfinderzentrum Leibnitz","operator":"http://www.scout.at/","scout":"yes","source":"geoimage.at","website":"http://www.scout.at/camps/leibnitz/"}},"167994671":{"location":[46.7203329,15.5689994],"ct":"AT","tp":"CR","ts":"2024-09-14T22:55:00Z","tX":556,"tY":361,"tags":{"capacity":"20","fee":"yes","name":"WoMo Stellplatz Motorikpark Gamlitz","payment:cash":"yes","payment:coins":"yes","payment:maestro":"yes","payment:mastercard":"yes","payment:visa":"yes","power_supply":"yes","sanitary_dump_station":"yes","website":"https://www.motorikpark.com"}},"236978952":{"location":[46.7157979,15.675527],"ct":"AT","tp":"CR","ts":"2022-05-24T16:08:41Z","tX":556,"tY":361,"tags":{"addr:city":"Unterschwarza","addr:country":"AT","addr:housenumber":"42","addr:postcode":"8472","addr:street":"Murfelder Straße","capacity":"40","fee":"yes","internet_access":"wlan","name":"Stellplatz Thomas & Ulli","power_supply":"yes","sanitary_dump_station":"yes","website":"https://www.oliver-kocht.at/camping.html"}},"397829890":{"location":[46.5632559,15.6582253],"ct":"SI","tp":"CR","ts":"2024-10-17T17:32:42Z","tX":556,"tY":361,"tags":{}},"500895875":{"location":[46.7042617,15.7725974],"ct":"AT","tp":"CR","ts":"2024-03-27T17:40:26Z","tX":556,"tY":361,"tags":{"addr:city":"Mureck","addr:housenumber":"9","addr:postcode":"8480","addr:street":"Austraße","caravans":"yes","fee":"yes","name":"Reisemobilstellplatz Mureck","opening_hours":"Apr-Oct","phone":"+43 676 911 4011","tents":"no","website":"http://reisemobilstellplatz-mureck.at"}},"854029052":{"location":[46.7121299,15.5713517],"ct":"AT","tp":"CS","ts":"2024-10-02T12:21:01Z","tX":556,"tY":361,"tags":{"addr:city":"Ehrenhausen an der Weinstraße","addr:housenumber":"2","addr:postcode":"8461","addr:street":"Ottenberg","bin":"yes","capacity":"11","caravans":"yes","charge":"17€/tent;20€/motorhome;2€/tourist tax p.p;4€/electricity","email":"familie@obstbau-ledinegg.at","internet_access":"wlan","internet_access:fee":"customers","name":"Campingplatz Obstgut Ledinegg","operator":"Obstgut Ledinegg","phone":"+436642244237","power_supply":"yes","sanitary_dump_station":"yes","shower":"yes","tents":"yes","toilets":"yes","washing_machine":"yes"}},"1052989682":{"location":[46.778087,15.5303117],"ct":"AT","tp":"CR","ts":"2024-04-02T16:00:24Z","tX":556,"tY":361,"tags":{"addr:city":"Leibnitz","addr:postcode":"8430","addr:street":"Rudolf Hans Bartsch Gasse","capacity":"60","internet_access":"wlan","internet_access:fee":"yes","name":"Campingplatz Leibnitz","power_supply":"yes","sanitary_dump_station":"yes"}},"1098339863":{"location":[46.5653972,15.618557],"ct":"SI","tp":"CR","ts":"2024-04-03T23:20:13Z","tX":556,"tY":361,"tags":{"caravan_site:type":"restaurant","description":"Please go to the restaurant to eat","drinking_water":"yes","fee":"no;donation","motorcar":"yes","name":"Koblarjev zaliv","power_supply":"cee_blue","tents":"no","toilets":"no"}},"1270932257":{"location":[46.7384319,15.7463791],"ct":"AT","tp":"CS","ts":"2024-04-08T16:31:50Z","tX":556,"tY":361,"tags":{"addr:city":"Mureck","addr:housenumber":"53","addr:place":"Oberrakitsch","addr:postcode":"8480","capacity":"20","caravans":"yes","email":"office@sixtoel.at","fee":"yes","internet_access":"wlan","mobile":"+43 664 4230087;+43 664 3649651","name":"Camping Sixt an der Wassermühle","note":"2024: open from end March; \"Gegen Voranmeldung ist auch Wintercamping möglich – allerdings ist im Winter kein Wasser verfügbar\"","opening_hours":"Apr - Sep","operator":"Markus Sixt","phone":"+43 3472 8678","power_supply":"yes","shower":"yes","tents":"yes","toilets":"yes","website":"https://www.camping-suedsteiermark.at"}},"1319802612":{"location":[46.6841472,15.4704982],"ct":"AT","tp":"CR","ts":"2024-10-01T07:04:51Z","tX":556,"tY":361,"tags":{"addr:city":"Kranach","addr:housenumber":"48","addr:postcode":"8463","addr:street":"Kranach","capacity":"14","caravan":"no","charge":"10€ per night","dog":"leashed","internet_access":"no","motorhome":"yes","name":"Wohnmobilstellplatz Weinbau Grill","operator":"Weingut Grill","power_supply":"yes","restaurant":"yes","sanitary_dump_station":"no","shower":"no","tents":"no","toilets":"yes","water_point":"yes"}},"1991181675":{"location":[46.6755063,15.6432728],"ct":"SI","tp":"CS","ts":"2013-04-28T05:25:34Z","tX":556,"tY":361,"tags":{"name":"Dolina pod Brlogo","wheelchair":"yes"}},"5838233416":{"location":[46.7735801,15.5129448],"ct":"AT","tp":"CS","ts":"2024-03-27T20:55:03Z","tX":556,"tY":361,"tags":{"addr:city":"Leibnitz","addr:housenumber":"1","addr:postcode":"8430","addr:street":"Sulmsee","capacity":"88","caravans":"yes","dog":"leashed","email":"office@sulmsee.at","fee":"yes","name":"Camping Sulmsee","opening_hours":"Apr 15 - Oct 31","operator":"Gastgewerbliche Betriebe Prasser KG","payment:american_express":"yes","payment:cash":"yes","payment:maestro":"yes","payment:mastercard":"yes","payment:visa":"yes","phone":"+43 3452 82866","power_supply":"yes","shower":"hot","tents":"yes","toilets":"yes","website":"https://www.camping-sulmsee.at/"}},"11034057757":{"location":[46.7891225,15.5300492],"ct":"AT","tp":"CS","ts":"2024-03-27T20:44:29Z","tX":556,"tY":361,"tags":{"caravans":"yes","contact:email":"steinerne.wehr@drei.at","contact:phone":"+43 664 18 19 807","fee":"yes","name":"Zum Steinernen Wehr","openfire":"no","operator":"Zum Steinernen Wehr","power_supply":"yes","shower":"hot","tents":"yes","toilets":"yes","website":"http://www.steinernewehr.com/camping.html"}},"12591018803":{"location":[46.5845525,15.6511156],"ct":"SI","tp":"CS","ts":"2025-02-15T20:51:26Z","tX":556,"tY":361,"tags":{"addr:housenumber":"35","addr:postcode":"2000","addr:street":"Počehova","name":"Chateau Ramšak Glamping","phone":"+386 40 628 303","website":"http://chateauramsak.com"}}}