{"61977930":{"location":[44.9483163,15.6425671],"ct":"HR","tp":"CS","ts":"2022-09-16T09:08:06Z","tX":556,"tY":368,"tags":{"addr:city":"Selište Drežničko","addr:country":"HR","addr:housenumber":"bb","addr:postcode":"53231","addr:street":"Čatrnja","area":"yes","campers":"yes","caravans":"yes","email":"info@np-plitvicka-jezera.hr","fax":"+385 53 751 882","internet_access":"wlan","internet_access:fee":"no","name":"Kamp Korana","name:en":"Camp Korana","phone":"+385 53 751 888","sanitary_dump_station":"customers","tents":"yes","website":"https://np-plitvicka-jezera.hr/en/plan-your-visit/hotels-and-camps/camp-korana/"}},"182742253":{"location":[44.9737956,15.646668],"ct":"HR","tp":"CS","ts":"2022-09-16T11:33:36Z","tX":556,"tY":368,"tags":{"addr:city":"Rakovica","addr:country":"HR","addr:housenumber":"102","addr:postcode":"47245","addr:street":"Grabovac","caravans":"yes","dog":"yes","email":"info@plitvice.com","fax":"+385 47 784 189","leisure":"resort","name":"Plitvice Holiday Resort","opening_hours":"Mo-Su 07:00-22:00","phone":"+385 47 784 192","tents":"yes","website":"https://www.plitvice.com/"}},"424620673":{"location":[44.8633794,15.6394377],"ct":"HR","tp":"CS","ts":"2022-09-16T11:59:05Z","tX":556,"tY":368,"tags":{"campers":"yes","caravans":"yes","fee":"yes","internet_access":"wlan","internet_access:fee":"no","name":"Cvetković","phone":"+385 915078988","power_supply":"yes","tents":"yes"}},"636487890":{"location":[44.9644155,15.6444763],"ct":"HR","tp":"CS","ts":"2022-09-16T11:08:13Z","tX":556,"tY":368,"tags":{"addr:city":"Rakovica","addr:country":"HR","addr:housenumber":"319","addr:postcode":"47245","addr:street":"Grabovac","campers":"yes","caravans":"yes","dog":"yes","name":"Kamp Korita","name:hr":"Kampiralište Korita","phone":"+385 98 193 6255","power_supply":"yes","sanitary_dump_station":"yes","tents":"yes"}},"722347784":{"location":[44.8445499,15.4818881],"ct":"HR","tp":"CS","ts":"2022-09-15T13:31:13Z","tX":556,"tY":368,"tags":{"campers":"yes","caravans":"yes","contact:facebook":"https://www.facebook.com/plitvicecamping","contact:instagram":"https://www.instagram.com/bigbearnatureresort/","name":"Big Bear Plitvice Camping Resort","phone":"+385 99 437 4887","power_supply":"yes","tents":"yes","water_supply":"yes","website":"https://plitvice-resort.com"}},"966848367":{"location":[44.9335283,15.6304711],"ct":"HR","tp":"CS","ts":"2022-09-16T08:58:56Z","tX":556,"tY":368,"tags":{"campers":"yes","caravans":"yes","name":"Camping Plitvice","phone":"+385 53 652484","stars":"5","tents":"yes","website":"https://campingplitvice.hr"}},"1095111534":{"location":[44.9477901,15.6368804],"ct":"HR","tp":"CS","ts":"2022-09-16T09:34:27Z","tX":556,"tY":368,"tags":{"addr:city":"Rakovica","addr:country":"HR","addr:housenumber":"52","addr:postcode":"47245","addr:street":"Selište Drežničko","campers":"yes","caravans":"yes","email":"camp.sobe.bear@gmail.com","internet_access":"wlan","name":"BearCamp","phone":"+385 47 782 272","power_supply":"yes","sanitary_dump_station":"yes","shower":"yes","tents":"yes","toilets":"yes","website":"https://camping-bear-plitvicki-slap-doo.business.site/"}},"3676785992":{"location":[44.949778,15.6418236],"ct":"HR","tp":"SD","ts":"2022-09-16T09:08:06Z","tX":556,"tY":368,"tags":{}},"12111008582":{"location":[44.9760726,15.4962378],"ct":"HR","tp":"CS","ts":"2024-08-14T18:32:11Z","tX":556,"tY":368,"tags":{"addr:city":"Saborsko","addr:housenumber":"66B","addr:postcode":"47306","addr:street":"D42","caravans":"yes","email":"primavera.plitvice@gmail.com","name":"Camping Primavera Plitvice","operator":"Matija","phone":"+385917333360","tents":"yes"}},"9908191538":{"location":[44.9263086,15.6114742],"ct":"HR","tp":"CR","ts":"2022-09-16T14:59:34Z","tX":556,"tY":368,"tags":{"drinking_water":"yes","fee":"yes","internet_access":"no","power_supply":"no","sanitary_dump_station":"no","shower":"no","tents":"no","toilets":"no"}},"9825804492":{"location":[44.9492008,15.6422806],"ct":"HR","tp":"SD","ts":"2022-06-17T16:09:23Z","tX":556,"tY":368,"tags":{}},"9825807455":{"location":[44.9495737,15.6416987],"ct":"HR","tp":"SD","ts":"2022-06-17T16:15:44Z","tX":556,"tY":368,"tags":{}},"10028980226":{"location":[44.9340742,15.6293645],"ct":"HR","tp":"SD","ts":"2022-09-16T08:31:18Z","tX":556,"tY":368,"tags":{}}}