{"12532238":{"location":[43.8268441,15.6505292],"ct":"HR","tp":"CS","ts":"2021-04-03T14:58:25Z","tX":556,"tY":373,"tags":{"name":"Autocamp Pepe","natural":"wood"}},"12549453":{"location":[43.8272,15.6549128],"ct":"HR","tp":"CS","ts":"2023-11-21T00:43:34Z","tX":556,"tY":373,"tags":{"fixme":"closed in 2021-09-09? Verify #surveyme"}},"40293380":{"location":[43.7953744,15.6084959],"ct":"HR","tp":"CS","ts":"2020-02-16T20:27:28Z","tX":556,"tY":373,"tags":{"addr:city":"Betina","addr:postcode":"22244","addr:street":"Put Kosirine","name":"Autocamp Kosirina","nudism":"customary","phone":"+385 22 435 268","website":"https://autocamp-kosirina.business.site/"}},"157473712":{"location":[43.8006656,15.6567611],"ct":"HR","tp":"CR","ts":"2016-07-09T15:50:43Z","tX":556,"tY":373,"tags":{"name":"Hostin"}},"157473714":{"location":[43.8090517,15.6293767],"ct":"HR","tp":"CS","ts":"2021-10-08T16:23:00Z","tX":556,"tY":373,"tags":{"caravans":"yes","internet_access":"wlan","internet_access:fee":"yes","name":"Autokamp Jazina","tents":"yes"}},"303532658":{"location":[43.7951012,15.6271131],"ct":"HR","tp":"CS","ts":"2019-03-20T12:22:56Z","tX":556,"tY":373,"tags":{"name":"Jezera Village","old_name":"Jezera Lovi≈°ƒáa","website":"https://www.jezeravillage.com/"}},"304366271":{"location":[43.806488,15.6121954],"ct":"HR","tp":"CS","ts":"2024-08-21T06:11:54Z","tX":556,"tY":373,"tags":{"name":"Autokamp Plitka Vala","website":"https://www.anwbcamping.nl/campings/camping-plitka-vala"}},"334647250":{"location":[43.8029259,15.654785],"ct":"HR","tp":"CS","ts":"2015-03-25T07:45:01Z","tX":556,"tY":373,"tags":{}},"411370971":{"location":[43.7824914,15.6476197],"ct":"HR","tp":"CS","ts":"2016-04-18T13:17:21Z","tX":556,"tY":373,"tags":{"internet_access":"wlan","internet_access:fee":"yes","name":"More","operator":"Kristijan Klarin"}},"412904930":{"location":[43.8118414,15.6225093],"ct":"HR","tp":"CS","ts":"2016-07-09T15:50:42Z","tX":556,"tY":373,"tags":{"name":"Dalmacija"}},"472062580":{"location":[43.8183735,15.5754212],"ct":"HR","tp":"CS","ts":"2023-07-23T16:40:45Z","tX":556,"tY":373,"tags":{"addr:city":"Murter","addr:housenumber":"8","addr:postcode":"22243","addr:street":"ulica Podvr≈°ke","caravans":"yes","drinking_water":"yes","email":"info@murter-slanica.hr","internet_access":"yes","name":"kamp Slanica","operator":"www.murter-slanica.hr","phone":"+385 22 434 205","shower":"yes","tents":"yes","website":"http://www.murter-slanica.hr"}},"715834528":{"location":[43.82221,15.657924],"ct":"HR","tp":"CS","ts":"2021-03-29T15:19:52Z","tX":556,"tY":373,"tags":{"addr:city":"Pirovac","addr:postcode":"22213","addr:street":"Zagrebaƒçka ul.","cabins":"yes","caravans":"yes","motor_vehicle":"yes","name":"Camping Miran Pirovac","static_caravans":"yes","tents":"yes","website":"https://www.rivijera.hr/en/camps/"}},"859531926":{"location":[43.8169453,15.5776487],"ct":"HR","tp":"CS","ts":"2019-01-30T11:20:31Z","tX":556,"tY":373,"tags":{"addr:city":"Murter","addr:country":"HR","addr:postcode":"22243","addr:street":"Podvr≈°ke","name":"Kamp Lostura","phone":"+385 22 434 580"}},"903551438":{"location":[43.8162832,15.6714211],"ct":"HR","tp":"CS","ts":"2023-04-02T07:54:51Z","tX":556,"tY":373,"tags":{"name":"Autokamp Starine"}},"907534664":{"location":[43.8187979,15.6624904],"ct":"HR","tp":"CS","ts":"2021-02-15T21:21:20Z","tX":556,"tY":373,"tags":{"name":"Autokamp Kerido"}},"964049739":{"location":[43.8081655,15.6082039],"ct":"HR","tp":"CS","ts":"2021-07-13T18:35:59Z","tX":556,"tY":373,"tags":{"addr:city":"Betina","addr:housenumber":"156","addr:street":"Obala kralja Petra Kre≈°imira IV","name":"Matija","website":"https://www.autocampingpark-matija.com/"}},"1210832869":{"location":[43.7872848,15.6187925],"ct":"HR","tp":"CS","ts":"2023-09-25T19:01:10Z","tX":556,"tY":373,"tags":{"name":"Stella Maris","website":"http://www.autocamp-stellamaris.com/"}},"1210832870":{"location":[43.7879353,15.6186994],"ct":"HR","tp":"CS","ts":"2023-09-25T19:01:10Z","tX":556,"tY":373,"tags":{"name":"Lunga","website":"https://kamp-lunga.business.site/"}},"1368273761":{"location":[43.7525308,15.7889671],"ct":"HR","tp":"CS","ts":"2013-06-16T12:12:05Z","tX":556,"tY":373,"tags":{"addr:city":"Vodice","addr:housenumber":"2","addr:street":"Put Vatroslava Lisinskog","name":"Autocamp Imperial"}},"1484907656":{"location":[43.8076129,15.5899567],"ct":"HR","tp":"CS","ts":"2019-10-01T15:14:34Z","tX":556,"tY":373,"tags":{"seamark:name":"ƒåigraƒëa","seamark:small_craft_facility:category":"camping_site","seamark:type":"small_craft_facility"}},"1484970019":{"location":[43.8118931,15.6228023],"ct":"HR","tp":"CS","ts":"2024-06-23T14:25:26Z","tX":556,"tY":373,"tags":{"name":"Olivia Green Camping"}},"2347344629":{"location":[43.74729,15.8003943],"ct":"HR","tp":"CS","ts":"2013-06-16T12:12:01Z","tX":556,"tY":373,"tags":{"addr:city":"Vodice","name":"Mini-camping Bonaca"}},"2417775493":{"location":[43.7488012,15.79706],"ct":"HR","tp":"CS","ts":"2013-08-13T13:00:43Z","tX":556,"tY":373,"tags":{"name":"Autocamp Dom"}},"2957481398":{"location":[43.7219087,15.797739],"ct":"HR","tp":"CR","ts":"2020-05-01T21:37:52Z","tX":556,"tY":373,"tags":{}},"4417321478":{"location":[43.8156081,15.6053102],"ct":"HR","tp":"CS","ts":"2016-09-25T08:57:13Z","tX":556,"tY":373,"tags":{"addr:city":"Betina","addr:housenumber":"56","addr:street":"Obala kralja Petra Kre≈°imira IV","name":"Marija"}},"5891510985":{"location":[43.7977962,15.6102494],"ct":"HR","tp":"CS","ts":"2020-02-16T20:27:28Z","tX":556,"tY":373,"tags":{"name":"Autocamp Kosirina","phone":"+385 22 435 268"}},"6246626454":{"location":[43.8162727,15.5805521],"ct":"HR","tp":"CS","ts":"2019-01-30T11:20:31Z","tX":556,"tY":373,"tags":{"addr:city":"Murter","addr:country":"HR","addr:postcode":"22243","addr:street":"Turistiƒçka 1a","name":"Kamp Rehut"}},"6790833171":{"location":[43.7493518,15.793771],"ct":"HR","tp":"CS","ts":"2019-09-12T16:41:16Z","tX":556,"tY":373,"tags":{"addr:housenumber":"15","addr:street":"Srima 3","name":"Camp Roko"}},"9788596717":{"location":[43.782877,15.6477037],"ct":"HR","tp":"CS","ts":"2022-06-01T15:15:33Z","tX":556,"tY":373,"tags":{"name":"Kamp Levantara","name:en":"Camp Levantara"}},"9974807420":{"location":[43.7558972,15.7686792],"ct":"HR","tp":"CS","ts":"2022-08-24T13:18:02Z","tX":556,"tY":373,"tags":{"addr:housenumber":"43.756147, 15.768528","addr:street":"Blata","name":"Vodice","name:en":"Lovely small site, ideal for cyclists üö¥üèΩ‚Äç‚ôÄÔ∏èüö¥üèºüö¥üèΩ‚Äç‚ôÄÔ∏è","opening_hours":"24/7"}},"9974807421":{"location":[43.7546719,15.7688343],"ct":"HR","tp":"CS","ts":"2022-08-24T12:45:55Z","tX":556,"tY":373,"tags":{"addr:housenumber":"43.756147, 15.768528","addr:street":"Blata","name":"Podice","name:en":"Lovely small site, ideal for cyclists"}},"10656230193":{"location":[43.7281608,15.7941878],"ct":"HR","tp":"CS","ts":"2023-02-13T21:17:25Z","tX":556,"tY":373,"tags":{"caravans":"no","description:en":"Only renting existing tents","email":"kampprvic@gmail.com","mobile":"+385 91 538 3042","name":"Perla","phone":"+385 95 915 7206","stars":"2","tents":"no","url":"https://www.booking.com/hotel/hr/mini-kamp-perla.html","website":"https://www.vodice.hr/hr/smjestaj/kampovi/kamp-perla/3975"}},"6775840325":{"location":[43.8093324,15.6281188],"ct":"HR","tp":"SD","ts":"2019-09-05T23:38:13Z","tX":556,"tY":373,"tags":{}}}