{"26310002":{"location":[41.9143134,15.7655138],"ct":"IT","tp":"CS","ts":"2024-08-12T09:09:39Z","tX":556,"tY":380,"tags":{"dog":"yes","email":"info@campinguria.it","name":"Camping Uria","phone":"+39 0884/917541","power_supply":"yes","shower":"hot","socket:cee_blue":"yes","toilets":"yes","website":"https://www.campinguria.it/"}},"993467184":{"location":[41.9234283,15.6125028],"ct":"IT","tp":"CS","ts":"2024-08-08T07:22:41Z","tX":556,"tY":380,"tags":{"addr:city":"San Nicandro Garganico","addr:street":"Via Torre Mileto","caravans":"yes","name":"Camping Johnny","phone":"+39 0882 472842","tents":"yes"}},"1158547653":{"location":[41.9210313,15.8178019],"ct":"IT","tp":"CS","ts":"2023-04-16T09:27:23Z","tX":556,"tY":380,"tags":{"cabins":"yes","caravans":"yes","mobile":"+39 327 2908650","name":"La Perla del Gargano","phone":"+39 0884 917331","shower":"yes","tents":"yes","toilets":"yes","website":"https://www.laperladelgargano.com/"}},"1306304547":{"location":[41.9232509,15.6120596],"ct":"IT","tp":"CS","ts":"2024-08-08T07:22:41Z","tX":556,"tY":380,"tags":{"addr:city":"San Nicandro Garganico","addr:street":"Via Torre Mileto","caravans":"yes","email":"info@littlecamping.it","facebook":"littlecampingfg","name":"Little Camping","phone":"+39 0882 491275","phone:mobile":"+39 328 7170165","power_supply":"yes","tents":"yes","website":"https://www.littlecamping.it/"}},"1306304550":{"location":[41.924208,15.613697],"ct":"IT","tp":"CR","ts":"2024-08-08T07:22:41Z","tX":556,"tY":380,"tags":{"addr:city":"San Nicandro Garganico","addr:street":"Via Torre Mileto","facebook":"Area-di-Sosta-Attrezzata-SantElia-100039361883719","name":"Area Attrezzata Camper Sant'Elia","phone":"+39 333 189 1984","power_supply":"yes","toilets":"customers"}},"1307197979":{"location":[41.9128704,15.7487034],"ct":"IT","tp":"CS","ts":"2024-08-12T09:00:46Z","tX":556,"tY":380,"tags":{"addr:city":"Foce Varano","addr:housenumber":"41","addr:postcode":"71010","addr:street":"SP 51","area":"yes","caravans":"yes","motorhome":"yes","name":"Sosta Camper Mecca Club","phone":"+39 393 111 3917","power_supply":"yes","shower":"yes","socket:cee_blue":"yes","toilets":"yes","website":"https://meccaclubgargano.it/"}},"1307199499":{"location":[41.915952,15.7886704],"ct":"IT","tp":"CS","ts":"2024-08-12T09:09:39Z","tX":556,"tY":380,"tags":{"addr:city":"Ischitella","addr:street":"Viale Uria","area":"yes","dog":"yes","email":"info@villaggioviola.it","name":"Camping Viola","phone":"+39 0884 917548","power_supply":"yes","shower":"yes","socket:cee_blue":"yes","toilets":"yes","website":"https://www.villaggioviola.it/"}}}