{"508229973":{"location":[46.8910682,-98.7800082],"ct":"US","tp":"CS","ts":"2017-07-17T16:17:15Z","tX":231,"tY":360,"tags":{}},"511585403":{"location":[46.9482873,-98.6982675],"ct":"US","tp":"CS","ts":"2022-05-21T21:41:11Z","tX":231,"tY":360,"tags":{"addr:city":"Jamestown","addr:housenumber":"8341","addr:postcode":"58401","addr:state":"ND","addr:street":"32nd St SE","name":"Lakeside Campground"}},"511585404":{"location":[46.9482411,-98.6984151],"ct":"US","tp":"CS","ts":"2017-07-31T00:25:41Z","tX":231,"tY":360,"tags":{}},"512639086":{"location":[46.8903448,-98.7067375],"ct":"US","tp":"CS","ts":"2017-08-03T17:55:47Z","tX":231,"tY":360,"tags":{}},"513121983":{"location":[46.9723903,-98.7720295],"ct":"US","tp":"CS","ts":"2023-04-15T18:57:25Z","tX":231,"tY":360,"tags":{}},"513122078":{"location":[47.0058541,-98.7382373],"ct":"US","tp":"CS","ts":"2019-05-06T21:50:42Z","tX":231,"tY":360,"tags":{"name":"Pelican Point Landing and Campground","website":"https://www.recreation.gov/camping/campgrounds/251467"}},"1250662182":{"location":[46.9884408,-98.7013759],"ct":"US","tp":"CS","ts":"2024-02-15T04:21:18Z","tX":231,"tY":360,"tags":{"access":"yes","fee":"yes","payment:donations":"yes"}},"1311282249":{"location":[46.9639131,-98.7148866],"ct":"US","tp":"CR","ts":"2024-08-26T14:29:02Z","tX":231,"tY":360,"tags":{}},"9768332799":{"location":[46.9482956,-98.6981964],"ct":"US","tp":"CS","ts":"2022-05-25T00:16:48Z","tX":231,"tY":360,"tags":{"addr:housenumber":"8341","addr:street":"32nd St SE, Jamestown, ND 58401","name":"Lakeside Campground"}}}