{"972700480":{"location":[36.798777,-98.6298875],"ct":"US","tp":"CR","ts":"2021-08-12T23:48:17Z","tX":231,"tY":399,"tags":{"landuse":"commercial","operator":"KBP Properties"}},"972700485":{"location":[36.8037906,-98.624853],"ct":"US","tp":"CR","ts":"2021-08-12T23:48:17Z","tX":231,"tY":399,"tags":{"landuse":"commercial","name":"R&T Diesel Repair","operator":"R&T Diesel Repair","shop":"fuel"}},"972700488":{"location":[36.8002918,-98.6293653],"ct":"US","tp":"CR","ts":"2021-08-12T23:48:17Z","tX":231,"tY":399,"tags":{"landuse":"commercial","name":"Nitram Capital","office":"yes","operator":"Nitram Capital"}},"972700515":{"location":[36.7981664,-98.6490867],"ct":"US","tp":"CR","ts":"2021-08-12T23:48:17Z","tX":231,"tY":399,"tags":{"landuse":"retail"}},"972983535":{"location":[36.8060488,-98.6438275],"ct":"US","tp":"CR","ts":"2021-08-14T01:10:24Z","tX":231,"tY":399,"tags":{"landuse":"commercial","name":"Fritz and Sons Trucking","operator":"Fritz and Sons Trucking","website":"https://m.fritzandsons.com/"}},"972983561":{"location":[36.7989434,-98.6502079],"ct":"US","tp":"CR","ts":"2021-08-14T01:10:24Z","tX":231,"tY":399,"tags":{"landuse":"commercial"}},"992938619":{"location":[36.7957812,-98.6590638],"ct":"US","tp":"CR","ts":"2021-10-14T23:23:00Z","tX":231,"tY":399,"tags":{"name":"Keltner Mobile Home Park","operator":"1"}},"995313259":{"location":[36.7963523,-98.6489154],"ct":"US","tp":"CR","ts":"2021-10-21T17:28:54Z","tX":231,"tY":399,"tags":{"operator":"Exploration Properties"}},"995313263":{"location":[36.797144,-98.6508828],"ct":"US","tp":"CR","ts":"2021-10-21T17:28:54Z","tX":231,"tY":399,"tags":{"landuse":"retail","name":"Shirley Shine Carwash","operator":"Shirley Shine Carwash","shop":"car_repair"}},"995313268":{"location":[36.7953359,-98.6317605],"ct":"US","tp":"CR","ts":"2022-05-19T16:11:48Z","tX":231,"tY":399,"tags":{"landuse":"commercial","name":"Miracle Production","operator":"Miracle Production"}}}