{"445242570":{"location":[33.9166937,-98.5111374],"ct":"US","tp":"CR","ts":"2022-07-26T22:08:23Z","tX":231,"tY":409,"tags":{"addr:city":"Wichita Falls","addr:housenumber":"300","addr:postcode":"76306","addr:state":"TX","addr:street":"Central Freeway","name":"Wichita Bend RV Park"}},"747987497":{"location":[33.9508457,-98.52063],"ct":"US","tp":"CR","ts":"2019-11-22T06:15:26Z","tX":231,"tY":409,"tags":{"addr:city":"Wichita Falls","addr:housenumber":"154","addr:postcode":"76306","addr:state":"TX","addr:street":"Evergreen Drive","name":"Evergreen Mobile Home Park"}},"844831413":{"location":[33.952445,-98.5558137],"ct":"US","tp":"CR","ts":"2020-09-06T19:02:33Z","tX":231,"tY":409,"tags":{"addr:city":"Wichita Falls","addr:housenumber":"2812","addr:postcode":"76306","addr:state":"TX","addr:street":"City View Drive","name":"Dry Creek Mobile Home Park"}},"845223490":{"location":[33.9299703,-98.5175711],"ct":"US","tp":"CR","ts":"2020-09-08T02:19:40Z","tX":231,"tY":409,"tags":{"name":"Little Oak Trailer Park"}},"1081020228":{"location":[33.9654014,-98.7231938],"ct":"US","tp":"CR","ts":"2022-07-24T22:33:10Z","tX":231,"tY":409,"tags":{"addr:city":"Iowa Park","addr:housenumber":"2865","addr:postcode":"76367","addr:state":"TX","addr:street":"Southwest Access Road","name":"B & S RV Campground"}},"1088952551":{"location":[33.9115163,-98.5250817],"ct":"US","tp":"CR","ts":"2023-08-02T22:43:24Z","tX":231,"tY":409,"tags":{"addr:city":"Wichita Falls","addr:housenumber":"2944","addr:postcode":"76301","addr:state":"TX","addr:street":"Seymour Highway","charge":"30 USD","fee":"yes","internet_access":"wlan","name":"Wichita Falls RV Park","power_supply":"yes","reservation":"yes","sanitary_dump_station":"yes","water_point":"yes"}}}