{"6576137":{"location":[29.4455509,-98.7094021],"ct":"US","tp":"CR","ts":"2019-07-12T00:34:05Z","tX":231,"tY":424,"tags":{"addr:city":"San Antonio","addr:country":"US","addr:housenumber":"1120","addr:postcode":"78251","addr:state":"TX","addr:street":"West Loop 1604 North","name":"Blazing Star RV Resort","operator":"Sun RV Resorts"}},"6881063":{"location":[29.4460873,-98.6915773],"ct":"US","tp":"CR","ts":"2020-10-12T19:51:16Z","tX":231,"tY":424,"tags":{"addr:city":"San Antonio","addr:country":"US","addr:housenumber":"1485","addr:postcode":"78251","addr:state":"TX","addr:street":"North Ellison Drive","name":"Admiralty RV Resort"}},"318803803":{"location":[29.4158392,-98.6258974],"ct":"US","tp":"CR","ts":"2019-07-14T02:06:31Z","tX":231,"tY":424,"tags":{"landuse":"residential","name":"Westhill Mobile Home and RV Park"}},"374649454":{"location":[29.3976236,-98.64034],"ct":"US","tp":"CR","ts":"2022-02-19T21:38:15Z","tX":231,"tY":424,"tags":{"addr:city":"San Antonio","addr:housenumber":"7650","addr:postcode":"78227","addr:state":"TX","addr:street":"West US Highway 90","name":"Lackland RV Park"}},"486222513":{"location":[29.5271946,-98.5767752],"ct":"US","tp":"CR","ts":"2017-04-11T21:09:18Z","tX":231,"tY":424,"tags":{}},"521821878":{"location":[29.3735595,-98.4830385],"ct":"US","tp":"CR","ts":"2021-08-09T01:41:03Z","tX":231,"tY":424,"tags":{"addr:city":"San Antonio","addr:housenumber":"2617","addr:postcode":"78214","addr:street":"Roosevelt Avenue","name":"Traveler's World RV Resort","phone":"+1-844-729-2710","website":"https://www.suncommunities.com/community/travelers-world-rv-resort/"}},"535042894":{"location":[29.4245171,-98.7536921],"ct":"US","tp":"CR","ts":"2024-10-16T23:52:09Z","tX":231,"tY":424,"tags":{}},"704228247":{"location":[29.4198143,-98.627971],"ct":"US","tp":"CR","ts":"2019-07-14T02:06:28Z","tX":231,"tY":424,"tags":{"addr:city":"San Antonio","addr:country":"US","addr:housenumber":"7600","addr:postcode":"78227","addr:state":"TX","addr:street":"West Military Drive","landuse":"residential","name":"Westwood Mobile Home Estates","operator":"Kinglsey Living"}},"905239409":{"location":[29.2782988,-98.6564932],"ct":"US","tp":"CR","ts":"2023-10-18T02:15:07Z","tX":231,"tY":424,"tags":{"addr:city":"Von Ormy","addr:housenumber":"14146","addr:postcode":"78073","addr:state":"TX","addr:street":"Interstate 35 South","name":"Ridge Crest Mobile Home","residential":"trailer_park","units":"152","website":"https://www.ridgecrestmhc.com/"}},"1120653096":{"location":[29.3985888,-98.6136399],"ct":"US","tp":"CR","ts":"2022-12-09T22:10:22Z","tX":231,"tY":424,"tags":{"name":"Fam Camp"}},"1152620889":{"location":[29.2615619,-98.7224982],"ct":"US","tp":"CR","ts":"2023-03-08T09:08:08Z","tX":231,"tY":424,"tags":{}},"8991558562":{"location":[29.3748204,-98.4821712],"ct":"US","tp":"SD","ts":"2021-08-09T01:41:03Z","tX":231,"tY":424,"tags":{"access":"customers"}}}