{"26119532":{"location":[56.4799321,-2.8109134],"ct":"GB","tp":"CR","ts":"2024-10-05T02:27:48Z","tX":504,"tY":316,"tags":{"caravans":"yes","min_age":"16","name":"Riverview Caravan Park","tents":"no","website":"https://www.riverview.co.uk/"}},"126776368":{"location":[56.5518961,-2.6060996],"ct":"GB","tp":"CR","ts":"2022-05-06T23:23:19Z","tX":504,"tY":316,"tags":{"addr:city":"Arbroath","addr:postcode":"DD11 2PT","addr:street":"Dundee Road","caravans":"yes","name":"Red Lion Caravan Park","tents":"no","website":"https://redlion-holidaypark.com/"}},"408076206":{"location":[56.5474076,-2.6186378],"ct":"GB","tp":"CR","ts":"2024-08-12T06:16:23Z","tX":504,"tY":316,"tags":{"name":"Elliot Caravan Park"}},"409673774":{"location":[56.5054148,-2.7179214],"ct":"GB","tp":"CR","ts":"2024-07-10T09:08:03Z","tX":504,"tY":316,"tags":{"addr:city":"Carnoustie","addr:postcode":"DD7 6GR","addr:street":"Newton Road","name":"Woodlands Caravan Park","tents":"yes","website":"https://www.woodlandscaravanpark.net/"}},"409893456":{"location":[56.4914437,-2.7761129],"ct":"GB","tp":"CR","ts":"2024-10-10T06:40:05Z","tX":504,"tY":316,"tags":{"name":"Barry Caravan Park","tents":"yes","website":"http://www.barrydownsofficial.net/tourers---caravans.html"}},"949129886":{"location":[56.5257894,-2.7268463],"ct":"GB","tp":"CR","ts":"2021-05-31T16:06:41Z","tX":504,"tY":316,"tags":{}}}