{"97559011":{"location":[55.9974006,-2.5448609],"ct":"GB","tp":"CR","ts":"2017-04-03T17:52:35Z","tX":504,"tY":318,"tags":{"name":"Belhaven Bay Caravan Site"}},"104289548":{"location":[56.0578196,-2.7798691],"ct":"GB","tp":"CR","ts":"2022-04-18T14:42:48Z","tX":504,"tY":318,"tags":{"addr:postcode":"EH39 5DS","caravans":"yes","internet_access":"wlan","name":"Yellowcraig Caravan & Motorhome Club Site","tents":"no","website":"https://www.caravanclub.co.uk/club-sites/scotland/east-lothian/yellowcraig-caravan-club-site/"}},"146734402":{"location":[56.0479223,-2.7346842],"ct":"GB","tp":"CR","ts":"2018-01-16T13:03:24Z","tX":504,"tY":318,"tags":{"name":"Gilsland Caravan Park"}},"146736342":{"location":[56.0561718,-2.6908968],"ct":"GB","tp":"CS","ts":"2021-11-20T16:29:56Z","tX":504,"tY":318,"tags":{"addr:city":"North Berwick","addr:postcode":"EH39 5NJ","addr:street":"Tantallon Road","bbq":"yes","caravans":"yes","dog":"yes","drinking_water":"yes","email":"tantallon@meadowhead.co.uk","fee":"yes","lit":"yes","name":"Tantallon Caravan & Camping Park","nudism":"no","operator":"Meadowhead Limited","permanent_camping":"no","phone":"+44 1620 893348","picnic_table":"yes","power_supply":"yes","sanitary_dump_station":"yes","scout":"no","shower":"yes","source":"survey and http://www.meadowhead.co.uk/TantallonHome.aspx","static_caravans":"yes","swimming_pool":"no","tents":"yes","toilets":"yes","washing_machine":"yes","waste_disposal":"yes","website":"https://www.meadowhead.co.uk/parks/tantallon/"}},"211737422":{"location":[55.99265,-2.4824114],"ct":"GB","tp":"CR","ts":"2018-10-01T15:16:33Z","tX":504,"tY":318,"tags":{"internet_access":"wlan","internet_access:fee":"yes","name":"Dunbar Camping and Caravanning Club Site","name:old":"Whitesands Caravan Park","operator":"Camping and Caravanning Club","power_supply":"yes","tents":"yes","wheelchair":"limited","wheelchair:description":"Behindertendusche / WC vorhanden (Radarkey) - Wege grob geschottert. Gelände sehr hügelig"}},"1162450036":{"location":[56.0070179,-2.7225432],"ct":"GB","tp":"CR","ts":"2023-04-14T11:55:58Z","tX":504,"tY":318,"tags":{"addr:city":"North Berwick","addr:housename":"East Fortune Farm","addr:postcode":"EH39 5BT","name":"Station Park Caravan Site","power_supply":"yes","sanitary_dump_station":"yes"}},"1162450955":{"location":[56.0062819,-2.7195696],"ct":"GB","tp":"CR","ts":"2023-04-14T12:00:40Z","tX":504,"tY":318,"tags":{"addr:city":"North Berwick","addr:housename":"East Fortune Farm","addr:postcode":"EH39 5BT","description":"Caravan & Motorhome Club Certificated Location. CAMC members only. 5 caravan limit.","internet_access":"yes","internet_access:fee":"no","name":"East Fortune Farm CL","power_supply":"yes","sanitary_dump_station":"yes"}}}