{"186596462":{"location":[54.9531195,-2.4929493],"ct":"GB","tp":"CS","ts":"2024-08-31T19:04:20Z","tX":504,"tY":324,"tags":{"caravans":"yes","drinking_water":"yes","name":"Haltwhistle - Camping and Caravanning Club Site","sanitary_dump_station":"yes","shower":"yes","tents":"yes","toilets":"yes","website":"https://www.campingandcaravanningclub.co.uk/campsites/uk/northumberland/haltwhistle/haltwhistle-camping-and-caravanning-club-site/"}},"310644936":{"location":[54.9733801,-2.5249573],"ct":"GB","tp":"CR","ts":"2020-03-15T10:42:47Z","tX":504,"tY":324,"tags":{"name":"Blenkinsopp Castle Home Park"}},"334527542":{"location":[54.9445249,-2.7479284],"ct":"GB","tp":"CR","ts":"2017-09-02T18:39:41Z","tX":504,"tY":324,"tags":{"addr:city":"Brampton","addr:postcode":"CA8 2AA","addr:street":"Old Church Lane","name":"Irthing Vale Caravan Park","phone":"+44 16977 3600"}},"338797120":{"location":[54.9222075,-2.4725314],"ct":"GB","tp":"CR","ts":"2020-04-24T06:35:32Z","tX":504,"tY":324,"tags":{"addr:city":"Haltwhistle","addr:housename":"Coanwood","addr:postcode":"NE49 0QN","name":"Yont The Cleugh","phone":"+44 1434 320274","website":"https://www.yontthecleugh.co.uk/"}},"340250875":{"location":[54.8636205,-2.4997912],"ct":"GB","tp":"CR","ts":"2020-04-22T07:13:07Z","tX":504,"tY":324,"tags":{"addr:city":"Slaggyford","addr:postcode":"CA8 7NJ","name":"Fell View Lake House Caravan Park","phone":"+44 1434 382823","website":"www.lakehouseandfellview.co.uk"}},"342069030":{"location":[54.8442755,-2.8011613],"ct":"GB","tp":"CR","ts":"2022-10-07T15:24:42Z","tX":504,"tY":324,"tags":{"addr:city":"Armathwaite","addr:postcode":"CA4 9SY","laundry_service":"no","name":"Englethwaite Hall","operator":"Caravan Club","phone":"+44 1228 560202","sanitary_dump_station":"no","shower":"no","toilets":"no"}},"435110518":{"location":[54.9513808,-2.6315341],"ct":"GB","tp":"CR","ts":"2017-09-02T17:09:06Z","tX":504,"tY":324,"tags":{"addr:city":"Brampton","addr:housename":"Cleugh Head Farm","addr:postcode":"CA8 2JB","addr:street":"Low Road","name":"Cleugh Head Caravan Club","phone":"+44 16977 46283","website":"http://www.cleughhead.co.uk/"}},"704774653":{"location":[54.9070064,-2.7101675],"ct":"GB","tp":"CR","ts":"2023-10-17T01:43:23Z","tX":504,"tY":324,"tags":{"addr:city":"Brampton","addr:country":"GB","addr:housename":"Chapel House Farm","addr:postcode":"CA8 1LP","addr:street":"Talkin","name":"Chapel House Caravan Park","phone":"+44 1228 670 535","website":"https://www.chapelhousecaravanpark.co.uk/"}},"705489312":{"location":[54.9258608,-2.711194],"ct":"GB","tp":"CS","ts":"2023-02-12T22:02:04Z","tX":504,"tY":324,"tags":{"access":"private","description":"From website Feb 2023: \"Unfortunately at present the site is only available to insured groups, such as cubs and scouts etc.\"","email":"talkintarn@carlisle.gov.uk","group_only":"yes","name":"Talkin Tarn Campsite","operator":"Carlisle City Council","website":"https://www.carlisle.gov.uk/talkintarn/Planning-Your-Visit/Camping"}},"727985347":{"location":[54.7828573,-2.8081669],"ct":"GB","tp":"CR","ts":"2019-12-18T19:09:26Z","tX":504,"tY":324,"tags":{"addr:city":"High Hesket","addr:postcode":"CA4 0JF","name":"Hesket Park","phone":"+44 7855 964991"}},"1069322197":{"location":[54.9761051,-2.6713088],"ct":"GB","tp":"CS","ts":"2023-10-04T11:00:08Z","tX":504,"tY":324,"tags":{"camp_site":"standard","caravans":"no","drinking_water":"yes","email":"campingatbanks@gmail.com","internet_access":"no","name":"Camping at Banks","phone":"+44 7838 225108","tents":"yes","toilets":"yes","website":"https://campingatbanks.com/"}},"1268592972":{"location":[54.9607138,-2.7777813],"ct":"GB","tp":"CS","ts":"2024-04-03T09:25:58Z","tX":504,"tY":324,"tags":{"access":"customers","cabins":"yes","name":"Headswood on the Wall"}},"3481196795":{"location":[54.8795366,-2.5026996],"ct":"GB","tp":"CS","ts":"2015-04-27T10:44:16Z","tX":504,"tY":324,"tags":{}}}