{"70288724":{"location":[54.6275681,-2.5823863],"ct":"GB","tp":"CR","ts":"2017-03-13T15:15:46Z","tX":504,"tY":325,"tags":{"name":"Low Moor Caravan and Campsite"}},"97507169":{"location":[54.6420528,-2.5059617],"ct":"GB","tp":"CR","ts":"2018-09-06T20:06:15Z","tX":504,"tY":325,"tags":{"name":"Silverband Caravan Park"}},"124056093":{"location":[54.7314637,-2.5997419],"ct":"GB","tp":"CR","ts":"2017-09-02T17:08:35Z","tX":504,"tY":325,"tags":{"area":"yes","name":"Melmerby Holiday Park","phone":"+44 17684 86309","source":"Bing","website":"http://www.melmerbycaravanpark.co.uk/"}},"151515204":{"location":[54.6187677,-2.4822176],"ct":"GB","tp":"CS","ts":"2021-04-27T09:25:16Z","tX":504,"tY":325,"tags":{}},"151515213":{"location":[54.6182106,-2.4812904],"ct":"GB","tp":"CR","ts":"2023-10-20T13:15:39Z","tX":504,"tY":325,"tags":{"addr:city":"Dufton","addr:postcode":"CA16 6DB","name":"Grandie Caravan Park","phone":"+44 1768 353 582","website":"https://www.duftoncaravanpark.co.uk/"}},"166045675":{"location":[54.6091391,-2.8100742],"ct":"GB","tp":"CR","ts":"2022-07-12T20:53:27Z","tX":504,"tY":325,"tags":{"addr:city":"Pooley Bridge","addr:postcode":"CA10 2LT","addr:street":"Roe Head Lane","name":"Hillcroft Park","phone":"+44 17684 86363","website":"https://www.hillcroftpark.co.uk/"}},"211323572":{"location":[54.5841959,-2.5901839],"ct":"GB","tp":"CR","ts":"2013-03-21T18:12:18Z","tX":504,"tY":325,"tags":{}},"244128422":{"location":[54.5849627,-2.6202514],"ct":"GB","tp":"CR","ts":"2019-03-23T03:07:21Z","tX":504,"tY":325,"tags":{"addr:postcode":"CA10 3EX","name":"Newby End Farm Caravan Site","phone":"+44 1931 714338","website":"https://www.newbyendfarm.co.uk/"}},"284047786":{"location":[54.6202107,-2.5209868],"ct":"GB","tp":"CR","ts":"2024-07-13T20:45:44Z","tX":504,"tY":325,"tags":{"addr:city":"Long Marton"}},"286974037":{"location":[54.6065344,-2.7501172],"ct":"GB","tp":"CR","ts":"2022-07-25T21:05:13Z","tX":504,"tY":325,"tags":{"name":"The Punchbowl Caravan Park"}},"295270148":{"location":[54.7520161,-2.6963868],"ct":"GB","tp":"CS","ts":"2015-04-13T11:53:15Z","tX":504,"tY":325,"tags":{"name":"Lazonby Pool Campsite","website":"www.lazonbypool.co.uk/campsite.htm"}},"303462520":{"location":[54.7080697,-2.5931936],"ct":"GB","tp":"CR","ts":"2024-04-03T21:55:35Z","tX":504,"tY":325,"tags":{"addr:city":"Ousby","name":"Crossfell Caravan Park","note":"Split in 2 across a road","phone":"+44 7900 585 342","surface":"asphalt","website":"https://www.crossfellcaravanpark.co.uk/"}},"314069952":{"location":[54.5806879,-2.4742844],"ct":"GB","tp":"CR","ts":"2014-11-23T07:23:23Z","tX":504,"tY":325,"tags":{"name":"Park House Caravan Park"}},"331536363":{"location":[54.6475864,-2.7521164],"ct":"GB","tp":"CR","ts":"2019-03-23T03:07:07Z","tX":504,"tY":325,"tags":{"addr:city":"Penrith","addr:postcode":"CA10 2BY","name":"Southwaite Green Mill","phone":"+44 1768 862542","website":"https://www.southwaitegreenmill.com/"}},"331536364":{"location":[54.6497528,-2.7495093],"ct":"GB","tp":"CR","ts":"2018-11-01T20:52:45Z","tX":504,"tY":325,"tags":{}},"337795875":{"location":[54.7281602,-2.6190754],"ct":"GB","tp":"CR","ts":"2023-10-15T09:10:37Z","tX":504,"tY":325,"tags":{"addr:city":"Melmerby","addr:postcode":"CA10 1HE","area":"yes","name":"Melmerby Mill Holiday Caravan Park","phone":"+44 17684 86309","source":"survey (sign at end of driveway)","website":"https://melmerbymill.co.uk/"}},"339711375":{"location":[54.7257829,-2.6967573],"ct":"GB","tp":"CR","ts":"2024-07-13T23:03:52Z","tX":504,"tY":325,"tags":{}},"342930325":{"location":[54.5958997,-2.6116271],"ct":"GB","tp":"CR","ts":"2023-10-20T13:13:58Z","tX":504,"tY":325,"tags":{"addr:city":"Morland","addr:postcode":"CA10 3BB","name":"Highgate Holiday Park","phone":"+44 1931 714347","website":"https://www.highgateholidaypark.co.uk/"}},"342944528":{"location":[54.5972369,-2.6910761],"ct":"GB","tp":"CR","ts":"2017-09-02T17:08:58Z","tX":504,"tY":325,"tags":{"addr:city":"Strickland","addr:postcode":"CA10 3DH","name":"Oaklands Country Park","phone":"+44 1931 712 371","website":"www.oaklandscountrypark.co.uk"}},"467286837":{"location":[54.5828921,-2.5764967],"ct":"GB","tp":"CR","ts":"2017-11-24T13:20:19Z","tX":504,"tY":325,"tags":{}},"542590202":{"location":[54.5778446,-2.5283733],"ct":"GB","tp":"CS","ts":"2017-11-24T13:20:13Z","tX":504,"tY":325,"tags":{}},"542592919":{"location":[54.6042027,-2.5514978],"ct":"GB","tp":"CR","ts":"2017-11-24T13:34:30Z","tX":504,"tY":325,"tags":{}},"700645274":{"location":[54.6499992,-2.768909],"ct":"GB","tp":"CS","ts":"2021-07-16T20:50:48Z","tX":504,"tY":325,"tags":{"addr:city":"Penrith","addr:postcode":"CA11 0DT","addr:street":"Redhills Lane","name":"Orchard Hideaways","phone":"+44 1768 862109","website":"https://www.heritage-hideaways.co.uk/"}},"706686200":{"location":[54.6712505,-2.7630378],"ct":"GB","tp":"CR","ts":"2019-12-18T19:09:26Z","tX":504,"tY":325,"tags":{"addr:city":"Penrith","addr:country":"GB","addr:postcode":"CA11 9HX","addr:street":"Thacka Lane","name":"Thacka Lea","phone":"+44 1768 863319","website":"https://thackaleacaravanpark.webs.com/"}},"708412028":{"location":[54.6785517,-2.7632532],"ct":"GB","tp":"CR","ts":"2023-10-24T11:52:30Z","tX":504,"tY":325,"tags":{}},"1116585559":{"location":[54.6295225,-2.7341184],"ct":"GB","tp":"CR","ts":"2022-11-23T16:52:37Z","tX":504,"tY":325,"tags":{"name":"Lowther Holiday Park","tents":"yes"}},"1167498300":{"location":[54.6161778,-2.6413094],"ct":"GB","tp":"CR","ts":"2023-04-30T09:00:26Z","tX":504,"tY":325,"tags":{"name":"Grange Court (C & MC CL)","reservation":"required"}},"1301169942":{"location":[54.6223786,-2.5217861],"ct":"GB","tp":"CR","ts":"2024-07-13T20:45:44Z","tX":504,"tY":325,"tags":{}},"1319983358":{"location":[54.6364794,-2.7112607],"ct":"GB","tp":"CR","ts":"2024-10-01T22:36:46Z","tX":504,"tY":325,"tags":{"addr:city":"Clifton Dykes","addr:postcode":"CA10 2DG","caravans":"yes","name":"Crossfells Campsite","phone":"+44 7551 339697","tents":"yes","website":"https://www.crossfells-campsite.co.uk/"}},"1384553663":{"location":[54.6462426,-2.7848749],"ct":"GB","tp":"CR","ts":"2025-05-08T09:22:39Z","tX":504,"tY":325,"tags":{"addr:city":"Stainton","addr:postcode":"CA11 0EB","addr:street":"St John's Road","capacity":"5","name":"Slapestone Villa CAMC CL","power_supply":"yes","sanitary_dump_station":"yes"}},"1789140930":{"location":[54.64667,-2.73861],"ct":"GB","tp":"CS","ts":"2012-06-15T22:06:10Z","tX":504,"tY":325,"tags":{"name":"Lowther Holiday Park","source":"ACSI"}},"7920633000":{"location":[54.5965876,-2.6278779],"ct":"GB","tp":"CS","ts":"2021-07-25T17:19:56Z","tX":504,"tY":325,"tags":{"access":"customers","addr:city":"Penrith","addr:housename":"Greengill House","addr:postcode":"CA10 3AX","addr:street":"Morland","dog":"yes","email":"enquiries@greengillholidays.co.uk","fee":"yes","name":"Greengill Campsite","operator":"Greengill Holidays","phone":"+44 1931 234 543","power_supply":"yes","toilets":"yes","website":"https://www.greengillholidays.co.uk"}},"9932566726":{"location":[54.7519442,-2.6828012],"ct":"GB","tp":"CS","ts":"2023-10-15T09:10:47Z","tX":504,"tY":325,"tags":{"caravans":"yes","fee":"yes","name":"Mains Farm","shower":"yes","tents":"yes","toilets":"yes","website":"https://www.edenvalleycaravansite.co.uk/"}},"8626071241":{"location":[54.6462456,-2.7846789],"ct":"GB","tp":"CR","ts":"2021-04-13T14:09:15Z","tX":504,"tY":325,"tags":{"addr:city":"Penrith","addr:postcode":"CA11 0EB","addr:street":"St John's Road","capacity":"5","name":"Slapestone Villa CAMC CL","power_supply":"yes","sanitary_dump_station":"yes"}}}