{"68911212":{"location":[54.4479904,-2.6061255],"ct":"GB","tp":"CR","ts":"2024-08-22T15:29:34Z","tX":504,"tY":326,"tags":{"drinking_water":"yes","fee":"no","name":"Tebay Caravan Park","operator":"Westmorland","power_supply":"yes","sanitary_dump_station":"yes","source":"OS OpenData StreetView","toilets":"yes"}},"73063653":{"location":[54.5436406,-2.4695412],"ct":"GB","tp":"CR","ts":"2023-10-20T13:14:59Z","tX":504,"tY":326,"tags":{"addr:city":"Ormside","addr:postcode":"CA16 6EJ","name":"Wild Rose Caravan Site","phone":"+44 17683 51077","website":"https://www.hoseasons.co.uk/holiday-parks/wild-rose-park-rose?gclid=CjwKEAjwx9KpBRCAiZ_tgYKWvhQSJABQjGW-Nm_BegqB7J3mDHGTCkYSGrqjxguQhea2uqE6g217tBoCwEzw_wcB&ef_id=U@ioTgAAAML42Sov:20150420141618:s"}},"339555275":{"location":[54.5125677,-2.4936859],"ct":"GB","tp":"CR","ts":"2018-01-25T11:58:19Z","tX":504,"tY":326,"tags":{}},"340081503":{"location":[54.4821631,-2.4651014],"ct":"GB","tp":"CR","ts":"2023-10-20T11:16:42Z","tX":504,"tY":326,"tags":{"addr:city":"Little Asby","addr:postcode":"CA16 6QE","email":"chapelfarmcaravanpark@gmail.com","fhrs:id":"771018","name":"Chapel Farm Caravan Park","operator":"Hoseasons","phone":"+44 1539 623 665","website":"https://www.chapelfarmcaravanpark.co.uk/"}},"677738339":{"location":[54.3762965,-2.7139003],"ct":"GB","tp":"CR","ts":"2019-03-18T20:10:52Z","tX":504,"tY":326,"tags":{"addr:city":"Kendal","addr:country":"GB","addr:county":"Cumbria","addr:postcode":"LA8 9ED","addr:suburb":"Selside","contact:website":"https://www.poppyfarm.com/index.php/about-poppy-farm-static-caravan-park-selside","name":"Poppy Farm Caravan Park"}},"1092036111":{"location":[54.544243,-2.7066515],"ct":"GB","tp":"CS","ts":"2022-09-05T08:44:39Z","tX":504,"tY":326,"tags":{"access":"customers","addr:city":"Rosgill","addr:postcode":"CA10 2QX","name":"Croft House Camp Site","website":"https://www.ukcampsite.co.uk/sites/details.asp?revid=15816"}},"1171768868":{"location":[54.5237882,-2.5893541],"ct":"GB","tp":"CR","ts":"2023-05-11T21:02:17Z","tX":504,"tY":326,"tags":{"cabins":"no","caravans":"yes","contact:facebook":"https://www.facebook.com/people/Midtown-Farm-Campsite/100090674915732/","name":"Midtown Farm Camping & Caravan Site","tents":"yes"}},"1182819120":{"location":[54.3923403,-2.7321875],"ct":"GB","tp":"CR","ts":"2023-06-18T06:55:29Z","tX":504,"tY":326,"tags":{"name":"Mosergh Farm Caravan Club"}},"1207979388":{"location":[54.3801055,-2.6853347],"ct":"GB","tp":"CR","ts":"2023-09-15T09:10:15Z","tX":504,"tY":326,"tags":{}},"1207979403":{"location":[54.3789984,-2.7029732],"ct":"GB","tp":"CR","ts":"2023-09-15T09:10:15Z","tX":504,"tY":326,"tags":{}},"1768049188":{"location":[54.5336764,-2.677181],"ct":"GB","tp":"CS","ts":"2017-09-02T17:08:22Z","tX":504,"tY":326,"tags":{"caravans":"no","name":"New Ing Lodge Camping","phone":"+44 1931 716719","source":"survey","tents":"yes","website":"www.newinglodge.co.uk"}},"3598253381":{"location":[54.5377732,-2.7572217],"ct":"GB","tp":"CS","ts":"2015-07-08T22:41:09Z","tX":504,"tY":326,"tags":{"name":"Aragon Camping"}},"3660717250":{"location":[54.4626954,-2.5550505],"ct":"GB","tp":"CS","ts":"2015-07-21T19:03:59Z","tX":504,"tY":326,"tags":{}}}