{"16742490":{"location":[54.2503035,-2.7894607],"ct":"GB","tp":"CR","ts":"2023-11-23T17:06:23Z","tX":504,"tY":327,"tags":{"addr:city":"Heversham","addr:postcode":"LA7 7EZ","name":"College Green Caravan Site"}},"153729750":{"location":[54.199648,-2.5856666],"ct":"GB","tp":"CR","ts":"2022-11-14T01:14:59Z","tX":504,"tY":327,"tags":{"addr:city":"Kirkby Lonsdale","addr:postcode":"LA6 2SE","name":"Woodclose Park","phone":"+44 15242 71597","tents":"yes","website":"https://www.woodclosepark.com/"}},"163506444":{"location":[54.3219457,-2.5125269],"ct":"GB","tp":"CR","ts":"2023-09-28T21:25:53Z","tX":504,"tY":327,"tags":{"name":"Pinfold Caravan Park","note":"Mostly residential with a small number of pitches","operator":"Hanley Caravans"}},"167248493":{"location":[54.3593505,-2.8058903],"ct":"GB","tp":"CS","ts":"2019-03-23T02:59:59Z","tX":504,"tY":327,"tags":{"addr:city":"Staveley","addr:postcode":"LA8 9JS","addr:street":"Ashes Lane","name":"Windermere Camping and Caravanning Club","phone":"+44 1539 821119","website":"https://www.campingandcaravanningclub.co.uk/campsites/uk/cumbria/kendal/windermere"}},"167251088":{"location":[54.3528697,-2.8026622],"ct":"GB","tp":"CR","ts":"2012-06-13T20:28:56Z","tX":504,"tY":327,"tags":{}},"204427674":{"location":[54.1886827,-2.5731768],"ct":"GB","tp":"CS","ts":"2017-09-02T22:42:36Z","tX":504,"tY":327,"tags":{"addr:city":"Kirkby Lonsdale","addr:postcode":"LA6 2HR","addr:street":"Cowan Bridge","name":"New House Caravan Park","phone":"+44 1524 271590"}},"204924290":{"location":[54.2003272,-2.5843859],"ct":"GB","tp":"CR","ts":"2022-03-08T00:15:17Z","tX":504,"tY":327,"tags":{}},"304422990":{"location":[54.2836486,-2.7552215],"ct":"GB","tp":"CR","ts":"2018-11-28T12:48:46Z","tX":504,"tY":327,"tags":{"addr:city":"Sedgwick","addr:housename":"Low Park Wood Caravan Park","addr:postcode":"LA8 0JZ","fhrs:id":"299495","name":"Kendal Caravan Club Site","website":"https://www.caravanclub.co.uk/club-sites/england/lake-district/cumbria/kendal-caravan-club-site/"}},"344154107":{"location":[54.1958639,-2.761091],"ct":"GB","tp":"CR","ts":"2018-01-27T20:41:12Z","tX":504,"tY":327,"tags":{"addr:city":"Hale","addr:housename":"Silver Ridge","addr:postcode":"LA7 7BW","name":"Silver Ridge Holiday Park","website":"https://www.holgates.co.uk/silver-ridge","wheelchair":"yes"}},"360990380":{"location":[54.2376613,-2.7116187],"ct":"GB","tp":"CR","ts":"2018-01-23T13:52:01Z","tX":504,"tY":327,"tags":{"addr:city":"Crooklands","addr:postcode":"LA7 7NU","addr:street":"Millness Hill","name":"Millness Leisure Park","phone":"+44 1539 567 306","website":"http://www.millnessleisurepark.co.uk/"}},"360990388":{"location":[54.2359755,-2.7253178],"ct":"GB","tp":"CR","ts":"2017-09-02T22:42:43Z","tX":504,"tY":327,"tags":{"addr:city":"Milnthorpe","addr:postcode":"LA7 7NU","addr:street":"Crooklands","name":"Farletonview Fishery Caravan Site","phone":"+44 15395 67328","website":"http://www.farletonviewfisheries.co.uk/caravansite.html"}},"361742389":{"location":[54.1694283,-2.5366637],"ct":"GB","tp":"CR","ts":"2024-06-29T06:41:57Z","tX":504,"tY":327,"tags":{"addr:city":"Cowan Bridge","addr:postcode":"LA6 2JH","addr:street":"Ireby Road","name":"Ireby Green Caravan Park","phone":"+44 15242 41203","website":"https://www.irebygreenfarm.co.uk/"}},"449701944":{"location":[54.3120343,-2.5627099],"ct":"GB","tp":"CS","ts":"2018-11-23T16:13:45Z","tX":504,"tY":327,"tags":{"addr:city":"Middleton","addr:housename":"Holme Farm","addr:postcode":"LA10 5ET","fee":"yes","name":"Holme Open Farm","website":"http://www.holmeopenfarm.co.uk/camping.html"}},"469221400":{"location":[54.3066066,-2.7186849],"ct":"GB","tp":"CR","ts":"2017-01-26T21:56:01Z","tX":504,"tY":327,"tags":{}},"476969331":{"location":[54.2639739,-2.6990346],"ct":"GB","tp":"CR","ts":"2021-06-25T07:32:09Z","tX":504,"tY":327,"tags":{"addr:city":"Endmoor","addr:country":"GB","addr:postcode":"LA8 0HL","addr:street":"Gatebeck Road","brand":"Parkdean Resorts","brand:wikidata":"Q7138226","contact:website":"https://www.parkdeanresorts.co.uk/location/lake-district/gatebeck/","name":"Gatebeck Holiday Park","operator":"Parkdean Resorts UK Limited"}},"476969334":{"location":[54.2618801,-2.7007797],"ct":"GB","tp":"CR","ts":"2021-06-25T07:47:29Z","tX":504,"tY":327,"tags":{"addr:city":"Endmoor","addr:country":"GB","addr:postcode":"LA8 0HJ","addr:street":"Gatebeck Road","contact:email":"info@millbrookcaravanpark.co.uk","contact:facebook":"https://www.facebook.com/MillbrookCaravanPark","contact:instagram":"millbrookcaravanpark","contact:phone":"+44 1539 567624","contact:website":"https://www.millbrookcaravanpark.co.uk/index.html","fhrs:id":"299455","name":"Millbrook Caravan Park"}},"510796486":{"location":[54.2758508,-2.7384752],"ct":"GB","tp":"CS","ts":"2020-09-13T19:36:55Z","tX":504,"tY":327,"tags":{"addr:city":"Sedgwick","addr:housename":"Raines Hall Farm","addr:postcode":"LA8 0JH","caravans":"yes","name":"Raines Hall","operator":"Lakeland Maze Farm Park","tents":"yes","website":"http://www.lakelandmaze.co.uk/camping/"}},"555009324":{"location":[54.2472387,-2.7127111],"ct":"GB","tp":"CR","ts":"2020-09-10T10:03:24Z","tX":504,"tY":327,"tags":{"addr:city":"Crooklands","addr:postcode":"LA7 7NN","fhrs:id":"299457","name":"Waters Edge Caravan Park","phone":"+44 1539 567708","website":"http://www.watersedgecaravanpark.co.uk/"}},"557716088":{"location":[54.3473938,-2.7297443],"ct":"GB","tp":"CR","ts":"2021-03-16T23:49:17Z","tX":504,"tY":327,"tags":{"addr:city":"Kendal","addr:postcode":"LA9 6NY","addr:street":"Shap Road","fhrs:id":"861224","name":"Kendal Camping and Caravanning Club","website":"https://www.campingandcaravanningclub.co.uk/campsites/uk/cumbria/kendal/kendal"}},"608945388":{"location":[54.2827004,-2.7653667],"ct":"GB","tp":"CS","ts":"2023-10-08T21:11:31Z","tX":504,"tY":327,"tags":{"access":"customers","addr:city":"Sizergh","addr:housename":"Low Sizergh Barn","addr:postcode":"LA8 8AE","capacity":"10","fee":"yes","name":"Sizergh Caravan & Camping","operator":"Low Sizergh Barn","website":"https://www.sizerghfarm.co.uk/"}},"643461874":{"location":[54.3396588,-2.4807726],"ct":"GB","tp":"CR","ts":"2023-10-20T11:15:47Z","tX":504,"tY":327,"tags":{"addr:city":"Sedbergh","addr:housename":"Cross Hall Farm","addr:postcode":"LA10 5LY","fee":"yes","name":"Cross Hall Caravan Park","website":"https://crosshallcaravanparksedberghcumbria.uk/"}},"643461878":{"location":[54.3390278,-2.481536],"ct":"GB","tp":"CR","ts":"2023-10-20T11:16:30Z","tX":504,"tY":327,"tags":{"addr:city":"Sedbergh","addr:housename":"Cross Hall Farm","addr:postcode":"LA10 5LY","fee":"yes","name":"Cross Hall Camp Site","website":"https://crosshallcaravanparksedberghcumbria.uk/"}},"729407416":{"location":[54.2132493,-2.7307336],"ct":"GB","tp":"CR","ts":"2020-06-04T16:06:38Z","tX":504,"tY":327,"tags":{"addr:city":"Holme","addr:postcode":"LA6 1FP","addr:street":"Old Lane","name":"White Riggs Caravan Park","website":"https://www.whiteriggs.co.uk/"}},"734144406":{"location":[54.1697375,-2.809887],"ct":"GB","tp":"CS","ts":"2019-10-13T11:50:01Z","tX":504,"tY":327,"tags":{"name":"SilverHelme Scout Camp","operator":"Lonsdale Scouts","scout":"yes"}},"783878884":{"location":[54.2584799,-2.6665252],"ct":"GB","tp":"CR","ts":"2020-03-23T12:46:55Z","tX":504,"tY":327,"tags":{"addr:city":"Gatebeck","addr:housename":"West View","addr:postcode":"LA8 0HY","name":"West View Caravan Park","website":"http://www.westviewcaravanpark.co.uk/"}},"822825685":{"location":[54.2422521,-2.7937645],"ct":"GB","tp":"CR","ts":"2023-10-20T08:45:16Z","tX":504,"tY":327,"tags":{"addr:city":"Heversham","addr:postcode":"LA7 7FH","addr:street":"Marsh Road","name":"Marsh Farm Caravan Site","power_supply":"yes","sanitary_dump_station":"yes","website":"https://www.marshfarmheversham.co.uk/"}},"871112347":{"location":[54.1922908,-2.5723296],"ct":"GB","tp":"CR","ts":"2020-11-13T09:22:55Z","tX":504,"tY":327,"tags":{"addr:city":"Kirkby Lonsdale","addr:postcode":"LA6 2HP","name":"Fell View Park","website":"http://www.fellviewpark.co.uk/"}},"1038114374":{"location":[54.199347,-2.5841484],"ct":"GB","tp":"CR","ts":"2022-06-05T11:36:53Z","tX":504,"tY":327,"tags":{"name":"Woodclose Park"}},"1125629217":{"location":[54.3568297,-2.6970086],"ct":"GB","tp":"CR","ts":"2022-12-29T13:59:12Z","tX":504,"tY":327,"tags":{"static_caravans":"only"}},"1163125004":{"location":[54.2361753,-2.6199068],"ct":"GB","tp":"CR","ts":"2023-04-16T23:26:37Z","tX":504,"tY":327,"tags":{}},"1177810532":{"location":[54.1878311,-2.7650526],"ct":"GB","tp":"CS","ts":"2023-05-31T08:50:43Z","tX":504,"tY":327,"tags":{"caravans":"yes","name":"Hall More Caravan Park","source":"GPS","static_caravans":"yes"}},"1177810543":{"location":[54.1940091,-2.7666099],"ct":"GB","tp":"CS","ts":"2024-03-07T09:46:44Z","tX":504,"tY":327,"tags":{"caravans":"yes","name":"Fell End Caravan Site","name:en":"Fell End Caravan Site","static_caravans":"yes"}},"1197549246":{"location":[54.3162195,-2.5416437],"ct":"GB","tp":"CS","ts":"2023-09-25T20:28:59Z","tX":504,"tY":327,"tags":{"addr:postcode":"LA10 5HQ","name":"Farm & Fell","website":"https://www.farmandfell.co.uk/camping"}},"1254362979":{"location":[54.174907,-2.5480873],"ct":"GB","tp":"CR","ts":"2024-02-24T17:52:35Z","tX":504,"tY":327,"tags":{"capacity":"5","fee":"yes"}},"1350642925":{"location":[54.3389647,-2.7331189],"ct":"GB","tp":"CR","ts":"2025-03-17T15:43:55Z","tX":504,"tY":327,"tags":{"addr:city":"Kendal","addr:postcode":"LA9 6PJ","addr:street":"Appleby Road","name":"Spital Caravans","website":"https://spitalcaravans.co.uk/"}},"1376511761":{"location":[54.2451605,-2.7172372],"ct":"GB","tp":"CR","ts":"2025-04-10T16:22:05Z","tX":504,"tY":327,"tags":{}},"2122366007":{"location":[54.359053,-2.8064808],"ct":"GB","tp":"CR","ts":"2013-01-21T10:51:24Z","tX":504,"tY":327,"tags":{}},"2170852890":{"location":[54.2450186,-2.7170557],"ct":"GB","tp":"CR","ts":"2013-02-24T09:20:12Z","tX":504,"tY":327,"tags":{}},"7343656361":{"location":[54.2787369,-2.461759],"ct":"GB","tp":"CS","ts":"2020-03-29T17:31:37Z","tX":504,"tY":327,"tags":{"addr:city":"Dent","addr:place":"Millbeck","addr:postcode":"LA10 5TB","cabins":"yes","caravans":"no","name":"Dentdale Glamping Pods","tents":"no","website":"https://dentdalepods.co.uk/"}},"5537552128":{"location":[54.1798712,-2.8115666],"ct":"GB","tp":"CR","ts":"2018-04-08T10:13:41Z","tX":504,"tY":327,"tags":{"name":"Old Waterslack Farm"}}}