{"161369292":{"location":[53.8539755,-2.7477021],"ct":"GB","tp":"CR","ts":"2023-08-01T09:14:29Z","tX":504,"tY":329,"tags":{"name":"Sunnyside Caravan Park","source":"bing"}},"185614130":{"location":[53.9481636,-2.7951925],"ct":"GB","tp":"CS","ts":"2021-12-17T14:05:14Z","tX":504,"tY":329,"tags":{}},"185848580":{"location":[53.9392296,-2.7687925],"ct":"GB","tp":"CR","ts":"2021-07-16T18:10:48Z","tX":504,"tY":329,"tags":{"contact:phone":"+44 1524 791683","name":"Six Arches Caravan Park"}},"185849183":{"location":[53.9268337,-2.7907202],"ct":"GB","tp":"CR","ts":"2016-12-17T18:57:35Z","tX":504,"tY":329,"tags":{"addr:city":"Preston","addr:place":"Winmarleigh","addr:street":"Cabus Nook Lane","addr:subdistrict":"Garstang","name":"Smithy Leisure Park"}},"185871748":{"location":[53.9291127,-2.7671703],"ct":"GB","tp":"CR","ts":"2012-10-14T20:35:18Z","tX":504,"tY":329,"tags":{}},"185898744":{"location":[53.9348713,-2.7852043],"ct":"GB","tp":"CR","ts":"2012-10-14T22:52:07Z","tX":504,"tY":329,"tags":{}},"188141240":{"location":[53.9106002,-2.781744],"ct":"GB","tp":"CR","ts":"2020-05-04T08:21:50Z","tX":504,"tY":329,"tags":{}},"190583248":{"location":[53.8901315,-2.8110065],"ct":"GB","tp":"CR","ts":"2021-10-12T13:17:20Z","tX":504,"tY":329,"tags":{}},"285065502":{"location":[53.7808132,-2.7856727],"ct":"GB","tp":"CR","ts":"2023-06-12T16:52:56Z","tX":504,"tY":329,"tags":{}},"325878017":{"location":[53.8910113,-2.6712715],"ct":"GB","tp":"CS","ts":"2015-02-01T11:51:38Z","tX":504,"tY":329,"tags":{"name":"Waddecar Scout Camp"}},"370869992":{"location":[53.846675,-2.648483],"ct":"GB","tp":"CR","ts":"2015-09-16T11:49:18Z","tX":504,"tY":329,"tags":{"capacity":"5","name":"Horns Inn Caravan Club CL"}},"370869997":{"location":[53.8438219,-2.6480807],"ct":"GB","tp":"CR","ts":"2015-09-16T11:49:18Z","tX":504,"tY":329,"tags":{"capacity":"5","name":"Horns Reservoir"}},"443894141":{"location":[53.9384322,-2.770146],"ct":"GB","tp":"CS","ts":"2009-07-19T19:55:17Z","tX":504,"tY":329,"tags":{}},"460220232":{"location":[53.9282259,-2.7899146],"ct":"GB","tp":"CR","ts":"2016-12-17T18:57:29Z","tX":504,"tY":329,"tags":{"name":"Wharf Cottage"}},"659422497":{"location":[53.8215284,-2.4730859],"ct":"GB","tp":"CS","ts":"2023-12-12T09:11:48Z","tX":504,"tY":329,"tags":{"addr:city":"Blackburn","addr:postcode":"BB6 8AN","addr:suburb":"Dinckley","cabins":"yes","caravans":"no","name":"Wigwam Holidays Ribble Valley","tents":"no","website":"https://www.wigwamholidays.com/ribble-valley"}},"734442636":{"location":[53.8982563,-2.7959866],"ct":"GB","tp":"CR","ts":"2021-09-28T13:58:52Z","tX":504,"tY":329,"tags":{"name":"Gibsons Farm Caravan Site","power_supply":"yes","sanitary_dump_station":"yes","website":"https://www.campingandcaravanningclub.co.uk/campsites/uk/lancashire/garstang-preston/gibsonsfarm/"}},"798396814":{"location":[53.8968165,-2.7820267],"ct":"GB","tp":"CR","ts":"2020-04-30T14:20:11Z","tX":504,"tY":329,"tags":{}},"803282230":{"location":[53.8818029,-2.5772056],"ct":"GB","tp":"CR","ts":"2024-04-11T10:17:28Z","tX":504,"tY":329,"tags":{"addr:city":"Preston","addr:country":"GB","addr:postcode":"PR3 2QW","addr:street":"Swinglehurst Lane","addr:suburb":"Chipping","description":"pitches for 34 Caravans, Motorhomes or Trailer Tents. Shower & toilet block.","name":"Brickhouse Caravan Site","website":"http://www.brickhouseccs.co.uk"}},"804641636":{"location":[53.7917473,-2.5172141],"ct":"GB","tp":"CR","ts":"2020-05-16T13:50:15Z","tX":504,"tY":329,"tags":{}},"864159414":{"location":[53.9369703,-2.7494482],"ct":"GB","tp":"CS","ts":"2020-10-27T13:42:56Z","tX":504,"tY":329,"tags":{"name":"Wyresdale Park"}},"894547244":{"location":[53.8367623,-2.5860203],"ct":"GB","tp":"CR","ts":"2022-05-10T12:37:07Z","tX":504,"tY":329,"tags":{"name":"Beacon Fell View Holiday Village"}},"895238358":{"location":[53.8200363,-2.5463249],"ct":"GB","tp":"CR","ts":"2021-01-14T15:00:32Z","tX":504,"tY":329,"tags":{}},"914494991":{"location":[53.8971011,-2.6851787],"ct":"GB","tp":"CR","ts":"2021-03-07T22:00:04Z","tX":504,"tY":329,"tags":{"name":"Faith's Farm"}},"943857044":{"location":[53.8863554,-2.6212371],"ct":"GB","tp":"CR","ts":"2021-05-17T11:21:22Z","tX":504,"tY":329,"tags":{}},"992217728":{"location":[53.8889798,-2.8112938],"ct":"GB","tp":"CR","ts":"2021-10-14T07:53:06Z","tX":504,"tY":329,"tags":{}},"1046961736":{"location":[53.9038109,-2.7917298],"ct":"GB","tp":"CR","ts":"2024-10-25T19:51:52Z","tX":504,"tY":329,"tags":{"addr:city":"Preston","addr:country":"GB","addr:postcode":"PR3 0JJ","addr:street":"Nateby Crossing Lane","addr:suburb":"Nateby","capacity":"97","check_date":"2024-10-25","email":"info@bridgehousemarina.co.uk","internet_access":"wlan","internet_access:fee":"yes","leisure":"marina","name":"Bridge House Marina and Caravan Park","power_supply":"yes","sanitary_dump_station":"yes","website":"https://www.bridgehousemarina.co.uk"}},"1180676588":{"location":[53.8436148,-2.7679212],"ct":"GB","tp":"CS","ts":"2023-06-09T13:51:32Z","tX":504,"tY":329,"tags":{"name":"Moss Lane Park CL"}},"1194432685":{"location":[53.7940972,-2.5150917],"ct":"GB","tp":"CS","ts":"2023-08-03T17:41:41Z","tX":504,"tY":329,"tags":{}},"4552428870":{"location":[53.9481253,-2.7295364],"ct":"GB","tp":"CS","ts":"2023-10-21T14:23:02Z","tX":504,"tY":329,"tags":{"fee":"yes","name":"Fell view","website":"https://www.fellviewparkandfishing.co.uk/"}},"6602921659":{"location":[53.8912625,-2.8115823],"ct":"GB","tp":"CS","ts":"2019-07-10T14:36:34Z","tX":504,"tY":329,"tags":{"addr:city":"Preston","addr:county":"Lancashire","addr:housename":"Humblescough Farm","addr:place":"Nateby","addr:postcode":"PR3 0LL","addr:street":"Humblescough Lane","email":"hello@humblescoughfarm.co.uk","name":"Humblescough Farm","phone":"+44 1995 605804","website":"https://www.humblescoughfarm.co.uk/"}},"12264480138":{"location":[53.884292,-2.7534024],"ct":"GB","tp":"CS","ts":"2024-10-18T20:00:34Z","tX":504,"tY":329,"tags":{"check_date":"2024-10-18","name":"Orchard Glamping","tents":"no","website":"https://www.orchardglamping.co.uk"}},"7869448016":{"location":[53.9043127,-2.7891446],"ct":"GB","tp":"SD","ts":"2020-09-02T19:06:46Z","tX":504,"tY":329,"tags":{}},"7869448017":{"location":[53.9047362,-2.7911563],"ct":"GB","tp":"SD","ts":"2020-09-02T19:06:46Z","tX":504,"tY":329,"tags":{}}}