{"21378199":{"location":[53.3597565,-2.6085909],"ct":"GB","tp":"CR","ts":"2024-04-10T14:25:51Z","tX":504,"tY":331,"tags":{"addr:city":"Warrington","addr:country":"GB","addr:postcode":"WA4 6PN","name":"Two Acre Park"}},"30930405":{"location":[53.3635458,-2.8104388],"ct":"GB","tp":"CR","ts":"2021-12-30T18:09:35Z","tX":504,"tY":331,"tags":{}},"35705251":{"location":[53.3609426,-2.6415091],"ct":"GB","tp":"CR","ts":"2016-01-29T20:58:56Z","tX":504,"tY":331,"tags":{"name":"Promenade Park"}},"291395762":{"location":[53.3591269,-2.6290657],"ct":"GB","tp":"CR","ts":"2022-07-10T20:01:18Z","tX":504,"tY":331,"tags":{"name":"Meadow Bank Caravan Park"}},"327000695":{"location":[53.3974745,-2.7841562],"ct":"GB","tp":"CS","ts":"2024-06-19T21:25:35Z","tX":504,"tY":331,"tags":{"name":"Sunny Side Naturist Camp","nudism":"yes"}},"342953823":{"location":[53.3710565,-2.5372555],"ct":"GB","tp":"CR","ts":"2019-06-27T07:34:59Z","tX":504,"tY":331,"tags":{"name":"Canal Bank Farm caravan site"}},"437681417":{"location":[53.3405363,-2.7243219],"ct":"GB","tp":"CR","ts":"2021-10-28T23:16:24Z","tX":504,"tY":331,"tags":{"addr:city":"Runcorn","addr:county":"Cheshire","addr:postcode":"WA7 5RY","addr:street":"Windmill Street","area":"yes","name":"Small Acre Caravan Park"}},"445962917":{"location":[53.4042034,-2.7949715],"ct":"GB","tp":"CR","ts":"2024-07-11T01:31:02Z","tX":504,"tY":331,"tags":{"name":"Halsnead Park"}},"954966150":{"location":[53.4389049,-2.7371739],"ct":"GB","tp":"CR","ts":"2021-06-18T09:30:22Z","tX":504,"tY":331,"tags":{}},"1029299343":{"location":[53.4097085,-2.4633076],"ct":"GB","tp":"CR","ts":"2022-02-08T12:13:53Z","tX":504,"tY":331,"tags":{}},"1789140638":{"location":[53.40944,-2.46428],"ct":"GB","tp":"CS","ts":"2012-06-15T22:06:07Z","tX":504,"tY":331,"tags":{"name":"Holly Bank Caravan Park","source":"ACSI"}},"6761862688":{"location":[53.5159897,-2.7892183],"ct":"GB","tp":"CS","ts":"2021-07-25T17:11:49Z","tX":504,"tY":331,"tags":{"addr:street":"News Lane","caravans":"yes","name":"Bridge Farm Rainford","name:en":"Bridge Farm Rainford","phone":"+44 1744 882524","tents":"yes","website":"https://www.bridgefarmrainford.co.uk/campsite"}}}