{"61563":{"location":[53.223945,-2.6295317],"ct":"GB","tp":"CR","ts":"2022-02-27T07:39:32Z","tX":504,"tY":332,"tags":{"name":"Oakmere Country Park"}},"28636855":{"location":[53.2357827,-2.632465],"ct":"GB","tp":"CR","ts":"2023-06-22T15:35:32Z","tX":504,"tY":332,"tags":{"name":"Forest View Caravan and Camping Park"}},"29131418":{"location":[53.2307425,-2.6106491],"ct":"GB","tp":"CR","ts":"2023-05-12T16:43:24Z","tX":504,"tY":332,"tags":{"addr:city":"Oakmere","addr:street":"Forest Road","name":"Forest Road Park","note":"permanent mobile home site"}},"29338998":{"location":[53.2252646,-2.6285319],"ct":"GB","tp":"CR","ts":"2022-02-27T07:39:32Z","tX":504,"tY":332,"tags":{"name":"Crabtree Green Park"}},"40095547":{"location":[53.2100286,-2.5861557],"ct":"GB","tp":"CR","ts":"2009-09-03T16:15:00Z","tX":504,"tY":332,"tags":{"name":"The Acorns"}},"115566946":{"location":[53.1982986,-2.6001641],"ct":"GB","tp":"CR","ts":"2012-12-31T18:58:15Z","tX":504,"tY":332,"tags":{"name":"Elm Cottage Touring Park","tents":"yes"}},"155689553":{"location":[53.2870911,-2.4706149],"ct":"GB","tp":"CR","ts":"2012-03-18T20:06:04Z","tX":504,"tY":332,"tags":{"name":"Pickmere Lake Caravan Park","tents":"no","website":"www.cheshire-caravan-park.co.uk"}},"157269851":{"location":[53.2166699,-2.5223005],"ct":"GB","tp":"CR","ts":"2022-01-23T11:30:58Z","tX":504,"tY":332,"tags":{"name":"Vale Royal River Park"}},"200598711":{"location":[53.2769673,-2.6961745],"ct":"GB","tp":"CR","ts":"2013-01-11T13:09:44Z","tX":504,"tY":332,"tags":{"barrier":"fence"}},"240869686":{"location":[53.1840828,-2.5146328],"ct":"GB","tp":"CR","ts":"2022-01-18T16:05:14Z","tX":504,"tY":332,"tags":{"name":"Lakeside Caravan Park"}},"317316773":{"location":[53.18987,-2.5159778],"ct":"GB","tp":"CR","ts":"2023-11-23T12:50:48Z","tX":504,"tY":332,"tags":{}},"325027246":{"location":[53.209706,-2.5636376],"ct":"GB","tp":"CR","ts":"2022-02-27T19:23:05Z","tX":504,"tY":332,"tags":{"note":"static caravans"}},"325031803":{"location":[53.2121895,-2.5536211],"ct":"GB","tp":"CR","ts":"2015-01-28T16:51:13Z","tX":504,"tY":332,"tags":{"note":"static caravans"}},"325042054":{"location":[53.2180501,-2.5805765],"ct":"GB","tp":"CR","ts":"2023-10-24T11:44:49Z","tX":504,"tY":332,"tags":{"addr:city":"Whitegate","addr:housename":"1 Lamb Cottage Caravan Park","addr:postcode":"CW8 2BN","addr:street":"Dalefords Lane","name":"Lamb Cottage Caravan Park","phone":"+44 1606 882 302","website":"https://www.lambcottage.co.uk/"}},"325088209":{"location":[53.2231567,-2.5938852],"ct":"GB","tp":"CR","ts":"2025-04-25T13:17:05Z","tX":504,"tY":332,"tags":{"addr:city":"Sandiway, Northwich","addr:housename":"The Bell House, Daleford Manor","addr:postcode":"CW8 2BT","addr:street":"Dalefords Lane","name":"Daleford Manor Caravan Park","phone":"+44 1606889545;+44 1606301718","source":"local_knowledge","website":"https://www.dalefordmanor.com/"}},"338337023":{"location":[53.2113402,-2.7251418],"ct":"GB","tp":"CR","ts":"2023-09-24T16:15:59Z","tX":504,"tY":332,"tags":{"cabins":"yes","email":"enquiries@northwood-hall.co.uk","name":"Northwood Hall","phone":"+44 1829 752569","website":"http://www.northwood-hall.co.uk"}},"340075115":{"location":[53.2294719,-2.5316408],"ct":"GB","tp":"CR","ts":"2015-04-23T09:33:27Z","tX":504,"tY":332,"tags":{}},"345707863":{"location":[53.2632696,-2.6419913],"ct":"GB","tp":"CR","ts":"2009-02-15T17:23:17Z","tX":504,"tY":332,"tags":{"name":"The Poplars"}},"473362223":{"location":[53.243199,-2.7990049],"ct":"GB","tp":"CR","ts":"2022-10-07T11:50:24Z","tX":504,"tY":332,"tags":{}},"511657764":{"location":[53.2207723,-2.4981793],"ct":"GB","tp":"CR","ts":"2017-07-31T07:49:33Z","tX":504,"tY":332,"tags":{}},"527082166":{"location":[53.1368494,-2.791378],"ct":"GB","tp":"CR","ts":"2022-02-20T22:24:53Z","tX":504,"tY":332,"tags":{}},"532134395":{"location":[53.1382989,-2.6994509],"ct":"GB","tp":"CR","ts":"2023-06-29T07:05:43Z","tX":504,"tY":332,"tags":{}},"597630960":{"location":[53.2400091,-2.7260403],"ct":"GB","tp":"CR","ts":"2024-04-09T14:52:00Z","tX":504,"tY":332,"tags":{"addr:city":"Frodsham","addr:country":"GB","addr:postcode":"WA6 9EF","name":"Rangeway Bank Farm"}},"597878739":{"location":[53.2673804,-2.7371522],"ct":"GB","tp":"CR","ts":"2018-06-14T18:11:38Z","tX":504,"tY":332,"tags":{"name":"The Ridgeway Country Holiday Park"}},"598600678":{"location":[53.2431085,-2.6690242],"ct":"GB","tp":"CR","ts":"2024-04-09T13:23:01Z","tX":504,"tY":332,"tags":{"addr:city":"Frodsham","addr:country":"GB","addr:postcode":"WA6 6NL","name":"New Forest Park","static_caravans":"yes"}},"755747689":{"location":[53.2271969,-2.6064699],"ct":"GB","tp":"CR","ts":"2021-04-11T15:33:43Z","tX":504,"tY":332,"tags":{"name":"Blakemere Touring Caravan Park"}},"829439977":{"location":[53.1365971,-2.7796625],"ct":"GB","tp":"CS","ts":"2021-09-03T20:33:18Z","tX":504,"tY":332,"tags":{"access":"customers","addr:city":"Tattenhall","addr:street":"Newton Lane"}},"857830695":{"location":[53.2742186,-2.5960333],"ct":"GB","tp":"CR","ts":"2023-07-16T14:12:39Z","tX":504,"tY":332,"tags":{"addr:city":"Northwich","addr:postcode":"CW8 3QB","addr:street":"Warrington Rd, Acton Bridge","landuse":"commercial","name":"Woodbine Caravan Park","phone":"+441606 852319","reservation":"recommended","sanitary_dump_station":"yes"}},"1031140730":{"location":[53.2300777,-2.6676559],"ct":"GB","tp":"CS","ts":"2025-01-22T16:53:30Z","tX":504,"tY":332,"tags":{"addr:city":"Delamere, Cheshire","addr:postcode":"CW8 2HZ","addr:street":"Station Road","name":"Delamere Forest Camping and Caravanning Club Site","website":"https://www.campingandcaravanningclub.co.uk/campsites/uk/cheshire/northwich/delamereforest"}},"2094074089":{"location":[53.234736,-2.7243089],"ct":"GB","tp":"CR","ts":"2013-01-03T21:55:40Z","tX":504,"tY":332,"tags":{}},"3304788216":{"location":[53.2613189,-2.7266754],"ct":"GB","tp":"CS","ts":"2015-01-22T20:13:29Z","tX":504,"tY":332,"tags":{"operator":"Caravan Club","toilets":"no"}},"6068509185":{"location":[53.231574,-2.6288429],"ct":"GB","tp":"CS","ts":"2018-11-17T13:44:14Z","tX":504,"tY":332,"tags":{"name":"stones ford Cl"}},"11619205295":{"location":[53.2297493,-2.7305967],"ct":"GB","tp":"CS","ts":"2024-02-13T17:28:54Z","tX":504,"tY":332,"tags":{"access":"customers","addr:city":"Mouldsworth","addr:housename":"Lloyds Meadow","addr:postcode":"CH3 8BD","addr:street":"Delamere Road","name":"Lloyds Meadow Glamping","toilets":"yes","website":"https://www.lloydsmeadowglamping.co.uk/"}},"12069338371":{"location":[53.2278795,-2.5002583],"ct":"GB","tp":"CS","ts":"2024-07-23T06:32:18Z","tX":504,"tY":332,"tags":{"name":"New Hall Farm"}},"6534101685":{"location":[53.233342,-2.6314796],"ct":"GB","tp":"CR","ts":"2021-07-06T14:40:59Z","tX":504,"tY":332,"tags":{"addr:postcode":"CW8 2TF","addr:street":"Stoneyford Lane","charge":"18 GBP","email":"info@stoneyfordcottagegardens.co.uk","fee":"yes","internet_access":"wlan","name":"Stoneyford Cottage Gardens CL","payment:cash":"yes","payment:cheque":"yes","payment:debit_cards":"yes","phone":"+44 1606 888970","power_supply":"yes","website":"https://www.stonyfordcottagenursery.co.uk/about-us/caravan-bookings/"}},"11005572308":{"location":[53.2918825,-2.7406624],"ct":"GB","tp":"CR","ts":"2023-06-25T11:11:30Z","tX":504,"tY":332,"tags":{"name":"The Old Pumping Station"}},"11005576980":{"location":[53.2973089,-2.7358069],"ct":"GB","tp":"CR","ts":"2023-06-25T11:24:20Z","tX":504,"tY":332,"tags":{"name":"Graceland Park"}},"11932751171":{"location":[53.2509675,-2.7915751],"ct":"GB","tp":"CR","ts":"2024-05-25T10:43:57Z","tX":504,"tY":332,"tags":{}},"8896105196":{"location":[53.2608042,-2.5160912],"ct":"GB","tp":"SD","ts":"2021-07-05T22:28:24Z","tX":504,"tY":332,"tags":{"access":"customers","centralkey":"crt_watermate","name":"Northwich Elsan Point","operator":"Canal and River Trust","sanitary_dump_station":"yes","sanitary_dump_station:accepted":"black_water","sanitary_dump_station:basin":"yes","sanitary_dump_station:pump-out":"no","waste":"toilet","waterway":"sanitary_dump_station"}},"8896105206":{"location":[53.2765283,-2.5232152],"ct":"GB","tp":"SD","ts":"2025-02-22T19:46:21Z","tX":504,"tY":332,"tags":{"access":"customers","centralkey":"crt_watermate","name":"Anderton Elsan Point","operator":"Canal and River Trust","sanitary_dump_station":"yes","sanitary_dump_station:accepted":"black_water","sanitary_dump_station:basin":"yes","sanitary_dump_station:pump-out":"no","waste":"toilet","waterway":"sanitary_dump_station"}},"12610431417":{"location":[53.276564,-2.5230907],"ct":"GB","tp":"SD","ts":"2025-02-22T19:46:21Z","tX":504,"tY":332,"tags":{"centralkey":"crt_watermate","note":"Pumpout in separate cabinet from main building","operator":"Canal and River Trust","sanitary_dump_station:pump-out":"yes"}},"10036460417":{"location":[53.197674,-2.606664],"ct":"GB","tp":"CR","ts":"2025-06-07T06:10:01Z","tX":504,"tY":332,"tags":{"name":"Winsford - The Shrewsbury Arms"}}}