{"23691654":{"location":[51.7659225,-2.5622305],"ct":"GB","tp":"CS","ts":"2025-05-12T16:22:01Z","tX":504,"tY":339,"tags":{"name":"Whitemead Forest Park"}},"31249774":{"location":[51.8170544,-2.6425535],"ct":"GB","tp":"CS","ts":"2022-09-17T15:56:11Z","tX":504,"tY":339,"tags":{"addr:city":"Coleford","addr:country":"GB","addr:postcode":"GL16 7NP","addr:street":"Bracelands Drive","cabins":"yes","caravans":"yes","contact:phone":"+44 1594 837258","dog":"leashed","drinking_water":"yes","fee":"yes","lit":"no","motorhome":"yes","name":"Bracelands","note":"Clearing","nudism":"no","openfire":"no","permanent_camping":"yes","picnic_table":"yes","power_supply":"yes","sanitary_dump_station":"customers","shower":"hot","source":"visual survey;OS_OpenData_StreetView","swimming_pool":"no","tents":"yes","toilets":"yes","washing_machine":"yes"}},"136618757":{"location":[51.7508835,-2.698632],"ct":"GB","tp":"CS","ts":"2011-11-11T16:20:11Z","tX":504,"tY":339,"tags":{"description":"Certificated Site","name":"Heather Dean"}},"136646126":{"location":[51.8123784,-2.722589],"ct":"GB","tp":"CR","ts":"2013-11-13T15:10:10Z","tX":504,"tY":339,"tags":{}},"171494154":{"location":[51.8096974,-2.7212034],"ct":"GB","tp":"CS","ts":"2012-07-14T09:20:06Z","tX":504,"tY":339,"tags":{"addr:city":"Monmouth","addr:country":"GB","addr:street":"Drybridge Street","name":"Monnow Bridge Caravan Site"}},"372743566":{"location":[51.702866,-2.6550214],"ct":"GB","tp":"CS","ts":"2025-05-12T08:26:44Z","tX":504,"tY":339,"tags":{"addr:city":"Tidenham Chase","addr:housename":"Beeches Farm","addr:postcode":"NP16 7JR","addr:street":"Miss Grace's Lane","name":"Beeches Farm Campsite","website":"https://beechesfarmcampsite.co.uk/","wheelchair":"yes"}},"401034643":{"location":[51.7905897,-2.6483999],"ct":"GB","tp":"CS","ts":"2016-03-01T17:26:03Z","tX":504,"tY":339,"tags":{"note":"Formerly an orchard.","operator":"Cherry Orchard Farm"}},"404085947":{"location":[51.7914853,-2.7330911],"ct":"GB","tp":"CR","ts":"2016-11-20T16:07:30Z","tX":504,"tY":339,"tags":{}},"576366181":{"location":[51.7593083,-2.5950795],"ct":"GB","tp":"CR","ts":"2021-07-15T17:43:48Z","tX":504,"tY":339,"tags":{"landuse":"residential","residential":"rural"}},"608648852":{"location":[51.7178928,-2.6874128],"ct":"GB","tp":"CS","ts":"2023-12-01T02:28:59Z","tX":504,"tY":339,"tags":{"addr:postcode":"NP16 6SN","addr:street":"Trelleck Road","name":"Botany Bay Scout campsite","operator":"Gwent Scouts"}},"610436710":{"location":[51.746611,-2.7425279],"ct":"GB","tp":"CR","ts":"2018-07-24T07:58:29Z","tX":504,"tY":339,"tags":{}},"677032482":{"location":[51.8089226,-2.5070675],"ct":"GB","tp":"CR","ts":"2019-03-15T12:18:12Z","tX":504,"tY":339,"tags":{"name":"Enfield Park","residential":"mobile"}},"716709541":{"location":[51.8284142,-2.6548113],"ct":"GB","tp":"CS","ts":"2022-05-30T09:23:37Z","tX":504,"tY":339,"tags":{"addr:city":"Ross-on-Wye","addr:country":"GB","addr:hamlet":"The Doward","addr:postcode":"HR9 6DX","addr:suburb":"Whitchurch","email":"biblins@woodcraft.org.uk","group_only":"yes","landuse":"grass","name":"Biblins Youth Campsite","phone":"+44 1600 890 850","tents":"yes","website":"https://www.biblins.org.uk/"}},"834715974":{"location":[51.7894527,-2.7867609],"ct":"GB","tp":"CR","ts":"2020-08-06T16:08:24Z","tX":504,"tY":339,"tags":{"name":"Bridge Caravan and Camping Site","website":"http://www.bridgecaravanpark.co.uk/"}},"837374085":{"location":[51.8077379,-2.7867131],"ct":"GB","tp":"CS","ts":"2022-08-07T18:11:55Z","tX":504,"tY":339,"tags":{"name":"Hendre Farmhouse Orchard Campsite","phone":"+447973814774","website":"https://www.hendrefarmhouseorchardcampsite.co.uk/"}},"855947702":{"location":[51.8083309,-2.673458],"ct":"GB","tp":"CS","ts":"2023-02-15T14:57:44Z","tX":504,"tY":339,"tags":{"name":"Broadstone Park Camping and Fishery","source":"Bing","website":"https://www.broadstonefisheries.com/"}},"856065762":{"location":[51.8119533,-2.6302837],"ct":"GB","tp":"CS","ts":"2020-10-06T18:22:09Z","tX":504,"tY":339,"tags":{"addr:postcode":"GL16 7NN","cabins":"yes","caravans":"no","dog":"yes","name":"Forest Holidays Forest of Dean","operator":"Forest Holidays","tents":"no"}},"1074290927":{"location":[51.7948928,-2.6342298],"ct":"GB","tp":"CS","ts":"2024-05-07T20:25:14Z","tX":504,"tY":339,"tags":{"fee":"yes","name":"Greenacres Campsite"}},"1292196399":{"location":[51.7580126,-2.5025112],"ct":"GB","tp":"CS","ts":"2024-06-13T20:20:07Z","tX":504,"tY":339,"tags":{"access":"customers","caravans":"no","education":"centre","fee":"yes","group_only":"yes","name":"The Christian Adventure Centre at Viney Hill","static_caravans":"no","tents":"yes"}},"1305377089":{"location":[51.6398849,-2.6433476],"ct":"GB","tp":"CS","ts":"2024-08-03T09:52:38Z","tX":504,"tY":339,"tags":{}},"1789140467":{"location":[51.7912929,-2.7336436],"ct":"GB","tp":"CS","ts":"2016-03-16T14:48:21Z","tX":504,"tY":339,"tags":{"name":"Glen Trothy C. & C. Park","source":"ACSI"}},"2888327070":{"location":[51.7654237,-2.5604277],"ct":"GB","tp":"CS","ts":"2019-06-17T12:03:07Z","tX":504,"tY":339,"tags":{"name":"Whitemead Park"}},"2888327071":{"location":[51.7653263,-2.5641803],"ct":"GB","tp":"CR","ts":"2019-06-17T12:03:07Z","tX":504,"tY":339,"tags":{"name":"Whitemead Park"}},"3061356678":{"location":[51.7736505,-2.6068201],"ct":"GB","tp":"CS","ts":"2019-06-23T15:54:53Z","tX":504,"tY":339,"tags":{}},"3672539928":{"location":[51.7635038,-2.70523],"ct":"GB","tp":"CS","ts":"2015-07-29T22:15:38Z","tX":504,"tY":339,"tags":{"name":"Highlands Camping and Caravan Site"}},"8914137469":{"location":[51.7890707,-2.7867863],"ct":"GB","tp":"CS","ts":"2021-08-04T16:12:49Z","tX":504,"tY":339,"tags":{"addr:street":"TÅ· Brith, Dingestow","description":"caravan and campsite","name":"The Bridge Caravan and campsite","phone":"+44 1600 740241"}},"9197296004":{"location":[51.8340686,-2.756965],"ct":"GB","tp":"CS","ts":"2021-10-24T11:24:20Z","tX":504,"tY":339,"tags":{"name":"Rockfield Glamping","note":"Approx locn."}},"5190654710":{"location":[51.7891947,-2.7864513],"ct":"GB","tp":"CR","ts":"2017-10-26T11:17:21Z","tX":504,"tY":339,"tags":{}},"10031834537":{"location":[51.8155894,-2.6425653],"ct":"GB","tp":"SD","ts":"2022-09-17T15:56:11Z","tX":504,"tY":339,"tags":{"access":"customers","sanitary_dump_station:round_drain":"yes"}},"10031886441":{"location":[51.8154368,-2.6424781],"ct":"GB","tp":"SD","ts":"2022-09-17T15:56:11Z","tX":504,"tY":339,"tags":{"access":"customers","sanitary_dump_station:basin":"yes"}}}