{"3428612":{"location":[51.5656749,-2.555888],"ct":"GB","tp":"CS","ts":"2021-05-28T15:47:34Z","tX":504,"tY":340,"tags":{"access":"private","addr:city":"Almondsbury","addr:postcode":"BS32 4LX","addr:street":"Fernhill","name":"Woodhouse Park Activity Centre","operator":"Avon County Scouts","phone":"+441454612204","website":"https://www.woodhousepark.org.uk"}},"34568891":{"location":[51.4469536,-2.6147577],"ct":"GB","tp":"CR","ts":"2024-08-20T09:13:43Z","tX":504,"tY":340,"tags":{"addr:city":"Bristol","addr:postcode":"BS1 6XG","addr:street":"Cumberland Road","affiliation":"Caravan Club","camping":"no","dog":"yes","drinking_water":"yes","fee":"yes","name":"Baltic Wharf","power_supply":"yes","sanitary_dump_station":"yes","website":"https://www.caravanclub.co.uk/club-sites/england/southern-england/bristol/baltic-wharf-club-campsite/"}},"510307655":{"location":[51.5986427,-2.6295075],"ct":"GB","tp":"CR","ts":"2024-04-02T11:08:33Z","tX":504,"tY":340,"tags":{"charge":"30 GBP","fee":"yes","name":"Cliff Farm","power_supply":"yes"}},"675210190":{"location":[51.4755144,-2.5754413],"ct":"GB","tp":"CS","ts":"2024-09-27T13:18:00Z","tX":504,"tY":340,"tags":{"addr:city":"Bristol","addr:housenumber":"5","addr:postcode":"BS2 9XY","addr:street":"Boiling Wells Lane","addr:suburb":"Saint Werburghs","disused":"yes","facebook":"https://www.facebook.com/Bristolcampingenneywevvers/","name":"Enneywevers","phone":"+44 7562 304391","website":"http://www.cyclist-camping-bristol.co.uk/"}},"686938054":{"location":[51.5299586,-2.6282805],"ct":"GB","tp":"CS","ts":"2023-11-25T19:06:53Z","tX":504,"tY":340,"tags":{"access":"private","name":"Brockmead Scout Camp Site","website":"https://spaniorumtrust.co.uk/"}},"770930227":{"location":[51.5438553,-2.6076534],"ct":"GB","tp":"CS","ts":"2023-09-03T00:53:29Z","tX":504,"tY":340,"tags":{"access":"customers","addr:city":"Easter Compton","addr:housename":"Washingpool Farm","addr:postcode":"BS35 5RE","addr:street":"Blackhorse Hill","email":"info@thewave.com","fee":"yes","name":"The Wave Campsite","note":"Oct 2021 - 25 fixed tents on a small grass site adjacent to the surf site","opening_date":"2019-11","operator":"The Wave","phone":"+44 333 016 4133","power_supply":"yes","reservation":"required","shower":"yes","toilets":"yes","website":"https://www.thewave.com/"}},"888294473":{"location":[51.5707811,-2.6386],"ct":"GB","tp":"CR","ts":"2022-02-18T13:14:38Z","tX":504,"tY":340,"tags":{"addr:city":"Bristol","addr:postcode":"BS35 4HA","addr:street":"Northwick Road","name":"Vine Farm Caravan Park"}},"924971677":{"location":[51.4560104,-2.7654623],"ct":"GB","tp":"CS","ts":"2021-04-01T23:53:19Z","tX":504,"tY":340,"tags":{"access":"private","addr:city":"Bristol","addr:housename":"Glenny Wood Camp Site","addr:postcode":"BS20 7RQ","addr:street":"Wood Lane","fee":"yes","name":"Glenny Wood Scout Camp Site","operator":"Gordano District Scouts","phone":"+44 1275 562102","shower":"yes","source":"local knowledge;aerial imagery;https://glennywood.org.uk","toilets":"yes"}},"963780720":{"location":[51.4264877,-2.469517],"ct":"GB","tp":"CS","ts":"2024-08-19T11:03:12Z","tX":504,"tY":340,"tags":{"addr:city":"Bristol","addr:place":"Bitton","addr:postcode":"BS30 6HX","addr:street":"Bath Road","caravans":"yes","dog":"leashed","facebook":"https://www.facebook.com/The-Stables-Bitton-CampingCaravan-1874108109275581/","name":"The Stables","shower":"no","tents":"yes","website":"https://www.pitchup.com/campsites/England/South_West/greater-bristol/Bristol/stables/"}},"3970305700":{"location":[51.4089278,-2.7655858],"ct":"GB","tp":"CS","ts":"2021-10-07T15:47:53Z","tX":504,"tY":340,"tags":{"fixme":"Unsure if this exists, please check"}},"6500124908":{"location":[51.4283665,-2.468494],"ct":"GB","tp":"CS","ts":"2024-08-13T06:58:40Z","tX":504,"tY":340,"tags":{"addr:city":"Bristol","addr:housenumber":"33","addr:postcode":"BS30 6HX","addr:street":"Bath Road","caravans":"yes","drinking_water":"yes","name":"Knights Folly Farm","name:en":"Knights Folly Farm","phone":"+447855474596","power_supply":"yes","sanitary_dump_station":"yes","shower":"yes","tents":"yes","toilets":"yes"}},"7094211026":{"location":[51.5328238,-2.6101166],"ct":"GB","tp":"CS","ts":"2019-12-30T00:04:06Z","tX":504,"tY":340,"tags":{"name":"Camp Baboon"}},"8346433960":{"location":[51.5995707,-2.7116307],"ct":"GB","tp":"CS","ts":"2021-01-21T21:07:29Z","tX":504,"tY":340,"tags":{}},"9867357925":{"location":[51.557922,-2.5424264],"ct":"GB","tp":"CS","ts":"2023-10-16T00:48:54Z","tX":504,"tY":340,"tags":{"addr:city":"Bristol","addr:postcode":"BS32 4JW","addr:street":"Hortham Lane","fee":"yes","name":"Bristol Camping","payment:cash":"yes","website":"https://bristolcamping.co.uk/"}},"5250892004":{"location":[51.5082889,-2.502649],"ct":"GB","tp":"CR","ts":"2022-02-18T13:12:38Z","tX":504,"tY":340,"tags":{"addr:city":"Bristol","addr:housename":"Green Gables","addr:postcode":"BS16 1SP","addr:street":"Bury Hill","name":"Green Gables","website":"https://www.caravanclub.co.uk/certificated-locations/england/bristol/bristol/green-gables/"}},"12870923033":{"location":[51.4124689,-2.4700497],"ct":"GB","tp":"CR","ts":"2025-05-28T12:15:57Z","tX":504,"tY":340,"tags":{"addr:city":"Keynsham","addr:postcode":"BS31 1TS","addr:street":"Pixash Lane","name":"Avon Valley Farm CAMC CL","note":"Caravan & Motorhome Club members only.","power_supply":"yes","sanitary_dump_station":"yes"}}}