{"129741716":{"location":[51.2714098,-2.7759372],"ct":"GB","tp":"CR","ts":"2021-07-19T20:20:09Z","tX":504,"tY":341,"tags":{"addr:city":"Cheddar","addr:postcode":"BS27 3RL","addr:street":"Gas House Lane, Draycott Road","name":"Cheddar Caravan and Motorhome Club Site","phone":"+441934 740207","website":"https://www.caravanclub.co.uk/"}},"129742378":{"location":[51.2725614,-2.7761772],"ct":"GB","tp":"CS","ts":"2025-06-23T20:36:30Z","tX":504,"tY":341,"tags":{"addr:city":"Cheddar","addr:country":"GB","addr:postcode":"BS27 3RJ","addr:street":"Draycott Road","caravans":"yes","drinking_water":"yes","email":"enquiries@cheddarbridge.co.uk","internet_access":"wlan","internet_access:fee":"yes","name":"Cheddar Bridge Touring Park","phone":"+44 1934 743048","power_supply":"yes","sanitary_dump_station":"yes","shower":"yes","tents":"yes","toilets":"yes","website":"https://cheddarbridge.co.uk/","wheelchair":"yes"}},"136623614":{"location":[51.2438729,-2.7311888],"ct":"GB","tp":"CR","ts":"2023-02-13T00:37:38Z","tX":504,"tY":341,"tags":{"name":"Bucklegrove Caravan Park","source":"bing","source:name":"OS OpenData Streetview"}},"280839554":{"location":[51.2260968,-2.6622189],"ct":"GB","tp":"CR","ts":"2020-12-24T14:09:04Z","tX":504,"tY":341,"tags":{}},"280839555":{"location":[51.2254418,-2.6609046],"ct":"GB","tp":"CS","ts":"2020-12-24T14:09:04Z","tX":504,"tY":341,"tags":{}},"372789459":{"location":[51.377814,-2.4739092],"ct":"GB","tp":"CS","ts":"2016-11-05T11:37:33Z","tX":504,"tY":341,"tags":{"addr:city":"Corston Fields","addr:postcode":"BA2 9HD","caravans":"yes","email":"salbowd@btinternet.com","name":"Bury View Farm","phone":"+441225873672","tents":"yes","website":"http://www.buryviewfarm.co.uk"}},"374553843":{"location":[51.3363036,-2.5973266],"ct":"GB","tp":"CR","ts":"2015-10-09T13:07:27Z","tX":504,"tY":341,"tags":{"name":"Chew Valley Caravan Park","website":"http://www.bathchewvalley.co.uk/"}},"460009711":{"location":[51.2901247,-2.7934098],"ct":"GB","tp":"CR","ts":"2023-02-02T23:48:25Z","tX":504,"tY":341,"tags":{"name":"Cheddar Woods Resort & Spa"}},"472423610":{"location":[51.2586505,-2.5378102],"ct":"GB","tp":"CR","ts":"2021-02-12T16:21:41Z","tX":504,"tY":341,"tags":{"name":"Old Down Touring Park"}},"612775912":{"location":[51.35499,-2.7404855],"ct":"GB","tp":"CS","ts":"2022-04-11T04:50:58Z","tX":504,"tY":341,"tags":{"addr:city":"Bristol","addr:housename":"Brook Lodge Farm","addr:postcode":"BS40 5RB","addr:street":"Cowslip Green","caravans":"yes","contact:email":"info@brooklodgefarm.com","contact:facebook":"https://www.facebook.com/Brooklodgefarm/","contact:instagram":"https://www.instagram.com/campingbristol/","contact:phone":"+44 1934 862 311","contact:website":"https://www.brooklodgefarm.com/","internet_access":"wlan","internet_access:fee":"no","name":"Brook Lodge Farm Camping & Caravan Park","shower":"yes","source":"ACSI","tents":"yes","wheelchair":"limited"}},"624237923":{"location":[51.2101165,-2.7607339],"ct":"GB","tp":"CS","ts":"2020-12-21T15:52:00Z","tX":504,"tY":341,"tags":{"name":"Garden End Farm","operator":"Camping and Caravanning Club Certified Site"}},"737402849":{"location":[51.341673,-2.5638832],"ct":"GB","tp":"CS","ts":"2019-10-21T20:05:20Z","tX":504,"tY":341,"tags":{"fee":"yes"}},"790030612":{"location":[51.3970274,-2.6256141],"ct":"GB","tp":"CS","ts":"2020-04-09T17:36:22Z","tX":504,"tY":341,"tags":{"name":"Bristol View Glamping"}},"944724505":{"location":[51.2669983,-2.7750653],"ct":"GB","tp":"CS","ts":"2021-05-19T15:09:47Z","tX":504,"tY":341,"tags":{"name":"Petruth Paddocks","phone":"+44 1934 257055","website":"https://www.petruthpaddocks.co.uk/"}},"947797146":{"location":[51.2778544,-2.7919509],"ct":"GB","tp":"CR","ts":"2021-05-27T14:58:46Z","tX":504,"tY":341,"tags":{}},"951530123":{"location":[51.263172,-2.6858708],"ct":"GB","tp":"CS","ts":"2021-06-05T18:29:11Z","tX":504,"tY":341,"tags":{"name":"Cheddar Mendip Heights Campsite","operator":"Camping and Caravanning Club"}},"990945344":{"location":[51.3825257,-2.7700437],"ct":"GB","tp":"CS","ts":"2010-11-16T09:49:23Z","tX":504,"tY":341,"tags":{"caravans":"yes","name":"Cleeve Caravan & Camping","tents":"yes"}},"992349842":{"location":[51.2102788,-2.6729518],"ct":"GB","tp":"CR","ts":"2021-10-13T01:24:37Z","tX":504,"tY":341,"tags":{"caravans":"yes","name":"Wells Holiday Park","tents":"yes"}},"1123087780":{"location":[51.2483642,-2.741103],"ct":"GB","tp":"CS","ts":"2022-12-18T10:34:21Z","tX":504,"tY":341,"tags":{"caravans":"yes"}},"1346766366":{"location":[51.2962126,-2.5067414],"ct":"GB","tp":"CS","ts":"2024-12-28T14:36:26Z","tX":504,"tY":341,"tags":{"access":"private","check_date":"2024-12-27","name":"Old Mills Campsite","sanitary_dump_station":"yes","source":"local knowledge"}},"1460445227":{"location":[51.2261024,-2.6621953],"ct":"GB","tp":"CS","ts":"2012-12-11T20:14:31Z","tX":504,"tY":341,"tags":{"name":"Lower Milton Caravan And Camping Site"}},"4338123093":{"location":[51.2317111,-2.4920724],"ct":"GB","tp":"CS","ts":"2016-08-06T10:47:29Z","tX":504,"tY":341,"tags":{"name":"ba35hp"}},"4407286933":{"location":[51.3546965,-2.6649571],"ct":"GB","tp":"CS","ts":"2021-06-26T10:02:58Z","tX":504,"tY":341,"tags":{"name":"Walnut Tree Farm Camping","website":"https://www.walnuttreeshepherdshuts.co.uk/"}},"8343184153":{"location":[51.2096802,-2.706205],"ct":"GB","tp":"CS","ts":"2021-01-20T19:45:11Z","tX":504,"tY":341,"tags":{"access":"customers","addr:city":"Wookey, Wells","addr:housename":"Wookey Farm","addr:postcode":"BA5 1DT","addr:street":"Monksford Lane","capacity":"35","charge":"From Â£18.50","fee":"yes","name":"Wookey Farm Camp Site","payment:cash":"yes","payment:credit_cards":"yes","payment:debit_cards":"yes"}},"9724229017":{"location":[51.2501402,-2.6811784],"ct":"GB","tp":"CS","ts":"2022-05-08T07:41:08Z","tX":504,"tY":341,"tags":{"name":"Ebborways Camping"}},"9873281663":{"location":[51.1931758,-2.6463949],"ct":"GB","tp":"CS","ts":"2022-07-07T21:36:18Z","tX":504,"tY":341,"tags":{"addr:city":"Wells","addr:postcode":"BA5 3QB","addr:street":"Launcherley Road","name":"The Lorax Patch","phone":"+447973134904","website":"https://www.theloraxpatch.com/"}},"11901159728":{"location":[51.3571836,-2.5187559],"ct":"GB","tp":"CS","ts":"2024-05-13T13:32:34Z","tX":504,"tY":341,"tags":{"access":"private","name":"Chelwood Scout Campsite"}},"11931491038":{"location":[51.2830137,-2.6275986],"ct":"GB","tp":"CS","ts":"2024-05-24T19:43:38Z","tX":504,"tY":341,"tags":{"name":"Nettwood Country Breaks"}}}