{"37764345":{"location":[50.7138626,-2.7654495],"ct":"GB","tp":"CR","ts":"2023-06-13T09:31:50Z","tX":504,"tY":344,"tags":{"addr:city":"Bridport","addr:country":"GB","addr:postcode":"DT6 4HB","brand":"Parkdean Resorts","brand:wikidata":"Q7138226","brand:wikipedia":"en:Parkdean Resorts","contact:website":"https://www.parkdeanresorts.co.uk/location/dorset/west-bay/","fee":"yes","name":"West Bay Holiday Park","operator":"Parkdean Resorts UK Limited","power_supply":"yes","sanitary_dump_station":"yes"}},"147039749":{"location":[50.7061445,-2.7391219],"ct":"GB","tp":"CS","ts":"2024-06-29T20:53:46Z","tX":504,"tY":344,"tags":{"addr:place":"Burton Bradstock","addr:postcode":"DT6 4PT","contact:facebook":"https://www.facebook.com/FreshwaterBeachHolidayPark","contact:instagram":"https://www.instagram.com/freshwater_beach_holiday_park/","email":"office@freshwaterbeach.co.uk","name":"Freshwater Beach Holiday Park","phone":"+44 1308 897317","website":"https://freshwaterbeachholidaypark.co.uk/"}},"148729025":{"location":[50.6434311,-2.4849358],"ct":"GB","tp":"CS","ts":"2023-07-24T13:53:14Z","tX":504,"tY":344,"tags":{"name":"Wych Elm Caravan Park"}},"148729104":{"location":[50.6358312,-2.4921637],"ct":"GB","tp":"CR","ts":"2023-07-24T13:53:14Z","tX":504,"tY":344,"tags":{"name":"South Buckland Farm"}},"148729113":{"location":[50.6361721,-2.4887113],"ct":"GB","tp":"CS","ts":"2023-07-24T13:53:14Z","tX":504,"tY":344,"tags":{"name":"South Buckland Farm"}},"148855577":{"location":[50.6238345,-2.5316538],"ct":"GB","tp":"CS","ts":"2017-04-11T06:31:03Z","tX":504,"tY":344,"tags":{"name":"Sea Barn Farm"}},"148855589":{"location":[50.6280115,-2.53077],"ct":"GB","tp":"CS","ts":"2013-09-04T11:43:50Z","tX":504,"tY":344,"tags":{"name":"West Fleet Farm"}},"149063371":{"location":[50.6048952,-2.4973714],"ct":"GB","tp":"CS","ts":"2020-06-05T14:47:52Z","tX":504,"tY":344,"tags":{"name":"Littlesea Holiday Park"}},"149063381":{"location":[50.6160734,-2.5113635],"ct":"GB","tp":"CS","ts":"2024-10-27T12:49:53Z","tX":504,"tY":344,"tags":{"addr:city":"Weymouth","addr:country":"GB","addr:county":"Dorset","addr:postcode":"DT3 4DW","addr:street":"Chickerell Road","email":"enquiries@eastfleet.co.uk","name":"East Fleet Farm Touring Park","phone":"+44 1305 785768","power":"yes","website":"https://www.eastfleet.co.uk/"}},"149063387":{"location":[50.6033384,-2.4932611],"ct":"GB","tp":"CR","ts":"2023-06-10T17:05:42Z","tX":504,"tY":344,"tags":{"name":"Littlesea Holiday Park","operator":"Haven"}},"149063393":{"location":[50.5964614,-2.4864257],"ct":"GB","tp":"CR","ts":"2023-07-24T20:46:03Z","tX":504,"tY":344,"tags":{"addr:city":"Weymouth","addr:housenumber":"90","addr:postcode":"DT4 9HF","addr:street":"Camp Road","internet_access":"wlan","internet_access:fee":"yes","name":"Pebble Bank","power_supply":"yes","sanitary_dump_station":"yes","toilets":"yes"}},"149063394":{"location":[50.5959467,-2.4840245],"ct":"GB","tp":"CS","ts":"2023-07-25T06:22:40Z","tX":504,"tY":344,"tags":{"access":"yes","addr:city":"Weymouth","addr:housename":"Tenting Field","addr:housenumber":"90","addr:postcode":"DT4 9HF","addr:street":"Camp Road","caravans":"no","drinking_water":"yes","fee":"yes","name":"Pebble Bank","payment:cash":"yes","payment:debit_cards":"yes","power_supply":"yes","shower":"yes","tents":"yes","toilets":"yes"}},"149815922":{"location":[50.6327242,-2.5294592],"ct":"GB","tp":"CS","ts":"2017-09-14T12:24:51Z","tX":504,"tY":344,"tags":{"name":"Bagwell Farm"}},"149815924":{"location":[50.6674181,-2.5653988],"ct":"GB","tp":"CS","ts":"2024-10-20T19:39:07Z","tX":504,"tY":344,"tags":{"addr:postcode":"DT3 4HG","caravans":"yes","name":"Portesham Dairy Farm Campsite","tents":"yes","website":"https://www.porteshamdairyfarm.co.uk/"}},"150698726":{"location":[50.5870111,-2.4752021],"ct":"GB","tp":"CR","ts":"2024-07-10T17:00:21Z","tX":504,"tY":344,"tags":{"name":"Chesil Holiday Park"}},"162226524":{"location":[50.6895619,-2.6710364],"ct":"GB","tp":"CR","ts":"2017-09-15T12:45:42Z","tX":504,"tY":344,"tags":{"name":"Gorselands Caravan Park"}},"162226527":{"location":[50.6968416,-2.6588258],"ct":"GB","tp":"CR","ts":"2012-05-05T14:44:26Z","tX":504,"tY":344,"tags":{"name":"Home Farm"}},"162226745":{"location":[50.6905339,-2.6681647],"ct":"GB","tp":"CR","ts":"2022-03-10T19:01:35Z","tX":504,"tY":344,"tags":{}},"162924074":{"location":[50.7002662,-2.720821],"ct":"GB","tp":"CR","ts":"2019-02-19T13:30:53Z","tX":504,"tY":344,"tags":{"name":"Larkfield Holiday Park"}},"162982440":{"location":[50.7068556,-2.7122501],"ct":"GB","tp":"CR","ts":"2012-05-10T16:20:36Z","tX":504,"tY":344,"tags":{"name":"Graston Copse Holiday Park"}},"231199870":{"location":[50.7185169,-2.7773511],"ct":"GB","tp":"CS","ts":"2024-02-24T12:48:23Z","tX":504,"tY":344,"tags":{"caravans":"yes","motorhome":"yes","name":"Highlands End","operator":"West Dorset Leisure Holidays","phone":"+44 1308 422139","tents":"yes","website":"https://wdlh.co.uk/holiday-parks/highlands-end/"}},"275021066":{"location":[50.6336513,-2.5178572],"ct":"GB","tp":"CS","ts":"2008-06-30T21:57:06Z","tX":504,"tY":344,"tags":{}},"357529867":{"location":[50.5903994,-2.4801693],"ct":"GB","tp":"CS","ts":"2023-06-09T17:06:02Z","tX":504,"tY":344,"tags":{"addr:city":"Wyke Regis, Weymouth","addr:housename":"Martleaves Farm","addr:postcode":"DT4 9NR","addr:street":"South Road","capacity":"40","caravans":"no","dog":"yes","fee":"yes","name":"Martleaves Farm Campsite","phone":"+44 1305 819383","shower":"yes","tents":"yes","website":"https://www.weymouthcampingandcaravanpark.co.uk/"}},"397763615":{"location":[50.6942336,-2.7137648],"ct":"GB","tp":"CR","ts":"2021-07-25T21:32:37Z","tX":504,"tY":344,"tags":{"name":"Old Coastguard Holiday Park"}},"409352868":{"location":[50.7177211,-2.7856686],"ct":"GB","tp":"CS","ts":"2016-04-10T23:02:11Z","tX":504,"tY":344,"tags":{}},"409352870":{"location":[50.717681,-2.7843549],"ct":"GB","tp":"CR","ts":"2024-01-31T22:28:39Z","tX":504,"tY":344,"tags":{"name":"Eype Beach Holiday Park"}},"684241368":{"location":[50.6454476,-2.486161],"ct":"GB","tp":"CS","ts":"2023-07-14T20:09:03Z","tX":504,"tY":344,"tags":{"addr:postcode":"DT3 4BW","caravans":"yes","fee":"yes","name":"Higher Moor Farm Campsite","static_caravans":"no","tents":"yes","website":"https://highermoorfarm.co.uk"}},"928294065":{"location":[50.7120575,-2.5132773],"ct":"GB","tp":"CR","ts":"2021-04-14T10:25:24Z","tX":504,"tY":344,"tags":{"name":"Hardy Country Park"}},"1168337355":{"location":[50.7065941,-2.6462004],"ct":"GB","tp":"CS","ts":"2023-05-03T18:42:47Z","tX":504,"tY":344,"tags":{"name":"Litton Lakes","website":"https://www.littonlakes.co.uk/"}},"6661290356":{"location":[50.7078893,-2.7046727],"ct":"GB","tp":"CS","ts":"2019-07-30T15:54:10Z","tX":504,"tY":344,"tags":{"internet_access":"yes","internet_access:fee":"no","name":"Graston Farm Campsite"}},"8528333310":{"location":[50.5963364,-2.4862741],"ct":"GB","tp":"CS","ts":"2023-07-24T20:46:11Z","tX":504,"tY":344,"tags":{"access":"customers","addr:city":"Weymouth","addr:housename":"Pebble Bank Caravan Park","addr:housenumber":"90","addr:postcode":"DT4 9HF","addr:street":"Camp Road","caravans":"no","dog":"yes","drinking_water":"yes","fee":"yes","internet_access":"wlan","name":"Pebble Bank Caravan Park","phone":"+44 1305 774844","power_supply":"yes","sanitary_dump_station":"yes","shower":"yes","static_caravans":"yes","tents":"no","toilets":"yes"}},"5254591252":{"location":[50.7077903,-2.7382841],"ct":"GB","tp":"SD","ts":"2017-11-29T19:22:09Z","tX":504,"tY":344,"tags":{}},"10693389273":{"location":[50.7180963,-2.7766989],"ct":"GB","tp":"SD","ts":"2023-02-25T17:38:29Z","tX":504,"tY":344,"tags":{"fee":"no","water_point":"yes"}},"10693389301":{"location":[50.7179981,-2.7778461],"ct":"GB","tp":"SD","ts":"2023-06-27T18:30:41Z","tX":504,"tY":344,"tags":{"access":"customers","fee":"no","water_point":"yes"}}}