{"26636537":{"location":[48.5890714,-2.5495885],"ct":"FR","tp":"CS","ts":"2024-08-04T08:48:00Z","tX":504,"tY":353,"tags":{"addr:city":"Pléneuf-Val-André","addr:housenumber":"26","addr:postcode":"22370","addr:street":"Rue Jean Lebrun","name":"Camping Val-André","operator":"Sandaya","phone":"+33 2 96 72 95 10","stars":"4","website":"https://www.sandaya.fr/nos-campings/val-andre"}},"27315499":{"location":[48.5822354,-2.5513581],"ct":"FR","tp":"CS","ts":"2024-08-15T18:00:13Z","tX":504,"tY":353,"tags":{"email":"campingminihy22@gmail.com","landuse":"village_green","name":"Camping du Minihy","name:br":"Tachenn-gampiñ ar Vinic'hi","phone":"+33 6 87 33 70 56","source:website":"https://diffuseur.datatourisme.gouv.fr/webservice/1de21daee06d4c4d126bbf53bc000597/8031c032-1fdc-4068-9d0f-345131f4fc22","website":"https://www.camping-minihy-val-andre.com/"}},"28427468":{"location":[48.5602955,-2.5336274],"ct":"FR","tp":"CS","ts":"2021-06-06T15:43:44Z","tX":504,"tY":353,"tags":{"addr:city":"Saint-Alban","addr:housenumber":"12","addr:postcode":"22400","addr:street":"Rue des Jonquilles","email":"info@campingdesjonquilles.com","landuse":"village_green","name":"Camping du Domaine des Jonquilles","phone":"+33 6 75 44 39 69","source:website":"https://diffuseur.datatourisme.gouv.fr/webservice/1de21daee06d4c4d126bbf53bc000597/8031c032-1fdc-4068-9d0f-345131f4fc22","website":"https://www.campingdesjonquilles.com/"}},"28732940":{"location":[48.6067901,-2.4950876],"ct":"FR","tp":"CS","ts":"2024-08-20T20:45:33Z","tX":504,"tY":353,"tags":{"caravans":"yes","drinking_water":"yes","email":"camping@saintpabu.com","internet_access":"wlan","landuse":"village_green","name":"Camping de Saint-Pabu Plage","phone":"+33 2 96 72 24 65","power_supply":"yes","shower":"yes","source:website":"https://diffuseur.datatourisme.gouv.fr/webservice/1de21daee06d4c4d126bbf53bc000597/8031c032-1fdc-4068-9d0f-345131f4fc22","tents":"yes","toilets":"yes","website":"https://www.saintpabu.com/","wheelchair":"yes"}},"50015925":{"location":[48.577889,-2.7839477],"ct":"FR","tp":"CS","ts":"2023-06-06T11:08:13Z","tX":504,"tY":353,"tags":{"name":"Camping Le Roc de l'Hervieu","source":"Bing","website":"https://www.campinglerocdelhervieu.fr/"}},"290773727":{"location":[48.5948178,-2.4839941],"ct":"FR","tp":"CS","ts":"2021-11-14T17:45:34Z","tX":504,"tY":353,"tags":{"capacity":"140","email":"info@campingbellevue.fr","name":"Camping Bellevue","phone":"+33 2 96 72 33 04","ref:FR:CG22":"HPABRE0220Y00013","source":"CG22","stars":"4","website":"https://www.campingbellevue.fr/"}},"290773956":{"location":[48.5822689,-2.8049614],"ct":"FR","tp":"CS","ts":"2023-10-27T04:17:05Z","tX":504,"tY":353,"tags":{"camp_site":"serviced","capacity":"95","caravans":"yes","email":"campinglesmadieres@wanadoo.fr","internet_access":"wlan","internet_access:fee":"no","name":"Camping Les Madières","phone":"+33 2 96 79 02 48","ref:FR:CG22":"HPABRE0220Y00092","stars":"3","tents":"yes","website":"https://campinglesmadieres.com/"}},"313574484":{"location":[48.5464257,-2.5216944],"ct":"FR","tp":"CS","ts":"2012-03-16T21:36:18Z","tX":504,"tY":353,"tags":{"created_by":"Merkaartor 0.12","name":"Camping de Saint-Vreguet"}},"318422339":{"location":[48.6068728,-2.4641246],"ct":"FR","tp":"CS","ts":"2021-05-14T17:10:50Z","tX":504,"tY":353,"tags":{"name":"Camping Le Pusset","phone":"+33 6 61 30 88 15","source:website":"https://diffuseur.datatourisme.gouv.fr/webservice/1de21daee06d4c4d126bbf53bc000597/8031c032-1fdc-4068-9d0f-345131f4fc22","website":"http://www.campingdupusset.fr/"}},"319477029":{"location":[48.5332911,-2.6719485],"ct":"FR","tp":"CS","ts":"2020-04-29T20:46:19Z","tX":504,"tY":353,"tags":{"internet_access":"yes","name":"Bellevue Mer","phone":"+33 2 96 32 20 39","stars":"3","website":"https://www.bellevuemer.com"}},"349635254":{"location":[48.534208,-2.5450349],"ct":"FR","tp":"CR","ts":"2024-09-26T13:22:05Z","tX":504,"tY":353,"tags":{"capacity":"6","caravan_site":"motorhome_stopover","caravan_site:type":"farm_shop","caravans":"no","facebook":"https://www.facebook.com/Bienyvient/","fee":"yes","internet_access":"no","name":"LA Ferne de Bien-y-Vient","product":"beef","sanitary_dump_station":"no","surface":"grass","tents":"no"}},"425935262":{"location":[48.5250766,-2.6566938],"ct":"FR","tp":"CS","ts":"2023-08-15T20:52:40Z","tX":504,"tY":353,"tags":{"caravans":"yes","email":"campingnaturedo@gmail.com","mobile":"+33 6 33 83 53 30","name":"Camping Village Nature d'O","payment:cash":"yes","payment:debit_cards":"yes","tents":"yes"}},"427363427":{"location":[48.5006274,-2.7611062],"ct":"FR","tp":"CS","ts":"2024-05-28T19:58:16Z","tX":504,"tY":353,"tags":{"addr:city":"Saint-Brieuc","addr:postcode":"22000","caravans":"yes","email":"contact@camping-desvallees.com","fee":"yes","mobile":"+33 6 77 89 06 38","name":"Camping des Vallées","phone":"+33 2 96 94 05 05","source":"cadastre-dgi-fr source : Direction Générale des Impôts - Cadastre. Mise à jour : 2020","source:website":"https://diffuseur.datatourisme.gouv.fr/webservice/1de21daee06d4c4d126bbf53bc000597/8031c032-1fdc-4068-9d0f-345131f4fc22","static_caravans":"yes","tents":"yes","website":"https://www.camping-desvallees.com/"}},"466082408":{"location":[48.5310891,-2.6639929],"ct":"FR","tp":"CR","ts":"2024-12-10T00:34:43Z","tX":504,"tY":353,"tags":{"caravan_site":"motorhome_stopover","caravan_site:type":"beach","fee":"no","maxstay":"48 hours","name":"Aire de pique-nique et de stationnement de Lermot","picnic_table":"yes","sanitary_dump_station":"yes","toilets":"yes","website":"https://www.cotesdarmor.com/fr/fiche/aires/aire-de-pique-nique-et-de-stationnement-de-lermot-hillion_TFOB0018BRE02200006/"}},"472167464":{"location":[48.5686821,-2.5651431],"ct":"FR","tp":"CS","ts":"2022-06-27T13:50:03Z","tX":504,"tY":353,"tags":{"addr:city":"Saint-Alban","addr:housenumber":"7","addr:postcode":"22400","addr:street":"Le Pourpray","email":"lafermedupourpray22400@gmail.com","name":"Camping du Pourpray","phone":"+33 2 96 63 08 62","source":"cadastre-dgi-fr source : Direction Générale des Impôts - Cadastre;mise à jour : 2008","source:website":"https://diffuseur.datatourisme.gouv.fr/webservice/1de21daee06d4c4d126bbf53bc000597/8031c032-1fdc-4068-9d0f-345131f4fc22","website":"https://www.la-ferme-du-pourpray.fr/lair-naturelle-de-camping-de-la-ferme-du-pourpray/"}},"473232431":{"location":[48.5928279,-2.517412],"ct":"FR","tp":"CS","ts":"2019-03-19T14:46:48Z","tX":504,"tY":353,"tags":{"addr:city":"Pléneuf Val André","addr:postcode":"22370","name":"Parc résidentiel de la Vallée du Preto","note":"Chalet","phone":"+33296631979","source":"RLM","website":"https://www.parc-du-preto.com/"}},"478657954":{"location":[48.5479476,-2.5976549],"ct":"FR","tp":"CR","ts":"2024-10-08T16:26:36Z","tX":504,"tY":353,"tags":{"caravan_site":"motorhome_stopover","caravan_site:type":"countryside","charge":"12 EUR","dog":"yes","fee":"yes","name":"Aire d'accueil pour camping-car de Planguenoual","name:br":"Tachenn-gampiñ Kêr","network":"AirePark","opening_hours":"24/7","power_supply":"yes","source:name:br":"proper translation","water_point":"yes","website":"https://www.aireparkreservation.com/aires-camping-cars/bretagne/cotes-armor/planguenoual"}},"729366988":{"location":[48.5680138,-2.7748076],"ct":"FR","tp":"CS","ts":"2024-05-24T10:52:05Z","tX":504,"tY":353,"tags":{"capacity":"45","caravans":"yes","description":"Camping associatif n'acceptant que les membres. Adhésion ouverte à tous","name":"GCU Tournemine","operator":"Groupement des Campeurs Universitaires","phone":"+33 2 96 74 58 43","sanitary_dump_station":"customers","stars":"2","static_caravans":"no","tents":"yes","website":"https://www.gcu.asso.fr/terrains/tournemine-en-plérin-côtes-darmor-22","wheelchair":"yes"}},"822994809":{"location":[48.5562294,-2.7617962],"ct":"FR","tp":"CS","ts":"2024-07-20T05:58:02Z","tX":504,"tY":353,"tags":{"addr:city":"Plérin","addr:housenumber":"4","addr:postcode":"22190","addr:street":"Rue de la Ville Ernault","cabins":"yes","capacity":"31","caravans":"yes","drinking_water":"yes","email":"contact@camping-cotesdarmor-lesmouettes.com","name":"Les Mouettes","opening_hours":"Apr 30 - Sep 8","phone":"+33 2 96 94 05 05","shower":"yes","stars":"2","static_caravans":"yes","tents":"yes","toilets":"yes","website":"https://www.camping-cotesdarmor-lesmouettes.com"}},"965316721":{"location":[48.5834082,-2.5572515],"ct":"FR","tp":"CR","ts":"2024-05-13T10:25:52Z","tX":504,"tY":353,"tags":{"caravan_site":"motorhome_stopover","caravan_site:type":"village","charge":"12.55 EUR","dog":"yes","fee":"yes","internet_access":"wlan","maxstay":"5 nights","name":"Aire de Campingcars Guémadeuc","name:nl":"Camperplaats Guémaleuc","opening_hours":"24/7","payment:credit_cards":"yes","power_supply":"yes","sanitary_dump_station":"yes","seasonal":"no","water_point":"yes"}},"967059956":{"location":[48.5683994,-2.7707323],"ct":"FR","tp":"SD","ts":"2024-09-09T17:41:33Z","tX":504,"tY":353,"tags":{"access":"yes","fee":"no","sanitary_dump_station:chemical_toilet":"yes","sanitary_dump_station:grey_water":"yes"}},"967059961":{"location":[48.5664,-2.7707111],"ct":"FR","tp":"CR","ts":"2024-09-26T16:38:41Z","tX":504,"tY":353,"tags":{"capacity":"8","caravan_site":"motorhome_stopover","caravan_site:type":"beach","caravans":"no","fee":"no","name":"Aire de Tournemine","picnic_table":"yes","sanitary_dump_station":"no","tents":"no"}},"968842924":{"location":[48.6048136,-2.4874579],"ct":"FR","tp":"CS","ts":"2021-11-15T22:40:05Z","tX":504,"tY":353,"tags":{}},"968842925":{"location":[48.6061278,-2.4878709],"ct":"FR","tp":"CS","ts":"2021-11-15T22:40:05Z","tX":504,"tY":353,"tags":{}},"1001164978":{"location":[48.6237282,-2.4642688],"ct":"FR","tp":"CS","ts":"2021-11-10T17:17:26Z","tX":504,"tY":353,"tags":{}},"1003724920":{"location":[48.6097635,-2.4768551],"ct":"FR","tp":"CS","ts":"2021-11-17T21:45:47Z","tX":504,"tY":353,"tags":{"email":"jessica.lesroches@gmail.com","name":"Camping Les Roches","phone":"+33 6 87 02 47 47","source:website":"https://diffuseur.datatourisme.gouv.fr/webservice/1de21daee06d4c4d126bbf53bc000597/8031c032-1fdc-4068-9d0f-345131f4fc22","website":"https://www.facebook.com/campinglesroches/"}},"1180373889":{"location":[48.5795578,-2.8100843],"ct":"FR","tp":"CS","ts":"2024-07-11T03:14:53Z","tX":504,"tY":353,"tags":{"caravans":"no","fee":"yes","name":"Camping La petite ville","static_caravans":"yes","tents":"no","website":"https://www.campinglapetiteville.com/"}},"1193568927":{"location":[48.5466643,-2.7351542],"ct":"FR","tp":"CR","ts":"2024-12-09T23:52:02Z","tX":504,"tY":353,"tags":{"capacity":"22","caravan_site":"motorhome_stopover","fee":"no","motorhome":"yes","motorhome:overnight":"yes","name":"Aire de stationnement du Roselier","website":"https://www.baiedesaintbrieuc.com/sit/aire-de-stationnement-du-roselier/"}},"1328219295":{"location":[48.5396762,-2.7266246],"ct":"FR","tp":"CR","ts":"2024-12-09T23:17:39Z","tX":504,"tY":353,"tags":{"capacity":"7","caravan_site":"motorhome_stopover","caravan_site:type":"beach","fee":"no","name":"Aire Camping-Car Saint-Laurent de la Mer","sanitary_dump_station":"yes","sanitary_dump_station:chemical_toilet":"yes","sanitary_dump_station:grey_water":"yes","surface":"asphalt","water_point":"yes","water_point:fee":"yes","website":"https://www.baiedesaintbrieuc.com/sit/aire-de-stationnement-de-st-laurent-de-la-mer/"}},"5208411121":{"location":[48.4825984,-2.6465566],"ct":"FR","tp":"CS","ts":"2017-11-03T14:02:08Z","tX":504,"tY":353,"tags":{"name":"Stalaven"}},"8731541805":{"location":[48.604301,-2.489444],"ct":"FR","tp":"CS","ts":"2021-06-06T15:44:06Z","tX":504,"tY":353,"tags":{"email":"campinglavalleeerquy@wanadoo.fr","name":"Camping La Vallée","phone":"+33 6 26 62 22 15","source":"https://diffuseur.datatourisme.gouv.fr/webservice/1de21daee06d4c4d126bbf53bc000597/8031c032-1fdc-4068-9d0f-345131f4fc22","website":"https://www.campinglavallee.fr/"}},"8984051979":{"location":[48.5632119,-2.4652287],"ct":"FR","tp":"CS","ts":"2021-08-05T18:45:15Z","tX":504,"tY":353,"tags":{"addr:city":"Hénansal","addr:postcode":"22400","addr:street":"La Bonnaie","name":"Camping Naturiste de la Bonnaie","phone":"+33667485047"}},"9952429343":{"location":[48.554897,-2.7625257],"ct":"FR","tp":"CS","ts":"2024-05-28T20:38:52Z","tX":504,"tY":353,"tags":{"addr:city":"Plérin","addr:housenumber":"3 B","addr:postcode":"22190","addr:street":"Chemin de Cadoret","caravans":"yes","email":"campingdesrosaires@hotmail.fr","fee":"yes","mobile":"+33 6 76 59 91 29","name":"Camping des Rosaires","phone":"+33 2 96 58 64 90","static_caravans":"yes","tents":"yes","website":"https://campingdesrosaires.jimdofree.com"}},"7113969637":{"location":[48.5395981,-2.7264706],"ct":"FR","tp":"SD","ts":"2024-10-25T18:55:32Z","tX":504,"tY":353,"tags":{"access":"yes","fee":"no","water_point":"yes","water_point:fee":"yes"}},"11900806902":{"location":[48.5480529,-2.5978978],"ct":"FR","tp":"SD","ts":"2024-05-13T10:36:09Z","tX":504,"tY":353,"tags":{}},"11987700681":{"location":[48.5788324,-2.5510249],"ct":"FR","tp":"SD","ts":"2024-06-17T14:49:45Z","tX":504,"tY":353,"tags":{"access":"yes","fee":"yes","seasonal":"no","water_point":"yes","water_point:charge":"2 EUR","water_point:fee":"yes"}}}