{"606982036":{"location":[48.4223286,-2.6621956],"ct":"FR","tp":"SD","ts":"2018-07-11T08:48:32Z","tX":504,"tY":354,"tags":{"access":"yes","addr:city":"Quessoy","addr:postcode":"22120","addr:street":"Rue de l'Hôtel Girault","fee":"no","operator":"commune de Quessoy","water_point":"no"}},"1198600877":{"location":[48.3520443,-2.6381149],"ct":"FR","tp":"CS","ts":"2023-08-16T11:29:52Z","tX":504,"tY":354,"tags":{"addr:city":"Montcontour","addr:place":"Le Pont des Vallées Plémy","addr:postcode":"22510","email":"camping@pays-montcontour.com","fax":"+33 2 96 73 50 65","internet_access":"wlan","internet_access:fee":"no","name":"Camping La Tourelle","operator":"Communauté du Pays de Montcontour","phone":"+33 2 96 73 50 65","source":"Association Tourisme et Handicaps","stars":"3","website":"https://www.campinglatourelle.com/","wheelchair":"yes"}},"1198643070":{"location":[48.3621369,-2.6285386],"ct":"FR","tp":"PK","ts":"2023-08-16T13:31:23Z","tX":504,"tY":354,"tags":{"fee":"no","motorhome":"yes","name":"Charles Berthelot du Chesnay","surface":"gravel"}},"1327609993":{"location":[48.4021147,-2.7390752],"ct":"FR","tp":"CR","ts":"2024-10-23T19:30:12Z","tX":504,"tY":354,"tags":{"capacity":"6","caravan_site":"motorhome_stopover","caravan_site:type":"lake","caravans":"no","fee":"no","name":"Aire de stationnement de l’étang du Plessis - Saint Carreuc","opening_hours":"24/7","power_supply":"yes","power_supply:fee":"no","power_supply:maxtime":"1 hour","seasonal":"no","tents":"no","water_point":"yes","water_point:fee":"no","website":"https://www.baiedesaintbrieuc.com/sit/aire-de-pique-nique-et-de-stationnement-de-letang-du-plessis/"}},"4258458482":{"location":[48.2793924,-2.7015226],"ct":"FR","tp":"SD","ts":"2023-01-23T22:19:00Z","tX":504,"tY":354,"tags":{"access":"yes"}},"8740342217":{"location":[48.2654089,-2.7046913],"ct":"FR","tp":"CS","ts":"2021-08-01T22:39:52Z","tX":504,"tY":354,"tags":{"name":"Camping Garmorin","phone":"+33 6 79 47 39 11","website":"https://garmorin.wordpress.com/"}},"8740342218":{"location":[48.2858791,-2.7227291],"ct":"FR","tp":"CS","ts":"2021-05-17T19:37:24Z","tX":504,"tY":354,"tags":{"email":"rapinabre@gmail.com","name":"Pinabre Camping et Caravan Site","phone":"+33 7 80 02 35 58","website":"https://campgite-brittany.com/"}},"8740342219":{"location":[48.3171834,-2.6823485],"ct":"FR","tp":"CS","ts":"2021-05-17T19:37:24Z","tX":504,"tY":354,"tags":{"email":"getesse@club-internet.fr","name":"Ferme de la Petite Croix (mobil-home)","phone":"+33 6 09 10 36 17"}},"12202393460":{"location":[48.343831,-2.7566631],"ct":"FR","tp":"CR","ts":"2024-09-26T19:07:25Z","tX":504,"tY":354,"tags":{"caravan_site":"motorhome_stopover","caravan_site:type":"village","name":"Aire de stationnement de Ploeuc-L’Hermitage","power_supply":"no","seasonal":"no","tents":"no","website":"https://www.cotesdarmor.com/fr/fiche/aires/aire-de-stationnement-de-ploeuc-l-hermitage-ploeuc-l-hermitage_TFOB0018BRE022V5380TY/"}},"12282552824":{"location":[48.4022193,-2.7391121],"ct":"FR","tp":"SD","ts":"2024-10-23T19:30:12Z","tX":504,"tY":354,"tags":{"access":"yes","fee":"no","water_point":"yes"}}}