{"10581093":{"location":[47.6214048,-2.8003292],"ct":"FR","tp":"CS","ts":"2024-12-18T23:39:09Z","tX":504,"tY":357,"tags":{"caravans":"yes","fee":"yes","name":"Camping de Penboc'h","name:br":"Tachad-kampiñ Penboc'h","opening_hours":"Apr-Sep","phone":"+33 2 97 44 71 29","source:name:br":"proper translation","stars":"4","swimming_pool":"covered","tents":"yes","website":"https://www.camping-penboch.fr"}},"10581107":{"location":[47.621997,-2.8024359],"ct":"FR","tp":"CS","ts":"2024-12-18T23:39:09Z","tX":504,"tY":357,"tags":{"fixme":"Coordonnées ?"}},"42014832":{"location":[47.6651291,-2.5655271],"ct":"FR","tp":"CS","ts":"2013-08-16T16:28:46Z","tX":504,"tY":357,"tags":{"name":"Village Détente La Lande du Moulin","url":"http://www.la-lande-du-moulin.com/"}},"126214000":{"location":[47.62783,-2.7388467],"ct":"FR","tp":"CS","ts":"2024-11-24T18:27:39Z","tX":504,"tY":357,"tags":{"caravans":"yes","drinking_water":"yes","name":"Camping Le Moulin de Cantizac","name:br":"Tachad-Kampiñ Melin Kantizag","power_supply":"yes","shower":"yes","source:name:br":"proper translation","tents":"yes","toilets:wheelchair":"yes","website":"https://camping-vannes.com/","wheelchair":"yes"}},"127731531":{"location":[47.5208892,-2.5970269],"ct":"FR","tp":"CS","ts":"2025-03-19T22:21:37Z","tX":504,"tY":357,"tags":{"caravans":"yes","contact:housenumber":"20","contact:street":"Allée des Yribs","fee":"yes","name":"Camping de l'Île","name:br":"Takad-gampiñ an Enez","phone":"+33 2 97 41 07 85","source:name:br":"proper translation","tents":"yes","website":"https://le-camping-de-lile.business.site/"}},"176873312":{"location":[47.5382646,-2.5708971],"ct":"FR","tp":"CS","ts":"2022-08-27T09:05:14Z","tX":504,"tY":357,"tags":{"capacity:caravans":"63","caravans":"yes","fee":"yes","opening_hours":"Apr-Oct","phone":"+33 2 97 41 15 90","swimming_pool":"outdoor","tents":"yes","website":"https://campinglekermadec.com/"}},"176873316":{"location":[47.5455178,-2.5688375],"ct":"FR","tp":"CS","ts":"2022-07-01T08:13:07Z","tX":504,"tY":357,"tags":{"fixme":"coordonnées ?","name":"Camp air naturelle","stars":"2"}},"181155454":{"location":[47.5577873,-2.5061617],"ct":"FR","tp":"CS","ts":"2024-09-08T10:54:10Z","tX":504,"tY":357,"tags":{"caravans":"no","name":"Le Relais de l'Océan","source":"bing et connaissance locale","static_caravans":"yes","tents":"no"}},"181518795":{"location":[47.5256542,-2.5089397],"ct":"FR","tp":"CS","ts":"2022-08-27T09:05:14Z","tX":504,"tY":357,"tags":{"fee":"yes","name":"Les Goélands","phone":"+33 2 97 48 69 43","stars":"2","swimming_pool":"covered","website":"https://www.campinglesgoelands.com/"}},"181519391":{"location":[47.5260926,-2.525054],"ct":"FR","tp":"CS","ts":"2022-08-27T09:05:14Z","tX":504,"tY":357,"tags":{"name":"Camping de Cromenac'h","opening_hours":"Apr-Oct","phone":"+33 2 97 41 67 47","website":"https://www.villagedecromenach.com/"}},"183249014":{"location":[47.6128639,-2.4997594],"ct":"FR","tp":"CS","ts":"2023-07-21T09:55:24Z","tX":504,"tY":357,"tags":{"caravans":"yes","drinking_water":"yes","name":"Camping du Moulin de Cadillac","power_supply":"yes","shower":"yes","source":"bing","tents":"yes","toilets":"yes"}},"183387309":{"location":[47.5327643,-2.5365971],"ct":"FR","tp":"CS","ts":"2023-03-30T06:19:36Z","tX":504,"tY":357,"tags":{"cabins":"yes","caravans":"yes","fee":"yes","name":"Camping de la Tour","phone":"+33 2 97 41 14 38","stars":"2","tents":"yes","toilets":"yes","website":"https://camping-delatour.bzh/"}},"183387336":{"location":[47.5312442,-2.5426748],"ct":"FR","tp":"CS","ts":"2022-07-07T08:38:21Z","tX":504,"tY":357,"tags":{"fee":"yes","name":"L'Escale","phone":"+33 2 97 41 16 25","source":"cadastre-dgi-fr source : Direction Générale des Impôts - Cadastre;mise à jour : 2020;survey","stars":"2","website":"https://www.campingescale.com/"}},"188356631":{"location":[47.6338064,-2.7793792],"ct":"FR","tp":"CS","ts":"2024-05-18T14:06:42Z","tX":504,"tY":357,"tags":{"addr:housenumber":"188","addr:street":"Avenue du Maréchal Juin","caravans":"yes","drinking_water":"yes","name":"Camping le Conleau","name:br":"Takad-gampiñ Koulev","phone":"+33 2 97 63 13 88","shower":"yes","source":"Bing","source:name:br":"proper translation","stars":"4","swimming_pool":"covered","tents":"yes","website":"https://www.vannes-camping.com/"}},"188819882":{"location":[47.5287426,-2.4902067],"ct":"FR","tp":"CS","ts":"2023-10-28T05:11:09Z","tX":504,"tY":357,"tags":{"cabins":"yes","caravans":"yes","fee":"yes","mobile":"+33 6 08 81 99 65","motorhome":"yes","name":"Camping La Guérandière","phone":"+33 2 97 41 60 06; +33 9 71 57 94 03","shower":"yes","stars":"2","swimming_pool":"outdoor","tents":"yes","toilets":"yes","website":"https://www.laguerandiere.fr/"}},"209103749":{"location":[47.6407662,-2.6945602],"ct":"FR","tp":"CS","ts":"2024-12-12T13:59:46Z","tX":504,"tY":357,"tags":{"addr:city":"Theix-Noyalo","addr:postcode":"56450","addr:street":"Rue Duguay Trouin","fee":"yes","name":"Camping de Rhuys","name:br":"Tachenn-gampiñ Rewiz","source:name:br":"proper translation"}},"223111255":{"location":[47.5222442,-2.594013],"ct":"FR","tp":"CS","ts":"2025-03-14T11:58:52Z","tX":504,"tY":357,"tags":{"caravans":"yes","fee":"yes","motorhome":"yes","name":"Grand Air Cadu","opening_hours":"Apr-Oct","phone":"+33 2 97 41 17 30","stars":"3","tents":"yes","website":"https://campingcadu.com/"}},"231225462":{"location":[47.5232933,-2.798509],"ct":"FR","tp":"CS","ts":"2024-11-07T11:13:10Z","tX":504,"tY":357,"tags":{"addr:city":"Sarzeau","addr:postcode":"56370","addr:street":"Le Bas Bohat","caravans":"no","fee":"yes","name":"Capfun Lodge","phone":"+33 2 97 41 29 93","static_caravans":"yes","tents":"no","website":"https://www.lodgeclub.fr/"}},"236475422":{"location":[47.5221197,-2.5966843],"ct":"FR","tp":"CS","ts":"2025-03-14T11:58:52Z","tX":504,"tY":357,"tags":{"capacity:caravans":"100","caravans":"yes","fee":"yes","motorhome":"yes","name":"Clos Nenn","opening_hours":"Apr-Oct","phone":"+33 2 97 41 16 59","sanitary_dump_station":"yes","stars":"3","tents":"yes","website":"https://www.camping-closnenn.bzh/"}},"245342008":{"location":[47.7030166,-2.6592109],"ct":"FR","tp":"CR","ts":"2024-09-21T00:28:15Z","tX":504,"tY":357,"tags":{"capacity":"12","caravan_site":"motorhome_stopover","caravan_site:type":"village","caravans":"no","charge":"11.10 EUR","fee":"yes","maxstay":"72 hours","name":"Aire de Camping-Car de Saint-Nolff","opening_hours":"24/7","sanitary_dump_station":"yes","tents":"no"}},"272755833":{"location":[47.5262898,-2.5440743],"ct":"FR","tp":"CS","ts":"2023-08-14T19:45:38Z","tX":504,"tY":357,"tags":{"caravans":"yes","drinking_water":"yes","name":"Ker Yaoulet","opening_hours":"Apr-Sep","phone":"+33 2 97 41 06 92","shower":"yes","stars":"3","tents":"yes","toilets":"yes","website":"https://www.camping-keryaoulet.com/"}},"272805842":{"location":[47.5367293,-2.5454326],"ct":"FR","tp":"CS","ts":"2024-10-08T10:25:07Z","tX":504,"tY":357,"tags":{"cabins":"yes","caravans":"yes","email":"campingdulittoral@gmail.com","landuse":"residential","motorhome":"yes","name":"Camping Du Littoral","old_name":"Camping Ker Eugene","phone":"+33 2 97 41 14 74","shower":"yes","static_caravans":"yes","tents":"yes","toilets":"yes","website":"https://www.campingdulittoral.com/"}},"272805845":{"location":[47.5245243,-2.5493944],"ct":"FR","tp":"CS","ts":"2025-03-14T22:06:00Z","tX":504,"tY":357,"tags":{"access":"private","caravans":"no","description":"Mobile-homes seulement","landuse":"residential","motorhome":"no","name":"Mar Atlantisper","permanent_camping":"only","residential":"trailer_park","static_caravans":"yes","tents":"no"}},"280287554":{"location":[47.5831639,-2.6319314],"ct":"FR","tp":"CR","ts":"2024-10-09T13:53:57Z","tX":504,"tY":357,"tags":{"caravan_site":"motorhome_stopover","caravan_site:type":"village","charge":"12.30 EUR","fee":"yes","laundry":"yes","name":"Aire de camping-cars de Lann Floren","opening_hours":"24/7","phone":"+33 6 31 40 19 26","power_supply":"yes","sanitary_dump_station":"yes","water_point":"yes","website":"https://www.etape-camping-cars.fr/"}},"299634498":{"location":[47.5200431,-2.5956354],"ct":"FR","tp":"CS","ts":"2022-08-27T09:05:14Z","tX":504,"tY":357,"tags":{"caravans":"yes","fee":"yes","motorhome":"yes","name":"Camping de la plage","name:br":"Takad-gampiñ an Draezhenn","phone":"+33 2 97 48 10 41","source:name:br":"proper translation","stars":"3","tents":"yes","website":"https://www.camping-damgan.com/"}},"299712562":{"location":[47.5242558,-2.5427183],"ct":"FR","tp":"CR","ts":"2024-09-23T11:25:42Z","tX":504,"tY":357,"tags":{"capacity":"10","caravan_site":"motorhome_stopover","caravan_site:type":"beach","caravans":"no","charge":"6 EUR","fee":"yes","fee:conditional":"no@(\"winter\")","maxstay":"48 hours","name":"Aire de stationnement d’Ambon","power_supply":"no","sanitary_dump_station":"no","supervised":"no","surface":"fine_gravel","tents":"no","toilets":"yes","water_point":"no","website":"https://www.damgan-larochebernard-tourisme.com/aires-camping-cars/aire-de-stationnement-dambon/"}},"299835459":{"location":[47.5180589,-2.5496161],"ct":"FR","tp":"CS","ts":"2022-07-07T08:38:21Z","tX":504,"tY":357,"tags":{"caravans":"yes","fee":"yes","name":"Camping L'Oasis","name:br":"Takad-gampiñ an Oaziz","opening_hours":"Apr-Oct","phone":"+33 2 97 41 10 52","shower":"yes","source:name:br":"proper translation","stars":"2","tents":"yes","website":"https://www.campingloasis.com/"}},"299835462":{"location":[47.5196388,-2.5733276],"ct":"FR","tp":"CS","ts":"2025-03-18T19:57:46Z","tX":504,"tY":357,"tags":{"contact:housenumber":"25","contact:street":"Rue des Écoles","fee":"yes","name":"Célimène","opening_hours":"Apr-Sep","phone":"+33 297411107","stars":"2","website":"https://www.camping-celimene.fr/"}},"301436585":{"location":[47.5266022,-2.5680384],"ct":"FR","tp":"CS","ts":"2022-07-01T07:54:31Z","tX":504,"tY":357,"tags":{"caravans":"no","description":"Mobil-homes seulement","landuse":"residential","motorhome":"no","name":"Les Ajoncs d'Or","phone":"+33 2 97 41 24 99","residential":"trailer_park","static_caravans":"yes","tents":"no","website":"https://www.campingdamgan.com/"}},"303740025":{"location":[47.5270062,-2.513077],"ct":"FR","tp":"CS","ts":"2020-11-24T15:03:27Z","tX":504,"tY":357,"tags":{"caravans":"no","description":"Mobil-homes seulement","motorhome":"no","name":"Camping Le Bédume","static_caravans":"yes","tents":"no"}},"389844114":{"location":[47.5308822,-2.4812546],"ct":"FR","tp":"CS","ts":"2022-08-27T09:05:14Z","tX":504,"tY":357,"tags":{"capacity:caravans":"20","fee":"yes","name":"Nature Océan","phone":"+33 2 97 41 56 07","stars":"3","website":"https://www.camping-natureocean.fr/"}},"498076056":{"location":[47.5883287,-2.6173445],"ct":"FR","tp":"CS","ts":"2017-06-04T17:10:59Z","tX":504,"tY":357,"tags":{"caravans":"yes","contact:city":"Surzur","contact:email":"contact@camping-tycoet.com","contact:housenumber":"38","contact:postcode":"56450","contact:street":"Rue du Bois","contact:website":"http://www.camping-tycoet.com/","fee":"yes","name":"Ty Coët","openfire":"no","opening_hours":"Mar 01-Nov 15","stars":"3","tents":"yes"}},"703393060":{"location":[47.7390418,-2.5819111],"ct":"FR","tp":"CR","ts":"2024-09-23T19:21:11Z","tX":504,"tY":357,"tags":{"capacity":"12","caravan_site":"motorhome_stopover","caravan_site:type":"village","caravans":"no","fee":"no","name":"Aire de camping-car - Elven","picnic_table":"yes","power_supply":"yes","power_supply:fee":"no","sanitary_dump_station":"yes","tents":"no","water_point":"yes","water_point:fee":"no","website":"https://www.elven.bzh/aire-de-camping-car/"}},"727542763":{"location":[47.6631975,-2.4702324],"ct":"FR","tp":"CR","ts":"2024-09-23T11:14:28Z","tX":504,"tY":357,"tags":{"caravan_site":"motorhome_stopover","caravan_site:type":"forest","charge":"7.60 EUR","charge:conditional":"5.60 EUR @(Oct-Apr)","fee":"yes","name":"Aire de camping-cars de Celac","network":"AirePark","playground":"yes","power_supply":"yes","reservation":"yes","sanitary_dump_station":"yes","toilets":"yes","water_point":"yes","website":"https://www.rochefortenterre-tourisme.bzh/offres/aire-communale-de-questembert-questembert-fr-3036779/"}},"775775498":{"location":[47.5295155,-2.5110418],"ct":"FR","tp":"CS","ts":"2022-08-18T07:30:39Z","tX":504,"tY":357,"tags":{"name":"Camp de Loisirs Prat Bras"}},"775791271":{"location":[47.5190914,-2.6512912],"ct":"FR","tp":"CS","ts":"2023-10-28T05:11:13Z","tX":504,"tY":357,"tags":{"capacity:caravans":"150","caravans":"yes","fee":"yes","mobile":"+33 6 74 14 67 53","name":"Camping municipal du Roch Vétür","phone":"+33 2 97 67 30 88; +33 2 97 67 30 01","shower":"yes","source":"survey","tents":"yes","toilets":"yes","website":"https://www.camping-letourduparc.fr/"}},"775791273":{"location":[47.521457,-2.6576547],"ct":"FR","tp":"CS","ts":"2022-08-27T09:05:14Z","tX":504,"tY":357,"tags":{"caravans":"yes","name":"Le Cadran Solaire","opening_hours":"Apr-Nov","phone":"+33 2 97 67 30 40","source":"knowledge","stars":"3","tents":"yes","website":"https://www.campingcadransolaire.fr/"}},"839716769":{"location":[47.6400226,-2.654471],"ct":"FR","tp":"CS","ts":"2021-10-01T20:42:57Z","tX":504,"tY":357,"tags":{"addr:city":"Theix-Noyalo","addr:postcode":"56450","addr:street":"Le Marais, Lann Mondeu Bras","caravans":"yes","contact:email":"clerigo@vannescamping.com","contact:phone":"+33 7 68 92 96 83","contact:website":"http://vannescamping.com","disused:name":"Camping la Peupleraie","name":"Camping du Clérigo","operator":"S.A.R.L. Er Velin","source":"data.gouv.fr:DATAtourisme - 05/2020","stars":"2","tents":"yes","website":"http://vannescamping.com","wheelchair":"yes"}},"863807758":{"location":[47.5210219,-2.6034124],"ct":"FR","tp":"CS","ts":"2022-07-01T07:54:31Z","tX":504,"tY":357,"tags":{"caravans":"yes","name":"Le Cosquer","name:br":"Ar Gozhkêr","phone":"+33 2 97 41 25 29","source:name:br":"proper translation","tents":"yes","website":"https://aire-naturelle-le-cosquer-camping-a-la-ferme.business.site/"}},"866370904":{"location":[47.5309746,-2.5402499],"ct":"FR","tp":"CS","ts":"2023-04-24T06:45:12Z","tX":504,"tY":357,"tags":{"name":"Ty Camping","phone":"+33 2 97 41 01 49"}},"866370905":{"location":[47.531409,-2.5393493],"ct":"FR","tp":"CS","ts":"2024-11-12T20:29:20Z","tX":504,"tY":357,"tags":{"name":"Bellevue","name:br":"Gwel Kaer","source:name:br":"proper translation","website":"https://www.bellevue-camping-ambon.fr/"}},"911458420":{"location":[47.6886,-2.5433137],"ct":"FR","tp":"PK","ts":"2024-10-05T12:52:58Z","tX":504,"tY":357,"tags":{"access":"yes","addr:city":"La Vraie-Croix","addr:postcode":"56250","addr:street":"Rue du Pont Palais","capacity":"6","fee":"no","maxstay":"no","motorhome":"yes","motorhome:overnight":"yes","operator":"Ville de La Vraie-Croix","power_supply":"no","supervised":"no","water_point":"yes","wikidata":"Q116977231"}},"911458421":{"location":[47.689305,-2.5369004],"ct":"FR","tp":"CR","ts":"2024-10-25T21:39:37Z","tX":504,"tY":357,"tags":{"access":"yes","addr:city":"La Vraie-Croix","addr:postcode":"56250","addr:street":"La Gerbe de Blé","capacity":"6","caravan_site":"motorhome_stopover","caravan_site:type":"village","fee":"no","maxstay":"no","name":"La Vraie-Croix - La Gerbe de Blé","operator":"Ville de La Vraie-Croix","power_supply":"no","sanitary_dump_station":"yes","sanitary_dump_station:chemical_toilet":"yes","sanitary_dump_station:grey_water":"yes","sanitary_dump_station:round_drain":"yes","supervised":"no","water_point":"yes","website":"https://www.lavraiecroix.bzh/equipement-services/l-aire-de-camping-car","wikidata":"Q116971476","wikimedia_commons":"File:Theix-Noyal_-_motorhome_parking_(48586806926).jpg"}},"911459889":{"location":[47.6774783,-2.5666802],"ct":"FR","tp":"CR","ts":"2024-09-23T19:18:27Z","tX":504,"tY":357,"tags":{"access":"yes","addr:city":"Sulniac","addr:postcode":"56250","addr:street":"Rue des Écoles","capacity":"10","caravan_site":"motorhome_stopover","caravan_site:type":"parking_lot","caravans":"no","description":"Aire de camping-car.","fee":"no","maxstay":"no","name":"Sulniac, Morbihan Aire Municipale","operator":"Ville de Sulniac","power_supply":"no","sanitary_dump_station":"yes","sanitary_dump_station:chemical_toilet":"no","sanitary_dump_station:grey_water":"yes","sanitary_dump_station:round_drain":"yes","supervised":"no","tents":"no","water_point":"yes"}},"911466628":{"location":[47.6270411,-2.6616047],"ct":"FR","tp":"CR","ts":"2023-12-18T16:19:27Z","tX":504,"tY":357,"tags":{"access":"yes","addr:city":"Theix","addr:postcode":"56450","addr:street":"Rue le Goavert","capacity":"4","caravan_site":"motorhome_stopover","caravan_site:type":"town","fee":"no","maxstay":"no","name":"Aire de camping-car Theix-Noyalo - Rue Le Goavert","opening_hours":"24/7","operator":"Ville de Theix","power_supply":"no","sanitary_dump_station":"yes","sanitary_dump_station:chemical_toilet":"yes","sanitary_dump_station:grey_water":"yes","sanitary_dump_station:round_drain":"yes","seasonal":"no","supervised":"no","toilets":"no","water_point":"yes","wheelchair":"yes","wikidata":"Q116970187"}},"916753899":{"location":[47.5175769,-2.4797111],"ct":"FR","tp":"CS","ts":"2023-04-10T14:43:37Z","tX":504,"tY":357,"tags":{"cabins":"yes","capacity:pitches":"53","caravans":"yes","fee":"yes","mobile":"+33 6 71 31 63 16","motorhome":"yes","name":"Camping la Plage des Granges","opening_hours":"Apr-Oct","phone":"+33 2 97 45 68 23","stars":"3","swimming_pool":"covered","tents":"yes","toilets":"yes","website":"https://www.campingdelaplage.net/"}},"976108060":{"location":[47.7030667,-2.6592829],"ct":"FR","tp":"SD","ts":"2021-08-24T20:16:43Z","tX":504,"tY":357,"tags":{}},"985534803":{"location":[47.5576636,-2.5734139],"ct":"FR","tp":"CS","ts":"2022-08-27T09:05:14Z","tX":504,"tY":357,"tags":{"capacity:caravans":"48","caravans":"yes","fee":"yes","name":"Camping Le Gréarn","opening_hours":"Apr-Oct","phone":"+33 297411100","swimming_pool":"covered","tents":"yes","website":"https://www.campinglegrearn.com/"}},"985573605":{"location":[47.5571765,-2.5759104],"ct":"FR","tp":"CS","ts":"2022-08-27T09:05:14Z","tX":504,"tY":357,"tags":{"caravans":"yes","name":"Camping d'Arvor","opening_hours":"Apr-Oct","phone":"+33 2 97 41 16 69","stars":"3","swimming_pool":"covered","tents":"yes","website":"https://www.campingdarvor.com/"}},"985638353":{"location":[47.5567611,-2.5653727],"ct":"FR","tp":"CS","ts":"2022-08-27T09:05:14Z","tX":504,"tY":357,"tags":{"capacity:caravans":"196","caravans":"yes","name":"Camping Les Peupliers","phone":"+33 2 97 41 12 51","stars":"3","swimming_pool":"covered","tents":"yes","website":"https://www.campingdespeupliers.com/"}},"1001719719":{"location":[47.6057886,-2.6732264],"ct":"FR","tp":"CR","ts":"2023-12-18T16:19:27Z","tX":504,"tY":357,"tags":{"caravan_site":"motorhome_stopover","caravan_site:type":"town","fee":"no","name":"Aire de camping-car de Noyalo","opening_hours":"24/7","power_supply":"no","sanitary_dump_station":"yes","seasonal":"no","shower":"no","toilets":"no","wikidata":"Q116977298"}},"1075100465":{"location":[47.6001869,-2.7946393],"ct":"FR","tp":"CS","ts":"2022-07-01T13:07:55Z","tX":504,"tY":357,"tags":{"capacity:caravans":"73","capacity:persons":"230","capacity:tents":"15","caravans":"yes","fee":"yes","name":"Les Tamaris","operator":"Commune Ile d'Arz","phone":"+33 2 97 44 33 97","tents":"yes","website":"https://www.mairie-iledarz.fr/services/camping-municipal"}},"1125479607":{"location":[47.6280807,-2.7403907],"ct":"FR","tp":"CR","ts":"2024-11-24T18:27:39Z","tX":504,"tY":357,"tags":{"capacity":"50","caravan_site":"motorhome_stopover","caravan_site:type":"harbour","caravans":"no","charge":"17.20 EUR","charge:conditional":"12.20 EUR @(Apr-Oct)","dog":"yes","fee":"yes","name":"Aire d’étape de Vannes-Séné","opening_hours":"24/7","power_supply":"yes","power_supply:maxcurrent":"10","sanitary_dump_station":"yes","seasonal":"no","tents":"no","water_point:charge":"2 EUR","water_point:fee":"yes","website":"https://www.aire-camping-car-vannes-sene.com/"}},"1151007747":{"location":[47.6271328,-2.6616378],"ct":"FR","tp":"SD","ts":"2023-12-05T15:55:49Z","tX":504,"tY":357,"tags":{"access":"yes","description":"Station de vidange pour Camping-car.","fee":"no","operator":"Ville de Theix","sanitary_dump_station:chemical_toilet":"yes","sanitary_dump_station:grey_water":"yes","sanitary_dump_station:round_drain":"yes","water_point":"yes","wikimedia_commons":"File:Theix_-_motorhome_parking_(48586927616).jpg"}},"1151285395":{"location":[47.6893426,-2.5371274],"ct":"FR","tp":"SD","ts":"2024-10-05T12:52:58Z","tX":504,"tY":357,"tags":{"fee":"no","operator":"Ville de La Vraie-Croix","sanitary_dump_station:chemical_toilet":"yes","sanitary_dump_station:grey_water":"yes","sanitary_dump_station:round_drain":"yes","water_point":"yes"}},"1189691052":{"location":[47.6033064,-2.688633],"ct":"FR","tp":"CS","ts":"2024-05-14T19:20:52Z","tX":504,"tY":357,"tags":{"caravans":"yes","fee":"yes","name":"Camping du Golfe","sanitary_dump_station":"yes","static_caravans":"no","tents":"yes","wheelchair":"yes"}},"1232300058":{"location":[47.6329203,-2.5291894],"ct":"FR","tp":"CR","ts":"2023-12-19T01:12:50Z","tX":504,"tY":357,"tags":{"bbq":"yes","caravan_site":"motorhome_stopover","charge":"5 EUR","fee":"yes","name":"Aire de camping-car Berric","opening_hours":"24/7","power_supply":"no","sanitary_dump_station":"yes","services:charge":"2 EUR","shower":"yes","tents":"no","toilets":"yes"}},"1284411526":{"location":[47.6328443,-2.780581],"ct":"FR","tp":"CR","ts":"2024-05-18T14:06:42Z","tX":504,"tY":357,"tags":{"bbq":"no","capacity":"33","caravan_site":"motorhome_stopover","caravan_site:type":"beach","caravans":"no","dog":"leashed","fee":"yes","internet_access":"wlan","maxlength":"9","name":"Aire Vannes, Conleau","network":"CAMPING-CAR PARK","opening_hours":"24/7","power_supply":"yes","sanitary_dump_station":"yes","surface":"asphalt","tents":"no","trailer":"no","water_point":"yes","website":"https://www.campingcarpark.com/fr_FR/sejour/aire-etape-camping-car/bretagne/56-morbihan/vannes-conleau"}},"1307037008":{"location":[47.7315026,-2.7286756],"ct":"FR","tp":"CS","ts":"2024-10-04T13:30:13Z","tX":504,"tY":357,"tags":{"bbq":"yes","bin":"yes","cabins":"yes","caravans":"yes","contact:phone":"+33 2 97 44 66 06","dog":"yes","fax":"+33 2 97 44 49 41","fee":"yes","motor_vehicle":"yes","name":"Camping Les Jardins du Morbihan","nudism":"no","old_name":"Camping du Haras","opening_hours":"Mo-Th 09:00-12:00, 15:00-18:00; Fr 09:00-12:00, 15:00-19:00; Sa 09:30-12:00, 15:00-19:00; Su 09:00-12:00, 15:00-17:00","phone":"+33 2 97 44 66 06","shower":"yes","smoking":"outside","stars":"4","swimming_pool":"yes","tents":"yes","toilets":"yes","website":"https://lesjardinsdumorbihan.com/"}},"1367330357":{"location":[47.5234447,-2.5999162],"ct":"FR","tp":"CS","ts":"2025-03-14T13:22:33Z","tX":504,"tY":357,"tags":{}},"1368186669":{"location":[47.5187264,-2.5520173],"ct":"FR","tp":"CS","ts":"2025-03-16T22:07:47Z","tX":504,"tY":357,"tags":{"name":"La Petite Cale"}},"6143179247":{"location":[47.5587986,-2.5692944],"ct":"FR","tp":"CS","ts":"2023-04-10T14:43:37Z","tX":504,"tY":357,"tags":{"caravans":"yes","mobile":"+33 6 64 37 14 60","name":"Camping Brouël","name:br":"Takad-gampiñ Brouel","phone":"+33 2 97 41 10 22","source:name:br":"proper translation","swimming_pool":"outdoor","tents":"yes","website":"https://www.campingdebrouel.com/"}},"12166007573":{"location":[47.5466145,-2.7214417],"ct":"FR","tp":"CR","ts":"2024-09-09T17:57:44Z","tX":504,"tY":357,"tags":{"access":"yes","capacity":"4","caravan_site":"motorhome_stopover","caravan_site:type":"village","charge":"5.10 EUR","fee":"yes","maxstay":"48 hours","name":"Aire de service de Saint-Colombier","opening_hours":"24/7","sanitary_dump_station":"yes","seasonal":"no","surface":"asphalt","website":"https://www.golfedumorbihan.bzh/fiche/aire-de-service-de-saint-colombier/"}},"6605488308":{"location":[47.738764,-2.5813886],"ct":"FR","tp":"SD","ts":"2021-07-20T17:55:00Z","tX":504,"tY":357,"tags":{"access":"yes","fee":"no","sanitary_dump_station:basin":"yes"}},"6766614195":{"location":[47.519202,-2.5496089],"ct":"FR","tp":"SD","ts":"2019-09-02T14:57:53Z","tX":504,"tY":357,"tags":{"name":"Camping L'Oasis"}},"6777981578":{"location":[47.5466574,-2.7214945],"ct":"FR","tp":"SD","ts":"2024-09-09T17:57:44Z","tX":504,"tY":357,"tags":{"fee":"yes","power_supply":"yes","sanitary_dump_station:chemical_toilet":"yes","sanitary_dump_station:grey_water":"yes","water_point":"yes","website":"https://www.golfedumorbihan.bzh/sarzeau/aire-de-saint-colombier/tabid/716/offreid/244e0426-cd85-4612-97c8-de8549a575bd"}},"8360970544":{"location":[47.5590613,-2.5111296],"ct":"FR","tp":"SD","ts":"2021-01-25T13:49:07Z","tX":504,"tY":357,"tags":{}},"8360970545":{"location":[47.5590768,-2.5112128],"ct":"FR","tp":"SD","ts":"2021-01-25T13:49:07Z","tX":504,"tY":357,"tags":{}},"8463162538":{"location":[47.6775708,-2.5663556],"ct":"FR","tp":"SD","ts":"2021-11-20T14:40:26Z","tX":504,"tY":357,"tags":{"description":"Station de vidange pour Camping-car.","fee":"no","operator":"Ville de Sulniac","sanitary_dump_station:chemical_toilet":"no","sanitary_dump_station:grey_water":"yes","sanitary_dump_station:round_drain":"yes","water_point":"yes"}},"9160122992":{"location":[47.6055387,-2.6726425],"ct":"FR","tp":"SD","ts":"2023-12-18T16:19:27Z","tX":504,"tY":357,"tags":{"access":"yes","description":"1 km to town center","fee":"no"}},"9162575875":{"location":[47.5591331,-2.5115256],"ct":"FR","tp":"SD","ts":"2021-10-10T14:40:17Z","tX":504,"tY":357,"tags":{}},"10292019746":{"location":[47.6276511,-2.7407356],"ct":"FR","tp":"SD","ts":"2022-12-28T19:54:44Z","tX":504,"tY":357,"tags":{"access":"yes","fee":"no","opening_hours":"24/7","sanitary_dump_station:basin":"yes","sanitary_dump_station:round_drain":"yes"}},"11157715822":{"location":[47.6599325,-2.7891262],"ct":"FR","tp":"SD","ts":"2024-10-11T20:10:25Z","tX":504,"tY":357,"tags":{"description:en":"20 minutes electricity and free drinking water","fee":"no","power_supply":"yes","sanitary_dump_station":"yes","water_supply":"yes"}},"11430098846":{"location":[47.632786,-2.5293057],"ct":"FR","tp":"SD","ts":"2023-12-19T01:12:50Z","tX":504,"tY":357,"tags":{"access":"yes","fee":"no","sanitary_dump_station:chemical_toilet":"yes","sanitary_dump_station:grey_water":"yes"}},"12121853692":{"location":[47.6332775,-2.7785622],"ct":"FR","tp":"SD","ts":"2024-08-20T09:34:20Z","tX":504,"tY":357,"tags":{"access":"customers","source":"pcrs2019;bd ortho ign 2022"}}}