{"14290791":{"location":[47.4453697,-2.4843164],"ct":"FR","tp":"CS","ts":"2022-10-31T13:35:02Z","tX":504,"tY":358,"tags":{"caravans":"yes","name":"Camping des Iles","opening_hours":"apr-nov","phone":"+33 2 99 90 30 24","power_supply":"yes","sanitary_dump_station":"yes","source":"cadastre-dgi-fr source : Direction Générale des Impôts - Cadastre. Mise à jour : 2010","stars":"5","website":"http://www.camping-des-iles.fr/"}},"24234396":{"location":[47.4893904,-2.8019254],"ct":"FR","tp":"CS","ts":"2022-07-08T15:31:33Z","tX":504,"tY":358,"tags":{"caravans":"yes","motor_vehicle":"no","name":"Saint-Jacques","name:br":"Sant-Jak","opening_hours":"Apr-Sep","phone":"+33 4 30 05 29 84","source:name:br":"ofis publik ar brezhoneg","swimming_pool":"covered","tents":"yes","website":"https://www.camping-stjacques.com/"}},"24234734":{"location":[47.4990782,-2.765275],"ct":"FR","tp":"CS","ts":"2024-05-24T13:00:29Z","tX":504,"tY":358,"tags":{"addr:city":"Sarzeau","addr:housenumber":"7","addr:postcode":"56370","addr:street":"Rue du Pont-Neui","capacity":"271","caravans":"yes","description":"Camp ground of an association. Non-members can only camp for one night.","internet_access":"wlan","name":"GCU Sarzeau","name:br":"SKS Sarzhav","operator":"Groupement des Campeurs Universitaires","phone":"+33 2 97 41 30 12","sanitary_dump_station":"customers","source:name:br":"proper translation","stars":"2","static_caravans":"yes","tents":"yes","website":"https://www.gcu.asso.fr/terrains/sarzeau-morbihan-56","wheelchair":"yes"}},"26858908":{"location":[47.2962727,-2.5368486],"ct":"FR","tp":"CS","ts":"2016-08-01T13:17:40Z","tX":504,"tY":358,"tags":{"name":"Oceanic"}},"69328143":{"location":[47.5075741,-2.7602303],"ct":"FR","tp":"CS","ts":"2023-04-29T16:30:05Z","tX":504,"tY":358,"tags":{"capacity:caravans":"140","caravans":"yes","fee":"yes","name":"La Ferme de Lann Hoëdic","opening_hours":"Apr-Oct","phone":"+33 2 97 48 01 73","stars":"3","tents":"yes","website":"https://www.camping-lannhoedic.fr/"}},"70461668":{"location":[47.2918148,-2.5302821],"ct":"FR","tp":"CS","ts":"2024-12-08T18:22:35Z","tX":504,"tY":358,"tags":{"addr:city":"Le Croisic","addr:housenumber":"27","addr:postcode":"44490","addr:street":"Rue Henri Dunant","name":"Camping Pierre Longue","phone":"+33 2 40 23 13 44","website":"https://www.campinglapierrelongue.com"}},"70559016":{"location":[47.2919095,-2.5366156],"ct":"FR","tp":"CS","ts":"2022-06-05T09:08:41Z","tX":504,"tY":358,"tags":{"name":"Camping de la Côte Sauvage","name:br":"Tachenn-gampiñ an Aod Ouez","source:name:br":"proper translation"}},"70924891":{"location":[47.2947638,-2.5386044],"ct":"FR","tp":"CS","ts":"2024-12-08T18:22:35Z","tX":504,"tY":358,"tags":{"name":"Camping du Paradis"}},"70928221":{"location":[47.2903113,-2.5401231],"ct":"FR","tp":"CS","ts":"2024-12-08T18:22:35Z","tX":504,"tY":358,"tags":{"name":"Camping de la Côte Sauvage","name:br":"Tachenn-gampiñ an Aod Ouez","source:name:br":"proper translation"}},"71288758":{"location":[47.3536168,-2.5178826],"ct":"FR","tp":"CS","ts":"2024-04-07T17:46:19Z","tX":504,"tY":358,"tags":{"caravans":"yes","drinking_water":"yes","name":"La Falaise","power_supply":"yes","shower":"yes","tents":"yes","toilets":"yes","website":"https://www.camping-de-la-falaise.com/"}},"108329558":{"location":[47.4151137,-2.4706038],"ct":"FR","tp":"CS","ts":"2024-05-24T13:01:54Z","tX":504,"tY":358,"tags":{"addr:city":"Mesquer","addr:postcode":"44420","addr:street":"Route de la Bôle de Merquel","capacity":"84","caravans":"yes","drinking_water":"yes","fee":"yes","internet_access":"wlan","name":"GCU Mesquer","operator":"Groupement des Campeurs Universitaires","phone":"+33 2 40 42 61 22","power_supply":"yes","sanitary_dump_station":"customers","shower":"yes","static_caravans":"yes","tents":"yes","toilets":"yes","washing_machine":"yes","website":"https://www.gcu.asso.fr/","wheelchair":"yes"}},"108381970":{"location":[47.4070797,-2.4751492],"ct":"FR","tp":"CS","ts":"2022-08-27T09:05:14Z","tX":504,"tY":358,"tags":{"capacity:caravans":"90","name":"Camping soir d'été","opening_hours":"apr-Sep","phone":"+33 2 40 42 57 26","website":"https://www.camping-soirdete.com/"}},"108381971":{"location":[47.4055676,-2.4690163],"ct":"FR","tp":"CS","ts":"2022-08-27T09:05:14Z","tX":504,"tY":358,"tags":{"capacity:caravans":"100","name":"Camping Welcome","opening_hours":"apr-oct","phone":"+33 2 40 42 50 85","stars":"3","website":"https://www.lewelcome.com/"}},"108566826":{"location":[47.3984551,-2.4711905],"ct":"FR","tp":"CS","ts":"2024-05-14T08:13:52Z","tX":504,"tY":358,"tags":{"name":"Le Petit Bois","opening_hours":"Apr-Sep","operator":"Sunêlia","phone":"+33 2 40 42 68 77","stars":"4","swimming_pool":"covered","website":"https://www.campingdupetitbois.com/"}},"121203510":{"location":[47.3853933,-2.5074863],"ct":"FR","tp":"CS","ts":"2023-04-15T20:42:12Z","tX":504,"tY":358,"tags":{"addr:city":"Piriac-sur-Mer","addr:postcode":"44420","addr:street":"Route de Kerdien","caravans":"yes","email":"reception.lg@siblu.fr","name":"Bois de Bayadène","operator":"Siblu","phone":"+33 2 55 18 18 20","shower":"yes","stars":"3","tents":"yes","toilets":"yes"}},"127353419":{"location":[47.4019601,-2.4843042],"ct":"FR","tp":"CS","ts":"2023-04-10T14:43:37Z","tX":504,"tY":358,"tags":{"cabins":"yes","caravans":"yes","mobile":"+33 6 88 35 05 38","name":"Prad'heol","name:br":"Prad'heol","opening_hours":"Mar-Oct","phone":"+33 2 40 15 34 21","source:name:br":"proper translation","stars":"3","swimming_pool":"covered","tents":"yes","toilets":"yes","website":"https://www.camping-labaule.fr/"}},"127732170":{"location":[47.3275204,-2.4992642],"ct":"FR","tp":"CS","ts":"2023-09-17T08:53:46Z","tX":504,"tY":358,"tags":{"name":"Camping Les chardons bleus","stars":"4","website":"https://www.campingleschardonsbleus.com/"}},"160934905":{"location":[47.3757531,-2.4938047],"ct":"FR","tp":"CS","ts":"2024-08-19T12:51:07Z","tX":504,"tY":358,"tags":{"addr:city":"Piriac-sur-Mer","addr:postcode":"44420","addr:street":"Route du Marault","barrier":"fence","caravans":"yes","description":"Situé au coeur de la Presqu'île Guérandaise, le Clos Marot est un camping naturiste calme, familial et convivial, refuge de tranquillité dans un parc arboré de 6 ha.","dog":"yes","email":"info@anca-piriac.com","name":"Le Clos Marot","nudism":"yes","operator":"Club","phone":"+33240235920","source":"cadastre-dgi-fr source : Direction Générale des Impôts - Cadastre. Mise à jour : 2012","tents":"yes","website":"http://www.anca-piriac.com"}},"186284660":{"location":[47.2965807,-2.5336689],"ct":"FR","tp":"CS","ts":"2024-12-08T18:22:35Z","tX":504,"tY":358,"tags":{"addr:city":"Le Croisic","addr:housenumber":"15","addr:postcode":"44490","addr:street":"Route de la Maison Rouge","caravans":"yes","internet_access":"wlan","internet_access:fee":"yes","name":"L'Océan","nudism":"no","stars":"5","tents":"yes"}},"203005988":{"location":[47.3697136,-2.5177281],"ct":"FR","tp":"CS","ts":"2017-10-22T22:39:20Z","tX":504,"tY":358,"tags":{"fax":"+33240236690","internet_access":"wlan","name":"Camping du Razay","phone":"+33240235680","stars":"2"}},"224086518":{"location":[47.5063801,-2.6283772],"ct":"FR","tp":"CS","ts":"2022-08-27T09:05:14Z","tX":504,"tY":358,"tags":{"fee":"yes","fixme":"Mobil-home uniquement ?","name":"Le Lenn","name:br":"Ar Lenn","phone":"+33 2 97 41 10 85","source:name:br":"proper translation"}},"272760347":{"location":[47.5146029,-2.5595448],"ct":"FR","tp":"CR","ts":"2024-09-23T11:25:03Z","tX":504,"tY":358,"tags":{"capacity":"74","caravan_site":"motorhome_stopover","caravan_site:type":"beach","caravans":"no","charge":"13 EUR","charge:conditional":"10 EUR @ (Nov-Mar)","fee":"yes","name":"Aire de service de Damgan","opening_hours":"24/7","power_supply":"no","sanitary_dump_station":"yes","sanitary_dump_station:grey_water":"yes","seasonal":"no","tents":"no","water_point":"yes","website":"https://www.damgan-larochebernard-tourisme.com/aires-camping-cars/aire-de-service-de-damgan/"}},"285573676":{"location":[47.3486909,-2.5081406],"ct":"FR","tp":"CR","ts":"2024-05-22T13:28:15Z","tX":504,"tY":358,"tags":{"bbq":"no","capacity":"20","caravan_site":"motorhome_stopover","caravan_site:type":"beach","caravans":"no","charge":"11.32 EUR","dog":"leashed","fee":"yes","internet_access":"wlan","maxlength":"9","name":"Aire La Turballe, Centre-ville","network":"CAMPING-CAR PARK","opening_hours":"24/7","power_supply":"no","sanitary_dump_station":"yes","seasonal":"no","tents":"no","trailer":"no"}},"313524746":{"location":[47.3734827,-2.5345407],"ct":"FR","tp":"CS","ts":"2022-07-14T08:17:20Z","tX":504,"tY":358,"tags":{"contact:phone":"+33 2 40 23 57 80","contact:website":"http://www.camping-armor-heol.com","name":"Armor Héol","name:br":"Arvor Heol","source:name:br":"proper translation"}},"319419555":{"location":[47.3140877,-2.5018917],"ct":"FR","tp":"PK","ts":"2024-09-09T18:32:51Z","tX":504,"tY":358,"tags":{"access":"yes","capacity":"5","description:fr":"Stationnement Camping-Cars (de Jour)","fee":"no","motor_vehicle":"no","motorhome":"yes","motorhome:overnight":"no","parking":"street_side"}},"326915081":{"location":[47.4523639,-2.4845755],"ct":"FR","tp":"CS","ts":"2023-10-28T11:28:43Z","tX":504,"tY":358,"tags":{"cabins":"yes","caravans":"yes","mobile":"+33 6 38 44 71 46","motorhome":"yes","name":"Ker-Lay","phone":"+33 2 99 90 31 28","shower":"yes","stars":"2","swimming_pool":"outdoor","tents":"yes","toilets":"yes","website":"https://www.camping-de-kerlay.com/"}},"328352380":{"location":[47.3709537,-2.5524937],"ct":"FR","tp":"CS","ts":"2024-04-13T09:58:32Z","tX":504,"tY":358,"tags":{"caravans":"yes","drinking_water":"yes","name":"Le Véridet","stars":"2","tents":"no"}},"347935372":{"location":[47.2893449,-2.5373097],"ct":"FR","tp":"CR","ts":"2024-09-13T03:29:44Z","tX":504,"tY":358,"tags":{"capacity":"9","caravan_site":"motorhome_stopover","caravan_site:type":"coast","description":"Payant de 20h à 9h et limité à 48h","fee":"yes","maxstay":"48 hours","name":"La Vigie"}},"373890493":{"location":[47.4958579,-2.7981062],"ct":"FR","tp":"CS","ts":"2024-08-27T12:37:25Z","tX":504,"tY":358,"tags":{"capacity:caravans":"136","caravans":"yes","drinking_water":"yes","fee":"yes","name":"Les Genêts","name:br":"Ar Banal","opening_hours":"Apr-Oct","phone":"+33 2 97 41 87 22","power_supply":"yes","sanitary_dump_station":"yes","shower":"yes","source:name:br":"proper translation","stars":"3","tents":"yes","toilets":"yes","website":"https://www.camping-les-genets.com/"}},"429047937":{"location":[47.4696843,-2.4652364],"ct":"FR","tp":"CS","ts":"2023-10-28T05:10:51Z","tX":504,"tY":358,"tags":{"brand":"CAP'A","camp_site":"deluxe","contact:facebook":"https://www.facebook.com/campingleDomainedInly","contact:phone":"+33 2 99903509","internet_access":"wlan","internet_access:fee":"yes","name":"Le Domaine d'Inly","opening_hours":"Apr-Sep 00:00-24:00","sanitary_dump_station":"yes","source":"cadastre-dgi-fr source : Direction Générale des Finances Publiques - Cadastre. Mise à jour : 2016;BDOrtho IGN","stars":"5","swimming_pool":"covered","website":"https://www.camping-inly.com/","wheelchair":"yes"}},"435157184":{"location":[47.2984207,-2.5200577],"ct":"FR","tp":"CR","ts":"2024-10-27T21:13:37Z","tX":504,"tY":358,"tags":{"capacity":"8","caravan_site":"motorhome_stopover","caravan_site:type":"beach","charge":"13.50 EUR / night","fee":"yes","maxstay":"48 hours","name":"Kerdavid","power_supply":"no","water_point":"yes","water_point:fee":"no"}},"435157186":{"location":[47.2989945,-2.52192],"ct":"FR","tp":"CR","ts":"2024-09-13T03:29:44Z","tX":504,"tY":358,"tags":{"capacity":"9","caravan_site":"motorhome_stopover","caravan_site:type":"village","charge":"13/50 EUR / night","fee":"yes","maxstay":"48 hours","name":"Aire Lingorzé","power_supply":"no","sanitary_dump_station":"yes","sanitary_dump_station:chemical_toilet":"yes","sanitary_dump_station:grey_water":"yes","surface":"asphalt","water_point":"yes"}},"439538867":{"location":[47.3310275,-2.4995127],"ct":"FR","tp":"CR","ts":"2024-10-08T17:39:43Z","tX":504,"tY":358,"tags":{"bbq":"no","capacity":"20","caravan_site":"motorhome_stopover","caravan_site:type":"beach","caravans":"no","charge":"14.32 EUR","dog":"leashed","fee":"yes","internet_access":"wlan","maxlength":"9","motorhome":"customer","name":"La Turballe, Grande Falaise","network":"CAMPING-CAR PARK","power_supply:capacity":"20","power_supply:maxcurrent":"6","sanitary_dump_station":"yes","tents":"no","trailer":"no","water_point":"yes","website":"https://www.campingcarpark.com/fr_FR/sejour/aire-etape-camping-car/pays-de-la-loire/44-loire-atlantique/la-turballe-grande-falaise"}},"445172445":{"location":[47.3674277,-2.5322772],"ct":"FR","tp":"CR","ts":"2024-05-20T16:52:43Z","tX":504,"tY":358,"tags":{"bbq":"no","capacity":"30","caravan_site":"motorhome_stopover","caravan_site:type":"beach","caravans":"no","charge":"11.22 EUR","dog":"leashed","fee":"yes","internet_access":"wlan","name":"Aire Piriac-sur-Mer","network":"CAMPING-CAR PARK","opening_hours":"24/7","operator":"CAMPING CAR-PARK","power_supply":"no","sanitary_dump_station":"yes","tents":"no","trailer":"no","water_point":"yes","website":"https://www.campingcarpark.com/fr_FR/sejour/aire-etape-camping-car/pays-de-la-loire/44-loire-atlantique/piriac-lerat"}},"447965357":{"location":[47.3884094,-2.5221517],"ct":"FR","tp":"CS","ts":"2021-08-12T21:09:40Z","tX":504,"tY":358,"tags":{"addr:city":"Piriac-sur-Mer","addr:postcode":"44420","addr:street":"Route de la Noé Malade","capacity":"97","name":"Les amis de la nature","phone":"+33 2 40 23 61 79","website":"https://campinglesamisdelanaturepiriac.fr/"}},"478698066":{"location":[47.4966966,-2.6840757],"ct":"FR","tp":"CS","ts":"2022-12-28T17:48:49Z","tX":504,"tY":358,"tags":{"capacity:caravans":"111","caravans":"yes","name":"Camping municipal La Grée Penvins","phone":"+33 2 97 67 33 96","stars":"2","tents":"yes","website":"https://www.campinglagreepenvins.com/"}},"480441083":{"location":[47.5055583,-2.710728],"ct":"FR","tp":"CS","ts":"2022-08-27T09:05:14Z","tX":504,"tY":358,"tags":{"caravans":"yes","name":"Camping de la Plage","opening_hours":"Apr-Sep","phone":"+33 2 97 41 73 56","stars":"3","swimming_pool":"covered","tents":"yes","website":"https://www.campinglandrezacplage.fr"}},"501478210":{"location":[47.4902366,-2.8050837],"ct":"FR","tp":"CS","ts":"2024-03-15T15:15:07Z","tX":504,"tY":358,"tags":{"caravans":"yes","contact:email":"legrandguitton@orange.fr","contact:phone":"+33 6 88 58 29 68","fee":"yes","name":"Le Grand Guitton","stars":"2","tents":"yes","website":"https://www.campinglegrandguitton.com/","wheelchair":"yes"}},"506237223":{"location":[47.4814494,-2.4901571],"ct":"FR","tp":"CR","ts":"2024-05-17T21:51:37Z","tX":504,"tY":358,"tags":{"access":"permissive","bbq":"no","capacity":"14","caravan_site":"motorhome_stopover","caravan_site:type":"beach","caravans":"no","charge":"10.20 EUR","fee":"yes","internet_access":"wlan","internet_access:fee":"no","maxlength":"none","motorhome":"designated","name":"France - Aire CAMPING-CAR PARK de Pénestin, La source","network":"CAMPING-CAR PARK","operator":"CAMPING-CAR PARK","power_supply":"no","sanitary_dump_station":"no","surface":"grass","tents":"no","toilets":"no","trailer":"no","website":"https://www.campingcarpark.com/fr_FR/sejour/aire-etape-camping-car/bretagne/56-morbihan/penestin-la-source"}},"509798150":{"location":[47.3780924,-2.549054],"ct":"FR","tp":"CS","ts":"2022-07-14T08:17:20Z","tX":504,"tY":358,"tags":{"name":"Les Boutons d'Or","name:br":"Ar Boutonoù-aour","source:name:br":"proper translation"}},"509798153":{"location":[47.3767074,-2.5507714],"ct":"FR","tp":"CS","ts":"2019-04-19T05:59:42Z","tX":504,"tY":358,"tags":{"name":"Les Flots bleus"}},"544147314":{"location":[47.5158957,-2.7258965],"ct":"FR","tp":"PK","ts":"2024-09-23T11:40:29Z","tX":504,"tY":358,"tags":{"access":"yes","capacity":"200","caravans":"yes","fee":"no","motorhome":"yes","name":"Visiteurs","name:br":"Gweladennerien","parking":"surface","source:name:br":"proper translation"}},"558206030":{"location":[47.508888,-2.8048852],"ct":"FR","tp":"CS","ts":"2023-04-10T14:43:37Z","tX":504,"tY":358,"tags":{"addr:city":"Saint-Gildas-de-Rhuys","addr:housenumber":"90","addr:postcode":"56730","addr:street":"Route de Sarzeau","capacity:caravans":"85","caravans":"yes","fee":"yes","mobile":"+33 6 13 71 02 24","name":"L'Abri-Côtier","opening_hours":"Apr-Sep","payment:cards":"yes","payment:cash":"yes","phone":"+33 2 97 45 27 42","tents":"yes","website":"https://www.abri-cotier.com/"}},"626494582":{"location":[47.3964571,-2.5129107],"ct":"FR","tp":"CR","ts":"2024-05-22T13:22:32Z","tX":504,"tY":358,"tags":{"bbq":"no","capacity":"10","caravan_site":"motorhome_stopover","caravan_site:type":"beach","caravans":"no","charge":"12.22 EUR","dog":"leashed","fee":"yes","maxlength":"none","name":"Aire de Camping-Car Piriac Brambell","network":"CAMPING-CAR PARK","power_supply":"no","tents":"no","toilets":"yes","trailer":"no","water_point":"yes","website":"https://www.campingcarpark.com/fr_FR/sejour/aire-etape-camping-car/pays-de-la-loire/44-loire-atlantique/piriac-brambell"}},"715752082":{"location":[47.4631019,-2.4846455],"ct":"FR","tp":"CS","ts":"2022-08-27T09:05:14Z","tX":504,"tY":358,"tags":{"name":"Camping Le Kerfalher","name:br":"Tachad-kampiñ Kerfalc'her","opening_hours":"Mar-Oct","phone":"+33 2 99 90 33 45","source:name:br":"proper translation","stars":"3"}},"715752084":{"location":[47.4552441,-2.4908832],"ct":"FR","tp":"CS","ts":"2023-07-31T11:44:14Z","tX":504,"tY":358,"tags":{"capacity:caravans":"112","caravans":"yes","drinking_water":"yes","name":"Loscolo","name:br":"Loskolo","opening_hours":"Jun-Sep","phone":"+33 2 40 62 19 51","power_supply":"yes","shower":"yes","source:name:br":"proper translation","stars":"2","tents":"yes","website":"http://www.loscolo.com/"}},"719712641":{"location":[47.3725832,-2.5484274],"ct":"FR","tp":"CS","ts":"2023-10-28T11:28:50Z","tX":504,"tY":358,"tags":{"addr:city":"Piriac-sur-Mer","caravans":"yes","email":"moncalme@free.fr","name":"Mon Calme","phone":"+33 240 236 077","shower":"yes","stars":"3","tents":"yes","website":"https://www.campingmoncalme.com/"}},"720297188":{"location":[47.4477036,-2.4879726],"ct":"FR","tp":"CR","ts":"2024-05-17T21:35:58Z","tX":504,"tY":358,"tags":{"bbq":"no","capacity":"18","caravan_site":"motorhome_stopover","caravan_site:type":"beach","caravans":"no","charge":"10.20 EUR","dog":"leashed","fee":"yes","internet_access":"wlan","internet_access:fee":"no","maxlength":"none","name":"Aire CAMPING-CAR PARK de Pénestin, Le Béchet","network":"CAMPING-CAR PARK","opening_hours":"24/7","operator":"CAMPING-CAR PARK","power_supply":"no","sanitary_dump_station":"no","sanitary_dump_station:description":"closest: Boulevard de l'Océan","seasonal":"no","tents":"no","toilets":"no","trailer":"no","water_point":"no","website":"https://www.campingcarpark.com/fr_FR/sejour/aire-etape-camping-car/bretagne/56-morbihan/penestin-le-bechet"}},"720925349":{"location":[47.5082172,-2.6992968],"ct":"FR","tp":"CS","ts":"2023-10-28T05:10:27Z","tX":504,"tY":358,"tags":{"caravans":"yes","name":"Camping Les Mouettes","opening_hours":"Apr-Sep","phone":"+33 2 97 41 90 50","stars":"3","swimming_pool":"outdoor","tents":"yes","website":"https://www.lesmouettes-camping.com/"}},"727711512":{"location":[47.3783532,-2.5419637],"ct":"FR","tp":"CR","ts":"2024-05-17T21:37:46Z","tX":504,"tY":358,"tags":{"addr:city":"Piriac-sur-Mer","addr:postcode":"44420","addr:street":"Rue de la Tranchée","capacity":"18","caravan_site":"motorhome_stopover","caravan_site:type":"beach","charge":"14.22 EUR","fee":"yes","internet_access:fee":"no","maxstay":"21 days","name":"Aire de la Tranchée","name:br":"Leur kirri-kampiñ Park Penc'herieg","network":"CAMPING-CAR PARK","opening_hours":"24/7","operator":"CAMPING-CAR PARK","power_supply":"yes","reservation":"yes","sanitary_dump_station":"yes","source:name:br":"proper translation","surface":"unpaved","tents":"no","website":"https://www.campingcarpark.com/en_GB/stay/stopover-site-motorhome/pays-de-la-loire/44-loire-atlantique/piriac-la-tranchee"}},"778692722":{"location":[47.5042959,-2.6818536],"ct":"FR","tp":"CS","ts":"2023-05-03T09:58:40Z","tX":504,"tY":358,"tags":{"caravans":"yes","name":"Manoir de Ker an Poul","name:br":"Maner Kerampoull","old_name":"Camping de la Madone","phone":"+33 2 97 67 33 30","source:name:br":"proper translation","stars":"4","tents":"yes","website":"https://www.eden-villages.fr/campings/manoirdekeranpoul/"}},"829331324":{"location":[47.3389499,-2.4749815],"ct":"FR","tp":"CS","ts":"2023-09-17T08:53:46Z","tX":504,"tY":358,"tags":{"caravans":"yes","internet_access":"wlan","internet_access:fee":"no","motor_vehicle":"yes","name":"Le Panorama","phone":"+33240247941","picnic_table":"yes","stars":"3","swimming_pool":"yes","tents":"yes","website":"https://www.camping-lepanorama.fr/"}},"839464303":{"location":[47.3818553,-2.5188517],"ct":"FR","tp":"CS","ts":"2024-05-14T19:16:08Z","tX":504,"tY":358,"tags":{"addr:city":"Piriac-sur-Mer","addr:housenumber":"1601","addr:postcode":"44420","addr:street":"Route de Mesquer","caravans":"yes","fee":"yes","name":"Le Rio Barre","payment:cash":"yes","payment:cheque":"yes","payment:credit_cards":"yes","phone":"+33 2 40 23 51 48","stars":"2","static_caravans":"yes","tents":"yes","website":"https://www.leriobarre-camping-piriac.com"}},"847231249":{"location":[47.5069096,-2.7695941],"ct":"FR","tp":"CS","ts":"2022-08-27T09:05:14Z","tX":504,"tY":358,"tags":{"capacity:caravans":"252","name":"Cap Fun - An Trest","phone":"+33 297417960","website":"https://www.capfun.com/camping-france--an_trest-FR.html"}},"849204431":{"location":[47.509389,-2.7899493],"ct":"FR","tp":"CS","ts":"2022-07-08T15:31:33Z","tX":504,"tY":358,"tags":{"caravans":"no","name":"Domaine de Kersial","opening_hours":"Mar-Oct","phone":"+33 2 90 73 43 48","stars":"3","swimming_pool":"covered","tents":"no","website":"https://www.domainedekersial.com/"}},"850937344":{"location":[47.5083762,-2.7988744],"ct":"FR","tp":"CS","ts":"2022-07-08T15:31:33Z","tX":504,"tY":358,"tags":{"addr:city":"Sarzeau","addr:street":"Le Menguen, 56370","caravans":"yes","name":"Camping-hivernage du Menguen","name:br":"Kampiñ-gouiañviñ Mengwenn","opening_hours":"Apr-Sep","phone":"+33 6 18 39 35 07","source:name:br":"proper translation","tents":"yes","website":"https://www.camping-du-menguen.com/"}},"861043998":{"location":[47.4974361,-2.6860975],"ct":"FR","tp":"CR","ts":"2024-09-23T13:31:44Z","tX":504,"tY":358,"tags":{"capacity":"11","caravan_site":"motorhome_stopover","caravan_site:type":"beach","caravans":"no","charge":"5.60 EUR","dog":"leashed","drinking_water":"no","fee":"yes","internet_access":"no","maxstay":"48 hours","name":"Aire Penvins","opening_hours":"24/7","operator":"Commune de Sarzeau","power_supply":"no","sanitary_dump_station":"no","seasonal":"no","surface":"grass","tents":"no","water_supply":"no","website":"https://www.sarzeau.fr/aires-de-camping-cars/"}},"952062762":{"location":[47.4969512,-2.8007264],"ct":"FR","tp":"CS","ts":"2022-07-01T09:33:50Z","tX":504,"tY":358,"tags":{"fixme":"Camping Les Genêts ?"}},"967017568":{"location":[47.3800885,-2.5345176],"ct":"FR","tp":"CS","ts":"2024-01-06T22:40:42Z","tX":504,"tY":358,"tags":{"addr:housenumber":"247","addr:street":"Route de Mesquer","contact:phone":"+33 2 40 23 50 91","contact:website":"https://www.camping-bretagne.eu","name":"Domaine de Pouldroit","source":"BDOrtho IGN"}},"972392467":{"location":[47.5000836,-2.7667288],"ct":"FR","tp":"CR","ts":"2024-05-22T13:19:52Z","tX":504,"tY":358,"tags":{"bbq":"no","capacity":"29","caravan_site":"motorhome_stopover","caravan_site:type":"beach","charge":"15.70 EUR","charge:conditional":"14.30 @ (Oct-Apr)","dog":"leashed","fee":"yes","internet_access":"wlan","maxlength":"none","name":"Aire Camping-car Park Sarzeau","network":"CAMPING-CAR PARK","opening_hours":"24/7","power_supply":"yes","power_supply:capacity":"30","power_supply:maxcurrent":"6","tents":"no","trailer":"no","water_point":"yes","website":"https://www.campingcarpark.com/fr_FR/sejour/aire-etape-camping-car/bretagne/56-morbihan/sarzeau"}},"975761551":{"location":[47.4795294,-2.479698],"ct":"FR","tp":"CR","ts":"2024-05-17T20:43:02Z","tX":504,"tY":358,"tags":{"bbq":"no","capacity":"38","caravan_site":"motorhome_stopover","caravan_site:type":"beach","caravans":"no","charge":"15.20 EUR","fee":"yes","internet_access":"wlan","internet_access:fee":"no","maxlength":"9","name":"Aire CAMPING-CAR PARK de Penestin, Salle des sports","network":"CAMPING-CAR PARK","opening_hours":"24/7","operator":"CAMPING-CAR PARK","power_supply":"yes","power_supply:maxcurrent":"6","sanitary_dump_station":"yes","tents":"no","toilets":"no","trailer":"yes","water_point":"yes","website":"https://www.campingcarpark.com/fr_FR/sejour/aire-etape-camping-car/bretagne/56-morbihan/penestin-salle-des-sports"}},"975761569":{"location":[47.4704551,-2.4862576],"ct":"FR","tp":"CR","ts":"2024-10-09T13:57:35Z","tX":504,"tY":358,"tags":{"caravan_site":"motorhome_stopover","caravan_site:type":"beach;lake","charge":"13.90 EUR","charge:conditional":"12.70 EUR @ (Nov 11 - Mar 14)","fee":"yes","internet_access":"yes","name":"Aire de camping-car de la mine d'or","power_supply":"yes","sanitary_dump_station":"customers","seasonal":"no","surface":"compacted","toilets":"yes","water_point":"yes"}},"1073090668":{"location":[47.4809207,-2.4657783],"ct":"FR","tp":"CS","ts":"2022-06-24T15:53:23Z","tX":504,"tY":358,"tags":{"name":"Les Parcs","phone":"+33 2 99 90 30 59","stars":"3","website":"https://www.camping-lesparcs.com"}},"1095588410":{"location":[47.2902079,-2.5057647],"ct":"FR","tp":"CR","ts":"2024-10-08T10:39:33Z","tX":504,"tY":358,"tags":{"addr:city":"Le Croisic","addr:postcode":"44490","addr:street":"Rue des Courlis","capacity:caravans":"12","caravan_site":"motorhome_stopover","caravan_site:type":"harbour","caravans":"no","charge":"13.50 EUR","fee":"yes","maxstay":"48 hours","name":"Aire Rue des Courlis - Rue des Courlis","tents":"no","water_point":"yes","water_point:charge":"10 EUR / 150 liter","water_point:fee":"yes","website":"https://lecroisic.fr/fr/rb/381227/stationnement-camping-car-1"}},"1284914882":{"location":[47.3518835,-2.5051148],"ct":"FR","tp":"CR","ts":"2024-11-17T17:24:27Z","tX":504,"tY":358,"tags":{"bbq":"no","capacity":"23","caravan_site":"motorhome_stopover","caravan_site:type":"village","caravans":"no","charge":"14.32 EUR","dog":"leashed","fee":"yes","internet_access":"wlan","maxlength":"none","name":"Aire Camping-Car Park La Turballe, Clos Mora","network":"CAMPING-CAR PARK","opening_hours":"24/7","power_supply":"yes","power_supply:capacity":"24","power_supply:maxcurrent":"6","sanitary_dump_station":"yes","tents":"no","toilets":"no","trailer":"no","water_point":"yes","website":"https://www.campingcarpark.com/fr_FR/sejour/aire-etape-camping-car/pays-de-la-loire/44-loire-atlantique/la-turballe"}},"1313590993":{"location":[47.4885112,-2.7994651],"ct":"FR","tp":"CR","ts":"2024-09-05T21:39:27Z","tX":504,"tY":358,"tags":{"caravan_site":"motorhome_stopover","caravan_site:type":"beach","charge":"5 EUR","fee":"yes","maxstay":"48 hours","name":"Aire Camping-car Saint-Jacques","power_supply":"no","sanitary_dump_station":"no","seasonal":"no","surface":"asphalt","water_point":"no"}},"1335958189":{"location":[47.3521296,-2.50576],"ct":"FR","tp":"CS","ts":"2024-11-20T13:28:56Z","tX":504,"tY":358,"tags":{"addr:housenumber":"7","addr:street":"Rue de Clos Mora","capacity:caravans":"6","capacity:tents":"15","caravans":"yes","mobile":"+33671930741","name":"Le Segréen","opening_hours":"Sep-Jun off","phone":"+33240234418","ref:FR:SIRET":"78621334800067","static_caravans":"yes","tents":"yes"}},"1584416307":{"location":[47.3425972,-2.4721452],"ct":"FR","tp":"CS","ts":"2021-11-13T06:34:06Z","tX":504,"tY":358,"tags":{"name":"Sainte-Brigitte"}},"3560322595":{"location":[47.4453346,-2.4836797],"ct":"FR","tp":"SD","ts":"2015-05-31T08:10:25Z","tX":504,"tY":358,"tags":{}},"4883842521":{"location":[47.4050679,-2.4889368],"ct":"FR","tp":"CS","ts":"2023-09-17T08:53:45Z","tX":504,"tY":358,"tags":{"addr:housenumber":"14","addr:postcode":"44420","addr:street":"Allée des Barges","name":"Camping le Praderoi","website":"https://camping-praderoi.com/"}},"4379948126":{"location":[47.3311079,-2.4993052],"ct":"FR","tp":"SD","ts":"2016-09-02T01:05:55Z","tX":504,"tY":358,"tags":{"access":"customers","fee":"yes"}},"4956548937":{"location":[47.4710248,-2.4641588],"ct":"FR","tp":"SD","ts":"2017-07-07T10:45:31Z","tX":504,"tY":358,"tags":{"access":"customers"}},"4964707725":{"location":[47.4809187,-2.4734031],"ct":"FR","tp":"SD","ts":"2023-12-22T14:00:52Z","tX":504,"tY":358,"tags":{"charge":"3 EUR","drinking_water":"yes","maxlength":"none","motorhome":"designated","operator":"CAMPING-CAR PARK","water_point":"yes","website":"https://www.campingcarpark.com/fr_FR/sejour/aire-services-camping-car/bretagne/56-morbihan/as-penestin"}},"5723760421":{"location":[47.4981668,-2.7674719],"ct":"FR","tp":"SD","ts":"2018-06-27T17:37:36Z","tX":504,"tY":358,"tags":{}},"6750509372":{"location":[47.3785182,-2.5418772],"ct":"FR","tp":"SD","ts":"2022-12-18T18:13:52Z","tX":504,"tY":358,"tags":{"access":"customers","fee":"yes","operator":"Camping-car Park","payment:credit_cards":"yes","water_point":"yes"}},"6755923808":{"location":[47.3721475,-2.5488327],"ct":"FR","tp":"SD","ts":"2019-08-29T11:33:01Z","tX":504,"tY":358,"tags":{"name":"Camping Mon Calme"}},"6771430217":{"location":[47.5146848,-2.5594689],"ct":"FR","tp":"SD","ts":"2019-09-04T09:11:08Z","tX":504,"tY":358,"tags":{}},"7742086141":{"location":[47.298407,-2.5199555],"ct":"FR","tp":"SD","ts":"2024-10-27T21:13:37Z","tX":504,"tY":358,"tags":{}},"7742086145":{"location":[47.2989757,-2.5216577],"ct":"FR","tp":"SD","ts":"2020-07-24T00:04:20Z","tX":504,"tY":358,"tags":{"fee":"no","opening_hours":"24/7","operator":"Mairie du Croisic","sanitary_dump_station:round_drain":"yes"}},"9963445406":{"location":[47.375026,-2.4919636],"ct":"FR","tp":"SD","ts":"2022-08-19T09:05:44Z","tX":504,"tY":358,"tags":{"source":"Bing"}},"10033213807":{"location":[47.28997,-2.5054147],"ct":"FR","tp":"SD","ts":"2022-09-18T10:02:08Z","tX":504,"tY":358,"tags":{"water_point":"yes"}},"10285910732":{"location":[47.3962948,-2.468335],"ct":"FR","tp":"SD","ts":"2022-12-25T13:28:35Z","tX":504,"tY":358,"tags":{"access":"yes","fee":"no","opening_hours":"24/7","operator":"Euro-Relais","sanitary_dump_station:basin":"yes"}},"10285910733":{"location":[47.3963148,-2.4684075],"ct":"FR","tp":"SD","ts":"2022-12-25T13:28:35Z","tX":504,"tY":358,"tags":{"access":"yes","fee":"no","opening_hours":"24/7","operator":"Euro-Relais","sanitary_dump_station:round_drain":"yes"}},"11432784988":{"location":[47.4701989,-2.485866],"ct":"FR","tp":"SD","ts":"2023-12-19T19:03:54Z","tX":504,"tY":358,"tags":{"access":"customers","fee":"no","sanitary_dump_station:basin":"yes","sanitary_dump_station:round_drain":"yes"}},"11435309492":{"location":[47.5000269,-2.7666476],"ct":"FR","tp":"SD","ts":"2023-12-20T16:45:54Z","tX":504,"tY":358,"tags":{"access":"customers","fee":"no","opening_hours":"24/7","sanitary_dump_station:basin":"yes","sanitary_dump_station:round_drain":"yes"}}}