{"45286855":{"location":[43.3516734,-2.4938195],"ct":"ES","tp":"CS","ts":"2024-09-21T22:08:40Z","tX":504,"tY":374,"tags":{"bbq":"yes","caravans":"yes","dish_washing":"yes","fee":"yes","internet_access":"limited","internet_access:fee":"no","name":"Camping Leagi","playground":"yes","power_supply":"yes","restaurant":"yes","shower":"yes","tents":"yes","toilets":"yes","website":"https://www.campingleagi.com"}},"45289953":{"location":[43.3983487,-2.6965566],"ct":"ES","tp":"CS","ts":"2024-09-21T21:57:39Z","tX":504,"tY":374,"tags":{"caravans":"no","dog":"yes","fee":"yes","internet_access":"yes","internet_access:fee":"no","motorhome":"yes","name":"Portuondo","phone":"+34 94 687 77 01","power_supply":"yes","shower":"hot","swimming_pool":"yes","tents":"yes","toilets":"yes","toilets:wheelchair":"yes","washing_machine":"yes","website":"https://www.campingportuondo.com"}},"62724187":{"location":[43.4281773,-2.8043752],"ct":"ES","tp":"CR","ts":"2024-08-31T19:43:31Z","tX":504,"tY":374,"tags":{"charge:conditional":"6 EUR @ winter; 15 EUR @ summer","fee":"yes","sanitary_dump_station":"customers","source":"GeoEuskadi","surface":"asphalt"}},"296508336":{"location":[43.3542315,-2.4848104],"ct":"ES","tp":"CS","ts":"2024-12-18T13:10:49Z","tX":504,"tY":374,"tags":{"contact:email":"campingendai@gmail.com","contact:phone":"+34 946 84 24 69","name":"Camping Endai","website":"https://www.campingseuskadi.com/socio/endai"}},"531746676":{"location":[43.395101,-2.6786096],"ct":"ES","tp":"CS","ts":"2024-09-22T12:02:25Z","tX":504,"tY":374,"tags":{"addr:city":"Ibarrangelu","addr:postcode":"48311","caravans":"yes","dish_washing":"yes","dog":"no","fee":"yes","internet_access":"wlan","internet_access:fee":"customers","name":"Arketa kanping","phone":"+34 672 683 414","playground":"yes","power_supply":"yes","restaurant":"yes","shower":"yes","static_caravans":"yes","tents":"yes","toilets":"yes","toilets:wheelchair":"yes","washing_machine":"yes","website":"http://www.laida.net"}},"920027751":{"location":[43.4230743,-2.7345362],"ct":"ES","tp":"CR","ts":"2024-03-22T13:59:20Z","tX":504,"tY":374,"tags":{"access":"yes","addr:city":"Bermeo","addr:postcode":"48370","addr:street":"Kalea Arene Pelaio Deuna","capacity":"10","caravan_site":"motorhome_stopover","caravan_site:type":"parking_lot","covered":"no","description":"Área de autocaravanas mixtas con estacionamiento para autos","description:fr":"Aire de camping-car mixte avec parking voiture","fee":"no","name":"Polideportivo de Bermeo","opening_hours":"24/7","operator":"ciudad de Bermeo","power_supply":"no","sanitary_dump_station":"yes","sanitary_dump_station:chemical_toilet":"yes","sanitary_dump_station:grey_water":"yes","sanitary_dump_station:round_drain":"yes","supervised":"no","surface":"asphalt","water_point":"yes"}},"1265170025":{"location":[43.4235341,-2.7259787],"ct":"ES","tp":"CR","ts":"2024-03-25T14:55:20Z","tX":504,"tY":374,"tags":{"addr:city":"Bermeo","addr:housenumber":"1005","addr:postcode":"48370","addr:street":"Pintor Benito Barrueta Kalea","capacity":"19","caravans":"no","charge":"15 EUR","charge:conditional":"6 EUR @ (Nov-May)","check_in":"12:00","check_out":"12:00","fee":"yes","internet_access":"no","maxstay":"3 nights","name":"Parking de la Pérgola Bermeo","power_supply":"yes","power_supply:charge":"5.20 EUR/12 hours","power_supply:fee":"yes","reservation":"yes","sanitary_dump_station":"no","tents":"no","water_point":"yes","water_point:charge":"4.15 EUR/100 liter","water_point:fee":"yes","website":"https://autocarping.es/aparcamientos/bermeo/"}},"1265178467":{"location":[43.345823,-2.6546553],"ct":"ES","tp":"CR","ts":"2024-03-22T14:10:57Z","tX":504,"tY":374,"tags":{"addr:city":"Zelaieta","addr:postcode":"48144","addr:street":"Gernika - Lekeitio errepidea","capacity":"10","covered":"no","description":"Área de autocaravanas mixtas con estacionamiento para autos","description:fr":"Aire de camping-car mixte avec parking voiture","fee":"no","name":"Área de autocaravanas Zelaieta","opening_hours":"24/7","operator":"ciudad de Zelaieta","power_supply":"no","sanitary_dump_station":"yes","sanitary_dump_station:chemical_toilet":"yes","sanitary_dump_station:grey_water":"yes","sanitary_dump_station:round_drain":"yes","supervised":"no","surface":"gravel","water_point":"yes"}},"5585719021":{"location":[43.3583675,-2.5075471],"ct":"ES","tp":"CR","ts":"2024-08-12T07:06:02Z","tX":504,"tY":374,"tags":{"fee":"yes","name":"Lekeitio"}},"7732279826":{"location":[43.4276462,-2.8043616],"ct":"ES","tp":"SD","ts":"2024-08-31T17:49:08Z","tX":504,"tY":374,"tags":{"access":"customers","opening_hours":"24/7","sanitary_dump_station:fee":"no"}},"8541885952":{"location":[43.345921,-2.6547073],"ct":"ES","tp":"SD","ts":"2024-03-22T14:10:57Z","tX":504,"tY":374,"tags":{"access":"yes","motorhome":"designated","operator":"ciudad de Zelaieta","sanitary_dump_station":"public","sanitary_dump_station:chemical_toilet":"yes","sanitary_dump_station:grey_water":"yes","sanitary_dump_station:round_drain":"yes","water_point":"yes"}},"8543422540":{"location":[43.4231442,-2.7343748],"ct":"ES","tp":"SD","ts":"2024-03-22T13:59:20Z","tX":504,"tY":374,"tags":{"access":"yes","fee":"no","motorhome":"designated","operator":"ciudad de Bermeo","sanitary_dump_station":"public","sanitary_dump_station:chemical_toilet":"yes","sanitary_dump_station:grey_water":"yes","sanitary_dump_station:round_drain":"yes","water_point":"yes"}}}