{"45314213":{"location":[42.8313898,-2.7229224],"ct":"ES","tp":"CS","ts":"2023-11-09T03:17:29Z","tX":504,"tY":376,"tags":{"barrier":"fence","name":"Camping Ibaia","name:es":"Camping Ibaia","name:eu":"Ibaiako kanpina","website":"https://www.campingibaia.com/"}},"426346476":{"location":[42.9009302,-2.5353393],"ct":"ES","tp":"CR","ts":"2024-03-22T12:31:34Z","tX":504,"tY":376,"tags":{"caravan_site":"motorhome_stopover","caravan_site:type":"nature","fee":"no","name":"Parque de Garaio Parking","opening_hours":"24/7","power_supply":"no","sanitary_dump_station":"no","surface":"grass_paver","website":"https://ullibarri-gamboa.araba.eus/es/parque-provincial-de-garaio"}},"815313240":{"location":[42.8667857,-2.6855238],"ct":"ES","tp":"CR","ts":"2024-05-16T22:27:42Z","tX":504,"tY":376,"tags":{"addr:city":"Vitoria-Gasteiz","addr:postcode":"01010","addr:street":"Portal de Foronda","capacity":"48","caravan_site":"motorhome_stopover","caravan_site:type":"city;parking_lot","caravans":"no","covered":"no","fee":"no","lit":"yes","maxstay":"72 hours","name":"√Årea de Lakua","opening_hours":"24/7","operator":"ciudad de Vitoria-Gasteiz","power_supply":"no","sanitary_dump_station":"yes","sanitary_dump_station:chemical_toilet":"yes","sanitary_dump_station:grey_water":"yes","sanitary_dump_station:round_drain":"yes","supervised":"no","surface":"asphalt","water_point":"yes","website":"https://www.vitoria-gasteiz.org/wb021/was/contenidoAction.do?idioma=en&uid=u_24e9bad9_159affddf2b__7efd"}},"1221714713":{"location":[42.8435827,-2.5170393],"ct":"ES","tp":"CR","ts":"2023-11-07T09:28:15Z","tX":504,"tY":376,"tags":{}},"4774377830":{"location":[43.0169093,-2.5361658],"ct":"ES","tp":"SD","ts":"2017-05-12T18:59:01Z","tX":504,"tY":376,"tags":{}},"4873484482":{"location":[43.0636696,-2.4762717],"ct":"ES","tp":"SD","ts":"2021-06-25T12:00:32Z","tX":504,"tY":376,"tags":{"access":"yes","fee":"no","water_point":"yes"}},"8540516667":{"location":[42.8668473,-2.6851704],"ct":"ES","tp":"SD","ts":"2024-05-16T22:27:42Z","tX":504,"tY":376,"tags":{"access":"yes","fee":"no","motorhome":"designated","name:fr":"Station de vidange de reservoir pour camping car","opening_hours":"Mo, Tu, Th-Su 00:00-24:00; We 00:00-07:00, 14:30-00:00","operator":"ciudad de Vitoria-Gasteiz","sanitary_dump_station":"public","sanitary_dump_station:chemical_toilet":"yes","sanitary_dump_station:grey_water":"yes","sanitary_dump_station:round_drain":"yes","water_point":"yes"}}}