{"186049449":{"location":[36.7156132,-2.6354481],"ct":"ES","tp":"CR","ts":"2024-01-02T17:26:55Z","tX":504,"tY":399,"tags":{"caravan_site:type":"parking_lot","description":"Parkfelder, Übernachtung erlaubt","surface":"asphalt"}},"265032138":{"location":[36.7960165,-2.5899337],"ct":"ES","tp":"CS","ts":"2021-11-14T20:12:18Z","tX":504,"tY":399,"tags":{"addr:city":"Roquetas de Mar","addr:housenumber":"90","addr:postcode":"04740","addr:street":"Paraje Los Parrales","name":"Campsite Roquetas","phone":"+34 950 34 38 09","toilets:wheelchair":"yes","website":"https://www.campingroquetas.com","wheelchair":"yes"}},"626735106":{"location":[36.8260651,-2.5167697],"ct":"ES","tp":"CS","ts":"2024-12-18T15:01:52Z","tX":504,"tY":399,"tags":{"caravans":"yes","drinking_water":"yes","internet_access":"wlan","name":"La Garrofa","power_supply":"yes","sanitary_dump_station":"yes","shower":"yes","tents":"yes","toilets":"yes","website":"https://lagarrofa.com/","wheelchair":"yes"}},"4781564999":{"location":[36.6972134,-2.7939972],"ct":"ES","tp":"CR","ts":"2024-01-27T20:34:58Z","tX":504,"tY":399,"tags":{"fee":"yes","name":"Puerto Deportivo Almerimar","power_supply":"yes","sanitary_dump_station":"yes"}},"4781565000":{"location":[36.6942623,-2.7887867],"ct":"ES","tp":"CR","ts":"2024-01-27T20:45:35Z","tX":504,"tY":399,"tags":{"caravan_site":"motorhome_stopover","charge":"13 EUR","fee":"yes","power_supply":"yes","sanitary_dump_station":"yes"}},"5414107822":{"location":[36.8310872,-2.4664755],"ct":"ES","tp":"CR","ts":"2018-02-15T11:07:42Z","tX":504,"tY":399,"tags":{"name":"Muelle levante"}},"9529592637":{"location":[36.7448392,-2.6180748],"ct":"ES","tp":"CR","ts":"2022-10-22T14:36:27Z","tX":504,"tY":399,"tags":{"addr:housenumber":"9","addr:street":"Calle Martinica","description":"Stellplatz für Wohnmobile und Wohnwagen Ver-Entsorgung","name":"CamperPark","phone":"+34722168307"}},"6284513815":{"location":[36.6971824,-2.7937967],"ct":"ES","tp":"SD","ts":"2019-02-17T15:42:47Z","tX":504,"tY":399,"tags":{}},"10121235769":{"location":[36.7450152,-2.6180706],"ct":"ES","tp":"SD","ts":"2022-11-01T19:14:46Z","tX":504,"tY":399,"tags":{}}}