{"5821832955":{"location":[36.6052343,65.7416609],"ct":"AF","tp":"CR","ts":"2018-08-10T04:36:55Z","tX":698,"tY":399,"tags":{"name:fa":"غلام"}},"5821833554":{"location":[36.6052114,65.7417799],"ct":"AF","tp":"CR","ts":"2018-08-10T04:36:58Z","tX":698,"tY":399,"tags":{"name:en":"غلام"}},"5878420185":{"location":[36.6233892,65.7352752],"ct":"AF","tp":"CR","ts":"2018-09-03T12:00:53Z","tX":698,"tY":399,"tags":{"name:en":"داود قریه دار"}},"5878420186":{"location":[36.613979,65.7374269],"ct":"AF","tp":"CR","ts":"2018-09-03T12:01:41Z","tX":698,"tY":399,"tags":{"name:en":"توکل"}},"5878420187":{"location":[36.6127693,65.7356743],"ct":"AF","tp":"CR","ts":"2018-09-03T12:01:44Z","tX":698,"tY":399,"tags":{"name:en":"رشید"}},"5878420585":{"location":[36.826701,65.6262795],"ct":"AF","tp":"CR","ts":"2018-09-03T12:00:56Z","tX":698,"tY":399,"tags":{"name:en":"سلتیق کلان ترکمنیه"}},"5878420885":{"location":[36.6926626,65.6694695],"ct":"AF","tp":"CR","ts":"2018-09-03T12:00:59Z","tX":698,"tY":399,"tags":{"name:en":"حیات دار"}},"5878420886":{"location":[36.8116864,65.6635749],"ct":"AF","tp":"CR","ts":"2018-09-03T12:01:02Z","tX":698,"tY":399,"tags":{"name:en":"منگجک"}},"5878420888":{"location":[36.6939327,65.6480547],"ct":"AF","tp":"CR","ts":"2018-09-03T12:01:08Z","tX":698,"tY":399,"tags":{"name:en":"حق آباد"}},"5878420889":{"location":[36.6893018,65.6745675],"ct":"AF","tp":"CR","ts":"2018-09-03T12:01:14Z","tX":698,"tY":399,"tags":{"name:en":"سکسن کپه"}},"5878421685":{"location":[36.6829685,65.6742218],"ct":"AF","tp":"CR","ts":"2018-09-03T12:01:12Z","tX":698,"tY":399,"tags":{"name:en":"قریش"}}}