{"520671015":{"location":[43.6124688,-8.1487032],"ct":"ES","tp":"CS","ts":"2023-10-28T06:05:12Z","tX":488,"tY":373,"tags":{"cabins":"yes","caravans":"yes","dog":"yes","email":"campingvaldovino@yahoo.es","internet_access":"wlan","name":"Valdovi√±o","playground":"yes","power_supply":"yes","restaurant":"yes","shower":"hot","start_date":"1962","tents":"yes","toilets":"yes","washing_machine":"yes","website":"https://www.campingvaldovino.com/"}},"966546698":{"location":[43.6031283,-8.1366982],"ct":"ES","tp":"CR","ts":"2023-10-28T06:05:05Z","tX":488,"tY":373,"tags":{"addr:housenumber":"11","addr:postcode":"15552","addr:street":"Avenida Souto Vizoso","email":"info@afrouxeiracamperpark.com","internet_access":"wlan","name":"Camper Park A Frouxeira","opening_hours":"Mo-Su 11:00-20:00","phone":"+34622295527","website":"https://afrouxeiracamperpark.com/"}},"9417604017":{"location":[43.602866,-8.1370328],"ct":"ES","tp":"CR","ts":"2023-10-28T06:05:15Z","tX":488,"tY":373,"tags":{"addr:housenumber":"0","addr:postcode":"15552","addr:street":"Avenida Souto Vizoso","email":"info@afrouxeiracamperpark.com","internet_access":"wlan","name":"A Frouxeira Camping Park","opening_hours":"24/7","phone":"+34622295527","website":"https://afrouxeiracamperpark.com/"}}}