{"15579892":{"location":[43.425656,-8.2193216],"ct":"ES","tp":"CS","ts":"2024-08-20T08:52:27Z","tX":488,"tY":374,"tags":{"addr:city":"Ares","addr:country":"ES","addr:postcode":"15623","cabins":"no","caravans":"yes","dog":"yes","email":"camping.oraso@gmail.com","fee":"yes","internet_access":"wlan","mobile":"+34 619 65 00 93","name":"O Raso","phone":"+34 981 46 06 76","power_supply":"yse","shower":"yes","source":"personal observation","tents":"yes","toilets":"yes","washing_machine":"yes","website":"https://www.campingoraso-galicia.com/"}},"25739663":{"location":[43.3962673,-8.2073919],"ct":"ES","tp":"CS","ts":"2016-06-29T17:23:08Z","tX":488,"tY":374,"tags":{}},"26861018":{"location":[43.3483377,-8.3365953],"ct":"ES","tp":"CS","ts":"2023-05-07T17:43:47Z","tX":488,"tY":374,"tags":{"email":"informacion@campinglosmanzanos.com","name":"Los Manzanos","phone":"+34 981 614825","website":"http://www.campinglosmanzanos.com/","wheelchair":"yes"}},"170401450":{"location":[43.381971,-8.2892772],"ct":"ES","tp":"CS","ts":"2023-03-05T13:24:15Z","tX":488,"tY":374,"tags":{"name":"Camping San Pedro"}},"190114204":{"location":[43.5393541,-8.2940818],"ct":"ES","tp":"CS","ts":"2024-12-29T16:48:27Z","tX":488,"tY":374,"tags":{"addr:city":"Ferrol","addr:postcode":"15594","cabins":"no","caravans":"yes","email":"info@campingascabazas.com","internet_access":"wlan","loc_name":"Camping das Cabazas","name":"Camping As Cabazas","phone":"+34 981 365 111","sanitary_dump_station":"yes","shower":"hot","tents":"yes","toilets":"yes","website":"https://campingascabazas.com/"}},"206171247":{"location":[43.3412575,-8.3584939],"ct":"ES","tp":"CS","ts":"2023-03-05T07:54:17Z","tX":488,"tY":374,"tags":{"addr:city":"Oleiros","addr:postcode":"15179","addr:street":"Playa Bastiagueiro","cabins":"yes","capacity:tents":"85","caravans":"yes","email":"info@campingbastiagueiro.es","fee":"yes","name":"Camping Bastiagueiro","nohousenumber":"yes","phone":"+34 981 61 48 78","power_supply":"yes","shower":"hot","tents":"yes","toilets":"yes","website":"https://www.campingbastiagueiro.es/camping-en-la-playa-de-oleiros-a-coruna"}},"236455730":{"location":[43.3755537,-8.2129653],"ct":"ES","tp":"CS","ts":"2014-04-05T09:53:24Z","tX":488,"tY":374,"tags":{"name":"Camping de Perbes"}},"357996998":{"location":[43.5211323,-8.1104981],"ct":"ES","tp":"CS","ts":"2009-03-09T14:48:14Z","tX":488,"tY":374,"tags":{"created_by":"Potlatch 0.10f","name":"Pedroso"}},"372703619":{"location":[43.383492,-8.2918507],"ct":"ES","tp":"CS","ts":"2023-09-06T21:09:12Z","tX":488,"tY":374,"tags":{"addr:city":"Sada","addr:postcode":"15169","bbq":"yes","cabins":"yes","caravans":"yes","dog":"yes","drinking_water":"yes","email":"info@campingvelo-mar.com","fee":"yes","name":"Camping Velo Mar","phone":"+34 981 628 283","power_supply":"yes","shower":"yes","tents":"yes","toilets":"yes","washing_machine":"yes","website":"https://www.campingvelo-mar.com/camping-velo-mar/"}},"373091267":{"location":[43.4446265,-8.301692],"ct":"ES","tp":"CS","ts":"2023-10-25T07:54:48Z","tX":488,"tY":374,"tags":{"addr:city":"Ares","addr:housenumber":"6","addr:postcode":"15625","addr:street":"A Rega","name":"Cámping O Parral"}},"415640409":{"location":[43.3548682,-8.212697],"ct":"ES","tp":"CS","ts":"2016-07-04T19:02:12Z","tX":488,"tY":374,"tags":{"name":"Camping Praia de Miño"}},"429021028":{"location":[43.3690783,-8.2154987],"ct":"ES","tp":"CS","ts":"2023-03-08T21:39:54Z","tX":488,"tY":374,"tags":{"caravans":"yes","dog":"yes","email":"info@campingperbes.com","hot_water":"yes","name":"Camping Perbes","phone":"+34 981 783 104;+34 628 185 113","shower":"hot","start_date":"1982","tents":"yes","toilets":"yes","website":"http://www.campingperbes.com/"}},"429060427":{"location":[43.3649313,-8.2098257],"ct":"ES","tp":"CS","ts":"2023-10-31T10:00:22Z","tX":488,"tY":374,"tags":{"alt_name":"Camping Dúas Praias","caravans":"yes","email":"camping2playas@yahoo.es","hot_water":"yes","internet_access":"wlan","name":"Camping Dos Playas","phone":"+34 617 789 846","shower":"yes","tents":"yes","toilets":"yes","website":"https://www.campingdosplayas.com/"}},"642845155":{"location":[43.3695017,-8.3878021],"ct":"ES","tp":"CR","ts":"2020-09-25T10:58:05Z","tX":488,"tY":374,"tags":{"fee":"yes","internet_access":"yes","internet_access:fee":"no","name":"Marina Coruña","operator":"Marina Coruña","wheelchair":"yes"}},"831653642":{"location":[43.3771365,-8.429493],"ct":"ES","tp":"CR","ts":"2020-07-29T07:46:37Z","tX":488,"tY":374,"tags":{"capacity":"11","internet_access":"no","power_supply":"no","sanitary_dump_station":"no"}},"923033804":{"location":[43.3395975,-8.3546274],"ct":"ES","tp":"CR","ts":"2024-03-22T01:56:11Z","tX":488,"tY":374,"tags":{"access":"yes","addr:city":"Oleiros","addr:postcode":"15179","addr:street":"Rúa Marcial del Adalid","capacity":"4","caravan_site":"motorhome_stopover","caravan_site:type":"beach","covered":"no","fee":"no","maxstay":"48 hours","name":"Área de Autocaravanas Oleiros","opening_hours":"24/7","operator":"Concello da Oleiros","parking":"surface","power_supply":"no","sanitary_dump_station":"yes","sanitary_dump_station:chemical_toilet":"yes","sanitary_dump_station:grey_water":"yes","sanitary_dump_station:round_drain":"yes","supervised":"no","surface":"asphalt","water_point":"yes"}},"1071041458":{"location":[43.493325,-8.2400486],"ct":"ES","tp":"CR","ts":"2022-06-18T15:14:12Z","tX":488,"tY":374,"tags":{"area":"yes"}},"1120779958":{"location":[43.3412849,-8.2408795],"ct":"ES","tp":"CS","ts":"2022-12-10T15:45:46Z","tX":488,"tY":374,"tags":{"addr:city":"Bergondo","addr:housenumber":"32","addr:postcode":"15165","addr:street":"A Lagoa","name":"Castro"}},"1120779959":{"location":[43.3416117,-8.2386773],"ct":"ES","tp":"CS","ts":"2022-12-10T15:45:46Z","tX":488,"tY":374,"tags":{"name":"O Telleiro"}},"1120779961":{"location":[43.3412502,-8.2349963],"ct":"ES","tp":"CS","ts":"2023-03-03T16:18:18Z","tX":488,"tY":374,"tags":{"addr:city":"Bergondo","addr:housenumber":"28","addr:postcode":"15165","addr:street":"Gandario","name":"Mar y Campo"}},"1120779962":{"location":[43.3411823,-8.2340718],"ct":"ES","tp":"CS","ts":"2023-03-03T16:18:18Z","tX":488,"tY":374,"tags":{"name":"Green Village"}},"1120779963":{"location":[43.3410825,-8.2306003],"ct":"ES","tp":"CS","ts":"2023-03-06T19:19:28Z","tX":488,"tY":374,"tags":{"addr:city":"Bergondo","addr:housenumber":"129","addr:postcode":"15165","addr:street":"Moruxo","cabins":"yes","capacity:pitches":"32","caravans":"yes","dog":"yes","email":"campingaguiar@gmail.com","fee":"yes","internet_access":"wlan","internet_access:fee":"no","name":"Aguiar","phone":"+34 981 79 14 77","power_supply":"yes","shower":"hot","tents":"yes","toilets":"yes","website":"https://campingaguiar.wordpress.com"}},"1120779964":{"location":[43.3407247,-8.2297256],"ct":"ES","tp":"CS","ts":"2022-12-10T15:45:46Z","tX":488,"tY":374,"tags":{"name":"Martisol"}},"1120779965":{"location":[43.3396242,-8.2300877],"ct":"ES","tp":"CS","ts":"2022-12-10T15:45:46Z","tX":488,"tY":374,"tags":{"addr:city":"Bergondo","addr:housenumber":"113","addr:postcode":"15167","addr:street":"Moruxo","name":"Mariñana","opening_hours":"Mo-Su 09:00-23:00","phone":"+34 981791801"}},"11384443841":{"location":[43.3548325,-8.2536539],"ct":"ES","tp":"CR","ts":"2023-11-29T20:09:09Z","tX":488,"tY":374,"tags":{}},"11755492864":{"location":[43.3731395,-8.1883],"ct":"ES","tp":"CR","ts":"2024-03-23T14:08:35Z","tX":488,"tY":374,"tags":{"caravan_site":"motorhome_stopover","caravan_site:type":"motorway;fuel_station","caravans":"no","fee":"no","name":"Área de Servizo de Miño","sanitary_dump_station":"yes","sanitary_dump_station:chemical_toilet":"yes","sanitary_dump_station:grey_water":"yes","toilets":"yes","water_point":"yes"}},"8568508230":{"location":[43.3395465,-8.3545857],"ct":"ES","tp":"SD","ts":"2024-03-22T01:56:11Z","tX":488,"tY":374,"tags":{"access":"yes","fee":"no","motorhome":"designated","operator":"Concello da Oleiros","sanitary_dump_station":"public","sanitary_dump_station:chemical_toilet":"yes","sanitary_dump_station:grey_water":"yes","sanitary_dump_station:round_drain":"yes","water_point":"yes"}},"9025181177":{"location":[43.5344123,-8.2155673],"ct":"ES","tp":"SD","ts":"2023-10-12T12:16:07Z","tX":488,"tY":374,"tags":{"access":"yes","drinking_water":"yes","fee":"no","opening_hours":"24/7","operator":"Cepsa","operator:type":"private","sanitary_dump_station":"public","sanitary_dump_station:basin":"yes","sanitary_dump_station:chemical_toilet":"yes","sanitary_dump_station:grey_water":"yes","sanitary_dump_station:round_drain":"yes","water_point":"yes"}},"11384443840":{"location":[43.3548114,-8.253627],"ct":"ES","tp":"SD","ts":"2023-11-29T20:09:09Z","tX":488,"tY":374,"tags":{}},"11755492865":{"location":[43.373721,-8.1879567],"ct":"ES","tp":"SD","ts":"2024-03-23T14:08:35Z","tX":488,"tY":374,"tags":{"access":"yes","fee":"no","name":"ÁREA EN E. S. A PAUSA MIÑO","sanitary_dump_station:basin":"yes","sanitary_dump_station:chemical_toilet":"yes","sanitary_dump_station:grey_water":"https://furgoneteate.com/area-de-autocaravanas-de-castro-de-rei/","sanitary_dump_station:round_drain":"yes"}}}