{"236250059":{"location":[42.2159632,-8.2833366],"ct":"ES","tp":"CS","ts":"2013-09-02T14:04:39Z","tX":488,"tY":379,"tags":{"name":"Carballo do Marco"}},"244548214":{"location":[42.270173,-8.3545734],"ct":"ES","tp":"CS","ts":"2023-02-27T21:28:00Z","tX":488,"tY":379,"tags":{"cabins":"yes","caravans":"yes","fee":"yes","name":"Camping Maceira","phone":"+34 678620336","restaurant":"yes","sanitary_dump_station":"yes","shower":"yes","swimming_pool":"yes","tents":"yes","toilets":"yes","website":"https://www.campingmaceira.com"}},"432894898":{"location":[42.0874143,-8.4137755],"ct":"ES","tp":"CR","ts":"2016-09-16T11:35:18Z","tX":488,"tY":379,"tags":{"capacity":"2","operator":"Concello de As Neves"}},"965553657":{"location":[42.2853117,-8.1432755],"ct":"ES","tp":"CR","ts":"2024-02-16T20:58:16Z","tX":488,"tY":379,"tags":{"access":"yes","addr:city":"Ribadavia","addr:postcode":"32400","addr:street":"Camiño da Barca","capacity":"30","covered":"no","drinking_water":"yes","fee":"no","maxstay":"72 hours","name":"Área de Ribadavia","operator":"Ayuntamiento de Ribadavia","power_supply":"yes","sanitary_dump_station":"yes","sanitary_dump_station:chemical_toilet":"yes","sanitary_dump_station:grey_water":"yes","sanitary_dump_station:round_drain":"yes","supervised":"no","surface":"unpaved","water_point":"yes"}},"965556173":{"location":[42.2325781,-8.3595807],"ct":"ES","tp":"CR","ts":"2024-05-16T22:23:39Z","tX":488,"tY":379,"tags":{"access":"yes","addr:city":"Covelo","addr:postcode":"36872","addr:street":"Estrada Maceira","capacity":"4","caravan_site":"motorhome_stopover","caravan_site:type":"village","covered":"no","drinking_water":"yes","fee":"no","name":"Área de autocaravanas de Covelo","operator":"Ayuntamiento de Covelo","power_supply":"no","sanitary_dump_station":"yes","sanitary_dump_station:chemical_toilet":"yes","sanitary_dump_station:grey_water":"yes","sanitary_dump_station:round_drain":"yes","supervised":"no","surface":"asphalt","water_point":"yes"}},"8932358927":{"location":[42.2856654,-8.1434627],"ct":"ES","tp":"SD","ts":"2024-02-16T20:58:16Z","tX":488,"tY":379,"tags":{"access":"yes","fee":"no","motorhome":"designated","operator":"Ayuntamiento de Ribadavia","sanitary_dump_station":"public","sanitary_dump_station:chemical_toilet":"yes","sanitary_dump_station:fee":"no","sanitary_dump_station:gravity":"yes","sanitary_dump_station:grey_water":"yes","sanitary_dump_station:round_drain":"yes","sanitary_dump_station:suction":"no","water_point":"yes"}},"8932385933":{"location":[42.2325152,-8.3596807],"ct":"ES","tp":"SD","ts":"2024-05-16T22:23:39Z","tX":488,"tY":379,"tags":{"access":"yes","fee":"no","motorhome":"designated","operator":"Concello de Covelo","sanitary_dump_station":"public","sanitary_dump_station:chemical_toilet":"yes","sanitary_dump_station:fee":"no","sanitary_dump_station:gravity":"yes","sanitary_dump_station:grey_water":"yes","sanitary_dump_station:round_drain":"yes","sanitary_dump_station:suction":"no","water_point":"yes"}},"5052438190":{"location":[42.1060113,-8.2810782],"ct":"PT","tp":"CS","ts":"2024-08-13T13:17:53Z","tX":488,"tY":379,"tags":{"addr:city":"Melgaço","addr:country":"PT","addr:place":"Paderne","addr:postcode":"4960-207","addr:street":"EN202","email":"info@campingmelgaco.com","internet_access":"wlan","internet_access:fee":"no","name":"Parque de Campismo Termas do Peso","phone":"+351 251 418 218"}},"5091093931":{"location":[42.0356028,-8.1962941],"ct":"PT","tp":"CS","ts":"2023-03-09T23:22:57Z","tX":488,"tY":379,"tags":{"addr:city":"Lamas de Mouro","addr:postcode":"4960-170","alt_name":"Parque de Campismo de Lamas de Mouro","name":"Parque de Campismo Lamas de Mouro","name:pt":"Parque de Campismo Lamas de Mouro","phone":"+351 251 466 041"}}}