{"57041666":{"location":[40.1878289,-8.398668],"ct":"PT","tp":"CS","ts":"2023-03-08T17:51:41Z","tX":488,"tY":386,"tags":{"addr:street":"Rua da Escola","email":"geral@cacampings.com","landuse":"recreation_ground","name":"Parque de Campismo","phone":"+351 239 086 902","source":"bing","toilets:wheelchair":"yes","website":"https://coimbracamping.com/","wheelchair":"yes"}},"160370623":{"location":[40.3824231,-8.3865326],"ct":"PT","tp":"CS","ts":"2013-11-22T16:28:35Z","tX":488,"tY":386,"tags":{"name":"Parque de Campismo de Luso"}},"668747360":{"location":[40.3907182,-8.0860073],"ct":"PT","tp":"CR","ts":"2023-10-30T17:42:03Z","tX":488,"tY":386,"tags":{"fee":"yes","internet_access":"wlan","name":"Terra de Iguanas","website":"https://www.terra-de-iguanas.com/"}},"1089579397":{"location":[40.2657825,-8.2785486],"ct":"PT","tp":"CS","ts":"2022-08-27T00:15:00Z","tX":488,"tY":386,"tags":{"access":"yes","addr:city":"Penacova","addr:postcode":"3360-179","addr:street":"Estrada da Carvoeira","caravans":"yes","email":"penacova@fcmportugal.com","fee":"yes","name":"Parque de Campismo de Penacova","phone":"+351 239 477 464"}},"1285721441":{"location":[40.2792893,-8.2682506],"ct":"PT","tp":"CR","ts":"2024-05-22T18:09:56Z","tX":488,"tY":386,"tags":{"bbq":"yes","capacity":"33","caravan_site":"motorhome_stopover","caravan_site:type":"river","charge":"10 EUR","dog":"leashed","fee":"yes","internet_access":"wlan","maxlength":"9","name":"Penacova","network":"CAMPING-CAR PARK","power_supply":"yes","power_supply:capacity":"33","power_supply:maxcurrent":"6","sanitary_dump_station":"yes","tents":"no","trailer":"no","water_point":"yes"}},"6819880189":{"location":[40.2670525,-8.2841382],"ct":"PT","tp":"CR","ts":"2023-04-14T16:15:50Z","tX":488,"tY":386,"tags":{"drinking_water":"yes","fee":"no","opening_hours":"24/7","power_supply":"no","sanitary_dump_station":"yes","toilets":"yes"}},"10117380561":{"location":[40.268317,-8.2834475],"ct":"PT","tp":"CR","ts":"2022-10-21T08:56:41Z","tX":488,"tY":386,"tags":{"opening_hours":"24/7"}},"10117381126":{"location":[40.2590508,-8.3153678],"ct":"PT","tp":"CR","ts":"2022-10-21T08:56:41Z","tX":488,"tY":386,"tags":{}},"10117381221":{"location":[40.213309,-8.2576758],"ct":"PT","tp":"CR","ts":"2022-10-21T08:56:41Z","tX":488,"tY":386,"tags":{"opening_hours":"24/7"}},"10117382418":{"location":[40.3886871,-8.2364412],"ct":"PT","tp":"CR","ts":"2022-10-20T20:45:48Z","tX":488,"tY":386,"tags":{"name:es":"√Årea de Autocaravanas","opening_hours":"24/7"}},"10310777567":{"location":[40.200049,-8.4336044],"ct":"PT","tp":"CR","ts":"2023-01-06T12:16:52Z","tX":488,"tY":386,"tags":{"fee":"no","sanitary_dump_station":"no"}}}