{"303076072":{"location":[39.8169225,-8.3820781],"ct":"PT","tp":"CS","ts":"2023-03-25T23:17:45Z","tX":488,"tY":388,"tags":{"addr:housenumber":"39","addr:postcode":"3250-108","addr:street":"Rua Doutor Filipe Antunes dos Santos","caravans":"yes","email":"parquecampismoalvaiazere@gmail.com","fee":"yes","name":"Parque de Campismo e Caravanismo de Alvaiázere","opening_hours":"24/7","phone":"+351 918 662 285; +351 915 947 081"}},"344486381":{"location":[39.8674769,-8.2808297],"ct":"PT","tp":"CS","ts":"2023-11-07T09:40:32Z","tX":488,"tY":388,"tags":{"name":"Quinta da Fonte","website":"https://www.quintadafonte.nl/"}},"899043137":{"location":[39.8265184,-8.2733863],"ct":"PT","tp":"CS","ts":"2023-03-25T23:17:45Z","tX":488,"tY":388,"tags":{"name":"Parque de Campismo de Foz de Alge","phone":"+351 236641108"}},"966716755":{"location":[39.6874743,-8.2566176],"ct":"PT","tp":"CS","ts":"2021-07-23T10:42:59Z","tX":488,"tY":388,"tags":{"name":"Centro de Actividades Escutistas de Ferreira do Zêzere","short_name":"CAEFZ","website":"https://escutismo.pt/centros/centros-e-campos/pag:centros/51"}},"1174834422":{"location":[39.7975114,-8.0961068],"ct":"PT","tp":"CR","ts":"2024-06-19T20:55:29Z","tX":488,"tY":388,"tags":{}},"10117380572":{"location":[39.67464,-8.1457168],"ct":"PT","tp":"CR","ts":"2022-10-21T08:56:41Z","tX":488,"tY":388,"tags":{"opening_hours":"24/7"}}}