{"510548435":{"location":[37.3396873,-8.3728933],"ct":"PT","tp":"CS","ts":"2022-09-18T21:12:26Z","tX":488,"tY":397,"tags":{"internet_access":"wlan","name":"Quinta de Odelouca","operator":"Thea Booijink & Bert Schipper"}},"857837038":{"location":[37.3626127,-8.3766407],"ct":"PT","tp":"CR","ts":"2024-03-20T14:05:45Z","tX":488,"tY":397,"tags":{"capacity":"21","fixme":"survey or check when new aiereal is available.","name":"Área de Serviço para Autocaravanas de São Marcos da Serra","phone":"+351 914 852 694","website":"https://www.freguesiadesaomarcosdaserra.pt/caravanismo"}},"1308530737":{"location":[37.2542105,-8.2840155],"ct":"PT","tp":"CR","ts":"2024-08-18T02:40:59Z","tX":488,"tY":397,"tags":{"addr:postcode":"8375-088","addr:street":"Rua da Feira","area":"yes","email":"geral@jf-messines.pt","name":"Área Serviço Autocaravanas Messines","opening_hours":"24/7","phone":"+351969757866"}},"4391394689":{"location":[37.3168907,-8.2128186],"ct":"PT","tp":"CS","ts":"2016-09-08T06:57:40Z","tX":488,"tY":397,"tags":{"name":"Algarve Safari Lodge","name:nl":"Algarve Safari Lodge","name:pt":"Algarve Safari Lodge"}},"6622560788":{"location":[37.2139751,-8.3992113],"ct":"PT","tp":"CS","ts":"2019-07-17T12:05:50Z","tX":488,"tY":397,"tags":{"name":"Conde lodge"}},"5501990599":{"location":[37.168114,-8.209122],"ct":"PT","tp":"CR","ts":"2019-07-16T23:18:04Z","tX":488,"tY":397,"tags":{"name":"Fonte de Paderne"}},"10769061802":{"location":[37.193618,-8.435936],"ct":"PT","tp":"CR","ts":"2023-03-28T16:30:33Z","tX":488,"tY":397,"tags":{"name":"Stellplatz Parque do Castelo"}}}