{"115303388":{"location":[37.1207869,-8.3514503],"ct":"PT","tp":"CS","ts":"2024-08-12T08:23:17Z","tX":488,"tY":398,"tags":{"cabins":"yes","caravans":"yes","dog":"yes","dryer":"yes","email":"geral@camping-canelas.com","fee":"yes","internet_access":"wlan","internet_access:fee":"no","name":"Parque de Campismo de Canelas","opening_hours":"Mo-Su 08:00-21:30","payment:cash":"yes","payment:mastercard":"yes","payment:visa":"yes","phone":"+351 282312612","power_supply":"yes","reservation":"yes","shower":"yes","stars":"3","tents":"yes","toilets":"yes","washing_machine":"yes","website":"https://camping-canelas.com"}},"115303416":{"location":[37.1084611,-8.3516641],"ct":"PT","tp":"CS","ts":"2025-02-06T14:11:50Z","tX":488,"tY":398,"tags":{"addr:city":"Armação de Pêra","addr:country":"PT","addr:postcode":"8365-184","addr:street":"Rua Doutor Manuel de Arriaga","cabins":"yes","caravans":"yes","dog":"yes","drinking_water":"yes","dryer":"yes","email":"geral@camping-armacao-pera.com","fax":"+351 282 315 379","internet_access":"wlan","internet_access:fee":"no","name":"Parque de Campismo de Armação de Pera","nohousenumber":"yes","opening_hours":"Mo-Su 08:00-20:00","payment:cash":"yes","payment:mastercard":"yes","payment:visa":"yes","phone":"+351 282 312260","power_supply":"yes","reservation":"yes","sanitary_dump_station":"customers","shower":"yes","stars":"3","tents":"yes","toilets":"yes","washing_machine":"yes","website":"http://www.camping-armacao-pera.com/","wheelchair":"yes"}},"115303656":{"location":[37.1052644,-8.2512091],"ct":"PT","tp":"CS","ts":"2023-07-30T10:11:42Z","tX":488,"tY":398,"tags":{"access":"yes","caravans":"yes","check_out":"12:00","contact:facebook":"https://www.facebook.com/camping.albufeira/","contact:instagram":"https://www.instagram.com/camping_albufeira/","drinking_water":"yes","email":"geral@campingalbufeira.net","fee":"yes","internet_access":"wlan","internet_access:fee":"customers","name":"Parque de Campismo de Albufeira","payment:cash":"yes","payment:credit_cards":"yes","phone":"+351 289 587629","power_supply":"yes","shower":"yes","static_caravans":"yes","swimming":"yes","tents":"yes","toilets":"yes","website":"https://www.campingalbufeira.pt/","wheelchair":"yes"}},"131993293":{"location":[37.0986056,-8.2426849],"ct":"PT","tp":"CR","ts":"2019-07-09T08:05:45Z","tX":488,"tY":398,"tags":{}},"427654273":{"location":[37.0895173,-8.161385],"ct":"PT","tp":"CR","ts":"2024-04-02T21:11:45Z","tX":488,"tY":398,"tags":{"addr:street":"Estrada das Açoteias","capacity":"100","charge":"13 EUR","charge:conditional":"10 EUR @(Sep-Jun)","fee":"yes","internet_access":"wlan","internet_access:fee":"no","name":"Algarve Motorhome Park Falésia","power_supply":"yes","power_supply:maxcurrent":"6","sanitary_dump_station":"yes","tents":"no","website":"https://algarvemotorhomepark.com/en/parques/falesia-autocaravanas-portugal/"}},"572436348":{"location":[37.1570021,-8.2093526],"ct":"PT","tp":"CR","ts":"2018-03-23T18:19:03Z","tX":488,"tY":398,"tags":{}},"647076512":{"location":[37.0881119,-8.1599968],"ct":"PT","tp":"CR","ts":"2024-10-15T19:49:34Z","tX":488,"tY":398,"tags":{"capacity":"100","caravans":"no","fee":"yes","internet_access":"yes","internet_access:fee":"no","motorhome":"designated","name":"Parque Caravanas Açoteias","operator":"PRIVATO","phone":"+351 968815026","power_supply":"yes","sanitary_dump_station":"yes","website":"www.parquecaravanasacoteias.pt"}},"1000927592":{"location":[37.1123212,-8.3715042],"ct":"PT","tp":"CR","ts":"2025-02-14T17:53:48Z","tX":488,"tY":398,"tags":{"addr:city":"Armação de Pêra","addr:postcode":"8365-184","capacity":"57","caravan_site:type":"motorway_services","charge":"11 EUR","drinking_water":"yes","email":"algarvecampingcarpark@gmail.com","fee":"yes","internet_access":"wlan","internet_access:fee":"no","name":"Elodie & Romy's Algarve Camping Car Park","operator":"Elodie&Romy","power_supply":"yes","power_supply:charge":"3.50 EUR","power_supply:fee":"yes","sanitary_dump_station":"yes","toilets":"yes","website":"http://algarvecampingcarpark.pt/"}},"1000927594":{"location":[37.1123497,-8.3708486],"ct":"PT","tp":"SD","ts":"2024-10-17T11:11:32Z","tX":488,"tY":398,"tags":{"fee":"yes","water_point":"yes"}},"1036098905":{"location":[37.1257771,-8.3413229],"ct":"PT","tp":"CR","ts":"2022-02-28T21:37:35Z","tX":488,"tY":398,"tags":{"addr:city":"Pêra","capacity:caravans":"20","sanitary_dump_station":"yes"}},"1052742005":{"location":[37.1294641,-8.3229368],"ct":"PT","tp":"CR","ts":"2024-01-04T20:06:29Z","tX":488,"tY":398,"tags":{"alt_name":"Mikki‘s Place to Stay","fee":"yes","name":"Jardim de Mikki","website":"https://www.mikki-place-to-stay.com/"}},"1233438761":{"location":[37.1127412,-8.1074157],"ct":"PT","tp":"CR","ts":"2025-01-04T14:05:34Z","tX":488,"tY":398,"tags":{"addr:city":"VALE JUDEU","addr:postcode":"8100-294","addr:street":"EN125, 436C","name":"Vintage Rustic Camping site","operator":"Jorge & Christine"}},"1356861355":{"location":[37.1127072,-8.1062875],"ct":"PT","tp":"CS","ts":"2025-02-05T07:55:35Z","tX":488,"tY":398,"tags":{"addr:city":"Vale Judeu","addr:postcode":"8100-294","addr:street":"EN125, 436A","capacity:caravans":"12","caravans":"yes","dog":"yes","email":"vilamoura.rustic@gmail.com","fee":"yes","name":"Vilamoura Rustic Motorhome Aire","operator":"Vilmamoura Rustic Motorhome Aire","source":"local knowledge","tents":"yes","website":"https://vilamourarustic.scatterlings-of-africa.com"}},"2093875039":{"location":[37.0926939,-8.3117928],"ct":"PT","tp":"CR","ts":"2013-01-03T19:09:30Z","tX":488,"tY":398,"tags":{}},"12237548758":{"location":[37.1123849,-8.1064036],"ct":"PT","tp":"CS","ts":"2025-01-04T14:09:24Z","tX":488,"tY":398,"tags":{"access":"private","addr:city":"VALE JUDEU","addr:postcode":"8100-294","addr:street":"EN125, 436A","capacity:caravans":"12","caravans":"yes","dog":"yes","email":"vilamoura.rustic@gmail.com","fee":"yes","name":"Vilamoura Rustic Motorhome Aire","operator":"Vilmamoura Rustic Motorhome Aire","source":"local knowledge","tents":"yes","website":"https://vilamourarustic.scatterlings-of-africa.com"}},"5872178285":{"location":[37.0893214,-8.256345],"ct":"PT","tp":"CR","ts":"2018-08-31T20:28:08Z","tX":488,"tY":398,"tags":{}},"9562569717":{"location":[37.0797916,-8.1420344],"ct":"PT","tp":"CR","ts":"2022-03-08T12:35:45Z","tX":488,"tY":398,"tags":{}},"9902354418":{"location":[37.1194271,-8.2266836],"ct":"PT","tp":"CR","ts":"2024-07-19T06:23:12Z","tX":488,"tY":398,"tags":{"addr:postcode":"8200-562","email":"info@sulpark.com","internet_access":"wlan","name":"Sul Park","opening_hours":"Mo-Su 09:00-19:00","phone":"+351918112835","website":"https://www.sulpark.com/"}},"10075562418":{"location":[37.1086238,-8.3511861],"ct":"PT","tp":"CR","ts":"2022-10-04T18:03:06Z","tX":488,"tY":398,"tags":{}},"10557602725":{"location":[37.1080028,-8.3517022],"ct":"PT","tp":"SD","ts":"2023-01-22T19:30:31Z","tX":488,"tY":398,"tags":{"access":"customers","fee":"no","sanitary_dump_station:basin":"yes","sanitary_dump_station:chemical_toilet":"yes","sanitary_dump_station:grey_water":"yes"}},"10557602728":{"location":[37.1089664,-8.3510749],"ct":"PT","tp":"SD","ts":"2023-01-22T19:30:31Z","tX":488,"tY":398,"tags":{"access":"customers","fee":"no","sanitary_dump_station:basin":"yes","sanitary_dump_station:chemical_toilet":"yes","sanitary_dump_station:grey_water":"yes"}},"10557602731":{"location":[37.108939,-8.352253],"ct":"PT","tp":"SD","ts":"2024-08-12T08:23:17Z","tX":488,"tY":398,"tags":{"access":"customers","fee":"no","sanitary_dump_station:basin":"yes","sanitary_dump_station:chemical_toilet":"yes","sanitary_dump_station:grey_water":"yes"}},"12105744155":{"location":[37.120219,-8.351589],"ct":"PT","tp":"SD","ts":"2024-08-12T08:23:17Z","tX":488,"tY":398,"tags":{}},"12461298423":{"location":[37.1264874,-8.2370294],"ct":"PT","tp":"SD","ts":"2024-12-29T18:05:16Z","tX":488,"tY":398,"tags":{"fee":"no"}}}