{"303683679":{"location":[45.9722317,-81.5177655],"ct":"CA","tp":"CS","ts":"2024-07-18T20:19:30Z","tX":280,"tY":364,"tags":{"name":"Roques Marina"}},"847806425":{"location":[46.0157254,-81.402721],"ct":"CA","tp":"CS","ts":"2020-09-15T23:16:07Z","tX":280,"tY":364,"tags":{"addr:city":"Killarney","addr:housenumber":"960","addr:postcode":"P0M 2A0","addr:street":"Highway 637","cabins":"yes","description":"Car camping, hiking and boat access camping, multi-day back country camping.","fee":"yes","name":"George Lake Campground","operator":"Ontario Parks","phone":"+1-705-287-2900","tents":"yes","website":"https://www.ontarioparks.com/park/killarney"}},"2452374156":{"location":[45.9765695,-81.5141702],"ct":"CA","tp":"CS","ts":"2024-06-22T21:03:57Z","tX":280,"tY":364,"tags":{"addr:housenumber":"70","addr:street":"Ontario Street","capacity:persons":"35","fee":"yes","name":"Roche Rouge Campground","phone":"+1 705-287-2332","website":"https://www.campinginontario.ca/RocherRougeCampground"}},"5683443310":{"location":[46.0252335,-81.3916028],"ct":"CA","tp":"CS","ts":"2024-02-19T05:37:09Z","tX":280,"tY":364,"tags":{"name":"H53"}},"5683455330":{"location":[46.0243733,-81.4013646],"ct":"CA","tp":"CS","ts":"2024-02-19T05:37:09Z","tX":280,"tY":364,"tags":{"name":"H54"}},"5683814045":{"location":[46.0239279,-81.4141882],"ct":"CA","tp":"CS","ts":"2023-08-29T15:15:56Z","tX":280,"tY":364,"tags":{"access":"permit","backcountry":"yes","name":"1","operator":"Killarney Provincial Park"}},"5683814046":{"location":[46.0285193,-81.4097362],"ct":"CA","tp":"CS","ts":"2023-08-29T15:15:56Z","tX":280,"tY":364,"tags":{"access":"permit","backcountry":"yes","name":"2","operator":"Killarney Provincial Park"}},"5683814047":{"location":[46.0317715,-81.400098],"ct":"CA","tp":"CS","ts":"2023-08-29T15:15:56Z","tX":280,"tY":364,"tags":{"access":"permit","backcountry":"yes","name":"3","operator":"Killarney Provincial Park"}},"5683814048":{"location":[46.0360775,-81.3859039],"ct":"CA","tp":"CS","ts":"2023-08-29T15:15:56Z","tX":280,"tY":364,"tags":{"access":"permit","backcountry":"yes","name":"5","operator":"Killarney Provincial Park"}},"5683814049":{"location":[46.0384938,-81.3880693],"ct":"CA","tp":"CS","ts":"2023-08-29T15:15:56Z","tX":280,"tY":364,"tags":{"access":"permit","backcountry":"yes","name":"4","operator":"Killarney Provincial Park"}},"5683814050":{"location":[46.0521344,-81.363444],"ct":"CA","tp":"CS","ts":"2023-08-29T15:15:56Z","tX":280,"tY":364,"tags":{"access":"permit","backcountry":"yes","name":"11","operator":"Killarney Provincial Park"}},"5683814051":{"location":[46.0551035,-81.3634323],"ct":"CA","tp":"CS","ts":"2023-08-29T15:15:56Z","tX":280,"tY":364,"tags":{"access":"permit","backcountry":"yes","name":"12","operator":"Killarney Provincial Park"}},"5683814052":{"location":[46.0580459,-81.363409],"ct":"CA","tp":"CS","ts":"2023-08-29T15:15:56Z","tX":280,"tY":364,"tags":{"access":"permit","backcountry":"yes","name":"13","operator":"Killarney Provincial Park"}},"5683814053":{"location":[46.0594077,-81.367891],"ct":"CA","tp":"CS","ts":"2023-08-29T15:15:56Z","tX":280,"tY":364,"tags":{"access":"permit","backcountry":"yes","name":"20","operator":"Killarney Provincial Park"}},"5683814054":{"location":[46.0602387,-81.3738395],"ct":"CA","tp":"CS","ts":"2023-08-29T15:15:56Z","tX":280,"tY":364,"tags":{"access":"permit","backcountry":"yes","name":"21","operator":"Killarney Provincial Park"}},"5683814055":{"location":[46.0653876,-81.3601018],"ct":"CA","tp":"CS","ts":"2023-08-29T15:15:56Z","tX":280,"tY":364,"tags":{"access":"permit","backcountry":"yes","name":"15","operator":"Killarney Provincial Park"}},"5683814056":{"location":[46.0622458,-81.3607925],"ct":"CA","tp":"CS","ts":"2023-08-29T15:15:56Z","tX":280,"tY":364,"tags":{"access":"permit","backcountry":"yes","name":"14","operator":"Killarney Provincial Park"}},"5683814057":{"location":[46.0647043,-81.3557656],"ct":"CA","tp":"CS","ts":"2023-08-29T15:15:56Z","tX":280,"tY":364,"tags":{"access":"permit","backcountry":"yes","name":"16","operator":"Killarney Provincial Park"}},"5683814638":{"location":[46.0526085,-81.4046453],"ct":"CA","tp":"CS","ts":"2023-08-29T15:15:56Z","tX":280,"tY":364,"tags":{"access":"permit","backcountry":"yes","name":"62","operator":"Killarney Provincial Park"}},"5683814639":{"location":[46.055965,-81.4133887],"ct":"CA","tp":"CS","ts":"2023-08-29T15:15:56Z","tX":280,"tY":364,"tags":{"access":"permit","backcountry":"yes","name":"65","operator":"Killarney Provincial Park"}},"5683814640":{"location":[46.0571775,-81.4133111],"ct":"CA","tp":"CS","ts":"2023-08-29T15:15:56Z","tX":280,"tY":364,"tags":{"access":"permit","backcountry":"yes","name":"64","operator":"Killarney Provincial Park"}},"5683814641":{"location":[46.0606022,-81.4118321],"ct":"CA","tp":"CS","ts":"2023-08-29T15:15:56Z","tX":280,"tY":364,"tags":{"access":"permit","backcountry":"yes","name":"63","operator":"Killarney Provincial Park"}},"5683814642":{"location":[46.0536103,-81.3869665],"ct":"CA","tp":"CS","ts":"2023-08-29T15:15:56Z","tX":280,"tY":364,"tags":{"access":"permit","backcountry":"yes","name":"61","operator":"Killarney Provincial Park"}},"5683814643":{"location":[46.0540727,-81.4394369],"ct":"CA","tp":"CS","ts":"2023-08-29T15:15:56Z","tX":280,"tY":364,"tags":{"access":"permit","backcountry":"yes","name":"72","operator":"Killarney Provincial Park"}},"5683814644":{"location":[46.0537332,-81.4361676],"ct":"CA","tp":"CS","ts":"2023-08-29T15:15:56Z","tX":280,"tY":364,"tags":{"access":"permit","backcountry":"yes","name":"71","operator":"Killarney Provincial Park"}},"11639974431":{"location":[46.0461368,-81.462583],"ct":"CA","tp":"CS","ts":"2024-02-19T05:37:45Z","tX":280,"tY":364,"tags":{"access":"permit","backcountry":"yes","drinking_water":"yes","name":"H6","operator":"Killarney Provincial Park"}},"11639974432":{"location":[46.0457002,-81.4594225],"ct":"CA","tp":"CS","ts":"2024-02-19T05:37:45Z","tX":280,"tY":364,"tags":{"access":"permit","backcountry":"yes","name":"H5","operator":"Killarney Provincial Park"}}}