{"188283327":{"location":[40.9494702,-81.2443599],"ct":"US","tp":"CS","ts":"2022-05-01T23:30:06Z","tX":280,"tY":384,"tags":{"addr:city":"Louisville","addr:housenumber":"8050","addr:postcode":"44641","addr:state":"OH","addr:street":"Edison Street Northeast","fee":"no","name":"Cutty's Sunset"}},"357481745":{"location":[40.9300271,-81.3536892],"ct":"US","tp":"CS","ts":"2024-08-11T18:07:13Z","tX":280,"tY":384,"tags":{"access":"customers","caravans":"yes","ele":"359","gnis:feature_id":"1074933","name":"Lake O'Pines Campground"}},"591087232":{"location":[40.9736055,-81.3785815],"ct":"US","tp":"CS","ts":"2025-01-01T23:56:55Z","tX":280,"tY":384,"tags":{"description":"Clearwater Park is a commercial campground near Hartville, OH.","ele":"344","gnis:feature_id":"1057424","name":"Clearwater Park","operator":"Clearwater Equities & Real Estate Holdings ltd."}},"7526837514":{"location":[40.8315188,-81.5257324],"ct":"US","tp":"CS","ts":"2020-05-16T17:03:56Z","tX":280,"tY":384,"tags":{"name":"Towpath Campsite"}}}