{"976203899":{"location":[39.7930152,-81.5394398],"ct":"US","tp":"CS","ts":"2022-05-18T19:42:53Z","tX":280,"tY":388,"tags":{"addr:city":"Caldwell","addr:housenumber":"16170","addr:postcode":"43724","addr:state":"OH","addr:street":"Wolf Run Road","capacity":"137","name":"Wolf Run State Park Campground","note":"Rough outline of campground water to estimated edge near Wolf Run Road.","operator":"Ohio Department of Natural Resources","phone":"+1-740-732-5035","website":"https://ohiodnr.gov/wps/portal/gov/odnr/go-and-do/plan-a-visit/find-a-property/wolf-run-state-park-campground"}},"1280717084":{"location":[39.8113752,-81.5435827],"ct":"US","tp":"CS","ts":"2024-05-07T22:29:44Z","tX":280,"tY":388,"tags":{"group_only":"yes","name":"Wolf Run State Park Group Campsite"}},"1280730518":{"location":[39.9014593,-81.4209914],"ct":"US","tp":"CR","ts":"2024-05-08T03:56:48Z","tX":280,"tY":388,"tags":{"name":"Skyline RV Resort"}},"1280736139":{"location":[39.8902208,-81.4293812],"ct":"US","tp":"CR","ts":"2024-05-09T16:36:25Z","tX":280,"tY":388,"tags":{"contact:facebook":"BuffaloHillsResort","name":"Buffalo Hills RV Resort"}},"11891762710":{"location":[39.9064316,-81.4163323],"ct":"US","tp":"CR","ts":"2024-05-09T16:05:46Z","tX":280,"tY":388,"tags":{"name":"Seneca Lake Woodlands Campground"}},"11891802772":{"location":[39.9070771,-81.4210336],"ct":"US","tp":"SD","ts":"2024-05-09T16:27:41Z","tX":280,"tY":388,"tags":{}}}