{"676401847":{"location":[36.4142704,-81.3862668],"ct":"US","tp":"CS","ts":"2019-03-12T21:54:53Z","tX":280,"tY":400,"tags":{"caravans":"no","group_only":"yes","name":"Wagoner Group Campground","operator":"North Carolina Division of Parks & Recreation","tents":"yes"}},"676401848":{"location":[36.4138437,-81.3844878],"ct":"US","tp":"CS","ts":"2019-03-12T21:54:53Z","tX":280,"tY":400,"tags":{"caravans":"no","group_only":"no","name":"Wagoner Family Campground","operator":"North Carolina Division of Parks & Recreation","tents":"yes"}},"676401875":{"location":[36.4159826,-81.3864705],"ct":"US","tp":"CR","ts":"2019-03-12T21:54:58Z","tX":280,"tY":400,"tags":{"name":"Camp Host"}},"967268783":{"location":[36.4653986,-81.343496],"ct":"US","tp":"CS","ts":"2021-07-25T14:01:26Z","tX":280,"tY":400,"tags":{"access":"yes","addr:city":"Laurel Springs","addr:housenumber":"358","addr:postcode":"28644","addr:state":"NC","addr:street":"New River State Park Road","bbq":"yes","camp_site":"serviced","caravans":"yes","drinking_water":"yes","fee":"yes","group_only":"no","hot_water":"yes","name":"U.S. 221 Drive-in Campground","operator":"New River State Park","picnic_table":"yes","power_supply":"yes","reservation":"yes","sanitary_dump_station":"yes","shower":"hot","tents":"yes","toilets":"yes","website":"https://www.ncparks.gov/new-river-state-park/camping"}},"1106847671":{"location":[36.3563843,-81.3769147],"ct":"US","tp":"CS","ts":"2022-10-25T13:54:47Z","tX":280,"tY":400,"tags":{"addr:city":"Jefferson","addr:housenumber":"493","addr:postcode":"28640","addr:state":"NC","addr:street":"Raccoon Hollow Road","name":"Racoon Holler Campground","phone":"+13369822706"}},"1106847684":{"location":[36.3965012,-81.2319881],"ct":"US","tp":"CS","ts":"2022-10-25T13:54:47Z","tX":280,"tY":400,"tags":{"addr:city":"Laurel Springs","addr:housenumber":"33","addr:postcode":"28644","addr:state":"NC","addr:street":"Campground Road","name":"Miller's Campground","phone":"+13363592828"}},"1106847687":{"location":[36.3940157,-81.2479099],"ct":"US","tp":"CS","ts":"2022-10-25T13:54:47Z","tX":280,"tY":400,"tags":{"addr:city":"Laurel Springs","addr:housenumber":"14234","addr:postcode":"28644","addr:state":"NC","addr:street":"NC-18","name":"Wild Woodyâ€™s Campground","phone":"(336) 984-8088"}},"1251199453":{"location":[36.3877726,-81.4776246],"ct":"US","tp":"CS","ts":"2024-02-16T15:28:12Z","tX":280,"tY":400,"tags":{"name":"Greenfield Campground"}},"6333784258":{"location":[36.4335556,-81.3831778],"ct":"US","tp":"CS","ts":"2019-03-12T18:24:12Z","tX":280,"tY":400,"tags":{"backcountry":"yes","canoe":"yes","capacity":"12","drinking_water":"no","fee":"yes","name":"Site B","openfire":"yes","operator":"North Carolina Division of Parks and Recreation","ref":"B","tents":"yes"}},"6333784259":{"location":[36.4289833,-81.3808583],"ct":"US","tp":"CS","ts":"2019-03-12T18:24:12Z","tX":280,"tY":400,"tags":{"backcountry":"yes","canoe":"yes","capacity":"12","drinking_water":"no","fee":"yes","name":"Site A","openfire":"yes","operator":"North Carolina Division of Parks and Recreation","ref":"A","tents":"yes"}},"7627599184":{"location":[36.4164048,-81.3651863],"ct":"US","tp":"CS","ts":"2020-06-16T23:19:30Z","tX":280,"tY":400,"tags":{"backcountry":"yes","capacity":"12","drinking_water":"no","fee":"yes","group_only":"yes","name":"Peaks Groupsite","openfire":"yes","operator":"North Carolina Division of Parks and Recreation","ref":"P61","tents":"yes","wheelchair":"no"}},"7627599532":{"location":[36.4171168,-81.3716581],"ct":"US","tp":"CS","ts":"2020-06-16T23:19:30Z","tX":280,"tY":400,"tags":{"backcountry":"yes","capacity":"6","drinking_water":"no","fee":"yes","name":"Peaks 61","openfire":"yes","operator":"North Carolina Division of Parks and Recreation","ref":"P61","tents":"yes","wheelchair":"no"}},"7627599607":{"location":[36.4118566,-81.374917],"ct":"US","tp":"CS","ts":"2020-06-16T23:19:30Z","tX":280,"tY":400,"tags":{"backcountry":"yes","capacity":"6","drinking_water":"no","fee":"yes","name":"Peaks 61","openfire":"yes","operator":"North Carolina Division of Parks and Recreation","ref":"P61","tents":"yes","wheelchair":"no"}},"8285329646":{"location":[36.4024088,-81.2423569],"ct":"US","tp":"CS","ts":"2021-01-19T22:15:30Z","tX":280,"tY":400,"tags":{"addr:city":"Laurel Springs","addr:housenumber":"732","addr:postcode":"28644","addr:state":"NC","addr:street":"Mountain Side Drive","name":"Mountain Side Campground & Cabins","phone":"+13366615367"}},"8948739999":{"location":[36.4659357,-81.3423896],"ct":"US","tp":"SD","ts":"2021-07-25T13:55:57Z","tX":280,"tY":400,"tags":{}}}