{"358989595":{"location":[31.5362293,-81.4551187],"ct":"US","tp":"CR","ts":"2019-02-17T14:55:31Z","tX":280,"tY":417,"tags":{"addr:city":"Townsend","addr:housenumber":"1088","addr:postcode":"31331","addr:street":"Lake Harmony Drive Southwest","name":"Lake Harmony RV Park","phone":"+1 888 767 7864","website":"https://www.lakeharmonypark.com/"}},"358989596":{"location":[31.5375427,-81.4574288],"ct":"US","tp":"CR","ts":"2015-07-07T01:49:48Z","tX":280,"tY":417,"tags":{"addr:city":"Townsend","name":"McIntosh Lake RV Park","phone":"+1 912 832 6215","website":"http://www.mcintoshlakervpark.com/"}},"1087620376":{"location":[31.5642192,-81.3613523],"ct":"US","tp":"CS","ts":"2022-08-20T02:36:10Z","tX":280,"tY":417,"tags":{}},"1099758195":{"location":[31.391962,-81.4467556],"ct":"US","tp":"CS","ts":"2022-10-02T01:09:26Z","tX":280,"tY":417,"tags":{"fee":"yes","name":"Inland Harbor RV Park","website":"http://www.inlandharborrvpark.com/"}},"1106938818":{"location":[31.4249571,-81.4882678],"ct":"US","tp":"CR","ts":"2022-10-25T20:49:59Z","tX":280,"tY":417,"tags":{"addr:city":"Townsend","addr:housenumber":"1288","addr:postcode":"32332","addr:street":"Cox Road Southwest","name":"Cathead Creek Ranch & RV Park","phone":"+1 912 437 2441","website":"http://www.catheadcreekrvpark.com/"}}}