{"83627802":{"location":[24.6726254,-81.3487611],"ct":"US","tp":"CR","ts":"2021-12-17T18:31:50Z","tX":280,"tY":439,"tags":{"fixme":"Is this RV park still open?","name":"Seahorse RV Park","note":"Couldn't find any website for this business and what info I could find suggested this campground is now closed.","opening_hours":"closed"}},"83627899":{"location":[24.6723783,-81.3507968],"ct":"US","tp":"CR","ts":"2020-03-30T22:37:43Z","tX":280,"tY":439,"tags":{"addr:city":"Big Pine Key","addr:country":"US","addr:housenumber":"163","addr:postcode":"33043","addr:state":"FL","addr:street":"Cunningham Lane","description":"This is a retirement park: adults only and no pets.","drinking_water":"yes","email":"RoyalPalmRVPark@hotmail.com","fee":"yes","internet_access":"wlan","internet_access:fee":"no","name":"Royal Palm RV Park","phone":"+1 305 872 9856","power_supply":"yes","sanitary_dump_station":"customers","tents":"no","website":"http://www.royalpalmrvpark.com/"}},"84344801":{"location":[24.6582663,-81.5171878],"ct":"US","tp":"CR","ts":"2024-05-19T22:45:24Z","tX":280,"tY":439,"tags":{"alt_name":"KOA Campground","backcountry":"no","brand":"KOA","brand:wikidata":"Q16988635","caravans":"yes","email":"sugarloaf@koa.net","group_only":"no","internet_access":"wlan","name":"Kampgrounds of America - Sugarloaf Key / Key West","operator":"Kampgrounds of America","phone":"+1 305-745-3549","power_supply":"yes","reservation":"required","short_name":"KOA","tents":"yes","website":"https://koa.com/campgrounds/sugarloaf-key/"}},"84346935":{"location":[24.6550129,-81.521744],"ct":"US","tp":"CR","ts":"2024-09-29T23:07:31Z","tX":280,"tY":439,"tags":{"addr:city":"Sugarloaf Key","addr:country":"US","addr:housenumber":"311","addr:state":"FL","addr:street":"Johnson Road","drinking_water":"yes","email":"lazylakesrv@yahoo.com","fax":"+1 305 745 1680","fee":"yes","internet_access":"wlan","internet_access:fee":"no","name":"Lazy Lakes RV Resort","phone":"+1 305 745 1079","power_supply":"yes","reservation":"required","sanitary_dump_station":"customers","tents":"yes","website":"http://www.lazylakesrvresort.com"}},"323805925":{"location":[24.6613642,-81.2645079],"ct":"US","tp":"CS","ts":"2023-03-17T14:13:11Z","tX":280,"tY":439,"tags":{"check_date":"2023-03-16","fee":"yes","name":"Sandspur Campground"}},"323812491":{"location":[24.6616216,-81.2736791],"ct":"US","tp":"CS","ts":"2020-03-30T02:44:53Z","tX":280,"tY":439,"tags":{"backcountry":"no","caravans":"no","group_only":"no","name":"Bayside Cabins","reservation":"recommended","tents":"no","website":"https://www.floridastateparks.org/parks-and-trails/bahia-honda-state-park/experiences-amenities"}},"323812492":{"location":[24.6620713,-81.272617],"ct":"US","tp":"CS","ts":"2020-03-30T02:44:53Z","tX":280,"tY":439,"tags":{"backcountry":"no","caravans":"yes","group_only":"no","name":"Bayside Campground","operator":"Bahia Honda State Park","reservation":"recommended","tents":"yes","website":"https://www.floridastateparks.org/parks-and-trails/bahia-honda-state-park/experiences-amenities"}},"323812493":{"location":[24.6585538,-81.2774637],"ct":"US","tp":"CS","ts":"2020-03-30T02:44:53Z","tX":280,"tY":439,"tags":{"backcountry":"no","caravans":"yes","group_only":"no","name":"Buttonwood Campground","operator":"Bahia Honda State Park","reservation":"recommended","tents":"yes","website":"https://www.floridastateparks.org/parks-and-trails/bahia-honda-state-park/experiences-amenities"}},"494898925":{"location":[24.6485276,-81.3136961],"ct":"US","tp":"CS","ts":"2023-04-26T19:13:12Z","tX":280,"tY":439,"tags":{"access":"private","group_only":"yes","name":"Camp Jackson Sawyer","operator":"Boy Scouts of America"}},"494903719":{"location":[24.6738737,-81.2465819],"ct":"US","tp":"CR","ts":"2021-05-16T14:31:21Z","tX":280,"tY":439,"tags":{"addr:city":"Big Pine Key","addr:housenumber":"38801","addr:postcode":"33043","addr:state":"FL","addr:street":"Overseas Highway","capacity":"399","fee":"yes","internet_access":"wlan","internet_access:fee":"yes","name":"Sunshine Key RV Resort and Marina","operator":"Encore RV Resorts","phone":"+1 877 570 2267","power_supply":"yes","sanitary_dump_station":"customers","tents":"no","website":"https://rvonthego.com/florida/sunshine-key-rv-resort-marina/"}},"786037106":{"location":[24.6470866,-81.3300498],"ct":"US","tp":"CS","ts":"2020-03-30T23:02:12Z","tX":280,"tY":439,"tags":{"backcountry":"no","caravans":"yes","fax":"+1 305 872 3868","group_only":"no","internet_access":"wlan","internet_access:fee":"no","name":"Big Pine Key Fishing Lodge","nudism":"no","phone":"+1 305 872 2351","sanitary_dump_station":"customers","tents":"yes","website":"http://bpkfl.com"}},"3312740731":{"location":[24.6586953,-81.2770194],"ct":"US","tp":"SD","ts":"2015-04-11T05:24:51Z","tX":280,"tY":439,"tags":{"sanitary_dump_station:round_drain":"yes"}},"7348396832":{"location":[24.6468477,-81.3297071],"ct":"US","tp":"SD","ts":"2020-03-30T23:02:12Z","tX":280,"tY":439,"tags":{"access":"customers","sanitary_dump_station:round_drain":"yes"}},"7349656235":{"location":[24.6726082,-81.2464734],"ct":"US","tp":"SD","ts":"2020-03-31T03:24:33Z","tX":280,"tY":439,"tags":{"access":"customers","sanitary_dump_station:round_drain":"yes"}}}