{"236635973":{"location":[22.9942119,-81.4653333],"ct":"CU","tp":"CS","ts":"2020-12-06T12:32:47Z","tX":280,"tY":444,"tags":{"name":"Campismo RÃ­o Canimar","operator":"Campismo Popular de Cuba","phone":"4529 5146"}},"240752279":{"location":[23.0379399,-81.4967549],"ct":"CU","tp":"CS","ts":"2020-12-06T12:32:46Z","tX":280,"tY":444,"tags":{"name":"Campismo Canimar Abajo","operator":"Campismo Popular de Cuba","phone":"4526 5926"}},"240752284":{"location":[23.0509728,-81.4951985],"ct":"CU","tp":"CS","ts":"2017-06-18T15:59:06Z","tX":280,"tY":444,"tags":{"name":"Playa El Mamey","natural":"beach"}},"4377811590":{"location":[23.1408989,-81.2776476],"ct":"CU","tp":"CS","ts":"2024-02-14T01:24:51Z","tX":280,"tY":444,"tags":{"name":"Campamento de Pioneros"}},"5021004628":{"location":[22.9941038,-81.4647442],"ct":"CU","tp":"CS","ts":"2017-08-07T22:41:23Z","tX":280,"tY":444,"tags":{"name":"# 7","name:es":"# 7"}},"5021004635":{"location":[22.9949013,-81.4646756],"ct":"CU","tp":"CS","ts":"2017-08-07T22:41:46Z","tX":280,"tY":444,"tags":{"name":"# 1","name:es":"# 1"}},"5021004636":{"location":[22.9944654,-81.4646428],"ct":"CU","tp":"CS","ts":"2017-08-07T22:41:51Z","tX":280,"tY":444,"tags":{"name":"# 4","name:es":"# 4"}},"5021004637":{"location":[22.9943207,-81.4645558],"ct":"CU","tp":"CS","ts":"2017-08-07T22:41:53Z","tX":280,"tY":444,"tags":{"name":"# 5","name:es":"# 5"}},"5021004638":{"location":[22.994195,-81.4646266],"ct":"CU","tp":"CS","ts":"2017-08-07T22:41:55Z","tX":280,"tY":444,"tags":{"name":"# 6","name:es":"# 6"}},"5021011222":{"location":[22.9939293,-81.4646045],"ct":"CU","tp":"CS","ts":"2017-08-07T22:40:57Z","tX":280,"tY":444,"tags":{"name":"# 10","name:es":"# 10"}},"5021011223":{"location":[22.9939734,-81.464705],"ct":"CU","tp":"CS","ts":"2017-08-07T22:40:59Z","tX":280,"tY":444,"tags":{"name":"# 09"}},"5021011226":{"location":[22.9940643,-81.4645759],"ct":"CU","tp":"CS","ts":"2017-08-07T22:41:21Z","tX":280,"tY":444,"tags":{"name":"# 8","name:es":"# 8"}},"5021011321":{"location":[22.9939027,-81.4648299],"ct":"CU","tp":"CS","ts":"2017-08-07T22:41:01Z","tX":280,"tY":444,"tags":{"name":"# 11","name:es":"# 11"}},"5021011322":{"location":[22.9938441,-81.4646647],"ct":"CU","tp":"CS","ts":"2017-08-07T22:41:03Z","tX":280,"tY":444,"tags":{"name":"# 12","name:es":"# 12"}},"5021011327":{"location":[22.9947568,-81.4646804],"ct":"CU","tp":"CS","ts":"2017-08-07T22:41:48Z","tX":280,"tY":444,"tags":{"name":"# 2","name:es":"# 2"}},"5021011328":{"location":[22.994633,-81.4646371],"ct":"CU","tp":"CS","ts":"2017-08-07T22:41:50Z","tX":280,"tY":444,"tags":{"name":"# 3","name:es":"# 3"}}}