{"901682720":{"location":[30.8962783,-102.9361837],"ct":"US","tp":"CR","ts":"2024-05-02T07:01:09Z","tX":219,"tY":419,"tags":{"addr:city":"Fort Stockton","addr:housenumber":"4076","addr:postcode":"79735","addr:state":"TX","addr:street":"Interstate 10 West","name":"Hilltop RV Park","phone":"+14323366090","website":"https://ftstocktontexasrvpark.com/"}},"901685814":{"location":[30.8952752,-102.9276487],"ct":"US","tp":"CR","ts":"2021-01-29T17:18:12Z","tX":219,"tY":419,"tags":{"addr:city":"Fort Stockton","addr:housenumber":"4014","addr:postcode":"79735","addr:state":"TX","addr:street":"IH 10","name":"Hillside RV Park","phone":"+14323366659"}},"1105297360":{"location":[30.8959963,-102.8618981],"ct":"US","tp":"CR","ts":"2024-05-04T05:36:22Z","tX":219,"tY":419,"tags":{"addr:city":"Fort Stockton","addr:housenumber":"1504","addr:postcode":"79735","addr:state":"TX","addr:street":"East 14th Street","name":"Fort Stockton Resort & RV Park","residential":"mobile"}},"1506573850":{"location":[30.8939893,-102.7952871],"ct":"US","tp":"CR","ts":"2011-11-17T19:29:52Z","tX":219,"tY":419,"tags":{"name":"Fort Stockton RV Park"}},"6852873920":{"location":[30.8788082,-102.8678687],"ct":"US","tp":"CR","ts":"2019-10-05T00:02:46Z","tX":219,"tY":419,"tags":{"name":"Roadrunner RV Park"}},"7714655498":{"location":[30.8879494,-102.8464466],"ct":"US","tp":"CR","ts":"2020-07-14T19:44:26Z","tX":219,"tY":419,"tags":{"addr:city":"Fort Stockton","addr:housenumber":"2505","addr:postcode":"79735","addr:state":"TX","addr:street":"Ray Falcon","internet_access":"wlan","internet_access:fee":"no","name":"Cory B RV Park and Trucking Yard","power_supply":"yes","sanitary_dump_station":"yes"}}}