{"4383039689":{"location":[28.1690235,84.1187018],"ct":"NP","tp":"CS","ts":"2016-09-04T09:03:24Z","tX":751,"tY":428,"tags":{}},"6743752685":{"location":[28.157034,84.0322928],"ct":"NP","tp":"CS","ts":"2019-08-25T10:07:02Z","tX":751,"tY":428,"tags":{"name:en":"firing range"}},"8041250986":{"location":[28.1671509,84.1017511],"ct":"NP","tp":"CS","ts":"2020-10-24T01:33:47Z","tX":751,"tY":428,"tags":{"name:en":"Begnas Lake Side Camping"}},"8041710520":{"location":[28.1259078,84.0469551],"ct":"NP","tp":"CS","ts":"2020-10-24T08:37:38Z","tX":751,"tY":428,"tags":{"name":"Hudikot"}},"8165003517":{"location":[28.2634467,84.2117212],"ct":"NP","tp":"CS","ts":"2020-11-25T15:35:06Z","tX":751,"tY":428,"tags":{"addr:street":"Foot trail to Pasgaun","name:en":"Pasgaun, Bagaincha","phone":"9841418402"}},"8165004717":{"location":[28.2919541,84.2379711],"ct":"NP","tp":"CS","ts":"2020-11-25T15:35:09Z","tX":751,"tY":428,"tags":{"addr:street":"Trail to Bhujung","name:en":"Pasgaun Khumer","phone":"9841418402"}}}