{"722629243":{"location":[39.952714,-105.3819376],"ct":"US","tp":"CS","ts":"2021-08-19T08:52:29Z","tX":212,"tY":387,"tags":{"capacity":"31","name":"Winegar Ridge Campground","openfire":"yes","tents":"yes"}},"1200694505":{"location":[40.1342614,-105.4573508],"ct":"US","tp":"CS","ts":"2024-06-08T03:50:25Z","tX":212,"tY":387,"tags":{"acres":"594.68","addr:city":"Ward","addr:housenumber":"8748","addr:postcode":"80481","addr:state":"CO","addr:street":"Overland Road","denomination":"seventh_day_adventist","email":"info@glacierviewranch.com","name":"Glacier View Ranch","note":"Bring your school, youth or church groups, as well as family reunions, and weddings to enjoy our ranch facilities.  With lodging facilities ranging from cozy lodge rooms, a rustic residential style cabin, summer camp cabins, tent sites, or RV sites","owner":"ROCKY MTN CONF OF SEVENTH-DAY ADVENTISTS","parcel":"132100000027","phone":"303-459-0771","religion":"christian","start_date":"~1948","website":"https://www.glacierviewranch.com/"}},"1268722357":{"location":[40.1313165,-105.4650472],"ct":"US","tp":"CR","ts":"2024-04-03T16:34:04Z","tX":212,"tY":387,"tags":{}},"4166165604":{"location":[39.9650337,-105.3386949],"ct":"US","tp":"CS","ts":"2021-10-17T03:19:22Z","tX":212,"tY":387,"tags":{"addr:city":"Boulder","addr:state":"CO","addr:street":"Flagstaff Road","fee":"yes","group_only":"yes","name":"Camp Patiya","operator":"Boy Scouts of America","reservation":"required","website":"https://longspeakbsa.org/programs/camps-camping/camp-patiya/"}},"7680836501":{"location":[39.9609329,-105.3814346],"ct":"US","tp":"CS","ts":"2020-07-03T17:11:31Z","tX":212,"tY":387,"tags":{"ele":"2392.33","leisure":"firepit"}},"7680836502":{"location":[39.9619911,-105.385008],"ct":"US","tp":"CS","ts":"2020-07-03T17:11:31Z","tX":212,"tY":387,"tags":{"ele":"2367.83","leisure":"firepit"}},"7680836503":{"location":[39.9613114,-105.3826363],"ct":"US","tp":"CS","ts":"2020-07-03T17:11:31Z","tX":212,"tY":387,"tags":{"ele":"2386.27","leisure":"firepit"}},"7680884910":{"location":[39.9634692,-105.3897144],"ct":"US","tp":"CS","ts":"2020-07-03T17:18:01Z","tX":212,"tY":387,"tags":{"ele":"2362.61","leisure":"firepit"}}}