{"264243901":{"location":[38.6167793,-105.229024],"ct":"US","tp":"CS","ts":"2022-05-04T13:50:52Z","tX":212,"tY":392,"tags":{"access":"yes","fee":"yes","name":"Sand Gulch Campground","operator":"Bureau of Land Management","website":"https://www.recreation.gov/camping/campgrounds/261780"}},"264244079":{"location":[38.6285158,-105.2262747],"ct":"US","tp":"CS","ts":"2019-02-17T08:26:09Z","tX":212,"tY":392,"tags":{"name":"Banks Campground","operator":"Bureau of Land Management","website":"https://www.blm.gov/co/st/en/fo/rgfo/recreation0/recreation_areas/Banks_and_Sand_Gulch.html"}},"264244082":{"location":[38.6279073,-105.2243488],"ct":"US","tp":"CS","ts":"2014-03-03T02:54:36Z","tX":212,"tY":392,"tags":{"name":"Banks Campground Group Site"}},"346953345":{"location":[38.7537423,-105.1843265],"ct":"US","tp":"CR","ts":"2015-05-21T20:11:07Z","tX":212,"tY":392,"tags":{"name":"Cripple Creek Hospitality House & RV Park"}},"348452141":{"location":[38.7436313,-105.1782191],"ct":"US","tp":"CR","ts":"2021-07-30T18:22:16Z","tX":212,"tY":392,"tags":{"addr:city":"Cripple Creek","addr:housenumber":"202","addr:postcode":"80813","addr:state":"CO","addr:street":"East May Avenue","name":"Cripple Creek RV Park"}},"8318259517":{"location":[38.6268666,-105.2304966],"ct":"US","tp":"CS","ts":"2021-01-13T10:14:01Z","tX":212,"tY":392,"tags":{"name":"Shelf","name:en":"Sand Gulch"}}}