{"1356347553":{"location":[35.6546859,-105.2316677],"ct":"US","tp":"CR","ts":"2025-02-03T07:32:31Z","tX":212,"tY":403,"tags":{"addr:city":"Las Vegas","addr:state":"NM","name":"Storrie RV Area"}},"1393659373":{"location":[35.6229833,-105.225055],"ct":"US","tp":"CR","ts":"2025-06-09T21:17:28Z","tX":212,"tY":403,"tags":{"addr:city":"Las Vegas","addr:state":"NM","addr:street":"Harris Road","name":"Las Vegas RV Over Nite Park"}},"2332493711":{"location":[35.6983669,-105.4219587],"ct":"US","tp":"CS","ts":"2013-06-05T00:02:05Z","tX":212,"tY":403,"tags":{"name":"E.V. Long Campground","operator":"USFS","source":"www.fs.usda.gov","uuid":"sonora_20130605"}},"2332493714":{"location":[35.7103182,-105.4122388],"ct":"US","tp":"CS","ts":"2013-06-05T00:02:05Z","tX":212,"tY":403,"tags":{"name":"El Porvenir Campground","operator":"USFS","source":"www.fs.usda.gov","uuid":"sonora_20130605"}},"8947510021":{"location":[35.6379315,-105.4292876],"ct":"US","tp":"CS","ts":"2022-03-29T15:22:31Z","tX":212,"tY":403,"tags":{"access":"private","addr:city":"Las Vegas","addr:housenumber":"62","addr:postcode":"87701","addr:state":"NM","addr:street":"Camp S Street","name":"Blue Haven Youth Camp"}},"10266733396":{"location":[35.6546327,-105.2315925],"ct":"US","tp":"CS","ts":"2022-12-16T05:30:34Z","tX":212,"tY":403,"tags":{}},"12367760229":{"location":[35.5115036,-105.2532908],"ct":"US","tp":"CR","ts":"2025-03-25T17:09:43Z","tX":212,"tY":403,"tags":{"addr:housenumber":"76","addr:street":"County Rd A25A","description":"KOA Campground","name":"Las Vegas New Mexico KOA Journey","phone":"(505) 454-0180","website":"https://koa.com/"}}}