{"995063816":{"location":[45.3940473,-84.0557066],"ct":"US","tp":"CS","ts":"2023-10-02T15:22:13Z","tX":272,"tY":366,"tags":{"access":"customers","capacity":"15","fee":"yes","gnis:feature_id":"2374311","name":"Ocqueoc Falls State Forest Campground","phone":"+1-989-734-2543","reservation":"no","website":"https://www2.dnr.state.mi.us/parksandtrails/details.aspx?id=627&type=SFCG"}},"995065325":{"location":[45.4356141,-84.2315244],"ct":"US","tp":"CS","ts":"2024-06-30T21:12:08Z","tX":272,"tY":366,"tags":{"access":"customers","name":"Onaway State Park Campground","website":"https://www2.dnr.state.mi.us/parksandtrails/details.aspx?id=479&type=SPRK"}},"995065563":{"location":[45.4898429,-84.2648557],"ct":"US","tp":"CS","ts":"2021-10-21T00:51:13Z","tX":272,"tY":366,"tags":{"capacity":"17","name":"Black Lake State Forest Campground-Lower","website":"https://www2.dnr.state.mi.us/parksandtrails/Details.aspx?id=752&type=SFCG#overview"}},"995065564":{"location":[45.4918894,-84.2664641],"ct":"US","tp":"CS","ts":"2021-10-21T00:51:13Z","tX":272,"tY":366,"tags":{"capacity":"35","name":"Black Lake State Forest Campground-Upper","website":"https://www2.dnr.state.mi.us/parksandtrails/Details.aspx?id=626&type=SFCG#overview"}},"996629798":{"location":[45.3556533,-84.2898395],"ct":"US","tp":"CS","ts":"2021-12-26T22:34:33Z","tX":272,"tY":366,"tags":{"name":"Tower Shores Motel Campground","phone":"+1-989-733-5999","website":"https://towershoremotel.com/"}},"1179862372":{"location":[45.5083499,-84.3331343],"ct":"US","tp":"CS","ts":"2023-06-05T22:20:20Z","tX":272,"tY":366,"tags":{"access":"customers","capacity:caravans":"1","capacity:persons":"10","capacity:tents":"10","caravans":"yes","name":"Private Rustic Prairie","operator":"Hipcamp","tents":"yes","website":"https://www.hipcamp.com/en-US/land/michigan-private-rustic-prairie-9mxhrjo7"}},"1214815376":{"location":[45.4960884,-84.1010107],"ct":"US","tp":"CS","ts":"2023-10-11T14:16:46Z","tX":272,"tY":366,"tags":{"access":"customers","addr:city":"Millersburg","addr:housenumber":"16660","addr:postcode":"49759","addr:state":"MI","addr:street":"US-23 North","alt_name":"Ocqueoc Cabins & Campsite rentals","capacity:caravans":"4","caravans":"yes","description":"Property offers 5 standard cabins, 1 deluxe cabin, and 4 full-hookup campsites.","email":"ocqueocrentals@gmail.com","facebook":"https://www.facebook.com/Waysidecabinrentals/","name":"Wayside Cabin Rentals","phone":"+1-231-420-7873","static_caravans":"no","tents":"yes","website":"https://www.ocqueocrentals.com/"}},"1218271053":{"location":[45.4211157,-84.2783777],"ct":"US","tp":"CS","ts":"2023-10-25T12:42:57Z","tX":272,"tY":366,"tags":{}},"2920898948":{"location":[45.5369448,-84.2896843],"ct":"US","tp":"CS","ts":"2021-08-08T14:10:29Z","tX":272,"tY":366,"tags":{"gnis:feature_id":"2369244","name":"Twin Lakes State Forest Campground"}},"5412519544":{"location":[45.4210126,-84.279046],"ct":"US","tp":"CS","ts":"2018-02-14T15:31:13Z","tX":272,"tY":366,"tags":{}},"11289049496":{"location":[45.4358613,-84.2338178],"ct":"US","tp":"SD","ts":"2023-10-25T15:48:23Z","tX":272,"tY":366,"tags":{"access":"customers","name":"Sanitation Station","operator":"Onaway State Park"}}}