{"288772392":{"location":[44.7521706,-84.240796],"ct":"US","tp":"CS","ts":"2024-04-23T11:12:14Z","tX":272,"tY":369,"tags":{"access":"yes","capacity:tents":"13","name":"Muskrat Lake State Forest Campground","operator":"Michigan Department of Natural Resources","phone":"+1-989-473-2258","source":"bing","tents":"yes","website":"https://www2.dnr.state.mi.us/parksandtrails/Details.aspx?id=565&type=SFCG"}},"290900244":{"location":[44.6574454,-84.14074],"ct":"US","tp":"CS","ts":"2019-02-22T00:29:03Z","tX":272,"tY":369,"tags":{"addr:city":"Mio","addr:housenumber":"1110","addr:postcode":"48647","addr:street":"Jay Smith Drive","gnis:feature_id":"2499980","name":"Oscoda County Park","phone":"+1 989 826 5114","website":"https://oscodacountymi.com/county-park/"}},"996751273":{"location":[44.65199,-84.1004893],"ct":"US","tp":"CS","ts":"2023-03-17T23:37:10Z","tX":272,"tY":369,"tags":{"access":"yes","name":"Au Sable Loop Campground","operator":"United States Forest Service","website":"https://www.fs.usda.gov/recarea/hmnf/recarea/?recid=18544"}},"1210569056":{"location":[44.6516175,-84.146431],"ct":"US","tp":"CR","ts":"2023-09-24T15:49:11Z","tX":272,"tY":369,"tags":{"addr:city":"Mio","addr:housenumber":"1215","addr:postcode":"48647","addr:state":"MI","addr:street":"West 8th Street","gnis:feature_id":"2499970","name":"Mio Pine Acres","phone":"+1-989-826-5590","website":"http://www.miopineacres.com"}},"1258368790":{"location":[44.676704,-84.29364],"ct":"US","tp":"CS","ts":"2024-03-06T17:44:10Z","tX":272,"tY":369,"tags":{"access":"yes","capacity:tents":"7","name":"Parmalee Bridge State Forest Campground","operator":"Michigan Department of Natural Resources","phone":"+1-989-473-2258","tents":"yes","website":"https://www2.dnr.state.mi.us/parksandtrails/details.aspx?id=564&type=SFCG"}},"1258764876":{"location":[44.6627427,-84.1458244],"ct":"US","tp":"CS","ts":"2024-03-07T18:29:38Z","tX":272,"tY":369,"tags":{"access":"yes","capacity:tents":"24","charge":"20 USD","fee":"yes","gnis:feature_id":"1622886","name":"Mio Pond State Forest Campground and Group Camp","operator":"Michigan Department of Natural Resources","payment:cash":"yes","payment:cheque":"yes","phone":"+1-989-473-2258","tents":"yes"}},"2922900629":{"location":[44.807131,-84.3154605],"ct":"US","tp":"CR","ts":"2023-10-27T23:41:42Z","tX":272,"tY":369,"tags":{"addr:city":"Lewiston","addr:housenumber":"4329","addr:postcode":"49756","addr:state":"MI","addr:street":"North Red Oak Road","gnis:feature_id":"2420593","name":"Lewiston Shady Acres Campground and Cottages","phone":"+1-800-357-2494","website":"https://www.lewistonshadyacres.com/"}},"10742541257":{"location":[44.6557768,-84.0753752],"ct":"US","tp":"CS","ts":"2023-03-17T23:54:30Z","tX":272,"tY":369,"tags":{"access":"yes","backcountry":"yes","name":"Meadow Springs Campground","operator":"United States Forest Service","website":"https://www.fs.usda.gov/recarea/hmnf/recreation/camping-cabins/recarea/?recid=18564&actid=29"}},"10742548221":{"location":[44.6497569,-84.096667],"ct":"US","tp":"CS","ts":"2023-03-18T00:02:51Z","tX":272,"tY":369,"tags":{"access":"yes","backcountry":"yes","name":"River Dune Campground","operator":"United States Forest Service","tents":"yes","website":"https://www.fs.usda.gov/recarea/hmnf/recreation/camping-cabins/recarea/?recid=18566&actid=29"}},"11701507651":{"location":[44.6639565,-84.1432254],"ct":"US","tp":"CS","ts":"2024-04-23T11:12:14Z","tX":272,"tY":369,"tags":{"group_only":"yes","name":"Paddle-In Group Camp"}}}