{"17318448":{"location":[44.4024534,-84.1849026],"ct":"US","tp":"CS","ts":"2024-03-07T16:15:25Z","tX":272,"tY":370,"tags":{"addr:city":"Rose City","addr:housenumber":"2374","addr:postcode":"48654","addr:state":"MI","addr:street":"Lentz Road","email":"info@ogemawsport.com","fee":"yes","name":"Ogemaw Sport and Trail Center â€“ Motocross and ATV Campground","phone":"+1-989-685-2999","website":"https://ogemawsport.com/"}},"290372472":{"location":[44.5778903,-84.0648688],"ct":"US","tp":"CS","ts":"2019-02-17T02:15:20Z","tX":272,"tY":370,"tags":{"gnis:feature_id":"1622903","name":"Mack Lake ORV Campground","source":"bing","website":"https://www.fs.usda.gov/recarea/hmnf/null/recarea/?recid=18936&actid=82"}},"971360963":{"location":[44.3916154,-84.0364932],"ct":"US","tp":"CS","ts":"2024-12-19T15:19:18Z","tX":272,"tY":370,"tags":{"access":"yes","capacity:tents":"25","drinking_water":"yes","gnis:feature_id":"2502001","name":"Rifle River-Ranch Rustic Campground","operator":"Michigan Department of Natural Resources","tents":"yes"}},"1100940271":{"location":[44.3971999,-84.0273943],"ct":"US","tp":"CS","ts":"2024-12-19T15:19:18Z","tX":272,"tY":370,"tags":{"access":"yes","capacity:tents":"58","drinking_water":"yes","gnis:feature_id":"2502989","name":"Rifle River-Devoe Lake Rustic Campground","operator":"Michigan Department of Natural Resources","phone":"+1-800-447-2757","tents":"yes","website":"https://www2.dnr.state.mi.us/parksandtrails/Details.aspx?id=460&type=SPCG"}},"1225507294":{"location":[44.4012577,-84.3027017],"ct":"US","tp":"CR","ts":"2023-11-20T19:00:09Z","tX":272,"tY":370,"tags":{"addr:city":"West Branch","addr:housenumber":"4408","addr:postcode":"48661","addr:state":"MI","addr:street":"Grass Lake Road","gnis:feature_id":"2501993","name":"Beaver Trail Campground","phone":"+1-989-345-7745","website":"http://www.beavertrailcampground.com/"}},"1258366080":{"location":[44.5860477,-84.289325],"ct":"US","tp":"CS","ts":"2024-03-06T17:32:38Z","tX":272,"tY":370,"tags":{"access":"yes","gnis:feature_id":"1622894","name":"Luzerne Trail Camp","operator":"United States Forest Service","website":"https://www.fs.usda.gov/recarea/hmnf/recarea/?recid=18744"}},"1258661634":{"location":[44.3867832,-84.0333628],"ct":"US","tp":"CS","ts":"2024-12-19T15:19:18Z","tX":272,"tY":370,"tags":{"access":"yes","capacity:tents":"16","drinking_water":"yes","gnis:feature_id":"2502002","name":"Rifle River-Spruce Rustic Campground","operator":"Michigan Department of Natural Resources","phone":"+1-800-447-2757","tents":"yes"}},"1258701909":{"location":[44.4004784,-84.0378171],"ct":"US","tp":"CS","ts":"2024-03-07T15:08:17Z","tX":272,"tY":370,"tags":{"access":"yes","capacity:persons":"100","drinking_water":"yes","name":"Rifle River-Group Use Campground","operator":"Michigan Department of Natural Resources","phone":"+1-989-473-2258","website":"https://www2.dnr.state.mi.us/parksandtrails/Details.aspx?id=208&type=SPCG"}},"1258701910":{"location":[44.4146911,-84.0238555],"ct":"US","tp":"CR","ts":"2024-12-19T15:20:37Z","tX":272,"tY":370,"tags":{"gnis:feature_id":"2502988","name":"Rifle River Grousehaven-Modern Campground"}},"1258736788":{"location":[44.4071931,-84.2564149],"ct":"US","tp":"CS","ts":"2024-03-29T05:29:20Z","tX":272,"tY":370,"tags":{"access":"yes","capacity:tents":"25","charge":"20 USD","fee":"yes","gnis:feature_id":"2502990","name":"Ambrose Lake State Forest Campground","operator":"Michigan Department of Natural Resources","payment:cash":"yes","payment:cheque":"yes","phone":"+1-989-473-2258","tents":"yes","website":"https://www2.dnr.state.mi.us/parksandtrails/Details.aspx?id=572&type=SFCG"}},"1258754413":{"location":[44.509456,-84.1417194],"ct":"US","tp":"CS","ts":"2024-03-07T17:50:08Z","tX":272,"tY":370,"tags":{"access":"yes","charge":"15 USD","drinking_water":"yes","fee":"yes","gnis:feature_id":"1622907","name":"Island Lake Campground","operator":"United States Forest Service","payment:cash":"yes","payment:cheque":"yes","website":"https://www.fs.usda.gov/recarea/hmnf/recarea/?recid=18828"}},"1258762531":{"location":[44.5535054,-84.1467469],"ct":"US","tp":"CS","ts":"2024-03-07T18:19:08Z","tX":272,"tY":370,"tags":{"access":"yes","charge":"15 USD","drinking_water":"yes","fee":"yes","gnis:feature_id":"1622906","name":"Wagner Lake Campground","operator":"United States Forest Service","payment:cash":"yes","payment:cheque":"yes","website":"https://www.fs.usda.gov/recarea/hmnf/recarea/?recid=18846"}},"11701060719":{"location":[44.4157248,-84.023642],"ct":"US","tp":"SD","ts":"2024-03-07T15:08:17Z","tX":272,"tY":370,"tags":{}}}