{"341085887":{"location":[42.414811,-84.0334538],"ct":"US","tp":"CS","ts":"2023-09-24T20:32:14Z","tX":272,"tY":378,"tags":{"access":"private","addr:city":"Gregory","addr:housenumber":"20120","addr:postcode":"48137","addr:street":"Bartell Road","gnis:feature_id":"622607","group_only":"yes","name":"Camp Munhacke","operator":"Boy Scouts of America","website":"https://www.michiganscouting.org/Camping/CampMunhacke/"}},"341917560":{"location":[42.4358748,-84.2809705],"ct":"US","tp":"CS","ts":"2024-08-13T17:22:46Z","tX":272,"tY":378,"tags":{"ele":"283","gnis:feature_id":"1616453","name":"Heartland Campground"}},"380015184":{"location":[42.4214562,-84.0430367],"ct":"US","tp":"CS","ts":"2015-11-13T01:09:26Z","tX":272,"tY":378,"tags":{"name":"Bruin Lake Campground","source":"http://www.michigandnr.com/Publications/PDFS/RecreationCamping/pinckney_map.pdf"}},"384118465":{"location":[42.3298997,-84.2385266],"ct":"US","tp":"CR","ts":"2015-12-03T00:02:12Z","tX":272,"tY":378,"tags":{"name":"Waterloo Portage Lake-Modern"}},"384118466":{"location":[42.3427582,-84.1214485],"ct":"US","tp":"CR","ts":"2015-12-03T00:02:12Z","tX":272,"tY":378,"tags":{"name":"Waterloo Sugarloaf-Modern","note":"boundaries are arbitrary"}},"645049653":{"location":[42.344809,-84.1345269],"ct":"US","tp":"CS","ts":"2021-01-10T21:01:21Z","tX":272,"tY":378,"tags":{"name":"Farmlane Campground"}},"955607026":{"location":[42.4302304,-84.3218126],"ct":"US","tp":"CS","ts":"2024-10-24T11:13:45Z","tX":272,"tY":378,"tags":{"access":"permit","addr:city":"Stockbridge","addr:housenumber":"5250","addr:postcode":"49285","addr:state":"MI","addr:street":"Williamston Road","alt_name":"CRC","capacity":"300","charge":"50 USD","description":"Male-only campground","dog":"yes","fee":"yes","name":"CreekRidge Campground","openfire":"yes","payment:cash":"yes","payment:credit_cards":"yes","payment:debit_cards":"yes","payment:mastercard":"yes","payment:visa":"yes","phone":"+1-517-565-3800","power_supply":"yes","shower":"yes","toilets":"yes","website":"https://creekridgecampground.com/"}},"1144807838":{"location":[42.3645043,-84.0713214],"ct":"US","tp":"CS","ts":"2024-03-06T14:10:37Z","tX":272,"tY":378,"tags":{"capacity:tents":"25","name":"Green Lake Rustic Campground","operator":"Michigan Department of Natural Resources","operator:short":"Michigan DNR","operator:type":"public","operator:wikidata":"Q6837532","operator:wikipedia":"en:Michigan Department of Natural Resources","phone":"+1-734-475-8307","reservation":"yes","tents":"yes","website":"https://www2.dnr.state.mi.us/ParksandTrails/Details.aspx?id=235&type=SPCG"}},"1258265180":{"location":[42.3333564,-84.1292454],"ct":"US","tp":"CS","ts":"2024-03-06T14:25:22Z","tX":272,"tY":378,"tags":{"access":"yes","capacity:tents":"25","name":"Horsemen's Equestrian Campground","operator":"Michigan Department of Natural Resources","phone":"+1-734-475-8307","tents":"yes"}},"1258268182":{"location":[42.331144,-84.172269],"ct":"US","tp":"CS","ts":"2024-03-06T14:34:15Z","tX":272,"tY":378,"tags":{"access":"yes","backcountry":"yes","capacity:tents":"5","name":"Pines Campground","operator":"Michigan Department of Natural Resources","phone":"+1-800-447-2757","tents":"yes","website":"https://www2.dnr.state.mi.us/parksandtrails/Details.aspx?id=556&type=SPCG"}},"1258290622":{"location":[42.4661595,-84.34263],"ct":"US","tp":"CS","ts":"2024-03-06T15:15:40Z","tX":272,"tY":378,"tags":{"access":"customers","addr:city":"Leslie","addr:housenumber":"240","addr:postcode":"49251","addr:state":"MI","addr:street":"Fogg Road","capacity:caravans":"154","caravans":"yes","email":"ataylor3d@aol.com","name":"Wheel Inn Campground","phone":"+1-517-589-8097"}},"2346552960":{"location":[42.4236034,-84.0420794],"ct":"US","tp":"SD","ts":"2015-03-29T09:55:03Z","tX":272,"tY":378,"tags":{}},"2941382894":{"location":[42.4372214,-84.0267378],"ct":"US","tp":"CS","ts":"2022-08-16T13:34:17Z","tX":272,"tY":378,"tags":{"addr:city":"Pinckney","addr:housenumber":"1200","addr:postcode":"48169","addr:street":"University Camp Drive","gnis:feature_id":"626491","name":"North Star Reach Camp","old_name":"Fresh Air Camp","website":"https://www.northstarreach.org/"}},"2941382896":{"location":[42.3999662,-84.34642],"ct":"US","tp":"CR","ts":"2019-02-18T09:55:58Z","tX":272,"tY":378,"tags":{"gnis:feature_id":"2632942","name":"Pleasant Lake Campground","website":"https://www.co.jackson.mi.us/departments/Parks/parks_description/pleasant_lake_county_park_and_campground.asp"}},"9056349131":{"location":[42.32961,-84.2371948],"ct":"US","tp":"SD","ts":"2021-09-02T14:18:06Z","tX":272,"tY":378,"tags":{}}}