{"14618728":{"location":[42.2041295,-84.2449049],"ct":"US","tp":"CS","ts":"2022-09-24T20:55:07Z","tX":272,"tY":379,"tags":{"boundary":"landuse","group_only":"yes","name":"Sassafras"}},"16928251":{"location":[42.0788216,-84.2169195],"ct":"US","tp":"CS","ts":"2024-01-03T19:10:46Z","tX":272,"tY":379,"tags":{"addr:city":"Brooklyn","addr:housenumber":"1124","addr:postcode":"49230","addr:street":"Ventura Drive","alt_name":"Camp De Sales","gnis:feature_id":"622562","leisure":"resort","name":"De Sales Center","operator":"Oblate Fathers of St. Francis","operator:type":"religious","resort":"kids_camp","website":"https://www.desales.org/"}},"205025090":{"location":[42.0717972,-84.2365019],"ct":"US","tp":"CS","ts":"2017-08-07T02:34:49Z","tX":272,"tY":379,"tags":{"tiger:county":"Lenawee, MI"}},"205025146":{"location":[42.0668485,-84.2406733],"ct":"US","tp":"CS","ts":"2024-05-01T03:38:18Z","tX":272,"tY":379,"tags":{"name":"Infield"}},"205027900":{"location":[42.0724461,-84.2374832],"ct":"US","tp":"CS","ts":"2017-08-07T02:34:49Z","tX":272,"tY":379,"tags":{"tiger:county":"Lenawee, MI"}},"205027902":{"location":[42.0598072,-84.2324254],"ct":"US","tp":"CS","ts":"2013-02-11T09:07:55Z","tX":272,"tY":379,"tags":{}},"205027903":{"location":[42.074866,-84.2358611],"ct":"US","tp":"CS","ts":"2015-05-18T16:22:01Z","tX":272,"tY":379,"tags":{"name":"Tree Farm"}},"205027904":{"location":[42.0714743,-84.2322755],"ct":"US","tp":"CS","ts":"2015-05-18T16:22:01Z","tX":272,"tY":379,"tags":{"name":"M-50 Creekside"}},"205030293":{"location":[42.0608673,-84.2518166],"ct":"US","tp":"CS","ts":"2013-02-11T09:07:54Z","tX":272,"tY":379,"tags":{}},"205030297":{"location":[42.0770108,-84.2435014],"ct":"US","tp":"CS","ts":"2015-05-18T16:22:00Z","tX":272,"tY":379,"tags":{"name":"Brookfest Acres"}},"346025022":{"location":[42.0615014,-84.2385477],"ct":"US","tp":"CS","ts":"2015-05-18T19:39:27Z","tX":272,"tY":379,"tags":{"name":"Turn 2 Retreat"}},"346028091":{"location":[42.0543867,-84.2303169],"ct":"US","tp":"CS","ts":"2015-05-18T16:40:14Z","tX":272,"tY":379,"tags":{"name":"Graves Farm"}},"346034436":{"location":[42.0714158,-84.2525611],"ct":"US","tp":"CS","ts":"2015-05-18T17:10:12Z","tX":272,"tY":379,"tags":{"name":"Brooklyn Trails"}},"346038706":{"location":[42.064936,-84.2508417],"ct":"US","tp":"CS","ts":"2015-05-18T17:31:00Z","tX":272,"tY":379,"tags":{"name":"Northwoods, Northfield"}},"491388824":{"location":[42.0663876,-84.0977386],"ct":"US","tp":"CS","ts":"2017-05-04T17:43:06Z","tX":272,"tY":379,"tags":{"name":"Ja Do Campground"}},"513450563":{"location":[42.0727394,-84.2382057],"ct":"US","tp":"CS","ts":"2017-08-07T02:34:36Z","tX":272,"tY":379,"tags":{"tiger:county":"Lenawee, MI"}},"688254478":{"location":[42.053775,-84.3427776],"ct":"US","tp":"CS","ts":"2021-02-14T13:35:58Z","tX":272,"tY":379,"tags":{"name":"Paradise Campground"}},"775122937":{"location":[42.289601,-84.2791098],"ct":"US","tp":"CS","ts":"2020-02-20T21:42:14Z","tX":272,"tY":379,"tags":{}},"1097533352":{"location":[42.2024075,-84.2523581],"ct":"US","tp":"CS","ts":"2022-09-24T17:33:20Z","tX":272,"tY":379,"tags":{"group_only":"yes","name":"Hickories","scout":"yes"}},"1097578642":{"location":[42.2044731,-84.2449922],"ct":"US","tp":"CS","ts":"2022-09-24T20:55:07Z","tX":272,"tY":379,"tags":{"group_only":"yes"}},"1097578643":{"location":[42.2041518,-84.244862],"ct":"US","tp":"CS","ts":"2022-09-24T21:06:04Z","tX":272,"tY":379,"tags":{"group_only":"yes"}},"1097578644":{"location":[42.2043158,-84.2452736],"ct":"US","tp":"CS","ts":"2022-09-24T21:06:04Z","tX":272,"tY":379,"tags":{"group_only":"yes"}},"1097578645":{"location":[42.2037532,-84.2445597],"ct":"US","tp":"CS","ts":"2022-09-24T21:06:04Z","tX":272,"tY":379,"tags":{"group_only":"yes"}},"1097583086":{"location":[42.203263,-84.2479562],"ct":"US","tp":"CS","ts":"2022-09-24T21:26:00Z","tX":272,"tY":379,"tags":{"access":"permit","description":"Adirondack Shelters","group_only":"yes","name":"Poplars"}},"1105542513":{"location":[42.0661485,-84.1319672],"ct":"US","tp":"CS","ts":"2022-10-20T14:20:23Z","tX":272,"tY":379,"tags":{"name":"Hayes-Modern"}},"1105542514":{"location":[42.0657581,-84.1268227],"ct":"US","tp":"CS","ts":"2022-10-20T14:20:23Z","tX":272,"tY":379,"tags":{"name":"Hayes-Modern"}},"1236664753":{"location":[42.0753354,-84.2243313],"ct":"US","tp":"CS","ts":"2024-01-03T19:10:46Z","tX":272,"tY":379,"tags":{"name":"Ted Ranch Campground","phone":"+1-517-592-2434","website":"http://www.tedranchcampground.com/"}},"1267104215":{"location":[42.2876566,-84.2352305],"ct":"US","tp":"CR","ts":"2024-03-28T12:47:53Z","tX":272,"tY":379,"tags":{"addr:city":"Grass Lake","addr:housenumber":"9625","addr:postcode":"49240","addr:state":"MI","addr:street":"Knight Road","gnis:feature_id":"2633018","name":"Holiday RV Campground","phone":"+1-517-522-5846","tents":"yes","website":"https://holidayrvcampground.com/"}},"2939893050":{"location":[42.0524015,-84.3070811],"ct":"US","tp":"CR","ts":"2020-12-07T15:02:51Z","tX":272,"tY":379,"tags":{"addr:city":"Cement City","addr:housenumber":"16230","addr:postcode":"49233","addr:state":"MI","addr:street":"US-12","gnis:feature_id":"2465626","name":"Irish Hills Kampground","phone":"+1-517-592-6751","tents":"yes","website":"https://irishhillskampground.com/"}},"2939893052":{"location":[42.062693,-84.2559673],"ct":"US","tp":"CR","ts":"2020-12-07T15:04:02Z","tX":272,"tY":379,"tags":{"addr:city":"Brooklyn","addr:housenumber":"13500","addr:postcode":"49230","addr:state":"MI","addr:street":"US 12","gnis:feature_id":"2575835","name":"Juniper Hills Campgrounds","phone":"+1-888-396-8300","tents":"yes","website":"https://www.juniperhills.com/"}},"2939893054":{"location":[42.0740399,-84.2551014],"ct":"US","tp":"CR","ts":"2020-12-07T15:03:38Z","tX":272,"tY":379,"tags":{"addr:city":"Brooklyn","addr:housenumber":"13400","addr:postcode":"49230","addr:state":"MI","addr:street":"Taylor Road","gnis:feature_id":"2633066","name":"Kooters Creekside Campground","phone":"+1-517-841-6719","tents":"yes","website":"http://kooterscreeksidecampground.com/"}},"2941382888":{"location":[42.1915889,-84.2056206],"ct":"US","tp":"CR","ts":"2023-11-08T01:07:24Z","tX":272,"tY":379,"tags":{"addr:city":"Grass Lake","addr:housenumber":"11185","addr:postcode":"49240","addr:state":"MI","addr:street":"Orban Road","gnis:feature_id":"2633025","name":"Apple Creek Campground & RV Park","phone":"+1-517-522-3467","website":"https://applecreekrv.com/"}},"2941382889":{"location":[42.2756419,-84.2590264],"ct":"US","tp":"CR","ts":"2023-11-08T01:07:32Z","tX":272,"tY":379,"tags":{"addr:city":"Jackson","addr:housenumber":"2401","addr:postcode":"49201","addr:state":"MI","addr:street":"Hilton Road","gnis:feature_id":"2633026","name":"Greenwood Acres Campground","phone":"+1-517-522-8600","website":"https://www.greenwoodacrescampground.com/"}},"2941382891":{"location":[42.2901865,-84.2782062],"ct":"US","tp":"CR","ts":"2023-11-08T01:07:29Z","tX":272,"tY":379,"tags":{"addr:city":"Grass Lake","addr:housenumber":"3500","addr:postcode":"49240","addr:state":"MI","addr:street":"Updyke Road","gnis:feature_id":"2633021","name":"Hideaway RV Park","phone":"+1-517-522-5858","website":"https://www.hideawayrvpark.com/"}},"2941382893":{"location":[42.065821,-84.0975496],"ct":"US","tp":"CR","ts":"2023-11-09T09:49:06Z","tX":272,"tY":379,"tags":{"addr:city":"Tipton","addr:housenumber":"5603","addr:postcode":"49287","addr:state":"MI","addr:street":"US 12","gnis:feature_id":"2436121","name":"Ja Do Campground","phone":"+1-517-431-2111","tents":"yes","website":"https://www.jadocampground.com/"}},"9837393117":{"location":[42.2004655,-84.2526478],"ct":"US","tp":"CS","ts":"2022-09-24T17:33:20Z","tX":272,"tY":379,"tags":{"group_only":"yes","name":"Oaks","scout":"yes"}},"9837393118":{"location":[42.2004523,-84.2546098],"ct":"US","tp":"CS","ts":"2022-09-24T17:33:20Z","tX":272,"tY":379,"tags":{"group_only":"yes","name":"Dogwoods","scout":"yes"}},"9837393119":{"location":[42.201137,-84.2565357],"ct":"US","tp":"CS","ts":"2022-09-24T17:33:20Z","tX":272,"tY":379,"tags":{"group_only":"yes","name":"Tulip Poplars","scout":"yes"}},"9837393120":{"location":[42.2022586,-84.25742],"ct":"US","tp":"CS","ts":"2022-09-24T17:33:20Z","tX":272,"tY":379,"tags":{"group_only":"yes","name":"Beeches","scout":"yes"}},"9837393121":{"location":[42.2018769,-84.2552951],"ct":"US","tp":"CS","ts":"2022-09-24T17:33:20Z","tX":272,"tY":379,"tags":{"group_only":"yes","name":"Elms","scout":"yes"}},"9837393122":{"location":[42.2019051,-84.2533039],"ct":"US","tp":"CS","ts":"2022-09-24T17:33:20Z","tX":272,"tY":379,"tags":{"group_only":"yes","name":"Maples","scout":"yes"}},"9837404695":{"location":[42.2053798,-84.2482351],"ct":"US","tp":"CS","ts":"2022-09-24T17:33:20Z","tX":272,"tY":379,"tags":{"group_only":"yes","name":"Butternut","scout":"yes"}},"9837404696":{"location":[42.2061574,-84.2453684],"ct":"US","tp":"CS","ts":"2022-09-24T17:33:20Z","tX":272,"tY":379,"tags":{"group_only":"yes","name":"Basswoods","scout":"yes"}}}