{"15084833":{"location":[39.8354818,-84.0507328],"ct":"US","tp":"CR","ts":"2023-01-04T13:34:33Z","tX":272,"tY":388,"tags":{"name":"Wright-Patterson Air Force Base Famcamp"}},"533267513":{"location":[39.7965497,-84.1912892],"ct":"US","tp":"CR","ts":"2020-08-12T00:14:41Z","tX":272,"tY":388,"tags":{}},"639486141":{"location":[39.8790985,-84.0737065],"ct":"US","tp":"CS","ts":"2018-10-30T20:37:20Z","tX":272,"tY":388,"tags":{"name":"Redbud - Upper"}},"639486142":{"location":[39.8804255,-84.0736653],"ct":"US","tp":"CS","ts":"2018-10-30T20:37:20Z","tX":272,"tY":388,"tags":{"name":"Redbud - Lower"}},"786054038":{"location":[39.7615555,-84.1323017],"ct":"US","tp":"CR","ts":"2020-03-31T00:31:18Z","tX":272,"tY":388,"tags":{"addr:city":"Dayton","addr:housenumber":"4689","addr:postcode":"45431","addr:state":"OH","addr:street":"Burkhardt Avenue","name":"Woods Mobile Home Park","website":"http://www.woodsmhpdayton.com/"}},"823633401":{"location":[39.796084,-84.1589096],"ct":"US","tp":"CR","ts":"2020-07-07T00:57:09Z","tX":272,"tY":388,"tags":{"name":"Avondale Mobile Home Park"}},"833701731":{"location":[39.7887204,-84.1423786],"ct":"US","tp":"CR","ts":"2025-06-16T16:15:12Z","tX":272,"tY":388,"tags":{}},"833701732":{"location":[39.7953555,-84.1320865],"ct":"US","tp":"CR","ts":"2020-08-04T01:36:46Z","tX":272,"tY":388,"tags":{"name":"Dayton Estates Mobile Home Park","website":"https://daytonestatesmhp.com/"}},"836633925":{"location":[39.7986752,-84.1229703],"ct":"US","tp":"CR","ts":"2020-08-13T00:42:21Z","tX":272,"tY":388,"tags":{}},"1180410640":{"location":[39.8235323,-84.0630355],"ct":"US","tp":"CS","ts":"2023-06-08T09:54:16Z","tX":272,"tY":388,"tags":{"access":"permit","group_only":"yes","name":"Wright Patterson Scout Camp","tents":"yes"}},"1200964206":{"location":[39.6775457,-84.04298],"ct":"US","tp":"CS","ts":"2023-08-21T23:28:35Z","tX":272,"tY":388,"tags":{"drinking_water":"no","fee":"yes","name":"Lower Narrows Campsite","reservation":"required","toilets":"no","website":"https://www.gcparkstrails.com/parks/narrows-reserve/"}},"1342578915":{"location":[39.7977212,-84.3322812],"ct":"US","tp":"CS","ts":"2024-12-14T15:02:09Z","tX":272,"tY":388,"tags":{"access":"yes","capacity:caravans":"15","capacity:tents":"15","caravans":"yes","drinking_water":"yes","name":"Equestrian Camp","note":"Wash rack, mounting blocks, tie lines.","power_supply":"no","reservation":"required","static_caravans":"yes","tents":"yes","toilets":"yes","website":"https://ohiodnr.gov/go-and-do/plan-a-visit/find-a-property/sycamore-state-park-campground"}},"12593492973":{"location":[39.8444144,-84.2178525],"ct":"US","tp":"CS","ts":"2025-02-16T18:11:46Z","tX":272,"tY":388,"tags":{"access":"private","addr:city":"Dayton","addr:housenumber":"6675","addr:state":"OH","addr:street":"Brantford Road","group_only":"yes","name":"Cricket Holler Scout Camp, main entrance","operator":"Miami Valley Council, Scouting America"}},"12593492988":{"location":[39.8400645,-84.2314609],"ct":"US","tp":"CS","ts":"2025-02-16T18:11:46Z","tX":272,"tY":388,"tags":{"access":"private","addr:city":"Dayton","addr:housenumber":"6444","addr:state":"OH","addr:street":"Frederick Pike","group_only":"yes","name":"Schiewetz Center, Cricket Holler Scout Camp","operator":"Miami Valley Council, Scouting America"}}}