{"769554354":{"location":[39.0367593,-84.0964441],"ct":"US","tp":"CS","ts":"2024-07-20T01:00:02Z","tX":272,"tY":391,"tags":{"access":"permit","addr:city":"Batavia","addr:housenumber":"2832","addr:postcode":"45103","addr:state":"OH","addr:street":"Old State Route 32","caravans":"yes","dog":"leashed","fee":"yes","internet_access":"wlan","internet_access:fee":"customers","name":"East Fork State Park Campground","operator":"Ohio Department of Natural Resources","power_supply":"yes","sanitary_dump_station":"yes","shower":"yes","static_caravans":"no","tents":"yes","toilets":"yes","website":"https://ohiodnr.gov/go-and-do/plan-a-visit/find-a-property/east-fork-state-park-campground"}},"1273873402":{"location":[39.0204236,-84.1623618],"ct":"US","tp":"CS","ts":"2024-07-12T16:51:18Z","tX":272,"tY":391,"tags":{"access":"permit","backcountry":"yes","caravans":"no","fee":"no","name":"Camp 5","operator":"East Fork State Park","static_caravans":"no","tents":"yes"}},"1273971358":{"location":[38.9979601,-84.0744092],"ct":"US","tp":"CS","ts":"2024-07-12T16:51:18Z","tX":272,"tY":391,"tags":{"access":"permit","backcountry":"yes","caravans":"no","fee":"no","name":"Camp 3","operator":"East Fork State Park","static_caravans":"no","tents":"yes"}},"1300949585":{"location":[38.9925262,-84.1060761],"ct":"US","tp":"CS","ts":"2024-07-12T16:51:18Z","tX":272,"tY":391,"tags":{"access":"permit","backcountry":"yes","caravans":"no","fee":"no","name":"Camp 2","operator":"=East Fork State Park","static_caravans":"no","tents":"yes"}},"1300949586":{"location":[39.0068156,-84.1347777],"ct":"US","tp":"CS","ts":"2024-07-12T16:51:18Z","tX":272,"tY":391,"tags":{"access":"permit","backcountry":"yes","caravans":"no","fee":"no","name":"Camp 1","static_caravans":"no","tents":"yes"}},"1321423561":{"location":[38.9676465,-84.2908912],"ct":"US","tp":"CR","ts":"2024-10-05T16:00:54Z","tX":272,"tY":391,"tags":{"addr:city":"New Richmond","addr:housenumber":"1035","addr:postcode":"45157","addr:state":"OH","addr:street":"Cobra Road","name":"River Pines","reservation":"required","website":"https://riverpinesrvresort.com/"}},"1321424949":{"location":[38.9636459,-84.2910892],"ct":"US","tp":"CR","ts":"2024-10-05T16:00:54Z","tX":272,"tY":391,"tags":{"addr:city":"New Richmond","addr:housenumber":"1020","addr:postcode":"45157","addr:state":"OH","addr:street":"Front Street","name":"Riverfront RV Park","website":"https://riverfront-rv.com/"}},"1321424950":{"location":[38.9719758,-84.2928682],"ct":"US","tp":"CR","ts":"2024-10-05T14:24:39Z","tX":272,"tY":391,"tags":{"addr:city":"New Richmond","addr:housenumber":"1080","addr:postcode":"45157","addr:state":"OH","addr:street":"Cobra Road","name":"River Days Campground","website":"https://riverdayscampground.com/"}},"1323742321":{"location":[38.9294024,-84.2616415],"ct":"US","tp":"CR","ts":"2024-10-14T03:10:23Z","tX":272,"tY":391,"tags":{}},"11812997947":{"location":[39.0510657,-84.1156521],"ct":"US","tp":"CS","ts":"2024-04-13T02:03:30Z","tX":272,"tY":391,"tags":{"access":"permit","backcountry":"yes","caravans":"no","fee":"no","name":"Camp 4","static_caravans":"no","tents":"yes"}},"11822994876":{"location":[39.0373036,-84.0949634],"ct":"US","tp":"CS","ts":"2024-04-16T21:42:30Z","tX":272,"tY":391,"tags":{"access":"yes","caravans":"yes","fee":"yes","name":"East Fork State Park Campground","operator":"Ohio Department of Natural Resources","shower":"yes","static_caravans":"no","tents":"yes","toilets":"yes","website":"https://ohiodnr.gov/go-and-do/plan-a-visit/find-a-property/east-fork-state-park-campground"}},"11822301849":{"location":[39.0455405,-84.1022092],"ct":"US","tp":"SD","ts":"2024-04-16T14:58:48Z","tX":272,"tY":391,"tags":{"access":"permit","fee":"no","operator":"East Fork State Park Campground","water_point":"yes"}}}