{"14316736":{"location":[35.672507,-84.2377309],"ct":"US","tp":"CR","ts":"2022-07-02T21:19:16Z","tX":272,"tY":403,"tags":{}},"15714495":{"location":[35.5644529,-84.1919758],"ct":"US","tp":"CS","ts":"2023-04-12T23:34:57Z","tX":272,"tY":403,"tags":{"name":"Toqua Campground"}},"1161854614":{"location":[35.539876,-84.2379049],"ct":"US","tp":"CS","ts":"2023-04-15T21:18:56Z","tX":272,"tY":403,"tags":{"addr:housenumber":"1235","addr:street":"Corn Tassel Road","caravans":"yes","fee":"yes","name":"Notchy Creek Campground","website":"https://tellicolakecampgrounds.com/index.php/notchy-creek-campground/"}},"5825917542":{"location":[35.5816419,-84.0934641],"ct":"US","tp":"CS","ts":"2018-12-08T10:50:03Z","tX":272,"tY":403,"tags":{"addr:city":"Maryville","addr:housenumber":"7304","addr:postcode":"37801","addr:state":"TN","addr:street":"Old Railroad Bed Road","cabin:rental":"yes","description":"Cabins, RV sites, premative camping, shower houses, all interior roads asphalt, pavilion, deli ,and adult beverages","facebook":"https://www.facebook.com/PunkinCenterMotorcycleResort","motorcycle:theme":"yes","motorcycle_friendly":"yes","name":"Punkin Center Motorcycle Resort","phone":"+1 865-856-5455"}}}