{"18168721":{"location":[34.9463257,-84.0927533],"ct":"US","tp":"CS","ts":"2024-10-16T13:13:17Z","tX":272,"tY":405,"tags":{"name":"Poteete Creek Camp Ground"}},"712429860":{"location":[35.0287928,-84.1164471],"ct":"US","tp":"CR","ts":"2019-08-10T03:58:39Z","tX":272,"tY":405,"tags":{}},"816349555":{"location":[34.9318974,-84.1461581],"ct":"US","tp":"CS","ts":"2024-10-16T12:35:06Z","tX":272,"tY":405,"tags":{"addr:city":"Blairsville","addr:housenumber":"31","addr:postcode":"30512","addr:state":"GA","addr:street":"Woodruff Drive","caravans":"no","drinking_water":"yes","leisure":"summer_camp","name":"Robert Woodruff Scout Reservation","openfire":"yes","shower":"yes","static_caravans":"no"}},"1091690908":{"location":[34.8899246,-84.2904381],"ct":"US","tp":"CR","ts":"2024-05-17T22:13:33Z","tX":272,"tY":405,"tags":{"addr:city":"Blue Ridge","addr:housenumber":"67","addr:postcode":"30513","addr:state":"GA","addr:street":"Blackhawk Drive","contact:phone":"+1 (706) 946-0355","internet_access":"wlan","name":"Blue Ridge / Toccoa River KOA Holiday","phone":"+1 (706) 946-0355","power_supply":"yes"}},"1324400686":{"location":[35.032342,-84.2078295],"ct":"US","tp":"CR","ts":"2024-10-16T16:06:29Z","tX":272,"tY":405,"tags":{"name":"Persimmon Creek RV Park"}},"11805152816":{"location":[34.8870278,-84.2749284],"ct":"US","tp":"CR","ts":"2024-04-09T15:47:58Z","tX":272,"tY":405,"tags":{}}}