{"578322668":{"location":[9.9916187,-84.3029022],"ct":"CR","tp":"CS","ts":"2018-06-26T22:08:05Z","tX":272,"tY":483,"tags":{"addr:city":"Alajuela","addr:street":"Calle Bosque Encantado","capacity":"20","description":"Strategically Located 10 minutes from Juan Santamaria Internation Airport & from 27 highway, which connects South, Central & North Pacific. We have around 1000mtrs of green area with fruits trees designed as camping area.","fee":"yes","internet_access":"wlan","internet_access:fee":"no","name":"Pura Van Base Camp","note":"What we offer?\n\nClean Bathroom \nShower \nElectrical Facilities \nSmall kitchen area \nSmall Dining Area\nSmall BBQ\nCampfire Area \nLaundry Sink \nWIFI","operator":"Pura Van","phone":"+50683849526","start_date":"December 2017"}},"768672602":{"location":[9.9593582,-84.0879424],"ct":"CR","tp":"CS","ts":"2020-01-31T22:26:20Z","tX":272,"tY":483,"tags":{"access":"private","addr:city":"San Juan","addr:housenumber":"55","addr:postcode":"1100","addr:street":"Avenida 55","group_only":"yes","name":"Guías y Scouts (Tropa 25, Tibás)","operator":"Guías y scouts de Costa Rica (ONG)"}},"2346552535":{"location":[10.0633089,-84.093289],"ct":"CR","tp":"CS","ts":"2018-04-25T18:35:57Z","tX":272,"tY":483,"tags":{"name":"Campamento de San Gabriel"}},"5416227122":{"location":[9.8852326,-84.3139163],"ct":"CR","tp":"CS","ts":"2021-03-08T15:35:32Z","tX":272,"tY":483,"tags":{"name":"Río Virjito"}},"5531029245":{"location":[10.0757957,-84.0757995],"ct":"CR","tp":"CS","ts":"2018-12-13T17:22:42Z","tX":272,"tY":483,"tags":{"name":"Campamento Entre Pinos"}}}