{"1342283736":{"location":[39.7332033,-81.7978777],"ct":"US","tp":"CS","ts":"2024-12-13T00:51:34Z","tX":279,"tY":388,"tags":{"name":"Area 31 Campsite"}},"1966011221":{"location":[39.7332173,-81.7978542],"ct":"US","tp":"CS","ts":"2012-10-15T00:51:14Z","tX":279,"tY":388,"tags":{"name":"Area 31 Campsite"}},"4988235010":{"location":[39.7213409,-81.6700741],"ct":"US","tp":"CS","ts":"2017-07-23T14:25:06Z","tX":279,"tY":388,"tags":{"addr:city":"McConnelsville","addr:housenumber":"8605","addr:postcode":"43756","addr:state":"OH","addr:street":"Wood Grove Road","name":"Woodgrove Campground H"}},"10754887402":{"location":[39.8189109,-81.8523437],"ct":"US","tp":"CS","ts":"2023-07-04T20:12:29Z","tX":279,"tY":388,"tags":{"fee":"yes","name":"Blue Rock State Park Lower Campground","openfire":"yes","tents":"yes","website":"https://ohiodnr.gov/go-and-do/plan-a-visit/find-a-property/blue-rock-state-park-campground"}},"11026459520":{"location":[39.8157837,-81.8513577],"ct":"US","tp":"CS","ts":"2023-07-04T20:12:29Z","tX":279,"tY":388,"tags":{"fee":"yes","name":"Blue Rock State Park Upper Campground","openfire":"yes","tents":"yes","website":"https://ohiodnr.gov/go-and-do/plan-a-visit/find-a-property/blue-rock-state-park-campground"}}}