{"9453415":{"location":[35.7542396,-81.8582142],"ct":"US","tp":"CS","ts":"2021-01-30T01:01:16Z","tX":279,"tY":402,"tags":{"backcountry":"yes","canoe":"yes","caravans":"no","drinking_water":"no","group_only":"no","name":"Long Arm Boat-In Campground","openfire":"yes","operator":"North Carolina Division of Parks & Recreation","power_supply":"no","reservation":"recommended","tents":"yes","washing_machine":"no","wheelchair":"no"}},"657733442":{"location":[36.0255012,-81.8953269],"ct":"US","tp":"CS","ts":"2018-12-25T00:57:57Z","tX":279,"tY":402,"tags":{"access":"customers","addr:city":"Pineola","addr:housenumber":"292","addr:postcode":"28662","addr:state":"NC","addr:street":"River Campground Road","capacity":"100","fee":"yes","name":"Down by the River Campground","website":"https://www.downbytherivercampground.com/"}},"657749528":{"location":[36.0272978,-81.8987364],"ct":"US","tp":"CS","ts":"2024-07-01T09:04:35Z","tX":279,"tY":402,"tags":{"access":"customers","addr:city":"Pineola","addr:housenumber":"3085","addr:postcode":"28662","addr:state":"NC","addr:street":"Linville Falls Highway","capacity":"13","fee":"yes","internet_access":"no","name":"Pineola Inn Campground","operator":"Pineola Inn & Country Store","website":"https://www.pineolainn.com/"}},"681045888":{"location":[35.7575373,-81.8752966],"ct":"US","tp":"CS","ts":"2022-11-27T01:56:47Z","tX":279,"tY":402,"tags":{"capacity:persons":"6","capacity:tents":"33","caravans":"no","charge":"$ 26.00 per night","drinking_water":"yes","fee":"yes","group_only":"no","name":"Paddy's Creek Drive-In Campground At Lake James","openfire":"yes","operator":"North Carolina Division of Parks & Recreation","payment:cash":"yes","payment:credit_cards":"yes","payment:debit_cards":"yes","power_supply":"no","reservation":"recommended","shower":"yes","tents":"yes","toilets":"yes","washing_machine":"no","wheelchair":"limited"}},"2330031054":{"location":[35.8459127,-81.7903058],"ct":"US","tp":"CR","ts":"2013-06-02T23:18:58Z","tX":279,"tY":402,"tags":{}},"2330031055":{"location":[35.8461736,-81.7894475],"ct":"US","tp":"CS","ts":"2013-06-02T23:18:58Z","tX":279,"tY":402,"tags":{}},"4497073902":{"location":[35.9003649,-81.8897873],"ct":"US","tp":"CS","ts":"2022-12-26T16:16:19Z","tX":279,"tY":402,"tags":{}},"4497106714":{"location":[35.8989626,-81.8800181],"ct":"US","tp":"CS","ts":"2023-04-04T17:14:10Z","tX":279,"tY":402,"tags":{"access":"yes","caravans":"no"}},"4733074323":{"location":[36.007421,-81.6150852],"ct":"US","tp":"CS","ts":"2018-08-25T21:43:50Z","tX":279,"tY":402,"tags":{"capacity":"14","description":"This site is not maintained but can still be used. Campers must hike in to the developed areas, and all sites are primitive. No electric hook ups, no toilets, no running water available. ","fee":"no","name":"Boone Fork Campground"}},"4733083627":{"location":[35.9911164,-81.7611384],"ct":"US","tp":"CS","ts":"2017-03-13T23:44:57Z","tX":279,"tY":402,"tags":{"addr:state":"NC","description":"RV and tent camping, campground host on site. Flush toilets and shower are available. Picnic shelter on site.","fee":"yes","name":"Mortimer Campground","note":"Open Season:  April 1 Water:  Drinking Water Restroom:  Flush","operator":"US Forest Service, Grandfather Ranger District","phone":"+1-(828) 652-2144"}},"7230629894":{"location":[35.8803074,-81.7924922],"ct":"US","tp":"CS","ts":"2020-02-20T14:36:31Z","tX":279,"tY":402,"tags":{"addr:city":"Morganton","addr:housenumber":"7360","addr:postcode":"28655","addr:state":"NC","addr:street":"NC-181","charge":"RV $45.00 day - Tent $30.00 day","fee":"yes","name":"Daniel Boone Family Campground","phone":"(828) 433-1200","power_supply":"yes","shower":"yes","toilets":"yes"}},"7230629896":{"location":[35.8688642,-81.7943789],"ct":"US","tp":"CS","ts":"2020-02-20T14:36:31Z","tX":279,"tY":402,"tags":{"addr:city":"Morganton","addr:housenumber":"6675","addr:postcode":"28655","addr:state":"NC","addr:street":"NC-181","fee":"yes","name":"Horseshoe Bend Family Campground","phone":"(828) 438-8659"}},"8364882306":{"location":[35.7789619,-81.9124791],"ct":"US","tp":"CS","ts":"2021-01-26T17:16:18Z","tX":279,"tY":402,"tags":{"addr:city":"Nebo","addr:housenumber":"1465","addr:postcode":"28761","addr:state":"NC","addr:street":"Old NC 105","name":"Paddy Creek Campground","phone":"+18285841346"}},"8761197895":{"location":[35.9899241,-81.759124],"ct":"US","tp":"CS","ts":"2021-05-24T12:57:42Z","tX":279,"tY":402,"tags":{}},"9738536433":{"location":[35.8729602,-81.7960283],"ct":"US","tp":"CS","ts":"2022-05-13T21:55:17Z","tX":279,"tY":402,"tags":{"addr:city":"Morganton","addr:housenumber":"7081","addr:postcode":"28655","addr:state":"NC","addr:street":"NC-181","name":"Steele Creek Park & Family Campground","phone":"+18284335660","website":"http://www.steelecreekpark.com/"}},"10273001501":{"location":[35.8460712,-81.7904811],"ct":"US","tp":"CS","ts":"2022-12-19T10:27:42Z","tX":279,"tY":402,"tags":{"addr:city":"Morganton","addr:housenumber":"3471","addr:postcode":"28655","addr:state":"NC","addr:street":"Rose Creek Road","name":"Rose Creek Family Campground","phone":"(828) 433-7162"}},"11277905403":{"location":[35.9220311,-81.888767],"ct":"US","tp":"CS","ts":"2023-10-20T17:36:24Z","tX":279,"tY":402,"tags":{"backcountry":"yes","fee":"no","fee:conditional":"yes @ Sa-Su"}},"11277905404":{"location":[35.9236783,-81.8885404],"ct":"US","tp":"CS","ts":"2023-10-20T17:36:24Z","tX":279,"tY":402,"tags":{"backcountry":"yes","fee":"no","fee:conditional":"yes @ Sa-Su"}},"11866814633":{"location":[36.012364,-81.6908746],"ct":"US","tp":"CS","ts":"2024-04-29T16:35:20Z","tX":279,"tY":402,"tags":{"access":"private","addr:city":"Collettsville","addr:housenumber":"6211","addr:postcode":"28611","addr:state":"NC","addr:street":"NC-90","name":"Johns River Valley Camp","operator":"United Church of Christ"}},"11916385172":{"location":[35.9033348,-81.8843461],"ct":"US","tp":"CS","ts":"2024-05-18T18:28:02Z","tX":279,"tY":402,"tags":{"backcountry":"yes"}}}