{"9451093":{"location":[35.732347,-81.8994492],"ct":"US","tp":"CS","ts":"2021-01-30T01:01:16Z","tX":279,"tY":403,"tags":{"backcountry":"no","caravans":"no","drinking_water":"yes","group_only":"no","name":"Catawba River Walk-In Campground","openfire":"yes","operator":"North Carolina Division of Parks & Recreation","power_supply":"no","reservation":"recommended","tents":"yes","washing_machine":"no","wheelchair":"limited"}},"1106602224":{"location":[35.5902209,-81.8752901],"ct":"US","tp":"CS","ts":"2024-03-04T18:08:18Z","tX":279,"tY":403,"tags":{"access":"private","addr:city":"Nebo","addr:housenumber":"383","addr:postcode":"28761","addr:state":"NC","addr:street":"Vein Mountain Road","leisure":"summer_camp","name":"Camp Grimes Scout Reservation","operator":"BSA Mecklenburg County Council"}},"4915951422":{"location":[35.5971974,-81.6229143],"ct":"US","tp":"CS","ts":"2023-06-13T15:03:48Z","tX":279,"tY":403,"tags":{"addr:city":"Connelly Springs","addr:housenumber":"3508","addr:postcode":"28612","addr:state":"NC","addr:street":"South Mountain Park Avenue","name":"State Park Family Campground"}},"8095166854":{"location":[35.5940024,-81.6382184],"ct":"US","tp":"CS","ts":"2020-11-09T00:00:28Z","tX":279,"tY":403,"tags":{"access":"permit","backcountry":"yes","fee":"yes","name":"Upper Falls Campground","operator":"North Carolina State Parks","toilets":"vault"}},"8095179940":{"location":[35.6039839,-81.6435867],"ct":"US","tp":"CS","ts":"2020-11-09T00:00:28Z","tX":279,"tY":403,"tags":{"access":"permit","backcountry":"yes","fee":"yes","name":"Shinny Falls Campground","operator":"North Carolina State Parks","toilets":"vault"}},"8095254646":{"location":[35.6186639,-81.6326267],"ct":"US","tp":"CS","ts":"2023-04-17T14:12:32Z","tX":279,"tY":403,"tags":{"access":"permit","backcountry":"yes","fee":"yes","name":"Sawtooth Campground","operator":"North Carolina State Parks"}},"8095264779":{"location":[35.6074106,-81.6261089],"ct":"US","tp":"CS","ts":"2020-11-09T01:26:42Z","tX":279,"tY":403,"tags":{"access":"permit","backcountry":"yes","fee":"yes","name":"Little River Campground","operator":"North Carolina State Parks"}},"8098544114":{"location":[35.5922394,-81.6832888],"ct":"US","tp":"CS","ts":"2020-11-09T21:47:24Z","tX":279,"tY":403,"tags":{"access":"permit","backcountry":"yes","fee":"yes","name":"Murray Branch Campground","operator":"North Carolina State Parks"}},"8098599004":{"location":[35.5951719,-81.6771783],"ct":"US","tp":"CS","ts":"2023-04-17T14:12:32Z","tX":279,"tY":403,"tags":{"access":"permit","backcountry":"yes","fee":"yes","name":"Fox Trail Campground","operator":"North Carolina State Parks"}},"9670168147":{"location":[35.5590612,-81.8188053],"ct":"US","tp":"CS","ts":"2023-01-27T15:27:21Z","tX":279,"tY":403,"tags":{"addr:city":"Bostic","addr:housenumber":"1040","addr:postcode":"28018","addr:state":"NC","addr:street":"Camp McCall Road","name":"Camp McCall","phone":"+18282450013"}},"9956957659":{"location":[35.4971329,-81.7055889],"ct":"US","tp":"CS","ts":"2022-08-16T13:10:51Z","tX":279,"tY":403,"tags":{"addr:city":"Casar","addr:housenumber":"680","addr:postcode":"28020","addr:state":"NC","addr:street":"NC-226 South","name":"Grand View Campground & RV Park","phone":"+17044723100"}},"10220019733":{"location":[35.7310093,-81.8031149],"ct":"US","tp":"CS","ts":"2022-11-26T16:42:15Z","tX":279,"tY":403,"tags":{"addr:city":"Morganton","addr:housenumber":"3458","addr:postcode":"28655","addr:state":"NC","addr:street":"Attocoa Drive","name":"Camp Attocoa (TENT ONLY)","phone":"+18284131764"}},"10599331803":{"location":[35.5363664,-81.6162612],"ct":"US","tp":"CS","ts":"2023-02-01T16:14:49Z","tX":279,"tY":403,"tags":{"addr:city":"Casar","addr:housenumber":"142","addr:postcode":"28020","addr:state":"NC","addr:street":"Mace Road","name":"SOUTH MOUNTAIN FAMILY CAMP","phone":"+17048405160"}},"8742738658":{"location":[35.7383552,-81.7227793],"ct":"US","tp":"CR","ts":"2021-05-18T14:52:03Z","tX":279,"tY":403,"tags":{"addr:city":"Morganton","addr:housenumber":"611","addr:postcode":"28655","addr:state":"NC","addr:street":"Independence Boulevard","name":"Riverside Golf And RV Park","phone":"828-433-6464"}},"10965600091":{"location":[35.5008256,-81.7929831],"ct":"US","tp":"CR","ts":"2023-06-09T14:26:35Z","tX":279,"tY":403,"tags":{"addr:city":"Bostic","addr:housenumber":"182","addr:postcode":"28018","addr:state":"NC","addr:street":"Jellystone Parkway","brand":"Yogi Bear's Jellystone Park","brand:wikidata":"Q8054389","name":"Yogi Bearâ€™s Jellystone Park Camp-Resort","official_name":"Yogi Bear's Jellystone Park Camp-Resorts","phone":"+18284170086"}}}