{"15409493":{"location":[31.2311557,-81.7656621],"ct":"US","tp":"CS","ts":"2023-01-30T09:32:56Z","tX":279,"tY":418,"tags":{"fee":"yes","name":"Georgia Coastal RV Park","website":"https://gacoastalrvpark.com/"}},"1098952568":{"location":[31.1340475,-81.5816097],"ct":"US","tp":"CS","ts":"2022-09-29T23:12:27Z","tX":279,"tY":418,"tags":{"addr:city":"Brunswick","addr:housenumber":"287","addr:postcode":"31523","addr:state":"GA","addr:street":"South Port Parkway","fee":"yes","name":"Coastal Georgia RV Resort","phone":"+1-912-264-3869","website":"https://www.coastalgarvresort.com/"}},"1098966321":{"location":[31.2098068,-81.5660367],"ct":"US","tp":"CS","ts":"2022-09-30T02:51:39Z","tX":279,"tY":418,"tags":{"name":"Camp Glynn"}},"1098967909":{"location":[31.1904886,-81.5675568],"ct":"US","tp":"CS","ts":"2022-09-30T20:04:05Z","tX":279,"tY":418,"tags":{"addr:housenumber":"133","addr:street":"Ashley Marsh Drive","fee":"yes","name":"Camp Tolochee","operator":"Boy Scouts of America","scout":"yes"}},"1098970977":{"location":[31.145408,-81.5802056],"ct":"US","tp":"CS","ts":"2022-09-30T03:02:03Z","tX":279,"tY":418,"tags":{"addr:city":"Brunswick","addr:housenumber":"7445","addr:postcode":"31523","addr:state":"GA","addr:street":"Blythe Island Highway","cabins":"yes","caravans":"yes","email":"southernretreatrv@hotmail.com","fee":"yes","name":"Southern Retreat RV Park","phone":"+1-912-261-1025","tents":"yes","website":"https://southernretreatrvpark.com/"}}}