{"406009133":{"location":[28.2468888,-81.588885],"ct":"US","tp":"CR","ts":"2022-03-30T03:45:31Z","tX":279,"tY":428,"tags":{"addr:city":"Davenport","addr:housenumber":"6300","addr:postcode":"33896","addr:street":"West Lake Wilson Road","email":"rbcrvresort@verizon.net","landuse":"residential","name":"Rainbow Chase RV Resort","phone":"863-424-2688","power_supply":"yes","sanitary_dump_station":"customers","tents":"yes","website":"https://www.rainbowchaserv.com/"}},"1584100325":{"location":[28.0188964,-81.6358727],"ct":"US","tp":"CR","ts":"2012-01-09T21:51:55Z","tX":279,"tY":428,"tags":{"name":"Royal Oaks Mobile Home Park"}},"3143352361":{"location":[28.2267577,-81.6558738],"ct":"US","tp":"CR","ts":"2014-10-22T07:11:42Z","tX":279,"tY":428,"tags":{"addr:city":"Davenport","addr:housenumber":"2727","addr:postcode":"33837","addr:street":"Frontage Road","name":"Themeworld RV Resort"}},"3143352362":{"location":[28.229086,-81.652841],"ct":"US","tp":"CR","ts":"2014-10-22T07:11:43Z","tX":279,"tY":428,"tags":{"addr:city":"Davenport","addr:housenumber":"2525","addr:postcode":"33837","addr:street":"Fort Summit Road","name":"Orlando S.W. / Fort Summit KOA"}},"3145054823":{"location":[28.2583607,-81.5861399],"ct":"US","tp":"CR","ts":"2014-10-23T06:59:09Z","tX":279,"tY":428,"tags":{"addr:city":"Davenport","addr:housenumber":"7500","addr:postcode":"33896","addr:street":"Osceola Polk Line Road","name":"Mouse Mountain RV & Camping Resort","phone":"+1 863-424-2791"}},"6357538608":{"location":[28.2525861,-81.6858282],"ct":"US","tp":"CS","ts":"2020-02-13T02:57:47Z","tX":279,"tY":428,"tags":{"access":"permissive","internet_access":"yes","name":"Wallaby Ranch (can Camp If Hangliding)","operator":"Malcome"}}}