{"319651599":{"location":[26.9178869,-81.8151807],"ct":"US","tp":"CS","ts":"2015-07-12T00:51:41Z","tX":279,"tY":432,"tags":{"access":"private","landuse":"meadow","name":"Seminole","operator":"Price Sanders Scout Reservation","scout":"yes","tents":"yes"}},"319651601":{"location":[26.9181643,-81.8166035],"ct":"US","tp":"CS","ts":"2015-07-12T00:51:41Z","tX":279,"tY":432,"tags":{"access":"private","landuse":"meadow","name":"Delaware","operator":"Price Sanders Scout Reservation","scouts":"yes","tents":"yes"}},"319651602":{"location":[26.9185446,-81.8170651],"ct":"US","tp":"CS","ts":"2015-07-12T00:51:41Z","tX":279,"tY":432,"tags":{"access":"private","landuse":"meadow","name":"Delasioux","operator":"Price Sanders Scout Reservation","scouts":"yes","tents":"yes"}},"319651603":{"location":[26.919207,-81.8175338],"ct":"US","tp":"CS","ts":"2015-07-12T00:51:41Z","tX":279,"tY":432,"tags":{"access":"private","landuse":"meadow","name":"Sioux","operator":"Price Sanders Scout Reservation","scouts":"yes","tents":"yes"}},"319651604":{"location":[26.9199298,-81.8150263],"ct":"US","tp":"CS","ts":"2015-07-12T00:51:41Z","tX":279,"tY":432,"tags":{"access":"private","landuse":"meadow","name":"Staff Camping","operator":"Price Sanders Scout Reservation","scouts":"yes","tents":"yes"}},"319651607":{"location":[26.9232593,-81.8165468],"ct":"US","tp":"CS","ts":"2015-07-12T00:51:42Z","tX":279,"tY":432,"tags":{"access":"private","landuse":"meadow","name":"Apache","operator":"Price Sanders Scout Reservation","scouts":"yes","tents":"yes"}},"319651611":{"location":[26.9232092,-81.8118721],"ct":"US","tp":"CS","ts":"2015-07-12T00:51:42Z","tX":279,"tY":432,"tags":{"access":"private","landuse":"meadow","name":"Mohawk","operator":"Price Sanders Scout Reservation","scouts":"yes","tents":"yes"}},"319651612":{"location":[26.92461,-81.8132661],"ct":"US","tp":"CS","ts":"2015-07-12T00:51:42Z","tX":279,"tY":432,"tags":{"access":"private","landuse":"meadow","name":"Cherokee","operator":"Price Sanders Scout Reservation","scouts":"yes","tents":"yes"}},"319651623":{"location":[26.9190205,-81.8127512],"ct":"US","tp":"CS","ts":"2015-07-12T00:51:42Z","tX":279,"tY":432,"tags":{"access":"private","landuse":"meadow","name":"Calusa","operator":"Price Sanders Scout Reservation","scouts":"yes","tents":"yes"}},"319651631":{"location":[26.9197072,-81.8162503],"ct":"US","tp":"CS","ts":"2015-10-04T10:21:36Z","tX":279,"tY":432,"tags":{"access":"private","landuse":"meadow","name":"Miccosukee","operator":"Price Sanders Scout Reservation","scouts":"yes","tents":"yes"}},"319652029":{"location":[26.9275607,-81.8150739],"ct":"US","tp":"CS","ts":"2015-07-12T00:51:43Z","tX":279,"tY":432,"tags":{"access":"private","landuse":"meadow","name":"Cub Scout Family Camp","operator":"Price Sanders Scout Reservation","scouts":"yes","short_name":"Cub Camp","tents":"yes"}},"319718925":{"location":[26.923977,-81.8166774],"ct":"US","tp":"CS","ts":"2015-07-12T00:51:42Z","tX":279,"tY":432,"tags":{"landuse":"meadow"}},"319718928":{"location":[26.9261688,-81.8144019],"ct":"US","tp":"CS","ts":"2015-07-12T00:51:43Z","tX":279,"tY":432,"tags":{"landuse":"meadow"}}}