{"7508792":{"location":[-31.5178287,-52.7797627],"ct":"BR","tp":"CS","ts":"2017-08-25T17:32:21Z","tX":361,"tY":606,"tags":{"addr:city":"Canguçu","addr:postcode":"96600-000","addr:street":"Estrada Passo do Saraiva","addr:suburb":"4º distrito","name":"Camping Beira Rio"}},"320498821":{"location":[-31.4777617,-52.7905878],"ct":"BR","tp":"CS","ts":"2017-09-22T13:10:56Z","tX":361,"tY":606,"tags":{"addr:city":"Canguçu","addr:postcode":"96600-000","addr:street":"Estrada Picada do Corvo","addr:suburb":"1º distrito","fee":"yes","name":"Camping Recanto do Lazer"}},"321794532":{"location":[-31.507302,-52.9773635],"ct":"BR","tp":"CS","ts":"2017-11-25T23:30:44Z","tX":361,"tY":606,"tags":{"addr:city":"Canguçu","addr:postcode":"96600-000","addr:street":"4º distrito (Arroio Solidão)","addr:suburb":"Passo da Maria Antônia","area":"yes","name":"Camping Aldoi"}},"3248052889":{"location":[-31.570037,-52.9795122],"ct":"BR","tp":"CS","ts":"2015-02-13T12:33:00Z","tX":361,"tY":606,"tags":{"addr:city":"Canguçu","addr:postcode":"96600-000","addr:street":"4º distrito (Rio Piratini)","addr:suburb":"Passo da Canoa","name":"Camping Hernandes"}}}