{"677432394":{"location":[50.0275162,31.4395239],"ct":"UA","tp":"CS","ts":"2023-07-23T12:50:03Z","tX":601,"tY":347,"tags":{"addr:housenumber":"1","addr:postcode":"08454","addr:street":"вулиця Героїв Дніпра","fee":"yes","leisure":"summer_camp","name":"Славутич","name:uk":"Славутич","openfire":"no","tents":"no","website":"https://www.slavutych.kiev.ua/ua/index.html"}},"4265184637":{"location":[50.0190614,31.4361692],"ct":"UA","tp":"CS","ts":"2023-03-03T23:50:40Z","tX":601,"tY":347,"tags":{"fee":"yes","leisure":"summer_camp","name":"Скаутвілль","name:uk":"Скаутвілль","phone":"+380 93 595 9703","website":"https://scoutville.org/"}},"5911117695":{"location":[49.9916265,31.3810576],"ct":"UA","tp":"CS","ts":"2021-05-13T10:34:59Z","tX":601,"tY":347,"tags":{"capacity":"2","description":"Місце на дві палатки з краєвидом на Дніпро. Більш менш питна вода є вниз по стежці направо, і далі вздовж берега річки. Там є три струмки, з досить чистою водою."}},"6697113786":{"location":[49.9864155,31.3375689],"ct":"UA","tp":"CS","ts":"2020-07-28T07:47:41Z","tX":601,"tY":347,"tags":{}},"7723305485":{"location":[49.9019791,31.572744],"ct":"UA","tp":"CS","ts":"2020-07-17T06:52:47Z","tX":601,"tY":347,"tags":{}},"7728533287":{"location":[49.8768017,31.6228328],"ct":"UA","tp":"CS","ts":"2020-07-19T14:34:49Z","tX":601,"tY":347,"tags":{}},"7746319149":{"location":[49.9044964,31.5707152],"ct":"UA","tp":"CS","ts":"2020-07-25T09:16:32Z","tX":601,"tY":347,"tags":{}},"7746327404":{"location":[49.9087362,31.5672536],"ct":"UA","tp":"CS","ts":"2020-10-08T07:20:52Z","tX":601,"tY":347,"tags":{}},"7748189411":{"location":[49.8990284,31.5737916],"ct":"UA","tp":"CS","ts":"2020-07-26T04:56:54Z","tX":601,"tY":347,"tags":{}},"7858314286":{"location":[49.9866905,31.4237698],"ct":"UA","tp":"CS","ts":"2023-03-03T23:50:40Z","tX":601,"tY":347,"tags":{"name":"Місце під палатку","name:uk":"Місце під палатку"}},"8763807376":{"location":[50.0161506,31.4395439],"ct":"UA","tp":"CS","ts":"2023-03-03T23:50:40Z","tX":601,"tY":347,"tags":{"access":"yes","capacity":"100","fee":"no","name":"Места под палатки","name:uk":"Места под палатки"}},"8763828013":{"location":[50.0074092,31.4629204],"ct":"UA","tp":"CS","ts":"2023-03-03T23:50:40Z","tX":601,"tY":347,"tags":{"access":"yes","fee":"no","name":"Места под палатки","name:uk":"Места под палатки"}},"8763828152":{"location":[49.999145,31.4827403],"ct":"UA","tp":"CS","ts":"2023-03-03T23:50:40Z","tX":601,"tY":347,"tags":{"fee":"no","name":"Місця до наметів","name:en":"Camping place","name:uk":"Місця до наметів"}}}