{"655339815":{"location":[36.7115816,31.5692688],"ct":"TR","tp":"CS","ts":"2011-12-05T14:54:25Z","tX":601,"tY":399,"tags":{"name":"Osay Camping"}},"971687411":{"location":[36.7463857,31.4724049],"ct":"TR","tp":"CS","ts":"2025-05-20T18:02:43Z","tX":601,"tY":399,"tags":{"barrier":"fence","caravans":"yes","email":"bogazotel@manavgat.bel.tr","name":"Boğaz Motel Camping","phone":"+902427569690","shower":"yes","source":"survey","tents":"yes","toilets":"yes"}},"3778304935":{"location":[36.6742061,31.6324723],"ct":"TR","tp":"CS","ts":"2022-06-26T16:18:10Z","tX":601,"tY":399,"tags":{"addr:city":"antalya","addr:district":"manavgat","addr:neighbourhood":"Çenger","addr:postcode":"07600","capacity:caravans":"1000","capacity:persons":"1000","fee":"yes","name":"Star Beach Park Camping","operator":"Star Beach Park Camping","payment:cash":"yes","payment:credit_cards":"yes"}},"7036753671":{"location":[36.7642,31.4434],"ct":"TR","tp":"CS","ts":"2021-11-02T10:00:28Z","tX":601,"tY":399,"tags":{"backcountry":"yes"}},"9847593784":{"location":[36.6849798,31.6073219],"ct":"TR","tp":"CS","ts":"2022-06-26T08:04:15Z","tX":601,"tY":399,"tags":{"access":"yes","addr:city":"antalya","addr:district":"manavgat","addr:neighbourhood":"Çenger","addr:postcode":"07600","addr:street":"8G8HMJGH+7R","capacity:caravans":"1500","capacity:persons":"1500","charge":"EURO - Türklirası - Dolar","fee":"yes","name":"Star Beach Park Caming","openfire":"yes","opening_hours":"24/7","operator":"Star Beach Park Caming","payment:cash":"yes","payment:credit_cards":"yes","payment:mastercard":"yes","shower":"yes"}},"11199629937":{"location":[36.7730074,31.3940827],"ct":"TR","tp":"CS","ts":"2023-09-18T10:23:05Z","tX":601,"tY":399,"tags":{"name:en":"Istanbul camping"}},"7090306141":{"location":[36.7096806,31.5690315],"ct":"TR","tp":"CR","ts":"2019-12-28T08:05:57Z","tX":601,"tY":399,"tags":{}}}