{"124993609":{"location":[47.4841054,-92.4643688],"ct":"US","tp":"CR","ts":"2021-09-07T03:03:23Z","tX":248,"tY":358,"tags":{"addr:city":"Gilbert","addr:housenumber":"301","addr:postcode":"55741","addr:state":"MN","addr:street":"Ore-Be-Gone Drive","email":"campground@gilbertmn.org","name":"Sherwood Forest Campground","phone":"+1-218-748-2221","source":"Bing","website":"https://www.gilbertmn.org/index.asp?SEC=218F3648-834E-4A37-97C3-3B4EDFE426D6"}},"4425961649":{"location":[47.4826703,-92.4636011],"ct":"US","tp":"CS","ts":"2024-12-01T06:45:16Z","tX":248,"tY":358,"tags":{"capacity":"50","charge":"20 USD/tent; 25 USD/RV","drinking_water":"yes","fee":"yes","name":"Sherwood Forest Campground","phone":"+1-218-748-2221","power_supply":"yes","reservation":"yes","sanitary_dump_station":"yes","seasonal":"spring;summer;autumn","shower":"yes","source":"Bing","toilets:type":"flush"}},"7139070527":{"location":[47.4901381,-92.7891784],"ct":"US","tp":"CS","ts":"2024-08-03T13:09:06Z","tX":248,"tY":358,"tags":{"drinking_water":"yes","fee":"yes","name":"Stubler Beach Campgrounds","phone":"+1-218-258-3226","seasonal":"yes","toilets":"vault"}},"9596002207":{"location":[47.4807849,-92.6629523],"ct":"US","tp":"CS","ts":"2022-03-21T22:53:28Z","tX":248,"tY":358,"tags":{"name":"West Two Rivers Campground","operator":"City of Mountain Iron"}},"4412505201":{"location":[47.4382013,-92.5041472],"ct":"US","tp":"CR","ts":"2024-11-02T16:23:33Z","tX":248,"tY":358,"tags":{"addr:city":"Eveleth","addr:housenumber":"4392","addr:postcode":"55734","addr:state":"MN","addr:street":"Miller Trunk Road","charge":"25 USD","drinking_water":"yes","fee":"yes","name":"Eveleth Veterans Park Campground","phone":"+1-218-744-7491","power_supply":"yes","sanitary_dump_station":"yes","shower":"yes","source":"Bing","tents":"yes","website":"https://www.evelethmn.com/index.asp?SEC=20DF988C-AC0E-4A56-819F-C6E27CA99923&DE=F1605CC4-5659-4A80-8C6A-A03D3C342960&Type=B_BASIC"}}}