{"440654916":{"location":[45.7789144,-92.6900088],"ct":"US","tp":"CS","ts":"2016-09-04T19:38:59Z","tX":248,"tY":365,"tags":{"capacity":"38","name":"James McNally Campground","operator":"Village of Grantsburg"}},"684677199":{"location":[45.5985846,-92.7731203],"ct":"US","tp":"CS","ts":"2019-04-28T04:02:56Z","tX":248,"tY":365,"tags":{}},"695882569":{"location":[45.7938122,-92.7695819],"ct":"US","tp":"CS","ts":"2019-06-10T15:40:07Z","tX":248,"tY":365,"tags":{"backcountry":"yes","drinking_water":"no","name":"St. Croix NSR Sandrock Cliffs","tents":"yes","toilets":"pitlatrin"}},"6530649842":{"location":[45.7659831,-92.7768178],"ct":"US","tp":"CS","ts":"2024-10-09T05:37:34Z","tX":248,"tY":365,"tags":{"charge":"21 USD; 16 USD/WI resident","drinking_water":"yes","fee":"yes","name":"Saint Croix Family Campground","opening_hours":"May-Oct","phone":"+1-715-463-2898","toilets":"vault"}},"6530681966":{"location":[45.8233734,-92.7647605],"ct":"US","tp":"CS","ts":"2019-06-07T01:16:05Z","tX":248,"tY":365,"tags":{"drinking_water":"no","fee":"no","name":"St Croix NSR-Snake River Landing","reservation":"no","toilets":"vault"}},"7150061024":{"location":[45.8225656,-92.7798226],"ct":"US","tp":"CS","ts":"2024-01-13T21:28:35Z","tX":248,"tY":365,"tags":{"addr:city":"Mc Grath","addr:postcode":"56350","addr:state":"MN","addr:street":"State Hwy 65","capacity":"12","drinking_water":"yes","fee":"yes","name":"Snake River Campground","phone":"+1-218-927-7364","seasonal":"spring;summer;autumn","toilets":"pit"}},"7247592700":{"location":[45.7789225,-92.690333],"ct":"US","tp":"CS","ts":"2020-09-27T08:42:50Z","tX":248,"tY":365,"tags":{"addr:city":"Grantsburg","addr:housenumber":"31 6","addr:state":"WI","addr:street":"S. Brad Street","name":"James N. Mc Nally Campground","website":"http://www.grantsburgwi.com/uploads/1/0/0/0/10001188/2018_campground_brochure.pdf"}}}