{"12445730":{"location":[38.1561189,-92.7594057],"ct":"US","tp":"CS","ts":"2021-03-14T23:08:24Z","tX":248,"tY":394,"tags":{"name":"Deer Valley Park"}},"769199053":{"location":[38.1298203,-92.7944897],"ct":"US","tp":"CR","ts":"2020-02-03T05:21:22Z","tX":248,"tY":394,"tags":{}},"770785608":{"location":[38.1726024,-92.7880691],"ct":"US","tp":"CR","ts":"2020-02-08T04:08:52Z","tX":248,"tY":394,"tags":{}},"918092677":{"location":[38.225114,-92.6001468],"ct":"US","tp":"CR","ts":"2023-06-02T21:39:41Z","tX":248,"tY":394,"tags":{"addr:city":"Eldon","addr:country":"US","addr:housenumber":"401","addr:postcode":"65026","addr:state":"MO","addr:street":"Old Bagnell Road","name":"Camp Bagnell on the River"}},"2919679257":{"location":[38.074957,-92.5703284],"ct":"US","tp":"CS","ts":"2014-06-17T01:47:03Z","tX":248,"tY":394,"tags":{}},"2919679258":{"location":[38.0715099,-92.5760467],"ct":"US","tp":"CS","ts":"2014-06-17T01:47:03Z","tX":248,"tY":394,"tags":{}},"11541334791":{"location":[38.1306483,-92.7936483],"ct":"US","tp":"CR","ts":"2024-01-22T22:00:01Z","tX":248,"tY":394,"tags":{"addr:city":"Sunrise Beach","addr:housenumber":"82","addr:postcode":"65079","addr:state":"MO","addr:street":"Aloha Lane (Pvt)","name":"Scalawags RV Park"}}}