{"452919456":{"location":[35.5373842,-100.9329215],"ct":"US","tp":"CR","ts":"2020-02-01T20:43:34Z","tX":224,"tY":403,"tags":{"addr:city":"Pampa","addr:housenumber":"100","addr:postcode":"79065","addr:state":"TX","addr:street":"RV Drive","name":"Recreation Park RV Park"}},"776088046":{"location":[35.5486278,-100.9767797],"ct":"US","tp":"CR","ts":"2020-02-24T22:51:34Z","tX":224,"tY":403,"tags":{"addr:city":"Pampa","addr:housenumber":"1300","addr:postcode":"79065","addr:state":"TX","addr:street":"West Kentucky Avenue","name":"Spring Meadows RV Park"}},"810376358":{"location":[35.5376576,-100.9863302],"ct":"US","tp":"CR","ts":"2020-06-01T04:45:07Z","tX":224,"tY":403,"tags":{"addr:city":"Pampa","addr:housenumber":"2100","addr:postcode":"79065","addr:state":"TX","addr:street":"West Montagu Avenue","name":"Red Deer Villa RV Ranch"}},"813703759":{"location":[35.5484552,-100.9816121],"ct":"US","tp":"CR","ts":"2020-06-07T20:12:04Z","tX":224,"tY":403,"tags":{"addr:city":"Pampa","addr:housenumber":"1708","addr:postcode":"79065","addr:state":"TX","addr:street":"West Kentucky Avenue","name":"Urban Hidden Acres RV & Mobile Home Park"}},"871541575":{"location":[35.5209047,-100.9544364],"ct":"US","tp":"CR","ts":"2020-11-14T05:10:03Z","tX":224,"tY":403,"tags":{"addr:city":"Pampa","addr:housenumber":"1136","addr:postcode":"79065","addr:state":"TX","addr:street":"South Barnes Street","name":"Spring Meadows Rv Park"}}}