{"485734364":{"location":[29.3418152,-100.9078348],"ct":"US","tp":"CR","ts":"2019-01-09T17:06:36Z","tX":224,"tY":424,"tags":{"addr:city":"Del Rio","addr:housenumber":"341","addr:postcode":"78840","addr:state":"TX","addr:street":"Bolner Lane","colour":"#009900","fee":"yes","internet_access":"wlan","internet_access:fee":"no","name":"Hidden Valley RV Park","operator":"Park Manager","sanitary_dump_station":"customers","smoking":"outside","stars":"4.5","wheelchair":"limited"}},"628733208":{"location":[29.4796303,-101.0276165],"ct":"US","tp":"CS","ts":"2023-08-03T01:59:49Z","tX":224,"tY":424,"tags":{"leisure":"park","name":"Governors Landing Campground","operator":"National Park Service","operator:short":"NPS","operator:type":"public","operator:wikidata":"Q308439","operator:wikipedia":"en:National Park Service"}},"1000915496":{"location":[29.4299951,-100.9106118],"ct":"US","tp":"CR","ts":"2021-11-09T22:39:04Z","tX":224,"tY":424,"tags":{"addr:city":"Del Rio","addr:housenumber":"4832","addr:postcode":"78840","addr:state":"TX","addr:street":"US Highway 90 West","name":"Lonesome Dove RV Ranch"}},"1000915500":{"location":[29.4032444,-100.9078623],"ct":"US","tp":"CR","ts":"2021-11-09T21:15:40Z","tX":224,"tY":424,"tags":{"addr:city":"Del Rio","addr:housenumber":"2800","addr:postcode":"78840","addr:state":"TX","addr:street":"Veterans Boulevard","name":"Palomino Park Mobile Home Community"}},"1000927221":{"location":[29.4543485,-100.944326],"ct":"US","tp":"CR","ts":"2021-11-09T22:39:04Z","tX":224,"tY":424,"tags":{"addr:city":"Del Rio","addr:housenumber":"7706","addr:postcode":"78840","addr:state":"TX","addr:street":"US Highway 90 West","name":"Sleeping Lady RV Park"}},"1000934671":{"location":[29.4674725,-100.9531799],"ct":"US","tp":"CS","ts":"2021-11-09T23:59:06Z","tX":224,"tY":424,"tags":{"leisure":"park","name":"San Pedro Campground","operator":"National Park Service","operator:short":"NPS","operator:type":"public","operator:wikidata":"Q308439","operator:wikipedia":"en:National Park Service"}},"1736556596":{"location":[29.4605586,-100.9759504],"ct":"US","tp":"CR","ts":"2012-04-30T18:26:06Z","tX":224,"tY":424,"tags":{"name":"Three Rivers RV Park"}},"4369962091":{"location":[29.4936566,-101.0375744],"ct":"US","tp":"CS","ts":"2016-08-27T17:27:48Z","tX":224,"tY":424,"tags":{"name":"Amistad NRA Rock Quarry Dispersed Camping"}},"4370046892":{"location":[29.476722,-101.0156011],"ct":"US","tp":"CS","ts":"2016-08-27T17:27:45Z","tX":224,"tY":424,"tags":{"name":"Governors Landing Dispersed Camping"}}}