{"35897135":{"location":[63.1298385,30.7312833],"ct":"FI","tp":"CS","ts":"2023-02-14T17:04:02Z","tX":599,"tY":278,"tags":{"access":"yes","addr:city":"Lieksa","addr:postcode":"81700","addr:street":"Suomuntie","drinking_water":"yes","fee":"yes","name":"Suomu","openfire":"yes","toilets":"yes"}},"5948350841":{"location":[63.1485477,30.7472312],"ct":"FI","tp":"CS","ts":"2021-02-20T19:36:07Z","tX":599,"tY":278,"tags":{"access":"yes","backcountry":"yes","fee":"no","internet_access":"no","name":"Lapinniemi telttailualue","openfire":"yes","operator":"Mets√§hallitus","toilets":"yes"}},"7846996185":{"location":[63.1408466,30.7917146],"ct":"FI","tp":"CS","ts":"2021-02-20T19:36:07Z","tX":599,"tY":278,"tags":{"access":"yes","backcountry":"yes","capacity":"5","fee":"no","name":"Virtaniemi","name:en":"Virtaniemi","openfire":"yes","toilets":"yes"}},"7848359085":{"location":[63.0897174,30.7465908],"ct":"FI","tp":"CS","ts":"2021-02-20T19:50:19Z","tX":599,"tY":278,"tags":{"access":"yes","backcountry":"yes","capacity":"5","fee":"no","name":"Teretinniemi","name:en":"Teretinniemi","openfire":"yes","toilets":"yes"}},"7848361085":{"location":[63.114316,30.6576772],"ct":"FI","tp":"CS","ts":"2021-02-20T19:50:19Z","tX":599,"tY":278,"tags":{"backcountry":"yes","fee":"no","name:en":"Camping","openfire":"yes"}}}