{"255388516":{"location":[50.3867789,30.7467925],"ct":"UA","tp":"CS","ts":"2023-03-03T20:30:24Z","tX":599,"tY":345,"tags":{"description":"Територія і комплекс будівель належали піонертабору \"Промінь\\ЛУЧ\" київського ВО \"Хімволокно\"","name":"Закинутий табір «Веселка»","name:uk":"Закинутий табір «Веселка»"}},"1009012084":{"location":[50.3923185,30.7073772],"ct":"UA","tp":"CS","ts":"2023-03-03T20:30:24Z","tX":599,"tY":345,"tags":{"description":"Руїни піонертабору «Родіна», який належав київському заводу «Радікал»","name":"Руїни колишнього піонертабору «Родіна»","name:uk":"Руїни колишнього піонертабору «Родіна»"}},"1009012109":{"location":[50.3886856,30.7399143],"ct":"UA","tp":"CS","ts":"2023-03-03T18:30:25Z","tX":599,"tY":345,"tags":{"description":"Територія колишнього піонерського табору «Орлятко»","name":"Закинутий лікувально-діагностичний центр «Шахтар»","name:uk":"Закинутий лікувально-діагностичний центр «Шахтар»"}},"1009012426":{"location":[50.3836634,30.7693523],"ct":"UA","tp":"CS","ts":"2023-03-03T20:30:24Z","tX":599,"tY":345,"tags":{"description":"Належав Київському радіозаводу","name":"Колишній літній табір «Салют»","name:uk":"Колишній літній табір «Салют»"}},"1009012427":{"location":[50.3825004,30.7610811],"ct":"UA","tp":"CS","ts":"2023-03-03T20:30:24Z","tX":599,"tY":345,"tags":{"name":"Дитячий оздоровчий табір «Шовковий»","name:uk":"Дитячий оздоровчий табір «Шовковий»"}},"1203288781":{"location":[50.4617653,30.5862531],"ct":"UA","tp":"CS","ts":"2023-08-29T19:54:53Z","tX":599,"tY":345,"tags":{"group_only":"yes"}},"2285671119":{"location":[50.413772,30.7067069],"ct":"UA","tp":"CS","ts":"2013-04-29T13:16:00Z","tX":599,"tY":345,"tags":{}},"4086705900":{"location":[50.2900633,30.5915688],"ct":"UA","tp":"CS","ts":"2016-03-30T15:41:44Z","tX":599,"tY":345,"tags":{}},"4207651077":{"location":[50.3715458,30.7742762],"ct":"UA","tp":"CS","ts":"2016-05-25T18:22:23Z","tX":599,"tY":345,"tags":{}},"4230757940":{"location":[50.3879158,30.7571603],"ct":"UA","tp":"CS","ts":"2016-06-07T19:35:59Z","tX":599,"tY":345,"tags":{}},"4351194934":{"location":[50.3310182,30.601597],"ct":"UA","tp":"CS","ts":"2023-10-14T06:08:39Z","tX":599,"tY":345,"tags":{"name":"Дитячий літній табір Росток","name:uk":"Дитячий літній табір Росток","website":"https://rostok-lider.com.ua/"}},"4932328024":{"location":[50.3526718,30.6360491],"ct":"UA","tp":"CS","ts":"2020-03-18T14:40:55Z","tX":599,"tY":345,"tags":{"name":"Осокор","name:uk":"Осокор"}},"5018092321":{"location":[50.3521933,30.9307913],"ct":"UA","tp":"CS","ts":"2023-03-06T18:52:28Z","tX":599,"tY":345,"tags":{"addr:housenumber":"42/5","addr:postcode":"08301","addr:street":"вулиця Володимира Момота","internet_access":"wlan","name":"Магазин \"РибаЧка\"","name:en":"Fishing store","name:uk":"Магазин \"РибаЧка\"","opening_hours":"Mo-Su 08:00-20:00","operator":"Ольга","phone":"+380 99 129 7130"}},"9141262117":{"location":[50.4597534,30.668371],"ct":"UA","tp":"CS","ts":"2021-10-03T08:38:40Z","tX":599,"tY":345,"tags":{}},"12222283301":{"location":[50.3313415,30.6060651],"ct":"UA","tp":"CS","ts":"2024-10-04T12:25:47Z","tX":599,"tY":345,"tags":{"name":"Столик для обіду"}},"4336202389":{"location":[50.3718076,30.9245325],"ct":"UA","tp":"CR","ts":"2025-02-18T22:23:16Z","tX":599,"tY":345,"tags":{"addr:housenumber":"54","addr:street":"Броварська вулиця","name":"Паркування Бориспіль","name:ru":"ПАРКОВКА БОРИСПОЛЬ","name:uk":"Паркування Бориспіль"}},"4345397994":{"location":[50.4120386,30.8486025],"ct":"UA","tp":"CR","ts":"2023-03-11T13:45:35Z","tX":599,"tY":345,"tags":{"name":"Нова Олександрівка","name:uk":"Нова Олександрівка"}},"9472160617":{"location":[50.5019289,30.6203316],"ct":"UA","tp":"CR","ts":"2023-03-03T18:27:37Z","tX":599,"tY":345,"tags":{"name":"Гараж Дмитра","name:uk":"Гараж Дмитра"}}}