{"254931221":{"location":[46.2070003,30.5911462],"ct":"UA","tp":"CS","ts":"2024-11-04T12:05:54Z","tX":599,"tY":363,"tags":{"name":"Кемпінг Санта-Фе","name:uk":"Кемпінг Санта-Фе"}},"255301493":{"location":[46.2905823,30.6587404],"ct":"UA","tp":"CS","ts":"2023-03-03T23:03:43Z","tX":599,"tY":363,"tags":{"name":"Лазурний","name:uk":"Лазурний"}},"255301497":{"location":[46.2928515,30.6614202],"ct":"UA","tp":"CS","ts":"2023-03-03T23:03:43Z","tX":599,"tY":363,"tags":{"name":"Україна","name:uk":"Україна"}},"435182720":{"location":[46.3059802,30.6682512],"ct":"UA","tp":"CS","ts":"2023-10-23T01:11:22Z","tX":599,"tY":363,"tags":{"leisure":"resort","name":"Санаторій-профілакторій \"Чайка\"","name:ru":"Санаторий-профилакторий «Чайка»","name:uk":"Санаторій-профілакторій \"Чайка\""}},"448358025":{"location":[46.2824629,30.6503508],"ct":"UA","tp":"CS","ts":"2023-03-03T23:03:43Z","tX":599,"tY":363,"tags":{"name":"База відпочинку \"Сокіл\"","name:uk":"База відпочинку \"Сокіл\""}},"3021243954":{"location":[46.2284903,30.6129592],"ct":"UA","tp":"CS","ts":"2014-08-16T22:41:02Z","tX":599,"tY":363,"tags":{}},"3021243958":{"location":[46.2286717,30.6135824],"ct":"UA","tp":"CS","ts":"2014-08-16T22:41:02Z","tX":599,"tY":363,"tags":{}},"3021243963":{"location":[46.2288341,30.6132722],"ct":"UA","tp":"CS","ts":"2014-08-16T22:41:02Z","tX":599,"tY":363,"tags":{}},"4296446193":{"location":[46.2765762,30.6474281],"ct":"UA","tp":"CS","ts":"2023-03-03T23:03:43Z","tX":599,"tY":363,"tags":{"name":"База відпочинку ,,Авиаремонтник,,","name:uk":"База відпочинку ,,Авиаремонтник,,"}},"6698509611":{"location":[46.2183479,30.602411],"ct":"UA","tp":"CS","ts":"2019-08-10T07:47:07Z","tX":599,"tY":363,"tags":{}},"6735623885":{"location":[46.2376553,30.6220541],"ct":"UA","tp":"CR","ts":"2023-10-23T02:26:57Z","tX":599,"tY":363,"tags":{"name":"Пляж дикий","name:ru":"Пляж дикий","name:uk":"Пляж дикий"}}}