{"257323766":{"location":[-24.9023612,30.7480989],"ct":"ZA","tp":"CS","ts":"2014-01-19T17:13:50Z","tX":599,"tY":585,"tags":{}},"487125050":{"location":[-25.0891314,30.7755336],"ct":"ZA","tp":"CS","ts":"2020-12-11T17:24:41Z","tX":599,"tY":585,"tags":{"name":"Sabie River Camp"}},"1207543320":{"location":[-24.9403968,30.71441],"ct":"ZA","tp":"CS","ts":"2023-09-13T18:23:29Z","tX":599,"tY":585,"tags":{"access":"customers"}},"2540996634":{"location":[-25.0944957,30.7670349],"ct":"ZA","tp":"CS","ts":"2022-04-14T11:28:48Z","tX":599,"tY":585,"tags":{"addr:city":"Sabie","addr:postcode":"1200","addr:street":"Old Lydenburg Road","name":"Merry Pebbles Caravan Park","phone":"+27 13 764 2266"}},"3359955557":{"location":[-24.9461617,30.8445406],"ct":"ZA","tp":"CS","ts":"2025-05-31T16:34:39Z","tX":599,"tY":585,"tags":{"addr:city":"Graskop","addr:country":"ZA","addr:postcode":"1270","bar":"no","camp_type":"established","description":"Well maintained site with great view over the gorge","dish_washing":"yes","dryer":"no","email":"ruskamp@lantic.net","fee":"ZAR 175 (2 adults, camper)","internet":"wifi","laundry":"yes","name":"Panorama Rest Camp","phone":"+27 13 1091767","power_supply":"yes","power_supply:voltage":"220","restaurant":"no","shower":"hot","source":"Survey","swimming_pool":"yes","toilets:disposal":"flush","toilets:position":"seated","washing_machine":"yes","water:quality":"potable","website":"https://www.panoramaviewchalets.co.za/"}},"5301987860":{"location":[-25.0887423,30.7756716],"ct":"ZA","tp":"CS","ts":"2022-05-09T06:54:00Z","tX":599,"tY":585,"tags":{"caravans":"yes","name":"Sabie River Camp","tents":"yes","website":"https://www.sabierivercamp.co.za/"}},"6021530385":{"location":[-25.0937859,30.7656974],"ct":"ZA","tp":"CS","ts":"2018-10-29T08:32:03Z","tX":599,"tY":585,"tags":{"addr:postcode":"1260","name":"Castle Rock"}},"6021530585":{"location":[-25.0937769,30.7656377],"ct":"ZA","tp":"CR","ts":"2018-10-29T08:32:06Z","tX":599,"tY":585,"tags":{"name":"Castle Rock"}}}