{"16235239":{"location":[41.7547963,-70.0101323],"ct":"US","tp":"CS","ts":"2023-08-23T14:01:35Z","tX":312,"tY":381,"tags":{"dog":"yes","name":"Camping Area 7","operator":"DCR"}},"29800225":{"location":[41.7582872,-70.089451],"ct":"US","tp":"CS","ts":"2023-04-29T20:26:04Z","tX":312,"tY":381,"tags":{"access":"yes","area":"yes","name":"Shady Knoll Campground","phone":"+1-508-896-3002","website":"https://shadyknoll.com/"}},"164953687":{"location":[41.7589343,-70.0353872],"ct":"US","tp":"SD","ts":"2018-11-22T00:34:45Z","tX":312,"tY":381,"tags":{"access":"customers","fee":"no","name":"Nickerson Dump Station","sanitary_dump_station:round_drain":"yes"}},"165754764":{"location":[41.762996,-70.023391],"ct":"US","tp":"CS","ts":"2024-03-26T13:24:35Z","tX":312,"tY":381,"tags":{"access":"private","addr:city":"Brewster","addr:housenumber":"456","addr:postcode":"02631","addr:state":"MA","addr:street":"Flax Pond Road","name":"Nauset Academy - Youth Forestry Camp","old_name":"Stephen L. French Youth Forestry Camp","operator":"Eliot Community Health Services"}},"238015239":{"location":[41.738768,-70.0860165],"ct":"US","tp":"CS","ts":"2023-04-29T20:26:04Z","tX":312,"tY":381,"tags":{"name":"Sweetwater Forest Family Campground","phone":"+1 508 896 3773","website":"http://www.sweetwaterforest.com/"}},"372915112":{"location":[41.7657122,-70.029521],"ct":"US","tp":"CS","ts":"2023-06-26T17:10:49Z","tX":312,"tY":381,"tags":{"dog":"yes","name":"Camping Area 2","operator":"DCR"}},"372915115":{"location":[41.7656329,-70.0323415],"ct":"US","tp":"CS","ts":"2023-06-26T17:10:49Z","tX":312,"tY":381,"tags":{"dog":"yes","name":"Camping Area 3","operator":"DCR"}},"372915118":{"location":[41.7506703,-70.0190595],"ct":"US","tp":"CS","ts":"2023-06-26T17:10:49Z","tX":312,"tY":381,"tags":{"dog":"yes","name":"Camping Area 6X","operator":"DCR"}},"372915121":{"location":[41.7693248,-70.0249654],"ct":"US","tp":"CS","ts":"2023-06-26T17:10:49Z","tX":312,"tY":381,"tags":{"dog":"yes","name":"Camping Area 5","operator":"DCR"}},"372915124":{"location":[41.7537668,-70.0168964],"ct":"US","tp":"CS","ts":"2023-06-26T17:10:49Z","tX":312,"tY":381,"tags":{"dog":"yes","name":"Camping Area 6","operator":"DCR"}},"372915130":{"location":[41.7606133,-70.0327737],"ct":"US","tp":"CS","ts":"2023-06-26T17:10:49Z","tX":312,"tY":381,"tags":{"dog":"yes","name":"Camping Area 4","operator":"DCR"}},"372915134":{"location":[41.768578,-70.029916],"ct":"US","tp":"CS","ts":"2023-06-26T17:10:49Z","tX":312,"tY":381,"tags":{"dog":"yes","name":"Camping Area 1","operator":"DCR"}},"429891708":{"location":[41.7093806,-70.1438448],"ct":"US","tp":"CR","ts":"2016-07-08T14:01:53Z","tX":312,"tY":381,"tags":{"name":"Old Chatham Road RV Resort"}},"3505160899":{"location":[41.6152555,-69.9850018],"ct":"US","tp":"CS","ts":"2020-01-06T22:30:07Z","tX":312,"tY":381,"tags":{"access":"private","name":"Biologist Campsite"}},"6652995372":{"location":[41.651721,-70.1409935],"ct":"US","tp":"CS","ts":"2019-07-27T13:14:45Z","tX":312,"tY":381,"tags":{"caravans":"yes","name":"D4"}},"6652995373":{"location":[41.6516915,-70.1411109],"ct":"US","tp":"CS","ts":"2019-07-27T13:14:45Z","tX":312,"tY":381,"tags":{"caravans":"yes","name":"D3"}},"6652995374":{"location":[41.6516691,-70.1411999],"ct":"US","tp":"CS","ts":"2019-07-27T13:14:45Z","tX":312,"tY":381,"tags":{"caravans":"yes","name":"D2"}},"6652995375":{"location":[41.6516453,-70.1412946],"ct":"US","tp":"CS","ts":"2019-07-27T13:14:45Z","tX":312,"tY":381,"tags":{"caravans":"yes","name":"D1"}}}