{"4133624013":{"location":[18.5852205,-69.9812346],"ct":"DO","tp":"CS","ts":"2018-04-25T14:43:29Z","tX":312,"tY":458,"tags":{"name":"Vacacional Los Tablones."}},"4598853391":{"location":[18.5786832,-70.1336427],"ct":"DO","tp":"CS","ts":"2017-01-09T22:33:05Z","tX":312,"tY":458,"tags":{"name":"Finca esposo Emilka","name:es":"Finca esposo Emilka"}},"4665961689":{"location":[18.5084018,-69.9799448],"ct":"DO","tp":"CS","ts":"2017-02-05T19:30:25Z","tX":312,"tY":458,"tags":{"name":"Condominio Real II"}},"4726972293":{"location":[18.6160999,-70.0440223],"ct":"DO","tp":"CS","ts":"2017-03-10T02:00:01Z","tX":312,"tY":458,"tags":{"name":"Fortuna Farm","name:es":"Fortuna Farm"}},"5020814122":{"location":[18.4535395,-70.0221864],"ct":"DO","tp":"CS","ts":"2017-08-07T20:17:25Z","tX":312,"tY":458,"tags":{"addr:street":"Avenida Rio Haina","name":"Petroservicio Hernández","name:es":"Petroservicio Hernández"}},"5642014922":{"location":[18.4285716,-69.97791],"ct":"DO","tp":"CS","ts":"2023-10-20T06:18:57Z","tX":312,"tY":458,"tags":{"addr:street":"Autopista 30 de Mayo","email":"clientes@casadeespana.com.do","internet_access":"wlan","name":"casa de España","name:en":"Casa de España","name:es":"Casa de España","opening_hours":"Mo-Su 06:00-00:00","phone":"8095371802","website":"https://www.casadeespana.com.do/"}},"6069612186":{"location":[18.6258311,-70.0679251],"ct":"DO","tp":"CS","ts":"2018-11-18T01:21:04Z","tX":312,"tY":458,"tags":{}},"9690246117":{"location":[18.546887,-70.0036954],"ct":"DO","tp":"CS","ts":"2022-04-24T18:29:37Z","tX":312,"tY":458,"tags":{"name":"Piscina Club Tu Ancla"}}}