{"1119615947":{"location":[-38.3577267,175.1935853],"ct":"NZ","tp":"CS","ts":"2022-12-05T14:48:00Z","tX":1010,"tY":630,"tags":{}},"4715881289":{"location":[-38.357622,175.1934467],"ct":"NZ","tp":"CS","ts":"2019-01-14T03:22:35Z","tX":1010,"tY":630,"tags":{"name":"Mangaokewa Scenic Reserve Campground (Freedom Camping for Self Contained Vehicles)","name:en":"Mangaokewa Scenic Reserve Campground"}},"4757238021":{"location":[-38.2826583,175.0983687],"ct":"NZ","tp":"CR","ts":"2019-01-14T03:22:31Z","tX":1010,"tY":630,"tags":{"addr:housenumber":"579","addr:postcode":"3981","addr:street":"Fullerton Road","internet_access":"wlan","name":"Roselands Waitomo Caves (Freedom camping for Self Contained Vehicles)","opening_hours":"Mo-Su 09:00-20:00","phone":"+64 7 878 7611"}},"4757238221":{"location":[-38.3255345,175.1529657],"ct":"NZ","tp":"CR","ts":"2018-05-23T05:38:34Z","tX":1010,"tY":630,"tags":{"description":"Freedom camping for self-contained vehicles","fee":"no","name":"Brook Park","name:en":"Brook Park (Freedom camping self-contained)"}},"12379444128":{"location":[-38.3267968,175.1535964],"ct":"NZ","tp":"CR","ts":"2025-04-07T19:32:00Z","tX":1010,"tY":630,"tags":{"addr:housenumber":"49","addr:street":"Te Kumi Road","capacity:caravans":"10","check_date":"2024-11-28","internet_access":"no","name":"Te KÅ«iti Holiday Park","opening_hours":"24/7","operator":"Waitomo City Council","phone:NZ":"0800 932 4357","power_supply":"no","sanitary_dump_station":"no","website":"https://www.waitomo.govt.nz/our-services/tekuiti-holiday-park/","wheelchair":"yes"}},"12379444129":{"location":[-38.327162,175.15383],"ct":"NZ","tp":"SD","ts":"2024-11-27T19:27:27Z","tX":1010,"tY":630,"tags":{"access":"yes","fee":"no","water_point":"yes"}}}