{"216991483":{"location":[-41.1277904,175.1949313],"ct":"NZ","tp":"CS","ts":"2024-12-29T19:50:31Z","tX":1010,"tY":640,"tags":{"access":"yes","addr:housenumber":"6.9 km","addr:street":"Remutaka Rail Trail","backcountry":"yes","caravans":"no","fee":"no","static_caravans":"no"}},"375014773":{"location":[-41.101443,175.0922786],"ct":"NZ","tp":"CR","ts":"2024-07-03T08:30:25Z","tX":1010,"tY":640,"tags":{"name":"Harcourt Park"}},"375014774":{"location":[-41.1006522,175.0927795],"ct":"NZ","tp":"CS","ts":"2017-06-20T09:46:55Z","tX":1010,"tY":640,"tags":{"addr:city":"Upper Hut","addr:housenumber":"45","addr:street":"Akatarawa Road","email":"harcourtholidaypark@xtra.co.nz","name":"Wellington's Kiwi Holiday Park","phone":"+64 4 526 7400","sanitary_dump_station":"yes","website":"http://www.harcourtholidaypark.co.nz/"}},"575716925":{"location":[-41.067015,175.1989217],"ct":"NZ","tp":"CS","ts":"2024-12-14T23:23:36Z","tX":1010,"tY":640,"tags":{"access":"yes","addr:city":"Upper Hut","addr:street":"Kaitoke Waterworks Road","addr:suburb":"Kaitoke","caravans":"yes","charge":"Adults $8/night;Children $4/night;","fee":"yes","name":"Kaitoke Regional Park Campground","operator":"Greater Wellington Regional Council","payment:credit_cards":"yes","payment:debit_cards":"yes","sanitary_dump_station":"no","static_caravans":"no","tents":"yes","website":"https://www.gw.govt.nz/parks/kaitoke-regional-park/"}},"1022695952":{"location":[-41.0657372,175.3535695],"ct":"NZ","tp":"CS","ts":"2022-02-07T09:38:17Z","tX":1010,"tY":640,"tags":{"backcountry":"yes","capacity:caravans":"0","capacity:tents":"25","description":"Enjoy the picturesque campsite above the Tauherenikau River set in regenerating bush. Camp at the road end or walk approx 150 m along the track to a grassy area amongst trees. Walk the Tauherenikau Gorge track or cool off with a swim in the river.","dog":"leashed","fee":"no","name":"Bucks Road Campsite","openfire":"yes","operator":"Department of Conservation","operator:wikidata":"Q1191417","operator:wikipedia":"en:Department of Conservation (New Zealand)","ref:doc":"100037857","reservation":"no","toilets":"yes","toilets:disposal":"pitlatrine","website":"https://doc.govt.nz/link/1c9d2031c8324434a59f10a7d54695ae"}},"1225304034":{"location":[-41.0761868,175.2299485],"ct":"NZ","tp":"CS","ts":"2021-09-24T06:19:49Z","tX":1010,"tY":640,"tags":{"addr:city":"Kaitoke, Upper Hutt","addr:housenumber":"184","addr:postcode":"5372","addr:street":"Kiwi Ranch Road","name":"YMCA Kaitoke Outdoor Education Centre","operator":"Young Mens Christian Association","source":"LINZ"}},"1225340427":{"location":[-41.0061856,175.1260837],"ct":"NZ","tp":"CS","ts":"2021-09-24T06:19:49Z","tX":1010,"tY":640,"tags":{"source":"LINZ"}},"2263143789":{"location":[-41.1427795,175.1973512],"ct":"NZ","tp":"CS","ts":"2022-01-27T00:21:18Z","tX":1010,"tY":640,"tags":{"backcountry":"yes","fee":"no"}},"2304945035":{"location":[-40.9964223,175.3903625],"ct":"NZ","tp":"CS","ts":"2022-02-07T09:38:17Z","tX":1010,"tY":640,"tags":{"capacity:caravans":"0","capacity:tents":"50","description":"This secluded campsite is at the head of two spectacular gorges above the Waiohine River. A popular area for rafting, canoeing, swimming, and outdoor education.","dog":"leashed","drinking_water":"untreated","name":"Waiohine Gorge Campsite","openfire":"yes","operator":"Department of Conservation","operator:wikidata":"Q1191417","operator:wikipedia":"en:Department of Conservation (New Zealand)","payment:cash":"yes","ref:doc":"100031363","reservation":"no","toilets":"yes","toilets:disposal":"flush","website":"https://doc.govt.nz/link/ff3ee04c8c6f40e3b19746065650b84d"}},"4052070963":{"location":[-41.1652375,175.2995836],"ct":"NZ","tp":"CS","ts":"2019-01-29T22:54:42Z","tX":1010,"tY":640,"tags":{"caravans":"yes","fee":"no","name":"Lake Domain Reserve","tents":"yes"}},"4546165548":{"location":[-41.0926075,175.1333087],"ct":"NZ","tp":"CS","ts":"2024-06-19T21:56:28Z","tX":1010,"tY":640,"tags":{"addr:city":"Upper Hutt","addr:housenumber":"20","addr:postcode":"5018","addr:street":"Molloys Road","addr:suburb":"Te MƒÅrua","name":"Wellington Naturist Club","name_1":"Wellington Sun Club","name_2":"Te Marua Sun Club","nudism":"yes","ref:linz:address_id":"2141508","website":"https://wellingtonnaturists.co.nz/"}},"7824083179":{"location":[-41.1438098,175.1975376],"ct":"NZ","tp":"CS","ts":"2024-12-29T20:38:18Z","tX":1010,"tY":640,"tags":{"backcountry":"yes","fee":"no"}},"12461570881":{"location":[-41.1430735,175.1972688],"ct":"NZ","tp":"CS","ts":"2024-12-29T20:38:18Z","tX":1010,"tY":640,"tags":{"backcountry":"yes","fee":"no"}},"12461570882":{"location":[-41.1441668,175.1973073],"ct":"NZ","tp":"CS","ts":"2024-12-29T20:38:18Z","tX":1010,"tY":640,"tags":{"backcountry":"yes","fee":"no"}}}