{"1230590795":{"location":[61.3999021,30.9511021],"ct":"RU","tp":"CS","ts":"2024-07-19T21:30:30Z","tX":600,"tY":289,"tags":{"access":"permit","addr:city":"Валаам","fee":"yes","internet_access":"no","name":"Турстоянка «1-я точка»","name:en":"Tourist Camp \"1st Point\"","name:ru":"Турстоянка «1-я точка»","operator":"Служба благочиния Валаамского монастыря","tents":"yes"}},"3501095948":{"location":[61.3504704,30.9909215],"ct":"RU","tp":"CS","ts":"2023-04-12T15:05:20Z","tX":600,"tY":289,"tags":{"access":"permit","addr:city":"Валаам","internet_access":"no","name":"Турстоянка «Дивная бухта»","name:en":"Tourist Camp \"Divnaya Bukhta\"","name:ru":"Турстоянка «Дивная бухта»","operator":"Служба благочиния Валаамского монастыря"}},"5072131486":{"location":[61.3983347,30.9471184],"ct":"RU","tp":"CS","ts":"2023-04-12T15:05:20Z","tX":600,"tY":289,"tags":{"access":"permit","addr:city":"Валаам","fee":"yes","internet_access":"no","name":"Турстоянка «Северный берег»","name:en":"Tourist Camp \"Severny Bereg\"","name:ru":"Турстоянка «Северный берег»","operator":"Служба благочиния Валаамского монастыря"}},"5248499535":{"location":[61.4066955,30.9747541],"ct":"RU","tp":"CS","ts":"2023-04-12T15:05:20Z","tX":600,"tY":289,"tags":{"access":"permit","name":"Турстоянка «Пожня»","name:en":"Tourist Camp \"Pozhnya\"","name:ru":"Турстоянка «Пожня»","operator":"Служба благочиния Валаамского монастыря"}},"5251658437":{"location":[61.3511413,30.9435442],"ct":"RU","tp":"CS","ts":"2023-04-12T15:05:20Z","tX":600,"tY":289,"tags":{"access":"permit","name":"Турстоянка «Лещёвый залив»","name:en":"Tourist Camp \"Leshchevy Zaliv\"","name:ru":"Турстоянка «Лещёвый залив»","operator":"Служба благочиния Валаамского монастыря"}},"6720520588":{"location":[61.4014232,31.0246922],"ct":"RU","tp":"CS","ts":"2023-04-12T15:05:20Z","tX":600,"tY":289,"tags":{"fee":"yes","name":"Турстоянка «Золотая бухта»"}}}