{"972326231":{"location":[48.0270332,30.9604376],"ct":"UA","tp":"CS","ts":"2023-03-12T20:51:00Z","tX":600,"tY":355,"tags":{"building":"yes","name":"Рафт-табір","name:en":"Raft Camp","name:uk":"Рафт-табір"}},"1019556904":{"location":[48.0297163,30.961118],"ct":"UA","tp":"CS","ts":"2023-03-03T23:06:22Z","tX":600,"tY":355,"tags":{"name":"Зелена Черепаха","name:uk":"Зелена Черепаха","nudism":"no","opening_hours":"24/7","operator":"Зелена Черепаха","tents":"yes"}},"1083934574":{"location":[48.0326797,30.9479887],"ct":"UA","tp":"CS","ts":"2024-05-21T05:37:14Z","tX":600,"tY":355,"tags":{"barrier":"fence","fee":"yes","name":"EXTREM Party","name:ru":"ЭКСТРИМ Партия","name:uk":"EXTREM Party"}},"4326609894":{"location":[48.0058127,30.9877355],"ct":"UA","tp":"CS","ts":"2019-12-08T15:32:04Z","tX":600,"tY":355,"tags":{}},"7682338504":{"location":[48.0028994,30.9880934],"ct":"UA","tp":"CS","ts":"2020-07-04T09:08:17Z","tX":600,"tY":355,"tags":{}},"7682359599":{"location":[48.005739,30.9822189],"ct":"UA","tp":"CS","ts":"2020-07-04T09:08:18Z","tX":600,"tY":355,"tags":{}},"7944809505":{"location":[47.9966506,30.9971103],"ct":"UA","tp":"CS","ts":"2023-03-03T23:06:22Z","tX":600,"tY":355,"tags":{"name":"Відмінне місце з підходом до води","name:uk":"Відмінне місце з підходом до води"}},"7944810268":{"location":[47.9967926,30.9963671],"ct":"UA","tp":"CS","ts":"2020-09-26T13:13:44Z","tX":600,"tY":355,"tags":{}},"7948350472":{"location":[48.0007961,30.9912246],"ct":"UA","tp":"CS","ts":"2023-03-03T23:06:22Z","tX":600,"tY":355,"tags":{"name":"Стоянка с беседками","name:uk":"Стоянка с беседками"}},"7991955783":{"location":[48.0303543,30.9431638],"ct":"UA","tp":"CS","ts":"2023-02-19T17:39:04Z","tX":600,"tY":355,"tags":{"description":"Много места","name":"Кемпінг відкритий","name:uk":"Кемпінг відкритий"}},"7991956129":{"location":[48.0293053,30.9375725],"ct":"UA","tp":"CS","ts":"2023-02-28T19:06:01Z","tX":600,"tY":355,"tags":{"name":"Місце для табору","name:uk":"Місце для табору"}},"7991958573":{"location":[48.0322547,30.9478569],"ct":"UA","tp":"CS","ts":"2023-03-03T23:06:22Z","tX":600,"tY":355,"tags":{"name":"Кемпинг","name:uk":"Кемпинг"}},"7991967537":{"location":[48.0297458,30.9386345],"ct":"UA","tp":"CS","ts":"2023-02-28T19:06:01Z","tX":600,"tY":355,"tags":{"name":"Місце для табору","name:uk":"Місце для табору"}},"7991984411":{"location":[48.0293277,30.9375249],"ct":"UA","tp":"CS","ts":"2023-03-03T23:06:22Z","tX":600,"tY":355,"tags":{"name":"Место под палатки","name:uk":"Место под палатки"}},"7999413662":{"location":[48.0312798,30.9458112],"ct":"UA","tp":"CS","ts":"2023-02-19T17:39:04Z","tX":600,"tY":355,"tags":{"name":"Платний кемпінг","name:uk":"Платний кемпінг"}},"5853869986":{"location":[48.0263703,30.9605145],"ct":"UA","tp":"CR","ts":"2023-10-24T00:00:40Z","tX":600,"tY":355,"tags":{"name":"Рафтінг табір Мигійскі пороги","name:en":"Rafting camp","name:ru":"Рафтинг лагерь Мигейские пороги","name:uk":"Рафтінг табір Мигійскі пороги","operator":"Wildtour","phone":"+380 67 336 6750","website":"https://wildtour.com.ua/"}}}