{"3268494065":{"location":[29.9628586,31.159491],"ct":"EG","tp":"CS","ts":"2015-01-04T08:40:28Z","tX":600,"tY":422,"tags":{"name":"Isis Garden Camp"}},"4794767522":{"location":[29.9559281,31.2776464],"ct":"EG","tp":"CS","ts":"2019-07-03T08:23:30Z","tX":600,"tY":422,"tags":{"name:ko":"최윤철 목사님댁"}},"9974921537":{"location":[30.1352849,31.2714374],"ct":"EG","tp":"CS","ts":"2022-12-03T19:06:45Z","tX":600,"tY":422,"tags":{"name":"الى بنها الحر"}},"9974921540":{"location":[29.9932596,31.1292967],"ct":"EG","tp":"CS","ts":"2022-08-24T13:31:53Z","tX":600,"tY":422,"tags":{"name":"طريق بنى يوسف"}},"9974957549":{"location":[30.1390461,31.2635658],"ct":"EG","tp":"CS","ts":"2022-08-24T13:31:44Z","tX":600,"tY":422,"tags":{"name":"مطلع شبرا بنها"}},"9974960736":{"location":[29.941567,31.1602059],"ct":"EG","tp":"CS","ts":"2022-08-24T13:31:52Z","tX":600,"tY":422,"tags":{"name":"معهد المهندسين العسكريين"}},"11637865271":{"location":[29.9899974,30.9605037],"ct":"EG","tp":"CS","ts":"2024-02-18T13:17:41Z","tX":600,"tY":422,"tags":{"addr:housenumber":"14 M"}},"4333982080":{"location":[29.956172,30.9387407],"ct":"EG","tp":"CR","ts":"2020-12-09T23:05:03Z","tX":600,"tY":422,"tags":{"name":"احمد التهامى","name:ar":"احمد التهامى","name:en":"ahmed eltohamy","phone":"01020982618"}},"4533347489":{"location":[29.9715249,30.9624591],"ct":"EG","tp":"CR","ts":"2018-11-10T05:23:47Z","tX":600,"tY":422,"tags":{"name":"فيلا حنين","name:ar":"فيلا حنين","name:en":"Villa Haneen"}},"5324577521":{"location":[30.0104612,31.1591045],"ct":"EG","tp":"CR","ts":"2018-01-06T21:35:40Z","tX":600,"tY":422,"tags":{}},"6069769485":{"location":[29.9541979,31.0977915],"ct":"EG","tp":"CR","ts":"2023-07-24T06:45:19Z","tX":600,"tY":422,"tags":{"addr:housenumber":"90","addr:street":"حدائق الاهرام البوابة الثالثة منطقة س عمارة 90","email":"fsthsz@gmail.com","name":"قضل سليمان","name:ar":"قضل سليمان","name:en":"fadel Sulaiman","phone":"01027653097"}},"9036662717":{"location":[30.0546231,31.2068454],"ct":"EG","tp":"CR","ts":"2021-08-26T02:45:59Z","tX":600,"tY":422,"tags":{}},"11519917169":{"location":[30.0104685,30.9701068],"ct":"EG","tp":"CR","ts":"2024-10-25T00:46:04Z","tX":600,"tY":422,"tags":{"name":"حي الفيروز"}}}