{"105336256":{"location":[52.9105747,0.4753306],"ct":"GB","tp":"CR","ts":"2023-08-08T20:52:17Z","tX":513,"tY":333,"tags":{"name":"Palm Beach Holiday Park"}},"114860051":{"location":[52.9655829,0.6448976],"ct":"GB","tp":"CR","ts":"2023-04-06T17:46:05Z","tX":513,"tY":333,"tags":{"access":"private","name":"The Croft Caravan Park"}},"119247086":{"location":[52.9280084,0.4872368],"ct":"GB","tp":"CR","ts":"2022-03-31T09:38:43Z","tX":513,"tY":333,"tags":{"addr:city":"Hunstanton","addr:country":"GB","addr:postcode":"PE36 5AZ","brand":"Parkdean Resorts","brand:wikidata":"Q7138226","contact:website":"https://www.parkdeanresorts.co.uk/location/east-anglia-lincolnshire/manor-park","name":"Manor Park Holiday Village","operator":"Parkdean Resorts UK Limited","phone":"+44 1485 532300"}},"119247104":{"location":[52.9279025,0.484995],"ct":"GB","tp":"CR","ts":"2024-12-31T17:40:39Z","tX":513,"tY":333,"tags":{"addr:city":"Hunstanton","name":"Searles Leasure Resort","phone":"+44 1485534211"}},"154201916":{"location":[52.96435,0.6827724],"ct":"GB","tp":"CS","ts":"2024-06-07T22:26:20Z","tX":513,"tY":333,"tags":{"name":"Deepdale Campsite"}},"238858722":{"location":[52.9615541,0.5808187],"ct":"GB","tp":"CR","ts":"2023-11-10T18:12:59Z","tX":513,"tY":333,"tags":{"addr:city":"Hunstanton","addr:country":"GB","addr:postcode":"PE36 6NJ","addr:street":"The Green","capacity":"109","fax":"+44 1553 636242","name":"The Haven Caravan Park","phone":"+44 1553 636243","website":"https://www.mcdonnellcaravans.co.uk/caravan-parks/haven/"}},"238858723":{"location":[52.9605146,0.5734495],"ct":"GB","tp":"CR","ts":"2023-11-10T18:12:54Z","tX":513,"tY":333,"tags":{"addr:city":"Hunstanton","addr:country":"GB","addr:postcode":"PE36 6LT","addr:street":"Ship Lane","fax":"+44 1553 636242","name":"The Lifeboat Caravan Park","phone":"+44 1553 636243","website":"https://www.mcdonnellcaravans.co.uk/caravan-parks/the-lifeboat/"}},"238859705":{"location":[52.9629809,0.5270806],"ct":"GB","tp":"CR","ts":"2024-04-20T08:59:53Z","tX":513,"tY":333,"tags":{"addr:city":"Hunstanton","addr:country":"GB","addr:postcode":"PE36 6LG","addr:street":"Beach Road","addr:suburb":"Flaxley","name":"Riverside Caravan Park"}},"265033284":{"location":[52.9624017,0.5359858],"ct":"GB","tp":"CR","ts":"2014-03-10T20:50:43Z","tX":513,"tY":333,"tags":{"source":"Bing"}},"740795283":{"location":[52.9269814,0.4791454],"ct":"GB","tp":"CR","ts":"2024-12-31T17:40:39Z","tX":513,"tY":333,"tags":{"addr:city":"Hunstanton","addr:housenumber":"91","addr:postcode":"PE36 5BA","addr:street":"South Beach Road","name":"Lees Caravan Park"}},"1046798122":{"location":[52.9304213,0.4865473],"ct":"GB","tp":"CS","ts":"2022-03-31T09:38:43Z","tX":513,"tY":333,"tags":{}},"1046902666":{"location":[52.9332335,0.4839386],"ct":"GB","tp":"CR","ts":"2022-03-31T16:58:01Z","tX":513,"tY":333,"tags":{"addr:city":"Hunstanton"}},"1160050961":{"location":[52.9619024,0.6437183],"ct":"GB","tp":"CR","ts":"2023-04-05T21:29:31Z","tX":513,"tY":333,"tags":{"name":"Lifeboat Caravan Park"}},"1196146711":{"location":[52.9125653,0.4738726],"ct":"GB","tp":"CR","ts":"2023-08-08T20:52:17Z","tX":513,"tY":333,"tags":{"name":"North Beach Holiday Home Park"}},"1196146712":{"location":[52.910586,0.4739171],"ct":"GB","tp":"CR","ts":"2023-08-08T20:52:17Z","tX":513,"tY":333,"tags":{"name":"Putting Green Holiday Home Park"}},"1348645259":{"location":[52.9098917,0.4786113],"ct":"GB","tp":"CR","ts":"2025-01-05T05:18:30Z","tX":513,"tY":333,"tags":{}},"1353369213":{"location":[52.964506,0.6828951],"ct":"GB","tp":"CS","ts":"2025-02-02T10:52:20Z","tX":513,"tY":333,"tags":{"access":"customers","addr:city":"King's Lynn","addr:county":"Norfolk","addr:housenumber":"1","addr:postcode":"PE31 8DD","addr:street":"Deepdale Granary","addr:suburb":"Burnham Deepdale","addr:village":"Burnham Deepdale","caravans":"yes","check_date":"2025-01-22","country":"GB","dog":"leashed","drinking_water":"yes","email":"stay@deepdalecamping.co.uk","fee":"yes","image":"https://deepdalecamping.co.uk/images/deepdale-camping-header-award-1.jpg","internet_access":"wlan","name":"Deepdale Camping & Rooms","payment:american_express":"yes","payment:cash":"yes","payment:credit_cards":"yes","payment:debit_cards":"yes","payment:mastercard":"yes","payment:visa":"yes","phone":"+44 1485 210256","reservation":"required","shower":"yes","source":"local knowledge","static_caravans":"yes","tents":"yes","toilets":"yes","website":"https://deepdalecamping.co.uk/camping/","wheelchair":"yes"}},"1353369214":{"location":[52.9634366,0.685594],"ct":"GB","tp":"CS","ts":"2025-01-22T16:06:41Z","tX":513,"tY":333,"tags":{}},"3663414900":{"location":[52.9190064,0.702372],"ct":"GB","tp":"CR","ts":"2015-07-23T20:34:28Z","tX":513,"tY":333,"tags":{"capacity":"5","name":"Muckleton Farm","phone":"+44 1485518340"}},"3663414901":{"location":[52.9596878,0.5477879],"ct":"GB","tp":"CS","ts":"2024-09-21T20:43:49Z","tX":513,"tY":333,"tags":{"addr:city":"Hunstanton","addr:postcode":"PE36 6LR","addr:street":"Thornham Road","caravans":"yes","drinking_water":"yes","name":"Newholm Nurseries","outdoor_seating":"no","phone":"+44 1485525269","power_supply":"no","shower":"no","tents":"yes"}},"12522768186":{"location":[52.9638111,0.6844437],"ct":"GB","tp":"CS","ts":"2025-02-02T10:54:10Z","tX":513,"tY":333,"tags":{"access":"customers","addr:city":"King's Lynn","addr:county":"Norfolk","addr:housenumber":"1","addr:postcode":"PE31 8DD","addr:street":"Deepdale Granary","addr:suburb":"Burnham Deepdale","addr:village":"Burnham Deepdale","caravans":"yes","dog":"leashed","drinking_water":"yes","email":"stay@deepdalecamping.co.uk","facebook":"https://www.facebook.com/Deepdale.Backpackers/","fee":"yes","name":"Deepdale Camping & Rooms","phone":"+44 1485 210256","reservation":"required","static_caravans":"yes","tents":"yes","website":"https://deepdalecamping.co.uk/camping/","wheelchair":"yes"}}}