{"105336214":{"location":[52.9054502,0.473284],"ct":"GB","tp":"CR","ts":"2025-01-01T12:30:50Z","tX":513,"tY":334,"tags":{"addr:city":"King's Lynn","addr:country":"GB","addr:postcode":"PE31 7BD","addr:street":"South Beach Road","addr:suburb":"Heacham","brand":"Parkdean Resorts","brand:wikidata":"Q7138226","contact:website":"https://www.parkdeanresorts.co.uk/location/east-anglia-lincolnshire/heacham-beach/","name":"Heacham Beach Holiday Park","operator":"Parkdean Resorts UK Limited","phone":"+44 1485 570270"}},"105336221":{"location":[52.9074788,0.4784842],"ct":"GB","tp":"CR","ts":"2023-08-08T21:01:26Z","tX":513,"tY":334,"tags":{"name":"Tall Trees Caravan Park"}},"105336228":{"location":[52.9062102,0.4796804],"ct":"GB","tp":"CR","ts":"2024-12-31T16:44:31Z","tX":513,"tY":334,"tags":{"addr:city":"King's Lynn","addr:housenumber":"41-43","addr:postcode":"PE31 7BA","addr:street":"South Beach Road","addr:suburb":"Heacham","name":"Newlands"}},"105336253":{"location":[52.9020041,0.4778756],"ct":"GB","tp":"CR","ts":"2017-03-01T21:52:15Z","tX":513,"tY":334,"tags":{"name":"Long Acres Holiday Home Park"}},"105342242":{"location":[52.9062354,0.4714858],"ct":"GB","tp":"CR","ts":"2017-03-01T21:52:15Z","tX":513,"tY":334,"tags":{"name":"Seashore Holiday Park"}},"105346072":{"location":[52.8724322,0.4477337],"ct":"GB","tp":"CR","ts":"2025-01-01T14:04:51Z","tX":513,"tY":334,"tags":{"caravans":"no","name":"Snettisham Caravan Park","permanent_camping":"only","static_caravans":"yes","tents":"no","website":"https://www.snettishamcaravanpark.co.uk/"}},"172620302":{"location":[52.8159985,0.4987666],"ct":"GB","tp":"CS","ts":"2025-03-10T22:17:20Z","tX":513,"tY":334,"tags":{"name":"Sandringham Camping and Caravanning Club Site","phone":"+44 1485542555","website":"https://www.campingandcaravanningclub.co.uk/campsites/uk/norfolk/sandringham/sandringham-camping-and-caravanning-club-site/"}},"369546267":{"location":[52.8129896,0.4928827],"ct":"GB","tp":"CR","ts":"2018-08-22T07:16:46Z","tX":513,"tY":334,"tags":{"area":"yes","name":"Sandringham Estate","phone":"+44 1485545400"}},"477911576":{"location":[52.9079525,0.4746712],"ct":"GB","tp":"CR","ts":"2024-01-05T22:12:57Z","tX":513,"tY":334,"tags":{"name":"Riverside Holiday Home Park"}},"477955174":{"location":[52.9054629,0.4772292],"ct":"GB","tp":"CR","ts":"2017-03-01T21:52:14Z","tX":513,"tY":334,"tags":{"name":"Pioneer Holiday Park"}},"477955175":{"location":[52.9053274,0.480653],"ct":"GB","tp":"CR","ts":"2024-12-31T16:44:31Z","tX":513,"tY":334,"tags":{"name":"Jennings"}},"490288970":{"location":[52.7524136,0.4722713],"ct":"GB","tp":"CR","ts":"2019-03-25T07:36:59Z","tX":513,"tY":334,"tags":{"name":"Innisfree Park Homes","postal_code":"PE32 1EX","website":"https://www.parkhome-living.co.uk/park-homes-for-sale-and-rent/view/17566-innisfree-park-homes"}},"835102404":{"location":[52.9035712,0.4733888],"ct":"GB","tp":"CS","ts":"2023-01-20T14:30:50Z","tX":513,"tY":334,"tags":{}},"867525497":{"location":[52.7426717,0.4071385],"ct":"GB","tp":"CR","ts":"2020-11-05T22:00:50Z","tX":513,"tY":334,"tags":{"name":"Hardwick Bridge Park","note":"Static mobile home park","source":"survey","source:name":"voice"}},"867525538":{"location":[52.7346548,0.3955095],"ct":"GB","tp":"CR","ts":"2021-12-20T21:25:59Z","tX":513,"tY":334,"tags":{}},"967051125":{"location":[52.7202037,0.4359137],"ct":"GB","tp":"CR","ts":"2021-07-26T18:03:14Z","tX":513,"tY":334,"tags":{"internet_access":"yes","internet_access:fee":"customers","name":"King's Lynn Caravan and Camping Park","payment:american_express":"yes","payment:cash":"yes","payment:coins":"yes","payment:credit_cards":"yes","payment:debit_cards":"yes","payment:maestro":"no","payment:mastercard":"yes","payment:notes":"yes","payment:visa":"yes","reservation":"recommended","sanitary_dump_station":"yes"}},"977331885":{"location":[52.8436285,0.490916],"ct":"GB","tp":"CS","ts":"2024-08-21T14:35:17Z","tX":513,"tY":334,"tags":{"addr:city":"King's Lynn","addr:postcode":"PE31 6WL","addr:street":"A149 Dersingham Bypass","addr:village":"Dersingham","caravans":"yes","name":"Pine Cones Caravan & Camping","phone":"+44 1485 544224","tents":"yes"}},"1038060995":{"location":[52.8715175,0.4585786],"ct":"GB","tp":"CR","ts":"2022-03-07T19:07:18Z","tX":513,"tY":334,"tags":{"caravans":"yes","name":"Diglea Holiday Park","phone":"+44 1485541367","static_caravans":"yes","tents":"yes","website":"https://www.digleacaravanpark.com/"}},"1044379895":{"location":[52.878662,0.6683603],"ct":"GB","tp":"CS","ts":"2022-03-26T23:52:34Z","tX":513,"tY":334,"tags":{"addr:city":"Stanhoe","addr:street":"Fakenham Road","name":"Dreamy Hollow Woodland Campsite & WW1 Trenches","phone":"+44 7564  226  780","website":"https://www.dreamyhollowcamping.co.uk"}},"1044379898":{"location":[52.8868228,0.664738],"ct":"GB","tp":"CS","ts":"2022-03-26T23:52:34Z","tX":513,"tY":334,"tags":{"name":"The Ricklels","phone":"+44 1485518671"}},"1305724106":{"location":[52.8619385,0.5057718],"ct":"GB","tp":"CR","ts":"2024-08-05T12:02:38Z","tX":513,"tY":334,"tags":{"name":"Brickley Wood CL","website":"https://www.caravanclub.co.uk/certificated-locations/england/norfolk/kings-lynn/Brickley-Wood/"}},"1305724107":{"location":[52.863014,0.506707],"ct":"GB","tp":"CR","ts":"2024-08-05T12:02:38Z","tX":513,"tY":334,"tags":{"name":"Hall Farm CL","website":"https://www.caravanclub.co.uk/certificated-locations/england/norfolk/hunstanton/hall-farm-3/"}},"1789140727":{"location":[52.7206588,0.4360165],"ct":"GB","tp":"CS","ts":"2021-07-24T16:59:34Z","tX":513,"tY":334,"tags":{"name":"King's Lynn Caravan and Camping Park","phone":"+44 1553840004","source":"ACSI"}},"3663487375":{"location":[52.8972796,0.6815917],"ct":"GB","tp":"CR","ts":"2015-07-23T18:37:52Z","tX":513,"tY":334,"tags":{"name":"Brierville","phone":"+44 1485518347"}},"3663487378":{"location":[52.9022529,0.685804],"ct":"GB","tp":"CR","ts":"2015-07-23T18:37:53Z","tX":513,"tY":334,"tags":{"name":"The Crown Pub Caravan site","phone":"+44 1485518330"}},"3663487379":{"location":[52.8698656,0.6917029],"ct":"GB","tp":"CS","ts":"2015-07-23T18:37:53Z","tX":513,"tY":334,"tags":{"name":"The Garden","phone":"+44 1485578220"}},"3694868082":{"location":[52.8631935,0.613295],"ct":"GB","tp":"CS","ts":"2015-08-13T08:46:59Z","tX":513,"tY":334,"tags":{"name":"Bircham Windmill","phone":"+44 1485578393"}},"3694868084":{"location":[52.7982502,0.5247271],"ct":"GB","tp":"CR","ts":"2015-08-13T08:46:59Z","tX":513,"tY":334,"tags":{"name":"Gatton Waters","phone":"+44 1485600643"}},"3694868085":{"location":[52.7278196,0.5436813],"ct":"GB","tp":"CS","ts":"2015-08-13T08:46:59Z","tX":513,"tY":334,"tags":{"name":"Gayton Road Fisheries","phone":"+44 1553636507"}},"3694868089":{"location":[52.6973389,0.5702203],"ct":"GB","tp":"CS","ts":"2015-08-13T08:46:59Z","tX":513,"tY":334,"tags":{"name":"Maytree House","phone":"+44 1760444094"}},"3694868097":{"location":[52.8755939,0.5109314],"ct":"GB","tp":"CR","ts":"2015-08-13T08:47:00Z","tX":513,"tY":334,"tags":{"name":"Snettisham","phone":"+44 1485542425"}},"3694868098":{"location":[52.8802446,0.5011032],"ct":"GB","tp":"CS","ts":"2015-08-13T08:47:00Z","tX":513,"tY":334,"tags":{"name":"The Queen Victoria","phone":"+44 1485541344"}},"3695106461":{"location":[52.7487266,0.532199],"ct":"GB","tp":"CR","ts":"2015-08-13T11:25:34Z","tX":513,"tY":334,"tags":{"name":"Hadleigh Farm","phone":"+44 1553636777"}},"3695106465":{"location":[52.7827195,0.5341556],"ct":"GB","tp":"CS","ts":"2015-08-13T11:25:35Z","tX":513,"tY":334,"tags":{"name":"The Anvil Inn","phone":"+44 1485600625"}},"3695106466":{"location":[52.7648153,0.5493942],"ct":"GB","tp":"CR","ts":"2015-08-13T11:25:35Z","tX":513,"tY":334,"tags":{"name":"The Old Appleyard","phone":"+44 1485600359"}},"7804795903":{"location":[52.7748553,0.5819883],"ct":"GB","tp":"CS","ts":"2020-08-11T19:47:29Z","tX":513,"tY":334,"tags":{"name":"Happy Valley Norfolk"}},"5251280421":{"location":[52.8150437,0.4967417],"ct":"GB","tp":"CR","ts":"2017-11-27T23:42:43Z","tX":513,"tY":334,"tags":{"name":"Sandringham Caravan Site","name:en":"Sandringham Caravan Site"}},"8948443311":{"location":[52.7207905,0.4355664],"ct":"GB","tp":"SD","ts":"2021-07-25T10:51:53Z","tX":513,"tY":334,"tags":{"access":"customers","fee":"no","opening_hours":"24/7","water_point":"yes"}},"12650798413":{"location":[52.8159791,0.4956608],"ct":"GB","tp":"SD","ts":"2025-03-10T22:00:24Z","tX":513,"tY":334,"tags":{}},"12650798414":{"location":[52.8150536,0.5006786],"ct":"GB","tp":"SD","ts":"2025-03-10T22:00:24Z","tX":513,"tY":334,"tags":{}}}