{"10270626":{"location":[51.4764008,0.6455047],"ct":"GB","tp":"CR","ts":"2023-11-09T16:52:56Z","tX":513,"tY":340,"tags":{"internet_access":"wlan","internet_access:fee":"customers","name":"Haven Kent Coast (Allhallows) Leisure Park","operator":"Haven","power_supply":"no","sanitary_dump_station":"no","source":"local_knowledge","source:shape":"Bing","static_caravans":"only"}},"164368283":{"location":[51.5737431,0.6576074],"ct":"GB","tp":"CS","ts":"2023-03-31T20:37:23Z","tX":513,"tY":340,"tags":{"addr:street":"Flemings Farm Road","name":"The Lake at Nine Acres"}},"174823546":{"location":[51.5943676,0.6576849],"ct":"GB","tp":"CS","ts":"2024-05-22T02:04:38Z","tX":513,"tY":340,"tags":{"access":"private","name":"Belchamps Scout Activity Centre","operator":"The Scout Association"}},"178414868":{"location":[51.5739859,0.654998],"ct":"GB","tp":"CS","ts":"2012-08-28T23:32:33Z","tX":513,"tY":340,"tags":{"maxtents":"5","name":"Flemings Farm","surface":"grass"}},"351187289":{"location":[51.5119962,0.5796895],"ct":"GB","tp":"CS","ts":"2022-10-04T12:08:47Z","tX":513,"tY":340,"tags":{"name":"Thorney Bay Camp","source":"OS OpenData StreetView","website":"http://www.thorneybay.co.uk"}},"604970445":{"location":[51.5821887,0.673884],"ct":"GB","tp":"CS","ts":"2018-07-04T12:19:25Z","tX":513,"tY":340,"tags":{"name":"Ark Lane Scout Campsite","operator":"Crouch Valley District Scouts"}},"655207219":{"location":[51.4725831,0.3963983],"ct":"GB","tp":"CS","ts":"2022-06-25T13:23:09Z","tX":513,"tY":340,"tags":{"access":"private","addr:city":"West Tilbury","addr:postcode":"RM18 8QX","addr:street":"Church Road","description":"Scout campsite for Thurrock Scouts. Not available for non-Scouting and Guiding bookings.","group_only":"yes","name":"Condovers Scout Activity Centre","operator":"Thurrock Scouts","website":"http://www.condovers.org.uk"}},"799053665":{"location":[51.4643534,0.6384408],"ct":"GB","tp":"CR","ts":"2020-05-02T09:28:29Z","tX":513,"tY":340,"tags":{}},"1233035177":{"location":[51.4731342,0.4304409],"ct":"GB","tp":"CS","ts":"2024-07-29T21:26:28Z","tX":513,"tY":340,"tags":{"addr:city":"East Tilbury","addr:postcode":"RM18 8PL","addr:street":"Princess Margaret Road","caravans":"no","drinking_water":"yes","internet_access":"no","name":"Thames View Camping","power_supply":"no","shower":"yes","tents":"yes","toilets":"yes","website":"https://thamesview-camping.com/"}},"4936961022":{"location":[51.4950204,0.4132757],"ct":"GB","tp":"CR","ts":"2017-06-26T13:34:22Z","tX":513,"tY":340,"tags":{"name":"Walton Hall Farm","name:en":"Walton Hall Farm"}}}