{"42386858":{"location":[51.187062,0.3904412],"ct":"GB","tp":"CR","ts":"2021-07-16T17:29:51Z","tX":513,"tY":341,"tags":{"addr:city":"Tonbridge","addr:district":"Paddock Wood","addr:postcode":"TN12 6DA","addr:street":"Maidstone Road","name":"Lamb's Caravan Park","phone":"+44 7860 383167","website":"https://www.seekersparkhomes.co.uk/park/lambs-mobile-home-park/"}},"92130235":{"location":[51.3459205,0.5053282],"ct":"GB","tp":"CR","ts":"2021-07-11T11:41:11Z","tX":513,"tY":341,"tags":{"addr:postcode":"ME5 9FD","source":"Bing"}},"106293344":{"location":[51.2633607,0.6034851],"ct":"GB","tp":"CR","ts":"2022-01-08T11:12:51Z","tX":513,"tY":341,"tags":{"addr:city":"Maidstone","addr:country":"GB","addr:county":"Kent","addr:postcode":"ME17 1XH","addr:street":"Ashford Road","capacity":"66","internet_access":"wlan","name":"Bearsted Caravan And Motorhome Club Site","operator":"Caravan And Motorhome Club","phone":"+44 1622 730018","playground":"yes","power_supply":"yes","shower":"yes","source":"Bing","toilets":"yes","washing_machine":"yes","website":"https://www.caravanclub.co.uk/club-sites/england/south-east-england/kent/bearsted-caravan-club-site/"}},"275147345":{"location":[51.3013635,0.5774029],"ct":"GB","tp":"CR","ts":"2018-08-27T13:11:44Z","tX":513,"tY":341,"tags":{"addr:city":"Maidstone","addr:country":"GB","addr:place":"Detling","addr:postcode":"ME14 3HB","addr:street":"Scragged Oak Road","capacity":"65","email":"info@oakviewcaravanpark.co.uk","name":"Oak View Caravan Park","operator":"Kent County Agricultural Society","phone":"+44 1622 631298","power_supply":"cee_17_blue","website":"https://oakviewcaravanpark.co.uk"}},"610568937":{"location":[51.2934887,0.6350035],"ct":"GB","tp":"CS","ts":"2022-01-08T11:12:53Z","tX":513,"tY":341,"tags":{"addr:city":"Maidstone","addr:country":"GB","addr:county":"Kent","addr:postcode":"ME17 1QT","addr:street":"Church Road","caravans":"yes","fee":"yes","name":"Hillside Campsite","operator":"Hook & Hatchet Inn","phone":"+44 1622 880272","power_supply":"yes","shower":"yes","tents":"yes","toilets":"yes","website":"https://www.hookandhatchetpub.co.uk/accomodation"}},"670061254":{"location":[51.243981,0.499183],"ct":"GB","tp":"CS","ts":"2019-02-12T20:50:29Z","tX":513,"tY":341,"tags":{"access":"private","addr:city":"Maidstone","addr:country":"GB","addr:postcode":"ME15 0QG","addr:street":"Stockett Lane","caravans":"no","email":"warden@hamletwood.org.uk","name":"Hamlet Wood Scout Campsite","phone":"+44 1622 744226","scout":"yes","shower":"yes","tents":"yes","website":"https://www.hamletwood.org.uk/"}},"673823462":{"location":[51.351734,0.3518438],"ct":"GB","tp":"CS","ts":"2024-07-01T12:30:41Z","tX":513,"tY":341,"tags":{"access":"private","addr:city":"Gravesend","addr:country":"GB","addr:postcode":"DA13 0QJ","addr:street":"Wrotham Road","drinking_water":"yes","email":"bookings@hopehill.org.uk","name":"Hopehill Scout Campsite","phone":"+44 1474 814070","sanitary_dump_station":"yes","scout":"yes","shower":"yes","tents":"yes","toilets":"yes","website":"https://www.hopehill.org.uk/"}},"756670354":{"location":[51.29578,0.5249754],"ct":"GB","tp":"CS","ts":"2024-10-09T12:10:10Z","tX":513,"tY":341,"tags":{"access":"private","addr:city":"Maidstone","addr:country":"GB","addr:county":"Kent","addr:postcode":"ME14 3DA","addr:street":"Grange Lane","email":"bookings@lowergrangefarm.co.uk","kitchen":"yes","name":"Lower Grange Farm Scout Activity Centre","operator":"Kent Scouts","phone":"+44 1622 766840","scout":"yes","shower":"yes","tents":"yes","toilets":"yes","website":"https://www.lowergrangefarm.co.uk/"}},"807331654":{"location":[51.2628325,0.6976726],"ct":"GB","tp":"CR","ts":"2010-07-09T00:15:57Z","tX":513,"tY":341,"tags":{"name":"Hogbarn Caravan Park"}},"948192996":{"location":[51.2228403,0.420221],"ct":"GB","tp":"CS","ts":"2021-05-28T14:37:43Z","tX":513,"tY":341,"tags":{"access":"permit","capacity":"25","charge":"3 GBP per person per night","fee":"yes","group_only":"yes","name":"Whitewater Action Medway","note":"No Facilities - just a field.","payment:cheque":"yes"}},"1054485110":{"location":[51.3412024,0.499582],"ct":"GB","tp":"CS","ts":"2024-03-02T09:53:16Z","tX":513,"tY":341,"tags":{"access":"private","addr:city":"Chatham","addr:country":"GB","addr:postcode":"ME5 9QG","addr:street":"Maidstone Road","email":"bookings@buckmorepark.org.uk","fixme":"placed simple boundry of campsite but requires more detailed knowledge of area to correctly place","name":"Buckmore Park Scout Campsite","scout":"yes","website":"https://www.buckmorepark.org.uk"}},"1075539433":{"location":[51.2497156,0.4286805],"ct":"GB","tp":"CS","ts":"2022-07-03T14:34:53Z","tX":513,"tY":341,"tags":{}},"1155986283":{"location":[51.3605511,0.6993938],"ct":"GB","tp":"CR","ts":"2024-02-17T16:14:29Z","tX":513,"tY":341,"tags":{"name":"Little Norwood Farm","power_supply":"yes","sanitary_dump_station":"yes"}},"1192871323":{"location":[51.3705205,0.3712113],"ct":"GB","tp":"CS","ts":"2023-07-28T09:47:04Z","tX":513,"tY":341,"tags":{"caravans":"yes","dog":"yes","drinking_water":"yes","name":"Ashmere Farm Certified Campsite","nudism":"no","shower":"no","toilets":"yes"}},"1222960226":{"location":[51.3769453,0.6332166],"ct":"GB","tp":"CR","ts":"2023-11-12T14:44:56Z","tX":513,"tY":341,"tags":{"name":"Overshore"}},"1247312968":{"location":[51.3377082,0.6917948],"ct":"GB","tp":"CS","ts":"2024-02-07T16:34:07Z","tX":513,"tY":341,"tags":{"name":"Borden Bees"}},"1253294576":{"location":[51.3687192,0.6440281],"ct":"GB","tp":"CS","ts":"2024-02-21T15:13:54Z","tX":513,"tY":341,"tags":{}},"1255236047":{"location":[51.3485031,0.6467263],"ct":"GB","tp":"CR","ts":"2024-02-27T12:16:45Z","tX":513,"tY":341,"tags":{}},"1259390427":{"location":[51.3240467,0.499888],"ct":"GB","tp":"CS","ts":"2024-03-09T13:43:16Z","tX":513,"tY":341,"tags":{}},"1305741388":{"location":[51.2398096,0.4509281],"ct":"GB","tp":"CS","ts":"2024-08-05T12:59:37Z","tX":513,"tY":341,"tags":{"access":"customers","caravans":"yes","fee":"yes","name":"Orchard View Park","static_caravans":"no","tents":"yes"}},"1789140348":{"location":[51.29244,0.61126],"ct":"GB","tp":"CS","ts":"2022-06-20T16:13:47Z","tX":513,"tY":341,"tags":{"addr:city":"Maidstone","addr:country":"GB","addr:county":"Kent","addr:postcode":"ME14 3LR","addr:street":"Coldblow Lane","caravans":"no","email":"bookings@coldblowfarm.co.uk","fee":"yes","motorhome":"yes","name":"Coldblow Farm","phone":"+44 1622 730439","power_supply":"yes","shower":"yes","source":"ACSI","tents":"yes","toilets":"yes","website":"https://www.coldblowfarm.co.uk/camping"}},"4294720593":{"location":[51.334272,0.3863286],"ct":"GB","tp":"CS","ts":"2024-01-03T13:23:06Z","tX":513,"tY":341,"tags":{"addr:city":"Gravesend","addr:country":"GB","addr:postcode":"DA13 0UF","addr:street":"White Horse Road","addr:subdistrict":"Meopham","caravans":"no","description":"Terrific woodland eco camp site. Check out the website www. badgellswoodcamping.co.uk","dog":"yes","drinking_water":"no","email":"enquiries@badgellswoodcamping.co.uk","fhrs:id":"929826","mobile":"+44 7528 609324","name":"Badgells Wood Camping","name:en":"Badgells Wood Camping","openfire":"yes","power_supply":"no","shower":"yes","source":"ratings.food.gov.uk","tents":"yes","toilets":"yes","website":"https://badgellswoodcamping.co.uk/","wikidata":"Q97059214"}},"4979746442":{"location":[51.2228951,0.6731754],"ct":"GB","tp":"CS","ts":"2024-09-16T14:44:20Z","tX":513,"tY":341,"tags":{"caravans":"no","check_date:currency:XBT":"2024-06-20","currency:XBT":"yes","description":"Wild Glamping & Luxury Camping","fee":"yes","name":"Welsummer Camping","openfire":"yes","payment:lightning":"yes","payment:lightning_contactless":"no","payment:onchain":"yes","phone":"+44 1622 843051","survey:date":"2024-09-15","tents":"yes","website":"https://www.welsummercamping.com/"}},"12155901801":{"location":[51.3741028,0.6287512],"ct":"GB","tp":"CR","ts":"2024-09-04T16:23:07Z","tX":513,"tY":341,"tags":{"name":"The Otterham Park","outdoor_seating":"no"}},"11841268049":{"location":[51.3411842,0.5022215],"ct":"GB","tp":"SD","ts":"2024-04-23T12:31:28Z","tX":513,"tY":341,"tags":{}}}