{"178012101":{"location":[47.7324254,0.5716896],"ct":"FR","tp":"CS","ts":"2014-07-28T11:57:10Z","tX":513,"tY":357,"tags":{"name":"Camping du Vieux Moulin","stars":"3"}},"271722135":{"location":[47.7138757,0.49628],"ct":"FR","tp":"CS","ts":"2023-02-24T10:29:59Z","tX":513,"tY":357,"tags":{"addr:city":"Marçon","addr:postcode":"72340","addr:street":"Route du Port Gauthier","name":"Camping du Lac des Varennes"}},"330024346":{"location":[47.7446235,0.6185904],"ct":"FR","tp":"CS","ts":"2020-11-01T17:05:06Z","tX":513,"tY":357,"tags":{"name":"Camping municipal des Chaintres","website":"http://ruille.vallee-du-loir.info/"}},"1138097029":{"location":[47.5273943,0.4534666],"ct":"FR","tp":"CS","ts":"2024-03-14T10:28:34Z","tX":513,"tY":357,"tags":{"name":"Camping Arada"}},"1299139530":{"location":[47.7532057,0.4462243],"ct":"FR","tp":"CR","ts":"2024-10-26T23:24:37Z","tX":513,"tY":357,"tags":{"capacity":"4","caravan_site":"motorhome_stopover","caravan_site:type":"village","fee":"yes","name":"Parking Bernadette Hérisson","power_supply":"yes","sanitary_dump_station":"yes","seasonal":"no","water_point":"yes","website":"https://thoiresurdinan.fr/tourisme/aire-de-camping-cars/"}},"2766677255":{"location":[47.7131718,0.4987118],"ct":"FR","tp":"CS","ts":"2014-05-02T16:28:20Z","tX":513,"tY":357,"tags":{"addr:city":"Marçon","addr:postcode":"72340","addr:street":"Route du Port Gauthier","name":"Camping du Lac des Varennes"}}}