{"134238203":{"location":[47.4118142,0.3895375],"ct":"FR","tp":"CS","ts":"2024-07-29T15:22:10Z","tX":513,"tY":358,"tags":{"access":"customers","addr:city":"Cléré-les-Pins","addr:housenumber":"1","addr:postcode":"37340","addr:street":"Le Bois des Forges","capacity":"30","caravans":"yes","contact:email":"cstouraine@sfr.fr","contact:phone":"+33 2 34 37 66 26","contact:website":"http://cstouraine.fr/","description":"Au cœur de la Vallée de la Loire, le Club du Soleil de Touraine, camping 2 étoiles, né il y a 50 ans, vous accueille sur un terrain boisé de 8 hectares situé à quelques minutes de Tours.","dog":"yes","email":"cstouraine@sfr.fr","fee":"yes","internet_access":"wlan","name":"Camping Le Bois des Forges","nudism":"yes","operator":"Club du Soleil de Touraine","payment:cash":"yes","payment:cheque":"yes","payment:mastercard":"yes","payment:visa":"yes","phone":"+33 2 34 37 66 26","stars":"2","static_caravans":"yes","tents":"yes","website":"http://cstouraine.fr/","wheelchair":"yes"}},"222773738":{"location":[47.3288602,0.4198095],"ct":"FR","tp":"CS","ts":"2023-08-02T07:54:08Z","tX":513,"tY":358,"tags":{"addr:city":"Langeais","addr:postcode":"37130","addr:street":"Rue de Tours","alt_name":"Camping municipal de Langeais","cabin":"no","capacity":"90","caravans":"yes","drinking_water":"yes","name":"Langeais Camping et loisirs","phone":"+33 2 47 96 85 80","power_supply":"yes","shower":"yes","stars":"2","tents":"yes","toilets":"yes","website":"https://langeais.fr/en/rb/450946/camping-municipal-du-lac"}},"270460196":{"location":[47.350076,0.5494869],"ct":"FR","tp":"CS","ts":"2023-07-17T20:20:37Z","tX":513,"tY":358,"tags":{"addr:city":"Savonnières","addr:postcode":"37510","addr:street":"Route du Bray","cabin:rental":"yes","capacity":"78","caravans":"yes","contact:email":"campinglaconfluence@onlycamp.fr","name":"La Confluence","operator":"Only Camp","payment:coins":"yes","payment:notes":"yes","phone":"+33 2 47 50 00 25","sanitary_dump_station":"yes","smoking":"yes","stars":"3","tents":"yes","website":"https://camping-savonnieres.fr/","wheelchair":"yes"}},"439726877":{"location":[47.2908313,0.3536757],"ct":"FR","tp":"CS","ts":"2023-04-10T21:38:26Z","tX":513,"tY":358,"tags":{"addr:city":"Bréhémont","addr:postcode":"37130","addr:street":"Le Stade","barrier":"fence","cabin:rental":"yes","capacity":"75","caravans":"yes","email":"camping@loireetchateaux.com","name":"Camping Loire et Châteaux","phone":"+33 9 88 28 24 85; +33 7 72 23 41 24","tents":"yes","website":"https://www.loireetchateaux.com/"}},"691792371":{"location":[47.3557614,0.6332274],"ct":"FR","tp":"CS","ts":"2024-08-16T21:38:16Z","tX":513,"tY":358,"tags":{"addr:city":"Ballan-Miré","addr:housenumber":"22","addr:postcode":"37510","addr:street":"Avenue des Aubépines","cabins":"yes","capacity:caravans":"114","capacity:tents":"114","caravans":"yes","motorhome":"yes","name":"Camping La Mignardière","phone":"+33 2 47 73 31 00","stars":"4","tents":"yes","washing_machine":"yes","website":"https://www.mignardiere.com/"}},"708941018":{"location":[47.3437105,0.4523898],"ct":"FR","tp":"CR","ts":"2024-05-24T08:55:52Z","tX":513,"tY":358,"tags":{"addr:city":"Cinq-Mars-la-Pile","addr:housenumber":"5","addr:postcode":"37130","addr:street":"Route de Langeais","area":"yes","cabins":"no","capacity":"31","caravan_site":"motorhome_stopover","caravan_site:type":"village","caravans":"no","charge":"13.55 EUR","charge:conditional":"11.55 EUR @ (Oct-Apr)","dog":"leashed","drinking_water":"yes","fee":"yes","impromptu":"yes","internet_access":"wlan","internet_access:fee":"no","maxlength":"none","motor_vehicle":"yes","name":"Aire Cinq-Mars-la-Pile","network":"CAMPING-CAR PARK","owner":"Mairie Cinq-Mars-La-Pile","phone":"+33 2 47 96 20 30; +33 6 27 86 63 91","power_supply":"yes","power_supply:capacity":"36","power_supply:fee":"no","power_supply:maxcurrent":"6","sanitary_dump_station":"yes","socket:cee_blue":"yes","tents":"no","trailer":"yes","water_point":"yes","website":"https://www.campingcarpark.com/fr_FR/sejour/aire-etape-camping-car/centre-val-de-loire/37-indre-et-loire/cinq-mars-la-pile#0"}},"717177233":{"location":[47.3516038,0.5499446],"ct":"FR","tp":"CR","ts":"2024-05-21T23:46:54Z","tX":513,"tY":358,"tags":{"capacity":"18","caravan_site":"motorhome_stopover","caravan_site:type":"river;village","charge":"15 EUR","charge:conditional":"10 EUR @ (Oct-Apr)","fee":"yes","name":"Aire Camping-Car Savonnières","network":"Onlypark","power_supply":"yes","power_supply:fee":"no","power_supply:maxcurrent":"10","sanitary_dump_station":"yes","sanitary_dump_station:charge":"2 EUR","sanitary_dump_station:fee":"yes","seasonal":"yes","website":"https://www.onlypark.fr/en/savonniere/"}},"844925646":{"location":[47.3770075,0.6018553],"ct":"FR","tp":"CR","ts":"2023-12-21T22:56:22Z","tX":513,"tY":358,"tags":{"caravan_site":"motorhome_stopover","caravan_site:type":"beach","fee":"yes","name":"Aire de service pour camping-car Saint-Genouph","power_supply":"no","sanitary_dump_station":"yes","water_point":"yes","website":"http://www.commune-saint-genouph.fr/agenda-actualite/actualite/442-aire-de-camping-cars-en-travaux"}},"850861766":{"location":[47.3398809,0.5072998],"ct":"FR","tp":"CR","ts":"2024-05-17T17:29:25Z","tX":513,"tY":358,"tags":{"bbq":"no","capacity":"50","caravan_site":"motorhome_stopover","caravan_site:type":"countryside","caravans":"no","charge":"16.32","charge:conditional":"14.32 @ (Oct-Apr)","dog":"leashed","fee":"yes","internet_access":"wlan","internet_access:fee":"no","maxlength":"9","name":"Aire de Villandry","network":"CAMPING-CAR PARK","opening_hours":"24/7","operator":"CAMPING-CAR PARK","power_supply":"yes","sanitary_dump_station":"yes","tents":"no","trailer":"yes","water_point":"yes","website":"https://www.campingcarpark.com/fr_FR/sejour/aire-etape-camping-car/centre-val-de-loire/37-indre-et-loire/villandry"}},"911382991":{"location":[47.291668,0.354119],"ct":"FR","tp":"CS","ts":"2022-12-28T18:22:23Z","tX":513,"tY":358,"tags":{"name":"Villa Cottage in Loire Valley"}},"911442575":{"location":[47.2984804,0.4164678],"ct":"FR","tp":"CR","ts":"2024-10-26T18:46:46Z","tX":513,"tY":358,"tags":{"addr:city":"Lignières-de-Touraine","caravan_site":"motorhome_stopover","caravan_site:type":"village","fee":"no","internet_access":"no","name":"L’Aire des 4 Châteaux","permanent_camping":"no","power_supply":"yes","sanitary_dump_station":"yes","toilets":"no","water_point":"yes","water_point:fee":"yes"}},"925749256":{"location":[47.3291669,0.4810013],"ct":"FR","tp":"CR","ts":"2024-10-12T19:12:58Z","tX":513,"tY":358,"tags":{"addr:city":"Villandry","addr:housenumber":"406","addr:street":"Château Galle","caravan_site":"motorhome_stopover","caravan_site:type":"river","charge":"10 EUR","dog":"yes","facebook":"https://www.facebook.com/p/Aire-de-camping-car-Villandry-Le-Nireva-100049656439879/","fee":"yes","fixme":"might be (temporarily) closed","name":"Aire de camping-car Villandry - Le Nireva","phone":"+33 6 72 30 94 87","power_supply":"yes","sanitary_dump_station":"yes","water_point":"yes","website":"https://www.touraineloirevalley.com/aires-camping-car/aire-de-services-et-stationnement-prive-le-nireva-villandry-villandry/"}},"1075860261":{"location":[47.3814445,0.5594719],"ct":"FR","tp":"CS","ts":"2023-03-10T08:14:04Z","tX":513,"tY":358,"tags":{"contact:email":"reception@campinglesgranges.fr","contact:phone":"+33 2 47 55 79 05","contact:website":"https://www.campinglesgranges.fr","name":"Les Granges","stars":"3"}},"1139053843":{"location":[47.5128053,0.4320365],"ct":"FR","tp":"CS","ts":"2023-02-07T22:29:40Z","tX":513,"tY":358,"tags":{"name":"Le Clos de l'Aunay-Marais"}},"1234931279":{"location":[47.366693,0.7001528],"ct":"FR","tp":"CR","ts":"2024-06-27T15:28:16Z","tX":513,"tY":358,"tags":{"addr:postcode":"37200","addr:street":"Avenue du Général Niessel","capacity":"10","caravan_site":"motorhome_stopover","caravan_site:type":"parking_lot","fee":"no","name":"Aire de services Parking Relais du Lac - Tours","opening_hours":"24/7","sanitary_dump_station":"yes","seasonal":"no","surface":"asphalt","water_point":"yes","water_point:fee":"yes","website":"https://www.touraineloirevalley.com/aires-camping-car/aire-de-services-parking-relais-du-lac-tours/"}},"1286293280":{"location":[47.3471854,0.5233653],"ct":"FR","tp":"CR","ts":"2024-05-24T14:57:26Z","tX":513,"tY":358,"tags":{"caravan_site":"motorhome_stopover","caravan_site:type":"river","charge":"12 EUR","fee":"yes","name":"Aire Villandry - Route de Berthenay","power_supply":"yes","surface":"grass","website":"https://www.touraineloirevalley.com/aires-camping-car/aire-daccueil-de-camping-cars-villandry/"}},"1325271948":{"location":[47.3826148,0.4212302],"ct":"FR","tp":"CR","ts":"2024-10-18T15:22:46Z","tX":513,"tY":358,"tags":{"addr:street":"rue du stade","capacity:caravans":"3","caravan_site":"motorhome_stopover","caravan_site:type":"village","fee":"no","name":"Aire camping car Mazières-de-Touraine","website":"https://mazieresdetouraine.fr/culture-et-loisirs/camping-et-aires/"}},"2371888371":{"location":[47.3892756,0.5959279],"ct":"FR","tp":"CS","ts":"2013-07-03T13:23:47Z","tX":513,"tY":358,"tags":{"name":"L'Islette - Fondettes"}},"3006896858":{"location":[47.3402368,0.5072992],"ct":"FR","tp":"SD","ts":"2023-07-26T05:32:13Z","tX":513,"tY":358,"tags":{"electricity":"yes","fee":"yes","payment:cb":"yes","sanitary_dump_station:accepted":"black_water;tank_chemicals;grey_water","water_point":"yes","water_point:charge":"2","water_point:fee":"yes"}},"9942885725":{"location":[47.3172138,0.4174323],"ct":"FR","tp":"CS","ts":"2023-07-26T14:34:11Z","tX":513,"tY":358,"tags":{"caravans":"no","drinking_water":"yes","name":"La cabane - bivouac, bar, restaurant","survey:date":"2022-08-09","tents":"yes","wheelchair":"no"}},"5091257540":{"location":[47.3097253,0.5085066],"ct":"FR","tp":"SD","ts":"2017-09-09T09:33:49Z","tX":513,"tY":358,"tags":{"fee":"no","opening_hours":"24/7","operator":"Vinci","sanitary_dump_station:round_drain":"yes"}},"11107232741":{"location":[47.2985882,0.4166315],"ct":"FR","tp":"SD","ts":"2023-08-11T08:48:33Z","tX":513,"tY":358,"tags":{"sanitary_dump_station:basin":"yes","sanitary_dump_station:round_drain":"yes"}},"11432760176":{"location":[47.3828401,0.4216889],"ct":"FR","tp":"SD","ts":"2023-12-19T18:42:12Z","tX":513,"tY":358,"tags":{"access":"yes"}},"11463004039":{"location":[47.3669153,0.7001216],"ct":"FR","tp":"SD","ts":"2023-12-28T15:07:06Z","tX":513,"tY":358,"tags":{"access":"yes"}}}