{"173688772":{"location":[46.7199875,0.5456041],"ct":"FR","tp":"CS","ts":"2012-07-30T20:56:49Z","tX":513,"tY":361,"tags":{}},"309095746":{"location":[46.6549675,0.3774864],"ct":"FR","tp":"CS","ts":"2024-09-04T13:28:16Z","tX":513,"tY":361,"tags":{"access":"customers","addr:city":"Chasseneuil-du-Poitou","addr:postcode":"86360","addr:street":"Rue Leclanché","area":"yes","capacity":"28","caravans":"yes","fee":"yes","name":"Camping municipal","opening_hours":"Apr,May,Jun,Sep 08:30-09:30,17:30-18:30; Jul,Aug 08:30-10:30,17:00-19:00","operator":"Commune de Chasseneuil-du-Poitou","phone":"+33 5 49 62 58 85","swimming_pool":"inground","tents":"yes"}},"309398659":{"location":[46.6641311,0.3955314],"ct":"FR","tp":"CS","ts":"2014-10-24T12:20:13Z","tX":513,"tY":361,"tags":{"name":"Le Futuriste"}},"334678515":{"location":[46.7150322,0.398901],"ct":"FR","tp":"CS","ts":"2015-03-25T13:10:30Z","tX":513,"tY":361,"tags":{}},"423953467":{"location":[46.6025486,0.5993091],"ct":"FR","tp":"CS","ts":"2025-01-03T07:58:55Z","tX":513,"tY":361,"tags":{"addr:city":"Bonnes","addr:housenumber":"17","addr:postcode":"86300","addr:street":"Rue de la Varenne","contact:website":"https://www.campingbonnes86.fr/index.php/nous-contacter","name":"Camping municipal","phone":"+33 5 49 56 44 34","website":"https://www.campingbonnes86.fr/"}},"656986716":{"location":[46.7198757,0.459555],"ct":"FR","tp":"CS","ts":"2023-08-05T18:24:52Z","tX":513,"tY":361,"tags":{"cabins":"yes","caravans":"yes","drinking_water":"yes","fee":"yes","internet_access":"wlan","name":"Camping du Lac de Saint-Cyr","phone":"+33 5 49 62 57 22","power_supply":"yes","stars":"4","tents":"yes","website":"https://www.campinglacdesaintcyr.fr","wheelchair":"yes"}},"765890606":{"location":[46.7804519,0.6923371],"ct":"FR","tp":"CS","ts":"2024-08-06T16:43:18Z","tX":513,"tY":361,"tags":{"name":"Parc de Loisirs \"LES Maillards\" Camping","website":"https://les-maillards.jimdofree.com/le-camping/"}},"778470666":{"location":[46.7030467,0.3717656],"ct":"FR","tp":"PK","ts":"2020-03-05T06:03:39Z","tX":513,"tY":361,"tags":{"caravans":"yes"}},"891948485":{"location":[46.7976733,0.5429408],"ct":"FR","tp":"CS","ts":"2021-01-04T15:45:20Z","tX":513,"tY":361,"tags":{"addr:city":"Châtellerault","addr:housenumber":"17 Bis","addr:postcode":"86100","addr:street":"Chemin du Chillou","capacity":"48","fee":"yes","name":"Camping du Chillou","stars":"2"}},"1074254829":{"location":[46.5706967,0.6535975],"ct":"FR","tp":"CS","ts":"2024-05-19T15:28:22Z","tX":513,"tY":361,"tags":{"access":"customers","addr:city":"Chauvigny","addr:housenumber":"42","addr:postcode":"86300","addr:street":"Rue de la Fontaine","capacity:caravans":"30","capacity:tents":"30","caravans":"yes","email":"camping-municipal@chauvigny.fr","fee":"yes","internet_access":"wlan","name":"Camping municipal La Fontaine","note":"Accueil Vélo, garantit des services de qualité auprès des cyclistes le long des itinéraires","operator":"Mairie de Chauvigny","payment:credit_cards":"yes","payment:notes":"yes","phone":"+33 5 49 46 31 94","stars":"3","static_caravans":"yes","tents":"yes","website":"https://www.chauvigny.fr/index.php/tourisme-patrimoine/chauvigny-vous-accueille/211-camping-la-fontaine"}},"1100566161":{"location":[46.6646312,0.3619897],"ct":"FR","tp":"CR","ts":"2024-05-12T16:42:03Z","tX":513,"tY":361,"tags":{"capacity":"118","caravan_site":"motorhome_stopover","caravan_site:type":"theme_park","caravans":"no","charge":"13.10 EUR","fee":"yes","name":"Futuroscope Parking","operator":"Futuroscope","sanitary_dump_station:chemical_toilet":"yes","surface":"asphalt","water_point":"yes","website":"https://www.futuroscope.com/fr/infos-pratiques/venir-au-futuroscope#camping-car"}},"1127997432":{"location":[46.675371,0.5770636],"ct":"FR","tp":"CS","ts":"2025-03-03T01:40:02Z","tX":513,"tY":361,"tags":{"capacity":"55","email":"contact@ot-chatellerault.fr","name":"Camping du parc de Crémault","operator":"Grand Châtellerault Communaté d'Agglomération","phone":"+33 5 49 21 05 47","website":"https://www.tourisme-chatellerault.fr/en/aire-campings-car/aire-de-camping-car-de-cremault/https://www.jetcamp.com/fr/france/camping-de-cremault-osofa-lounge-bar-camp/"}},"1196796555":{"location":[46.722263,0.4554922],"ct":"FR","tp":"CR","ts":"2024-05-17T21:35:36Z","tX":513,"tY":361,"tags":{"cabins":"no","capacity":"36","caravan_site":"motorhome_stopover","caravan_site:type":"river","caravans":"no","charge":"14.05 EUR","charge:conditional":"12.55 @ (Oct-Mar)","fee":"yes","internet_access":"yes","name":"Aire du lac de Saint-Cyr","network":"CAMPING-CAR PARK","operator":"Camping-Car Park","power_supply":"yes","sanitary_dump_station":"yes","static_caravans":"no","tents":"no","website":"https://www.campingcarpark.com/en_GB/stay/stopover-site-motorhome/nouvelle-aquitaine/86-vienne/st-cyr-le-lac"}},"1316547693":{"location":[46.7662904,0.5108763],"ct":"FR","tp":"CR","ts":"2024-09-19T00:13:04Z","tX":513,"tY":361,"tags":{"caravan_site":"motorhome_stopover","caravan_site:type":"river","description":"Aire calme","fee":"no","name":"Aire des Chezelles","power_supply":"no","sanitary_dump_station":"yes","sanitary_dump_station:fee":"no","water_point":"yes","water_point:fee":"no","website":"https://www.tourisme-chatellerault.fr/aire-campings-car/aire-des-chezelles/"}},"1361662893":{"location":[46.7516901,0.5726942],"ct":"FR","tp":"CR","ts":"2025-02-21T10:15:45Z","tX":513,"tY":361,"tags":{"capacity":"3","caravan_site":"motorhome_stopover","caravan_site:type":"farm_shop","fee":"no","name":"Aire à l'huilerie Lepine","phone":"+33 6 18458471","sanitary_dump_station":"no","seasonal":"no","toilets":"yes","website":"https://www.tourisme-chatellerault.fr/aire-campings-car/aire-a-lhuilerie-lepine/","wikimedia_commons":"Category:Aire à l'huilerie Lepine"}},"3671937925":{"location":[46.7212078,0.4574337],"ct":"FR","tp":"SD","ts":"2023-08-05T18:10:49Z","tX":513,"tY":361,"tags":{"access":"customers","sanitary_dump_station:grey_water":"yes","water_point":"yes"}},"5903552857":{"location":[46.6984783,0.4259451],"ct":"FR","tp":"CS","ts":"2024-12-29T19:33:11Z","tX":513,"tY":361,"tags":{"addr:city":"Dissay","addr:housenumber":"100","addr:postcode":"86130","addr:street":"Rue du Parc","capacity":"69","caravans":"yes","drinking_water":"yes","fee":"yes","name":"Camping municipal","power_supply":"yes","ref:FR:NAF":"5530Z","ref:FR:SIREN":"218600955","ref:FR:SIRET":"21860095500023","shower":"yes","source":"INSEE - 2024-12","tents":"yes","toilets":"yes","website":"https://www.dissay.fr/le-camping-municipal-et-le-syndicat-dinitiative.html","wheelchair":"yes"}},"7146534403":{"location":[46.6755625,0.650006],"ct":"FR","tp":"CR","ts":"2024-08-06T16:50:37Z","tX":513,"tY":361,"tags":{"addr:city":"Archigny","addr:country":"FR","addr:hamlet":"Les Près de la Fontaine","addr:postcode":"86210","caravan_site":"motorhome_stopover","caravan_site:type":"parking_lot","fee":"no","name":"Aire de Camping-car d'Archigny","power_supply":"yes","sanitary_dump_station":"yes","water_point":"yes","website":"https://www.tourisme-chatellerault.fr/en/aire-campings-car/aire-de-camping-car-darchigny/"}},"12095987394":{"location":[46.6762282,0.5759253],"ct":"FR","tp":"CR","ts":"2025-03-03T01:46:56Z","tX":513,"tY":361,"tags":{"description":"Service area in adjacent campsite (in season only), charge 2.70€","fee":"no","name":"Aire de Camping-Car de Crémault","power_supply":"no","sanitary_dump_station":"yes"}},"12096001162":{"location":[46.7515077,0.572378],"ct":"FR","tp":"CR","ts":"2024-08-06T22:15:48Z","tX":513,"tY":361,"tags":{"caravan_site":"motorhome_stopover","caravan_site:type":"farm_shop","fee":"no","name":"Aire à l'huilerie Lepine","website":"https://www.tourisme-chatellerault.fr/aire-campings-car/aire-a-lhuilerie-lepine/"}},"9857617989":{"location":[46.7031096,0.3718515],"ct":"FR","tp":"SD","ts":"2022-06-30T09:08:41Z","tX":513,"tY":361,"tags":{}},"10072178973":{"location":[46.664986,0.3612753],"ct":"FR","tp":"SD","ts":"2024-10-18T15:16:29Z","tX":513,"tY":361,"tags":{}},"11091912224":{"location":[46.7195008,0.4596946],"ct":"FR","tp":"SD","ts":"2023-08-05T18:24:52Z","tX":513,"tY":361,"tags":{}},"12095987395":{"location":[46.6759641,0.5764227],"ct":"FR","tp":"SD","ts":"2025-03-01T21:13:07Z","tX":513,"tY":361,"tags":{}},"12097296651":{"location":[46.6755192,0.6501386],"ct":"FR","tp":"SD","ts":"2024-08-07T14:47:48Z","tX":513,"tY":361,"tags":{"access":"yes","fee":"no"}},"12185178202":{"location":[46.7662725,0.5109031],"ct":"FR","tp":"SD","ts":"2024-09-19T00:13:04Z","tX":513,"tY":361,"tags":{"access":"yes"}}}