{"135565758":{"location":[46.0190837,0.6746007],"ct":"FR","tp":"CS","ts":"2024-09-02T09:16:21Z","tX":513,"tY":364,"tags":{"caravans":"yes","drinking_water":"yes","fee":"yes","name":"Les Ribières","operator":"Municipalité","phone":"+33 5 45 85 3527","power_supply":"yes","sanitary_dump_station":"yes","shower":"yes","stars":"1","tents":"yes","toilets":"yes","website":"https://lecampingdesribieres.fr/"}},"214449063":{"location":[45.8329886,0.5581291],"ct":"FR","tp":"CS","ts":"2019-03-05T03:20:57Z","tX":513,"tY":364,"tags":{"name":"Le Paradis","phone":"+33 5 45 84 92 06","stars":"4","website":"https://www.le-paradis-camping.com/"}},"1189847098":{"location":[46.0009035,0.6724134],"ct":"FR","tp":"CR","ts":"2024-10-07T18:24:56Z","tX":513,"tY":364,"tags":{"access":"yes","bbq":"no","capacity":"20","caravan_site":"motorhome_stopover","caravan_site:type":"village","caravans":"no","charge":"13.10 EUR","charge:conditional":"12.10EUR @ (Oct-Apr)","dog":"leashed","fee":"yes","internet_access":"wlan","internet_access:fee":"no","maxlength":"none","name":"Camping-car Park Confolen","network":"CAMPING-CAR PARK","opening_hours":"24/7","operator":"CAMPING-CAR PARK","power_supply":"yes","power_supply:capacity":"12","power_supply:fee":"no","power_supply:maxcurrent":"6","sanitary_dump_station":"yes","surface":"asphalt","tents":"no","trailer":"no","website":"https://www.campingcarpark.com/fr_FR/sejour/aire-etape-camping-car/nouvelle-aquitaine/16-charente/confolens"}},"1232491035":{"location":[45.9947221,0.4119695],"ct":"FR","tp":"CR","ts":"2024-10-12T14:34:59Z","tX":513,"tY":364,"tags":{"addr:city":"Champagne-Mouton","addr:postcode":"16350","addr:street":"Rue de la Ressource","capacity":"4","caravan_site":"motorhome_stopover","caravan_site:type":"village","caravans":"no","fee":"no","internet_access":"no","name":"Aire de services Champagne-Mouton","power_supply":"no","sanitary_dump_station":"yes","tents":"no","water_point":"yes"}},"1388765597":{"location":[45.8897732,0.6766265],"ct":"FR","tp":"CS","ts":"2025-05-22T12:12:01Z","tX":513,"tY":364,"tags":{"name":"La Rivière","phone":"+33 6 61 48 47 67","stars":"2","website":"https://www.campingdelariviere.com"}},"3092749555":{"location":[45.8895335,0.6766175],"ct":"FR","tp":"CS","ts":"2023-05-16T01:02:45Z","tX":513,"tY":364,"tags":{"name":"La Rivière","phone":"+33 6 61 48 47 67","stars":"2","website":"https://www.campingdelariviere.com"}},"3094111726":{"location":[46.0426491,0.6738897],"ct":"FR","tp":"CS","ts":"2024-11-07T16:36:08Z","tX":513,"tY":364,"tags":{"name":"Le Petit Mas D'Île","phone":"+33 5 45 89 14 33","ref:FR:NAF":"5530Z","ref:FR:SIREN":"494406101","ref:FR:SIRET":"49440610100019","source":"INSEE - 2024-11","website":"https://www.lepetitmasdile.com/"}},"3094136492":{"location":[45.9605167,0.5282465],"ct":"FR","tp":"CS","ts":"2019-03-05T03:21:16Z","tX":513,"tY":364,"tags":{"name":"Laurent","phone":"+33 6 02 22 37 15","website":"https://www.camp-laurent.com/"}},"3094227129":{"location":[45.8592144,0.6383351],"ct":"FR","tp":"CS","ts":"2014-09-24T16:24:52Z","tX":513,"tY":364,"tags":{"name":"La Blanchie","phone":"+33 5 45 89 33 19","website":"www.lablanchie.co.uk"}},"4414390989":{"location":[45.8461826,0.6195457],"ct":"FR","tp":"CS","ts":"2022-04-12T20:31:31Z","tX":513,"tY":364,"tags":{"addr:postcode":"16270","capacity":"6","description":"6 emplacements familiaux","email":"ledouvet@live.fr","internet_access":"wlan","name":"Camping Le Douvet","opening_hours":"24/7","operator":"Joop Wassenaar","phone":"+33545718939","website":"https://ledouvet.com/"}},"12182860988":{"location":[45.8940704,0.3865774],"ct":"FR","tp":"CR","ts":"2024-09-17T23:23:05Z","tX":513,"tY":364,"tags":{"caravan_site":"motorhome_stopover","caravan_site:type":"village","caravans":"no","dog":"yes","fee":"no","name":"Aire de loisirs - Cellefrouin","picnic_area":"yes","power_supply":"no","sanitary_dump_station":"yes","sanitary_dump_station:chemical_toilet":"yes","sanitary_dump_station:grey_water":"yes","tents":"no","website":"https://cellefrouin.fr/equipement/aire-de-loisirs-aire-de-camping-cars/"}},"9788652841":{"location":[45.9409603,0.482941],"ct":"FR","tp":"SD","ts":"2022-06-01T16:19:53Z","tX":513,"tY":364,"tags":{}},"9934594465":{"location":[46.0188389,0.6751354],"ct":"FR","tp":"SD","ts":"2022-08-05T22:00:58Z","tX":513,"tY":364,"tags":{}},"11432701274":{"location":[45.9948001,0.4118646],"ct":"FR","tp":"SD","ts":"2023-12-19T17:47:20Z","tX":513,"tY":364,"tags":{"access":"yes","fee":"no","sanitary_dump_station:chemical_toilet":"yes","sanitary_dump_station:grey_water":"yes"}}}