{"184147629":{"location":[45.5933105,0.6733292],"ct":"FR","tp":"CS","ts":"2017-10-22T14:42:14Z","tX":513,"tY":365,"tags":{"area":"yes","name":"Camplng du Grand Étang","source":"Bing"}},"189859297":{"location":[45.8272193,0.6879682],"ct":"FR","tp":"CR","ts":"2024-09-11T18:46:30Z","tX":513,"tY":365,"tags":{"caravan_site":"motorhome_stopover","caravan_site:type":"lake","fee":"no","name":"Aire Barrage de Lavaud","sanitary_dump_station":"yes","water_point":"yes"}},"228229485":{"location":[45.6831174,0.5596305],"ct":"FR","tp":"PK","ts":"2024-09-02T21:58:40Z","tX":513,"tY":365,"tags":{"caravan_site":"motorhome_stopover","caravan_site:type":"parking_lot","fee":"no","motorhome":"yes","motorhome:overnight":"yes","name":"Aire communale Écuras","parking":"surface","sanitary_dump_station":"yes","water_point":"yes"}},"691039930":{"location":[45.7327286,0.678501],"ct":"FR","tp":"CS","ts":"2019-05-19T13:46:21Z","tX":513,"tY":365,"tags":{"name":"Chez Rambaud"}},"1206612297":{"location":[45.6597235,0.5600248],"ct":"FR","tp":"CS","ts":"2024-03-07T16:23:59Z","tX":513,"tY":365,"tags":{"contact:city":"Eymouthiers","contact:housenumber":"861","contact:phone":"+33 4 66 60 07 00;+33 5 45 70 71 70","contact:postcode":"16220","contact:street":"Rue De La Tardoire","name":"Camping Koawa Les Gorges Du Chambon","opening_hours":"Tu-Su 00:00-23:59","stars":"4","website":"https://www.camping-gorges-chambon.fr/fr"}},"1281203240":{"location":[45.7456255,0.3805632],"ct":"FR","tp":"CR","ts":"2024-10-22T08:52:46Z","tX":513,"tY":365,"tags":{"bbq":"no","capacity":"25","caravan_site":"motorhome_stopover","caravan_site:type":"river","caravans":"yes","charge":"14.90 EUR","charge:conditional":"12 @ (Nov-Dec); 14 EUR@(Sep 9-Oct 31)","dog":"leashed","fee":"yes","maxlength":"none","name":"Aire \"Les Flots\" de La Rochefoucauld - Rivières","network":"CAMPING-CAR PARK","power_supply":"yes","power_supply:capacity":"40","power_supply:maxcurrent":"6","tents":"yes","toilets":"yes","trailer":"yes","water_point":"yes","website":"https://www.campingcarpark.com/fr_FR/sejour/camping/nouvelle-aquitaine/16-charente/riviere"}},"3092671547":{"location":[45.8245974,0.4448208],"ct":"FR","tp":"CS","ts":"2014-09-23T16:30:05Z","tX":513,"tY":365,"tags":{"name":"Les Charmilles","operator":"Municipalité","phone":"+33 5 45 39 55 36","website":"www.chasseneuil.fr/camping.php"}},"3917937051":{"location":[45.7398657,0.5845951],"ct":"FR","tp":"CS","ts":"2024-04-30T19:04:10Z","tX":513,"tY":365,"tags":{"addr:city":"Le Lindois","addr:postcode":"16310","addr:street":"D112","caravans":"yes","drinking_water":"yes","name":"Camping de l'Étang","operator":"Ilona & Peter de Bruin","phone":"+33 545 65 02 67;+33 5 45 65 02 67","power_supply":"yes","shower":"yes","stars":"2","tents":"yes","website":"https://www.campingdeletang.com"}},"6611927286":{"location":[45.6667813,0.660808],"ct":"FR","tp":"CS","ts":"2020-10-22T11:04:10Z","tX":513,"tY":365,"tags":{"addr:postcode":"24360","addr:street":"Coireaud","internet_access":"no","name":"Domaine naturiste Petits-Fours","name:en":"Petits-Fours naturist campsite and gite","operator":"Peter Nip","phone":"+33 6 56 66 58 33","website":"https://www.petits-fours-naturiste.eu"}},"11187808503":{"location":[45.638035,0.3594534],"ct":"FR","tp":"CS","ts":"2023-09-21T21:38:41Z","tX":513,"tY":365,"tags":{"addr:street":"rue du berry","contact:facebook":"https://www.facebook.com/p/Camping-Le-Buron-16380-Chazelles-100069336325731","description":"camping, dortoir à 30e, petits Gites","name":"Le Buron","opening_hours":"Mo-Su 09:00-19:30","phone":"+33 6 78 25 84 39"}},"11923434068":{"location":[45.6435101,0.5379763],"ct":"FR","tp":"CS","ts":"2024-05-21T20:23:18Z","tX":513,"tY":365,"tags":{"access":"private","addr:city":"Eymouthiers","addr:housenumber":"176","addr:postcode":"16220","addr:street":"Route de Feuillade","capacity:persons":"20","caravans":"yes","fee":"yes","name":"Camping chez l'habitant","operator":"Bella Becca Ranch","tents":"yes"}},"12112205198":{"location":[45.7403546,0.7005662],"ct":"FR","tp":"CR","ts":"2024-08-15T08:57:01Z","tX":513,"tY":365,"tags":{"capacity":"6","caravan_site":"motorhome_stopover","caravan_site:type":"countryside","fee":"no","name":"Aire d'accueil camping-car des Salles Lavauguyon","sanitary_dump_station":"yes","water_point":"yes","water_point:fee":"no","website":"https://www.visitlimousin.com/sejourner/ou-dormir/campings/aire-daccueil-camping-car-des-salles-lavauguyon-les-salles-lavauguyon-fr-4128830/"}},"12171214277":{"location":[45.6769346,0.6429993],"ct":"FR","tp":"CR","ts":"2024-09-12T05:30:40Z","tX":513,"tY":365,"tags":{"capacity":"21","caravan_site":"motorhome_stopover","caravan_site:type":"village","caravans":"no","charge":"9.50 EUR","fee":"yes","name":"Aire communale de Busserolles","power_supply":"yes","power_supply:fee":"no","sanitary_dump_station":"yes","tents":"no","water_point":"yes","water_point:fee":"no"}},"6734966730":{"location":[45.8274483,0.6881667],"ct":"FR","tp":"SD","ts":"2019-08-22T10:30:58Z","tX":513,"tY":365,"tags":{}},"12112205199":{"location":[45.7402039,0.7006909],"ct":"FR","tp":"SD","ts":"2024-08-15T08:57:01Z","tX":513,"tY":365,"tags":{"access":"yes","fee":"no","network":"Flot Bleu","power_supply":"yes","water_point":"yes","website":"https://www.visitlimousin.com/sejourner/ou-dormir/campings/aire-daccueil-camping-car-des-salles-lavauguyon-les-salles-lavauguyon-fr-4128830/"}},"12152485515":{"location":[45.6829763,0.5597113],"ct":"FR","tp":"SD","ts":"2024-09-02T21:58:40Z","tX":513,"tY":365,"tags":{"access":"yes","sanitary_dump_station:basin":"yes"}}}