{"225975757":{"location":[45.3297659,0.6367004],"ct":"FR","tp":"CS","ts":"2020-10-22T10:45:44Z","tX":513,"tY":367,"tags":{"name":"Camping du Bas Meygnaud"}},"308315174":{"location":[45.2575063,0.496151],"ct":"FR","tp":"CS","ts":"2022-08-01T16:04:44Z","tX":513,"tY":367,"tags":{"name":"Camping du Pré sec","operator":"https://www.campingdupresec.com/","phone":"+33 553907029"}},"375543201":{"location":[45.251381,0.4436655],"ct":"FR","tp":"CR","ts":"2024-09-11T19:53:29Z","tX":513,"tY":367,"tags":{"capacity":"5","caravan_site":"motorhome_stopover","caravan_site:type":"park","charge":"5 EUR","fee":"yes","name":"Village de gîtes de Beauclair","power_supply":"yes","sanitary_dump_station":"yes","seasonal":"no","surface":"asphalt","water_point":"yes","website":"https://www.dordogne-perigord-tourisme.fr/offres/village-de-gites-de-beauclair-douchapt-fr-2939066/"}},"466417368":{"location":[45.1067668,0.4706917],"ct":"FR","tp":"CS","ts":"2023-04-16T16:24:11Z","tX":513,"tY":367,"tags":{"addr:city":"Neuvic","addr:housenumber":"2","addr:postcode":"24190","addr:street":"Avenue de Planèze","cabins":"yes","caravans":"yes","dry_cleaning":"yes","name":"Camping Le Plein Air Neuvicois","opening_hours":"Apr-Oct","phone":"+33 5 53 81 50 77","stars":"3","tents":"yes","washing_machine":"yes","website":"https://www.campingneuvicdordogne.com"}},"466894155":{"location":[45.2814217,0.5393526],"ct":"FR","tp":"CS","ts":"2021-08-08T12:41:05Z","tX":513,"tY":367,"tags":{"name":"Camping du Pont","operator":"mairie-de-lisle@wanadoo.fr","phone":"+33553045002"}},"466937314":{"location":[45.2909403,0.5294438],"ct":"FR","tp":"CS","ts":"2019-04-06T07:49:00Z","tX":513,"tY":367,"tags":{"name":"Camping de Renamon","operator":"guinguette@renamont.com","phone":"+33553048244"}},"1028701834":{"location":[45.1480729,0.5328999],"ct":"FR","tp":"CS","ts":"2023-04-16T15:25:14Z","tX":513,"tY":367,"tags":{"addr:city":"Saint Astier","addr:postcode":"24110","cabins":"yes","caravans":"yes","name":"Le Pontet","name:fr":"Le Pontet","opening_hours":"closed","phone":"+33 977 891 422","stars":"3","tents":"yes","website":"https://www.camping-le-pontet.com/"}},"1190552145":{"location":[45.3227683,0.5820615],"ct":"FR","tp":"CR","ts":"2024-10-08T17:49:51Z","tX":513,"tY":367,"tags":{"addr:city":"Bourdeilles","addr:postcode":"24310","bbq":"no","caravan_site":"motorhome_stopover","caravan_site:type":"stopover","caravans":"no","charge":"14.10 EUR","charge:conditional":"13.10 @ (Oct-Apr)","dog":"leashed","fee":"yes","maxlength":"none","motorhome":"yes","name":"CAMPING-CAR PARK area of Bourdeilles","network":"CAMPING-CAR PARK","operator":"CAMPING-CAR PARK","power_supply:capacity":"38","power_supply:fee":"no","power_supply:maxcurrent":"6","sanitary_dump_station":"yes","sanitary_dump_station:chemical_toilet":"yes","sanitary_dump_station:grey_water":"yes","surface":"grass","tents":"no","trailer":"yes","water_point":"yes","website":"https://www.campingcarpark.com/en_GB/stay/stopover-site-motorhome/nouvelle-aquitaine/24-dordogne/bourdeilles"}},"1314731137":{"location":[45.230447,0.3562873],"ct":"FR","tp":"CR","ts":"2024-09-10T22:19:06Z","tX":513,"tY":367,"tags":{"capacity":"4","caravan_site":"motorhome_stopover","caravan_site:type":"village","fee":"no","name":"Aire Camping-car Saint-Martin-de-Ribérac","power_supply":"yes","sanitary_dump_station":"yes","water_point":"yes","water_point:fee":"yes"}},"1314897861":{"location":[45.2229167,0.5652226],"ct":"FR","tp":"CR","ts":"2024-09-11T16:44:34Z","tX":513,"tY":367,"tags":{"caravan_site":"motorhome_stopover","caravan_site:type":"village","fee":"no","name":"Aire communale de Mensignac","power_supply":"yes","power_supply:charge":"2 EUR/hours","power_supply:fee":"yes","water_point":"yes","water_point:charge":"2 EUR","water_point:fee":"yes","website":"https://www.dordogne-perigord-tourisme.fr/offres/aire-communale-de-mensignac-mensignac-fr-2940098/"}},"1319000646":{"location":[45.1135829,0.440129],"ct":"FR","tp":"PK","ts":"2024-10-04T12:47:15Z","tX":513,"tY":367,"tags":{"fee":"no","motorhome":"yes","motorhome:overnight":"yes","picnic_table":"yes","surface":"gravel"}},"6440624944":{"location":[45.1082,0.5949247],"ct":"FR","tp":"CS","ts":"2022-02-13T20:39:44Z","tX":513,"tY":367,"tags":{"caravans":"yes","mobile":"+33 6 04 19 64 12","name":"Camping Le Sabotier","phone":"+33 5 53 54 27 78","tents":"yes","website":"https://www.tourisme-isleperigord.com/camping-le-sabotier#"}},"4413878672":{"location":[45.1153625,0.5000998],"ct":"FR","tp":"CR","ts":"2024-09-12T03:58:48Z","tX":513,"tY":367,"tags":{"caravan_site":"motorhome_stopover","caravan_site:type":"village","lit":"yes","name":"Aire communale de Saint-Léon-sur-l'Isle","water_point":"yes","water_point:fee":"no","website":"https://www.dordogne-perigord-tourisme.fr/offres/aire-de-service-communale-de-saint-leon-sur-lisle-saint-leon-sur-lisle-saint-leon-sur-lisle-fr-2940096/"}},"12168945777":{"location":[45.2305122,0.3564951],"ct":"FR","tp":"SD","ts":"2024-09-10T22:19:06Z","tX":513,"tY":367,"tags":{"access":"yes","fee":"no","water_point":"yes","water_point:fee":"yes"}},"12171147074":{"location":[45.1153201,0.5002239],"ct":"FR","tp":"SD","ts":"2024-09-12T03:58:48Z","tX":513,"tY":367,"tags":{"access":"yes","fee":"no","water_point":"yes","water_point:fee":"no"}},"12231939519":{"location":[45.2445257,0.6873833],"ct":"FR","tp":"SD","ts":"2024-10-07T15:05:22Z","tX":513,"tY":367,"tags":{}}}