{"495011752":{"location":[44.2316365,0.3974243],"ct":"FR","tp":"CS","ts":"2022-07-29T17:22:54Z","tX":513,"tY":371,"tags":{"name":"Le Moulin de Saint-Laurent","website":"https://www.moulindesaintlaurent.com/"}},"595202381":{"location":[44.1554274,0.6594418],"ct":"FR","tp":"CS","ts":"2025-06-17T11:47:27Z","tX":513,"tY":371,"tags":{"caravans":"no","motorhome":"no","name":"Parc du Château d'Allot","ref:FR:CRTA":"HPAAQU047FS00023","source":"Réseau SIRTAQUI - Comité Régional de Tourisme d'Aquitaine - www.sirtaqui-aquitaine.com - 06/2016","stars":"3","tents":"no","website":"http://www.domaine-dallot.fr"}},"837387623":{"location":[44.2908748,0.5416225],"ct":"FR","tp":"CS","ts":"2020-08-15T15:02:44Z","tX":513,"tY":371,"tags":{"name":"Domaine du Lac de Néguenou","ref:FR:CRTA":"HPAAQU047FS00022","source":"Réseau SIRTAQUI - Comité Régional de Tourisme d'Aquitaine - www.sirtaqui-aquitaine.com - 08/2018","stars":"3","website":"https://www.lacdeneguenou.fr"}},"1253308252":{"location":[44.1039145,0.5843011],"ct":"FR","tp":"CS","ts":"2024-05-27T20:18:39Z","tX":513,"tY":371,"tags":{"name":"Domaine de Cavailla","website":"http://www.domainedecavailla.com"}},"2469855178":{"location":[44.2432572,0.5429842],"ct":"FR","tp":"CS","ts":"2025-03-14T14:14:27Z","tX":513,"tY":371,"tags":{"addr:city":"Saint-Hilaire-de-Lusignan","addr:postcode":"47450","addr:street":"Route de Prayssas - D107","name":"Camping Le Moulin de Mellet","phone":"+33 5 53 87 50 89;+33 6 79 93 48 54","website":"https://camping-moulin-mellet.com/"}},"3918078112":{"location":[44.2148105,0.4822493],"ct":"FR","tp":"CS","ts":"2024-09-06T08:48:29Z","tX":513,"tY":371,"tags":{"access":"yes","addr:city":"Sérignac-sur-Garonne","addr:housenumber":"2","addr:postcode":"47310","addr:street":"Rue des Prunus","capacity":"4","fee":"no","name":"Aire Naturelle Communale Serignac sur Garonne","note":"Shower, WC, sink, power socket and tent pitches next to tennis courts - acces libre, velo / tente uniquement - pas d'acces pour camping-car.","operator":"Municipal","tents":"yes"}},"8870137330":{"location":[44.17717,0.6650749],"ct":"FR","tp":"CS","ts":"2021-06-27T17:37:42Z","tX":513,"tY":371,"tags":{"description":"Halte nautique avec espace bivouac. Eau potable et WC. Douche de 9h à 19h","name":"Halte nautique de Boé"}},"4912345495":{"location":[44.2084903,0.4620185],"ct":"FR","tp":"CR","ts":"2024-10-12T16:52:48Z","tX":513,"tY":371,"tags":{"caravan_site":"motorhome_stopover","caravan_site:type":"farm_shop","fee":"no","name":"Ferme Roques","product":"fruit","water_point":"yes","website":"https://fermeroques.com/fr/1/10/les-services-de-la-ferme.html"}},"4713124836":{"location":[44.2249016,0.513656],"ct":"FR","tp":"SD","ts":"2017-03-02T10:41:46Z","tX":513,"tY":371,"tags":{}},"12662830801":{"location":[44.2320867,0.3961675],"ct":"FR","tp":"CS","ts":"2025-05-21T16:48:46Z","tX":513,"tY":371,"tags":{"addr:housenumber":"905","addr:postcode":"47130","addr:street":"Route du Moulin","name":"Moulin Saint Laurent","phone":"05 53 95 24 08;06 70 48 78 37"}}}