{"271073143":{"location":[43.9837037,0.5025267],"ct":"FR","tp":"CS","ts":"2024-02-28T21:07:21Z","tX":513,"tY":372,"tags":{"name":"Le Camp de Florence","stars":"4","website":"https://www.lecampdeflorence.com"}},"293215734":{"location":[44.0338052,0.3669842],"ct":"FR","tp":"CS","ts":"2023-11-10T19:13:37Z","tX":513,"tY":372,"tags":{"capacity":"147","caravans":"yes","description":"Boulodrome # Jeux pour enfants # Piscine # Restauration # Salle de jeux # Salon de télévision # Tennis # Point alimentation # Bar # Cyber espace # Dépôt de glace","description_2":"Location de bungalow, de caravanes et de mobil home # Location de matériel de sport # Location de vélos/VTT # Plats à emporter # Terrain fermé la nuit","internet_access":"wlan","name":"Camping Le Mouliat","operator":"Sourire du Lot-et-Garonne","phone":"+33 5 53 65 43 28","power_supply":"yes","ref:FR:CRTA":"HPAAQU047FS0000P","source":"BDOrtho IGN; Cadastre MàJ 2015; Sirtaqui","source:ref:FR:CRTA":"Sirtaqui","stars":"3","website":"https://www.camping-le-mouliat.fr/"}},"341781142":{"location":[43.8474286,0.6716432],"ct":"FR","tp":"CR","ts":"2024-10-25T15:57:54Z","tX":513,"tY":372,"tags":{"access":"yes","addr:city":"Fleurance","addr:housenumber":"1","addr:postcode":"32810","addr:street":"Rue Emile Zola","capacity":"40","caravan_site":"motorhome_stopover","caravan_site:type":"village;river","fee":"no","name":"Aire de Camping-car de Fleurance","operator":"Mairie de Fleurance","power_supply":"yes","sanitary_dump_station":"yes","sanitary_dump_station:chemical_toilet":"yes","sanitary_dump_station:grey_water":"yes","tents":"no","water_point":"yes","website":"https://www.villefleurance.fr/aire-de-camping-car-2"}},"397582161":{"location":[43.948612,0.3645995],"ct":"FR","tp":"CS","ts":"2020-09-06T11:40:44Z","tX":513,"tY":372,"tags":{"addr:city":"Condom","addr:postcode":"32100","addr:street":"Chemin de l'Argenté","caravans":"yes","name":"Camping municipal de l'Argenté","phone":"+33 4 68 25 85 14;+33562281732"}},"543542388":{"location":[43.9363146,0.626323],"ct":"FR","tp":"CR","ts":"2023-12-28T21:06:21Z","tX":513,"tY":372,"tags":{"access":"yes","addr:city":"Lectoure","addr:housenumber":"5612A","addr:postcode":"32700","addr:street":"Chemin des Amandiers","capacity":"10","caravan_site":"motorhome_stopover","caravan_site:type":"village","description":"Aire de stationnement de Camping-car gratuit","dog":"yes","fee":"no","name":"Aire Communale de Camping-Cars Lectoure","opening_hours":"24/7","operator":"Mairie de Lectoure","power_supply":"yes","sanitary_dump_station":"no","sanitary_dump_station:chemical_toilet":"no","sanitary_dump_station:grey_water":"no","seasonal":"no","shower":"cold","tents":"no","toilets":"yes","water_point":"yes"}},"896122174":{"location":[43.9489896,0.3637817],"ct":"FR","tp":"CR","ts":"2024-05-22T09:48:07Z","tX":513,"tY":372,"tags":{"addr:city":"Condom","addr:postcode":"32250","addr:street":"D29","capacity":"12","caravan_site":"motorhome_stopover","caravan_site:type":"village; river","charge":"12.80 EUR","charge:conditional":"9.80 EUR @ (Sep,Oct,Apr,May,Jun)","fee":"yes","name":"Aire de Camping-car de Condom","network":"Onlypark","opening_hours":"Apr 05-Sep 29","operator":"Ville de Condom","power_supply":"no","sanitary_dump_station":"yes","sanitary_dump_station:chemical_toilet":"yes","sanitary_dump_station:grey_water":"yes","seasonal":"yes","surface":"asphalt","water_point":"yes","website":"https://www.onlypark.fr/aire-camping-car-condom-nouvelle/"}},"1046898541":{"location":[43.8760659,0.4624353],"ct":"FR","tp":"CR","ts":"2024-10-08T15:32:08Z","tX":513,"tY":372,"tags":{"capacity":"4","caravan_site":"motorhome_stopover","caravan_site:type":"village","dog":"yes","fee":"no","internet_access":"wlan","name":"Aire Armel Labatut","picnic_area":"yes","power_supply":"yes","power_supply:fee":"yes","sanitary_dump_station":"yes","services:fee":"2 EUR: water, power_supply","toilets":"yes","water_point":"yes","water_point:fee":"yes","website":"https://www.gers-armagnac.com/sejourner/hebergements/6941161_aire-de-camping-car-communale/"}},"1098807494":{"location":[43.9111392,0.648357],"ct":"FR","tp":"CS","ts":"2022-10-07T17:24:49Z","tX":513,"tY":372,"tags":{"fee":"yes","name":"Le Lac des Trois Vallées"}},"1263891359":{"location":[44.0763568,0.5166498],"ct":"FR","tp":"CS","ts":"2024-03-21T17:44:55Z","tX":513,"tY":372,"tags":{"capacity":"240","caravans":"yes","internet_access":"wlan","name":"X’trem Village","old_name":"Camping Saint-Louis","phone":"+33 5 53 99 59 38; +33 6 41 46 11 36","ref:FR:CRTA":"HPAAQU047FS0002O","sanitary_dump_station":"yes","source:ref:FR:CRTA":"Sirtaqui","stars":"3","website":"https://xtrem-village.com/"}},"1300243448":{"location":[44.0657749,0.6477455],"ct":"FR","tp":"CS","ts":"2024-07-09T13:44:47Z","tX":513,"tY":372,"tags":{"name":"Le Pont du Gers","operator":"La ville d'Astaffort"}},"3664309357":{"location":[43.8474683,0.6719949],"ct":"FR","tp":"SD","ts":"2021-11-20T14:40:26Z","tX":513,"tY":372,"tags":{"description":"Station de vidange pour Camping-car","fee":"no","operator":"Flot Bleu","power_supply":"cee_7_5","sanitary_dump_station:chemical_toilet":"yes","sanitary_dump_station:grey_water":"yes","sanitary_dump_station:round_drain":"yes","water_point":"yes"}},"6996345429":{"location":[43.9739009,0.418206],"ct":"FR","tp":"CS","ts":"2019-11-21T13:36:15Z","tX":513,"tY":372,"tags":{"caravans":"yes","name":"Camping de Guinland","tents":"yes","website":"https://campingdeguinland.monsite-orange.fr/"}},"8329912402":{"location":[43.9487002,0.363717],"ct":"FR","tp":"SD","ts":"2023-07-14T10:47:35Z","tX":513,"tY":372,"tags":{"description":"Station de vidange pour Camping-car","fee":"no","fee:conditional":"yes @ (01/04 - 31/09)","name":"l'Argente station de vidange","operator":"Ville de Condom","power_supply":"no","sanitary_dump_station:chemical_toilet":"yes","sanitary_dump_station:grey_water":"yes","sanitary_dump_station:round_drain":"yes","water_point":"yes"}},"8330350200":{"location":[43.9357426,0.6433635],"ct":"FR","tp":"SD","ts":"2021-11-20T14:40:26Z","tX":513,"tY":372,"tags":{"description":"Station de vidange pour Camping-car","fee":"no","operator":"Intermarché","sanitary_dump_station:chemical_toilet":"yes","sanitary_dump_station:grey_water":"yes","sanitary_dump_station:round_drain":"yes","water_point":"yes"}}}