{"291507498":{"location":[43.635353,0.5879526],"ct":"FR","tp":"CR","ts":"2024-10-08T19:38:20Z","tX":513,"tY":373,"tags":{"caravan_site":"motorhome_stopover","caravan_site:type":"city","charge":"12.80 EUR","description":"2 hour stop for sanitary dump is €2","dog":"yes","fee":"yes","internet_access":"wlan","internet_access:fee":"no","name":"Aire Camping-Cars Auch","opening_hours":"24/7","power_supply":"yes","sanitary_dump_station":"customers","sanitary_dump_station:chemical_toilet":"yes","sanitary_dump_station:grey_water":"yes","seasonal":"no","toilets":"no","water_point":"customers","website":"https://www.airecampingcars-auch.com/","wikimedia_commons":"File:Auch RV park.jpg"}},"444189629":{"location":[43.8076078,0.4303731],"ct":"FR","tp":"CS","ts":"2023-09-19T14:29:58Z","tX":513,"tY":373,"tags":{"check_date":"2023-09-19","email":"contact.campingcastera@orange.fr","name":"La Plage de Verduzan","payment:mastercard":"yes","payment:visa":"yes","phone":"+33 5 62 68 12 23","website":"https://www.camping-castera.com/"}},"827344960":{"location":[43.7937666,0.5187774],"ct":"FR","tp":"CS","ts":"2024-11-04T17:19:05Z","tX":513,"tY":373,"tags":{"addr:city":"Cézan","addr:housenumber":"2595","addr:postcode":"32410","addr:street":"Chemin Les Angeles","capacity:caravans":"36","capacity:tents":"36","caravans":"yes","email":"info@campinglesangeles.com","fee":"yes","internet_access":"wlan","internet_access:fee":"no","name":"Camping Les Angeles","payment:american_express":"yes","payment:cards":"yes","payment:cash":"yes","payment:cheque":"yes","payment:coins":"yes","payment:contactless":"yes","payment:credit_cards":"yes","payment:maestro":"yes","payment:mastercard":"yes","payment:visa":"yes","phone":"+33 562652980","static_caravans":"no","tents":"yes","website":"https://campinglesangeles.com","wheelchair":"limited"}},"896164743":{"location":[43.712399,0.6341065],"ct":"FR","tp":"CR","ts":"2024-10-05T16:33:51Z","tX":513,"tY":373,"tags":{"addr:city":"Preignan","addr:housenumber":"1","addr:postcode":"32810","addr:street":"Rue Emile Zola","capacity":"5","caravan_site":"motorhome_stopover","description":"Aire de stationnement de Camping-car gratuit, limité à 5 emplacements","fee":"no","name":"Aire de Camping-cars Preignan","operator":"Ville de Preignan","power_supply":"no","sanitary_dump_station":"yes","sanitary_dump_station:chemical_toilet":"yes","sanitary_dump_station:grey_water":"yes","surface":"gravel","water_point":"yes","website":"https://www.preignan.fr/commerce-services-pole-sante/"}},"1319628485":{"location":[43.6485646,0.6337865],"ct":"FR","tp":"CS","ts":"2024-09-30T13:59:07Z","tX":513,"tY":373,"tags":{"name":"Domaine Le Castagné","website":"https://www.domainelecastagne.com/"}},"1327853455":{"location":[43.7151799,0.5661872],"ct":"FR","tp":"CS","ts":"2024-10-28T12:17:49Z","tX":513,"tY":373,"tags":{"addr:city":"Roquelaure","addr:housenumber":"45","addr:street":"Chemin d'en Coutéou","email":"info@camping-talouch.com","facebook":"https://www.facebook.com/LeTalouch/","name":"Le Talouch","operator":"Yelloh!","phone":"+33 5 62 65 52 43","tents":"yes","website":"https://www.talouch.com/"}},"11385627317":{"location":[43.6826501,0.5136886],"ct":"FR","tp":"CS","ts":"2023-11-30T13:09:32Z","tX":513,"tY":373,"tags":{"name":"Camping des Cabanes"}},"11902352432":{"location":[43.6726064,0.429089],"ct":"FR","tp":"CS","ts":"2024-08-15T11:15:41Z","tX":513,"tY":373,"tags":{"capacity":"10","caravans":"yes","operator":"La Ferme du Hitton","tents":"yes","website":"https://www.hittonsejoursnature.fr/"}},"8330293136":{"location":[43.712296,0.6341523],"ct":"FR","tp":"SD","ts":"2024-05-12T23:54:18Z","tX":513,"tY":373,"tags":{"fee":"no","motorhome":"designated","operator":"Ville de Preignan","power_supply":"no","sanitary_dump_station:chemical_toilet":"yes","sanitary_dump_station:grey_water":"yes","sanitary_dump_station:round_drain":"yes","water_point":"yes"}},"11020761637":{"location":[43.6358937,0.5883962],"ct":"FR","tp":"SD","ts":"2024-05-07T23:50:51Z","tX":513,"tY":373,"tags":{"access":"customers","fee":"yes","sanitary_dump_station:basin":"yes","wikimedia_commons":"File:Auch RV dump station.jpg"}}}