{"374267717":{"location":[43.4945815,0.5760405],"ct":"FR","tp":"CS","ts":"2019-07-03T06:16:35Z","tX":513,"tY":374,"tags":{"name":"Camping Domaine Lacs de Gasgcogne","phone":"+33 562 662 794","website":"https://www.domainelacsdegascogne.eu/fr"}},"391142278":{"location":[43.430789,0.5850484],"ct":"FR","tp":"CS","ts":"2022-01-21T17:17:01Z","tX":513,"tY":374,"tags":{"alt_name":"Camping Les Berges du Gers","name":"Camping Les Cledelles","phone":"+33 562 660 175","stars":"3","website":"https://www.berges-du-gers.fr/"}},"782411645":{"location":[43.3323162,0.6810323],"ct":"FR","tp":"CS","ts":"2020-03-18T14:18:17Z","tX":513,"tY":374,"tags":{"name":"Le Canard Fou"}},"1233043387":{"location":[43.5632248,0.3869649],"ct":"FR","tp":"CS","ts":"2023-12-21T18:43:29Z","tX":513,"tY":374,"tags":{"addr:city":"Estipouy","addr:postcode":"32300","name":"Domaine d'Escapa","phone":"+33 5 62 59 37 51","static_caravans":"yes","website":"https://www.domaine-escapa.com"}},"1235565656":{"location":[43.5139983,0.4106133],"ct":"FR","tp":"CS","ts":"2023-12-30T17:14:08Z","tX":513,"tY":374,"tags":{"addr:housenumber":"1","addr:street":"Chemin de l'île","caravans":"yes","check_date":"2023-09-18","name":"L'Île du Pont","phone":"+33 5 62 66 64 11","source":"https://www.openstreetmap.org/node/2922960566/history","tents":"yes","website":"https://camping-iledupont.com/"}},"1291493984":{"location":[43.4265737,0.6135912],"ct":"FR","tp":"CS","ts":"2023-08-17T21:12:32Z","tX":513,"tY":374,"tags":{"access":"customers","addr:city":"Bellegarde","addr:housenumber":"Aux Mêmes","addr:postcode":"32140","capacity":"20","dog":"leashed","ele":"300","email":"info@gascogne-camping.fr","fee":"yes","internet_access":"wlan","internet_access:ssid":"CAM","name":"Camping Aux Mêmes","opening_hours":"Apr-Sep 00:00-24:00","payment:ancv":"yes","payment:cash":"yes","payment:contactless":"yes","payment:credit_cards":"yes","payment:debit_cards":"yes","phone":"+33 562 669 145","power_supply":"yes","reservation":"yes","sanitary_dump_station":"yes","shower":"yes","source":"local knowledge","stars":"3","toilets":"yes","website":"https://www.gascogne-camping.fr/","wheelchair":"yes"}},"1939146675":{"location":[43.4837163,0.3774976],"ct":"FR","tp":"CS","ts":"2012-09-30T02:51:39Z","tX":513,"tY":374,"tags":{"name":"Camping a la Ferme"}},"11470107748":{"location":[43.5138121,0.4101658],"ct":"FR","tp":"CS","ts":"2024-10-03T14:18:24Z","tX":513,"tY":374,"tags":{"name":"Camping Paradis L'île du pont","operator":"Camping Paradis","ref:FR:FANTOIR":"32256B009Z","source":"cadastre-dgi-fr source : Direction Générale des Finances Publiques - Cadastre. Mise à jour : 2023"}}}