{"4222413":{"location":[42.9250299,0.3662125],"ct":"FR","tp":"CS","ts":"2014-11-24T09:03:18Z","tX":513,"tY":376,"tags":{"name":"Camping International"}},"291824209":{"location":[42.8219246,0.6058262],"ct":"FR","tp":"CS","ts":"2024-08-23T07:00:47Z","tX":513,"tY":376,"tags":{"addr:city":"Salles-et-Pratviel","addr:postcode":"31110","addr:street":"Rue du Bois de Pan","caravans":"yes","email":"contact@campinglepyreneen-luchon.com","name":"Camping Le Pyrénéen","phone":"+33 561 795 919","power_supply":"yes","shower":"yes","source":"Visit","stars":"3","tents":"yes","toilets":"yes","website":"https://www.campinglepyreneen-luchon.com"}},"294232403":{"location":[42.9079929,0.3657384],"ct":"FR","tp":"CS","ts":"2024-07-08T22:57:59Z","tX":513,"tY":376,"tags":{"addr:city":"Pailhac","addr:postcode":"65240","email":"touron.alex@gmail.com","name":"Aire Naturelle Gentils","phone":"+33 768 64 11 51","website":"https://www.airenaturelledecampingpailhac.com/"}},"307721896":{"location":[43.0679141,0.5533408],"ct":"FR","tp":"CS","ts":"2019-10-08T21:45:15Z","tX":513,"tY":376,"tags":{"addr:city":"Tibiran-Jaunac","addr:postcode":"65150","addr:street":"Cap des Arribas","email":"lerural@sfr.fr","name":"Camping le Rural","phone":"+33 609 222 152","stars":"1","website":"https://www.camping-le-rural.com/"}},"308063351":{"location":[43.0288594,0.5782562],"ct":"FR","tp":"CS","ts":"2022-01-02T22:02:47Z","tX":513,"tY":376,"tags":{"addr:city":"Saint-Bertrand-de-Comminges","addr:postcode":"31510","addr:street":"Route De Saint Just","name":"Camping Es Pibous","phone":"+33 974 567 463","stars":"3","website":"https://www.espibous.fr/"}},"308208456":{"location":[43.0285517,0.6093669],"ct":"FR","tp":"CS","ts":"2019-10-08T21:45:15Z","tX":513,"tY":376,"tags":{"name":"Camping Municipal des Bords de la Garonne","website":"http://www.loures-barousse.fr/activites/le-camping"}},"313569814":{"location":[42.9991816,0.3774099],"ct":"FR","tp":"CS","ts":"2014-11-20T08:16:16Z","tX":513,"tY":376,"tags":{"name":"Camping La Bourie","stars":"3"}},"313961736":{"location":[42.9715611,0.3771743],"ct":"FR","tp":"CS","ts":"2014-11-23T15:42:12Z","tX":513,"tY":376,"tags":{"name":"Camping d'Esplantats","source":"cadastre-dgi-fr source : Direction Générale des Impôts - Cadastre. Mise à jour : 2014","stars":"2"}},"314329879":{"location":[42.9011579,0.3545755],"ct":"FR","tp":"CS","ts":"2024-07-18T19:44:14Z","tX":513,"tY":376,"tags":{"caravans":"yes","drinking_water":"yes","fax":"+33 5 62 98 68 78","name":"Camping municipal","phone":"+33 5 62 98 65 56","power_supply":"yes","sanitary_dump_station":"yes","shower":"yes","tents":"yes","toilets":"yes","website":"https://www.camping-arreau.fr/","wheelchair":"yes"}},"315451003":{"location":[42.8377021,0.4078186],"ct":"FR","tp":"CS","ts":"2023-10-26T22:50:58Z","tX":513,"tY":376,"tags":{"internet_access":"wlan","internet_access:fee":"no","name":"Camping Municipal Le Hourgade","website":"https://www.campinglehourgade.fr/public/"}},"315576078":{"location":[42.8176792,0.4039542],"ct":"FR","tp":"CS","ts":"2023-08-16T11:15:07Z","tX":513,"tY":376,"tags":{"caravans":"yes","drinking_water":"yes","name":"Camping Le Lustou","power_supply":"yes","shower":"yes","stars":"1","tents":"yes","toilets":"yes"}},"322073242":{"location":[42.8632933,0.3610241],"ct":"FR","tp":"CS","ts":"2015-01-14T21:00:27Z","tX":513,"tY":376,"tags":{"internet_access":"no","name":"Camping Le Ruisseau","stars":"2"}},"500400138":{"location":[42.9128724,0.6931385],"ct":"FR","tp":"CS","ts":"2024-07-30T10:47:40Z","tX":513,"tY":376,"tags":{}},"727489347":{"location":[42.980593,0.667143],"ct":"FR","tp":"CS","ts":"2022-09-16T06:41:24Z","tX":513,"tY":376,"tags":{"name":"Camping municipal de Saint-Pé d'Ardet"}},"836062499":{"location":[42.8157501,0.6000356],"ct":"FR","tp":"CS","ts":"2024-07-08T22:48:45Z","tX":513,"tY":376,"tags":{"addr:city":"Moustajon","addr:housenumber":"2","addr:postcode":"31110","addr:street":"Chemin de la Tribune","caravans":"yes","name":"Camping Les Myrtilles","phone":"+33 561 79 89 89","source":"data.gouv.fr:DATAtourisme - 05/2020","stars":"3","tents":"yes","website":"https://www.camping-myrtilles-luchon.com/"}},"836064500":{"location":[42.9140467,0.6402714],"ct":"FR","tp":"CS","ts":"2020-09-06T18:09:25Z","tX":513,"tY":376,"tags":{"name":"Camping municipal","source":"data.gouv.fr:DATAtourisme - 05/2020"}},"875750352":{"location":[42.8540212,0.6023115],"ct":"FR","tp":"CS","ts":"2020-11-22T13:46:39Z","tX":513,"tY":376,"tags":{"name":"Camping Le Castéra","stars":"1"}},"891489273":{"location":[42.9610789,0.5676164],"ct":"FR","tp":"CR","ts":"2024-10-17T12:46:54Z","tX":513,"tY":376,"tags":{"access":"yes","capacity":"6","caravan_site":"motorhome_stopover","caravan_site:type":"river","description":"Aire de camping car mixte avec voitures","fee":"no","name":"Aire de campingcar de Mauléon-Barousse","operator":"Ville de Mauléon-Barousse","sanitary_dump_station":"yes","sanitary_dump_station:chemical_toilet":"yes","sanitary_dump_station:grey_water":"yes","water_point":"yes"}},"1284637917":{"location":[42.9047736,0.3568418],"ct":"FR","tp":"CR","ts":"2024-05-20T15:34:45Z","tX":513,"tY":376,"tags":{"bbq":"no","capacity":"32","caravan_site":"motorhome_stopover","caravan_site:type":"river;village","caravans":"no","charge":"15.86 EUR","dog":"leashed","fee":"yes","internet_access":"wlan","maxlength":"none","name":"Aire Camping-Car Park Arreau","network":"CAMPING-CAR PARK","opening_hours":"24/7","power_supply":"yes","power_supply:capacity":"36","power_supply:maxcurrent":"6","sanitary_dump_station":"yes","tents":"no","trailer":"yes","website":"https://www.campingcarpark.com/fr_FR/sejour/aire-etape-camping-car/occitanie/65-hautes-pyrenees/arreau"}},"8946636418":{"location":[42.9912296,0.6941859],"ct":"FR","tp":"CS","ts":"2021-08-30T20:06:47Z","tX":513,"tY":376,"tags":{"addr:city":"Malvezie","addr:street":"Col des Ares","name":"Pyrénées Emotions","phone":"+33 5 61 88 14 67","website":"https://www.pyreneesemotions.com/"}},"8286148943":{"location":[42.9611429,0.5678278],"ct":"FR","tp":"SD","ts":"2023-07-30T22:10:46Z","tX":513,"tY":376,"tags":{"description":"Station de vidange pour Camping-car","fee":"yes","operator":"Ville de Mauléon-Barousse","sanitary_dump_station:chemical_toilet":"yes","sanitary_dump_station:grey_water":"yes","water_point":"yes"}},"8286148952":{"location":[43.060491,0.5924225],"ct":"FR","tp":"SD","ts":"2023-04-28T22:08:19Z","tX":513,"tY":376,"tags":{"description":"Station de vidange pour Camping-car, borne Euro Relay","fee":"yes","operator":"Super U","sanitary_dump_station:chemical_toilet":"yes","sanitary_dump_station:grey_water":"yes","water_point":"yes"}}}