{"219571799":{"location":[42.7781253,0.6003447],"ct":"FR","tp":"CS","ts":"2023-10-26T22:57:01Z","tX":513,"tY":377,"tags":{"addr:city":"Bagnères-de-Luchon","addr:housenumber":"37","addr:postcode":"31110","addr:street":"Avenue de Venasque","internet_access":"yes","internet_access:fee":"no","name":"Camping Au fil de l'Oo","phone":"+33 561 793 074","stars":"3","website":"https://campingaufildeloo.com/"}},"230936987":{"location":[42.8015623,0.4108381],"ct":"FR","tp":"CR","ts":"2024-05-17T18:05:08Z","tX":513,"tY":377,"tags":{"bbq":"no","capacity":"25","caravan_site":"motorhome_stopover","caravan_site:type":"lake","caravans":"no","charge":"16.52 EUR","dog":"leashed","drinking_water":"no","fee":"yes","maxlength":"none","name":"Aire CAMPING-CAR PARK de Loudenvielle","name:en":"CAMPING-CAR PARK area of Loudenvielle","network":"CAMPING-CAR PARK","opening_hours":"24/7","operator":"CAMPING-CAR Park","power_supply":"yes","sanitary_dump_station":"yes","seasonal":"no","surface":"asphalt","tents":"no","toilets":"no","trailer":"no","water_point":"yes","website":"https://www.campingcarpark.com/en_GB/stay/stopover-site-motorhome/occitanie/65-hautes-pyrenees/loudenvielle"}},"308207505":{"location":[42.7956584,0.6074608],"ct":"FR","tp":"CS","ts":"2024-08-22T18:24:30Z","tX":513,"tY":377,"tags":{"addr:city":"Montauban-de-Luchon","addr:postcode":"31110","addr:street":"Route de Subrecarrère","capacity":"194","email":"domaineolanette@orange.fr","internet_access":"wlan","name":"Domaine O Lanette","phone":"+33 561 898 490","website":"https://domaineolanette-luchon.com"}},"315884655":{"location":[42.7961655,0.4049506],"ct":"FR","tp":"CS","ts":"2014-12-05T12:10:44Z","tX":513,"tY":377,"tags":{"name":"Camping Pène Blanche","stars":"2","wheelchair":"yes"}},"648177036":{"location":[42.7954005,0.5987565],"ct":"FR","tp":"CR","ts":"2024-10-17T12:42:18Z","tX":513,"tY":377,"tags":{"capacity":"50","car_wash":"yes","caravan_site":"motorhome_stopover","caravan_site:type":"river;village","charge":"5 EUR","ele":"630","fee":"yes","name":"Aire de stationnement Bagnères-de-Luchon","power_supply":"yes","power_supply:charge":"2.50 EUR","power_supply:fee":"no@(Nov-Apr)","sanitary_dump_station":"yes","sanitary_dump_station:chemical_toilet":"yes","sanitary_dump_station:grey_water":"yes","surface":"asphalt","water_point":"yes","website":"https://www.hautegaronnetourisme.com/hebergements/aire-municipale-camping-cars/"}},"649170918":{"location":[42.7803429,0.5984443],"ct":"FR","tp":"CS","ts":"2019-10-08T21:45:15Z","tX":513,"tY":377,"tags":{"addr:city":"Bagnères-de-Luchon","addr:housenumber":"13","addr:postcode":"31110","addr:street":"Avenue de Venasque","capacity":"28","email":"campingdesthermes@gmail.com","internet_access":"yes","internet_access:fee":"no","name":"Camping des Thermes","phone":"+33 561 790 385","website":"https://www.campingdesthermes.com/"}},"649233500":{"location":[42.7763007,0.6019122],"ct":"FR","tp":"CS","ts":"2023-02-12T16:44:53Z","tX":513,"tY":377,"tags":{"addr:city":"Bagnères-de-Luchon","addr:postcode":"31110","addr:street":"Avenue de Venasque","email":"contact@campingchanteclerluchon.fr","name":"Camping Chantecler","phone":"+33 561 881 533","stars":"2","website":"https://www.campingchanteclerluchon.fr/fr/accueil/"}},"730967060":{"location":[42.7702713,0.6082752],"ct":"FR","tp":"CS","ts":"2024-05-28T08:27:22Z","tX":513,"tY":377,"tags":{"addr:city":"Saint-Mamet","addr:postcode":"31110","addr:street":"D618a","capacity":"58","caravans":"yes","fee":"yes","internet_access":"wlan","name":"GCU Luchon Saint-Mamet","operator":"Groupement des Campeurs Universitaires","phone":"+33 5 61 79 32 38","sanitary_dump_station":"customers","stars":"2","static_caravans":"yes","tents":"yes","website":"https://www.gcu.asso.fr/terrains/luchon-saint-mamet-haute-garonne-31","wheelchair":"limited"}},"836063325":{"location":[42.8097793,0.5977075],"ct":"FR","tp":"CS","ts":"2022-05-26T19:04:14Z","tX":513,"tY":377,"tags":{"email":"contact@camping-pradelongue.com","internet_access":"wlan","internet_access:fee":"yes","name":"Pradelongue","phone":"+33 561 798 644","stars":"4","website":"https://www.camping-pradelongue.com/"}},"891498133":{"location":[42.7962084,0.4401991],"ct":"FR","tp":"CR","ts":"2024-10-08T17:44:35Z","tX":513,"tY":377,"tags":{"access":"yes","caravan_site":"motorhome_stopover","caravan_site:type":"ski_resort","description":"Aire de Camping-car","fee":"no","name":"Aire pour camping-cars Peyragudes","operator":"Peyresourde-Balestas","sanitary_dump_station:chemical_toilet":"yes","sanitary_dump_station:grey_water":"yes","service:fee":"yes","water_point":"yes"}},"891498136":{"location":[42.7919524,0.3885569],"ct":"FR","tp":"CR","ts":"2024-10-08T17:44:35Z","tX":513,"tY":377,"tags":{"access":"yes","caravan_site":"motorhome_stopover","caravan_site:type":"ski_resort","description":"Aire de camping car mixte avec voitures","fee":"no","name":"Resort Val Louron Aire de Camping-car","operator":"Hameau de Belle Sayette","sanitary_dump_station:chemical_toilet":"yes","sanitary_dump_station:grey_water":"yes","service:charge":"EUR 5","service:fee":"yes","surface":"asphalt","water_point":"yes"}},"6248981985":{"location":[42.7634979,0.5921019],"ct":"FR","tp":"CS","ts":"2024-03-11T13:35:35Z","tX":513,"tY":377,"tags":{}},"7806488285":{"location":[42.7410892,0.4544261],"ct":"FR","tp":"CS","ts":"2020-08-12T11:24:08Z","tX":513,"tY":377,"tags":{"name":"Bivouac"}},"9204398801":{"location":[42.7446139,0.4905017],"ct":"FR","tp":"CS","ts":"2021-10-27T09:32:15Z","tX":513,"tY":377,"tags":{"name":"Aire de bivouac du Refuge du Lac d'Oô"}},"12211777374":{"location":[42.7111618,0.4676179],"ct":"FR","tp":"CS","ts":"2024-10-01T07:16:45Z","tX":513,"tY":377,"tags":{"backcountry":"yes","capacity:persons":"1","caravans":"no","fee":"no","name":"Emplacement bivouac","static_caravans":"no","tents":"yes"}},"8286236737":{"location":[42.7960775,0.439727],"ct":"FR","tp":"SD","ts":"2021-01-03T13:39:55Z","tX":513,"tY":377,"tags":{"description":"Station de vidange pour Camping-car","fee":"no","operator":"Peyresourde-Balestas","sanitary_dump_station:chemical_toilet":"yes","sanitary_dump_station:grey_water":"yes","water_point":"yes"}},"8286236762":{"location":[42.7928383,0.3876001],"ct":"FR","tp":"SD","ts":"2021-01-03T13:39:55Z","tX":513,"tY":377,"tags":{"description":"Station de vidange pour Camping-car","fee":"no","operator":"Hameau de Belle Sayette","sanitary_dump_station:chemical_toilet":"yes","sanitary_dump_station:grey_water":"yes","water_point":"yes"}},"9806556565":{"location":[42.7963008,0.4054789],"ct":"FR","tp":"SD","ts":"2022-06-09T13:44:43Z","tX":513,"tY":377,"tags":{"access":"customers","fee":"no"}},"11432724389":{"location":[42.7950926,0.5984558],"ct":"FR","tp":"SD","ts":"2023-12-19T18:21:50Z","tX":513,"tY":377,"tags":{"access":"yes"}},"12122087701":{"location":[42.7841494,0.6046271],"ct":"FR","tp":"SD","ts":"2024-08-20T12:15:43Z","tX":513,"tY":377,"tags":{}},"12124614501":{"location":[42.8017783,0.4109889],"ct":"FR","tp":"SD","ts":"2024-08-21T13:48:36Z","tX":513,"tY":377,"tags":{}},"12293558895":{"location":[42.7961124,0.4398037],"ct":"FR","tp":"SD","ts":"2024-10-28T10:22:44Z","tX":513,"tY":377,"tags":{}}}