{"14511728":{"location":[40.5568925,0.5326301],"ct":"ES","tp":"CS","ts":"2024-05-13T16:15:15Z","tX":513,"tY":385,"tags":{"caravans":"yes","fee":"yes","name":"Camping Cases","static_caravans":"yes","tents":"yes"}},"14511856":{"location":[40.5951153,0.5703756],"ct":"ES","tp":"CS","ts":"2024-10-18T20:52:04Z","tX":513,"tY":385,"tags":{"addr:city":"Alcanar","addr:housenumber":"1","addr:postcode":"43530","addr:street":"Avinguda del Mar","backcountry":"no","caravans":"yes","check_date":"2024-10-18","dog":"yes","drinking_water":"yes","fee":"yes","group_only":"no","internet_access":"wlan","internet_access:fee":"customers","name":"Camping Alfacs","name:ca":"Camping Alfacs","old_name":"Camping los Alfaques","phone":"+34 977 74 05 61","picnic_table":"no","power_supply":"yes","sanitary_dump_station":"yes","shower":"yes","static_caravans":"yes","toilets":"yes","website":"https://www.alfacs.com/"}},"14512066":{"location":[40.5399262,0.5206934],"ct":"ES","tp":"CS","ts":"2022-08-28T11:40:51Z","tX":513,"tY":385,"tags":{"addr:city":"Alcanar","addr:postcode":"43530","addr:street":"Camí del Pou","internet_access":"wlan","name":"Camping Estanyet"}},"26861137":{"location":[40.4931603,0.4842663],"ct":"ES","tp":"CS","ts":"2023-09-03T13:29:40Z","tX":513,"tY":385,"tags":{"name":"Camping Vinaròs"}},"316440689":{"location":[40.6192807,0.4675293],"ct":"ES","tp":"CS","ts":"2022-11-26T09:18:01Z","tX":513,"tY":385,"tags":{"name":"Àrea d'acampada de la bassa de l'ermita","name:ca":"Àrea d'acampada de la bassa de l'ermita"}},"437135266":{"location":[40.7138033,0.6835544],"ct":"ES","tp":"CR","ts":"2025-02-18T07:54:06Z","tX":513,"tY":385,"tags":{"leisure":"park"}},"596590702":{"location":[40.659442,0.6750717],"ct":"ES","tp":"CR","ts":"2024-07-02T10:18:47Z","tX":513,"tY":385,"tags":{"capacity":"60","caravan_site":"motorhome_stopover","caravan_site:type":"ornithology","fee":"no","internet_access":"wlan","internet_access:fee":"customers","name":"Área de la Casa de Fusta","name:nl":"CP Amposta","power_supply":"no","reservation":"required","sanitary_dump_station":"yes","seasonal":"no"}},"966422915":{"location":[40.6425597,0.6861902],"ct":"ES","tp":"CS","ts":"2022-11-26T01:11:04Z","tX":513,"tY":385,"tags":{"access":"private","capacity":"60","charge":"4.70 EUR","fee":"yes","group_only":"yes","name":"Terreny d'acampada Poblenou del Delta","name:ca":"Terreny d'acampada Poblenou del Delta","operator":"Campaments.cat","website":"https://www.campaments.cat/terreny/poblenou-del-delta"}},"992688567":{"location":[40.4517043,0.3538537],"ct":"ES","tp":"CS","ts":"2022-07-05T08:30:52Z","tX":513,"tY":385,"tags":{"addr:city":"Càlig","addr:postcode":"12589","email":"info@campingorangeraie.com","fee":"yes","name":"Camping Orangeraie","phone":"+34 964765059","stars":"3","website":"https://www.campingorangeraie.com"}},"1090083930":{"location":[40.6256104,0.5902053],"ct":"ES","tp":"CR","ts":"2024-04-04T16:19:01Z","tX":513,"tY":385,"tags":{"capacity":"13","caravans":"no","fee":"no","name":"Area Municipal de Autocaravanas Ràpita","sanitary_dump_station":"yes","supervised":"no","surface":"asphalt","tents":"no","water_point":"yes"}},"1167114579":{"location":[40.7051775,0.585238],"ct":"ES","tp":"CR","ts":"2024-04-03T10:58:39Z","tX":513,"tY":385,"tags":{"addr:city":"Amposta","addr:country":"ES","addr:housenumber":"34","addr:street":"Passeig del Canal","capacity":"60","capacity:caravans":"60","caravan_site":"motorhome_stopover","caravan_site:type":"town","caravans":"yes","fee":"no","name":"L’espai d’autocaravanes d’Amposta","reservation":"no","sanitary_dump_station":"yes","sanitary_dump_station:chemical_toilet":"yes","sanitary_dump_station:grey_water":"yes","tents":"no","water_point":"yes","website":"https://www.turismeamposta.cat/zona-dautocaravanes/"}},"1325261128":{"location":[40.5944867,0.5694918],"ct":"ES","tp":"SD","ts":"2024-10-18T14:26:13Z","tX":513,"tY":385,"tags":{"water_point":"yes"}},"1339888886":{"location":[40.4509941,0.4540554],"ct":"ES","tp":"CS","ts":"2024-12-03T17:34:09Z","tX":513,"tY":385,"tags":{}},"3937126432":{"location":[40.5753775,0.3935634],"ct":"ES","tp":"CR","ts":"2022-03-15T08:28:51Z","tX":513,"tY":385,"tags":{"fee":"yes","name":"Spaetzle Fritz"}},"9847533131":{"location":[40.7138765,0.6836206],"ct":"ES","tp":"CR","ts":"2022-11-02T16:12:07Z","tX":513,"tY":385,"tags":{}},"4588895800":{"location":[40.6590135,0.6752784],"ct":"ES","tp":"SD","ts":"2023-11-06T14:38:51Z","tX":513,"tY":385,"tags":{"charge":"3 EUR","fee":"yes","name":"Partida L'Encanyissada","opening_hours":"Mo-Su 09:30-11:30","phone":"+34977261026 +34977261294","website":"https://lomasdelacuixota.com/"}},"10852768162":{"location":[40.7050575,0.5858523],"ct":"ES","tp":"SD","ts":"2023-04-28T14:04:35Z","tX":513,"tY":385,"tags":{}},"11500348446":{"location":[40.4591542,0.4074472],"ct":"ES","tp":"SD","ts":"2025-01-06T20:12:22Z","tX":513,"tY":385,"tags":{"fee":"no"}},"12441868859":{"location":[40.4589954,0.4053026],"ct":"ES","tp":"SD","ts":"2024-12-22T16:45:20Z","tX":513,"tY":385,"tags":{"fee":"no"}}}