{"200142605":{"location":[40.3628868,0.3951178],"ct":"ES","tp":"CS","ts":"2023-10-27T17:39:05Z","tX":513,"tY":386,"tags":{"access":"customers","addr:city":"Peñiscola","addr:housenumber":"27","addr:postcode":"12598","addr:street":"Carretera Estación","cabins":"yes","caravans":"yes","designation":"Camping","email":"campingferrer@campingferrer.com","fax":"+34 964489144","fee":"yes","internet_access":"wlan","internet_access:fee":"no","name":"Camping Ferrer","phone":"+34 964489223","power_supply":"yes","stars":"3","swimming_pool":"yes","tents":"yes","website":"https://www.campingferrer.com/"}},"242478608":{"location":[40.3599763,0.3944321],"ct":"ES","tp":"CS","ts":"2022-11-27T11:43:09Z","tX":513,"tY":386,"tags":{"access":"customers","addr:city":"Peniscola","addr:housenumber":"22","addr:postcode":"12598","addr:street":"Carrer de la Cova","cabins":"yes","email":"info@campingbellavista.net","fax":"+34 964481649","fee":"yes","internet_access":"wlan","internet_access:fee":"no","name":"Bellavista","name:ca":"Bellavista","phone":"+34 964480135","power_supply":"yes","static_caravans":"yes","swimming_pool":"yes","website":"http://www.campingbellavista.net/"}},"289099872":{"location":[40.4255325,0.4373846],"ct":"ES","tp":"CS","ts":"2023-05-30T17:59:22Z","tX":513,"tY":386,"tags":{"caravans":"yes","drinking_water":"yes","name":"Camping Alegria del Mar","power_supply":"yes","shower":"yes","tents":"yes","toilets":"yes"}},"434316161":{"location":[40.3759514,0.3923249],"ct":"ES","tp":"CS","ts":"2022-12-10T15:32:47Z","tX":513,"tY":386,"tags":{"access":"customers","bbq":"yes","cabins":"yes","caravans":"yes","fee":"yes","internet_access":"wlan","internet_access:fee":"yes","name":"El Cid","name:ca":"El Cid","phone":"+34 964 48 03 80","power_supply":"yes","swimming_pool":"yes","tents":"yes","website":"https://campingelcid.com/","wheelchair":"yes"}},"439545236":{"location":[40.3975872,0.4022912],"ct":"ES","tp":"CS","ts":"2023-12-28T19:48:13Z","tX":513,"tY":386,"tags":{"caravans":"yes","internet_access":"yes","internet_access:fee":"no","name":"la Volta","name:ca":"la Volta","operator":"Camping","sanitary_dump_station":"yes","tents":"yes"}},"524018556":{"location":[40.4024707,0.3818782],"ct":"ES","tp":"CS","ts":"2022-09-06T20:48:03Z","tX":513,"tY":386,"tags":{"access":"customers","cabins":"yes","caravans":"yes","fee":"yes","name":"Spa Natura Resort-Peniscola","opening_hours:reception":"Mo-Su 9:00-21:00","phone":"+34 964475480","power_supply":"yes","stars":"4","swimming_pool":"yes","tents":"yes","website":"https://www.spanaturaresort.net"}},"939467854":{"location":[40.3787548,0.3895019],"ct":"ES","tp":"CS","ts":"2021-05-05T18:47:41Z","tX":513,"tY":386,"tags":{"landuse":"residential"}},"1234996251":{"location":[40.3979099,0.4017149],"ct":"ES","tp":"CR","ts":"2023-12-28T19:48:13Z","tX":513,"tY":386,"tags":{"bar":"yes","caravan_site":"motorhome_stopover","caravans":"yes","charge":"11 EUR","fee":"yes","internet_access":"wlan","internet_access:fee":"no","laundry":"yes","name":"Stop & Go La Volta","opening_hours":"24/7","phone":"+34 964 470 101","sanitary_dump_station":"yes","seasonal":"no","swimming_pool":"yes","toilets":"yes","website":"https://stopandgolavolta.com/"}},"1234996252":{"location":[40.4039712,0.4200762],"ct":"ES","tp":"CS","ts":"2023-12-28T19:48:13Z","tX":513,"tY":386,"tags":{"addr:postcode":"12580","addr:street":"Avinguda del Papa Luna","capacity":"7","description":"No overnight parking 20:00-08:00","fee":"no","maxstay":"48 hours","motorhome":"designated","name":"Papa Luna","note":"temporarily closed. Unclear if overnight stay are allowed","opening_hours":"08:00-20:00","reservation":"no","sanitary_dump_station":"public","smoking":"yes","toilets":"no","website":"https://benicarlo.travel/es/para-descansar/zona-de-estacionamiento-para-autocaravanas/","wheelchair":"yes"}},"1976946565":{"location":[40.3792316,0.3885074],"ct":"ES","tp":"CS","ts":"2024-01-29T18:44:22Z","tX":513,"tY":386,"tags":{"access":"customers","addr:city":"Peníscola / Peñíscola","addr:housenumber":"2","addr:postcode":"12598","addr:street":"Camí dels Abellers","cabins":"yes","caravans":"yes","email":"campinglospinos@hotmail.com","fax":"+34 964489016","fee":"yes","name":"Los Pinos","phone":"+34 964480379;+34 629459947","power_supply":"yes","stars":"4","swimming_pool":"yes","tents":"yes","website":"http://www.campinglospinos.com/"}},"4333720391":{"location":[40.3979191,0.4030676],"ct":"ES","tp":"CS","ts":"2023-10-20T00:04:33Z","tX":513,"tY":386,"tags":{"access":"customers","addr:housenumber":"20","addr:postcode":"12598","addr:street":"Camino de La Volta","caravans":"yes","email":"info@campinglavolta.com","fee":"yes","internet_access":"wlan","name":"la Volta","name:ca":"la Volta","stars":"3"}},"5427247188":{"location":[40.3804153,0.385716],"ct":"ES","tp":"CS","ts":"2023-10-27T17:42:39Z","tX":513,"tY":386,"tags":{"access":"customers","addr:city":"Peníscola / Peñíscola","addr:housenumber":"137","addr:postcode":"12598","addr:street":"Avenida de la Estación","cabins":"yes","caravans":"yes","email":"info@campingsoldor.com","fax":"+34 964467583","fee":"yes","internet_access":"wlan","name":"Sol d'Or","name:ca":"Sol d'Or","phone":"+34 964480653","power_supply":"yes","stars":"3","swimming_pool":"yes","tents":"yes","website":"https://www.campingsoldor.com/"}},"6003364940":{"location":[40.3922361,0.4068494],"ct":"ES","tp":"CS","ts":"2024-01-29T18:44:22Z","tX":513,"tY":386,"tags":{"access":"customers","cabins":"yes","caravans":"yes","fee":"yes","name":"Camping Vizmar","phone":"+34 964473439;+34 658928287","power_supply":"yes","stars":"3","tents":"yes","website":"http://www.campingvizmar.com"}},"4695459893":{"location":[40.3783382,0.406381],"ct":"ES","tp":"CR","ts":"2024-01-29T18:44:22Z","tX":513,"tY":386,"tags":{"addr:city":"Peníscola / Peñíscola","addr:housenumber":"93","addr:postcode":"12598","addr:street":"Avinguda de València","capacity":"130","email":"parkingelsdaus@gmail.com","fee":"yes","internet_access":"wlan","name":"Parking Els Daus","name:it":"AreaCamper Els Daus","phone":"+34 964481098;+34 645784667","power_supply":"no","sanitary_dump_station":"yes","tents":"no","website":"https://parking-els-daus-peniscola.business.site/"}},"10244984880":{"location":[40.3665886,0.396667],"ct":"ES","tp":"CR","ts":"2024-02-03T19:47:40Z","tX":513,"tY":386,"tags":{"addr:street":"Via Poligono","name":"Parking La Brisa","opening_hours":"Mo-Su 09:00-21:00","phone":"+34 643859418"}},"10699454082":{"location":[40.404155,0.4197573],"ct":"ES","tp":"SD","ts":"2023-02-28T13:21:21Z","tX":513,"tY":386,"tags":{"access":"yes","fee":"no","opening_hours":"24/7"}},"11703562044":{"location":[40.3783798,0.4060096],"ct":"ES","tp":"SD","ts":"2024-03-08T09:26:27Z","tX":513,"tY":386,"tags":{}},"11703572857":{"location":[40.3663144,0.3952884],"ct":"ES","tp":"SD","ts":"2024-03-08T09:29:03Z","tX":513,"tY":386,"tags":{}}}