{"365338497":{"location":[36.2285657,0.4738515],"ct":"DZ","tp":"CS","ts":"2015-08-12T14:16:47Z","tX":513,"tY":401,"tags":{}},"493354209":{"location":[36.2569811,0.522867],"ct":"DZ","tp":"CS","ts":"2023-10-22T14:13:46Z","tX":513,"tY":401,"tags":{}},"1205050535":{"location":[36.2103214,0.3924958],"ct":"DZ","tp":"CS","ts":"2023-09-04T21:09:23Z","tX":513,"tY":401,"tags":{"addr:housenumber":"01","addr:postcode":"0007","addr:street":"petit port Sidi Lakhdhar","building":"yes","name":"Camping Pacha","name:en":"Bacha camping","opening_hours":"Mo-Su 08:00-23:00","phone":"0664902821","source":"FB: Algerie Mapper Team (Adlen)"}},"3693536086":{"location":[36.2198937,0.4501984],"ct":"DZ","tp":"CS","ts":"2023-10-22T14:25:34Z","tX":513,"tY":401,"tags":{"name":"Camping مخيم","name:ar":"Camping مخيم","name:es":"Campin","name:fr":"Camping"}},"5126838221":{"location":[36.1637252,0.4424574],"ct":"DZ","tp":"CS","ts":"2017-09-24T17:41:42Z","tX":513,"tY":401,"tags":{"addr:housenumber":"11","name":"ميمون","name:ar":"ميمون"}},"5724066756":{"location":[36.3141266,0.6448607],"ct":"DZ","tp":"CS","ts":"2020-11-19T00:17:18Z","tX":513,"tY":401,"tags":{"name":"Camping مخيم","name:ar":"Camping مخيم"}},"5724066757":{"location":[36.312925,0.6436497],"ct":"DZ","tp":"CS","ts":"2018-06-27T20:40:12Z","tX":513,"tY":401,"tags":{"name":"Comping"}},"6612793085":{"location":[36.2286408,0.4694211],"ct":"DZ","tp":"CS","ts":"2020-11-19T00:17:18Z","tX":513,"tY":401,"tags":{"name":"مركز الراحة العائلي للجيش","name:ar":"مركز الراحة العائلي للجيش","name:en":"CRF"}}}