{"87979224":{"location":[51.1833007,3.1053658],"ct":"BE","tp":"CS","ts":"2024-08-07T20:19:33Z","tX":520,"tY":341,"tags":{"caravans":"yes","drinking_water":"yes","fee":"yes","name":"Klein Strand","power_supply":"yes","sanitary_dump_station":"yes","shower":"yes","tents":"yes","toilets":"yes"}},"87979242":{"location":[51.1863477,3.1018109],"ct":"BE","tp":"CS","ts":"2024-08-05T18:44:40Z","tX":520,"tY":341,"tags":{"caravans":"yes","drinking_water":"yes","name":"Klein Strand","power_supply":"yes","sanitary_dump_station":"yes","shower":"yes","tents":"yes","toilets":"yes"}},"88603881":{"location":[51.2504531,2.9791057],"ct":"BE","tp":"CS","ts":"2023-04-02T09:20:14Z","tX":520,"tY":341,"tags":{"addr:city":"Bredene","addr:housenumber":"87","addr:postcode":"8450","addr:street":"Koningin Astridlaan","cabins":"yes","caravans":"yes","email":"info@veldenduin.be","fax":"+32 59 33 23 32","internet_access":"wlan","internet_access:fee":"no","name":"Veld & Duin","phone":"+32 59 32 24 79","shower":"yes","stars":"3","static_caravans":"yes","tents":"yes","toilets":"yes","website":"https://www.veldenduin.be/","wheelchair":"yes"}},"96865022":{"location":[51.2405476,2.9703254],"ct":"BE","tp":"CS","ts":"2021-05-21T12:55:32Z","tX":520,"tY":341,"tags":{"addr:housenumber":"108","addr:street":"Duinenstraat","name":"Thalassa","source":"Bing"}},"104790963":{"location":[51.2406849,2.973514],"ct":"BE","tp":"CS","ts":"2024-05-10T19:45:01Z","tX":520,"tY":341,"tags":{"caravans":"yes","drinking_water":"yes","email":"info@terhoeve.be","name":"Ter Hoeve","phone":"+32 59 32 07 19","power_supply":"yes","sanitary_dump_station":"yes","shower":"yes","source":"Bing","static_caravans":"yes","tents":"yes","toilets":"yes","website":"https://www.terhoeve.be/"}},"104821017":{"location":[51.2426242,2.9772988],"ct":"BE","tp":"CS","ts":"2023-03-24T20:38:50Z","tX":520,"tY":341,"tags":{"caravans":"yes","email":"info@parkdheule.be","name":"Park d'heule","phone":"+32 59 33 28 29","shower":"yes","static_caravans":"yes","tents":"yes","toilets":"yes","website":"https://www.parkdheule.be/"}},"104836907":{"location":[51.2427931,2.9789383],"ct":"BE","tp":"CS","ts":"2025-01-25T16:28:22Z","tX":520,"tY":341,"tags":{"caravans":"no","email":"info@zandpolder.be","name":"Zandpolder","phone":"+32 59 33 21 21","static_caravans":"yes","website":"https://www.zandpolder.be/"}},"104836939":{"location":[51.2450621,2.9800521],"ct":"BE","tp":"CS","ts":"2023-11-01T08:58:55Z","tX":520,"tY":341,"tags":{"caravans":"yes","email":"info@minnepark.be","name":"'t Minnepark","phone":"+32 59 32 24 58","shower":"yes","tents":"yes","toilets":"yes","website":"https://www.minnepark.be/"}},"105019158":{"location":[51.2428489,2.9671503],"ct":"BE","tp":"CS","ts":"2023-07-14T22:11:34Z","tX":520,"tY":341,"tags":{"addr:city":"Bredene","addr:country":"BE","addr:housenumber":"200","addr:postcode":"8450","addr:street":"Duinenstraat","cabins":"yes","caravans":"yes","motorhome":"yes","name":"Asterix","phone":"+32 59 33 10 00","shower":"yes","static_caravans":"yes","tents":"yes","toilets":"yes","website":"https://www.camping-asterix.be/"}},"105143134":{"location":[51.2482983,2.9735489],"ct":"BE","tp":"CS","ts":"2023-07-14T21:57:31Z","tX":520,"tY":341,"tags":{"cabins":"yes","motorhome":"yes","name":"Park Costa","old_name":"KACB","phone":"+32 59 32 24 75","static_caravans":"yes","tents":"yes","website":"https://www.parkcosta.be/"}},"105143146":{"location":[51.2476451,2.9720191],"ct":"BE","tp":"CS","ts":"2023-03-28T20:48:51Z","tX":520,"tY":341,"tags":{"cabins":"yes","caravans":"yes","email":"info@campingwarandebvba.be","name":"Camping Warande","phone":"+32 59 32 10 42","shower":"yes","static_caravans":"yes","tents":"yes","toilets":"yes","website":"https://www.campingwarandebvba.be/"}},"105194570":{"location":[51.2479668,2.9691047],"ct":"BE","tp":"CS","ts":"2023-03-28T20:48:51Z","tX":520,"tY":341,"tags":{"cabins":"yes","caravans":"yes","email":"info@camping-astrid.be","name":"Camping Astrid","phone":"+32 59 32 12 47","shower":"yes","static_caravans":"yes","tents":"yes","toilets":"yes","website":"https://www.camping-astrid.be/"}},"105194619":{"location":[51.2456082,2.9685685],"ct":"BE","tp":"CS","ts":"2023-03-28T21:09:16Z","tX":520,"tY":341,"tags":{"barrier":"fence","cabins":"yes","caravans":"yes","email":"info@campingduinzicht.be","name":"Duinzicht","phone":"+32 59 32 12 47","shower":"yes","static_caravans":"yes","tents":"yes","toilets":"yes","website":"https://www.campingduinzicht.be/"}},"105194636":{"location":[51.2487189,2.9677074],"ct":"BE","tp":"CS","ts":"2023-03-28T21:09:16Z","tX":520,"tY":341,"tags":{"name":"Camping Bienvenue"}},"105224038":{"location":[51.2485589,2.9759744],"ct":"BE","tp":"CS","ts":"2021-06-03T17:58:19Z","tX":520,"tY":341,"tags":{}},"105224043":{"location":[51.2478155,2.975389],"ct":"BE","tp":"CS","ts":"2023-04-02T09:20:14Z","tX":520,"tY":341,"tags":{"caravans":"yes","motorhome":"yes","name":"Duinezwin","phone":"+32 59 32 13 68","reservation":"required","static_caravans":"yes","tents":"yes","toilets":"yes","website":"https://www.duinezwin.be/"}},"125415141":{"location":[51.3101197,3.1522482],"ct":"BE","tp":"CS","ts":"2025-01-25T16:17:52Z","tX":520,"tY":341,"tags":{"addr:housenumber":"135","addr:street":"Zeebruggelaan","caravans":"yes","email":"info@dewielen.be","fee":"yes","internet_access":"yes","internet_access:fee":"no","name":"De Wielen","permanent_camping":"yes","phone":"+32 50 41 22 67","power_supply":"yes","sanitary_dump_station":"yes","stars":"3","static_caravans":"yes","tents":"no","toilets":"yes","website":"https://www.dewielen.be/"}},"125415143":{"location":[51.3107484,3.1547827],"ct":"BE","tp":"CS","ts":"2020-01-03T17:28:58Z","tX":520,"tY":341,"tags":{"addr:housenumber":"137","addr:street":"Zeebruggelaan","caravans":"yes","name":"Bonanza 1","stars":"3","static_caravans":"yes","tents":"yes","website":"https://bonanza1.be/"}},"125415144":{"location":[51.3138089,3.153925],"ct":"BE","tp":"CS","ts":"2020-01-02T22:15:51Z","tX":520,"tY":341,"tags":{"addr:housenumber":"74","addr:street":"Polderlaan","backcountry":"no","caravans":"yes","dog":"yes","name":"Jamboree II","stars":"2","static_caravans":"yes","tents":"yes"}},"127207565":{"location":[51.1883718,2.8239897],"ct":"BE","tp":"CS","ts":"2025-01-31T14:51:43Z","tX":520,"tY":341,"tags":{"name":"Viking"}},"127216073":{"location":[51.1982968,2.8446866],"ct":"BE","tp":"CS","ts":"2019-02-12T12:01:29Z","tX":520,"tY":341,"tags":{"name":"Oasis","website":"https://www.residentieparkoasis.be/"}},"127350151":{"location":[51.181173,2.8168555],"ct":"BE","tp":"CS","ts":"2025-02-11T09:49:44Z","tX":520,"tY":341,"tags":{}},"127350268":{"location":[51.1801679,2.8193387],"ct":"BE","tp":"CS","ts":"2025-02-11T09:49:44Z","tX":520,"tY":341,"tags":{"tents":"no"}},"128635529":{"location":[51.3155519,3.1529912],"ct":"BE","tp":"CS","ts":"2023-11-01T08:56:38Z","tX":520,"tY":341,"tags":{"addr:housenumber":"52","addr:street":"Polderlaan","backcountry":"no","caravans":"yes","email":"info@jamboree.be","name":"Jamboree","phone":"+32 50 41 45 45","stars":"3","static_caravans":"yes","tents":"yes","website":"https://www.jamboree.be/"}},"138410474":{"location":[51.3163724,3.1476821],"ct":"BE","tp":"CR","ts":"2025-01-25T16:27:22Z","tX":520,"tY":341,"tags":{"capacity":"42","caravan_site":"motorhome_stopover","caravan_site:type":"beach","caravans":"no","charge":"27 EUR","check_in":"12:00","check_out":"12:00","dog":"yes","dog:capacity":"2/pitch","email":"blankenberge@florealgroup.be","fee":"yes","internet_access":"wlan","motorhome":"designated","name":"Camper Park Blankenberge","opening_date":"Apr-Jan 00:00-24:00","opening_hours":"week 01-53","operator":"Floreal Holidays","power_supply:maxcurrent":"16","reservation":"yes","seasonal":"no","shower":"yes","stars":"3","tents":"no","toilets":"yes","website":"https://www.florealgroup.be/nl/camping/camperpark-blankenberge"}},"152933184":{"location":[51.282613,3.0600245],"ct":"BE","tp":"CS","ts":"2024-06-14T19:29:23Z","tX":520,"tY":341,"tags":{"addr:housenumber":"143;144","addr:street":"Wenduinesteenweg","capacity:caravans":"yes","name":"Camping Ter Duinen","source":"estimination;Bing"}},"152933547":{"location":[51.2805743,3.0563242],"ct":"BE","tp":"CS","ts":"2024-06-22T15:11:16Z","tX":520,"tY":341,"tags":{"caravans":"yes","name":"Camping Tolmzant","tents":"no"}},"152933548":{"location":[51.2822607,3.0559152],"ct":"BE","tp":"CS","ts":"2022-08-14T15:41:14Z","tX":520,"tY":341,"tags":{"addr:housenumber":"139","addr:street":"Wenduinesteenweg","name":"Camping Ten Bos"}},"152933550":{"location":[51.2830795,3.0564661],"ct":"BE","tp":"CS","ts":"2021-11-04T22:51:45Z","tX":520,"tY":341,"tags":{"addr:housenumber":"141b","addr:street":"Wenduinesteenweg","name":"Camping Diep"}},"152937070":{"location":[51.28622,3.0634998],"ct":"BE","tp":"CS","ts":"2024-06-15T12:19:01Z","tX":520,"tY":341,"tags":{"addr:housenumber":"40","addr:street":"Driftweg","area":"yes","name":"Kampeerverblijfpark Boszicht"}},"247097006":{"location":[51.1911965,2.8323194],"ct":"BE","tp":"CS","ts":"2022-09-26T17:55:08Z","tX":520,"tY":341,"tags":{"access":"customers","fee":"yes","name":"Zeester","static_caravans":"yes"}},"247097007":{"location":[51.1948373,2.8371109],"ct":"BE","tp":"CS","ts":"2025-01-25T21:58:37Z","tX":520,"tY":341,"tags":{"name":"Mid's Park","tents":"no","website":"https://marvaparken.be/mids-park/"}},"325691939":{"location":[51.2521431,3.0102613],"ct":"BE","tp":"CS","ts":"2025-03-04T19:26:20Z","tX":520,"tY":341,"tags":{"addr:city":"De Haan","addr:housenumber":"21","addr:street":"Vosseslag","building":"yes","caravans":"no","drinking_water":"yes","group_only":"yes","name":"Het Galjoen vzw","openfire":"no","reception":"yes","scout":"no","source:geometry:date":"2007-10-26","source:geometry:ref":"Gbg/895071","tents":"no","website":"https://www.hetgaljoen.be/nl/index.asp"}},"381939825":{"location":[51.307467,3.1067572],"ct":"BE","tp":"CS","ts":"2021-10-14T17:11:37Z","tX":520,"tY":341,"tags":{"name":"Haerendycke"}},"424198408":{"location":[51.3024697,3.107578],"ct":"BE","tp":"CS","ts":"2021-10-22T08:21:39Z","tX":520,"tY":341,"tags":{"addr:city":"De Haan","addr:housenumber":"4","addr:street":"Poseidonlaan","name":"New Vennepark"}},"424497094":{"location":[51.3065934,3.1039874],"ct":"BE","tp":"CS","ts":"2023-11-01T08:59:17Z","tX":520,"tY":341,"tags":{"addr:city":"De Haan","addr:housenumber":"2","addr:street":"Tritonlaan","name":"Esmeralda","website":"https://www.esmeralda-aan-zee.be/"}},"513399807":{"location":[51.3050331,3.1096893],"ct":"BE","tp":"CS","ts":"2021-10-22T08:21:39Z","tX":520,"tY":341,"tags":{"addr:city":"De Haan","addr:housenumber":"1","addr:street":"Poseidonlaan","name":"Sunpark"}},"513544943":{"location":[51.3081699,3.1053465],"ct":"BE","tp":"CS","ts":"2021-10-14T17:11:37Z","tX":520,"tY":341,"tags":{}},"516865859":{"location":[51.3037114,3.1037473],"ct":"BE","tp":"CS","ts":"2023-11-01T08:59:35Z","tX":520,"tY":341,"tags":{"addr:city":"De Haan","addr:housenumber":"6","addr:street":"Neptunuslaan","name":"New Camping Ideal","website":"https://www.newcampingideal.be/"}},"516865860":{"location":[51.305813,3.1008685],"ct":"BE","tp":"CS","ts":"2023-11-01T08:58:11Z","tX":520,"tY":341,"tags":{"addr:city":"De Haan","addr:housenumber":"4","addr:street":"Neptunuslaan","name":"Mercatorpark","website":"https://www.mercatorpark.be/"}},"549641596":{"location":[51.3192663,3.1527535],"ct":"BE","tp":"CS","ts":"2025-01-25T16:22:13Z","tX":520,"tY":341,"tags":{"addr:housenumber":"191","addr:street":"Albert Ruzettelaan","name":"Dallas","static_caravans":"only","tents":"no","website":"https://www.verblijfparkdallas.be/"}},"793478448":{"location":[51.2563038,2.991691],"ct":"BE","tp":"CS","ts":"2025-06-23T19:24:04Z","tX":520,"tY":341,"tags":{"caravans":"yes","name":"De Heide","shower":"yes","tents":"yes","toilets":"yes","website":"https://www.deheide.be/"}},"793478456":{"location":[51.2569327,2.99162],"ct":"BE","tp":"CS","ts":"2023-11-01T09:00:08Z","tX":520,"tY":341,"tags":{"name":"Rietveld","website":"https://www.campingrietveld.be/"}},"999285430":{"location":[51.2781091,3.0516147],"ct":"BE","tp":"CS","ts":"2023-11-01T08:56:53Z","tX":520,"tY":341,"tags":{"addr:housenumber":"125","addr:postcode":"8421","addr:street":"Wenduinesteenweg","email":"info@strooiendorp.be","internet_access":"wlan","name":"Camping Strooiendorp","opening_hours":"24/7","phone":"+32 59 23 42 18","website":"https://www.strooiendorp.be/"}},"1097599679":{"location":[51.1915871,2.8332602],"ct":"BE","tp":"CR","ts":"2025-01-12T13:41:30Z","tX":520,"tY":341,"tags":{"bbq":"yes","caravan_site":"motorhome_stopover","caravan_site:type":"beach","caravans":"no","charge":"30 EUR","charge:conditional":"20 EUR @ (\"low_season\"); 24 EUR@(\"mid_season\")","check_in":"13:00","check_out":"12:00","dog":"yes","dog:charge":"2 EUR","dog:fee":"yes","fee":"yes","internet_access":"wlan","internet_access:fee":"customers","name":"Camperpark Zeester","opening_hours":"24/7","power_supply":"yes","power_supply:fee":"no","power_supply:fee:conditional":"yes@(>10kWh)","power_supply:maxcurrent":"16","sanitary_dump_station":"yes","shower":"yes","tents":"no","toilets":"yes","water_point":"yes","water_point:fee":"no","website":"https://camperparkzeester.be/"}},"1157058299":{"location":[51.2415795,2.9741761],"ct":"BE","tp":"CS","ts":"2024-05-10T19:45:42Z","tX":520,"tY":341,"tags":{"caravans":"yes","email":"campingthalassa@skynet.be","name":"Polderzicht","phone":"+32 496 05 76 24","source":"Bing","tents":"no"}},"1157058300":{"location":[51.242003,2.9754376],"ct":"BE","tp":"CS","ts":"2023-03-24T20:38:50Z","tX":520,"tY":341,"tags":{"caravans":"yes","email":"info@massenhof.be","name":"'t Massenhof","phone":"+32 59 33 08 13","shower":"yes","static_caravans":"yes","tents":"yes","toilets":"yes","website":"https://www.massenhof.be/"}},"1158023221":{"location":[51.2472511,2.9708762],"ct":"BE","tp":"CS","ts":"2023-03-28T20:48:51Z","tX":520,"tY":341,"tags":{"cabins":"yes","caravans":"yes","email":"info@park-merlo.be","name":"Park Merlo","phone":"+32 59 32 05 99","shower":"yes","static_caravans":"yes","tents":"yes","toilets":"yes","website":"https://www.park-merlo.be/"}},"1196081669":{"location":[51.2544774,3.0067737],"ct":"BE","tp":"CS","ts":"2025-04-17T10:14:25Z","tX":520,"tY":341,"tags":{}},"1354207401":{"location":[51.31062,3.1531006],"ct":"BE","tp":"CR","ts":"2025-01-25T16:21:23Z","tX":520,"tY":341,"tags":{"capacity":"16","caravan_site":"motorhome_stopover","caravan_site:type":"camp_site","charge":"30 EUR","internet_access":"wlan","internet_access:fee":"no","laundry":"yes","name":"Kampeerautoplaatsen De Wielen","power_supply":"yes","power_supply:maxcurrent":"10","sanitary_dump_station":"yes","toilets":"yes","toilets:fee":"yes","water_point":"yes","water_point:fee":"yes","website":"https://www.dewielen.be/campers"}},"3869800008":{"location":[51.2396814,2.9686875],"ct":"BE","tp":"CS","ts":"2024-06-01T19:26:43Z","tX":520,"tY":341,"tags":{"addr:city":"Bredene","addr:country":"BE","addr:housenumber":"108","addr:postcode":"8450","addr:street":"Duinenstraat","caravans":"yes","email":"campingthalassa@skynet.be","name":"Camping Thalassa","phone":"+32 59 33 15 82","tents":"yes","website":"https://www.dekust.be/logeren/thalassa"}},"10760061654":{"location":[51.2517375,2.9770187],"ct":"BE","tp":"CS","ts":"2023-04-04T05:13:31Z","tX":520,"tY":341,"tags":{"cabins":"yes","caravans":"yes","email":"info@camping-thalassa.be","name":"Thalassa","phone":"+32 59 33 15 82","shower":"yes","static_caravans":"yes","tents":"yes","toilets":"yes","website":"https://camping-thalassa.be/"}},"10050061261":{"location":[51.191037,2.8330637],"ct":"BE","tp":"SD","ts":"2022-09-26T17:55:08Z","tX":520,"tY":341,"tags":{"access":"customers","fee":"yes","water_point":"yes"}}}