{"127351331":{"location":[51.1780025,2.8209332],"ct":"BE","tp":"CS","ts":"2019-12-07T20:16:16Z","tX":520,"tY":342,"tags":{}},"127351911":{"location":[51.1788878,2.8243147],"ct":"BE","tp":"CS","ts":"2023-05-15T18:54:16Z","tX":520,"tY":342,"tags":{"tents":"no"}},"127352101":{"location":[51.1758533,2.8261516],"ct":"BE","tp":"CS","ts":"2023-05-15T18:54:16Z","tX":520,"tY":342,"tags":{"tents":"no"}},"309434389":{"location":[51.0227608,2.8453082],"ct":"BE","tp":"CS","ts":"2022-03-01T18:15:14Z","tX":520,"tY":342,"tags":{"name":"De IJzerhoeve","website":"https://www.deijzerhoeve.be/nl/home"}},"783067500":{"location":[51.1644809,2.9683068],"ct":"BE","tp":"CR","ts":"2023-07-07T07:53:37Z","tX":520,"tY":342,"tags":{"addr:city":"Gistel","addr:housenumber":"35B","addr:postcode":"8470","addr:street":"Vaartstraat","capacity":"8","charge":"â‚¬14,00","fee":"yes","internet_access":"wlan","name":"Kampeerautoterrein Gistel","operator":"Stad Gistel","power_supply":"yes","sanitary_dump_station":"yes","website":"https://www.gistel.be/kampeerautoterrein-gistel"}},"11042362429":{"location":[51.1213221,3.0635874],"ct":"BE","tp":"CS","ts":"2023-07-12T16:46:06Z","tX":520,"tY":342,"tags":{"addr:housenumber":"10","addr:street":"'t Veld","contact:facebook":"https://www.facebook.com/minicampingtveld","contact:instagram":"https://www.instagram.com/minicampingtveld/","email":"minicampingtveld@gmail.com","mobile":"+32 497 51 09 79","name":"Minicamping 't Veld","website":"https://sites.google.com/view/minicampingtveld/homepage"}},"11378627569":{"location":[51.1133857,3.0897503],"ct":"BE","tp":"CR","ts":"2024-09-06T05:26:53Z","tX":520,"tY":342,"tags":{"name":"Camperplek Aartrijke"}},"8176551084":{"location":[51.0273275,3.0460272],"ct":"BE","tp":"SD","ts":"2021-06-27T17:02:31Z","tX":520,"tY":342,"tags":{"fee":"no","operator":"Gemeente Kortemark","power_supply":"yes","sanitary_dump_station:chemical_toilet":"yes","sanitary_dump_station:grey_water":"yes","water_point":"yes"}}}