{"254916397":{"location":[49.3916218,3.1532359],"ct":"FR","tp":"CS","ts":"2021-06-19T17:18:16Z","tX":520,"tY":349,"tags":{"name":"Halte de Mainville","phone":"+33 3 23 74 26 69","stars":"3","website":"https://www.lahaltedemainville.com.planete-moto.com"}},"260801123":{"location":[49.5431979,2.9486106],"ct":"FR","tp":"CS","ts":"2023-06-20T03:51:49Z","tX":520,"tY":349,"tags":{"cabins":"yes","caravans":"yes","mobile":"+33 6 87 93 78 87","name":"Camping La Montagne","phone":"+33 3 44 76 98 29","shower":"yes","stars":"3","tents":"yes","toilets":"yes","website":"https://campinglamontagne.fr/"}},"263051365":{"location":[49.4065145,3.05418],"ct":"FR","tp":"CS","ts":"2023-08-01T15:21:05Z","tX":520,"tY":349,"tags":{"access":"customers","addr:city":"Attichy","addr:housenumber":"22","addr:postcode":"60350","addr:street":"Rue de la Font Aubier","backcountry":"no","capacity:caravans":"48","caravans":"yes","dog":"leashed","drinking_water":"yes","fee":"yes","internet_access":"wlan","internet_access:fee":"customers","name":"Camping de l'Aigrette","phone":"+33 3 44 42 15 97","picnic_table":"yes","power_supply":"yes","reservation":"yes","shower":"yes","stars":"3","tents":"yes","toilets":"yes","website":"https://www.campingdelaigrette.com/"}},"381456740":{"location":[49.4883286,2.9065568],"ct":"FR","tp":"CS","ts":"2024-11-03T08:12:54Z","tX":520,"tY":349,"tags":{"addr:city":"Montmacq","addr:housenumber":"2","addr:postcode":"60150","addr:street":"Route de Ribécourt","email":"chloe.pitsy@ceadp.fr","name":"Camping des Étangs","phone":"+33 1 48 62 75 03","website":"http://www.ceadp.com"}},"395042374":{"location":[49.5773613,2.9952615],"ct":"FR","tp":"SD","ts":"2017-01-12T20:23:14Z","tX":520,"tY":349,"tags":{"access":"yes","description":"Station de vidange et de recharge de camping-car","fee":"yes","name":"Station camping-car de Noyon","opening_hours":"24/7","power_supply":"yes","sanitary_dump_station":"public","sanitary_dump_station:basin":"no","sanitary_dump_station:pump-out":"yes","sanitary_dump_station:round_drain":"yes","water_point":"yes"}},"516656604":{"location":[49.5079838,3.017464],"ct":"FR","tp":"CS","ts":"2023-05-07T21:16:11Z","tX":520,"tY":349,"tags":{"cabins":"yes","capacity:pitches":"65","caravans":"yes","email":"camping-les-araucarias@wanadoo.fr","name":"Camping Les Araucarias","phone":"+33 3 44 75 27 39","shower":"yes","stars":"2","static_caravans":"yes","tents":"yes","toilets":"yes"}},"516656643":{"location":[49.5126267,3.0397153],"ct":"FR","tp":"CS","ts":"2018-09-22T15:40:33Z","tX":520,"tY":349,"tags":{"name":"Camping Le Pré Fleuri"}},"549221772":{"location":[49.4043458,3.1341683],"ct":"FR","tp":"CS","ts":"2021-06-11T17:19:15Z","tX":520,"tY":349,"tags":{"access":"private","addr:city":"Berny-Rivière","addr:housenumber":"8","addr:postcode":"02290","addr:street":"Rue de la Fabrique","fee":"yes","name":"La Croix de Vieux Pont","operator":"Marvilla Parks","payment:cash":"yes","payment:cheques_vacances":"yes","payment:credit_cards":"yes","phone":"+33 3 23 55 50 02","stars":"5","website":"https://www.la-croix-du-vieux-pont.com/","wheelchair":"yes"}},"552446894":{"location":[49.5884729,3.0443327],"ct":"FR","tp":"CS","ts":"2021-07-27T08:31:05Z","tX":520,"tY":349,"tags":{"capacity":"23","caravans":"yes","internet_access":"no","name":"Camping L'Étang Du Moulin","phone":"+33 3 44 43 06 78","sanitary_dump_station":"customers","service:bicycle:rental":"yes","stars":"1","tents":"yes"}},"721236609":{"location":[49.4179746,3.0091099],"ct":"FR","tp":"CR","ts":"2024-06-09T21:44:14Z","tX":520,"tY":349,"tags":{"capacity":"10","caravan_site":"motorhome_stopover","caravan_site:type":"village","charge":"5 EUR","dog":"yes","fee":"yes","name":"Aire pour Camping-cars de Berneuil-sur-Aisne","power_supply":"no","sanitary_dump_station":"no","toilets":"no","water_point":"yes","website":"https://www.oisetourisme.com/hebergement/aire-pour-camping-cars-de-berneuil-sur-aisne/"}},"809217891":{"location":[49.5127651,3.1503115],"ct":"FR","tp":"CR","ts":"2024-10-03T16:56:03Z","tX":520,"tY":349,"tags":{"capacity":"2","caravan_site":"motorhome_stopover","caravan_site:type":"village","fee":"no","name":"Aire de camping-car Blérancourt","power_supply":"no","sanitary_dump_station":"yes","sanitary_dump_station:chemical_toilet":"yes","sanitary_dump_station:grey_water":"yes","water_point":"yes","website":"https://www.aire-service-camping-car-panoramique.fr/aisne/02-blerancourt"}},"981199337":{"location":[49.5349752,2.9574086],"ct":"FR","tp":"CS","ts":"2022-05-15T06:41:00Z","tX":520,"tY":349,"tags":{"group_only":"yes","source":"Bing"}},"1143677068":{"location":[49.4069657,3.1307334],"ct":"FR","tp":"CS","ts":"2023-02-10T19:40:05Z","tX":520,"tY":349,"tags":{}},"6766892892":{"location":[49.4125577,3.0102807],"ct":"FR","tp":"SD","ts":"2019-09-02T16:31:12Z","tX":520,"tY":349,"tags":{"fee":"yes","operator:type":"private","power_supply":"no"}},"11978927940":{"location":[49.3928406,3.1513321],"ct":"FR","tp":"SD","ts":"2024-06-13T18:49:21Z","tX":520,"tY":349,"tags":{"access":"yes","name":"Aire de services de Ressons-le-Long","sanitary_dump_station:chemical_toilet":"yes","sanitary_dump_station:grey_water":"yes","seasonal":"no","water_point":"yes","website":"https://www.tourisme-villers-cotterets.fr/hebergements/accueil-de-camping-cars/AIRCCPIC002V50XXHT_aire-de-services-de-ressons-le-long/"}}}