{"12750501":{"location":[48.7315226,3.0484291],"ct":"FR","tp":"CS","ts":"2021-05-24T13:51:42Z","tX":520,"tY":352,"tags":{"caravans":"yes","email":"contact@etangs-fleuris.com","name":"Les Étangs Fleuris","stars":"3","tents":"yes","website":"https://etangsfleuris.com/"}},"26858424":{"location":[48.719722,3.037778],"ct":"FR","tp":"CS","ts":"2007-03-28T17:11:56Z","tX":520,"tY":352,"tags":{"created_by":"JOSM","name":"Charbonnieres"}},"108685591":{"location":[48.8530636,2.9291529],"ct":"FR","tp":"CS","ts":"2013-04-07T10:47:44Z","tX":520,"tY":352,"tags":{"name":"Camping du Pré Saint-Jean"}},"149611710":{"location":[48.9068178,3.1536931],"ct":"FR","tp":"CS","ts":"2024-10-24T07:33:02Z","tX":520,"tY":352,"tags":{"camp_site":"serviced","caravans":"yes","name":"Le Choisel","permanent_camping":"yes","tents":"yes","website":"https://www.campingduchoisel.com/"}},"149746786":{"location":[48.7516378,2.895644],"ct":"FR","tp":"CS","ts":"2023-04-15T20:42:12Z","tX":520,"tY":352,"tags":{"addr:city":"Crèvecœur-en-Brie","addr:housenumber":"22","addr:postcode":"77610","addr:street":"Rue de Beauregard","cabins":"yes","caravans":"yes","email":"contact@caravaning-4vents.fr","name":"4 Vents","phone":"+33 1 64 07 41 11","shower":"yes","stars":"3","tents":"yes","toilets":"yes","website":"https://www.caravaning-4vents.fr/"}},"150739288":{"location":[48.7273403,3.1497351],"ct":"FR","tp":"CS","ts":"2023-01-03T14:43:02Z","tX":520,"tY":352,"tags":{"name":"Camping Le Moulin De Pisseloup","phone":"+33 1 64 04 64 80","source":"cadastre-dgi-fr source : Direction Générale des Impôts - Cadastre. Mise à jour : 2012"}},"186546720":{"location":[48.8086584,2.9897797],"ct":"FR","tp":"CS","ts":"2021-08-12T10:30:55Z","tX":520,"tY":352,"tags":{"addr:city":"Pommeuse","addr:housenumber":"24","addr:postcode":"77515","addr:street":"Avenue de la Gare","email":"info@lechenegris.com","name":"Le Chêne Gris","operator":"Vacansoleil Group","phone":"+33 1 64 04 21 80","stars":"4","website":"https://www.vacansoleil.fr/camping/france/paris-disneyland-ile-de-france/pommeuse/camping-le-chene-gris-2015000/"}}}