{"136434162":{"location":[48.6462375,2.9641667],"ct":"FR","tp":"CS","ts":"2017-08-24T12:20:16Z","tX":520,"tY":353,"tags":{"email":"contact@campinghippocamp.fr","name":"Hippo Camp","phone":"+33 1 64 25 85 02","website":"http://www.campinghippocamp.fr"}},"136434163":{"location":[48.6518552,2.9427382],"ct":"FR","tp":"CS","ts":"2023-10-30T01:50:31Z","tX":520,"tY":353,"tags":{"email":"contact@campingtamaris77.com","internet_access":"wlan","name":"La Vallée des Tamaris","phone":"+33 1 64 42 07 26","smoking":"yes","stars":"2","website":"https://www.campingtamaris77.com/"}},"771082164":{"location":[48.5836593,2.9719248],"ct":"FR","tp":"CS","ts":"2023-10-30T01:50:39Z","tX":520,"tY":353,"tags":{"addr:city":"Grandpuits-Bailly-Carrois","addr:postcode":"77720","addr:street":"Rue de Montereau","cabins":"yes","caravans":"yes","email":"parclerefuge77@gmail.com","name":"Parc Residentielle Le Refuge","phone":"+33 1 64 08 07 57","shower":"yes","stars":"2","tents":"yes","toilets":"yes","website":"https://www.parc-residentiel-le-refuge.com/"}},"3469097015":{"location":[48.6086818,3.1587779],"ct":"FR","tp":"CS","ts":"2022-02-17T06:43:13Z","tX":520,"tY":353,"tags":{"addr:city":"CHENOISE","addr:postcode":"77160","addr:street":"La Mercy Route de la Croix","contact:email":"fermedelamercy@wanadoo.fr","name":"Camping à la Ferme de la Mercy","phone":"+33 1 64 00 93 10","website":"https://www.ferme-delamercy.com/contact"}}}