{"80243748":{"location":[46.0360746,2.8165434],"ct":"FR","tp":"CS","ts":"2019-03-05T01:12:22Z","tX":520,"tY":364,"tags":{"name":"Camping de l'Étang Philippe"}},"89698052":{"location":[45.9152567,3.0784856],"ct":"FR","tp":"CS","ts":"2024-08-21T09:01:41Z","tX":520,"tY":364,"tags":{"caravans":"yes","drinking_water":"yes","name":"Capfun Le Ranch des Vocans","power_supply":"yes","sanitary_dump_station":"customers","shower":"yes","stars":"3","tents":"yes","toilets":"yes","website":"https://www.ranchdesvolcans.com/"}},"89700857":{"location":[45.8937978,3.0543401],"ct":"FR","tp":"CS","ts":"2017-10-21T00:51:01Z","tX":520,"tY":364,"tags":{"email":"enval@igesa.fr","fax":"+33 4 73 33 13 09","name":"Camping Igesa","phone":"+33 4 73 64 47 00"}},"165498982":{"location":[46.066668,2.9441116],"ct":"FR","tp":"CS","ts":"2019-08-26T16:14:46Z","tX":520,"tY":364,"tags":{"addr:city":"Saint Rémy de Blot","addr:postcode":"63440","addr:street":"Lieu dit les Mureteix","description":"Half board : Chalets from 42 €, Military tents 41 € with bunk beds, wooden floor and light (16 persons)","motorcycle:theme":"yes","motorcycle_friendly":"yes","name":"Camping Moto Route 99","phone":"+33 473979255","website":"https://www.campingmotoroute99.com/"}},"179363643":{"location":[45.8292737,2.845918],"ct":"FR","tp":"CS","ts":"2024-07-09T09:16:28Z","tX":520,"tY":364,"tags":{"addr:city":"Pontgibaud","caravans":"yes","contact:email":"camping.pontgibaud@orange.fr","internet_access":"wlan","name":"Camping de la Palle","operator":"Mairie de Pontgibaud","phone":"04 73 88 96 99","power_supply":"yes","shower":"yes","stars":"3","tents":"yes","toilets":"yes","website":"http://www.ville-pontgibaud.fr/camping-municipal/"}},"300401822":{"location":[45.8733416,3.046099],"ct":"FR","tp":"CS","ts":"2021-02-22T10:24:02Z","tX":520,"tY":364,"tags":{"name":"Volvic, Pierre et Sources","website":"https://www.camping-volvic.com/"}},"396057496":{"location":[46.0592614,2.9906065],"ct":"FR","tp":"CR","ts":"2024-09-26T21:50:22Z","tX":520,"tY":364,"tags":{"capacity":"4","caravan_site":"motorhome_stopover","caravan_site:type":"lake","description":"buy tokens at Boulangerie RIGAULT","fee":"no","name":"Étang des Cayers","power_supply":"yes","power_supply:fee":"yes","sanitary_dump_station":"yes","water_point":"yes","water_point:fee":"yes","website":"https://www.saint-pardoux-63.fr/tourisme/aire-camping-cars"}},"450894783":{"location":[45.8843873,2.9801553],"ct":"FR","tp":"CR","ts":"2024-08-11T22:29:11Z","tX":520,"tY":364,"tags":{"capacity":"12","caravan_site":"motorhome_stopover","caravan_site:type":"village","dog":"yes","fee":"no","name":"Aire camping-car Paugnat","sanitary_dump_station":"yes","seasonal":"no","services:charge":"2 EUR","services:fee":"yes","waste_disposal":"yes","water_point":"yes","website":"https://www.terravolcana.com/camping/aire-de-services-camping-cars-de-paugnat/"}},"515647779":{"location":[46.0268869,2.8989957],"ct":"FR","tp":"CS","ts":"2023-08-26T12:29:37Z","tX":520,"tY":364,"tags":{"alt_name":"Camping des Prés Dimanche","camp_site":"standard","caravans":"yes","email":"campingdelasioule@gmail.com","mobile":"+33 6 50 02 05 97","motorhome":"yes","name":"Camping de la Sioule","phone":"+33 4 73 86 41 50","shower":"yes","tents":"yes","toilets":"yes","website":"https://campingdelasioule.com/"}},"666121161":{"location":[45.9054622,3.0617213],"ct":"FR","tp":"CS","ts":"2024-10-05T01:59:25Z","tX":520,"tY":364,"tags":{"camp_site":"deluxe","contact:phone":"+33 6 87 14 43 62","name":"La Croze","opening_hours":"Tu-Fr 09:30-12:00, 15:00-19:00; Sa 08:30-12:00, 14:00-19:00","website":"https://www.campingdelacroze.com/"}},"666131759":{"location":[45.9425986,2.9936228],"ct":"FR","tp":"CS","ts":"2019-10-04T07:13:27Z","tX":520,"tY":364,"tags":{"addr:city":"Loubeyrat","addr:country":"FR","addr:place":"Montmarval","addr:postcode":"63410","camp_site":"serviced","capacity":"69","caravans":"yes","internet_access":"wlan","name":"Camping GCU Loubeyrat","operator":"Groupement des Campeurs Universitaires","phone":"+33 4 73 86 55 35","sanitary_dump_station":"customers","stars":"2","tents":"yes","washing_machine":"yes","website":"https://www.gcu.asso.fr/terrains/loubeyrat-puy-de-d%C3%B4me-63","wheelchair":"yes"}},"666131761":{"location":[45.8442724,2.8754009],"ct":"FR","tp":"CS","ts":"2019-05-25T20:03:56Z","tX":520,"tY":364,"tags":{"camp_site":"deluxe","name":"Camping Bel Air","website":"https://campingbelair.fr/"}},"976699355":{"location":[46.0291826,2.9017988],"ct":"FR","tp":"CS","ts":"2021-08-26T14:33:48Z","tX":520,"tY":364,"tags":{"addr:city":"Châteauneuf-Les-Bains","addr:postcode":"63390","name":"Le Gôt","operator":"Châteauneuf-Les-Bains","phone":"+33 473866785","website":"http://www.chateauneuflesbains.com/chateauneuf/pages/viewer.asp%3Ftp=ls&ID_ELEMENT=742&theme=pe22e.html"}},"1219087277":{"location":[45.9173,3.0569116],"ct":"FR","tp":"CR","ts":"2024-06-17T12:40:31Z","tX":520,"tY":364,"tags":{"capacity":"14","caravan_site":"motorhome_stopover","caravan_site:type":"village","charge":"10.40 EUR","dog":"yes","fee":"yes","name":"Aire du Pré Morand","opening_hours":"24/7","power_supply":"yes","power_supply:fee":"no","sanitary_dump_station":"yes","seasonal":"no","water_point":"yes","water_point:charge":"2 EUR","water_point:fee":"yes"}},"1284220190":{"location":[45.8394943,2.8133704],"ct":"FR","tp":"CR","ts":"2024-05-17T19:26:41Z","tX":520,"tY":364,"tags":{"bbq":"no","capacity":"45","caravan_site":"motorhome_stopover","caravan_site:type":"lake","caravans":"no","charge":"14.60 EUR","charge:conditional":"12.60 @ (Oct-Apr)","dog":"leashed","fee":"yes","internet_access":"wlan","internet_access:fee":"no","name":"Aire Bromont-Lamothe","network":"CAMPING-CAR PARK","opening_hours":"24/7","operator":"CAMPING-CAR PARK","power_supply":"yes","power_supply:capacity":"36","power_supply:fee":"no","power_supply:maxcurrent":"6","sanitary_dump_station":"yes","sanitary_dump_station:chemical_toilet":"yes","sanitary_dump_station:grey_water":"yes","tents":"no","toilets":"no","trailer":"yes","water_point":"yes","website":"https://www.campingcarpark.com/en_GB/stay/stopover-site-motorhome/auvergne-rhone-alpes/63-puy-de-dome/bromont-lamothe#0"}},"1307317910":{"location":[45.894656,3.1247267],"ct":"FR","tp":"CR","ts":"2024-08-12T19:03:14Z","tX":520,"tY":364,"tags":{"capacity":"4","caravan_site":"motorhome_stopover","caravan_site:type":"town","dog":"yes","fee":"no","maxstay":"48 hours","name":"Aire Municipale Riom","note":"should have water and dump station, but website says no. Probably currently broken","opening_hours":"24/7","sanitary_dump_station":"yes","seasonal":"no","surface":"fine_gravel","water_point":"yes","website":"https://www.terravolcana.com/camping/aire-de-stationnement-riom/"}},"1342546492":{"location":[45.8981751,3.1143539],"ct":"FR","tp":"CR","ts":"2024-12-13T23:04:33Z","tX":520,"tY":364,"tags":{"access":"yes","fee":"yes"}},"1530126892":{"location":[46.0316524,2.9568226],"ct":"FR","tp":"CS","ts":"2023-11-04T16:09:04Z","tX":520,"tY":364,"tags":{"name":"La Coccinelle","website":"https://campingcoccinelle.com/"}},"1559361204":{"location":[45.922034,3.0128312],"ct":"FR","tp":"CS","ts":"2023-08-09T15:10:14Z","tX":520,"tY":364,"tags":{"name":"Camping du Colombier","phone":"+33473869457","stars":"1","website":"https://www.campingducolombier.com/"}},"4017549191":{"location":[45.9399477,2.8452107],"ct":"FR","tp":"CS","ts":"2024-08-04T20:46:31Z","tX":520,"tY":364,"tags":{"addr:city":"Saint-Georges-de-Mons","addr:postcode":"63780","addr:street":"Place des Anctiques Veterans","caravans":"yes","drinking_water":"yes","name":"Camping municipal de Saint George of Mons","power_supply":"yes","sanitary_dump_station":"yes","shower":"yes","tents":"yes","toilets":"yes","website":"https://www.ville-st-georges-de-mons.fr/camping-municipal-saint-georges-de-mons--63--puy-de-dome_fr.html"}},"11146088215":{"location":[46.0224767,2.8967375],"ct":"FR","tp":"CS","ts":"2023-08-26T12:24:52Z","tX":520,"tY":364,"tags":{"capacity:pitches":"2","email":"info@villaguillaumette.com","name":"Villa Guillaumette","opening_hours":"Apr 1 - Sep 15","phone":"+33 7 66 21 40 01","shower":"yes","tents":"yes","toilets":"yes"}},"12228555316":{"location":[45.9620338,2.9383385],"ct":"FR","tp":"CR","ts":"2024-10-05T22:35:16Z","tX":520,"tY":364,"tags":{"caravan_site":"motorhome_stopover","caravan_site:type":"village","fee":"no","name":"Aire de Camping-Car Manzat","opening_hours":"Apr-Oct","operator":"Mairie de Manzat","power_supply":"no","sanitary_dump_station":"yes","sanitary_dump_station:chemical_toilet":"yes","sanitary_dump_station:grey_water":"yes","seasonal":"yes","surface":"unpaved","water_point":"yes","website":"https://www.airecampingcar.com/aire_camping_car_gps.php/1258-Manzat"}},"6175198376":{"location":[46.05925,2.9906483],"ct":"FR","tp":"SD","ts":"2018-12-31T17:07:32Z","tX":520,"tY":364,"tags":{}},"7717321056":{"location":[45.9620543,2.9381669],"ct":"FR","tp":"SD","ts":"2024-10-05T22:35:16Z","tX":520,"tY":364,"tags":{"fee":"no","opening_hours:services":"Apr-Oct","sanitary_dump_station:chemical_toilet":"yes","sanitary_dump_station:grey_water":"yes","water_point":"yes"}},"8306626825":{"location":[46.058767,3.1163071],"ct":"FR","tp":"SD","ts":"2021-04-13T18:00:39Z","tX":520,"tY":364,"tags":{"access":"yes","operator":"Total"}},"12043524528":{"location":[45.9271864,3.1137421],"ct":"FR","tp":"SD","ts":"2024-07-09T13:41:37Z","tX":520,"tY":364,"tags":{"access":"yes","fee":"no","opening_hours":"24/7","water_point":"yes"}},"12105225864":{"location":[45.8846914,2.9802782],"ct":"FR","tp":"SD","ts":"2024-08-11T22:29:11Z","tX":520,"tY":364,"tags":{"access":"yes"}},"12176023408":{"location":[45.8492458,3.0844914],"ct":"FR","tp":"SD","ts":"2024-09-15T03:24:10Z","tX":520,"tY":364,"tags":{"access":"yes","name":"Borne de service de Châteaugay","website":"https://www.auvergne-destination.com/fiches/borne-de-service-de-chateaugay/"}},"11926739831":{"location":[45.8980783,3.1144188],"ct":"FR","tp":"CR","ts":"2024-12-13T23:05:23Z","tX":520,"tY":364,"tags":{"capacity":"20","construction":"caravan_site","network":"CAMPING-CAR PARK","website":"https://www.campingcarpark.com/fr_FR/sejour/aire-etape-camping-car/auvergne-rhone-alpes/63-puy-de-dome/riom"}}}