{"5525794":{"location":[45.5048588,2.854746],"ct":"FR","tp":"CR","ts":"2024-10-08T09:36:03Z","tX":520,"tY":366,"tags":{"access":"motorhome","caravan_site":"motorhome_stopover","charge":"14 EUR","fee":"yes","name":"Aire de la Biche","payment:bank_smart":"only","power_supply":"yes","power_supply:fee":"no","power_supply:maxcurrent":"6","sanitary_dump_station":"yes","water_point":"yes","water_point:fee":"no","website":"https://www.sancy.com/camping/aire-de-service-et-daccueil-de-la-biche/"}},"70958618":{"location":[45.5611287,3.1054958],"ct":"FR","tp":"CS","ts":"2010-08-04T08:10:56Z","tX":520,"tY":366,"tags":{"name":"Camping La Gazelle"}},"127236182":{"location":[45.5751472,2.9308314],"ct":"FR","tp":"CS","ts":"2024-09-26T02:45:25Z","tX":520,"tY":366,"tags":{"addr:city":"Murol","addr:postcode":"63790","caravans":"yes","fee":"yes","name":"Camping Les Fougères - Auvergne","opening_hours":"Mo-Fr 09:00-12:00, 14:00-18:00","phone":"+33  4 73 88 67 08","stars":"3","tents":"yes","website":"https://www.les-fougeres.com"}},"130753612":{"location":[45.5170173,2.9412168],"ct":"FR","tp":"CS","ts":"2023-11-09T15:22:24Z","tX":520,"tY":366,"tags":{"addr:city":"Besse-et-Saint-Anastaise","addr:housenumber":"4","addr:postcode":"63610","addr:street":"Route de Murol","name":"Camping Bois de Gravière","phone":"+33 4 73 79 52 05","website":"https://www.camping-besse.com/"}},"130755558":{"location":[45.5744985,2.9150044],"ct":"FR","tp":"CS","ts":"2025-01-06T13:02:03Z","tX":520,"tY":366,"tags":{"access":"customers","addr:city":"Chambon-sur-Lac","addr:postcode":"63790","capacity:caravans":"60","capacity:persons":"750","capacity:tents":"60","caravans":"yes","description":"Situé dans le Parc des Volcans d’Auvergne à 870 mètres d’altitude, au bord du Lac Chambon et au pied du Massif du Sancy, le camping Yelloh! Village Le Pré Bas★★★★★ est le lieu idéal pour un séjour alliant les plaisirs de l’eau et de la montagne.","dog":"leashed","fee":"yes","name":"Le Pré Bas Yelloh Village","opening_hours":"Mo-Fr 09:00-17:00","operator":"Camping Le Pré Bas","phone":"+33(0)473886304","stars":"5","static_caravans":"yes","tents":"yes","website":"https://www.campingauvergne.com"}},"238113859":{"location":[45.5695063,2.9023763],"ct":"FR","tp":"CS","ts":"2024-08-15T16:35:57Z","tX":520,"tY":366,"tags":{"addr:city":"Chambon-sur-Lac","addr:housenumber":"2","addr:postcode":"63790","addr:street":"Rue de Petary","caravans":"yes","email":"lesbombes@orange.fr","internet_access":"wlan","internet_access:fee":"no","name":"Les Bombes","phone":"+33 4 73 88 64 03","tents":"yes","website":"https://www.camping-les-bombes.com","wheelchair":"yes"}},"238116426":{"location":[45.5710191,2.890029],"ct":"FR","tp":"CS","ts":"2024-08-15T16:23:13Z","tX":520,"tY":366,"tags":{"addr:city":"Chambon-sur-Lac","addr:postcode":"63790","addr:street":"Serrette","cabins":"yes","capacity:cabins":"12","caravans":"yes","email":"camping.de.serrette.63@orange.fr","fee":"yes","name":"Camping de Serrette","opening_hours":"Apr 28 - Sep 10","phone":"+33 4 73 88 67 67","power_supply":"yes","shower":"yes","stars":"3","tents":"yes","toilets":"yes","website":"https://www.campingdeserrette.com"}},"238116428":{"location":[45.5719993,2.8977487],"ct":"FR","tp":"CS","ts":"2024-08-15T16:23:13Z","tX":520,"tY":366,"tags":{"access":"yes","addr:city":"Chambon sur lac","addr:postcode":"63790","addr:street":"Rue des Anciens Combattants","caravans":"yes","drinking_water":"yes","fee":"yes","name":"La Plantade - aire naturelle","phone":"+33 4 73 88 67 30","power_supply":"yes","shower":"yes","tents":"yes","website":"https://park4night.com/fr/place/16371"}},"295232593":{"location":[45.5714375,2.8177907],"ct":"FR","tp":"CS","ts":"2019-06-05T18:59:34Z","tX":520,"tY":366,"tags":{"addr:city":"Mont-Dore","addr:postcode":"63240","addr:street":"Route de Besse","ele":"1280","email":"contact@camping-grandecascade.com","fee":"yes","internet_access":"yes","internet_access:fee":"no","name":"Domaine de la Grande Cascade","payment:cash":"yes","payment:cheque":"yes","payment:contactless":"yes","payment:visa":"yes","phone":"+33 4 73 65 06 23","website":"https://www.camping-grandecascade.com/"}},"297096159":{"location":[45.575845,3.0008899],"ct":"FR","tp":"CS","ts":"2020-09-07T10:50:19Z","tX":520,"tY":366,"tags":{"name":"La Clé des Champs","website":"https://www.campingcledeschamps.com/"}},"298875962":{"location":[45.5764529,2.9345999],"ct":"FR","tp":"CS","ts":"2024-09-26T03:00:45Z","tX":520,"tY":366,"tags":{"addr:city":"Murol","addr:postcode":"63790","caravans":"yes","email":"domainedumarais@wanadoo.fr","fee":"yes","name":"Camping Le Domaine Du Marais - Auvergne","opening_hours":"Mo-Fr 09:00-12:00, 14:00-18:00","phone":"+33  4 73 88 85 85","stars":"3","static_caravans":"yes","tents":"yes","website":"https://www.domaine-du-marais.com/"}},"345989872":{"location":[45.5590625,2.8871258],"ct":"FR","tp":"CS","ts":"2024-08-15T16:44:37Z","tX":520,"tY":366,"tags":{"addr:city":"Chambon-sur-Lac","addr:place":"Voissières","addr:postcode":"63790","caravans":"yes","email":"info@campingdevoissieres.com","internet_access":"no","mobile":"+33  6.81.59.33.49","name":"Camping de Voissières","phone":"+33 4 73 88 64 13","power_supply":"yes","shower":"yes","static_caravans":"yes","tents":"yes","website":"https://www.campingdevoissieres.com/"}},"463626702":{"location":[45.5732716,2.957759],"ct":"FR","tp":"CS","ts":"2024-08-15T15:52:06Z","tX":520,"tY":366,"tags":{"addr:city":"Murol","addr:postcode":"63790","caravans":"yes","email":"info@campingmurol.com","fee":"yes","name":"Camping Le Repos du Baladin","phone":"+33  9 77 95 74 49","stars":"3","static_caravans":"yes","tents":"yes","website":"https://camping-auvergne-france.com"}},"463639258":{"location":[45.5670672,2.9407322],"ct":"FR","tp":"CS","ts":"2024-08-15T15:42:22Z","tX":520,"tY":366,"tags":{"addr:city":"Murol","addr:postcode":"63790","addr:street":"Route de Jassat","caravans":"yes","email":"contact@camping-europe-murol.com","fee":"yes","name":"Camping l'Europe","phone":"+33 4 73 88 60 46","stars":"4","static_caravans":"yes","tents":"yes","website":"https://www.camping-europe-murol.com/"}},"463640903":{"location":[45.5633633,2.9403773],"ct":"FR","tp":"CS","ts":"2024-08-15T15:35:28Z","tX":520,"tY":366,"tags":{"access":"customers","addr:city":"Murol","addr:postcode":"63790","addr:street":"jassat","caravans":"yes","drinking_water":"yes","fee":"yes","name":"La Ribeyre","operator":"Sandaya","phone":"+33  4 73 88 64 29","power_supply":"yes","shower":"yes","stars":"5","tents":"yes","toilets":"yes","website":"https://www.sandaya.fr/nos-campings/la-ribeyre"}},"479017492":{"location":[45.4161293,2.8359869],"ct":"FR","tp":"CS","ts":"2020-12-28T10:04:58Z","tX":520,"tY":366,"tags":{"name":"Les Jardins d'Entraigues"}},"490199780":{"location":[45.5786325,3.0036822],"ct":"FR","tp":"CS","ts":"2023-11-02T16:37:59Z","tX":520,"tY":366,"tags":{"addr:city":"Saint-Nectaire","addr:postcode":"63710","addr:street":"Avenue Alphonse Cellier","name":"Camping Le Viginet","stars":"3","website":"https://www.camping-viginet.com/"}},"663514633":{"location":[45.5696925,2.9314332],"ct":"FR","tp":"CS","ts":"2024-10-02T18:47:51Z","tX":520,"tY":366,"tags":{"addr:city":"Chambon-sur-Lac","addr:postcode":"63790","addr:street":"route de la plage","caravans":"yes","name":"domaine du lac chambon","phone":"+33 4 44 052158","static_caravans":"yes","tents":"yes","website":"https://www.domaine-lac-chambon.fr"}},"666113845":{"location":[45.5383975,2.978246],"ct":"FR","tp":"CS","ts":"2021-07-27T09:50:36Z","tX":520,"tY":366,"tags":{"name":"L'Ombrage","website":"https://www.campombrage.com/"}},"666113847":{"location":[45.5748495,3.00084],"ct":"FR","tp":"CS","ts":"2024-07-01T05:55:12Z","tX":520,"tY":366,"tags":{"name":"La Vallée Verte","website":"https://www.valleeverte.com/"}},"730230126":{"location":[45.4428716,2.9329191],"ct":"FR","tp":"CS","ts":"2020-09-21T16:00:03Z","tX":520,"tY":366,"tags":{"addr:city":"Compains","addr:country":"FR","addr:postcode":"63610","caravans":"yes","name":"Camping GCU de Compains","operator":"Groupement des Campeurs Universitaires","phone":"+33 4 73 71 20 05","stars":"1","tents":"yes","website":"https://www.gcu.asso.fr"}},"822924679":{"location":[45.4258046,3.1351691],"ct":"FR","tp":"CR","ts":"2024-08-14T21:21:25Z","tX":520,"tY":366,"tags":{"capacity":"4","caravan_site":"motorhome_stopover","caravan_site:type":"village","caravans":"no","dog":"yes","fee":"no","maxstay":"48 hours","name":"Aire camping-car Le Fromental","opening_hours":"24/7","seasonal":"no","tents":"no","website":"https://www.issoire-tourisme.com/aire-de-camping-car/stationnement-le-fromental/"}},"981376547":{"location":[45.3936264,2.8746237],"ct":"FR","tp":"CS","ts":"2022-09-16T11:36:24Z","tX":520,"tY":366,"tags":{"fee":"yes","name":"Aire naturelle d'Espinchal"}},"1083542078":{"location":[45.5526708,2.9384233],"ct":"FR","tp":"CS","ts":"2022-08-03T14:59:27Z","tX":520,"tY":366,"tags":{"camp_site":"standard","description":"camping à la ferme"}},"1104026545":{"location":[45.5298805,3.1346534],"ct":"FR","tp":"CR","ts":"2024-10-02T18:40:03Z","tX":520,"tY":366,"tags":{"caravan_site":"motorhome_stopover","caravan_site:type":"village","fee":"no","name":"Aire camping car Tourzel","sanitary_dump_station":"yes","seasonal":"no","water_point":"yes"}},"1104026547":{"location":[45.5204998,3.0899155],"ct":"FR","tp":"CS","ts":"2022-10-15T09:21:53Z","tX":520,"tY":366,"tags":{"description":"Camping à la ferme, location de cabane et d'emplacement de camping","name":"Camping le Prado","phone":"+336 30 33 92 45","website":"https://www.leprado.fr/"}},"1219036140":{"location":[45.5686899,2.9477876],"ct":"FR","tp":"CR","ts":"2024-05-17T19:56:58Z","tX":520,"tY":366,"tags":{"bbq":"no","capacity":"18","caravan_site":"motorhome_stopover","caravan_site:type":"river;village","caravans":"no","charge":"15.30 EUR","charge:conditional":"12.90 EUR @ (Oct-Apr)","dog":"leashed","fee":"yes","internet_access":"wlan","internet_access:fee":"no","maxlength":"9","name":"Aire Murol","network":"CAMPING-CAR PARK","opening_hours":"24/7","operator":"CAMPING CAR-Park","power_supply":"yes","power_supply:capacity":"24","power_supply:fee":"no","power_supply:maxcurrent":"6","sanitary_dump_station":"yes","tents":"no","trailer":"no","water_point":"yes","website":"https://www.campingcarpark.com/fr_FR/sejour/aire-etape-camping-car/auvergne-rhone-alpes/63-puy-de-dome/murol"}},"1284225274":{"location":[45.5701572,2.9041457],"ct":"FR","tp":"CR","ts":"2024-05-17T19:50:04Z","tX":520,"tY":366,"tags":{"bbq":"no","capacity":"58","caravan_site":"motorhome_stopover","caravan_site:type":"village;lake","caravans":"no","charge":"15.60 EUR","charge:conditional":"13.60 EUR @ (Oct-Mar)","dog":"leashed","fee":"yes","internet_access":"wlan","internet_access:fee":"no","maxlength":"none","name":"Aire Chambon-sur-Lac","network":"CAMPING-CAR PARK","opening_hours":"24/7","operator":"CAMPING CAR-Park","power_supply":"yes","power_supply:capacity":"60","power_supply:fee":"no","power_supply:maxcurrent":"6","sanitary_dump_station":"yes","surface":"asphalt","tents":"no","trailer":"no","website":"https://www.campingcarpark.com/en_GB/stay/stopover-site-motorhome/auvergne-rhone-alpes/63-puy-de-dome/chambon-sur-lac"}},"1293145222":{"location":[45.4130202,2.8327044],"ct":"FR","tp":"CR","ts":"2024-06-17T18:50:37Z","tX":520,"tY":366,"tags":{"caravan_site":"motorhome_stopover","caravan_site:type":"mountains","charge":"5.60 EUR","dog":"yes","fee":"yes","internet_access":"wlan","name":"Aire Camping-car Égliseneuve-d'Entraigues","network":"AirePark","power_supply":"yes","power_supply:charge":"4 EUR/24 hours","power_supply:fee":"yes","sanitary_dump_station":"yes","sanitary_dump_station:chemical_toilet":"yes","sanitary_dump_station:grey_water":"yes","water_point":"yes","water_point:charge":"2 EUR/100 liter","water_point:fee":"yes","website":"https://www.aireparkreservation.com/aires-camping-cars/auvergne-rhone-alpes/puy-de-dome/egliseneuve-dentraigues"}},"1293166879":{"location":[45.4016285,3.1298597],"ct":"FR","tp":"CR","ts":"2024-06-17T18:59:06Z","tX":520,"tY":366,"tags":{"capacity":"4","caravan_site":"motorhome_stopover","caravan_site:type":"village","fee":"no","maxstay":"2 nights","name":"Aire de camping-cars de Ardes-sur-Couze","network":"AirePark","power_supply":"no","sanitary_dump_station":"yes","surface":"fine_gravel","water_point":"yes","water_point:charge":"2 EUR","water_point:fee":"yes","website":"https://www.aireparkreservation.com/aires-camping-cars/auvergne-rhone-alpes/puy-de-dome/issoire-ardes-sur-couze"}},"1320150535":{"location":[45.5711702,2.9297556],"ct":"FR","tp":"CR","ts":"2024-10-02T18:47:51Z","tX":520,"tY":366,"tags":{"capacity":"28","caravan_site":"motorhome_stopover","caravan_site:type":"lake","ele":"875","fee":"yes","name":"Domaine du Lac Chambon","power_supply":"yes","sanitary_dump_station":"yes","water_point":"yes","website":"https://www.domaine-lac-chambon.fr/camping-car-puydedome.html"}},"3750558953":{"location":[45.5055914,2.8542379],"ct":"FR","tp":"SD","ts":"2015-12-06T09:32:52Z","tX":520,"tY":366,"tags":{"access":"customers","fee":"yes","power_supply":"yes","sanitary_dump_station":"customers","sanitary_dump_station:basin":"yes"}},"7063365561":{"location":[45.5067325,2.858454],"ct":"FR","tp":"SD","ts":"2019-12-17T13:14:18Z","tX":520,"tY":366,"tags":{}},"7063365562":{"location":[45.5041447,2.8543881],"ct":"FR","tp":"SD","ts":"2019-12-17T13:14:18Z","tX":520,"tY":366,"tags":{"fee":"yes"}},"11988038260":{"location":[45.4130339,2.8325696],"ct":"FR","tp":"SD","ts":"2024-06-17T18:50:37Z","tX":520,"tY":366,"tags":{"access":"yes","network":"AirePark","sanitary_dump_station:chemical_toilet":"yes","sanitary_dump_station:grey_water":"yes","website":"https://www.aireparkreservation.com/aires-camping-cars/auvergne-rhone-alpes/puy-de-dome/egliseneuve-dentraigues"}},"11988149339":{"location":[45.4017448,3.1299327],"ct":"FR","tp":"SD","ts":"2024-06-17T18:59:06Z","tX":520,"tY":366,"tags":{}},"11999200414":{"location":[45.5626973,2.937451],"ct":"FR","tp":"SD","ts":"2024-06-21T15:51:35Z","tX":520,"tY":366,"tags":{}}}