{"143748191":{"location":[44.8489013,3.0032086],"ct":"FR","tp":"CR","ts":"2024-08-19T21:01:33Z","tX":520,"tY":368,"tags":{"caravan_site":"motorhome_stopover","caravan_site:type":"parking_lot","fee":"no","name":"Aire camping-car Chaudes Aigues","sanitary_dump_station":"yes","surface":"asphalt","water_point":"yes","water_point:fee":"yes"}},"205806049":{"location":[45.0328698,3.0817373],"ct":"FR","tp":"CR","ts":"2024-05-17T18:27:35Z","tX":520,"tY":368,"tags":{"addr:city":"Saint-Flour","addr:housenumber":"17","addr:postcode":"15100","addr:street":"Avenue du Docteur Mallet","bbq":"no","capacity:caravans":"76","caravan_site":"motorhome_stopover","caravan_site:type":"town","caravans":"yes","caravans:conditional":"no @ (Oct-May)","charge":"16.44 EUR","charge:conditional":"13.44@(Oct-May)","dog":"leashed","fee":"yes","internet_access":"yes","internet_access:fee":"no","maxlength":"none","name":"Camping Les Orgues","network":"CAMPING-CAR PARK","nudism":"no","old_name":"Camping municipal des Orgues","opening_hours":"24/7","operator":"Camping-Car Park","payment:cash":"no","payment:contactless":"yes","payment:credit_cards":"yes","payment:mastercard":"yes","payment:visa":"yes","phone":"+33 4 71604401","power_supply":"yes","power_supply:charge":"6","sanitary_dump_station":"yes","seasonal":"no","shower":"yes","shower:conditional":"no @ (Oct-May)","stars":"2","static_caravans":"no","tents":"yes","tents:conditional":"no @ (Oct-May)","toilets":"yes","toilets:conditional":"no @ (Oct-May)","trailer":"yes","water_point":"yes","website":"https://www.campingcarpark.com/fr_FR/sejour/camping/auvergne-rhone-alpes/15-cantal/saint-flour-les-orgues","wheelchair":"limited"}},"224924368":{"location":[44.9240128,2.9786231],"ct":"FR","tp":"CS","ts":"2019-12-21T12:39:43Z","tX":520,"tY":368,"tags":{"name":"Camping municipal de Fontbielle","phone":"+33 6 15 03 58 94","stars":"2"}},"238980442":{"location":[44.9388907,3.1465862],"ct":"FR","tp":"CS","ts":"2023-11-22T01:48:19Z","tX":520,"tY":368,"tags":{"name":"Camping municipal de Faverolles","phone":"+33 4 71 73 70 11","stars":"3","website":"https://valdarcomie.fr/"}},"318619149":{"location":[45.0506606,3.1063792],"ct":"FR","tp":"CS","ts":"2019-12-21T11:19:42Z","tX":520,"tY":368,"tags":{"name":"Roche-Murat","source":"cadastre-dgi-fr source : Direction Générale des Impôts - Cadastre. Mise à jour : 2014","stars":"3"}},"339352287":{"location":[44.8849731,2.9628232],"ct":"FR","tp":"CS","ts":"2024-06-17T15:12:25Z","tX":520,"tY":368,"tags":{"access":"customers","addr:city":"Neuvéglise-sur-Truyère","addr:postcode":"15260","addr:street":"Domaine de la Taillade","caravans":"yes","email":"taillade@hotmail.com","name":"Camping de la Taillade","nudism":"yes","phone":"+33 6 74 44 09 15","stars":"2","static_caravans":"yes","tents":"yes","website":"https://www.taillade-naturisme.fr/"}},"416256537":{"location":[44.8960215,3.0010609],"ct":"FR","tp":"CS","ts":"2023-11-04T16:06:51Z","tX":520,"tY":368,"tags":{"name":"Le Belvédère","phone":"+33 4 71 23 50 50","stars":"4","website":"https://www.campinglebelvedere.com/"}},"438189113":{"location":[44.8448193,2.9996754],"ct":"FR","tp":"CS","ts":"2022-09-10T17:15:07Z","tX":520,"tY":368,"tags":{"contact:website":"https://www.camping-chaudesaigues.fr/","name":"Camping Le Couffour"}},"438655590":{"location":[45.0733379,2.8349005],"ct":"FR","tp":"CS","ts":"2024-07-15T17:34:01Z","tX":520,"tY":368,"tags":{"caravans":"yes","drinking_water":"yes","name":"Camping Les trois pierres","power_supply":"yes","shower":"yes","tents":"yes","toilets":"yes"}},"465127911":{"location":[45.0792767,2.8303877],"ct":"FR","tp":"CS","ts":"2024-01-16T16:08:56Z","tX":520,"tY":368,"tags":{"name":"Camping municipal"}},"703143465":{"location":[44.9217736,2.8420928],"ct":"FR","tp":"CR","ts":"2024-10-02T15:49:20Z","tX":520,"tY":368,"tags":{"caravan_site":"motorhome_stopover","caravan_site:type":"village","fee":"no","name":"Aire camping-cars de Pierrefort","power_supply:fee":"yes","sanitary_dump_station":"yes","tents":"no","water_point":"yes","water_point:fee":"yes"}},"754779153":{"location":[44.9037701,3.0844451],"ct":"FR","tp":"CS","ts":"2021-08-17T07:42:31Z","tX":520,"tY":368,"tags":{"capacity":"15","caravans":"yes","internet_access":"wlan","internet_access:fee":"no","name":"Camp Municipal Les Prés Verts","phone":"+33 4 71 23 57 22","tents":"yes"}},"757541132":{"location":[44.9316855,2.9965062],"ct":"FR","tp":"CS","ts":"2023-11-04T16:06:50Z","tX":520,"tY":368,"tags":{"name":"Au Pré des Yourtes","phone":"+33 6 84 04 11 68","website":"https://www.aupredesyourtes.com/"}},"1236345634":{"location":[45.0357829,3.0983303],"ct":"FR","tp":"PK","ts":"2024-10-02T15:37:12Z","tX":520,"tY":368,"tags":{"fee":"no","motorhome":"yes","parking":"surface","surface":"asphalt"}},"1392316247":{"location":[44.9573555,3.160952],"ct":"FR","tp":"CS","ts":"2023-11-21T14:45:33Z","tX":520,"tY":368,"tags":{"addr:city":"Val d'Arcomie","addr:housenumber":"2","addr:place":"Pouzols","addr:postcode":"15320","name":"La Source de Vie","phone":"+33787860595","website":"https://www.lasourcedevie.nl"}},"6603260727":{"location":[44.9220853,2.8412707],"ct":"FR","tp":"SD","ts":"2024-10-02T15:49:20Z","tX":520,"tY":368,"tags":{"access":"yes","ele":"1000","fee":"yes","opening_hours":"24/7","operator":"Mairie de Pierrefort","payment:coins":"yes","payment:debit_cards":"yes","payment:token_coin":"yes","sanitary_dump_station:basin":"yes","sanitary_dump_station:round_drain":"yes","source":"IGN / BD ORTHO® - 2020;survey","survey:date":"2021-08-17","water_point":"yes","water_point:charge":"2 EUR","water_point:fee":"yes"}},"11494417739":{"location":[45.0036066,2.9071116],"ct":"FR","tp":"SD","ts":"2024-01-06T13:28:03Z","tX":520,"tY":368,"tags":{"fee":"yes"}},"12120995594":{"location":[44.8491157,3.003201],"ct":"FR","tp":"SD","ts":"2024-08-19T21:01:33Z","tX":520,"tY":368,"tags":{"access":"yes","ele":"750","sanitary_dump_station:chemical_toilet":"yes","sanitary_dump_station:grey_water":"yes","website":"https://www.pays-saint-flour.fr/en/camping/borne-camping-car/"}},"12216279851":{"location":[45.0359601,3.0983926],"ct":"FR","tp":"SD","ts":"2024-10-02T15:37:12Z","tX":520,"tY":368,"tags":{"access":"yes","water_point":"yes"}}}