{"26858969":{"location":[44.190833,3.156944],"ct":"FR","tp":"CS","ts":"2025-01-26T18:30:23Z","tX":520,"tY":371,"tags":{"addr:city":"Rivière-sur-Tarn","addr:postcode":"12640","email":"contact@campingpeyrelade.com","fee":"yes","name":"Le Peyrelade","phone":"+33 (0)5 65 62 62 54","power_supply":"yes","reservation":"yes","sanitary_dump_station":"yes","website":"https://www.campingpeyrelade.com"}},"38427647":{"location":[44.1524535,3.0999533],"ct":"FR","tp":"CS","ts":"2015-02-09T15:18:19Z","tX":520,"tY":371,"tags":{"addr:street":"Chemin des Prades","contact:website":"http://www.camping-labelleetoile.fr/","name":"Camping La Belle Étoile","source":"cadastre-dgi-fr source : Direction Générale des Impôts - Cadastre. Mise à jour : 2009","stars":"3","wheelchair":"yes"}},"172695156":{"location":[44.1670835,3.1205346],"ct":"FR","tp":"CS","ts":"2020-12-22T10:50:27Z","tX":520,"tY":371,"tags":{"addr:city":"Compeyre","addr:country":"FR","addr:postcode":"12520","addr:street":"Pailhas","email":"contact@campinglescerisiers.com","internet_access":"wlan","internet_access:fee":"yes","name":"Camping Les Cerisiers","phone":"+33 5 65 59 87 96","stars":"2","website":"http://www.campinglescerisiers.com"}},"182010338":{"location":[44.3181949,3.0654553],"ct":"FR","tp":"CS","ts":"2023-06-10T14:21:38Z","tX":520,"tY":371,"tags":{"addr:housenumber":"17","addr:street":"Rue Jean Moulin","caravans":"yes","contact:email":"contact@camping-calquieres.com","contact:fax":"+33565476482","contact:phone":"+33565476482","contact:website":"http://www.camping-calquieres.com/","drinking_water":"yes","name":"Camping Les Calquières","power_supply":"yes","shower":"yes","source":"cadastre-dgi-fr source : Direction Générale des Impôts - Cadastre. Mise à jour : 2012","tents":"yes","toilets":"yes"}},"233173505":{"location":[44.0994275,3.1121475],"ct":"FR","tp":"CS","ts":"2019-05-28T22:49:46Z","tX":520,"tY":371,"tags":{"addr:housenumber":"2050","addr:street":"Avenue de l'Aigoual","camp_site":"serviced","caravans":"yes","contact:email":"camping.saintlambert@orange.fr","contact:phone":"+33565600048","contact:website":"https://www.camping-millau-riviere.fr","internet_access":"wlan","name":"Camping Saint-Lambert","opening_hours":"May-Sep open","stars":"3","tents":"yes","wheelchair":"yes"}},"233219870":{"location":[44.101652,3.0895073],"ct":"FR","tp":"CS","ts":"2024-08-02T12:16:05Z","tX":520,"tY":371,"tags":{"addr:street":"Avenue de l'Aigoual","backcountry":"no","caravans":"yes","contact:phone":"+33565611883","contact:website":"http://europe.huttopia.com/site/camping-millau/","drinking_water":"yes","group_only":"no","internet_access":"wlan","name":"Camping Huttopia Millau","opening_hours":"Apr-Sep","operator":"Huttopia","picnic_table":"yes","power_supply":"yes","sanitary_dump_station":"yes","shower":"yes","stars":"3","tents":"yes","toilets":"yes","website":"http://europe.huttopia.com/site/camping-millau/","wheelchair":"yes"}},"233261482":{"location":[44.1045084,3.0870423],"ct":"FR","tp":"CS","ts":"2024-08-03T07:12:03Z","tX":520,"tY":371,"tags":{"addr:housenumber":"121","addr:street":"Avenue de Millau Plage","backcountry":"no","cat":"yes","contact:email":"info@camping-du-viaduc.com","contact:phone":"+33565601575","contact:website":"http://www.camping-du-viaduc.com/","dog":"yes","internet_access":"wlan","name":"Camping Paradis Le Viaduc","operator":"Paradis","stars":"4"}},"233264038":{"location":[44.1004918,3.0957957],"ct":"FR","tp":"CS","ts":"2019-11-30T07:27:29Z","tX":520,"tY":371,"tags":{"addr:housenumber":"860","addr:street":"Avenue de l'Aigoual","contact:email":"info@campinglesrivages.com","contact:phone":"+33565610107","contact:website":"http://www.campinglesrivages.com/","name":"Les Rivages","stars":"4"}},"249112299":{"location":[44.1864,3.1369556],"ct":"FR","tp":"CS","ts":"2019-06-01T19:21:05Z","tX":520,"tY":371,"tags":{"camp_site":"serviced","contact:email":"info@campinglepapillon.com","contact:website":"https://www.campinglepapillon.com","internet_access":"wlan","internet_access:fee":"no","name":"Camping Le Papillon","stars":"3"}},"300507622":{"location":[44.3385075,2.9745671],"ct":"FR","tp":"CS","ts":"2014-08-27T13:37:38Z","tX":520,"tY":371,"tags":{"contact:phone":"+33686636375","contact:website":"http://www.campingleplo.fr","name":"Camping Le Plô","wheelchair":"yes"}},"360366532":{"location":[44.2296415,3.0402376],"ct":"FR","tp":"CS","ts":"2024-03-18T10:28:43Z","tX":520,"tY":371,"tags":{"access":"private","caravans":"no","leisure":"summer_camp","name":"Centre Éclaireuses Éclaireurs de France de Bécours","operator":"Éclaireuses Éclaireurs de France","tents":"yes","website":"https://becours.eedf.fr/"}},"447524032":{"location":[44.0958522,3.0855555],"ct":"FR","tp":"CR","ts":"2024-09-11T14:37:28Z","tX":520,"tY":371,"tags":{"bbq":"no","capacity":"41","caravan_site":"motorhome_stopover","caravan_site:type":"town","caravans":"no","charge":"14.40 EUR","fee":"yes","internet_access":"wlan","name":"CAMPING-CAR PARK Millau, Ville","network":"CAMPING-CAR PARK","operator":"CAMPING-CAR PARK","power_supply":"yes","power_supply:capacity":"30","power_supply:fee":"no","power_supply:maxcurrent":"6","sanitary_dump_station":"yes","sanitary_dump_station:chemical_toilet":"yes","sanitary_dump_station:grey_water":"yes","seasonal":"no","surface":"gravel","tents":"no","toilets":"no","water_point":"yes","water_point:fee":"no","website":"https://www.campingcarpark.com/en_GB/stay/aire-etape-camping-car/occitanie/12-aveyron/millau","wheelchair":"yes","wikimedia_commons":"Category:Millau Camping-Car Park"}},"477648713":{"location":[44.1101364,3.0863344],"ct":"FR","tp":"CS","ts":"2024-07-10T08:18:24Z","tX":520,"tY":371,"tags":{"access":"customers","addr:city":"Millau","addr:housenumber":"791","addr:postcode":"12100","addr:street":"Avenue de Millau Plage","capacity:caravans":"55","capacity:persons":"200","charge":"12 €","description":"Camping Famillial au bord du Tarn, bien ombragé. Quelques Mobil Homes en location","fee":"yes","internet_access":"wlan","internet_access:fee":"customers","name":"Larribal","operator":"Sandrine & Eric","payment:cash":"yes","payment:contactless":"yes","payment:credit_cards":"yes","website":"https://www.campinglarribal.com/"}},"505867199":{"location":[44.1852054,3.1307387],"ct":"FR","tp":"CS","ts":"2017-07-07T15:32:50Z","tX":520,"tY":371,"tags":{"name":"Les Peupliers"}},"632226910":{"location":[44.2024769,3.1577405],"ct":"FR","tp":"CS","ts":"2024-07-24T07:24:31Z","tX":520,"tY":371,"tags":{"caravans":"yes","drinking_water":"yes","fee":"yes","name":"Le Pont","power_supply":"yes","shower":"yes","tents":"yes"}},"730105435":{"location":[44.1712943,3.1247373],"ct":"FR","tp":"CS","ts":"2020-12-22T10:50:27Z","tX":520,"tY":371,"tags":{"addr:city":"Compeyre","addr:country":"FR","addr:place":"Pailhas","addr:postcode":"12520","capacity":"121","caravans":"yes","name":"Camping GCU de Pailhas","operator":"Groupement des Campeurs Universitaires","phone":"+33 5 65 59 86 22","sanitary_dump_station":"customers","stars":"2","tents":"yes","website":"https://www.gcu.asso.fr","wheelchair":"limited"}},"783346418":{"location":[44.2007177,3.1585883],"ct":"FR","tp":"CS","ts":"2024-07-24T07:13:52Z","tX":520,"tY":371,"tags":{"capacity":"50","caravans":"yes","drinking_water":"yes","fee":"yes","name":"Moulin de la Galinière","phone":"+33607128418","power_supply":"yes","sanitary_dump_station":"yes","shower":"yes","tents":"yes","toilets":"yes","website":"https://www.camping-moulindelagaliniere.fr/"}},"833124707":{"location":[44.1784387,3.0009172],"ct":"FR","tp":"CS","ts":"2023-10-31T03:40:31Z","tX":520,"tY":371,"tags":{"internet_access":"wlan","name":"Camping de La Tâcherie","source":"data.gouv.fr:DATAtourisme - 05/2020","website":"https://www.camping-latacherie.net/"}},"904413299":{"location":[44.3241204,3.0629979],"ct":"FR","tp":"CR","ts":"2024-08-17T11:40:28Z","tX":520,"tY":371,"tags":{"access":"yes","addr:city":"Sévérac-le-Château","addr:postcode":"12150","addr:street":"Rue de Signe Longue","capacity":"10","caravan_site":"motorhome_stopover","caravan_site:type":"village","description":"Aire de Camping-car. la municipalité demande une taxe de sejour de 30 centimes par nuit et par personne","fee":"no","name":"Aire municipale de camping-car de Sévérac-le-Château","operator":"Ville de Sévérac-le-Château","power_supply":"no","sanitary_dump_station:chemical_toilet":"yes","sanitary_dump_station:grey_water":"yes","sanitary_dump_station:round_drain":"yes","water_point":"yes","website":"https://www.tourisme-aveyron.com/fr/diffusio/activites/aire-municipale-de-camping-car-de-severac-le-chateau-severac-d-aveyron_TFO348600829265"}},"904419160":{"location":[44.2909119,2.8346735],"ct":"FR","tp":"CR","ts":"2023-12-23T17:40:30Z","tX":520,"tY":371,"tags":{"access":"yes","addr:city":"Segur","addr:postcode":"12290","addr:street":"Le Claux","capacity":"3","caravan_site":"motorhome_stopover","caravan_site:type":"village","description":"La municipalité demande une participation optionnelle de 2€/jour services inclus","fee":"no","name":"Aire de camping-car municipale LE bourg Ségur","opening_hours":"Apr-Oct","operator":"Ville de Segur","power_supply":"no","sanitary_dump_station:chemical_toilet":"yes","sanitary_dump_station:grey_water":"yes","sanitary_dump_station:round_drain":"yes","seasonal":"yes","shower":"yes","shower:charge":"2 EUR","shower:fee":"yes","toilets":"yes","water_point":"yes","website":"https://www.tourisme-aveyron.com/fr/diffusio/activites/aire-de-camping-car-municipale-de-segur-segur_TFO022847109239","wheelchair":"limited"}},"923972909":{"location":[44.2646868,2.9212748],"ct":"FR","tp":"CR","ts":"2024-08-17T11:38:39Z","tX":520,"tY":371,"tags":{"capacity":"6","caravan_site":"motorhome_stopover","caravan_site:type":"farm_shop","fee":"no","maxstay":"1 day","name":"La Ferme du Lévézou","product":"foie_gras","sanitary_dump_station":"no","seasonal":"no","toilets":"yes","website":"https://lafermedulevezou.fr/"}},"1080640719":{"location":[44.1029771,3.0868603],"ct":"FR","tp":"CS","ts":"2022-07-22T21:14:01Z","tX":520,"tY":371,"tags":{"access":"customers","addr:housenumber":"61","addr:street":"Avenue de l'Aigoual","email":"contact@camping2rivieresmillau.fr","fee":"yes","internet_access":"wlan","name":"Camping des Deux Rivières","phone":"+33 5 65 60 00 27","shower":"yes","stars":"3","toilets":"yes","website":"https://www.camping2rivieresmillau.fr/"}},"1300436701":{"location":[44.1153967,3.0868481],"ct":"FR","tp":"CS","ts":"2024-07-10T08:18:24Z","tX":520,"tY":371,"tags":{"name":"Millau Plage"}},"1305289050":{"location":[44.1055724,3.0869176],"ct":"FR","tp":"CS","ts":"2024-08-03T07:12:03Z","tX":520,"tY":371,"tags":{"name":"Camping Les Erables","source":"cadastre-dgi-fr source : Direction Générale des Impôts - Cadastre. Mise à jour : 2014"}},"4885179397":{"location":[44.1347161,2.906289],"ct":"FR","tp":"CS","ts":"2017-05-30T08:28:45Z","tX":520,"tY":371,"tags":{"name":"Camping à la ferme le Sahut","operator":"Le Sahut"}},"6418310438":{"location":[44.3269709,3.1157613],"ct":"FR","tp":"CS","ts":"2019-04-20T18:15:02Z","tX":520,"tY":371,"tags":{}},"9922243009":{"location":[44.2264586,3.0277576],"ct":"FR","tp":"CS","ts":"2022-07-31T12:33:40Z","tX":520,"tY":371,"tags":{"agritourism":"yes","camp_site:type:FR":"Aire Naturelle","name":"Aire naturelle de camping la Blaquière","operator":"Ferme de la Blaquière"}},"11914165044":{"location":[44.1660483,2.9592705],"ct":"FR","tp":"CR","ts":"2024-05-17T20:49:14Z","tX":520,"tY":371,"tags":{"bbq":"no","capacity":"21","caravan_site":"motorhome_stopover","caravan_site:type":"village","caravans":"no","charge":"13.30 EUR","dog":"leashed","fee":"yes","internet_access":"wlan","internet_access:fee":"no","name":"Aire de Saint-Beauzély","network":"CAMPING-CAR PARK","opening_hours":"24/7","operator":"CAMPING CAR-Park","playground":"yes","power_supply":"yes","power_supply:capacity":"20","power_supply:fee":"no","power_supply:maxcurrent":"6","sanitary_dump_station":"yes","surface":"clay","tents":"no","trailer":"no","water_point":"yes","website":"https://www.campingcarpark.com/en_GB/stay/stopover-site-motorhome/occitanie/12-aveyron/saint-beauzely"}},"12116709833":{"location":[44.1803173,2.8128699],"ct":"FR","tp":"CR","ts":"2024-08-17T10:52:13Z","tX":520,"tY":371,"tags":{"capacity":"5","caravan_site":"motorhome_stopover","caravan_site:type":"farm","email":"masdherens@orange.fr","fee":"no","laundry":"yes","name":"Aire de camping-car au Mas d'Herens","network":"France Passion","phone":"+33 (0) 601237642","reservation":"recommended","surface":"grass","water_point":"yes","website":"https://www.tourisme-aveyron.com/fr/diffusio/activites/aire-de-camping-car-au-mas-d-herens-salles-curan_TFO432029996670"}},"8399308044":{"location":[44.3241472,3.0628466],"ct":"FR","tp":"SD","ts":"2024-10-06T21:33:05Z","tX":520,"tY":371,"tags":{"description":"Station de vidange pour Camping-car","fee":"no","operator":"Ville de Sévérac-le-Château","sanitary_dump_station:chemical_toilet":"yes","sanitary_dump_station:grey_water":"yes","sanitary_dump_station:round_drain":"yes"}},"8399366769":{"location":[44.2906942,2.835006],"ct":"FR","tp":"SD","ts":"2023-12-23T17:40:30Z","tX":520,"tY":371,"tags":{"access":"yes","description":"Station de vidange pour Camping-car. La municipalité demande une participation optionnelle de 2€/jour pour les services et parking pour CC","fee":"no","operator":"Ville de Segur","sanitary_dump_station:chemical_toilet":"yes","sanitary_dump_station:grey_water":"yes","sanitary_dump_station:round_drain":"yes","water_point":"yes"}},"8893032335":{"location":[44.0947139,3.0220048],"ct":"FR","tp":"SD","ts":"2024-02-24T19:43:49Z","tX":520,"tY":371,"tags":{"fee":"no","motorhome":"designated","name":"Viaduc de Millau","power_supply":"yes","water_point":"yes","wikimedia_commons":"File:Sanitary Dump Station Aire du Viaduc de Millau.jpg"}},"9477240191":{"location":[44.0961569,3.0217898],"ct":"FR","tp":"SD","ts":"2024-12-01T16:37:54Z","tX":520,"tY":371,"tags":{"access":"yes","description":"free, but on toll road","fee":"no","name":"Aire Millau North","sanitary_dump_station:chemical_toilet":"yes","sanitary_dump_station:grey_water":"yes","water_point":"yes","water_point:fee":"no","wikimedia_commons":"File:Aire Millau North.jpg"}}}