{"5468311":{"location":[43.000887,2.8206992],"ct":"FR","tp":"CS","ts":"2020-10-25T09:32:24Z","tX":520,"tY":376,"tags":{"caravans":"yes","fee":"yes","name":"Camping municipal L'Espazo","opening_hours":"Jun 15-Sep 15","phone":"+33 4 68 45 06 81","stars":"2","tents":"yes"}},"12486056":{"location":[42.9009612,3.0530178],"ct":"FR","tp":"CS","ts":"2021-07-03T21:15:27Z","tX":520,"tY":376,"tags":{"access":"private","addr:city":"Leucate","addr:housenumber":"7","addr:postcode":"11370","addr:street":"Chemin du Grau","fee":"yes","name":"Mer Sable Soleil","phone":"+33 4 68 40 00 90","website":"https://www.mer-sable-soleil.fr/"}},"17417883":{"location":[42.9000745,3.0521965],"ct":"FR","tp":"CR","ts":"2024-10-01T12:52:52Z","tX":520,"tY":376,"tags":{"capacity":"170","caravan_site":"motorhome_stopover","caravan_site:type":"beach","charge":"15.22 EUR","charge:conditional":"12.22 EUR @ (Oct-May)","fee":"yes","internet_access":"no","name":"Aire Camping Car Leucate Plage","opening_hours":"24/7","power_supply":"no","reservation":"no","sanitary_dump_station":"yes","seasonal":"no","smoking":"yes","toilets":"no","water_point":"yes","website":"https://www.tourisme-leucate.fr/offres/aire-camping-car-mouret-leucate-plage-leucate-plage-leucate-fr-2945294/","wheelchair":"yes"}},"32134810":{"location":[42.9991628,3.0484334],"ct":"FR","tp":"CS","ts":"2021-04-06T20:24:57Z","tX":520,"tY":376,"tags":{"addr:city":"Port-la-Nouvelle","addr:housenumber":"2400","addr:postcode":"11210","addr:street":"Chemin des Vignes","contact:phone":"+334 68 48 05 80","name":"Camping Capfun Côte Vermeille","operator":"Capfun","source":"cadastre-dgi-fr source : Direction Générale des Impôts - Cadastre;mise à jour : 2007","stars":"4","website":"https://www.capfun.com/camping-france-languedoc_roussillon-cote_vermeille-FR.html"}},"32134822":{"location":[42.9970634,3.040865],"ct":"FR","tp":"CS","ts":"2021-04-06T20:31:54Z","tX":520,"tY":376,"tags":{"access":"customers","contact:phone":"+334 68 48 00 98","fee":"yes","internet_access":"wlan","internet_access:fee":"yes","name":"Le Cap du Roc","source":"cadastre-dgi-fr source : Direction Générale des Impôts - Cadastre;mise à jour : 2007","stars":"3","tents":"yes","website":"https://www.camping-cap-du-roc.com/"}},"41503784":{"location":[42.9433052,3.0318707],"ct":"FR","tp":"CS","ts":"2021-04-06T15:52:50Z","tX":520,"tY":376,"tags":{"capacity:tents":"33","caravans":"yes","contact:email":"lafranqui@viglamo.com","contact:phone":"+334 68 45 74 93","contact:website":"https://www.viglamo.com","name":"Domaine La Franqui","old_name":"Les Coussoules","operator":"Viglamo","source":"cadastre-dgi-fr source : Direction Générale des Impôts - Cadastre ; mise à jour : 2009","tents":"yes"}},"129297576":{"location":[43.0313159,2.9759927],"ct":"FR","tp":"CS","ts":"2013-01-29T22:20:57Z","tX":520,"tY":376,"tags":{"name":"Les Kakis","source":"cadastre-dgi-fr source : Direction Générale des Impôts - Cadastre ; mise à jour : 2011"}},"160942453":{"location":[42.9587276,2.9966387],"ct":"FR","tp":"CS","ts":"2012-04-24T15:20:44Z","tX":520,"tY":376,"tags":{"name":"Le Clapotis","source":"cadastre-dgi-fr source : Direction Générale des Impôts - Cadastre. Mise à jour : 2012"}},"176034519":{"location":[43.0144128,3.0445979],"ct":"FR","tp":"CS","ts":"2024-10-13T20:47:53Z","tX":520,"tY":376,"tags":{"barrier":"fence","caravans":"no","contact:phone":"+334 68 48 08 42","name":"Camping Novela Port la Nouvelle","old_name":"Camping municipal Le Golf","operator":"Tohapi","stars":"2","static_caravans":"yes","tents":"no","website":"https://www.tohapi.fr/languedoc-roussillon/camping-municipal-le-golfe.php"}},"180608774":{"location":[43.0132393,3.0409271],"ct":"FR","tp":"CR","ts":"2024-10-05T16:05:29Z","tX":520,"tY":376,"tags":{"access":"yes","bbq":"no","capacity":"100","caravan_site":"motorhome_stopover","caravans":"no","charge":"13.66 EUR","dog":"leashed","fee":"yes","internet_access":"wlan","internet_access:fee":"no","maxlength":"none","name":"Aire CAMPING-CAR PARK de Port-la-Nouvelle","network":"CAMPING-CAR PARK","opening_hours":"24/7","power_supply:capacity":"72","power_supply:fee":"no","power_supply:maxcurrent":"6","seasonal":"no","tents":"no","trailer":"no","website":"https://www.campingcarpark.com/fr_FR/sejour/aire-etape-camping-car/occitanie/11-aude/port-la-nouvelle"}},"183857993":{"location":[42.840786,3.0384334],"ct":"FR","tp":"CR","ts":"2024-08-24T21:12:51Z","tX":520,"tY":376,"tags":{"capacity":"19","caravan_site":"motorhome_stopover","caravan_site:type":"beach","charge":"13.32 EUR","fee":"yes","name":"Aure camping-car Rue Dali - Port Leucate","opening_hours":"24/7","power_supply":"yes","power_supply:fee":"yes","reservation":"no","sanitary_dump_station":"yes","sanitary_dump_station:chemical_toilet":"yes","sanitary_dump_station:grey_water":"yes","seasonal":"no","surface":"asphalt","water_point":"yes","website":"https://en.tourisme-leucate.com/offers/aire-camping-car-rue-dali-port-leucate-port-leucate-leucate-en-2945105/"}},"187006768":{"location":[42.8341673,2.903925],"ct":"FR","tp":"CS","ts":"2021-04-12T12:56:10Z","tX":520,"tY":376,"tags":{"addr:city":"Salses-le-Château","addr:country":"FR","addr:housename":"Le Bois de Pins","addr:postcode":"66600","addr:street":"Route d'Opoul","name":"Le Bois de Pins","phone":"+33468386844","website":"https://www.leboisdepins.com/"}},"187006770":{"location":[42.843282,2.9255851],"ct":"FR","tp":"CS","ts":"2021-06-24T12:49:55Z","tX":520,"tY":376,"tags":{"addr:city":"Salses-le-Château","addr:country":"FR","addr:postcode":"66600","addr:street":"Route D900","name":"Camping International du Roussillon","phone":"+33468386072","website":"https://www.camping-roussillon.com/"}},"209867555":{"location":[43.0304584,3.0035422],"ct":"FR","tp":"CS","ts":"2023-04-08T13:08:59Z","tX":520,"tY":376,"tags":{"access":"private","name":"Le Pavillon"}},"215452317":{"location":[42.9130876,3.0192784],"ct":"FR","tp":"CR","ts":"2024-08-24T21:14:13Z","tX":520,"tY":376,"tags":{"capacity":"230","caravan_site":"motorhome_stopover","caravan_site:type":"village","charge":"15.22 EUR","fee":"yes","name":"Aire Camping Car Le Goulet Leucate Village","power_supply":"yes","sanitary_dump_station":"no","seasonal":"no","website":"https://www.tourisme-leucate.fr/aire-camping-car-leucate-plage/leucate-plage/tabid/48136/offreid/3deb3c53-badf-480d-a736-1c69a46a9731/detail.aspx"}},"216078426":{"location":[42.9423783,3.0303033],"ct":"FR","tp":"CR","ts":"2024-10-11T11:34:15Z","tX":520,"tY":376,"tags":{"capacity":"50","caravan_site":"motorhome_stopover","caravan_site:type":"beach","fee":"yes","name":"Aire des Coussoules","power_supply":"no","water_point":"no","website":"https://www.viglamo.com/"}},"361425511":{"location":[42.8487756,3.0399415],"ct":"FR","tp":"CS","ts":"2023-04-27T23:26:51Z","tX":520,"tY":376,"tags":{"contact:website":"http://www.rivesdescorbieres.com/","name":"Camping Rives des Corbières","source":"survey 2015; bing","stars":"3"}},"389703337":{"location":[42.8209824,3.0322203],"ct":"FR","tp":"CS","ts":"2016-01-05T13:50:08Z","tX":520,"tY":376,"tags":{"contact:website":"http://www.camping-sabledor66.com/","name":"Le Sable d'Or","source":"survey 2015;bing 2016"}},"475430320":{"location":[42.9583411,2.983293],"ct":"FR","tp":"PK","ts":"2024-10-01T22:18:23Z","tX":520,"tY":376,"tags":{"motorhome":"yes","motorhome:overnight":"yes","parking":"surface"}},"634360331":{"location":[42.9137618,3.0007767],"ct":"FR","tp":"CS","ts":"2018-10-15T19:15:40Z","tX":520,"tY":376,"tags":{"name":"Le Fun"}},"661610338":{"location":[42.8835502,3.0494396],"ct":"FR","tp":"CS","ts":"2024-09-16T19:26:22Z","tX":520,"tY":376,"tags":{"addr:city":"Port-Leucate","addr:country":"FR","addr:place":"Village Ulysse","addr:postcode":"11370","capacity":"85","caravans":"yes","fee":"yes","internet_access":"wlan","landuse":"residential","name":"GCU Port-Leucate","nudism":"yes","operator":"Groupement des Campeurs Universitaires","phone":"+33 4 68 40 19 94","sanitary_dump_station":"customers","stars":"2","static_caravans":"yes","tents":"yes","website":"https://www.gcu.asso.fr/terrains/port-leucate-aude-11","wheelchair":"limited"}},"812891742":{"location":[42.9720532,2.9983799],"ct":"FR","tp":"CS","ts":"2022-10-22T17:46:20Z","tX":520,"tY":376,"tags":{"capacity:tents":"69","caravans":"yes","contact:phone":"+334 68 48 50 40","drinking_water":"yes","name":"Camping Domaine de La Palme","operator":"Flower Campings","power_supply":"yes","shower":"yes","stars":"3","tents":"yes","toilets":"yes","website":"https://www.flowercampings.com/camping-aude/camping-domaine-de-la-palme"}},"919668454":{"location":[42.9029392,3.0494068],"ct":"FR","tp":"CS","ts":"2022-06-01T20:54:14Z","tX":520,"tY":376,"tags":{"access":"private","addr:city":"Leucate","addr:housenumber":"7","addr:postcode":"11370","addr:street":"Avenue de la Ruino","email":"ascee11@orange.fr","name":"Bien Comme Chez Soi","phone":"+33 4 68 40 01 95"}},"919668457":{"location":[42.902051,3.0512439],"ct":"FR","tp":"CS","ts":"2024-11-24T12:54:39Z","tX":520,"tY":376,"tags":{"addr:city":"Leucate","addr:postcode":"11370","addr:street":"Chemin de Mouret","capacity:tents":"260","caravans":"yes","drinking_water":"yes","internet_access":"wlan","name":"Camping Cap Leucate","operator":"Camping Municipal","phone":"+33468400137","power_supply":"yes","sanitary_dump_station":"yes","shower":"yes","stars":"2","tents":"yes","toilets":"yes","website":"https://www.camping-capleucate.com/"}},"926786030":{"location":[42.9339262,3.0307713],"ct":"FR","tp":"CS","ts":"2021-04-06T15:48:41Z","tX":520,"tY":376,"tags":{"contact:mobile":"+336 46 77 16 93","contact:phone":"+334 68 45 73 56","name":"La Sirène"}},"1040619211":{"location":[43.0132295,2.8528585],"ct":"FR","tp":"CR","ts":"2024-10-01T19:52:17Z","tX":520,"tY":376,"tags":{"addr:city":"Villesèque-des-Corbières","addr:postcode":"11360","capacity":"11","caravan_site":"motorhome_stopover","caravan_site:type":"village","charge":"8.35 EUR","dog":"yes","fee":"yes","internet_access":"no","name":"Villesèque-des-Corbières","power_supply":"yes","power_supply:fee":"no","sanitary_dump_station":"yes","water_point":"yes","water_point:fee":"no","website":"https://www.corbieres-salanque-tourisme.com/aire-camping-car/aire-de-services-pour-camping-cars-2/"}},"1054495978":{"location":[42.9010516,3.0514792],"ct":"FR","tp":"CS","ts":"2023-05-19T21:14:10Z","tX":520,"tY":376,"tags":{"email":"capblanc1@hotmail.com","internet_access":"wlan","internet_access:fee":"no","mobile":"+33 6 58 17 96 03","name":"Cap Blanc","nudism":"no","opening_hours":"Mo-Su 08:00-19:00","phone":"+33 6 40 55 56 05","reservation":"required","stars":"3","tents":"yes","website":"https://camping-capblanc.com"}},"1076960275":{"location":[43.0239481,2.9747334],"ct":"FR","tp":"CS","ts":"2024-11-23T17:15:55Z","tX":520,"tY":376,"tags":{"addr:housenumber":"54","addr:postcode":"11130","addr:street":"Avenue de Perpignan","drinking_water":"yes","name":"Ensoya","power_supply":"yes","shower":"yes","toilets":"yes"}},"1154749328":{"location":[42.9299443,2.9657004],"ct":"FR","tp":"CS","ts":"2024-01-22T09:13:41Z","tX":520,"tY":376,"tags":{"name":"Camping Base de vie Éole"}},"1159625743":{"location":[43.0666804,2.9416242],"ct":"FR","tp":"CS","ts":"2023-04-08T13:08:59Z","tX":520,"tY":376,"tags":{"email":"info@campingsigean.com","name":"La Grange Neuve","phone":"+33 4 68 48 58 70","stars":"3","website":"https://campingsigean.com/fr"}},"1319944675":{"location":[42.9794828,3.018318],"ct":"FR","tp":"CR","ts":"2024-10-01T18:31:42Z","tX":520,"tY":376,"tags":{"bbq":"no","capacity":"49","caravan_site":"motorhome_stopover","caravan_site:type":"lake;village","caravans":"no","charge":"14.36 EUR","dog":"leashed","fee":"yes","internet_access":"wlan","internet_access:fee":"no","maxlength":"none","name":"Aire La Palme","network":"CAMPING-CAR PARK","opening_hours":"24/7","operator":"CAMPING-CAR PARK","power_supply":"yes","power_supply:capacity":"48","power_supply:maxcurrent":"6","sanitary_dump_station":"yes","tents":"no","trailer":"yes","water_point":"yes","website":"https://www.campingcarpark.com/fr_FR/sejour/aire-etape-camping-car/occitanie/11-aude/la-palme-salin-de-la-palme"}},"6865808310":{"location":[43.0162891,3.049434],"ct":"FR","tp":"SD","ts":"2023-06-09T10:10:00Z","tX":520,"tY":376,"tags":{"access":"yes","charge":"2 EUR","drinking_water":"yes","fee":"yes","mapillary":"466649344426270","payment":"coins","power_supply":"yes","sanitary_dump_station:basin":"yes","sanitary_dump_station:chemical_toilet":"yes","sanitary_dump_station:grey_water":"yes","water_point":"yes"}},"8305931166":{"location":[42.9498777,2.9724246],"ct":"FR","tp":"SD","ts":"2024-10-01T12:54:29Z","tX":520,"tY":376,"tags":{"access":"yes","fee":"no","name":"Aire de services pour camping-car - La Palme Est","operator":"Station essence AVIA","sanitary_dump_station:basin":"yes","sanitary_dump_station:chemical_toilet":"yes","sanitary_dump_station:grey_water":"yes","water_point":"yes","website":"https://www.audetourisme.com/en/fiche/la-palme/aire-de-services-pour-camping-cars-la-palme-ouest_TFOACCAMLAR0110000B/"}},"9431268422":{"location":[42.8927504,2.9968829],"ct":"FR","tp":"SD","ts":"2024-10-01T18:55:30Z","tX":520,"tY":376,"tags":{"access":"yes","fee":"no","name":"Aire de services camping-cars Hotel Chez Nous","power_supply":"yes","sanitary_dump_station:chemical_toilet":"yes","sanitary_dump_station:grey_water":"yes","water_point":"yes","website":"https://www.audetourisme.com/en/fiche/fitou/aire-de-services-pour-camping-cars-hotel-chez-nous_TFOACCAMLAR011V50KNNO/"}},"9600976051":{"location":[43.0133745,2.8530049],"ct":"FR","tp":"SD","ts":"2022-03-23T19:17:38Z","tX":520,"tY":376,"tags":{"access":"customers","fee":"yes","operator":"Aire CC Villesèque-des-Corbières","water_point":"yes"}}}