{"5191319":{"location":[42.5800344,3.0355533],"ct":"FR","tp":"CS","ts":"2021-04-07T16:11:09Z","tX":520,"tY":377,"tags":{"caravans":"yes","name":"Camping Club le Littoral","operator":"MS Vacances","phone":"+33 2 53 81 70 00","stars":"5","tents":"yes","website":"https://www.ms-vacances.com/camping-club-ms/camping-club-le-littoral/decouvrir-le-club/"}},"11051749":{"location":[42.7098565,3.0357336],"ct":"FR","tp":"CS","ts":"2025-02-28T15:58:27Z","tX":520,"tY":377,"tags":{"addr:city":"Canet-en-Roussillon","addr:postcode":"66140","addr:street":"Avenue des Anneaux du Roussillon","award:accueilvelo":"yes","name":"Camping Le Brasilia","phone":"+33 4 68 80 23 82","stars":"5","website":"http://brasilia.fr"}},"15448619":{"location":[42.7698785,3.0338033],"ct":"FR","tp":"CS","ts":"2023-06-05T05:59:48Z","tX":520,"tY":377,"tags":{"addr:city":"Torreilles","addr:postcode":"66440","caravans":"yes","contact:phone":"+334 68 28 04 07","email":"contact@camping-marisol.fr","name":"Le Marisol","operator":"Siblu","source":"cadastre-dgi-fr source : Direction Générale des Impôts - Cadastre;mise à jour : 2009","stars":"5","tents":"yes","website":"https://siblu.fr"}},"39163323":{"location":[42.6747596,3.0304236],"ct":"FR","tp":"CS","ts":"2020-02-25T15:01:22Z","tX":520,"tY":377,"tags":{"barrier":"wall","name":"Camping Mar Estang"}},"75250137":{"location":[42.5749948,2.9647787],"ct":"FR","tp":"CS","ts":"2025-02-28T16:21:44Z","tX":520,"tY":377,"tags":{"area":"yes","award:accueilvelo":"yes","caravans":"yes","dog":"yes","email":"contact@camping-le-haras.com","fee":"yes","lit":"yes","motorhome":"yes","name":"Le Haras","phone":"+33 4 68 22 14 50","shower":"yes","stars":"4","swimming_pool":"yes","tents":"yes","toilets":"yes","washing_machine":"yes","website":"https://www.camping-le-haras.com/"}},"116569059":{"location":[42.5572494,3.0387764],"ct":"FR","tp":"CS","ts":"2021-04-13T08:31:07Z","tX":520,"tY":377,"tags":{"contact:phone":"+334 68 81 10 63","name":"Camping BeauSéjour","stars":"4","website":"https://campingbeausjour.site-solocal.com/"}},"116577676":{"location":[42.5546033,3.040068],"ct":"FR","tp":"CS","ts":"2025-03-07T13:50:20Z","tX":520,"tY":377,"tags":{"caravans":"yes","contact:email":"camping@les-pins.com","contact:phone":"+334 68 81 10 46","name":"Les Pins","operator":"Sunêlia","stars":"4","tents":"yes","website":"https://www.les-pins.com/"}},"116581212":{"location":[42.5530962,3.0407385],"ct":"FR","tp":"CS","ts":"2021-04-06T17:56:08Z","tX":520,"tY":377,"tags":{"contact:phone":"+334 68 81 28 14","name":"Camping La Chapelle","stars":"4","tents":"no","website":"https://www.camping-la-chapelle.fr"}},"116794677":{"location":[42.5690273,3.0431321],"ct":"FR","tp":"CS","ts":"2023-11-07T19:17:03Z","tX":520,"tY":377,"tags":{"caravans":"yes","contact:email":"camping@ville-argelessurmer.fr","contact:phone":"+334 68 81 10 42","fee":"yes","name":"Le Roussillonnais","operator":"Camping Municipal","stars":"3","tents":"yes","website":"https://www.leroussillonnais.com/"}},"116795547":{"location":[42.5724702,3.0400717],"ct":"FR","tp":"CS","ts":"2021-06-19T21:51:05Z","tX":520,"tY":377,"tags":{"name":"Camping La Marende","phone":"+33 4 68 81 12 09","stars":"4","website":"https://www.marende.com/"}},"116795553":{"location":[42.5724306,3.0377737],"ct":"FR","tp":"CS","ts":"2021-06-19T21:54:29Z","tX":520,"tY":377,"tags":{"name":"Camping del Mar","phone":"+33 4 68 81 10 38","website":"http://camping-del-mar.com"}},"116796562":{"location":[42.5698728,3.0329992],"ct":"FR","tp":"CS","ts":"2015-09-12T22:13:17Z","tX":520,"tY":377,"tags":{"name":"Camping La Marinade","phone":"+33 4 68 81 03 88","website":"http://lamarinade.com"}},"116796565":{"location":[42.5670917,3.0322965],"ct":"FR","tp":"CS","ts":"2018-01-03T10:26:20Z","tX":520,"tY":377,"tags":{"name":"Camping La Licorne"}},"116796566":{"location":[42.5698294,3.0350015],"ct":"FR","tp":"CS","ts":"2015-09-12T22:13:39Z","tX":520,"tY":377,"tags":{"name":"Camping Sol y Mar","phone":"+33 4 68 81 24 21","website":"http://Sol%20Mar66700%20Argel%C3%A8s-sur-Mer%20campingsolymar.fr"}},"116796567":{"location":[42.5687469,3.0326022],"ct":"FR","tp":"CS","ts":"2015-05-26T08:42:39Z","tX":520,"tY":377,"tags":{"name":"Camping Les Pingouins"}},"116797066":{"location":[42.564433,3.0330582],"ct":"FR","tp":"CS","ts":"2024-02-13T14:50:03Z","tX":520,"tY":377,"tags":{"addr:city":"Argelès-sur-Mer","addr:postcode":"66700","addr:street":"Avenue de la Retirada 1939","caravans":"yes","contact:phone":"+33 4 68 81 14 81","name":"Ciela Village","opening_hours":"Mo-Fr 09:00-18:00; Sa 09:00-13:00","operator":"Ciel Village","phone":"+33 4 68 81 14 81","ref:FR:SIRET":"32407908600017","stars":"4","tents":"yes","website":"https://lesmarsouins.cielavillage.fr/"}},"116797068":{"location":[42.5659617,3.0359764],"ct":"FR","tp":"CS","ts":"2019-03-27T09:26:24Z","tX":520,"tY":377,"tags":{"name":"Camping Tohapi Le Neptune","phone":"+33 8 25 00 53 14","website":"https://www.tohapi.fr"}},"116797799":{"location":[42.5683192,3.0296483],"ct":"FR","tp":"CS","ts":"2021-04-07T15:42:58Z","tX":520,"tY":377,"tags":{"caravans":"no","name":"Camping La Sirène","phone":"+33 4 68 81 04 61","stars":"5","tents":"no","website":"http://camping-lasirene.fr"}},"116797801":{"location":[42.5717966,3.0312128],"ct":"FR","tp":"CS","ts":"2021-04-07T15:56:28Z","tX":520,"tY":377,"tags":{"caravans":"no","name":"Camping L'Hippocampe","phone":"+33 4 68 81 10 10","stars":"5","tents":"no","website":"https://www.camping-lasirene.fr/camping-l-hippocampe"}},"116797802":{"location":[42.5722153,3.0279294],"ct":"FR","tp":"CS","ts":"2021-07-13T10:30:48Z","tX":520,"tY":377,"tags":{"name":"Camping Les Jardins Catalans","phone":"+33 2 51 33 05 05","website":"https://www.chadotel.com/fr/camping/pyrenees-orientales/argeles-sur-mer/camping-les-jardins-catalans"}},"116798081":{"location":[42.5730844,3.0248667],"ct":"FR","tp":"CS","ts":"2021-04-07T15:58:24Z","tX":520,"tY":377,"tags":{"caravans":"yes","internet_access":"wlan","internet_access:fee":"no","name":"Camping Les Galets","phone":"+33 4 68 81 08 12","stars":"4","tents":"yes","website":"https://www.campinglesgalets.fr/"}},"116798082":{"location":[42.5735466,3.0140695],"ct":"FR","tp":"CS","ts":"2021-04-07T16:13:17Z","tX":520,"tY":377,"tags":{"caravans":"yes","name":"Camping Le Pearl","phone":"+33 4 68 81 26 49","stars":"4","tents":"yes","website":"https://camping-lepearl.com/"}},"116798084":{"location":[42.5691182,3.0134405],"ct":"FR","tp":"CS","ts":"2023-08-31T19:40:02Z","tX":520,"tY":377,"tags":{"caravans":"yes","drinking_water":"yes","name":"Camping L'Étoile d'Or","phone":"+33 4 68 81 04 34","shower":"yes","stars":"4","tents":"yes","website":"https://aletoiledor.com"}},"116798085":{"location":[42.5714495,3.0197354],"ct":"FR","tp":"CS","ts":"2025-02-28T16:21:44Z","tX":520,"tY":377,"tags":{"addr:street":"Route de Taxo à la Mer","award:accueilvelo":"yes","caravans":"yes","dog":"yes","fee":"yes","lit":"yes","motorhome":"yes","name":"Camping Le Dauphin","phone":"+33 4 68 81 17 54","shower":"yes","stars":"5","swimming_pool":"yes","tents":"yes","toilets":"yes","washing_machine":"yes","website":"https://www.campingledauphin.com"}},"116798086":{"location":[42.5707578,3.0080546],"ct":"FR","tp":"CS","ts":"2019-03-27T09:26:12Z","tX":520,"tY":377,"tags":{"name":"Camping Taxo Les Pins","phone":"+33 4 68 81 06 05","stars":"4","website":"https://taxo-les-pins.com/"}},"116798270":{"location":[42.5737125,2.9976315],"ct":"FR","tp":"CS","ts":"2015-05-26T09:05:51Z","tX":520,"tY":377,"tags":{"name":"Camping Saint-André"}},"116798272":{"location":[42.5732029,3.0002601],"ct":"FR","tp":"CS","ts":"2024-01-29T05:21:40Z","tX":520,"tY":377,"tags":{"name":"Camping La Roseraie","phone":"+33 4 68 81 17 03","website":"https://www.camping-la-roseraie.fr/"}},"116811917":{"location":[42.568332,3.0101574],"ct":"FR","tp":"CS","ts":"2015-05-26T08:42:40Z","tX":520,"tY":377,"tags":{"name":"Camping Le Flamenco"}},"116811918":{"location":[42.569462,3.002717],"ct":"FR","tp":"CS","ts":"2015-09-12T22:13:23Z","tX":520,"tY":377,"tags":{"name":"Camping Le Texas","phone":"+33 4 68 81 00 17","website":"http://CAMPING%20LE%20TEXASRue%20Bernard%20B%C3%A9renger66700%20Argel%C3%A8s-sur-Mer%20camping-letexas.fr"}},"116811920":{"location":[42.565697,3.0117059],"ct":"FR","tp":"CS","ts":"2017-09-16T02:01:53Z","tX":520,"tY":377,"tags":{"landuse":"residential","name":"Odalys Résidence-Club Villas Les Albères","phone":"+33 4 68 95 31 31","tourism_1":"caravan_site","tourism_2":"apartment","website":"http://66700%20Argel%C3%A8s-sur-Mer%20Domaine%20de%20plein%20air%20-%20Camping%20Odalys%20Les%20Alb%C3%A8resChemin%20de%20Negue%20Bous66700%20Argel%C3%A8s-sur-Mer%20odalys-vacances.com"}},"121727245":{"location":[42.5980025,3.0400379],"ct":"FR","tp":"CS","ts":"2021-10-27T23:12:27Z","tX":520,"tY":377,"tags":{"contact:phone":"+334 68 21 07 12","name":"Cala Gogo","website":"https://www.camping-le-calagogo.fr/"}},"128057736":{"location":[42.7696477,3.0302384],"ct":"FR","tp":"CS","ts":"2024-08-20T20:58:55Z","tX":520,"tY":377,"tags":{"caravans":"yes","contact:phone":"+334 68 28 05 09","contact:website":"http://www.campinglestropiques.com/","internet_access":"wlan","name":"Camping les Tropiques","operator":"Yelloh!","source":"cadastre-dgi-fr source : Direction Générale des Impôts - Cadastre ; mise à jour : 2009","stars":"4","tents":"yes"}},"141754209":{"location":[42.7792748,3.0290032],"ct":"FR","tp":"CS","ts":"2023-05-13T17:37:07Z","tX":520,"tY":377,"tags":{"contact:website":"https://floride.fr/","name":"Le Floride"}},"141754220":{"location":[42.7847297,3.0238201],"ct":"FR","tp":"CS","ts":"2019-06-03T22:17:41Z","tX":520,"tY":377,"tags":{"addr:street":"Avenue des Corbières","alt_name":"La Salanque","backcountry":"no","camp_site":"deluxe","caravans":"yes","contact:email":"lasbousigues@franceloc.fr","contact:fax":"+33468862844","contact:website":"http://www.camping-barcares.com/","dog":"fee","internet_access":"yes","internet_access:fee":"no","name":"Las Bousigues","stars":"4","tents":"yes","washing_machine":"yes"}},"141754242":{"location":[42.7775143,3.0215823],"ct":"FR","tp":"CS","ts":"2023-05-13T22:11:59Z","tX":520,"tY":377,"tags":{"contact:website":"https://www.camping-oasis.com","name":"California","stars":"4"}},"141754243":{"location":[42.7812097,3.0239952],"ct":"FR","tp":"CS","ts":"2023-05-13T17:37:07Z","tX":520,"tY":377,"tags":{"contact:website":"https://www.precatalan.com","name":"Le Pré Catalan","stars":"4"}},"141754250":{"location":[42.7768475,3.0194196],"ct":"FR","tp":"CS","ts":"2023-05-13T22:11:59Z","tX":520,"tY":377,"tags":{"contact:website":"https://www.ms-vacances.com/camping-club-ms/camping-club-les-tamaris/","description":"travaux en 2020-2021 de reamenagement car extension du camping d'a cote","name":"Les Tamaris","old_name":"Camping Le Cers","operator":"MS Vacances","stars":"5"}},"141754251":{"location":[42.7789095,3.033114],"ct":"FR","tp":"CS","ts":"2014-10-25T18:55:49Z","tX":520,"tY":377,"tags":{"name":"L'Embouchure"}},"141754256":{"location":[42.7782169,3.0278139],"ct":"FR","tp":"CS","ts":"2023-05-13T22:20:26Z","tX":520,"tY":377,"tags":{"contact:website":"https://www.lacroixdusud.fr","name":"La Croix du Sud","stars":"4"}},"141754268":{"location":[42.7849869,3.0201415],"ct":"FR","tp":"CS","ts":"2019-06-03T22:17:41Z","tX":520,"tY":377,"tags":{"camp_site":"deluxe","contact:website":"http://www.camping-barcares.com/","name":"Las Bousigues - Secteur Gaufrette","old_name":"Le Bahia Club"}},"141754275":{"location":[42.7785558,3.0245057],"ct":"FR","tp":"CS","ts":"2023-05-13T22:11:59Z","tX":520,"tY":377,"tags":{"contact:website":"https://www.camping-oasis.com","name":"L'Oasis Campîng","stars":"4"}},"141754277":{"location":[42.7751911,3.0246612],"ct":"FR","tp":"CS","ts":"2023-05-13T22:11:59Z","tX":520,"tY":377,"tags":{"contact:website":"https://www.naia-village.eu/","internet_access":"wlan","internet_access:fee":"no","name":"Nai’a Village - Camping Paradis","old_name":"Camping L'Europe;Le Soleil Bleu"}},"143790691":{"location":[42.6376955,2.9002021],"ct":"FR","tp":"CS","ts":"2023-05-19T12:25:28Z","tX":520,"tY":377,"tags":{"email":"camping.villeneuveraho@orange.fr","fax":"+33468558637","name":"Les Rives du Lac","phone":"+33468558351","stars":"2","wheelchair":"yes"}},"168821323":{"location":[42.7276165,3.0254355],"ct":"FR","tp":"CS","ts":"2023-03-21T22:46:09Z","tX":520,"tY":377,"tags":{"name":"Le Lamparo","stars":"3"}},"173567455":{"location":[42.5636008,3.0167278],"ct":"FR","tp":"CS","ts":"2021-04-13T09:52:09Z","tX":520,"tY":377,"tags":{"addr:street":"Chemin de Neguebous","caravans":"no","contact:phone":"+331 76 34 00 14","name":"Village vacances Les Abricotiers","operator":"Popinns","tents":"no","website":"https://abricotiers.popinns.com"}},"182779335":{"location":[42.6052016,2.990136],"ct":"FR","tp":"CS","ts":"2024-05-14T08:09:04Z","tX":520,"tY":377,"tags":{"name":"Le Florida","operator":"Sunêlia","phone":"+33 4 68 37 80 88","stars":"5","website":"https://www.campingleflorida.com"}},"182819739":{"location":[42.6248654,3.0001413],"ct":"FR","tp":"CS","ts":"2023-08-21T11:32:18Z","tX":520,"tY":377,"tags":{"internet_access":"yes","name":"Camping Le Bosc d'en Roug"}},"187522890":{"location":[42.6231522,3.0251328],"ct":"FR","tp":"CS","ts":"2022-12-28T09:41:02Z","tX":520,"tY":377,"tags":{"name":"Le Soleil de la Méditerranée","phone":"+33468210797","source":"http://www.camping-soleil-mediterranee.com/","website":"https://www.camping-soleil-mediterranee.com/"}},"228161272":{"location":[42.7084936,3.0317285],"ct":"FR","tp":"CS","ts":"2024-08-28T08:51:08Z","tX":520,"tY":377,"tags":{"addr:city":"Canet-en-Roussillon","addr:postcode":"66140","addr:street":"Avenue des Anneaux du Roussillon","name":"Camping Marvilla Parks - La Marina de Canet","phone":"+33 1 59 00 05 95","stars":"3","website":"https://www.marina-de-canet.com/"}},"289011556":{"location":[42.5780821,3.0408577],"ct":"FR","tp":"CS","ts":"2021-06-19T21:51:05Z","tX":520,"tY":377,"tags":{"fee":"yes","name":"Le Soleil","phone":"+33 4 68 81 42 38","stars":"5","website":"https://www.campmed.com/camping-a-argeles/camping-soleil-argeles/"}},"292818237":{"location":[42.602622,2.9145486],"ct":"FR","tp":"CS","ts":"2020-02-01T11:54:19Z","tX":520,"tY":377,"tags":{"addr:city":"Montescot","addr:postcode":"66200","addr:street":"Route de Bages","name":"La Mignane","phone":"+33 4 68 21 00 97","website":"http://campingaucalme.com/"}},"309968973":{"location":[42.7649576,3.033984],"ct":"FR","tp":"CS","ts":"2024-08-20T20:58:55Z","tX":520,"tY":377,"tags":{"addr:city":"Torreilles","addr:housenumber":"1647","addr:place":"El Marenda Gros","addr:postcode":"66440","area":"yes","backcountry":"no","caravans":"yes","contact:phone":"+334 82 75 10 42","group_only":"no","internet_access":"wlan","name":"Les Dunes","name:ca":"Les Dunes","operator":"Marvilla Parks","source":"cadastre-dgi-fr source : Direction Générale des Impôts - Cadastre;mise à jour : 2009","stars":"5","static_caravans":"yes","tents":"yes","website":"https://www.camping-lesdunes.fr"}},"309968974":{"location":[42.7645711,3.0287811],"ct":"FR","tp":"CS","ts":"2021-05-15T15:07:09Z","tX":520,"tY":377,"tags":{"caravans":"yes","contact:phone":"+334 68 28 20 64","contact:website":"http://www.camping-torreilles.fr/","name":"La Palmeraie","operator":"Marvilla Parks","stars":"4","tents":"yes"}},"309968975":{"location":[42.7670594,3.02534],"ct":"FR","tp":"CS","ts":"2014-10-27T20:18:45Z","tX":520,"tY":377,"tags":{"name":"Le Trivoly"}},"322924996":{"location":[42.5688582,3.0258462],"ct":"FR","tp":"CS","ts":"2021-04-07T15:42:58Z","tX":520,"tY":377,"tags":{"caravans":"no","name":"Le Méditerranée","phone":"+33 4 68 81 00 95","stars":"5","tents":"no","website":"https://www.lemediterranee-argeles.fr"}},"322924998":{"location":[42.5588933,3.0240387],"ct":"FR","tp":"CS","ts":"2023-04-29T20:34:15Z","tX":520,"tY":377,"tags":{"caravans":"no","contact:email":"contact@campingclosduthym.com","name":"Camping Clos du Thym","phone":"+33 4 68 81 24 23","stars":"3","tents":"no","website":"https://www.campingclosduthym.com"}},"327962135":{"location":[42.6726455,2.9817188],"ct":"FR","tp":"CS","ts":"2021-03-31T08:11:03Z","tX":520,"tY":377,"tags":{"name":"Étang Mer et Soleil"}},"327972488":{"location":[42.6880689,2.9993527],"ct":"FR","tp":"CS","ts":"2025-03-06T16:04:41Z","tX":520,"tY":377,"tags":{"award:accueilvelo":"yes","name":"Les Fontaines"}},"347708113":{"location":[42.559501,3.0198448],"ct":"FR","tp":"CS","ts":"2022-05-26T22:19:45Z","tX":520,"tY":377,"tags":{"addr:street":"Chemin de Neguebous","caravans":"no","name":"Argelès Vacances","operator":"Maeva","phone":"+33 4 68 95 27 27","stars":"4","tents":"no","website":"https://www.camping-argeles-vacances.com/"}},"348534971":{"location":[42.565809,3.0007263],"ct":"FR","tp":"CS","ts":"2023-11-07T19:17:07Z","tX":520,"tY":377,"tags":{"name":"Camping le Canigou","phone":"+33 4 68 81 02 55","website":"https://camping-lecanigou.com/"}},"348534972":{"location":[42.5661201,2.9998651],"ct":"FR","tp":"CS","ts":"2024-07-01T07:51:49Z","tX":520,"tY":377,"tags":{"name":"Camping Al Sol","website":"https://campingalsol.com/"}},"352339057":{"location":[42.7680834,3.0268995],"ct":"FR","tp":"CS","ts":"2021-05-15T15:09:46Z","tX":520,"tY":377,"tags":{"caravans":"yes","contact:phone":"+334 68 28 09 47","contact:website":"http://www.camping-calypso.com/","internet_access":"wlan","internet_access:fee":"no","name":"Camping Le Calypso","source":"cadastre-dgi-fr source : Direction Générale des Impôts - Cadastre ; mise à jour : 2009","stars":"5","tents":"yes","wheelchair":"yes"}},"367457670":{"location":[42.6193763,3.0165632],"ct":"FR","tp":"CS","ts":"2022-12-28T09:41:02Z","tX":520,"tY":377,"tags":{"name":"Le Roussillon","operator":"Chadotel","operator:type":"private","phone":"+33 4 68 21 06 45","stars":"4","website":"https://www.chadotel.com/camping-le-roussillon-saint-cyprien/"}},"386207131":{"location":[42.6173527,3.0347114],"ct":"FR","tp":"CR","ts":"2024-08-18T22:23:30Z","tX":520,"tY":377,"tags":{"capacity":"56","caravan_site":"motorhome_stopover","caravan_site:type":"harbour","charge":"14.30 EUR","fee":"yes","name":"Aire camping-cars de Saint-Cyprien","opening_hours":"24/7","power_supply":"yes","sanitary_dump_station":"yes","seasonal":"no","surface":"asphalt","water_point":"yes","website":"https://en.tourisme-saint-cyprien.com/hebergements/aires-de-camping-car/aire-d-accueil-et-de-stationnement-camping-cars-de-saint-cyprien"}},"459888905":{"location":[42.7123239,3.0312193],"ct":"FR","tp":"CS","ts":"2025-02-28T15:58:27Z","tX":520,"tY":377,"tags":{"award:accueilvelo":"yes","cabins":"yes","caravans":"yes","contact:website":"https://www.campinglesaintemarie.com","name":"Le Sainte-Marie","phone":"+33 4 68 804 810","shower":"yes","stars":"4","tents":"yes","toilets":"yes"}},"465900443":{"location":[42.730481,3.0285975],"ct":"FR","tp":"CS","ts":"2023-08-17T11:07:47Z","tX":520,"tY":377,"tags":{"caravans":"yes","drinking_water":"no","group_only":"yes","internet_access":"wlan","internet_access:fee":"yes","name":"Camping RATP - Le Pas del Fang","nudism":"no","operator":"CSCE RATP","power_supply":"yes","reservation":"members_only","shower":"yes","tents":"no","toilets":"yes","wheelchair":"designated"}},"482315409":{"location":[42.7000526,2.998632],"ct":"FR","tp":"CS","ts":"2025-02-28T15:58:27Z","tX":520,"tY":377,"tags":{"addr:housenumber":"1","addr:postcode":"66140","addr:street":"Avenue des Coteaux","award:accueilvelo":"yes","internet_access":"wlan","name":"Ma Prairie","operator":"Sunêlia","stars":"4","website":"https://www.maprairie.com/"}},"484580853":{"location":[42.6727832,2.9905477],"ct":"FR","tp":"CS","ts":"2025-03-06T16:04:41Z","tX":520,"tY":377,"tags":{"award:accueilvelo":"yes","name":"Les Flamants Roses"}},"488711488":{"location":[42.7273977,3.0324352],"ct":"FR","tp":"CS","ts":"2017-04-22T16:40:00Z","tX":520,"tY":377,"tags":{"name":"La Pergola","website":"http://pergola.camp-atlantique.com/fr"}},"488711489":{"location":[42.7271325,3.0340967],"ct":"FR","tp":"CS","ts":"2017-04-22T16:40:00Z","tX":520,"tY":377,"tags":{"name":"La Pergola","website":"http://pergola.camp-atlantique.com/fr"}},"619169463":{"location":[42.7413291,3.034085],"ct":"FR","tp":"CS","ts":"2020-07-30T19:42:43Z","tX":520,"tY":377,"tags":{"name":"Palais de la Mer"}},"619169464":{"location":[42.7400374,3.0351099],"ct":"FR","tp":"CS","ts":"2023-03-21T22:46:09Z","tX":520,"tY":377,"tags":{"alt_name":"Camping municipal de la Plage","cabins":"yes","caravans":"yes","name":"Camping de la Plage","phone":"+33 4 68 80 68 59","shower":"yes","stars":"4","tents":"yes","toilets":"yes","website":"https://www.camping-municipal-de-la-plage.com/"}},"684658025":{"location":[42.732737,3.0250988],"ct":"FR","tp":"CR","ts":"2024-05-27T13:36:42Z","tX":520,"tY":377,"tags":{"caravan_site":"motorhome_stopover","caravan_site:type":"beach","caravans":"no","charge":"11 EUR","charge:conditional":"7.5 EUR @ (Sep-Jun)","dog":"leashed","fee":"yes","maxstay":"89 days","motorhome":"yes","name":"Night4CampingCar","opening_hours":"24/7","power_supply":"yes","power_supply:maxcurrent":"16","sanitary_dump_station":"yes","seasonal":"no","shower":"yes","tents":"no","toilets":"yes","website":"https://www.night4campingcar.com/f"}},"694592908":{"location":[42.8016068,3.0330707],"ct":"FR","tp":"CR","ts":"2024-05-13T13:24:01Z","tX":520,"tY":377,"tags":{"capacity":"111","caravan_site":"motorhome_stopover","caravan_site:type":"harbour","charge":"14 EUR","fee":"yes","internet_access":"wlan","name":"Barcarès le Port","opening_hours":"24/7","picnic_area":"yes","power_supply":"yes","power_supply:maxcurrent":"6","sanitary_dump_station":"yes","water_point":"yes"}},"694592950":{"location":[42.8048565,3.0286474],"ct":"FR","tp":"CS","ts":"2020-11-19T16:13:50Z","tX":520,"tY":377,"tags":{"contact:website":"https://www.lapresquile.com","internet_access":"wlan","name":"Camping La Presqu'Île","stars":"4"}},"810175785":{"location":[42.5598921,3.0008531],"ct":"FR","tp":"CS","ts":"2021-06-19T20:01:16Z","tX":520,"tY":377,"tags":{"access":"customers","addr:city":"Argelès-sur-Mer","addr:postcode":"66700","addr:street":"Chemin de Saint André","name":"La pinède enchantée","phone":"+33 4 68 82 11 29","website":"https://www.camping-la-pinede-enchantee.com"}},"832351084":{"location":[42.7392917,3.0292282],"ct":"FR","tp":"CS","ts":"2020-07-30T19:42:43Z","tX":520,"tY":377,"tags":{"name":"Palais de la Mer"}},"980177082":{"location":[42.6378731,2.985006],"ct":"FR","tp":"CS","ts":"2022-12-10T18:02:45Z","tX":520,"tY":377,"tags":{"contact:phone":"+33 4 68 22 17 26","contact:website":"https://www.camping-capsud.com/","mobile":"+33 6 15 67 48 14","name":"Cap Sud","name:ca":"Cap Sud"}},"980177083":{"location":[42.6363706,2.9858432],"ct":"FR","tp":"CR","ts":"2024-07-02T10:19:20Z","tX":520,"tY":377,"tags":{"capacity":"36","caravan_site":"motorhome_stopover","caravan_site:type":"beach","caravans":"no","charge":"16.60 EUR","charge:conditional":"14.60 EUR@(Oct-Apr)","dog":"leashed","fee":"yes","internet_access":"wlan","internet_access:fee":"no","maxlength":"none","name":"La Colomine del Mar","network":"CAMPING-CAR PARK","opening_hours":"24/7","power_supply":"yes","power_supply:capacity":"36","sanitary_dump_station":"yes","tents":"no","trailer":"yes","water_point":"yes","water_point:fee":"no","website":"https://www.campingcarpark.com/fr_FR/sejour/aire-etape-camping-car/occitanie/66-pyrenees-orientales/alenya-la-colomine-del-mar"}},"1076359442":{"location":[42.7082698,3.0093272],"ct":"FR","tp":"CR","ts":"2024-08-18T16:48:58Z","tX":520,"tY":377,"tags":{"capacity":"46","caravan_site":"motorhome_stopover","caravan_site:type":"town","charge":"15.80 EUR","dog":"yes","fee":"yes","name":"Aire des Oliviers","opening_hours":"24/7","power_supply":"yes","reservation":"yes","sanitary_dump_station":"yes","water_point":"yes","website":"https://www.tourisme-pyreneesorientales.com/aire-de-camping-car-les-oliviers/canet-en-roussillon/accamlar066v51qydg"}},"1096201796":{"location":[42.5565335,3.0298796],"ct":"FR","tp":"CS","ts":"2024-07-01T07:51:36Z","tX":520,"tY":377,"tags":{"caravans":"yes","name":"Camping de Pujol","phone":"+33 4 68 81 00 25","stars":"3","tents":"yes","website":"https://www.campingdepujol.com/"}},"1128065775":{"location":[42.6114808,2.9826017],"ct":"FR","tp":"CS","ts":"2025-01-01T14:53:54Z","tX":520,"tY":377,"tags":{"email":"elmoli@capfun.com","name":"El Moli","name:ca":"El Molí","phone":"+33 4 68 22 08 46","stars":"3","website":"https://www.camping-el-moli.com/"}},"1156163167":{"location":[42.7272323,3.0273072],"ct":"FR","tp":"CS","ts":"2023-03-21T22:46:09Z","tX":520,"tY":377,"tags":{"email":"valerie.prim@orange.fr","name":"Les Chardonnerets","phone":"+33 4 68 52 55 04"}},"1156163168":{"location":[42.7328041,3.0305395],"ct":"FR","tp":"CS","ts":"2023-03-21T22:46:09Z","tX":520,"tY":377,"tags":{"capacity":"129","caravans":"yes","name":"Le Florida","phone":"+33 4 68 80 47 25","shower":"yes","tents":"yes","toilets":"yes","website":"http://www.camping-le-florida.fr/"}},"1268338482":{"location":[42.5914835,2.9810942],"ct":"FR","tp":"CR","ts":"2024-04-02T10:14:46Z","tX":520,"tY":377,"tags":{"bbq":"no","capacity":"49","caravan_site":"motorhome_stopover","caravan_site:type":"beach","caravans":"no","charge":"15.72 EUR","charge:conditional":"14.32@(Oct-Apr)","dog":"leashed","fee":"yes","internet_access":"wlan","internet_access:fee":"no","maxlength":"none","name":"Aire CAMPING-CAR PARK d'Elne","network":"CAMPING-CAR PARK","power_supply":"yes","power_supply:maxcurrent":"6","sanitary_dump_station":"yes","tents":"no","toilets":"no","trailer":"yes","water_point":"yes"}},"1281655957":{"location":[42.5757432,3.0431392],"ct":"FR","tp":"CR","ts":"2024-08-18T22:12:19Z","tX":520,"tY":377,"tags":{"bbq":"no","capacity":"21","caravan_site":"motorhome_stopover","caravan_site:type":"river","caravans":"no","charge":"15.06 EUR","charge:conditional":"13.76 @ (Oct-Mar)","dog":"leashed","fee":"yes","internet_access":"wlan","internet_access:fee":"no","maxlength":"none","name":"Aire Argelès, Aire du Soleil","network":"CAMPING-CAR PARK","opening_hours":"Sep-Jun","operator":"CAMPING-CAR PARK","power_supply":"yes","power_supply:capacity":"42","power_supply:maxcurrent":"6","sanitary_dump_station":"yes","seasonal":"yes","surface":"asphalt","tents":"no","toilets":"no","trailer":"no","water_point":"yes","website":"https://www.campingcarpark.com/fr_FR/sejour/aire-etape-camping-car/occitanie/66-pyrenees-orientales/argeles-aire-du-soleil"}},"1287078148":{"location":[42.7336433,3.0230655],"ct":"FR","tp":"CR","ts":"2024-05-27T13:36:42Z","tX":520,"tY":377,"tags":{"caravan_site":"motorhome_stopover","caravan_site:type":"beach","caravans":"no","charge":"11 EUR","charge:conditional":"7.5 EUR @ (Sep-Jun)","dog":"leashed","email":"contact@night4campingcar.com","fee":"yes","internet_access":"wlan","maxstay":"89 days","name":"night4campingcar P2","opening_hours":"24/7","phone":"+33 7 60 22 92 18","power_supply":"yes","power_supply:maxcurrent":"16","sanitary_dump_station":"yes","seasonal":"no","shower":"yes","tents":"no","toilets":"yes","water_point":"yes","website":"http://night4campingcar.com/fr/"}},"1307545628":{"location":[42.6003327,3.0060388],"ct":"FR","tp":"CR","ts":"2024-08-13T17:58:02Z","tX":520,"tY":377,"tags":{"alt_name":"La Négada","capacity":"40","caravan_site":"motorhome_stopover","caravan_site:type":"village","email":"campingcarroussillon@free.fr","fee":"yes","internet_access":"wlan","name":"Aire de St Cyprien/ Latour bas Elne","operator:type":"private","phone":"+33 4 68 22 39 00","power_supply":"yes","sanitary_dump_station":"customers","website":"http://www.airedestcyprienlatourbaselne.com/"}},"3541174573":{"location":[42.5576191,3.0312675],"ct":"FR","tp":"CS","ts":"2022-09-20T06:52:34Z","tX":520,"tY":377,"tags":{"name":"Camping Paris Roussillon","phone":"+33 4 68 81 19 71","website":"http://parisroussillon.com"}},"3581043135":{"location":[42.767972,3.0303033],"ct":"FR","tp":"SD","ts":"2015-06-08T16:22:12Z","tX":520,"tY":377,"tags":{}},"5111525355":{"location":[42.5797008,2.8461749],"ct":"FR","tp":"SD","ts":"2017-09-17T19:00:07Z","tX":520,"tY":377,"tags":{"fee":"no"}},"8000704768":{"location":[42.8017004,3.0337796],"ct":"FR","tp":"SD","ts":"2020-10-12T16:24:54Z","tX":520,"tY":377,"tags":{}},"8000704769":{"location":[42.8013855,3.0330648],"ct":"FR","tp":"SD","ts":"2020-10-12T16:24:54Z","tX":520,"tY":377,"tags":{}},"10618548800":{"location":[42.7676825,3.0321896],"ct":"FR","tp":"SD","ts":"2023-02-08T11:58:27Z","tX":520,"tY":377,"tags":{}},"11304647528":{"location":[42.801472,3.0339735],"ct":"FR","tp":"SD","ts":"2023-11-01T14:34:29Z","tX":520,"tY":377,"tags":{}},"11465535169":{"location":[42.5799668,2.8466907],"ct":"FR","tp":"SD","ts":"2023-12-29T12:05:04Z","tX":520,"tY":377,"tags":{"fee":"no"}},"12156215238":{"location":[42.5799509,2.8466881],"ct":"FR","tp":"SD","ts":"2024-09-04T19:31:25Z","tX":520,"tY":377,"tags":{"fee":"no"}}}