{"8323283":{"location":[42.4017339,3.1502615],"ct":"ES","tp":"CS","ts":"2022-11-26T03:39:28Z","tX":520,"tY":378,"tags":{"name":"Càmping Sant Miquel","name:ca":"Càmping Sant Miquel","phone":"+34 972 38 90 18","stars":"4","website":"https://www.yellohvillage-santmiquel.com"}},"14531178":{"location":[42.3717505,3.1535005],"ct":"ES","tp":"CS","ts":"2023-05-16T17:50:14Z","tX":520,"tY":378,"tags":{"email":"info@campinglombra.com","mobile":"+34 619 360 520","name":"Càmping L'Ombra","name:ca":"Càmping L'Ombra","opening_hours":"Jan-Dec","phone":"+34 972 38 03 35","website":"https://www.campinglombra.com"}},"26861007":{"location":[42.373056,2.913056],"ct":"ES","tp":"CS","ts":"2022-11-28T01:00:33Z","tX":520,"tY":378,"tags":{"addr:postcode":"17750","addr:street":"Carrer Ventador","name":"L'Albera","name:ca":"L'Albera","name:en":"Camping L’Albera","phone":"+34 972 54 91 92"}},"71293626":{"location":[42.4778896,3.1186939],"ct":"FR","tp":"CS","ts":"2025-02-28T16:21:44Z","tX":520,"tY":378,"tags":{"addr:city":"Banyuls-sur-Mer","addr:housenumber":"2","addr:postcode":"66650","addr:street":"Route du Mas Reig","award:accueilvelo":"yes","name":"Camping Municipal - La Pinède","phone":"+33 4 68 88 32 13","source":"cadastre-dgi-fr source : Direction Générale des Impôts - Cadastre. Mise à jour : 2010","website":"https://www.campinglapinede-banyuls.com/"}},"75612346":{"location":[42.5341744,2.9959751],"ct":"FR","tp":"CS","ts":"2025-01-07T15:12:24Z","tX":520,"tY":378,"tags":{"addr:city":"Argelès-sur-mer","addr:postcode":"66700","addr:street":"Route de Sorède","name":"Le Bois Fleuri","opening_hours":"Mo-Fr 08:30-12:00, 13:30-17:00"}},"87209314":{"location":[42.4667051,2.8581026],"ct":"FR","tp":"PK","ts":"2024-01-25T13:09:01Z","tX":520,"tY":378,"tags":{"capacity":"300","caravan":"yes","fee":"yes","motorhome":"yes","parking":"surface","surface":"asphalt"}},"116595085":{"location":[42.5450539,3.0443445],"ct":"FR","tp":"CS","ts":"2025-02-28T16:21:44Z","tX":520,"tY":378,"tags":{"award:accueilvelo":"yes","caravans":"no","contact:phone":"+33 4 68 81 10 82","name":"La Sardane","stars":"4","tents":"no","website":"https://www.campinglasardane.fr/"}},"116595087":{"location":[42.54686,3.0445967],"ct":"FR","tp":"CS","ts":"2021-04-06T16:13:56Z","tX":520,"tY":378,"tags":{"addr:street":"avenue du Grau","caravans":"yes","contact:email":"frontdemer66@gmail.com","name":"Le Front de Mer","phone":"+33 4 68 81 08 70","stars":"4","tents":"yes","website":"https://camping-front-mer.com/"}},"116615196":{"location":[42.5497073,3.0424976],"ct":"FR","tp":"CS","ts":"2025-03-14T16:40:42Z","tX":520,"tY":378,"tags":{"caravans":"yes","contact:phone":"+334 68 81 12 17","name":"La Plage","stars":"3","tents":"yes","website":"https://www.laplage-argeles.fr"}},"116615199":{"location":[42.5496773,3.0456321],"ct":"FR","tp":"CS","ts":"2021-04-06T16:12:36Z","tX":520,"tY":378,"tags":{"caravans":"yes","contact:email":"contact@campingcatalan.com","name":"Catalan","phone":"+33 4 68 81 12 26","stars":"2","tents":"yes","website":"https://www.campingcatalan.com/"}},"116615200":{"location":[42.5511764,3.0453488],"ct":"FR","tp":"CS","ts":"2023-11-07T19:17:10Z","tX":520,"tY":378,"tags":{"capacity:tents":"68","caravans":"yes","contact:phone":"+334 68 81 11 75","name":"Camping Bouix","stars":"3","tents":"yes","website":"https://www.campingbouix-argeles.com/"}},"116615506":{"location":[42.5505639,3.042039],"ct":"FR","tp":"CS","ts":"2015-05-26T08:42:36Z","tX":520,"tY":378,"tags":{"name":"Camping Les Prairies Saint-Rémy"}},"116615509":{"location":[42.5507476,3.0430126],"ct":"FR","tp":"CS","ts":"2025-03-14T16:40:42Z","tX":520,"tY":378,"tags":{"capacity:tents":"75","contact:phone":"+334 68 81 27 88","name":"Camping Les Acacias","stars":"3"}},"116615512":{"location":[42.5504434,3.041135],"ct":"FR","tp":"CS","ts":"2021-04-06T16:24:08Z","tX":520,"tY":378,"tags":{"capacity:tents":"91","caravans":"yes","contact:phone":"+334 68 81 08 10","name":"Camping de l'Europe","stars":"3","tents":"yes","website":"https://camping-europe.net"}},"116690603":{"location":[42.5518549,3.0410847],"ct":"FR","tp":"CS","ts":"2023-06-24T18:16:07Z","tX":520,"tY":378,"tags":{"name":"Camping Les Ombrages"}},"116690605":{"location":[42.5519911,3.0441268],"ct":"FR","tp":"CS","ts":"2021-04-06T16:32:21Z","tX":520,"tY":378,"tags":{"capacity:tents":"90","name":"Camping Comanges","stars":"3"}},"116690606":{"location":[42.5519917,3.0435456],"ct":"FR","tp":"CS","ts":"2021-04-06T16:32:21Z","tX":520,"tY":378,"tags":{"capacity:tents":"85","contact:phone":"+334 68 81 17 91","name":"Camping Les Peupliers","stars":"3"}},"116700847":{"location":[42.5373926,3.051945],"ct":"FR","tp":"CS","ts":"2024-01-08T11:31:45Z","tX":520,"tY":378,"tags":{"caravans":"no","contact:email":"contact@camping-boisdevalmarie.fr","contact:phone":"+334 68 81 04 61","name":"Le Bois de Valmarie","stars":"5","tents":"no","website":"https://www.camping-boisdevalmarie.fr/"}},"116701513":{"location":[42.5342976,3.0702785],"ct":"FR","tp":"CS","ts":"2022-01-09T13:05:49Z","tX":520,"tY":378,"tags":{"caravans":"yes","contact:email":"contactcdp@lescriques.com","contact:phone":"+334 68 81 12 73","name":"Les Criques de Porteils","stars":"5","tents":"yes","website":"https://www.lescriques.fr/"}},"116702386":{"location":[42.5329842,3.0516944],"ct":"FR","tp":"CS","ts":"2024-08-18T22:12:19Z","tX":520,"tY":378,"tags":{"name":"La Coste Rouge"}},"116823884":{"location":[42.5317244,3.0724173],"ct":"FR","tp":"CS","ts":"2022-01-09T13:05:49Z","tX":520,"tY":378,"tags":{"addr:city":"Collioure","addr:country":"FR","addr:postcode":"66190","addr:street":"Chemin de l'Olla","email":"contact@camping-les-amandiers.com","fax":"+33 4 68 81 09 95","internet_access":"wlan","name":"Camping Les Amandiers","phone":"+33 4 68 81 14 69","stars":"2","website":"http://www.camping-les-amandiers.com","wheelchair":"no"}},"256590384":{"location":[42.3617315,3.1465378],"ct":"ES","tp":"CR","ts":"2023-12-28T11:19:18Z","tX":520,"tY":378,"tags":{"agricultural":"private","description":"Es un aparcament de terra que fan servir les autocaravanes sense serveis ni cap indicació espècia","fee":"no","internet_access":"no","name":"Regular Parking With Space For rV","permanent_camping":"no","sanitary_dump_station":"no","toilets":"no"}},"312138553":{"location":[42.5352721,2.9599692],"ct":"FR","tp":"CS","ts":"2024-03-02T20:58:05Z","tX":520,"tY":378,"tags":{"cabins":"yes","caravans":"yes","contact:city":"Sorède","contact:housenumber":"27","contact:postcode":"66690","contact:street":"Rue du Coscolleda","name":"La Coscolleda","phone":"+33468891665","shower":"yes","source":"Bing","stars":"3","tents":"yes","toilets":"yes","website":"https://www.camping-lacoscolleda.com/"}},"312138554":{"location":[42.5344768,2.9575236],"ct":"FR","tp":"CS","ts":"2022-05-27T17:12:23Z","tX":520,"tY":378,"tags":{"name":"Les Micocouliers","phone":"+33468892027","source":"Bing","stars":"3","website":"https://www.camping-les-micocouliers.com/"}},"347894523":{"location":[42.5511836,3.0322797],"ct":"FR","tp":"CS","ts":"2021-04-13T08:56:03Z","tX":520,"tY":378,"tags":{"caravans":"no","contact:email":"contact@camping-lelagon-argeles.com","contact:phone":"+334 68 81 06 85","name":"Le Lagon","stars":"4","tents":"no","website":"https://www.camping-lelagon-argeles.com/"}},"363337411":{"location":[42.5176234,3.1140138],"ct":"FR","tp":"CR","ts":"2024-10-01T22:34:03Z","tX":520,"tY":378,"tags":{"capacity":"32","caravan_site":"motorhome_stopover","caravan_site:type":"beach","charge":"12 EUR","charge:conditional":"8 EUR @ (Nov-Apr)","description:fr":"Pas de borne de paiement. la police passe le matin pour le paiement.","fee":"yes","name":"Aire camping-cars Port-Vendres","opening_hours":"24/7","payment:cash":"yes","power_supply":"no","reservation":"no","sanitary_dump_station":"yes","sanitary_dump_station:chemical_toilet":"yes","sanitary_dump_station:grey_water":"yes","seasonal":"no","source":"survey 2015; bing 2015","toilets":"yes","water_point":"yes","website":"https://www.tourisme-pyreneesorientales.com/aire-stationnement-communale-pour-camping-cars/port-vendres/accamlar0660001k"}},"450593840":{"location":[42.5111189,2.8270412],"ct":"FR","tp":"CS","ts":"2025-02-28T14:03:19Z","tX":520,"tY":378,"tags":{"caravans":"yes","internet_access":"wlan","name":"Camping L’Olivette","phone":"+33 4 68 83 48 08","tents":"yes","website":"http://www.camping-olivette.fr"}},"475423551":{"location":[42.5272138,2.8377019],"ct":"FR","tp":"CR","ts":"2024-08-18T16:40:42Z","tX":520,"tY":378,"tags":{"capacity":"30","caravan_site":"village;street_side","caravan_site:type":"town","fee":"no","name":"Aire communale camping cars Le Boulou","opening_hours":"24/7","picnic_area":"yes","website":"https://www.tourism-mediterraneanpyrenees.com/aire-de-stationnement-communale-pour-camping-cars/le-boulou/accamlar0660000e"}},"506433431":{"location":[42.5303275,2.9879391],"ct":"FR","tp":"CS","ts":"2019-03-23T15:28:30Z","tX":520,"tY":378,"tags":{"internet_access":"wlan","internet_access:fee":"no","name":"Le Rancho","openfire":"no","phone":"+33 4 68 81 04 88","stars":"3","website":"https://www.campinglerancho.com/"}},"518345589":{"location":[42.5234385,2.9466691],"ct":"FR","tp":"CS","ts":"2023-03-18T20:27:20Z","tX":520,"tY":378,"tags":{"name":"Camping Mas Manyeres","stars":"3"}},"518345590":{"location":[42.5217561,2.9453204],"ct":"FR","tp":"CS","ts":"2024-07-26T19:59:39Z","tX":520,"tY":378,"tags":{"contact:phone":"+33 4 68 89 23 64","name":"Camping Les Albères","phone":"+33 4 68 89 23 64","ref:FR:SIRET":"41319070300020","website":"https://www.camping-des-alberes.com/"}},"518371789":{"location":[42.5244248,2.9138138],"ct":"FR","tp":"CS","ts":"2025-02-28T14:03:19Z","tX":520,"tY":378,"tags":{"award:accueilvelo":"yes","email":"campinglasplanes@gmail.com","name":"Las Planes","name:ca":"Les Planes","phone":"+33 7 77 75 53 88","website":"https://campinglasplanes.fr/"}},"518560650":{"location":[42.5268898,2.935372],"ct":"FR","tp":"CS","ts":"2024-07-26T20:01:50Z","tX":520,"tY":378,"tags":{"fixme":"emprise","name":"Camping Municipal Le Vivier","phone":"+33 4 68 95 49 97"}},"596513750":{"location":[42.3053345,2.9758113],"ct":"ES","tp":"CR","ts":"2018-06-11T13:21:58Z","tX":520,"tY":378,"tags":{}},"609781584":{"location":[42.5206996,2.8457109],"ct":"FR","tp":"CS","ts":"2025-02-28T14:03:19Z","tX":520,"tY":378,"tags":{"addr:city":"Le Boulou","addr:postcode":"66160","addr:street":"Route d'Argelès","award:accueilvelo":"yes","name":"Les Oliviers","phone":"+33 4 68 83 12 86","website":"https://www.camping-lesoliviers.com/"}},"675941732":{"location":[42.3389942,3.0687383],"ct":"ES","tp":"CS","ts":"2020-03-21T17:18:05Z","tX":520,"tY":378,"tags":{"name":"Vell Emporda"}},"893682574":{"location":[42.4259289,2.8675833],"ct":"ES","tp":"CR","ts":"2023-07-14T10:47:35Z","tX":520,"tY":378,"tags":{"fee":"no","name":"La Jonquera","operator":"Ville de La Jonquera","sanitary_dump_station":"no","surface":"asphalt"}},"967902396":{"location":[42.3167379,2.8848775],"ct":"ES","tp":"CS","ts":"2023-10-31T22:13:37Z","tX":520,"tY":378,"tags":{"access":"private","addr:city":"Boadella i les Escaules","capacity":"50","charge":"5.50 EUR","fee":"yes","group_only":"yes","name":"Terreny d'acampada La Vinca 2","name:ca":"Terreny d'acampada La Vinca 2","website":"https://campaments.cat/terreny/la-vinca-2"}},"967902397":{"location":[42.3165522,2.88554],"ct":"ES","tp":"CS","ts":"2023-10-31T22:13:48Z","tX":520,"tY":378,"tags":{"access":"private","addr:city":"Boadella i les Escaules","capacity":"25","charge":"5.50 EUR","fee":"yes","group_only":"yes","name":"Terreny d'acampada La Vinca 4","name:ca":"Terreny d'acampada La Vinca 4","website":"https://campaments.cat/terreny/la-vinca-4"}},"967902398":{"location":[42.3167701,2.8861944],"ct":"ES","tp":"CS","ts":"2022-11-26T02:45:17Z","tX":520,"tY":378,"tags":{"access":"private","addr:city":"Boadella i les Escaules","capacity":"50","charge":"5.50 EUR","fee":"yes","group_only":"yes","name":"Terreny d'acampada La Vinca","name:ca":"Terreny d'acampada La Vinca"}},"967902399":{"location":[42.3479282,2.9384144],"ct":"ES","tp":"CS","ts":"2023-10-31T22:13:16Z","tX":520,"tY":378,"tags":{"access":"private","addr:city":"Masarac","capacity":"80","charge":"2.30 EUR","fee":"yes","group_only":"yes","name":"Terreny d'acampada El Cor de la Llacuna","name:ca":"Terreny d'acampada El Cor de la Llacuna","operator":"Campaments.cat","website":"https://campaments.cat/terreny/el-cor-de-la-llacuna"}},"967902400":{"location":[42.3764639,3.0351719],"ct":"ES","tp":"CS","ts":"2023-11-02T20:21:24Z","tX":520,"tY":378,"tags":{"access":"private","addr:city":"Rabós d'Empordà","capacity":"45","charge":"3.50 EUR","fee":"yes","group_only":"yes","name":"Terreny d'acampada Mas Tres Puig de Dalt","name:ca":"Terreny d'acampada Mas Tres Puig de Dalt","operator":"Campaments.cat","website":"https://campaments.cat/terreny/mas-tres-puig-de-dalt"}},"967902401":{"location":[42.3750983,3.0347241],"ct":"ES","tp":"CS","ts":"2023-11-02T20:21:27Z","tX":520,"tY":378,"tags":{"access":"private","addr:city":"Rabós d'Empordà","capacity":"45","charge":"4.50 EUR","fee":"yes","group_only":"yes","name":"Terreny d'acampada Mas Tres Puig de Baix","name:ca":"Terreny d'acampada Mas Tres Puig de Baix","operator":"Campaments.cat","website":"https://campaments.cat/terreny/mas-tres-puig-de-baix"}},"967902402":{"location":[42.3745821,3.0340919],"ct":"ES","tp":"CS","ts":"2023-11-02T20:21:05Z","tX":520,"tY":378,"tags":{"access":"private","addr:city":"Rabós d'Empordà","capacity":"45","charge":"4.80 EUR","fee":"yes","group_only":"yes","name":"Terreny d'acampada La Pineda de Mas Tres Puig","name:ca":"Terreny d'acampada La Pineda de Mas Tres Puig","website":"https://campaments.cat/terreny/la-pineda-de-mas-tres-puig"}},"967902403":{"location":[42.4130492,2.9956349],"ct":"ES","tp":"CS","ts":"2023-11-02T20:21:29Z","tX":520,"tY":378,"tags":{"access":"private","addr:city":"Espolla","capacity":"60","charge":"4.25 EUR","fee":"yes","group_only":"yes","name":"Terreny d'acampada Els Vilars de l'Abrera","name:ca":"Terreny d'acampada Els Vilars de l'Abrera","operator":"Campaments.cat","website":"https://campaments.cat/terreny/els-vilars-de-lalbera"}},"967902404":{"location":[42.2949406,3.0805913],"ct":"ES","tp":"CS","ts":"2023-10-31T22:14:59Z","tX":520,"tY":378,"tags":{"access":"private","addr:city":"Vilanova de la Muga","capacity":"125","charge":"3.75","fee":"yes","group_only":"yes","name":"Terreny d'acampada La Closa de l'Estanyol","name:ca":"Terreny d'acampada La Closa de l'Estanyol","operator":"Campaments.cat","website":"https://campaments.cat/terreny/la-closa-de-lestanyol-2","website2":"campaments.cat/terreny/la-closa-de-lestanyol-1"}},"1067516650":{"location":[42.5429196,2.8320372],"ct":"FR","tp":"CS","ts":"2023-12-27T10:45:43Z","tX":520,"tY":378,"tags":{"caravans":"yes","email":"contact@mas-llinas.com","fee":"yes","motorhome":"yes","name":"Mas Llinas","name:ca":"Mas Llinas","phone:FR":"+33 4 68 83 25 46","shower":"yes","stars":"3","static_caravans":"yes","tents":"yes","toilets":"yes","website":"https://www.mas-llinas.com"}},"1156159462":{"location":[42.5403114,2.9240398],"ct":"FR","tp":"CS","ts":"2025-02-28T14:03:19Z","tX":520,"tY":378,"tags":{"award:accueilvelo":"yes","email":"contact@fagamis.fr","name":"Fagamis","phone":"+33 4 68 89 75 29","ref:FR:SIRET":"81794997700018","stars":"3","website":"https://www.fagamis.fr/"}},"1156260032":{"location":[42.5411549,2.9134489],"ct":"FR","tp":"CS","ts":"2023-03-22T10:36:16Z","tX":520,"tY":378,"tags":{"description":"Camping à la ferme Douche Toilette Barbecue Terrain de pétanque","name":"Les pêchers","opening_hours":"Mo-Su 08:00-19:30","phone":"+33 6 07 22 96 52","website":"https://camping-les-pechers.business.site/"}},"1235319463":{"location":[42.3057448,3.0088374],"ct":"ES","tp":"CR","ts":"2025-02-06T09:44:44Z","tX":520,"tY":378,"tags":{"caravan_site":"parking_lot","caravan_site:type":"village","fee":"no","maxstay":"48 hours","name":"Área para Autocaravanas de Peralada","operator":"Ville de Peralada","sanitary_dump_station":"yes","surface":"asphalt","water_supply":"yes","wheelchair":"yes"}},"1284389682":{"location":[42.5251305,2.9354022],"ct":"FR","tp":"CR","ts":"2024-05-18T12:30:32Z","tX":520,"tY":378,"tags":{"bbq":"no","capacity":"22","caravan_site":"motorhome_stopover","caravan_site:type":"village","caravans":"no","charge":"15.86 EUR","charge:conditional":"14.36 @ (Oct-Apr)","dog":"leashed","fee":"yes","maxlength":"none","name":"Aire Camping-car Park Laroque-des-Albères","network":"CAMPING-CAR PARK","opening_hours":"24/7","operator":"Camping-Car Park","power_supply":"yes","power_supply:capacity":"22","power_supply:fee":"no","power_supply:maxcurrent":"6","sanitary_dump_station":"yes","tents":"no","trailer":"yes","water_point":"yes","website":"https://www.campingcarpark.com/fr_FR/sejour/aire-etape-camping-car/occitanie/66-pyrenees-orientales/laroque-des-alberes"}},"1293082059":{"location":[42.5116659,2.8304859],"ct":"FR","tp":"CR","ts":"2025-03-10T19:21:17Z","tX":520,"tY":378,"tags":{"capacity":"42","caravan_site":"motorhome_stopover","caravan_site:type":"village","charge":"14.44 EUR","dog":"yes","fee":"yes","name":"Aire de camping-cars Le Boulou","network":"AirePark","opening_hours":"24/7","power_supply:capacity":"42","power_supply:maxcurrent":"10","sanitary_dump_station":"yes","surface":"fine_gravel","website":"https://www.aireparkreservation.com/aires-camping-cars/occitanie/pyrenees-orientales/le-boulou-1"}},"1320780344":{"location":[42.5263475,3.0691022],"ct":"FR","tp":"CR","ts":"2024-10-08T17:39:19Z","tX":520,"tY":378,"tags":{"capacity":"20","caravan_site":"motorhome_stopover","caravan_site:type":"parking_lot;sports_centre","charge":"20 EUR","fee":"yes","maxstay":"48 hours","name":"Parking de Cap Dourats","power_supply":"yes","ref":"P2","sanitary_dump_station":"yes","surface":"asphalt","website":"https://www.tourisme-pyreneesorientales.com/aire-municipale-du-cap-dourats/collioure/accamlar0660000a","wheelchair":"yes"}},"2447862590":{"location":[42.5317998,3.0271271],"ct":"FR","tp":"CS","ts":"2025-03-15T22:49:20Z","tX":520,"tY":378,"tags":{"award:accueilvelo":"yes","caravans":"yes","contact:phone":"+33 4 68 81 06 93","name":"Domaine Des Mimosas","stars":"2","tents":"yes","website":"https://www.domaine-des-mimosas.com/?utm_source=osm"}},"11012417723":{"location":[42.4671597,3.0122448],"ct":"FR","tp":"CS","ts":"2023-06-28T13:53:15Z","tX":520,"tY":378,"tags":{"camp_site":"basic","name":"Bivouac possible","operator":"Bivouac libre"}},"10040341041":{"location":[42.469699,2.8595164],"ct":"FR","tp":"CR","ts":"2024-08-19T15:04:49Z","tX":520,"tY":378,"tags":{"caravan_site":"motorhome_stopover","caravan_site:type":"theme_park","dog":"no","fee":"yes","maxlength":"8","name":"La Ferme Aventure","opening_hours":"24/7"}},"11987532243":{"location":[42.5238998,2.9443876],"ct":"FR","tp":"CR","ts":"2024-06-17T13:20:37Z","tX":520,"tY":378,"tags":{"capacity":"20","caravan_site":"motorhome_stopover","caravan_site:type":"camp_site","caravans":"no","charge":"13.32 EUR","charge:conditional":"11.32 EUR @ (Nov-May)","fee":"yes","maxlength":"8","name":"Laroque des Albères \"l'Orée du bois\" aire d'étape","network":"AirePark","opening_hours":"24/7","picnic_area":"yes","power_supply:capacity":"20","power_supply:maxcurrent":"10","sanitary_dump_station":"yes","seasonal":"no","tents":"no","water_point":"yes","website":"https://www.aireparkreservation.com/aires-camping-cars/occitanie/pyrenees-orientales/laroque-des-alberes-loree-du-bois-aire-detape-camping-cars-et-vans"}},"12222292526":{"location":[42.5230896,3.0664435],"ct":"FR","tp":"CR","ts":"2024-10-04T12:46:25Z","tX":520,"tY":378,"tags":{"caravan_site":"motorhome_stopover","caravan_site:type":"parking_lot;motorway","fee":"yes","name":"Aire Collioure (Nouveau Cimetière)","sanitary_dump_station":"yes","water_point":"yes"}},"4514411793":{"location":[42.5339068,3.0507848],"ct":"FR","tp":"SD","ts":"2016-11-21T21:46:06Z","tX":520,"tY":378,"tags":{}},"5656733593":{"location":[42.5177173,3.1137027],"ct":"FR","tp":"SD","ts":"2018-06-01T16:09:57Z","tX":520,"tY":378,"tags":{"sanitary_dump_station:chemical_toilet":"yes","sanitary_dump_station:fee":"no","sanitary_dump_station:gravity":"yes","sanitary_dump_station:grey_water":"yes","sanitary_dump_station:suction":"no"}},"11937020850":{"location":[42.525016,2.9355901],"ct":"FR","tp":"SD","ts":"2024-05-27T12:21:03Z","tX":520,"tY":378,"tags":{"access":"customers","fee":"yes","payment:credit_cards":"yes","water_point":"yes"}},"4511717890":{"location":[42.3968691,2.8811316],"ct":"ES","tp":"CS","ts":"2016-11-20T10:46:59Z","tX":520,"tY":378,"tags":{"name":"Parking","name:es":"Parking","operator":"La jonquera"}},"7312605890":{"location":[42.3135171,2.9279366],"ct":"ES","tp":"CR","ts":"2024-03-26T17:54:25Z","tX":520,"tY":378,"tags":{"caravan_site:type":"outback","fee":"no","name":"Pont de Molins","water_point":"yes"}},"7313142867":{"location":[42.3315578,2.8575479],"ct":"ES","tp":"CR","ts":"2020-03-20T18:51:28Z","tX":520,"tY":378,"tags":{"name":"Park4night_Boadella d'Empordà"}},"11462543769":{"location":[42.3669854,3.1547168],"ct":"ES","tp":"CR","ts":"2024-12-26T23:16:48Z","tX":520,"tY":378,"tags":{"drinking_water":"no","fee":"no","power_supply":"no","sanitary_dump_station":"no","toilets":"no"}},"11574643269":{"location":[42.3669732,3.1547875],"ct":"ES","tp":"CR","ts":"2024-08-13T19:17:05Z","tX":520,"tY":378,"tags":{"fee":"no","opening_hours":"24/7"}},"11738357201":{"location":[42.3661557,2.8372257],"ct":"ES","tp":"CR","ts":"2024-03-17T07:52:28Z","tX":520,"tY":378,"tags":{"capacity":"8","description":"Aparcament al costat del camp de futbol amb places delimitades i electricitat gratuïta","internet_access":"no","permanent_camping":"no","sanitary_dump_station":"no","toilets":"no"}},"11739232263":{"location":[42.412019,2.8746858],"ct":"ES","tp":"CR","ts":"2024-03-17T17:07:10Z","tX":520,"tY":378,"tags":{"description":"Àrea al costat de la gasolinera","fee":"no","image":"https://i.imgur.com/mpMcPz7.jpeg","internet_access":"no","permanent_camping":"no","power_supply":"no","sanitary_dump_station":"yes","toilets":"no"}},"8306060192":{"location":[42.3060339,3.008562],"ct":"ES","tp":"SD","ts":"2021-01-09T14:54:11Z","tX":520,"tY":378,"tags":{"access":"yes","fee":"no","name":"Service de vidange eaux noire et grise","operator":"Ville de Peralada","sanitary_dump_station:basin":"yes","water_point":"yes"}},"12676732203":{"location":[42.4115548,2.8749605],"ct":"ES","tp":"SD","ts":"2025-03-18T14:34:56Z","tX":520,"tY":378,"tags":{}}}