{"3865631":{"location":[42.1096913,3.1619684],"ct":"ES","tp":"CS","ts":"2022-11-26T04:52:22Z","tX":520,"tY":379,"tags":{"fax":"+34 972774340","internet_access":"wlan","internet_access:fee":"yes","name":"Càmping Cala Montgó","name:ca":"Càmping Cala Montgó","operator":"Cadena Europ","phone":"+34 972770866","website":"https://www.campingcalamontgo.com/"}},"8308021":{"location":[42.2665761,3.157599],"ct":"ES","tp":"CS","ts":"2023-03-31T16:33:44Z","tX":520,"tY":379,"tags":{"internet_access":"yes","internet_access:fee":"no","name":"Càmping Salatà","name:ca":"Càmping Salatà"}},"13109850":{"location":[42.2585769,3.1154449],"ct":"ES","tp":"CR","ts":"2022-11-26T03:23:42Z","tX":520,"tY":379,"tags":{"fee":"no","name":"Àrea gratuïta autocaravanes Empuriabrava","name:ca":"Àrea gratuïta autocaravanes Empuriabrava","name:en":"Free caravan park in Empuriabrava"}},"14536672":{"location":[42.2357515,3.1210142],"ct":"ES","tp":"CS","ts":"2023-09-21T20:26:55Z","tX":520,"tY":379,"tags":{"email":"info@campinglaguna.com","fax":"+34 972450799","name":"Camping Laguna","phone":"+34 972450553","website":"https://www.campinglaguna.com/"}},"14536762":{"location":[42.2535415,3.1321525],"ct":"ES","tp":"CS","ts":"2025-03-07T13:39:19Z","tX":520,"tY":379,"tags":{"defibrillator":"yes","dog":"yes","fee":"yes","name":"Rubina Resort","old_name":"Campig Internacional Amberes","operator":"Sunêlia","phone":"+34 972 450507","stars":"4","washing_machine":"yes","website":"https://www.rubinaresort.com/"}},"14537395":{"location":[42.2541931,3.1369102],"ct":"ES","tp":"CS","ts":"2022-11-10T00:11:34Z","tX":520,"tY":379,"tags":{"name":"Castell Mar","name:ca":"Castell Mar"}},"14539758":{"location":[42.2055623,3.1053016],"ct":"ES","tp":"CS","ts":"2022-09-03T19:26:05Z","tX":520,"tY":379,"tags":{"internet_access":"wlan","name":"Camping Nàutic Almatà"}},"79679582":{"location":[42.1759698,3.1078813],"ct":"ES","tp":"CS","ts":"2019-08-23T11:21:51Z","tX":520,"tY":379,"tags":{"addr:housename":"Camping Aquarius","email":"camping@aquarius.es","fax":"+34972550216","internet_access":"wlan","internet_access:fee":"yes","name":"Camping Aquarius","phone":"+34972520003","toilets:wheelchair":"yes","website":"www.aquarius.es","wheelchair":"limited"}},"124978706":{"location":[42.1870828,3.1033314],"ct":"ES","tp":"CS","ts":"2012-04-20T18:27:54Z","tX":520,"tY":379,"tags":{"name":"Las Palmeras","website":"www.Campinglaspalmeras.com"}},"143947227":{"location":[42.1801662,3.1062258],"ct":"ES","tp":"CS","ts":"2019-07-28T10:13:54Z","tX":520,"tY":379,"tags":{"name":"Camping L'Amfora"}},"159915972":{"location":[42.2650826,3.0999843],"ct":"ES","tp":"CS","ts":"2024-01-18T20:10:53Z","tX":520,"tY":379,"tags":{"access":"customers","addr:city":"Empuriabrava","addr:housenumber":"7","addr:street":"Carrer del Mas Nou","caravans":"yes","contact:facebook":"https://www.facebook.com/campingmasnou.empuriabrava","contact:instagram":"https://www.instagram.com/campingmasnou/","contact:youtube":"https://www.youtube.com/user/CampingMasNouTV","dog":"yes","fee":"yes","internet_access":"wlan","internet_access:fee":"no","name":"Camping Mas Nou","phone":"+34 972 454 175","power_supply":"yes","tents":"yes","washing_machine":"yes","website":"https://www.campingmasnou.com"}},"171380350":{"location":[42.0849843,3.0574486],"ct":"ES","tp":"CR","ts":"2012-07-13T11:49:07Z","tX":520,"tY":379,"tags":{}},"212337035":{"location":[42.2666815,3.1621703],"ct":"ES","tp":"CS","ts":"2022-11-26T07:19:34Z","tX":520,"tY":379,"tags":{"internet_access":"wlan","name":"Joncar Mar","name:ca":"Joncar Mar","wheelchair":"yes"}},"212337036":{"location":[42.2663736,3.1637264],"ct":"ES","tp":"CS","ts":"2022-11-26T07:19:33Z","tX":520,"tY":379,"tags":{"caravans":"yes","name":"Joncar Mar","name:ca":"Joncar Mar","shower":"yes","tents":"yes","toilets":"yes"}},"228984309":{"location":[42.1538594,3.1104882],"ct":"ES","tp":"CS","ts":"2023-07-15T06:38:24Z","tX":520,"tY":379,"tags":{"contact:email":"info@ballena-alegre.com","name":"La Ballena Alegre","phone":"+34 972 52 03 02","website":"https://www.ballena-alegre.com","wheelchair":"yes"}},"290963170":{"location":[42.1209474,3.1354711],"ct":"ES","tp":"CS","ts":"2023-10-29T17:00:01Z","tX":520,"tY":379,"tags":{"alt_name":"Càmping la Escala","alt_name:ca":"Càmping la Escala","name":"Càmping L'Escala","name:ca":"Càmping L'Escala","website":"https://www.campinglescala.com/","wheelchair":"yes"}},"290964094":{"location":[42.1107336,3.145511],"ct":"ES","tp":"CS","ts":"2024-08-09T07:51:42Z","tX":520,"tY":379,"tags":{"name":"Càmping Maite","name:ca":"Càmping Maite","website":"www.campingmaite.com"}},"295422997":{"location":[42.1080823,3.1435198],"ct":"ES","tp":"CS","ts":"2023-01-23T00:03:44Z","tX":520,"tY":379,"tags":{"addr:city":"L'Escala","addr:postcode":"17130","addr:street":"Camp Rabassa","email":"info@campingriells.com","name":"Riells","name:ca":"Riells","phone":"+34 972 770 027","website":"www.campingriells.com"}},"407505998":{"location":[42.1046443,3.1574009],"ct":"ES","tp":"CS","ts":"2023-05-22T16:40:42Z","tX":520,"tY":379,"tags":{"addr:city":"l'Escala","addr:postcode":"17130","addr:street":"Carrer de la Punta Milà","internet_access":"yes","name":"Càmping Punta Milà","name:ca":"Càmping Punta Milà","nohousenumber":"yes","phone":"+34 638 652 712","website":"https://www.campingpuntamila.com"}},"411821395":{"location":[42.1885705,3.0893957],"ct":"ES","tp":"CS","ts":"2023-10-29T16:56:37Z","tX":520,"tY":379,"tags":{"addr:city":"Sant Pere Pescador","addr:country":"ES","addr:postcode":"17470","addr:street":"Carretera de la Platja","email":"info@campingriu.com","fee":"yes","internet_access":"yes","internet_access:fee":"yes","name":"Camping Sènia Riu","nohousenumber":"yes","operator":"Grup Sènia","url":"http://www.senia.es/campings/camping-senia-riu-de-sant-pere-pescador/","website":"https://www.campingriu.com/ca/"}},"436108614":{"location":[42.1892914,3.1073732],"ct":"ES","tp":"CS","ts":"2019-07-26T15:31:18Z","tX":520,"tY":379,"tags":{"fax":"+34972550348","internet_access":"wlan","name":"Camping La Gaviota","phone":"+34972520569","website":"https://escolapia.cat/"}},"436115069":{"location":[42.1543186,3.1120687],"ct":"ES","tp":"CS","ts":"2023-10-15T14:53:15Z","tX":520,"tY":379,"tags":{"access":"permit","addr:city":"Sant Pere Pescador","addr:country":"ES","addr:postcode":"17470","capacity:caravans":"809","caravans":"yes","cash_withdrawal":"yes","check_date:internet_access":"2022-06-06","email":"info@ballena-alegre.com","fax":"+34 902 51 05 21","fee":"yes","internet_access":"yes","internet_access:fee":"yes","name":"La Ballena Alegre","nudism":"no","payment:bank_transfer":"yes","payment:cash":"yes","payment:credit_cards":"yes","payment:wire_transfer":"yes","phone":"+34 972 52 03 02","reservation":"recommended","tents":"yes","website":"https://www.ballena-alegre.com/","wheelchair":"designated"}},"436115085":{"location":[42.1637177,3.107952],"ct":"ES","tp":"CS","ts":"2024-10-25T09:54:41Z","tX":520,"tY":379,"tags":{"caravans":"yes","dog":"yes","email":"info@campinglasdunas.com","fee":"yes","motorhome":"yes","name":"Las Dunas Camping Bungalowpark","power_supply":"yes","power_supply:maxcurrent":"6;10","reservation":"yes","tents":"yes","website":"https://www.campinglasdunas.co"}},"448184431":{"location":[42.2681995,3.1521858],"ct":"ES","tp":"CS","ts":"2020-10-26T18:54:03Z","tX":520,"tY":379,"tags":{"name":"Camping Rodas"}},"521898663":{"location":[42.2872821,2.9481666],"ct":"ES","tp":"PK","ts":"2019-06-27T01:22:04Z","tX":520,"tY":379,"tags":{"caravans":"yes","name":"Parking Caravan Costa Brava","parking":"surface"}},"589514321":{"location":[42.2683211,3.1572762],"ct":"ES","tp":"CR","ts":"2024-02-12T21:06:31Z","tX":520,"tY":379,"tags":{"addr:city":"roses","addr:housenumber":"65","addr:postcode":"17480","addr:street":"Carrer del Port de Reig","capacity":"67","charge":"17 EUR","charge:conditional":"15 @(Oct-Jun)","dog":"yes","fee":"yes","internet_access":"wlan","name":"Autocaravaningpark Roses","opening_hours":"24/7","payment:cash":"no","payment:mastercard":"yes","payment:visa":"yes","power_supply":"yes","power_supply:maxcurrent":"10","swimming_pool":"no","tents":"no","toilets":"yes","website":"https://autocaravaningparkroses.com"}},"851482530":{"location":[42.1784262,3.1044105],"ct":"ES","tp":"SD","ts":"2020-09-25T11:03:55Z","tX":520,"tY":379,"tags":{}},"1153732017":{"location":[42.1671992,3.0737029],"ct":"ES","tp":"CR","ts":"2023-03-12T12:09:17Z","tX":520,"tY":379,"tags":{"name":"Àrea d'autocaravans","operator":"Ajuntament de L' Armentera","reservation":"no","sanitary_dump_station":"public","smoking":"yes","toilets":"no","wheelchair":"yes"}},"1286221214":{"location":[42.0480014,2.9553],"ct":"ES","tp":"CR","ts":"2024-05-24T11:00:43Z","tX":520,"tY":379,"tags":{"sanitary_dump_station":"yes"}},"1286225237":{"location":[42.0383601,3.13656],"ct":"ES","tp":"CR","ts":"2024-05-24T11:21:45Z","tX":520,"tY":379,"tags":{"internet_access":"yes","name":"Autocaravaning La Granja","power_supply":"yes","sanitary_dump_station":"yes"}},"1286232744":{"location":[42.0750301,3.0979562],"ct":"ES","tp":"CR","ts":"2024-05-24T11:59:08Z","tX":520,"tY":379,"tags":{"name":"Àrea Massís del Montgrí Camper Park"}},"1287375542":{"location":[42.083577,3.0580942],"ct":"ES","tp":"CR","ts":"2024-05-28T12:37:55Z","tX":520,"tY":379,"tags":{"name":"Àrea Camper La Tallada d'Empordà","sanitary_dump_station":"yes"}},"1324603580":{"location":[42.1048395,3.1583374],"ct":"ES","tp":"CR","ts":"2022-11-26T09:10:33Z","tX":520,"tY":379,"tags":{"addr:city":"l'Escala","addr:postcode":"17130","addr:street":"Punta Milà","internet_access":"yes","name":"Càmping Punta Milà","name:ca":"Càmping Punta Milà","power_supply":"yes","sanitary_dump_station":"yes"}},"3207331384":{"location":[42.2315777,3.0246247],"ct":"ES","tp":"CR","ts":"2024-11-28T13:38:25Z","tX":520,"tY":379,"tags":{"name":"Arno Starcevic","phone":"+34 606 55 32 43","website":"http://space.arcor.de/sabine.rossbach/"}},"4353698501":{"location":[42.1818528,3.1039991],"ct":"ES","tp":"CS","ts":"2016-08-17T10:31:19Z","tX":520,"tY":379,"tags":{"name":"l' Amfora"}},"4756548325":{"location":[42.0748932,3.0980754],"ct":"ES","tp":"CR","ts":"2023-03-11T15:45:31Z","tX":520,"tY":379,"tags":{"name":"Àrea Camper Park Massís del Montgrí","name:es":"Àrea Camper Park Massís del Montgrí","wheelchair":"yes"}},"5338484322":{"location":[42.1142351,3.1261236],"ct":"ES","tp":"CR","ts":"2025-01-01T21:52:51Z","tX":520,"tY":379,"tags":{"capacity":"2","caravan_site":"motorhome_stopover","caravan_site:type":"service_area","check_date":"2022-08-31","fee":"no","name":"Área de L'Escala","sanitary_dump_station":"yes","water_point":"yes"}},"4569464377":{"location":[42.173469,2.9321239],"ct":"ES","tp":"SD","ts":"2016-12-23T22:19:34Z","tX":520,"tY":379,"tags":{"fee":"no"}},"4569464378":{"location":[42.1738766,2.9299855],"ct":"ES","tp":"SD","ts":"2016-12-23T22:19:34Z","tX":520,"tY":379,"tags":{"fee":"no"}},"5310061356":{"location":[42.1592704,3.1117158],"ct":"ES","tp":"SD","ts":"2017-12-29T11:14:13Z","tX":520,"tY":379,"tags":{"access":"customers","opening_hours":"24/7","sanitary_dump_station:basin":"yes"}},"5310690151":{"location":[42.1535653,3.1113933],"ct":"ES","tp":"SD","ts":"2017-12-29T19:21:59Z","tX":520,"tY":379,"tags":{"access":"customers","opening_hours":"24/7","sanitary_dump_station:basin":"yes","sanitary_dump_station:round_drain":"yes"}},"5630868200":{"location":[42.2684485,3.1562712],"ct":"ES","tp":"SD","ts":"2018-05-20T17:02:14Z","tX":520,"tY":379,"tags":{}},"10729692796":{"location":[42.1672939,3.0739602],"ct":"ES","tp":"SD","ts":"2023-03-12T11:59:14Z","tX":520,"tY":379,"tags":{"access":"yes","fee":"no","opening_hours":"24/7"}},"11463812265":{"location":[42.1142663,3.1260663],"ct":"ES","tp":"SD","ts":"2023-12-28T21:35:25Z","tX":520,"tY":379,"tags":{"access":"yes","fee":"no"}},"12652285691":{"location":[42.1738811,2.9300706],"ct":"ES","tp":"SD","ts":"2025-03-11T13:29:19Z","tX":520,"tY":379,"tags":{}}}