{"6505736":{"location":[41.8345967,3.0873387],"ct":"ES","tp":"CS","ts":"2022-06-22T07:30:15Z","tX":520,"tY":380,"tags":{"addr:city":"Calonge","addr:postcode":"17250","addr:street":"Carretera C-253 km 47,5","cabins":"yes","capacity":"195","caravans":"yes","dog":"no","email":"info@campingtreumal.com","fee":"yes","internet_access":"wlan","name":"Camping Treumal","phone":"+34 972 65 10 95","power_supply":"yes","sanitary_dump_station":"yes","shower":"yes","stars":"4","tents":"yes","toilets":"yes","washing_machine":"yes","website":"https://www.campingtreumal.com/"}},"8278835":{"location":[41.8561781,3.1351842],"ct":"ES","tp":"CR","ts":"2023-01-18T18:14:33Z","tX":520,"tY":380,"tags":{"capacity:caravans":"65","dog":"yes","email":"info@autocaravaningpalamos.com","fee":"yes","internet_access":"wlan","internet_access:fee":"no","name":"Autocaravaning Palamós","phone":"+34 669 482 073","power_supply":"yes","sanitary_dump_station":"yes","shower":"yes","toilets":"yes"}},"8280347":{"location":[41.8026577,3.0565481],"ct":"ES","tp":"CS","ts":"2023-09-21T20:26:55Z","tX":520,"tY":380,"tags":{"leaf_type":"needleleaved","name":"Càmping Caravaning Pinell","natural":"wood"}},"8280836":{"location":[41.8342872,3.0830156],"ct":"ES","tp":"CS","ts":"2022-06-20T18:48:42Z","tX":520,"tY":380,"tags":{"cabins":"yes","caravans":"yes","dog":"leashed","drinking_water":"yes","fee":"yes","internet_access":"yes","name":"Camping Internacional de Calonge","power_supply":"yes","reservation":"yes","shower":"yes","stars":"4","tents":"yes","toilets":"yes","website":"https://www.intercalonge.com/"}},"8280839":{"location":[41.8320071,3.0810034],"ct":"ES","tp":"CS","ts":"2022-06-21T12:32:48Z","tX":520,"tY":380,"tags":{"addr:city":"Calonge i Sant Antoni","addr:housenumber":"13","addr:postcode":"17251","addr:street":"Avinguda d'Andorra","cabins":"yes","capacity":"3200","caravans":"yes","dog":"leashed","email":"calagogo@calagogo.es","fee":"yes","internet_access":"wlan","name":"Camping Sènia Cala Gogo","openfire":"no","operator":"Grupo Sènia","payment:cash":"yes","payment:credit_cards":"yes","phone":"+34 972 651 564","power_supply":"yes","reservation":"yes","shower":"yes","stars":"4","tents":"yes","toilets":"yes","website":"https://www.senia.es/en/campings-senia/camping-senia-cala-gogo"}},"11234904":{"location":[41.8625118,3.1454195],"ct":"ES","tp":"CS","ts":"2023-12-22T20:34:54Z","tX":520,"tY":380,"tags":{"addr:city":"Palamós","addr:postcode":"17230","camp_site":"deluxe","name":"King's Camping","stars":"4","website":"https://www.campingkings.com/"}},"11561836":{"location":[41.9568364,3.1595817],"ct":"ES","tp":"CS","ts":"2023-10-29T17:02:41Z","tX":520,"tY":380,"tags":{"name":"Càmping Mas Patoxas","website":"https://www.campingmaspatoxas.com/"}},"15006522":{"location":[41.9237783,2.8517362],"ct":"ES","tp":"CR","ts":"2022-12-14T20:22:39Z","tX":520,"tY":380,"tags":{}},"41269778":{"location":[41.8576605,3.1374251],"ct":"ES","tp":"CS","ts":"2022-06-20T18:56:47Z","tX":520,"tY":380,"tags":{"caravans":"yes","fee":"yes","name":"Internacional Palamos","tents":"yes","website":"https://www.internacionalpalamos.com/"}},"164632637":{"location":[41.8481182,3.0949452],"ct":"ES","tp":"CS","ts":"2025-05-22T18:39:09Z","tX":520,"tY":380,"tags":{"addr:city":"Calonge i Sant Antoni","addr:housenumber":"15","addr:postcode":"17252","addr:street":"Avinguda Catalunya","cabins":"yes","caravans":"yes","dog":"leashed","email":"info@euro-camping.com","fee":"yes","internet_access":"wlan","internet_access:fee":"no","name":"Euro-Camping","openfire":"no","payment:cash":"yes","payment:contactless":"yes","payment:credit_cards":"yes","payment:debit_cards":"yes","permanent_camping":"no","phone":"+34 972 650 879","power_supply":"yes","reservation":"yes","sanitary_dump_station":"yes","shower":"yes","stars":"4","swimming_pool":"yes","tents":"yes","toilets":"yes","washing_machine":"yes","website":"https://www.euro-camping.com/"}},"166101801":{"location":[41.7801377,3.0227526],"ct":"ES","tp":"CR","ts":"2025-01-05T01:44:47Z","tX":520,"tY":380,"tags":{"capacity":"25","fee":"15€ or 8€ depending on season","maxstay":"48 hours","reservation":"no","sanitary_dump_station":"yes","smoking":"yes","url":"https://www.visitguixols.com/en/useful-information/carvan-areas.html","wheelchair":"yes"}},"169304197":{"location":[41.8059023,3.063125],"ct":"ES","tp":"CS","ts":"2024-04-28T08:20:49Z","tX":520,"tY":380,"tags":{"caravans":"yes","name":"Càmping Vall d'Or","name:ca":"Càmping Vall d'Or","tents":"yes","website":"https://campingvalldor.es/"}},"170014329":{"location":[41.812722,3.0482532],"ct":"ES","tp":"CS","ts":"2023-11-01T20:30:47Z","tX":520,"tY":380,"tags":{"email":"info@valldaro.com","name":"Camping Valldaro","phone":"+34 972 817 515","stars":"4","website":"https://www.valldaro.com"}},"170079086":{"location":[41.8099691,3.0429197],"ct":"ES","tp":"CS","ts":"2023-10-29T16:57:10Z","tX":520,"tY":380,"tags":{"email":"camping@riembau.com","name":"Camping Riembau","phone":"+34 972 817 123","website":"https://riembau.com/"}},"170869474":{"location":[41.8456918,3.0935618],"ct":"ES","tp":"CS","ts":"2025-05-21T09:28:29Z","tX":520,"tY":380,"tags":{"addr:city":"Sant Antoni de Calonge","addr:housenumber":"17","addr:postcode":"17252","addr:street":"Avinguda de la Unió","capacity":"220","caravans":"yes","dog":"leashed","email":"campingcostabrava@campingcostabrava.net","fee":"yes","internet_access":"wlan","internet_access:fee":"yes","name":"Camping Costa Brava","phone":"+34 972650222","shower":"yes","tents":"yes","toilets":"yes","website":"https://campingcostabrava.net/"}},"183705771":{"location":[41.7867826,3.0416093],"ct":"ES","tp":"CS","ts":"2023-09-05T19:05:25Z","tX":520,"tY":380,"tags":{"addr:street":"Carrer del Doctor Fleming","contact:instagram":"campingsantpol","internet_access":"yes","name":"Càmping Sant Pol","name:ca":"Càmping Sant Pol","website":"https://www.campingsantpol.com"}},"201797606":{"location":[41.8145577,3.0608039],"ct":"ES","tp":"CR","ts":"2024-08-05T12:18:35Z","tX":520,"tY":380,"tags":{"description":"Aparcament municipal de  48h gratuït i sense serveis","drinking_water":"no","fee":"no","internet_access":"no","landuse":"grass","operator":"Ajuntament","permanent_camping":"no","power_supply":"no","sanitary_dump_station":"no","toilets":"no"}},"206986231":{"location":[41.8512729,3.1384258],"ct":"ES","tp":"CS","ts":"2023-10-29T17:03:06Z","tX":520,"tY":380,"tags":{"addr:city":"Palamós","addr:housenumber":"12","addr:postcode":"17230","addr:street":"carretera de la Fosca","fee":"yes","name":"Camping Palamos","phone":"+34 972 314 296","website":"https://www.campingpalamos.com/"}},"218290211":{"location":[41.8280814,2.9568196],"ct":"ES","tp":"CS","ts":"2022-11-26T05:30:37Z","tX":520,"tY":380,"tags":{"email":"info@campingridaura.com","name":"Càmping Ridaura","name:ca":"Càmping Ridaura","phone:ES":"+34 639 434557","website":"https://www.campingridaura.com"}},"231704090":{"location":[41.8033954,3.0095422],"ct":"ES","tp":"CS","ts":"2022-11-26T08:25:20Z","tX":520,"tY":380,"tags":{"name":"Càmping Santa Cristina","name:ca":"Càmping Santa Cristina"}},"232769475":{"location":[41.882476,3.1400043],"ct":"ES","tp":"CS","ts":"2023-08-04T21:42:42Z","tX":520,"tY":380,"tags":{"caravans":"yes","name":"Castell Park","tents":"yes"}},"232857532":{"location":[41.8933338,3.1452077],"ct":"ES","tp":"CS","ts":"2022-09-21T07:05:34Z","tX":520,"tY":380,"tags":{"name":"Camping Relax-Ge","phone":"+34972301549"}},"235591332":{"location":[41.8096553,3.0178429],"ct":"ES","tp":"CS","ts":"2022-11-26T08:25:19Z","tX":520,"tY":380,"tags":{"access":"customers","fee":"yes","name":"Càmping Mas Sant Josep","name:ca":"Càmping Mas Sant Josep"}},"295802576":{"location":[41.8495861,3.0875522],"ct":"ES","tp":"CS","ts":"2022-06-22T06:43:09Z","tX":520,"tY":380,"tags":{"addr:city":"Calonge","addr:postcode":"17252","addr:street":"Carrer de les Pinedes","barrier":"fence","bbq":"yes","cabins":"yes","caravans":"yes","fee":"yes","internet_access":"wlan","name":"Camping Pla de la Torre","phone":"+34 972650149","sanitary_dump_station":"yes","shower":"yes","tents":"yes","toilets":"yes","website":"https://www.campingpladelatorre.com/"}},"539621974":{"location":[41.8098923,3.0580376],"ct":"ES","tp":"CR","ts":"2024-04-20T11:10:17Z","tX":520,"tY":380,"tags":{"disused":"yes","fee":"yes","name":"Área de acogida de autocaravanas de Platja d'Aro","surface":"asphalt"}},"614917392":{"location":[41.8908616,3.1566791],"ct":"ES","tp":"CS","ts":"2023-10-29T16:57:57Z","tX":520,"tY":380,"tags":{"area":"yes","barrier":"fence","caravans":"yes","email":"info@campingrelaxnat.com","name":"Relax Nat Càmping naturista","nudism":"yes","phone":"+34 972 300 818","stars":"2","swimming_pool":"yes","tents":"yes","website":"https://www.campingrelaxnat.com/"}},"943308194":{"location":[41.8057029,2.895151],"ct":"ES","tp":"CS","ts":"2023-11-12T13:24:22Z","tX":520,"tY":380,"tags":{"access":"private","addr:city":"Llagostera","addr:postcode":"17240","addr:unit":"12A","capacity":"125","caravans":"no","charge":"3 EUR","fee":"yes","group_only":"yes","name":"Terreny d'acampada La Roureda de Sant Llorenç","name:ca":"Terreny d'acampada La Roureda de Sant Llorenç","operator":"https://www.campaments.cat/terrenys","tents":"yes"}},"966487525":{"location":[41.866933,2.8617077],"ct":"ES","tp":"CS","ts":"2023-10-29T16:59:36Z","tX":520,"tY":380,"tags":{"access":"private","addr:city":"Cassà de la Selva","capacity":"80","charge":"4 EUR","fee":"yes","group_only":"yes","name":"Terreny d'acampada Can Seixanta","name:ca":"Terreny d'acampada Can Seixanta","operator":"Campaments.cat","power_supply":"yes","website":"https://campaments.cat/terreny/can-seixanta"}},"966487526":{"location":[41.9711536,3.0462207],"ct":"ES","tp":"CS","ts":"2023-10-29T17:01:17Z","tX":520,"tY":380,"tags":{"access":"private","addr:city":"la Bisbal d'Empordà","capacity":"30","charge":"4.50 EUR","fee":"yes","group_only":"yes","name":"Terreny d'acampada Camp del Remei","name:ca":"Terreny d'acampada Camp del Remei","operator":"Campaments.cat","website":"https://campaments.cat/terreny/camp-del-remei"}},"1067527995":{"location":[41.8727505,3.1527677],"ct":"ES","tp":"CS","ts":"2023-07-29T07:24:53Z","tX":520,"tY":380,"tags":{"caravans":"yes","name":"Camping Benelux","name:ca":"Campin Benelux","phone":"+34 972 31 55 75","tents":"yes","website":"https://www.cbenelux.com"}},"1131593018":{"location":[41.8213162,2.8955152],"ct":"ES","tp":"CR","ts":"2023-01-13T12:14:09Z","tX":520,"tY":380,"tags":{"access":"yes","addr:city":"Llagostera","addr:postcode":"17240","capacity":"5","capacity:caravans":"5","fee":"no","internet_access":"wlan","parking":"surface","parking_space":"caravan","power_supply":"no","sanitary_dump_station":"yes"}},"1178008007":{"location":[41.8819343,2.8777881],"ct":"ES","tp":"CR","ts":"2024-11-11T12:39:06Z","tX":520,"tY":380,"tags":{"capacity":"20","drinking_water":"no","fee":"no","internet_access":"no","name":"Àrea autocaravanes Cassà","panoramax":"b894172a-fb76-4842-8319-3afca9a43cd9","sanitary_dump_station":"yes","toilets":"no"}},"1321965028":{"location":[41.7821306,3.0206112],"ct":"ES","tp":"CR","ts":"2025-01-05T01:44:47Z","tX":520,"tY":380,"tags":{"fee":"16€ or 8€ per 24 hours depending on season","maxstay":"48 hours","power_supply":"no","sanitary_dump_station":"yes","url":"https://www.visitguixols.com/en/useful-information/carvan-areas.html"}},"1321965031":{"location":[41.78199,3.0206769],"ct":"ES","tp":"SD","ts":"2024-10-07T21:19:49Z","tX":520,"tY":380,"tags":{}},"4103690689":{"location":[41.8576833,3.1148138],"ct":"ES","tp":"CR","ts":"2023-09-21T20:23:53Z","tX":520,"tY":380,"tags":{"internet_access":"wlan","internet_access:fee":"customers","name":"EmpordArea","opening_hours":"24/7","phone":"+34 972603449","shower":"yes","toilets":"yes","washing_machine":"yes","website":"https://www.empordarea.com/"}},"4339622889":{"location":[41.9839421,2.8140791],"ct":"ES","tp":"CR","ts":"2024-09-21T21:15:13Z","tX":520,"tY":380,"tags":{"caravan_site:type":"town","drinking_water":"yes","fee":"yes","internet_access":"no","name":"Area Autocaravanes Vayreda La Devesa","power_supply":"yes","sanitary_dump_station":"yes","shower":"no","tents":"no","toilets":"yes","wheelchair":"yes"}},"4380823923":{"location":[41.9396299,2.8392249],"ct":"ES","tp":"CR","ts":"2019-09-22T19:43:34Z","tX":520,"tY":380,"tags":{"addr:street":"Avinguda de la Bóbila","capacity":"4","name":"AC PUBLIC QUART","nohousenumber":"yes","sanitary_dump_station":"yes"}},"5338461822":{"location":[41.7905548,3.0443111],"ct":"ES","tp":"CR","ts":"2018-02-03T07:26:14Z","tX":520,"tY":380,"tags":{"addr:city":"Sant Feliu de Guíxols","addr:housenumber":"50","addr:postcode":"17220","addr:street":"Camí de l'Antigua Via de Tren","capacity":"15","email":"areasagaro@gmail.com","name":"sagaroarea","operator":"adol"}},"9367796906":{"location":[41.8102723,2.9992194],"ct":"ES","tp":"CR","ts":"2024-11-11T12:39:06Z","tX":520,"tY":380,"tags":{"capacity":"12","fee":"no","name":"Área d'Autocaravanes Santa Cristina d'Aro","panoramax":"04ff83c8-38bc-4204-947b-d102d3e70d84","panoramax:0":"d8aeee61-be0d-497a-a721-f218392c0f45","power_supply":"yes","toilets":"no"}},"10269187811":{"location":[41.9642839,3.037269],"ct":"ES","tp":"CR","ts":"2024-11-11T12:39:06Z","tX":520,"tY":380,"tags":{"capacity":"4","fee":"no","internet_access":"no","name":"La Bisbal d'Emporda","panoramax":"269510ff-91d0-4dff-9604-839c6d98cdc9","panoramax:0":"e2178cc7-0b90-4116-b38c-5727ec6f1956","permanent_camping":"no","power_supply":"no","sanitary_dump_station":"yes","toilets":"yes"}},"10269259170":{"location":[41.9575238,3.0546708],"ct":"ES","tp":"CR","ts":"2022-12-17T10:38:59Z","tX":520,"tY":380,"tags":{"capacity":"4","fee":"no","internet_access":"no","permanent_camping":"no","sanitary_dump_station":"yes","toilets":"yes"}},"11638748869":{"location":[41.9673342,3.1479481],"ct":"ES","tp":"CR","ts":"2024-02-18T19:09:18Z","tX":520,"tY":380,"tags":{}},"12272936459":{"location":[41.8637454,3.124795],"ct":"ES","tp":"CR","ts":"2024-10-21T08:24:28Z","tX":520,"tY":380,"tags":{"name":"Autocaravaning Vilaroma","power_supply":"yes","sanitary_dump_station":"yes"}},"9367859375":{"location":[41.8101089,2.9991959],"ct":"ES","tp":"SD","ts":"2024-11-11T12:39:06Z","tX":520,"tY":380,"tags":{"access":"yes","fee":"yes","panoramax":"765429b2-3cca-476a-b3e7-33495fb9ff6c","power_supply":"no","sanitary_dump_station:chemical_toilet":"yes","sanitary_dump_station:grey_water":"yes","water_point":"yes"}},"10269160885":{"location":[41.9642679,3.0371376],"ct":"ES","tp":"SD","ts":"2024-11-11T12:39:06Z","tX":520,"tY":380,"tags":{"access":"yes","charge":"1 jeton","fee":"yes","panoramax":"db0a8a08-0e13-4227-8a7e-a1aed6ea2787","panoramax:0":"a06d030f-0dbb-472c-8cbb-cdb3005fa0af","power_supply":"no","sanitary_dump_station:chemical_toilet":"yes","water_point":"yes"}},"10269293935":{"location":[41.9576663,3.0555922],"ct":"ES","tp":"SD","ts":"2022-12-17T10:39:18Z","tX":520,"tY":380,"tags":{"fee":"yes"}},"12160603272":{"location":[41.9839377,2.8139239],"ct":"ES","tp":"SD","ts":"2024-09-21T21:15:06Z","tX":520,"tY":380,"tags":{"access":"customers","fee":"no"}}}