{"8283527":{"location":[41.7123787,2.9077789],"ct":"ES","tp":"CS","ts":"2025-03-07T13:55:00Z","tX":520,"tY":381,"tags":{"name":"Cala Llevadó","name:ca":"Càmping Cala Llevadó","operator":"Sunêlia","stars":"4","website":"https://www.calallevado.com/"}},"8283706":{"location":[41.7300651,2.9273203],"ct":"ES","tp":"CS","ts":"2022-11-26T09:14:51Z","tX":520,"tY":381,"tags":{"fax":"+34 972 342 461","name":"Càmping Can Martí","name:ca":"Càmping Can Martí","phone":"+34 972 340 851","stars":"3","website":"http://www.campingcanmarti.com"}},"8283727":{"location":[41.7355313,2.9474569],"ct":"ES","tp":"CS","ts":"2024-02-23T16:29:58Z","tX":520,"tY":381,"tags":{"access":"customers","addr:city":"Tossa de Mar","addr:milestone":"4","addr:postcode":"17320","addr:street":"Carretera Tossa de Mar a Sant Feliu","alt_name":"Camping Cala Pola","caravans":"yes","contact:email":"nfo@campingcalapola.com","contact:facebook":"https://www.facebook.com/campingcalapola","contact:instagram":"https://www.instagram.com/campingcalapola/","contact:twitter":"campingcalapola","fee":"yes","internet_access":"wlan","internet_access:fee":"yes","name":"Càmping Pola","name:ca":"Càmping Pola","phone":"+34972341050","stars":"3","static_caravans":"yes","tents":"yes","website":"https://www.campingpola.es/"}},"8286452":{"location":[41.7083,2.8811307],"ct":"ES","tp":"CS","ts":"2022-11-26T05:45:01Z","tX":520,"tY":381,"tags":{"addr:city":"Lloret de mar","addr:housenumber":"12","addr:postcode":"17310","addr:street":"Avinguda Canyelles","fee":"yes","name":"Càmping Canyelles","name:ca":"Càmping Canyelles","phone":"+34 972 364504","website":"https://www.campingcanyelles.com/"}},"9730547":{"location":[41.7315296,2.8887744],"ct":"ES","tp":"CS","ts":"2022-11-26T09:14:53Z","tX":520,"tY":381,"tags":{"name":"Càmping Tossa","name:ca":"Càmping Tossa","website":"http://www.campingtossa.com"}},"218410063":{"location":[41.6982487,2.8206718],"ct":"ES","tp":"CS","ts":"2023-10-29T17:00:38Z","tX":520,"tY":381,"tags":{"caravans":"yes","drinking_water":"yes","email":"info@campingtucan.com","fax":"+34972360079","name":"Càmping Tucan","name:ca":"Càmping Tucan","phone":"+34972369965","power_supply":"yes","shower":"yes","tents":"yes","toilets":"yes","website":"https://www.campingtucan.com/","wheelchair":"yes"}},"218410443":{"location":[41.6991084,2.8265583],"ct":"ES","tp":"CS","ts":"2023-10-29T17:02:26Z","tX":520,"tY":381,"tags":{"name":"Càmping Santa Elena - Ciutat","website":"https://www.campingtucan.com/","wheelchair":"yes"}},"218413176":{"location":[41.7065986,2.8438827],"ct":"ES","tp":"CS","ts":"2024-07-14T15:47:59Z","tX":520,"tY":381,"tags":{"access":"customers","addr:city":"Lloret de Mar","addr:postcode":"17310","addr:street":"Carrer d'Aiguaviva","contact:phone":"+34 972 36 54 83","dog":"yes","email":"info@campinglloretblau.com","fee":"yes","name":"Camping Lloret Blau","nohousenumber":"yes","tents":"yes","washing_machine":"yes","website":"https://www.campinglloretblau.com/","wheelchair":"yes"}},"1378301248":{"location":[41.7283555,2.9118487],"ct":"ES","tp":"CS","ts":"2025-05-09T04:55:16Z","tX":520,"tY":381,"tags":{"name":"Camping Turismar"}},"3167532482":{"location":[41.7301035,2.9142683],"ct":"ES","tp":"CS","ts":"2023-03-31T20:12:39Z","tX":520,"tY":381,"tags":{"addr:city":"Tossa De Mar","addr:full":"Ctra. Llagostera Km. 1,5 P.O. Box 340","addr:postcode":"17320","caravans":"no","contact:email":"info@bungalowsturismar.com","contact:phone":"+34 972 343 073","contact:website":"http://www.bungalowsturismar.com/","name":"Càmping Turismar","name:ca":"Càmping Turismar","openfire":"no","tents":"yes"}},"11642374969":{"location":[41.7201026,2.926242],"ct":"ES","tp":"CR","ts":"2024-02-19T19:15:21Z","tX":520,"tY":381,"tags":{}}}