{"38426885":{"location":[56.4984264,15.3097249],"ct":"SE","tp":"CS","ts":"2015-06-17T19:33:35Z","tX":555,"tY":316,"tags":{"name":"Yxnanäs","surface":"grass"}},"431825147":{"location":[56.43813,15.24388],"ct":"SE","tp":"CS","ts":"2009-07-01T20:55:51Z","tX":555,"tY":316,"tags":{"name":"Blomstergårdens Camping & Stugby"}},"459495015":{"location":[56.5125416,15.1457427],"ct":"SE","tp":"CS","ts":"2024-06-07T05:05:01Z","tX":555,"tY":316,"tags":{"caravans":"yes","drinking_water":"yes","name":"Dångeboortens samhällsförening","shower":"yes","tents":"yes"}},"1191457659":{"location":[56.545797,15.3947208],"ct":"SE","tp":"CR","ts":"2023-07-22T17:41:49Z","tX":555,"tY":316,"tags":{"name":"Camping Häljanäs"}},"1388994566":{"location":[56.4789982,15.2324837],"ct":"SE","tp":"CS","ts":"2024-08-08T10:09:25Z","tX":555,"tY":316,"tags":{"addr:city":"Älmeboda","addr:housenumber":"5","addr:postcode":"36298","addr:street":"Abrahamshult","caravans":"yes","drinking_water":"yes","email":"info@abrahamscamp.com","fee":"yes","name":"Abrahams Camp","power_supply":"yes","sanitary_dump_station":"yes","shower":"yes","tents":"yes","toilets":"yes","website":"https://www.abrahamscamp.com/"}},"2334615652":{"location":[56.4159737,15.2089184],"ct":"SE","tp":"CS","ts":"2025-06-09T14:27:39Z","tX":555,"tY":316,"tags":{"addr:city":"ERINGSBODA","addr:housenumber":"57","addr:postcode":"370 17","addr:province":"Ronneby kommun","addr:street":"Hjorthålan","drinking_water":"yes","name":"Hjorthålans Camping & stugby","phone":"+46 457 455031","picnic_table":"yes","power_supply":"yes","shower":"yes","tents":"yes","toilets":"yes","website":"http://www.hjorthalan.eu/camping_en.html"}}}