{"295965805":{"location":[54.1402248,15.2863981],"ct":"PL","tp":"CS","ts":"2021-05-17T21:46:01Z","tX":555,"tY":328,"tags":{"addr:city":"Mrzeżyno","addr:country":"PL","addr:postcode":"72-330","addr:street":"Trzebiatowska","name":"Camping Portowy","operator":"Zakład Gminny Mrzeżyno Sp. z o.o.","source:geometry":"Trzebiatów - usługa przeglądania WMS rejestru MPZP (320508_3, iMPZP); WMS Geoportal powiatowy 3205 gryficki http://188.112.63.47/cgi-bin/gryfice","website":"http://camping.mrzezyno.pl/asp/camping_portowy.asp?typ=14&menu=20&strona=1"}},"295965811":{"location":[54.140719,15.307248],"ct":"PL","tp":"CS","ts":"2018-08-30T07:22:10Z","tX":555,"tY":328,"tags":{"addr:city":"Mrzeżyno","addr:city:simc":"0784697","addr:housenumber":"34","addr:postcode":"72-330","addr:street":"Letniskowa","addr:street:sym_ul":"10972","alt_name":"Rega 193","caravans":"yes","loc_name":"Rega","name":"Camping Rega 193","official_name":"Camping Rega 193","operator":"Zakład Gminny „Mrzeżyno” Sp. z o.o.","phone":"+48913866239","ref:pfcc":"193","short_name":"Rega 193","source:addr":"trzebiatow.e-mapa.net","stars":"2","tents":"yes","website":"http://camping.mrzezyno.pl/"}},"434827187":{"location":[54.1606526,15.4254083],"ct":"PL","tp":"CS","ts":"2024-08-09T17:19:44Z","tX":555,"tY":328,"tags":{"addr:city":"Dźwirzyno","addr:housenumber":"48h","addr:postcode":"78-131","addr:street":"Wyzwolenia","bar":"yes","capacity":"600","capacity:persons":"633","caravans":"yes","check_date":"2024-07-31","drinking_water":"yes","email":"camping@gmina.kolobrzeg.pl","fax":"+48 94 352 60 08","fee":"yes","fridge":"no","name":"Camping 88 Biała Mewa","nudism":"no","operator":"Gminny Ośrodek Sportu, Turystyki i Rekreacji w Dźwirzynie","phone":"+48 94 358 54 02","power_supply":"yes","ref:pfcc":"88","sanitary_dump_station":"yes","shower":"yes","stars":"3","static_caravans":"yes","swimming_pool":"no","tents":"yes","toilets":"yes","toilets:paper_supplied":"no","website":"http://www.camping88.dzwirzyno.pl/","wheelchair":"limited"}},"536736815":{"location":[54.1415508,15.2884033],"ct":"PL","tp":"SD","ts":"2019-02-24T12:28:24Z","tX":555,"tY":328,"tags":{"building":"storage_tank","height":"0.5","man_made":"storage_tank"}},"700568721":{"location":[54.1456947,15.2856143],"ct":"PL","tp":"CR","ts":"2019-06-29T19:32:42Z","tX":555,"tY":328,"tags":{"fee":"May 01-Sep 15","operator":"Rescue Team Usługi ratownicze Piotr Worwa","supervised":"no"}},"715552426":{"location":[54.1037261,15.1263922],"ct":"PL","tp":"CS","ts":"2023-11-09T10:13:02Z","tX":555,"tY":328,"tags":{"addr:city":"Pogorzelica","addr:housenumber":"1","addr:postcode":"72-351","addr:street":"Morska","caravans":"yes","natural":"wood","phone":"+48 607 450 857","tents":"yes","website":"https://www.polenamiotowepogorzelica.pl/"}},"837645384":{"location":[54.0932986,15.1312129],"ct":"PL","tp":"CS","ts":"2023-09-15T16:16:34Z","tX":555,"tY":328,"tags":{"cabins":"yes","caravans":"yes","email":"aleksandra@ciszek.com.pl","name":"Camping Czahary","phone":"+48 502 555 673; +48 91 386 31 52","shower":"yes","tents":"yes","toilets":"yes","website":"http://www.czahary.pl/"}},"841063773":{"location":[54.1504481,15.3492085],"ct":"PL","tp":"CS","ts":"2024-09-26T08:32:01Z","tX":555,"tY":328,"tags":{"addr:housenumber":"91","addr:place":"Rogowo","addr:postcode":"72-330","dog":"yes","fee":"yes","name":"Camping Rogowo","openfire":"yes","payment:american_express":"no","payment:cash":"yes","payment:coins":"yes","payment:credit_cards":"no","payment:debit_cards":"no","payment:maestro":"no","payment:mastercard":"no","payment:notes":"yes","payment:telephone_cards":"no","payment:visa":"no","power_supply":"yes","sanitary_dump_station":"yes","shower":"yes","source:addr":"survey","toilets":"yes"}},"842483351":{"location":[54.103835,15.1298385],"ct":"PL","tp":"CS","ts":"2020-08-30T21:25:41Z","tX":555,"tY":328,"tags":{"caravans":"yes","chalets":"yes","name":"Leśny Zakątek","natural":"wood","website":"https://lesny-zakatek.com/"}},"1079969008":{"location":[54.1518876,15.3432245],"ct":"PL","tp":"CR","ts":"2024-09-25T18:09:35Z","tX":555,"tY":328,"tags":{"email":"rezerwacje@seacamp.pl","landuse":"residential","name":"Sea Camp","phone":"+48 515 824 863","power_supply":"yes","tents":"yes","website":"https://seacamp.pl/"}},"1189940751":{"location":[54.1570718,15.4092431],"ct":"PL","tp":"CS","ts":"2023-07-16T07:29:07Z","tX":555,"tY":328,"tags":{"check_date":"2023-07-14","landuse":"residential","name":"Camping Bałtyk","phone":"+48 600 505 105","source:geometry":"WMS EGiB powiat kołobrzeski : Działki ewidencyjne - https://kolobrzeski.webewid.pl/wms/wms-egib.php","website":"http://www.domki-baltyk.pl/"}},"7809789838":{"location":[54.159948,15.4071354],"ct":"PL","tp":"CS","ts":"2020-08-13T11:17:03Z","tX":555,"tY":328,"tags":{"name":"Camping Jantar"}},"12150140286":{"location":[54.1517438,15.3428588],"ct":"PL","tp":"CS","ts":"2024-09-01T17:26:09Z","tX":555,"tY":328,"tags":{"name":"Sea Camp"}},"12097610851":{"location":[54.1603053,15.4258377],"ct":"PL","tp":"SD","ts":"2024-08-08T18:20:07Z","tX":555,"tY":328,"tags":{"access":"customers","fee":"no","opening_hours":"24/7","waste":"excrements"}},"12099311656":{"location":[54.1604059,15.4240414],"ct":"PL","tp":"SD","ts":"2024-08-08T18:37:40Z","tX":555,"tY":328,"tags":{"access":"customers","opening_hours":"24/7","waste":"excrements"}}}