{"7416302":{"location":[52.3187734,15.2877499],"ct":"PL","tp":"CS","ts":"2019-08-17T18:30:27Z","tX":555,"tY":336,"tags":{"name":"OW Zacisze","website":"https://zacisze.pl/"}},"26860257":{"location":[52.3504247,15.3393145],"ct":"PL","tp":"CS","ts":"2011-06-22T13:03:16Z","tX":555,"tY":336,"tags":{"name":"de Kroon"}},"329147564":{"location":[52.4091634,15.1265219],"ct":"PL","tp":"CS","ts":"2024-08-21T10:50:37Z","tX":555,"tY":336,"tags":{"caravans":"yes","drinking_water":"yes","email":"197226@wp.pl","fee":"yes","name":"Camping Marina","phone":"+48 608 275 272; +48 505 059 909","power_supply":"yes","sanitary_dump_station":"yes","shower":"yes","tents":"yes","toilets":"yes","website":"http://camping-marina.net16.net/"}},"974028084":{"location":[52.3179416,15.288126],"ct":"PL","tp":"SD","ts":"2021-08-17T12:24:05Z","tX":555,"tY":336,"tags":{}},"1214575273":{"location":[52.3324537,15.2940308],"ct":"PL","tp":"CS","ts":"2023-10-10T19:54:37Z","tX":555,"tY":336,"tags":{"addr:city":"Łagów","addr:housenumber":"7","addr:postcode":"66-220","addr:street":"Zamkowa","name":"AutoCamping"}},"4983645989":{"location":[52.4824,15.1702303],"ct":"PL","tp":"CS","ts":"2017-07-20T19:57:55Z","tX":555,"tY":336,"tags":{}},"7788407744":{"location":[52.2957552,15.2469394],"ct":"PL","tp":"CS","ts":"2020-08-17T07:41:16Z","tX":555,"tY":336,"tags":{"addr:housenumber":"16","addr:place":"Poźrzadło","addr:postcode":"66-233","capacity":"50","fee":"yes","internet_access":"wlan","internet_access:fee":"no","name":"Camping de Kroon","openfire":"yes","payment:cash":"yes","payment:coins":"yes","payment:notes":"yes","phone":"+4865 211 58 41","shower":"yes","toilets":"yes","wheelchair":"yes"}}}