{"30216533":{"location":[48.2425099,15.3402427],"ct":"AT","tp":"CS","ts":"2024-05-09T04:28:47Z","tX":555,"tY":354,"tags":{"addr:city":"Emmersdorf an der Donau","addr:country":"AT","addr:housenumber":"1","addr:postcode":"3644","addr:street":"Donaulände","caravans":"yes","drinking_water":"yes","fee":"yes","name":"Donau Camping Emmersdorf","operator":"Gemeinde Emmersdorf","phone":"+43 2752 717 07","power_supply":"yes","shower":"yes","tents":"yes","toilets":"yes","website":"https://donaucamping-emmersdorf.at/"}},"111152975":{"location":[48.2541464,15.3704815],"ct":"AT","tp":"CS","ts":"2024-07-24T13:05:23Z","tX":555,"tY":354,"tags":{"capacity:caravans":"70","capacity:tents":"20","caravans":"yes","fee":"yes","internet_access":"wlan","internet_access:fee":"no","mobile":"+43 677 637 033 88","name":"Wachau Camping Schönbühel","operator":"Oliver Szilágyi","power_supply":"yes","reservation":"yes","sanitary_dump_station":"yes","shower":"yes","tents":"yes","toilets":"yes","website":"https://www.wachaucamping-schoenbuehel.at/","wheelchair":"limited"}},"114228265":{"location":[48.4518822,15.2171119],"ct":"AT","tp":"CR","ts":"2016-04-03T12:12:16Z","tX":555,"tY":354,"tags":{"charge":"3 €","fee":"yes"}},"718103358":{"location":[48.2327808,15.3277835],"ct":"AT","tp":"CS","ts":"2024-10-04T14:21:04Z","tX":555,"tY":354,"tags":{"addr:city":"Melk","addr:country":"AT","addr:postcode":"3390","addr:street":"Rollfährestraße","caravans":"yes","drinking_water":"yes","fee":"yes","mobile":"+43 676 844 715 65 40","name":"Campingplatz Melk","operator":"Stadt Melk","power_supply":"yes","sanitary_dump_station":"yes","shower":"yes","tents":"yes","toilets":"yes","website":"https://www.visitmelk.com/melk-besuchen/aufenthalt/campingplatz"}},"804550837":{"location":[48.2980907,15.4049737],"ct":"AT","tp":"CR","ts":"2025-04-22T14:17:10Z","tX":555,"tY":354,"tags":{"description":"öffentliche Toiletten am Dorfplatz 48.29428° N, 15.40440° E","website":"https://www.aggsbach.gv.at/Tourismus_Freizeit/Tourismus/Wohnmobil_Abstellplaetze"}},"804550838":{"location":[48.2985026,15.4045547],"ct":"AT","tp":"CR","ts":"2024-08-28T09:34:26Z","tX":555,"tY":354,"tags":{"fee":"no","website":"https://www.aggsbach.gv.at/Tourismus_Freizeit/Tourismus/Wohnmobil_Abstellplaetze"}},"1488626552":{"location":[48.4239222,15.2276204],"ct":"AT","tp":"CR","ts":"2019-09-08T10:03:09Z","tX":555,"tY":354,"tags":{}},"2745986182":{"location":[48.3141506,15.2057673],"ct":"AT","tp":"CS","ts":"2023-04-24T21:11:14Z","tX":555,"tY":354,"tags":{"alt_name":"Camping Pöggstall","caravans":"yes","email":"gemeinde@poeggstall.at","name":"Campingplatz Mandlgupf","phone":"+43 676 3388505","tents":"yes","toilets":"yes","website":"https://www.poeggstall.at/Campingplatz_Poeggstall"}},"8950266068":{"location":[48.2302259,15.330401],"ct":"AT","tp":"CR","ts":"2021-07-26T05:34:03Z","tX":555,"tY":354,"tags":{"capacity":"5","fee":"yes","internet_access":"no"}}}