{"4655665":{"location":[46.751969,15.3605821],"ct":"AT","tp":"CR","ts":"2021-09-24T19:57:20Z","tX":555,"tY":361,"tags":{"name":"Weinland Camping"}},"160015640":{"location":[46.6708304,15.4392394],"ct":"AT","tp":"CS","ts":"2022-12-10T17:20:36Z","tX":555,"tY":361,"tags":{"addr:city":"Leutschach an der Weinstraße","addr:country":"AT","addr:housenumber":"69","addr:place":"Eichberg-Trautenburg","addr:postcode":"8463","contact:email":"office@route69.at","contact:mobile":"+43 676 6920052","name":"ROUTE 69","website":"https://www.route69.at/","weinmobil:note":"Bitte weinmobil:ref nicht entfernen, dient zum automatischen Update.","weinmobil:ref":"403"}},"224785663":{"location":[46.6930966,15.2525496],"ct":"AT","tp":"CS","ts":"2024-04-04T07:57:05Z","tX":555,"tY":361,"tags":{"access":"customers","addr:city":"Eibiswald","addr:country":"AT","addr:housenumber":"127","addr:place":"Eibiswald","addr:postcode":"8552","capacity:caravans":"49","caravans":"yes","contact:email":"info@oelspur-camping.at","fee":"yes","name":"Ölspur Camping","note":"Saisonstart 11.04.2024","opening_hours":"Apr 11 -","operator":"Gregor Moser","payment:cash":"yes","phone":"+43 660 3490810","shower":"hot","static_caravans":"yes","tents":"yes","toilets":"yes","website":"https://www.oelspur-camping.at/"}},"618247705":{"location":[46.7232626,15.2923161],"ct":"AT","tp":"CS","ts":"2024-03-27T20:00:55Z","tX":555,"tY":361,"tags":{"addr:housenumber":"20","addr:street":"Badstraße","caravans":"yes","fee":"yes","internet_access":"wlan","name":"Sulmtal-Camp","tents":"yes"}},"704758915":{"location":[46.7249507,15.4250176],"ct":"AT","tp":"CS","ts":"2024-03-27T19:48:56Z","tX":555,"tY":361,"tags":{"caravans":"yes","email":"urlaub@strablegg.at","name":"Winzerhof Camping Strablegg","note":"website: \"Der Campingplatz liegt im Tal am Fuße des Weinberges auf einer Anhöhe neben unserem Naturbadeteich. Insgesamt stehen 10 geräumige Stellplätze, für Ihren Wohnwagen bzw. Ihr Wohnmobil zur Verfügung.\" -> tents=no","phone":"+43 664 34 24 121","tents":"no","website":"https://strablegg.at/urlaub/"}},"840890718":{"location":[46.7978811,15.4229574],"ct":"AT","tp":"CS","ts":"2024-08-07T18:08:22Z","tX":555,"tY":361,"tags":{"addr:city":"Kitzeck","addr:housenumber":"93","addr:postcode":"8444","addr:street":"Höch","caravans":"yes","drinking_water":"yes","name":"Naturparkcamping Sausalerland","phone":"+43 664 75442905;+43 664 4457184","tents":"no"}},"1296268430":{"location":[46.7625553,15.2047185],"ct":"AT","tp":"CS","ts":"2024-06-26T05:46:59Z","tX":555,"tY":361,"tags":{"addr:city":"Bad Schwanberg","addr:country":"AT","addr:housenumber":"20","addr:postcode":"8541","addr:street":"Forst","capacity:caravans":"24","caravans":"yes","fee":"yes","fixme":"Please fix with new arial picture","name":"Camping Bad Schwanberg","operator":"Marktgemeinde Bad Schwanberg"}},"1493028446":{"location":[46.6083484,15.2022098],"ct":"SI","tp":"CR","ts":"2011-11-06T08:09:49Z","tX":555,"tY":361,"tags":{"construction":"yes","power_supply":"yes"}},"12011702476":{"location":[46.7629233,15.2049683],"ct":"AT","tp":"SD","ts":"2024-06-26T05:46:59Z","tX":555,"tY":361,"tags":{"access":"customers"}}}