{"6994287":{"location":[46.1975997,15.1707376],"ct":"SI","tp":"CS","ts":"2022-12-06T13:09:26Z","tX":555,"tY":363,"tags":{"addr:city":"Griže","addr:housenumber":"165","addr:place":"Pongrac","addr:postcode":"3302","bbq":"yes","cabins":"1","capacity":"40","caravans":"3","drinking_water":"yes","fee":"yes","group_only":"no","kitchen":"yes","name":"Kmetija Tratnik Kamp","phone":"+38640745972","picnic_table":"yes","power_supply":"yes","ref:gurs:hs_mid":"15711353","sanitary_dump_station":"no","shower":"yes","source:addr":"GURS","source:addr:date":"1998-11-22","swimming_pool":"no","tents":"yes","toilets":"yes","website":"https://www.facebook.com/kmetijatratnik.kampkotecnik"}},"358244258":{"location":[46.2627997,15.298459],"ct":"SI","tp":"CS","ts":"2020-09-19T10:12:00Z","tX":555,"tY":363,"tags":{"addr:city":"Celje","addr:housenumber":"37a","addr:street":"Zadobrova","camp_site":"serviced","caravans":"yes","fee":"yes","name":"Autocamping Celje","openfire":"no","phone":"+386 41 726 516","power_supply":"yes","shower":"yes","tents":"yes","toilets":"yes","website":"https://www.camping-celje.com/"}},"605031503":{"location":[46.2254389,15.2612048],"ct":"SI","tp":"CR","ts":"2020-05-19T11:24:17Z","tX":555,"tY":363,"tags":{}},"1313984150":{"location":[46.2245317,15.3420584],"ct":"SI","tp":"CS","ts":"2024-09-07T18:18:51Z","tX":555,"tY":363,"tags":{"access":"customers","addr:city":"Štore","addr:housenumber":"6","addr:postcode":"3220","addr:street":"Ogorevc","caravans":"yes","email":"info@artisek.si","fee":"yes","internet_access":"wlan","name":"Domačija Artišek","tents":"yes","website":"https://artisek.si/"}},"4942375821":{"location":[46.2787879,15.1421641],"ct":"SI","tp":"CS","ts":"2017-06-29T14:45:12Z","tX":555,"tY":363,"tags":{"name:hu":"Kotecnik"}},"5039617179":{"location":[46.2407918,15.1539552],"ct":"SI","tp":"CR","ts":"2024-04-01T20:40:13Z","tX":555,"tY":363,"tags":{"capacity":"4","fee":"no","internet_access":"no","operator":"Zalec","phone":"+38637100434","power_supply":"yes","sanitary_dump_station":"yes","website":"https://www.turizem-zalec.si/sl/imenik/196/postajalisce-za-avtodome"}},"7537388539":{"location":[46.2250414,15.2670744],"ct":"SI","tp":"CR","ts":"2020-05-19T11:25:12Z","tX":555,"tY":363,"tags":{}},"7537421164":{"location":[46.1951127,15.275588],"ct":"SI","tp":"CR","ts":"2021-07-12T16:22:10Z","tX":555,"tY":363,"tags":{}},"11407244777":{"location":[46.2218544,15.3998496],"ct":"SI","tp":"CR","ts":"2023-12-10T11:21:48Z","tX":555,"tY":363,"tags":{"internet_access":"wlan","internet_access:fee":"no","phone":"+386 41 660 091;+386 3 749 25 23","power_supply":"yes","sanitary_dump_station":"no","website":"https://www.turizem-sentjur.com/Postajalisca-za-avtodome/pza-sentjur-mesto/"}},"7537378059":{"location":[46.2254202,15.2610851],"ct":"SI","tp":"SD","ts":"2020-05-19T11:24:17Z","tX":555,"tY":363,"tags":{}},"7537390346":{"location":[46.2250929,15.2670134],"ct":"SI","tp":"SD","ts":"2020-05-19T11:26:00Z","tX":555,"tY":363,"tags":{}},"7537429300":{"location":[46.1948059,15.2755829],"ct":"SI","tp":"SD","ts":"2020-05-19T11:30:02Z","tX":555,"tY":363,"tags":{}}}