{"132662452":{"location":[44.1259722,15.1198524],"ct":"HR","tp":"CS","ts":"2023-05-01T16:33:41Z","tX":555,"tY":371,"tags":{"caravans":"yes","drinking_water":"yes","name":"Marijo","shower":"yes","tents":"yes","toilets":"yes"}},"170769996":{"location":[44.2363093,15.166384],"ct":"HR","tp":"CS","ts":"2024-08-03T06:30:38Z","tX":555,"tY":371,"tags":{"cabins":"yes","capacity:tents":"6000","caravans":"yes","loc_name":"Zaton","name":"Zaton Holiday Village","operator":"Turisthotel d.o.o.","phone":"+385 23 280280","shower":"yes","tents":"yes","toilets":"yes","website":"https://www.zaton.hr/","wheelchair":"yes"}},"295309455":{"location":[44.2833071,15.4594324],"ct":"HR","tp":"CS","ts":"2023-11-20T14:34:26Z","tX":555,"tY":371,"tags":{"caravans":"yes","name":"Autocamp Jaz","phone":"+385 23 359 204","tents":"yes","website":"http://metrobroadband.metronet.hr/ivana-grbic/index.html"}},"295309457":{"location":[44.2866727,15.4524624],"ct":"HR","tp":"CS","ts":"2023-01-08T15:23:30Z","tX":555,"tY":371,"tags":{"caravans":"yes","drinking_water":"yes","internet_access":"wlan","name":"Autocamp Marko","phone":"+385 23 369 283","power_supply":"yes","shower":"yes","tents":"yes","toilets":"yes","toilets:wheelchair":"no","wheelchair":"yes"}},"295309459":{"location":[44.285838,15.4526244],"ct":"HR","tp":"CS","ts":"2023-02-18T16:01:40Z","tX":555,"tY":371,"tags":{"caravans":"yes","name":"Autocamp Vesna","tents":"yes","website":"http://www.autokamp-vesna.com/"}},"295309462":{"location":[44.3006679,15.4311004],"ct":"HR","tp":"CS","ts":"2024-03-12T20:46:33Z","tX":555,"tY":371,"tags":{"caravans":"yes","drinking_water":"yes","name":"Camping Plantaža","power_supply":"yes","shower":"yes","tents":"yes","website":"http://www.pansion-plantaza.com/campsite/"}},"295309470":{"location":[44.3181163,15.4042847],"ct":"HR","tp":"CS","ts":"2023-04-24T19:03:10Z","tX":555,"tY":371,"tags":{"addr:city":"Starigrad-Paklenica","addr:postcode":"23244","addr:street":"Ladjin Porat","internet_access":"wlan","internet_access:fee":"no","name":"Pinus","phone":"+385 23 658 652","stars":"2","website":"http://www.camping-pinus.com"}},"295309474":{"location":[44.3226408,15.3903249],"ct":"HR","tp":"CS","ts":"2023-08-17T08:23:15Z","tX":555,"tY":371,"tags":{"name":"Stine","phone":"+385915946181"}},"326377112":{"location":[44.2563371,15.1258256],"ct":"HR","tp":"CR","ts":"2021-08-11T19:53:17Z","tX":555,"tY":371,"tags":{"name":"Autokamp \"Dalmacija\""}},"354800805":{"location":[44.1363644,15.2141659],"ct":"HR","tp":"CR","ts":"2024-08-11T23:57:54Z","tX":555,"tY":371,"tags":{"addr:city":"Zadar","addr:housenumber":"7","addr:postcode":"23000","addr:street":"Majstora Radovana","brand":"Falkensteiner Hotels & Residences","cabins":"yes","capacity:caravans":"2700","caravans":"yes","email":"campingzadar@reservations.falkensteiner.com","internet_access":"wlan","internet_access:fee":"no","name":"Premium Camping Zadar","operator":"Borik d.o.o.","phone":"+39 0472 6941 03","power_supply":"yes","ref:vatin":"HR89869631318","sanitary_dump_station":"yes","tents":"yes","toilets":"yes","website":"https://www.falkensteiner.com/premium-camping-zadar"}},"376509163":{"location":[44.2469783,15.1743714],"ct":"HR","tp":"CS","ts":"2023-03-12T17:34:46Z","tX":555,"tY":371,"tags":{"addr:city":"Nin","addr:housenumber":"10","addr:street":"Put Blata","caravans":"yes","fee":"yes","internet_access":"wlan","internet_access:fee":"no","internet_access:ssid":"ninskalaguna","name":"Ninska Laguna","power_supply":"yes","sanitary_dump_station":"yes","shower":"yes","tents":"yes","toilets":"yes","website":"https://www.ninskalaguna.hr/"}},"376509164":{"location":[44.2454505,15.1741669],"ct":"HR","tp":"CS","ts":"2019-03-23T20:04:56Z","tX":555,"tY":371,"tags":{"name":"Kamp \"Nin\"","website":"https://www.campingnin.hr/"}},"432729053":{"location":[44.2894689,15.4537314],"ct":"HR","tp":"CS","ts":"2023-01-08T15:26:39Z","tX":555,"tY":371,"tags":{"contact:website":"https://www.camp-paklenica.com/","name":"Camp Anica Kuk","phone":"+38 523369275","power_supply":"yes"}},"512630900":{"location":[44.2506295,15.1689919],"ct":"HR","tp":"CS","ts":"2019-07-15T21:15:36Z","tX":555,"tY":371,"tags":{"fee":"yes","name":"Ninska Laguna 2","website":"https://www.ninskalaguna.hr/camping/ninska-laguna-2/"}},"535213688":{"location":[44.2880749,15.4465591],"ct":"HR","tp":"CS","ts":"2020-02-01T21:12:22Z","tX":555,"tY":371,"tags":{"name":"Camping Rujno"}},"567186980":{"location":[44.2986159,15.4310617],"ct":"HR","tp":"CR","ts":"2025-01-08T08:26:59Z","tX":555,"tY":371,"tags":{"addr:city":"Starigrad","addr:housenumber":"6","addr:street":"Put plantaže","email":"info@michael.hr","name":"Minicamp Michael","phone":"+38523369137","website":"http://www.michael.hr/"}},"715813999":{"location":[44.3383307,15.339782],"ct":"HR","tp":"CS","ts":"2019-08-24T19:30:40Z","tX":555,"tY":371,"tags":{"fee":"yes","name":"Punta"}},"716026376":{"location":[44.331197,15.3617778],"ct":"HR","tp":"CS","ts":"2024-07-13T21:12:52Z","tX":555,"tY":371,"tags":{"addr:housenumber":"13","addr:street":"E65","fee":"yes","name":"Camp Navis","opening_hours":"Mo-Su 07:00-19:00","phone":"+385 91 5114 694","website":"https://www.camp-navis.com/"}},"717945144":{"location":[44.3374577,15.3414403],"ct":"HR","tp":"CS","ts":"2019-08-24T19:30:40Z","tX":555,"tY":371,"tags":{"cabins":"yes","caravans":"yes","dog":"yes","email":"info@campsibuljina.com","fax":"+385 23 658 004","fee":"yes","internet_access":"wlan","internet_access:fee":"no","name":"Camp Šibuljina","phone":"+385 23 658 004","power_supply":"yes","reservation":"yes","sanitary_dump_station":"yes","static_caravans":"yes","tents":"yes","washing_machine":"yes","website":"http://www.campsibuljina.com/english/"}},"724085438":{"location":[44.2783663,15.343675],"ct":"HR","tp":"CS","ts":"2022-01-22T19:46:44Z","tX":555,"tY":371,"tags":{"name":"Camping Planik","source":"eigene Aufnahme"}},"919016451":{"location":[44.2490764,15.1324198],"ct":"HR","tp":"CS","ts":"2012-09-09T16:11:41Z","tX":555,"tY":371,"tags":{"name":"Nina"}},"1176921607":{"location":[44.178011,15.1612645],"ct":"HR","tp":"CS","ts":"2023-07-15T17:29:41Z","tX":555,"tY":371,"tags":{"addr:city":"Petrčane","addr:housenumber":"21","addr:postcode":"23231","addr:street":"Punta Radman","capacity":"30","capacity:pitches":"30","caravans":"yes","contact:email":"info@camp-pineta.com","contact:mobile":"+385 91 799 3800","contact:phone":"+385 23 364 261","contact:website":"https://www.camp-pineta.com","dog":"yes","motor_vehicle":"yes","motorhome":"yes","name":"Camp Pineta","power_supply":"yes","sanitary_dump_station":"customers","stars":"2","tents":"yes","washing_machine":"yes"}},"1456282912":{"location":[44.1066601,15.1548612],"ct":"HR","tp":"CS","ts":"2011-10-05T20:52:28Z","tX":555,"tY":371,"tags":{"name":"Novi Kamp"}},"1593362509":{"location":[44.2870472,15.4472695],"ct":"HR","tp":"CS","ts":"2023-03-12T14:54:32Z","tX":555,"tY":371,"tags":{"cabins":"yes","caravans":"yes","email":"camping@bluesunhotels.com","name":"Paklenica","phone":"+38513844288","shower":"yes","tents":"yes","toilets":"yes","website":"https://www.bluesuncamping.com/"}},"1593362513":{"location":[44.2884709,15.4457485],"ct":"HR","tp":"CS","ts":"2023-09-05T16:15:41Z","tX":555,"tY":371,"tags":{"caravans":"yes","drinking_water":"yes","name":"Paklenica National Park","power_supply":"yes","shower":"yes","tents":"yes","toilets":"yes","website":"www.paklenica.hr/en/index.php/park/tourist-facilities/camp-nacionalni-park"}},"2129444969":{"location":[44.2302548,15.1731826],"ct":"HR","tp":"CS","ts":"2024-07-22T20:10:54Z","tX":555,"tY":371,"tags":{"addr:city":"Zaton","addr:housenumber":"14","addr:street":"Put Petra Zoranića","name":"Autocamp Peros","operator":"Kampiranje Peroš d.o.o.","phone":"+38523265830","website":"http://www.autocamp-peros.hr"}},"3265304906":{"location":[44.2896168,15.4489966],"ct":"HR","tp":"CS","ts":"2023-03-26T21:28:01Z","tX":555,"tY":371,"tags":{"cabins":"yes","caravans":"yes","email":"villapopo@gmail.com","mobile":"+385 98 1778589","name":"Villa POPO","phone":"+385 23 369120","shower":"yes","tents":"yes","toilets":"yes","website":"http://www.villa-popo.com/"}},"4365317852":{"location":[44.123605,15.1220617],"ct":"HR","tp":"CS","ts":"2016-08-24T19:15:19Z","tX":555,"tY":371,"tags":{"access":"permissive","name":"Činta - kamp Saveza baptističkih crkava u RH","source":"OSM note"}},"4934100068":{"location":[44.2921352,15.3024559],"ct":"HR","tp":"CS","ts":"2023-05-02T16:22:56Z","tX":555,"tY":371,"tags":{"caravans":"yes","drinking_water":"yes","internet_access":"wlan","name":"Camping Miočić","shower":"yes","tents":"yes","toilets":"yes","wheelchair":"limited"}},"5495731621":{"location":[44.2858221,15.4514159],"ct":"HR","tp":"CS","ts":"2019-09-07T19:59:20Z","tX":555,"tY":371,"tags":{"name":"Autocamp Katinka","website":"http://camp-katinka.com/"}},"10102635375":{"location":[44.2838453,15.4584327],"ct":"HR","tp":"CS","ts":"2022-10-15T06:35:12Z","tX":555,"tY":371,"tags":{"name":"Peko"}},"10107115078":{"location":[44.2402821,15.1342768],"ct":"HR","tp":"CS","ts":"2022-10-16T20:06:03Z","tX":555,"tY":371,"tags":{"name":"Autocamp Punta"}},"10862705009":{"location":[44.3004994,15.2889788],"ct":"HR","tp":"CS","ts":"2023-05-02T16:22:43Z","tX":555,"tY":371,"tags":{"caravans":"yes","drinking_water":"yes","name":"Odmoree Camp & Hostel","shower":"yes","tents":"yes","toilets":"yes"}},"11246711135":{"location":[44.2837042,15.3426553],"ct":"HR","tp":"CS","ts":"2023-10-07T19:01:35Z","tX":555,"tY":371,"tags":{"addr:housenumber":"23248","addr:street":"Ražanac","description":"Mini Camping","name":"Camping Puntica","phone":"+385 23 651 230","website":"https://www.camping-puntica.hr/hr/"}},"11290282466":{"location":[44.2396949,15.1358724],"ct":"HR","tp":"CS","ts":"2023-10-26T07:29:05Z","tX":555,"tY":371,"tags":{"contact:email":"camptabor2016@gmail.com","contact:phone":"+385 958 922 345","name":"Autocamp Tabor","website":"https://autocamptabor.eu/"}},"5916734285":{"location":[44.1030016,15.2471046],"ct":"HR","tp":"CR","ts":"2023-04-01T15:48:17Z","tX":555,"tY":371,"tags":{"internet_access":"wlan","motorhome":"designated","name":"Futura Campers","phone":"+385 91 531 9981"}},"7746870585":{"location":[44.2832928,15.4636874],"ct":"HR","tp":"CR","ts":"2020-07-25T15:38:30Z","tX":555,"tY":371,"tags":{"name":"Kamp Igor"}},"10936332826":{"location":[44.1779355,15.1615554],"ct":"HR","tp":"SD","ts":"2023-05-29T07:36:05Z","tX":555,"tY":371,"tags":{}}}