{"108684297":{"location":[41.9099066,15.3278802],"ct":"IT","tp":"CS","ts":"2024-08-12T08:45:02Z","tX":555,"tY":380,"tags":{"caravans":"yes","motorhome":"yes","name":"Villaggio Albatros","phone":"+39  071.9300500","website":"https://www.albatrosvillaggio.it/"}},"405019151":{"location":[41.8644462,15.3577307],"ct":"IT","tp":"CR","ts":"2024-07-16T16:01:44Z","tX":555,"tY":380,"tags":{"addr:city":"Lesina","addr:street":"Via Banchina Vollaro","name":"Oasi","phone":"+39 389 682 1725","power_supply":"yes","website":"https://www.facebook.com/oasisostacamperlesina"}},"562518168":{"location":[41.9137097,15.3336243],"ct":"IT","tp":"CS","ts":"2018-02-19T16:17:54Z","tX":555,"tY":380,"tags":{"name":"Lido Rosa affittacamere"}},"1083753301":{"location":[41.912627,15.3256596],"ct":"IT","tp":"CS","ts":"2024-08-21T18:27:19Z","tX":555,"tY":380,"tags":{"addr:city":"Lesina Marina","addr:postcode":"71010","addr:street":"Viale Fortore","caravans":"yes","fee":"yes","motorhome":"yes","name":"Area Camper Caravan Lido Mirage","phone":"+39 380 6482359","power_supply":"yes","shower":"yes","socket:cee_blue":"yes","tents":"yes","toilets":"yes","website":"https://www.lidomiragelesina.it/"}},"1083754643":{"location":[41.9141163,15.3295729],"ct":"IT","tp":"CS","ts":"2024-08-12T08:45:02Z","tX":555,"tY":380,"tags":{"addr:city":"Lesina Marina","addr:postcode":"71010","addr:street":"Viale Fortore","capacity:caravans":"300","caravans":"yes","fee":"yes","name":"Agricampeggio La Pineta","phone":"+39 3299632918","power_supply":"yes","shower":"yes","socket:cee_blue":"yes","static_caravans":"no","tents":"yes","toilets":"yes","website":"https://www.agricampeggio-la-pineta.it/"}},"1242168765":{"location":[41.9052864,15.3538034],"ct":"IT","tp":"CR","ts":"2011-04-12T17:22:35Z","tX":555,"tY":380,"tags":{}},"1242169227":{"location":[41.905918,15.3522553],"ct":"IT","tp":"CS","ts":"2011-04-12T17:22:52Z","tX":555,"tY":380,"tags":{}},"12057480062":{"location":[41.9161345,15.3339122],"ct":"IT","tp":"CR","ts":"2024-07-16T15:47:55Z","tX":555,"tY":380,"tags":{"name":"Lido Rosa","power_supply":"no","sanitary_dump_station":"no"}},"12057508900":{"location":[41.8936931,15.3452424],"ct":"IT","tp":"CR","ts":"2024-07-16T15:57:17Z","tX":555,"tY":380,"tags":{"capacity":"10","email":"info@inlaguna.it","name":"In Laguna","phone":"+39 3285 887054","sanitary_dump_station":"no","website":"https://www.inlaguna.it/"}}}