{"11126851":{"location":[38.2128609,15.2400294],"ct":"IT","tp":"CR","ts":"2024-09-25T06:59:33Z","tX":555,"tY":394,"tags":{"addr:housenumber":"90","addr:postcode":"98057","addr:street":"Via Filippo Migliavacca","fee":"yes","name":"Garage delle Isole","opening_hours":"Mo-Su 07:00-20:00","parking":"surface","phone":"+39 090 9223256","power_supply":"yes","sanitary_dump_station":"yes","socket:cee_blue":"yes","toilets":"yes","website":"https://www.garagedelleisole.it/"}},"18463998":{"location":[38.1902812,15.224661],"ct":"IT","tp":"CS","ts":"2024-12-25T21:42:26Z","tX":555,"tY":394,"tags":{"agritourism":"yes","caravans":"yes","charge":"35€","contact:whatsapp":"+393351891292","description":"Possibilità parking cmaper con servizio navetta per Eolie incluso","fee":"yes","internet_access":"wlan","internet_access:fee":"no","name":"Agricampeggio ed Area camper Il Gelsomino Ritrovato","opening_hours":"Jan 01-Dec 31","payment:cash":"yes","payment:credit_cards":"yes","payment:debit_cards":"yes","phone":"+39 335 189 1292","sanitary_dump_station":"customers","shower":"yes","swimming_pool":"outdoor","tents":"yes","toilets":"yes","website":"https://www.ilgelsominoritrovato.it/area-attrezzata-per-camper-a-milazzo/","wheelchair":"yes"}},"26860775":{"location":[38.2623814,15.2438625],"ct":"IT","tp":"CS","ts":"2024-06-27T18:38:21Z","tX":555,"tY":394,"tags":{"addr:city":"Milazzo","addr:country":"IT","addr:postcode":"98057","addr:street":"Piazzale Cirucco","email":"info@cirucco.it","internet_access":"wlan","name":"Cirucco","phone":"+39 090 9284746","website":"https://www.cirucco.it/"}},"369237717":{"location":[38.1381801,15.1416639],"ct":"IT","tp":"CS","ts":"2024-09-25T06:21:11Z","tX":555,"tY":394,"tags":{"addr:city":"Terme Vigliatore","addr:country":"IT","addr:housenumber":"283","addr:postcode":"98050","addr:state":"Sicily","addr:street":"Via Marchesana","cabins":"yes","caravans":"yes","dog":"yes","email":"info@campingsalica.it","facebook":"https://www.facebook.com/camping.salica/?locale=it_IT","internet_access":"wlan","internet_access:fee":"no","motorhome":"yes","name":"Camping Salicà","phone":"+39 328 1297625","reservation":"yes","stars":"3","tents":"yes","washing_machine":"yes","website":"https://www.campingsalica.it/"}},"600694274":{"location":[38.1325724,15.1241451],"ct":"IT","tp":"CR","ts":"2024-10-14T17:36:22Z","tX":555,"tY":394,"tags":{"addr:city":"Terme Vigliatore","addr:postcode":"98050","addr:street":"Via Comunale Acquitta","email":"info@sostacampertonnarella.it","fee":"yes","name":"Sosta Camper Tonnarella","phone":"+39 347 5593746","power_supply":"yes","sanitary_dump_station":"yes","shower":"yes","socket:cee_blue":"yes","toilets":"yes"}},"648755173":{"location":[38.1394814,15.146461],"ct":"IT","tp":"CR","ts":"2024-09-25T06:26:51Z","tX":555,"tY":394,"tags":{"addr:city":"Terme Vigliatore","addr:street":"Via Lungo Mare Marchesana","capacity":"100","description":"15 Euro dal 15 Settembre al 14 di Maggio\n20 Euro dal 15 Maggio al 30 Giugno \n25 Euro dal 1 Luglio al 31 Luglio \n30 Euro dal 1 Agosto al 31 Agosto \n20 Euro dal 1 Settembre al 14 Settembre","dog":"yes","fee":"yes","internet_access":"no","name":"Area Attrezzata - Sosta Camper Trinacria","phone":"+39 333 7239479","power_supply":"yes","power_supply:maxcurrent":"4","sanitary_dump_station":"yes","socket:cee_blue":"yes","website":"https://sostacampertrinacria.it/","wheelchair":"yes"}},"1027667185":{"location":[38.2118392,15.3224702],"ct":"IT","tp":"SD","ts":"2024-06-04T20:55:46Z","tX":555,"tY":394,"tags":{"name":"Impianto - Mare Pulito Srl"}},"1160643745":{"location":[38.1903459,15.2246401],"ct":"IT","tp":"CS","ts":"2024-09-25T06:33:38Z","tX":555,"tY":394,"tags":{"agritourism":"yes","caravans":"yes","charge":"35€","contact:whatsapp":"+393351891292","description":"Possibilità parking cmaper con servizio navetta per Eolie incluso","fee":"yes","name":"Agricampeggio ed Area camper Il Gelsomino Ritrovato","payment:cash":"yes","payment:credit_cards":"yes","payment:debit_cards":"yes","phone":"+39 335 18 91 292","shower":"yes","tents":"yes","toilets":"yes","website":"https://www.ilgelsominoritrovato.it/area-attrezzata-per-camper-a-milazzo/"}},"1271267266":{"location":[38.2623132,15.2441843],"ct":"IT","tp":"CS","ts":"2016-08-17T13:34:52Z","tX":555,"tY":394,"tags":{"addr:city":"Milazzo","addr:country":"IT","addr:postcode":"98057","addr:street":"Piazzale Cirucco","name":"Riva Smeralda","phone":"+39 090 9287791"}},"10926260993":{"location":[38.1683729,15.4116692],"ct":"IT","tp":"CR","ts":"2023-05-25T13:09:44Z","tX":555,"tY":394,"tags":{}}}