{"239666030":{"location":[37.749393,15.206497],"ct":"IT","tp":"CS","ts":"2013-09-27T22:04:21Z","tX":555,"tY":395,"tags":{"internet_access":"wlan","internet_access:fee":"yes","name":"Mokambo","website":"http://www.campingmokambo.it"}},"261430253":{"location":[37.8001849,15.2461186],"ct":"IT","tp":"CR","ts":"2023-04-03T15:07:02Z","tX":555,"tY":395,"tags":{}},"275660799":{"location":[37.8218758,15.2671063],"ct":"IT","tp":"CR","ts":"2024-05-02T18:37:46Z","tX":555,"tY":395,"tags":{"addr:housenumber":"22","addr:postcode":"98035","addr:street":"Viale Stracina","capacity":"100","caravans":"no","email":"info@parkinglagani.it","fee":"yes","internet_access":"no","mobile":"+39 339 7031392","motorhome":"designated","name":"Área Attrezzata Camper Lagani","name:es":"Área de autocaravanas Lagani","opening_hours":"24/7","phone":"+39 094254120","power_supply":"yes","sanitary_dump_station":"yes","toilets":"yes","website":"http://www.parkinglagani.it"}},"323615032":{"location":[37.931126,15.3555856],"ct":"IT","tp":"CS","ts":"2024-05-06T20:45:14Z","tX":555,"tY":395,"tags":{"caravans":"yes","ele":"0","internet_access":"wlan","internet_access:fee":"yes","name":"Camping La Focetta Sicula","note":"Open all year round directly on sea","operator":"Camping","payment:cash":"yes","payment:credit_card":"yes","phone":"+39 0942 751657","power_supply":"yes","source":"Camping La Focetta Sicula","website":"www.lafocetta.it","wheelchair":"yes"}},"407170383":{"location":[37.8188792,15.2641581],"ct":"IT","tp":"CS","ts":"2017-08-21T13:40:38Z","tX":555,"tY":395,"tags":{"addr:street":"Viale Dionisio","name":"Aurora Parking"}},"412284638":{"location":[37.9074942,15.3368662],"ct":"IT","tp":"CS","ts":"2024-03-06T20:54:12Z","tX":555,"tY":395,"tags":{"capacity":"65","caravans":"yes","drinking_water":"yes","email":"campeggioforzadagromare@yahoo.it","fax":"+39 0942 75115","name":"Camping Forza d'Agrò Mare","phone":"+39 0942 75115","power_supply":"yes","sanitary_dump_station":"yes","shower":"yes","tents":"yes","toilets":"yes","website":"http://www.campeggioforzadagromare.it/"}},"719024438":{"location":[37.8056106,15.2450122],"ct":"IT","tp":"CS","ts":"2019-08-27T19:45:55Z","tX":555,"tY":395,"tags":{"barrier":"wall","name":"Camping Int'l Almoetia","short_name":"Camping Almoetia"}},"725126140":{"location":[37.9314134,15.354802],"ct":"IT","tp":"CR","ts":"2024-05-05T08:46:06Z","tX":555,"tY":395,"tags":{"addr:city":"Sant'Alessio Siculo","addr:postcode":"98030","addr:street":"Via Mantineo","capacity":"40","contact:facebook":"https://www.facebook.com/triscellcampingit/","drinking_water":"yes","fee":"yes","internet_access":"wlan","internet_access:fee":"no","name":"Triscell - Area Attrezzata e Sosta Camper","opening_date":"2019","opening_hours":"Mo-Su 08:00-22:00","phone":"+39 379 1520968","power_supply":"yes","sanitary_dump_station":"yes","toilets":"yes","website":"https://www.triscell.it/","wheelchair":"yes"}},"966989107":{"location":[37.9087895,15.1432901],"ct":"IT","tp":"CR","ts":"2021-07-24T11:10:43Z","tX":555,"tY":395,"tags":{"name":"Aree Attrezzate Maremonti"}},"1233473026":{"location":[37.8956104,15.3252359],"ct":"IT","tp":"CS","ts":"2024-09-16T18:42:33Z","tX":555,"tY":395,"tags":{"addr:city":"Letojanni","addr:housenumber":"Km 41","addr:postcode":"98037","addr:street":"Strada statale Orientale Sicula","cabins":"yes","capacity":"250","caravans":"yes","contact:email":"campingparadise@campingparadise.it","contact:facebook":"https://m.facebook.com/lidocampingparadise","contact:fax":"+39 0942 36306","contact:instagram":"https://www.instagram.com/campingparadise/","contact:phone":"+39 0942 36306","contact:website":"https://www.campingparadise.it/","name":"Paradise","stars":"4","tents":"yes"}},"1278583518":{"location":[37.9805037,15.396891],"ct":"IT","tp":"CS","ts":"2024-09-16T18:36:43Z","tX":555,"tY":395,"tags":{"caravans":"yes","dog":"yes","fee":"yes","motorhome":"yes","name":"Area Attrezzata Camper Park Ionio","phone":"+39 334 1202290","power_supply":"yes","tents":"yes","website":"http://www.park-jonio.it/"}},"1373509433":{"location":[37.8608849,15.2936521],"ct":"IT","tp":"CS","ts":"2025-03-31T20:58:39Z","tX":555,"tY":395,"tags":{"addr:city":"Taormina","addr:postcode":"98039","addr:street":"Contrada Sant’Antonio","capacity":"20","email":"info@parcheggiotaormina.it","fee":"yes","internet_access":"yes","internet_access:fee":"no","name":"Area di sosta camper Sant’Antonio","nohousenumber":"yes","phone":"+393398048315","website":"https://www.parcheggiotaormina.it/#","wheelchair":"yes"}},"4047542622":{"location":[37.815978,15.2546186],"ct":"IT","tp":"CR","ts":"2024-11-19T19:15:01Z","tX":555,"tY":395,"tags":{"name":"Villaggio Alkantara"}},"6452688510":{"location":[37.8608579,15.2936526],"ct":"IT","tp":"CS","ts":"2022-08-24T12:14:26Z","tX":555,"tY":395,"tags":{"addr:city":"Taormina","addr:postcode":"98039","addr:street":"Contrada Sant’Antonio","capacity":"20","email":"info@parcheggiotaormina.it","fee":"yes","internet_access":"yes","internet_access:fee":"no","name":"Area di sosta camper Sant’Antonio","nohousenumber":"yes","phone":"+393398048315","website":"https://www.parcheggiotaormina.it/#","wheelchair":"yes"}},"11434317727":{"location":[37.8812947,15.3026147],"ct":"IT","tp":"CS","ts":"2023-12-20T07:23:40Z","tX":555,"tY":395,"tags":{"name":"EuroCamping Marmaruca"}},"12073328071":{"location":[37.9539711,15.2864522],"ct":"IT","tp":"CS","ts":"2024-09-16T18:41:01Z","tX":555,"tY":395,"tags":{"caravans":"yes","name":"A'Naca","phone":"+39 340 698 6807","tents":"yes"}},"5325395922":{"location":[37.8538182,15.2767136],"ct":"IT","tp":"CR","ts":"2023-05-27T06:47:40Z","tX":555,"tY":395,"tags":{"fee":"yes"}},"5700456822":{"location":[37.8187381,15.2642393],"ct":"IT","tp":"CR","ts":"2018-06-18T20:34:31Z","tX":555,"tY":395,"tags":{}},"6478914186":{"location":[37.8187073,15.2529595],"ct":"IT","tp":"CR","ts":"2023-02-05T07:06:07Z","tX":555,"tY":395,"tags":{"opening_hours":"24/7"}},"7444123334":{"location":[37.8791735,15.1765957],"ct":"IT","tp":"CR","ts":"2023-03-15T18:17:13Z","tX":555,"tY":395,"tags":{}},"10737752515":{"location":[37.8769526,15.1773709],"ct":"IT","tp":"CR","ts":"2023-03-15T18:05:49Z","tX":555,"tY":395,"tags":{"name":"Agripark"}},"10875149705":{"location":[37.8027694,15.2510316],"ct":"IT","tp":"CR","ts":"2023-05-07T08:02:51Z","tX":555,"tY":395,"tags":{"name:de":"Parkplatz"}}}