{"7011353":{"location":[46.8211313,29.5948485],"ct":"MD","tp":"CS","ts":"2020-02-05T19:36:25Z","tX":596,"tY":360,"tags":{"name":"МСОК «Содружество»","name:ru":"МСОК «Содружество»","name:uk":"МСОК «Співдружність»"}},"662375261":{"location":[46.8240673,29.5854344],"ct":"MD","tp":"CS","ts":"2021-07-06T10:43:38Z","tX":596,"tY":360,"tags":{"name":"База отдыха «Сэнэтатя»","name:md":"База де одихнэ «Сэнэтатя»","name:ro":"Baza de odihnă „Sănatatea”","name:ru":"База отдыха «Сэнэтатя»","name:uk":"База відпочинку «Сенетатя»"}},"670215487":{"location":[46.8249356,29.5964628],"ct":"MD","tp":"CS","ts":"2021-07-06T21:00:23Z","tX":596,"tY":360,"tags":{"name":"База отдыха «Коммунальник»","name:md":"База де одихнэ «Коммунальник»","name:ro":"Baza de odihnă \"Kommunalnik\"","name:ru":"База отдыха «Коммунальник»","name:uk":"База відпочинку «Комунальник»"}},"961890606":{"location":[46.8233109,29.5897118],"ct":"MD","tp":"CS","ts":"2021-07-06T10:04:39Z","tX":596,"tY":360,"tags":{"name":"Лагерь «Красная звезда»","name:ru":"Лагерь «Красная звезда»"}},"961890607":{"location":[46.8231348,29.5932196],"ct":"MD","tp":"CS","ts":"2021-07-06T21:00:23Z","tX":596,"tY":360,"tags":{"name":"Спортивный лагерь «Спартак»","name:md":"Табэра спортивэ «Спартакус»","name:ro":"Tabăra sportivă „Spartacus“","name:ru":"Спортивный лагерь «Спартак»","name:uk":"Спортивний табір «Спартак»"}},"4253307418":{"location":[46.844837,29.5666051],"ct":"MD","tp":"CR","ts":"2018-03-30T15:26:27Z","tX":596,"tY":360,"tags":{}},"8815255817":{"location":[46.8302037,29.6162893],"ct":"MD","tp":"CS","ts":"2022-08-01T14:21:56Z","tX":596,"tY":360,"tags":{"addr:housenumber":"2","addr:postcode":"3300","addr:street":"переулок Горплавни","name":"Weeking","name:en":"Weeking","opening_hours":"24/7","website":"https://weeking.org/"}},"8516299617":{"location":[46.8453423,29.6773032],"ct":"MD","tp":"CR","ts":"2021-05-12T08:24:04Z","tX":596,"tY":360,"tags":{"addr:street":"Гребеницкий проезд","name":"Лада - гаражный кооператив"}}}