{"8643511":{"location":[46.7891345,29.5457163],"ct":"MD","tp":"CS","ts":"2025-06-02T18:39:30Z","tX":596,"tY":361,"tags":{"addr:country":"MD","addr:street":"Меренешты База БМК","leisure":"resort","name":"База отдыха «Дача» Бендерский мясокомбинат","name:ru":"База отдыха «Дача» Бендерский мясокомбинат"}},"228405547":{"location":[46.7893967,29.5472973],"ct":"MD","tp":"CS","ts":"2019-02-13T12:40:24Z","tX":596,"tY":361,"tags":{"name":"База «Электроаппаратура»","name:ru":"База «Электроаппаратура»","name:uk":"База «Електроапаратура»"}},"230329545":{"location":[46.7854819,29.5515371],"ct":"MD","tp":"CS","ts":"2025-06-02T17:18:46Z","tX":596,"tY":361,"tags":{"addr:country":"MD","addr:housenumber":"70","addr:street":"улица Гоголя","landuse":"recreation_ground","name":"Лагерь «Юность»","name:ru":"Лагерь «Юность»","name:uk":"Табір «Юність»"}},"597009486":{"location":[46.7795294,29.5521536],"ct":"MD","tp":"CS","ts":"2023-10-01T19:21:05Z","tX":596,"tY":361,"tags":{"landuse":"recreation_ground","leisure":"resort","name":"ГУП ОК «Днестровские зори»","name:md":"Зориле Нистрене","name:ro":"Zorile Nistrene","name:ru":"ГУП «Оздоровительный комплекс «Днестровские зори»","name:uk":"Дністровські зорі","website":"https://dnestrzori.com/"}},"10120619620":{"location":[46.6740087,29.6133018],"ct":"MD","tp":"CS","ts":"2022-10-22T10:27:40Z","tX":596,"tY":361,"tags":{"name":"Grădina turcească"}}}