{"4920472922":{"location":[37.5080458,29.7091851],"ct":"TR","tp":"CS","ts":"2021-11-02T10:17:39Z","tX":596,"tY":396,"tags":{"internet_access":"wlan","name":"Belediye Halk Plajı"}},"4948138023":{"location":[37.519504,29.6733626],"ct":"TR","tp":"CS","ts":"2021-11-02T10:17:39Z","tX":596,"tY":396,"tags":{"name":"Salda Gölü Kamp Alanı","name:en":"Salda","operator":"Yeşilova Belediyesi"}},"5153046722":{"location":[37.5088716,29.707596],"ct":"TR","tp":"CS","ts":"2017-10-07T06:44:08Z","tX":596,"tY":396,"tags":{}},"5181173422":{"location":[37.5191785,29.6818325],"ct":"TR","tp":"CS","ts":"2021-11-02T10:17:39Z","tX":596,"tY":396,"tags":{"name":"Salda Kamp","name:en":"Salda Camping"}},"10974521205":{"location":[37.5115594,29.7182434],"ct":"TR","tp":"CS","ts":"2024-04-09T12:03:20Z","tX":596,"tY":396,"tags":{"name:en":"place for tent","name:ru":"Место под патку"}},"5760003921":{"location":[37.5080857,29.7086412],"ct":"TR","tp":"CR","ts":"2018-07-14T09:21:32Z","tX":596,"tY":396,"tags":{"name":"Salda Yeşilova Belediye Kamping","name:en":"Yeşilova Camping"}}}