{"390191479":{"location":[36.1987325,29.6328138],"ct":"TR","tp":"CS","ts":"2024-04-23T07:33:58Z","tX":596,"tY":401,"tags":{"cabins":"yes","caravans":"yes","name":"Kaş Camping","name:en":"400 liras for person, WiFi, washing machine","name:ru":"400 лир/чел, есть WiFi и стиралка","phone":"+90 242 836 1050","tents":"yes"}},"1095534351":{"location":[36.2082877,29.61779],"ct":"TR","tp":"CS","ts":"2022-09-18T04:57:55Z","tX":596,"tY":401,"tags":{"camp_site":"serviced","contact:website":"http://kasolympos.com/","internet_access":"wlan","name":"Olympos mocamp"}},"1374090010":{"location":[36.1528896,29.6788507],"ct":"TR","tp":"CS","ts":"2023-04-07T14:25:07Z","tX":596,"tY":401,"tags":{"fee":"yes","name":"Ufakdere Mevkii","name:en":"Ufakdere Port Beach","phone":"+90-553 383 40 34"}},"5113512123":{"location":[36.187146,29.7504341],"ct":"TR","tp":"CS","ts":"2023-04-07T14:25:07Z","tX":596,"tY":401,"tags":{"addr:housenumber":"05372504537","addr:postcode":"07580","addr:street":"Yalı Ömerler Mevki","email":"lykiacamping@hotmail.com.tr","internet_access":"wlan","name":"Lykia Camping & Café","name:tr":"Lykia Camping & Café","opening_hours":"24/7","operator":"Ramazan Gökçe","phone":"+90-5372504537","website":"http://www.lykiacamping.com"}},"5569812921":{"location":[36.2141276,29.6812074],"ct":"TR","tp":"CS","ts":"2018-04-21T19:46:28Z","tX":596,"tY":401,"tags":{"name":"Seles"}},"5605172430":{"location":[36.2813317,29.6072726],"ct":"TR","tp":"CS","ts":"2020-02-19T13:22:02Z","tX":596,"tY":401,"tags":{}},"6221950385":{"location":[36.2160149,29.6783064],"ct":"TR","tp":"CS","ts":"2021-11-02T10:00:28Z","tX":596,"tY":401,"tags":{}},"6375407585":{"location":[36.2008856,29.6349412],"ct":"TR","tp":"CS","ts":"2021-11-02T10:00:28Z","tX":596,"tY":401,"tags":{}},"6392911186":{"location":[36.1983268,29.8564387],"ct":"TR","tp":"CS","ts":"2022-05-01T21:50:45Z","tX":596,"tY":401,"tags":{"backcountry":"yes"}},"6392911386":{"location":[36.1931078,29.8625308],"ct":"TR","tp":"CS","ts":"2022-05-01T21:50:45Z","tX":596,"tY":401,"tags":{"backcountry":"yes"}},"6766678152":{"location":[36.198849,29.6394137],"ct":"TR","tp":"CS","ts":"2023-05-22T01:21:52Z","tX":596,"tY":401,"tags":{"charge":"50 TRY","fee":"yes","internet_access":"wlan","note":"50 tl per person"}},"7277050785":{"location":[36.2006749,29.6352557],"ct":"TR","tp":"CS","ts":"2020-03-08T15:34:19Z","tX":596,"tY":401,"tags":{}},"7952855485":{"location":[36.2057811,29.631796],"ct":"TR","tp":"CS","ts":"2022-06-25T09:15:01Z","tX":596,"tY":401,"tags":{"addr:street":"Uğur Mumcu Caddesi","internet_access":"wlan","internet_access:fee":"no","name":"Kaş Evren Camping","opening_hours":"24/7","phone":"+90 535 478 02 43","tents":"yes"}},"7972545085":{"location":[36.1907029,29.6541033],"ct":"TR","tp":"CS","ts":"2024-04-09T12:03:22Z","tX":596,"tY":401,"tags":{"capacity:tents":"10","name:en":"Paid kemping Gizli Vadi","name:ru":"Платный кемпинг","tents":"yes"}},"7972551485":{"location":[36.1894455,29.6552639],"ct":"TR","tp":"CS","ts":"2024-04-09T12:03:09Z","tX":596,"tY":401,"tags":{"name":"Kaş naos kemping","name:ru":"Платный кемпинг Kaş naos kemping"}},"8198872217":{"location":[36.1865819,29.8293057],"ct":"TR","tp":"CS","ts":"2024-04-09T12:03:23Z","tX":596,"tY":401,"tags":{"backcountry":"yes","description:en":"Free camping, flat place, fireplase","name:ru":"Место для кемпинга, ровное, с костровым местом."}},"8401596518":{"location":[36.1522552,29.6872517],"ct":"TR","tp":"CS","ts":"2022-05-01T21:50:45Z","tX":596,"tY":401,"tags":{"backcountry":"yes"}},"8543276317":{"location":[36.1699038,29.6538135],"ct":"TR","tp":"CS","ts":"2024-04-09T12:02:36Z","tX":596,"tY":401,"tags":{"name:ru":"Поляна, воды нет"}},"8785061548":{"location":[36.1720369,29.6545121],"ct":"TR","tp":"CS","ts":"2021-05-31T09:39:52Z","tX":596,"tY":401,"tags":{}},"9114391525":{"location":[36.286251,29.5869949],"ct":"TR","tp":"CS","ts":"2021-09-22T15:26:32Z","tX":596,"tY":401,"tags":{"name:en":"Plenty of spots between the road and the river"}},"9114391822":{"location":[36.2159007,29.6496738],"ct":"TR","tp":"CS","ts":"2022-05-01T21:50:45Z","tX":596,"tY":401,"tags":{"backcountry":"yes","description:en":"open space with shadowy tree","fee":"yes"}},"9234508817":{"location":[36.2458854,29.5471825],"ct":"TR","tp":"CS","ts":"2021-11-08T06:16:54Z","tX":596,"tY":401,"tags":{}},"9662447817":{"location":[36.1561879,29.7127564],"ct":"TR","tp":"CS","ts":"2022-05-01T21:50:45Z","tX":596,"tY":401,"tags":{"camp_site":"basic","fee":"yes","name":"ücretli kamp alanı"}},"10096118317":{"location":[36.2024582,29.8437322],"ct":"TR","tp":"CS","ts":"2022-10-12T19:20:12Z","tX":596,"tY":401,"tags":{"name":"ücretsiz kamp alanı","name:en":"free kamping"}},"10249126109":{"location":[36.2194253,29.863853],"ct":"TR","tp":"CS","ts":"2024-04-09T12:02:26Z","tX":596,"tY":401,"tags":{"name:en":"Place for tent on grass within a lot of stones","name:ru":"Ровное место для палатки под деревом на траве"}},"10249126110":{"location":[36.2135071,29.8055783],"ct":"TR","tp":"CS","ts":"2024-04-09T12:02:52Z","tX":596,"tY":401,"tags":{"name:en":"Wooden floor","name:ru":"Деревянное покрытие построили"}},"10249126311":{"location":[36.204354,29.7883114],"ct":"TR","tp":"CS","ts":"2024-04-09T12:02:32Z","tX":596,"tY":401,"tags":{"name:en":"Flat place and grass","name:ru":"Ровное место на траве"}},"10249126313":{"location":[36.2020441,29.7863391],"ct":"TR","tp":"CS","ts":"2024-04-09T12:02:40Z","tX":596,"tY":401,"tags":{"name:en":"Grass","name:ru":"Ровная земля, трава"}},"10250919709":{"location":[36.2009314,29.6353163],"ct":"TR","tp":"CS","ts":"2024-04-09T12:03:20Z","tX":596,"tY":401,"tags":{"name:en":"Flat place without stones","name:ru":"Ровное место без крупных камней"}},"10250919911":{"location":[36.2011292,29.6358923],"ct":"TR","tp":"CS","ts":"2024-04-09T12:03:12Z","tX":596,"tY":401,"tags":{"name:en":"Flat place for tent","name:ru":"Ровное место для палатки на траве"}},"10250954109":{"location":[36.2008962,29.6340091],"ct":"TR","tp":"CS","ts":"2022-12-10T16:09:20Z","tX":596,"tY":401,"tags":{}},"10250954110":{"location":[36.199556,29.6341381],"ct":"TR","tp":"CS","ts":"2022-12-10T16:09:21Z","tX":596,"tY":401,"tags":{}},"10250954111":{"location":[36.2006882,29.6353217],"ct":"TR","tp":"CS","ts":"2024-04-09T12:02:28Z","tX":596,"tY":401,"tags":{"name:en":"Under tree","name:ru":"В закутке между деревьями.защита от ветра"}},"10253113810":{"location":[36.2125651,29.6208455],"ct":"TR","tp":"CS","ts":"2024-04-09T12:03:03Z","tX":596,"tY":401,"tags":{"name:en":"А lot or place for tent. On the top","name:ru":"На вершине ровное место"}},"10253121609":{"location":[36.212325,29.6223511],"ct":"TR","tp":"CS","ts":"2024-04-09T12:03:17Z","tX":596,"tY":401,"tags":{"name:ru":"Ровное место под деревом , одно"}},"10253121610":{"location":[36.2125968,29.6215087],"ct":"TR","tp":"CS","ts":"2024-04-09T12:03:07Z","tX":596,"tY":401,"tags":{"name:en":"For 1 tent","name:ru":"Ровное место для 1 палатки"}},"10259254609":{"location":[36.220747,29.61523],"ct":"TR","tp":"CS","ts":"2024-04-09T12:02:26Z","tX":596,"tY":401,"tags":{"name:en":"Flat place for tent r","name:ru":"Ровное место для палатки"}},"10259254709":{"location":[36.2200026,29.6147538],"ct":"TR","tp":"CS","ts":"2024-04-09T12:03:17Z","tX":596,"tY":401,"tags":{"name:en":"Many places for tents","name:ru":"Много места для палаток"}},"10259254712":{"location":[36.2252027,29.5751234],"ct":"TR","tp":"CS","ts":"2024-04-09T12:02:32Z","tX":596,"tY":401,"tags":{"name:en":"Flat place","name:ru":"Ровное место для неск палаток"}},"10259254809":{"location":[36.2296,29.56159],"ct":"TR","tp":"CS","ts":"2022-12-13T10:24:44Z","tX":596,"tY":401,"tags":{}},"10259254909":{"location":[36.2301343,29.560006],"ct":"TR","tp":"CS","ts":"2024-04-09T12:02:33Z","tX":596,"tY":401,"tags":{"name:en":"Haven't built house, cover against rain","name:ru":"Недостроенный дом, защита от дождя. Есть откр ванная комната, где сухо,не дует"}},"10259255111":{"location":[36.2347292,29.543747],"ct":"TR","tp":"CS","ts":"2022-12-13T10:24:51Z","tX":596,"tY":401,"tags":{}},"10595723311":{"location":[36.1940341,29.83835],"ct":"TR","tp":"CS","ts":"2024-04-09T12:03:07Z","tX":596,"tY":401,"tags":{"description":"2-3 tents","name:ru":"с видом на море и яхты"}},"10830470606":{"location":[36.2010973,29.6350805],"ct":"TR","tp":"CS","ts":"2023-04-21T17:47:50Z","tX":596,"tY":401,"tags":{"name:en":"Tent place"}},"10830471005":{"location":[36.1538678,29.6570138],"ct":"TR","tp":"CS","ts":"2023-04-21T17:47:51Z","tX":596,"tY":401,"tags":{"name:en":"Nice place for camping"}},"10830471105":{"location":[36.1640435,29.7238772],"ct":"TR","tp":"CS","ts":"2023-04-21T17:47:52Z","tX":596,"tY":401,"tags":{"name:en":"Places for tents"}},"10830471205":{"location":[36.1591625,29.7857385],"ct":"TR","tp":"CS","ts":"2023-04-21T17:47:53Z","tX":596,"tY":401,"tags":{"name:en":"Flat place for tens"}},"10927070505":{"location":[36.1623985,29.7191625],"ct":"TR","tp":"CS","ts":"2024-04-09T12:03:12Z","tX":596,"tY":401,"tags":{"name:ru":"под 2 палатки, у моря и пальмы :-)"}},"10927070506":{"location":[36.1639049,29.7241188],"ct":"TR","tp":"CS","ts":"2024-04-09T12:03:18Z","tX":596,"tY":401,"tags":{"name:ru":"огромное место для кемпинга"}},"10927070605":{"location":[36.1637658,29.7213881],"ct":"TR","tp":"CS","ts":"2024-04-09T12:02:58Z","tX":596,"tY":401,"tags":{"name:ru":"несколько мест"}},"10957999506":{"location":[36.2015353,29.8433248],"ct":"TR","tp":"CS","ts":"2024-04-09T12:02:28Z","tX":596,"tY":401,"tags":{"internet_access":"wlan","name":"кeкова кемпинг","name:en":"kekova eco camp","name:ru":"какова кемпинг","opening_hours":"24/7"}},"11236803737":{"location":[36.1890456,29.8283658],"ct":"TR","tp":"CS","ts":"2023-10-03T18:27:34Z","tX":596,"tY":401,"tags":{}},"11237612109":{"location":[36.2006763,29.6236522],"ct":"TR","tp":"CS","ts":"2023-10-04T06:40:19Z","tX":596,"tY":401,"tags":{}},"11244403437":{"location":[36.1536619,29.6781113],"ct":"TR","tp":"CS","ts":"2024-06-01T14:27:05Z","tX":596,"tY":401,"tags":{"description":"Camping only allowed here"}},"11244411637":{"location":[36.1532892,29.6660079],"ct":"TR","tp":"CS","ts":"2023-10-06T19:15:25Z","tX":596,"tY":401,"tags":{"name":"Flat place for tent."}},"11244417537":{"location":[36.1888548,29.8286105],"ct":"TR","tp":"CS","ts":"2023-10-06T19:21:10Z","tX":596,"tY":401,"tags":{}},"11250454937":{"location":[36.2496482,29.6289471],"ct":"TR","tp":"CS","ts":"2024-04-09T12:03:14Z","tX":596,"tY":401,"tags":{"name:en":"For 2 tent","name:ru":"Место под палатку"}},"11250458237":{"location":[36.246493,29.6425112],"ct":"TR","tp":"CS","ts":"2024-04-09T12:03:09Z","tX":596,"tY":401,"tags":{"description":"Поляна 10*15 для палаток","name:en":"For tent","name:ru":"Место под палатку"}},"11250458337":{"location":[36.244239,29.6486348],"ct":"TR","tp":"CS","ts":"2024-04-09T12:02:58Z","tX":596,"tY":401,"tags":{"name:en":"For tent","name:ru":"Место под палатку"}},"11250909137":{"location":[36.2678364,29.5899427],"ct":"TR","tp":"CS","ts":"2024-04-09T12:03:00Z","tX":596,"tY":401,"tags":{"name:en":"Place for tent","name:ru":"Место под палатки"}},"11250963037":{"location":[36.2613245,29.5676828],"ct":"TR","tp":"CS","ts":"2024-04-09T12:02:49Z","tX":596,"tY":401,"tags":{"name:ru":"Стол и навес"}},"11308387850":{"location":[36.244059,29.6492741],"ct":"TR","tp":"CS","ts":"2023-11-02T20:35:44Z","tX":596,"tY":401,"tags":{"description":"Место для палатки"}},"11353676369":{"location":[36.149443,29.698606],"ct":"TR","tp":"CS","ts":"2024-06-01T15:08:21Z","tX":596,"tY":401,"tags":{"description":"lot of space for several tents"}},"11358214869":{"location":[36.2411786,29.6728098],"ct":"TR","tp":"CS","ts":"2023-11-17T13:23:24Z","tX":596,"tY":401,"tags":{}},"11449021771":{"location":[36.2084771,29.6453342],"ct":"TR","tp":"CS","ts":"2023-12-24T07:51:59Z","tX":596,"tY":401,"tags":{}},"11449021774":{"location":[36.2475302,29.6410856],"ct":"TR","tp":"CS","ts":"2023-12-24T07:52:06Z","tX":596,"tY":401,"tags":{}},"11449021775":{"location":[36.2489399,29.6370078],"ct":"TR","tp":"CS","ts":"2024-04-09T12:03:06Z","tX":596,"tY":401,"tags":{"name:ru":"Под сосенкой"}},"11449021776":{"location":[36.2640159,29.627646],"ct":"TR","tp":"CS","ts":"2024-04-09T12:03:12Z","tX":596,"tY":401,"tags":{"name:ru":"Хорошие места под палатки, есть костровище"}},"11449021778":{"location":[36.2690539,29.6265204],"ct":"TR","tp":"CS","ts":"2023-12-24T07:52:20Z","tX":596,"tY":401,"tags":{}},"11449021871":{"location":[36.2107251,29.6459313],"ct":"TR","tp":"CS","ts":"2024-04-09T12:03:28Z","tX":596,"tY":401,"tags":{"name:ru":"Под одиноким древом"}},"11449021872":{"location":[36.2214455,29.6543069],"ct":"TR","tp":"CS","ts":"2024-04-09T12:03:20Z","tX":596,"tY":401,"tags":{"name:ru":"В сосновом лесу"}},"11449021873":{"location":[36.240326,29.6699574],"ct":"TR","tp":"CS","ts":"2023-12-24T07:52:03Z","tX":596,"tY":401,"tags":{}},"11449021874":{"location":[36.2419398,29.6597177],"ct":"TR","tp":"CS","ts":"2023-12-24T07:52:04Z","tX":596,"tY":401,"tags":{}},"11449021875":{"location":[36.2470506,29.6418123],"ct":"TR","tp":"CS","ts":"2023-12-24T07:52:05Z","tX":596,"tY":401,"tags":{}},"11449021877":{"location":[36.2819242,29.6075788],"ct":"TR","tp":"CS","ts":"2023-12-24T07:52:22Z","tX":596,"tY":401,"tags":{}},"11449021878":{"location":[36.2779279,29.6047958],"ct":"TR","tp":"CS","ts":"2023-12-24T07:52:23Z","tX":596,"tY":401,"tags":{}},"11449022170":{"location":[36.2067754,29.6458878],"ct":"TR","tp":"CS","ts":"2024-10-25T01:09:13Z","tX":596,"tY":401,"tags":{}},"11449022171":{"location":[36.2079218,29.6452454],"ct":"TR","tp":"CS","ts":"2024-10-25T01:09:13Z","tX":596,"tY":401,"tags":{}},"11449022172":{"location":[36.2084773,29.6451407],"ct":"TR","tp":"CS","ts":"2023-12-24T07:51:59Z","tX":596,"tY":401,"tags":{}},"11449022173":{"location":[36.2086675,29.6451388],"ct":"TR","tp":"CS","ts":"2023-12-24T07:52:00Z","tX":596,"tY":401,"tags":{}},"11449022175":{"location":[36.2420071,29.6591128],"ct":"TR","tp":"CS","ts":"2024-04-09T12:02:58Z","tX":596,"tY":401,"tags":{"name:ru":"Ровное место у руин"}},"11449022176":{"location":[36.2558974,29.6203776],"ct":"TR","tp":"CS","ts":"2023-12-24T07:52:11Z","tX":596,"tY":401,"tags":{}},"11449022177":{"location":[36.2634796,29.6262646],"ct":"TR","tp":"CS","ts":"2023-12-24T07:52:14Z","tX":596,"tY":401,"tags":{"name:en":"You can camp here after cleaning"}},"11449022178":{"location":[36.2639325,29.6261792],"ct":"TR","tp":"CS","ts":"2023-12-24T07:52:16Z","tX":596,"tY":401,"tags":{}},"11449022179":{"location":[36.2740978,29.6288377],"ct":"TR","tp":"CS","ts":"2023-12-24T07:52:21Z","tX":596,"tY":401,"tags":{}},"11449022180":{"location":[36.2803633,29.6052444],"ct":"TR","tp":"CS","ts":"2023-12-24T07:52:22Z","tX":596,"tY":401,"tags":{}},"11449381569":{"location":[36.2406634,29.5358194],"ct":"TR","tp":"CS","ts":"2023-12-24T12:14:55Z","tX":596,"tY":401,"tags":{}},"11553447969":{"location":[36.2004539,29.6317639],"ct":"TR","tp":"CS","ts":"2024-04-09T12:02:36Z","tX":596,"tY":401,"tags":{"name:ru":"Шалфейный мир"}},"11553448069":{"location":[36.2002429,29.6318108],"ct":"TR","tp":"CS","ts":"2024-01-26T09:18:00Z","tX":596,"tY":401,"tags":{"name:en":"Camping after cleaning"}},"11553448070":{"location":[36.2001751,29.6321395],"ct":"TR","tp":"CS","ts":"2024-01-26T09:18:01Z","tX":596,"tY":401,"tags":{"name:en":"Camping after cleaning"}},"11681654069":{"location":[36.1838701,29.764784],"ct":"TR","tp":"CS","ts":"2024-06-01T15:08:21Z","tX":596,"tY":401,"tags":{"description:en":"good place for tent","description:ru":"хорошее место для палатки"}},"11824233869":{"location":[36.1860014,29.7699904],"ct":"TR","tp":"CS","ts":"2024-04-17T08:44:48Z","tX":596,"tY":401,"tags":{}},"11844825722":{"location":[36.1882253,29.7485466],"ct":"TR","tp":"CS","ts":"2024-04-24T16:21:50Z","tX":596,"tY":401,"tags":{}},"11874010469":{"location":[36.1710583,29.781392],"ct":"TR","tp":"CS","ts":"2024-05-02T12:15:45Z","tX":596,"tY":401,"tags":{"name:ru":"Классное место под дубом, с видом"}},"12183295173":{"location":[36.1526883,29.7128049],"ct":"TR","tp":"CS","ts":"2024-09-18T04:56:27Z","tX":596,"tY":401,"tags":{}},"12262892601":{"location":[36.1908271,29.6538315],"ct":"TR","tp":"CS","ts":"2024-10-24T15:42:54Z","tX":596,"tY":401,"tags":{"addr:housenumber":"11","addr:postcode":"07580","email":"rezervasyon@harnupcamping.com","internet_access":"wlan","name":"Harnup Camping","phone":"05333642286","website":"https://harnupcamping.com/"}},"12271445701":{"location":[36.1908205,29.653845],"ct":"TR","tp":"CS","ts":"2024-10-24T15:42:53Z","tX":596,"tY":401,"tags":{"addr:housenumber":"11","addr:postcode":"07580","addr:street":"Büyük Çakıl Caddesi","email":"rezervasyon@harnupcamping.com","internet_access":"wlan","name":"Harnup Camping","opening_hours":"24/7","phone":"05333642286","website":"https://harnupcamping.com/"}},"12271445901":{"location":[36.1909265,29.653587],"ct":"TR","tp":"CS","ts":"2024-10-24T15:42:53Z","tX":596,"tY":401,"tags":{"addr:housenumber":"11","addr:postcode":"07580","addr:street":"Büyük Çakıl Caddesi","email":"rezervasyon@harnupcamping.com","internet_access":"wlan","name":"Harnup Camping","opening_hours":"24/7","phone":"5333642286","website":"https://harnupcamping.com/"}}}