{"3047914342":{"location":[-1.1194774,29.7085303],"ct":"UG","tp":"CS","ts":"2014-08-28T18:13:12Z","tX":596,"tY":515,"tags":{"name":"Nshongi camp"}},"3660391399":{"location":[-1.2821958,29.6897664],"ct":"UG","tp":"CS","ts":"2016-01-07T12:46:11Z","tX":596,"tY":515,"tags":{"name":"Virunga Hotel and Campsite"}},"3932009580":{"location":[-1.1177583,29.7096882],"ct":"UG","tp":"CS","ts":"2016-01-07T12:54:17Z","tX":596,"tY":515,"tags":{"name":"UWA Ranger Station Rushaga"}},"4221678356":{"location":[-1.235491,29.662013],"ct":"UG","tp":"CS","ts":"2024-01-29T18:27:41Z","tX":596,"tY":515,"tags":{"name":"Mutanda Island Lodge"}},"4599314940":{"location":[-1.2125898,29.8298872],"ct":"UG","tp":"CS","ts":"2017-01-10T08:12:23Z","tX":596,"tY":515,"tags":{"name":"Heritage Camp Site Muko"}},"5057327637":{"location":[-1.2562554,29.6823697],"ct":"UG","tp":"CS","ts":"2024-02-11T22:56:16Z","tX":596,"tY":515,"tags":{"access":"private","addr:city":"Kisoro","addr:postcode":"280","addr:street":"Chihe Road","capacity:caravans":"50","capacity:persons":"200","charge":"USD","fee":"yes","name":"Mutanda Eco-Community Center","payment:cash":"yes","payment:mastercard":"yes","website":"https://www.mcdou.org/mutandaecocommunitycentre"}},"8273273223":{"location":[-1.2495341,29.7870235],"ct":"UG","tp":"CS","ts":"2024-02-11T23:40:42Z","tX":596,"tY":515,"tags":{"addr:district":"Kisoro","addr:parish":"Echuya_FR","addr:subcounty":"Kanaba","addr:village":"Kamugoyi","fixme":"Business","name":"Echuya Eco-tourism Camp Site","phone":"+256 392 584982"}},"9253253347":{"location":[-1.2280361,29.8680596],"ct":"UG","tp":"CS","ts":"2021-11-15T13:00:14Z","tX":596,"tY":515,"tags":{"name":"Amasiko Homestay"}}}