{"28137655":{"location":[-20.7306547,116.81084],"ct":"AU","tp":"CR","ts":"2023-11-22T10:41:54Z","tX":844,"tY":572,"tags":{"name":"Balmoral Holiday Park","operator":"Discovery Parks","phone":"+61 8 9185 3628","website":"https://www.discoveryholidayparks.com.au/caravan-parks/western-australia/pilbara-balmoral-karratha"}},"182536509":{"location":[-20.7531781,116.8140011],"ct":"AU","tp":"CR","ts":"2023-11-22T10:41:54Z","tX":844,"tY":572,"tags":{"addr:city":"Karratha","addr:country":"AU","addr:housenumber":"70","addr:postcode":"6714","addr:street":"Rosemary Road","internet_access":"wlan","name":"Pilbara Karratha Holiday Park","operator":"Discovery Parks","phone":"+61 1800 451 855","source":"Bing","website":"https://www.discoveryholidayparks.com.au/caravan-parks/western-australia/pilbara-pilbara-karratha"}},"308858725":{"location":[-20.6521373,117.0172903],"ct":"AU","tp":"CR","ts":"2023-10-21T10:25:25Z","tX":844,"tY":572,"tags":{"capacity":"25","fee":"yes","internet_access":"no","name":"Cleaverville Nature Based Camping Grounds","operator":"City of Karratha Ranger Services","power_supply":"no","sanitary_dump_station":"yes","website":"https://karratha.wa.gov.au/camping"}},"334617152":{"location":[-20.766639,116.8588903],"ct":"AU","tp":"CR","ts":"2015-03-24T23:50:19Z","tX":844,"tY":572,"tags":{"name":"Karratha Caravan Park"}},"1811165019":{"location":[-20.66111,116.99806],"ct":"AU","tp":"CS","ts":"2012-07-03T11:47:11Z","tX":844,"tY":572,"tags":{"name":"Cleaverville Beach"}},"1811190676":{"location":[-20.7703392,116.9469961],"ct":"AU","tp":"CS","ts":"2012-11-08T03:17:02Z","tX":844,"tY":572,"tags":{"name":"Nickol River Rest Area"}},"11368318364":{"location":[-20.753205,116.8148703],"ct":"AU","tp":"SD","ts":"2023-11-22T10:41:53Z","tX":844,"tY":572,"tags":{}}}