{"246383533":{"location":[-32.3693478,117.0017717],"ct":"AU","tp":"CS","ts":"2023-09-13T03:00:28Z","tX":844,"tY":609,"tags":{"addr:housenumber":"Lot 456","addr:postcode":"6306","addr:state":"WA","addr:street":"Brookton Highway","addr:suburb":"Brookton","caravans":"yes","name":"Brookton Caravan Park","phone":"+61 8 9642 1106","tents":"yes"}},"1811163257":{"location":[-32.47083,116.88639],"ct":"AU","tp":"CS","ts":"2012-07-03T11:43:50Z","tX":844,"tY":609,"tags":{"name":"Boyagin Rock"}},"1811163402":{"location":[-32.39917,116.73722],"ct":"AU","tp":"CS","ts":"2012-07-03T11:44:34Z","tX":844,"tY":609,"tags":{"name":"Brookton Highway Rest Spot"}},"1811181533":{"location":[-32.4602858,117.0485453],"ct":"AU","tp":"CS","ts":"2023-01-27T22:50:59Z","tX":844,"tY":609,"tags":{"access":"yes","fee":"no","fixme":"maxstay?","name":"Kulyaling Park","toilets":"no"}},"10585184047":{"location":[-32.3650577,117.0131782],"ct":"AU","tp":"CS","ts":"2023-01-26T23:07:02Z","tX":844,"tY":609,"tags":{"access":"yes","fee":"no","maxstay":"2 nights","name":"Lions Park Picnic Area - s/c","operator":"Shire of Brookton","toilets":"no"}}}