{"210320538":{"location":[-34.9895774,116.7386623],"ct":"AU","tp":"CR","ts":"2024-04-27T01:30:35Z","tX":844,"tY":618,"tags":{"addr:city":"Walpole","addr:housenumber":"2515","addr:postcode":"6398","addr:state":"WA","addr:street":"Coalmine Beach Road","brand":"Top Tourist","fee":"yes","internet_access":"wlan","internet_access:fee":"no","name":"Coalmine Beach Holiday Park","operator":"Coalmine Beach Holiday Park","phone":"+61 8 9840 1026","power_supply":"yes","sanitary_dump_station":"yes","website":"https://www.coalminebeach.com.au","wheelchair":"yes"}},"240451236":{"location":[-35.0332571,117.0679288],"ct":"AU","tp":"CS","ts":"2023-08-05T00:54:48Z","tX":844,"tY":618,"tags":{"backcountry":"yes","caravans":"no","fee":"no","name":"Boatharbour Road Campsite","operator":"Department of Parks & Wildlife","shower":"no","tents":"yes","toilets":"yes","water":"yes","website":"https://www.bibbulmuntrack.org.au"}},"250483988":{"location":[-34.9870124,116.7195422],"ct":"AU","tp":"CR","ts":"2013-12-07T02:46:06Z","tX":844,"tY":618,"tags":{"name":"Rest Point Caravan Park"}},"314604774":{"location":[-34.9529924,117.0120849],"ct":"AU","tp":"CS","ts":"2014-11-26T17:35:23Z","tX":844,"tY":618,"tags":{"name":"Ayr Saileon Campground"}},"2209401327":{"location":[-34.9953661,116.8463899],"ct":"AU","tp":"CR","ts":"2013-03-19T04:50:49Z","tX":844,"tY":618,"tags":{"name":"Tree Top Eco Caravan Park"}},"3206489731":{"location":[-34.9530671,117.0119347],"ct":"AU","tp":"CS","ts":"2014-11-26T17:35:22Z","tX":844,"tY":618,"tags":{"name":"Ayr Saileon Campground"}},"3779394933":{"location":[-34.9738525,116.9034419],"ct":"AU","tp":"CS","ts":"2023-08-05T00:54:48Z","tX":844,"tY":618,"tags":{"backcountry":"yes","caravans":"no","fee":"no","name":"Giants (Bibbulmun campsite)","operator":"Department of Parks & Wildlife","shower":"no","tents":"yes","toilets":"yes","water":"yes","website":"https://www.bibbulmuntrack.org.au"}},"4611699201":{"location":[-34.9499416,116.8115644],"ct":"AU","tp":"CS","ts":"2023-08-05T00:54:48Z","tX":844,"tY":618,"tags":{"backcountry":"yes","caravans":"no","fee":"no","name":"Frankland River Campsite","operator":"Department of Parks & Wildlife","shower":"no","tents":"yes","toilets":"yes","water":"yes","website":"https://www.bibbulmuntrack.org.au"}},"4611699221":{"location":[-35.045679,116.8607117],"ct":"AU","tp":"CS","ts":"2023-08-05T00:54:48Z","tX":844,"tY":618,"tags":{"backcountry":"yes","caravans":"no","fee":"no","name":"Rame Head Campsite","operator":"Department of Parks & Wildlife","shower":"no","tents":"yes","toilets":"yes","water":"yes","website":"https://www.bibbulmuntrack.org.au"}},"11449168210":{"location":[-35.0389218,116.9292283],"ct":"AU","tp":"CS","ts":"2023-12-24T10:01:10Z","tX":844,"tY":618,"tags":{"name":"Peacefull Bay Caravan Park"}}}