{"368871305":{"location":[35.1257076,129.0089337],"ct":"KR","tp":"CS","ts":"2022-05-09T01:36:41Z","tX":878,"tY":405,"tags":{"name":"구덕야영장","name:en":"Gudeok Camping Site","name:ko":"구덕야영장","name:ko-Latn":"Gudeokyayeongjang","ncat":"야영장","source":"http://kr.open.gugi.yahoo.com"}},"535862933":{"location":[35.0227711,128.6979438],"ct":"KR","tp":"CS","ts":"2017-10-27T02:44:21Z","tX":878,"tY":405,"tags":{"name":"농소글람핑야영장","name:en":"Nongso Glaming Campground","name:ko":"농소글람핑야영장"}},"4634326706":{"location":[35.1365034,128.9779956],"ct":"KR","tp":"CS","ts":"2025-02-19T11:29:24Z","tX":878,"tY":405,"tags":{"addr:city":"부산광역시","addr:district":"사상구","addr:housenumber":"84","addr:postcode":"84","addr:street":"대동로","addr:subdistrict":"학장동","capacity":"1","fee":"yes","internet_access":"no","name":"스톤 계단","operator":"넨도"}},"5677834925":{"location":[35.1662513,128.9698203],"ct":"KR","tp":"CS","ts":"2019-05-27T02:03:24Z","tX":878,"tY":405,"tags":{"name":"삼락공원 오토캠핑장","name:en":"Samnak Auto Camping Site"}}}