{"1084537270":{"location":[44.8359614,-106.9640088],"ct":"US","tp":"CR","ts":"2024-04-04T18:29:20Z","tX":207,"tY":369,"tags":{"brand":"KOA","brand:wikidata":"Q16988635","fee":"yes","name":"Sheridan KOA","operator":"KOA","short_name":"KOA"}},"1269124454":{"location":[44.8058189,-106.9442887],"ct":"US","tp":"CR","ts":"2024-04-04T18:42:55Z","tX":207,"tY":369,"tags":{}},"1269124681":{"location":[44.809477,-106.9407944],"ct":"US","tp":"CR","ts":"2024-04-04T18:43:42Z","tX":207,"tY":369,"tags":{"addr:city":"Sheridan","addr:housenumber":"1105","addr:postcode":"82801","addr:state":"WY","addr:street":"Joe Street","name":"Peter D's","power_supply":"yes","sanitary_dump_station":"yes"}},"4211642049":{"location":[44.5959058,-107.2086188],"ct":"US","tp":"CS","ts":"2024-04-12T00:59:17Z","tX":207,"tY":369,"tags":{"ele":"2323","fee":"yes","gnis:feature_id":"1604867","name":"East Fork Campground"}},"4211642050":{"location":[44.6005236,-107.2186827],"ct":"US","tp":"CS","ts":"2024-04-12T00:59:17Z","tX":207,"tY":369,"tags":{"ele":"2351","fee":"yes","gnis:feature_id":"1598149","name":"Big Goose Campground"}}}