{"358623680":{"location":[37.6821015,-106.9993668],"ct":"US","tp":"CS","ts":"2021-02-27T05:25:11Z","tX":207,"tY":396,"tags":{"name":"Ivy Creek Campground","operator":"United States Forest Service","website":"https://www.fs.usda.gov/recarea/riogrande/recarea/?recid=28946"}},"913119049":{"location":[37.4511592,-107.1939902],"ct":"US","tp":"CS","ts":"2021-03-03T09:45:08Z","tX":207,"tY":396,"tags":{"addr:city":"Pagosa Springs","addr:housenumber":"2095","addr:postcode":"81147","addr:state":"CO","addr:street":"Taylor Lane","name":"Crazy Horse Outfitters","website":"https://crazyhorseoutfitter.com/"}},"2155037751":{"location":[37.4723987,-107.2004588],"ct":"US","tp":"CS","ts":"2013-02-14T21:27:53Z","tX":207,"tY":396,"tags":{}},"2155037752":{"location":[37.4504952,-107.1929057],"ct":"US","tp":"CS","ts":"2013-02-14T21:27:53Z","tX":207,"tY":396,"tags":{}},"2155037753":{"location":[37.4649563,-107.1973046],"ct":"US","tp":"CS","ts":"2013-08-01T22:30:01Z","tX":207,"tY":396,"tags":{"name":"Bridge Campground ","operator":"USFS"}},"2155108643":{"location":[37.540389,-107.1983828],"ct":"US","tp":"CR","ts":"2013-02-14T22:08:53Z","tX":207,"tY":396,"tags":{}},"2155108918":{"location":[37.540238,-107.199034],"ct":"US","tp":"CS","ts":"2020-08-27T05:08:51Z","tX":207,"tY":396,"tags":{"name":"Palisades Campground"}},"2404194885":{"location":[37.5391164,-107.209569],"ct":"US","tp":"CS","ts":"2024-08-09T01:24:29Z","tX":207,"tY":396,"tags":{"name":"Cimarrona Campground","operator":"USFS"}},"2404202497":{"location":[37.4449856,-106.903457],"ct":"US","tp":"CS","ts":"2013-08-01T22:42:45Z","tX":207,"tY":396,"tags":{"name":"West Fork Campground ","operator":"USFS"}}}