{"359882417":{"location":[37.3741201,-106.8869582],"ct":"US","tp":"CS","ts":"2019-09-09T19:19:46Z","tX":207,"tY":397,"tags":{"fee":"yes","name":"East Fork Campground","operator":"USFS","website":"https://www.fs.usda.gov/recarea/sanjuan/recarea/?recid=42876"}},"712575348":{"location":[37.2405662,-107.1469403],"ct":"US","tp":"CR","ts":"2024-03-26T21:23:21Z","tX":207,"tY":397,"tags":{"addr:housenumber":"9260","addr:postcode":"81147","addr:state":"CO","addr:street":"US 160","name":"Happy Camper RV Park","phone":"+1-970-731-5822","website":"https://happycampercolorado.com"}},"2980389536":{"location":[37.2858737,-106.9795778],"ct":"US","tp":"CS","ts":"2023-09-20T05:27:27Z","tX":207,"tY":397,"tags":{"access":"customers","addr:city":"Pagosa Springs","addr:housenumber":"2270","addr:postcode":"81147","addr:state":"CO","addr:street":"East Highway 160","fee":"yes","name":"Pagosa Riverside Campground","note":"RV and tent camping Store Laundry","phone":"+1-970-264-5874","website":"https://www.pagosariverside.com"}},"7738247685":{"location":[37.3480702,-107.0479367],"ct":"US","tp":"CS","ts":"2020-07-22T22:05:50Z","tX":207,"tY":397,"tags":{"name":"Park Creek"}},"6684903179":{"location":[37.2768889,-106.9853627],"ct":"US","tp":"CR","ts":"2023-09-20T05:27:27Z","tX":207,"tY":397,"tags":{"addr:city":"Pagosa Springs","addr:housenumber":"1742","addr:postcode":"81147","addr:state":"CO","addr:street":"East Highway 160","name":"Wolf Creek Run Motor Coach Resort","phone":"+1-970-264-0365","website":"https://www.wolfcreekrunresort.com/"}},"6699681341":{"location":[37.2731248,-107.0338622],"ct":"US","tp":"CR","ts":"2023-09-20T05:27:27Z","tX":207,"tY":397,"tags":{"addr:city":"Pagosa Springs","addr:housenumber":"1501","addr:postcode":"81147","addr:state":"CO","addr:street":"West Highway 160","name":"Pagosa Pines RV Park","phone":"+1-970-264-9130","website":"https://www.pagosapinesrvpark.com"}},"6699675847":{"location":[37.2681425,-107.0521955],"ct":"US","tp":"SD","ts":"2019-08-11T03:48:36Z","tX":207,"tY":397,"tags":{"description":"RV dump station with non-potable water","operator":"Speedway","water_point":"yes"}},"7802211190":{"location":[37.2548841,-107.0780136],"ct":"US","tp":"SD","ts":"2020-08-10T22:56:38Z","tX":207,"tY":397,"tags":{"access":"customers","operator":"Speedway Gas Station","water_point":"yes"}},"12885273881":{"location":[37.3518059,-106.9435788],"ct":"US","tp":"CS","ts":"2025-06-04T00:59:23Z","tX":207,"tY":397,"tags":{"backcountry":"yes","name":"Jackson Dispersed Campground","source":"ODK Collect"}}}