{"8415776":{"location":[44.815576,34.761123],"ct":"UA","tp":"CS","ts":"2021-02-19T03:34:32Z","tX":610,"tY":369,"tags":{"backcountry":"yes","caravans":"yes","fee":"no","internet_access":"no","natural":"beach","surface":"pebblestone","tents":"yes"}},"603149329":{"location":[44.8134516,34.7494635],"ct":"UA","tp":"CS","ts":"2021-12-04T14:21:23Z","tX":610,"tY":369,"tags":{"impromptu":"yes"}},"913772421":{"location":[44.8009744,34.6959268],"ct":"UA","tp":"CS","ts":"2021-03-05T08:33:41Z","tX":610,"tY":369,"tags":{}},"1210703753":{"location":[44.83753,34.58271],"ct":"UA","tp":"CS","ts":"2023-05-02T22:54:32Z","tX":610,"tY":369,"tags":{"name":"Чигенитра","name:uk":"Чигенітра"}},"1210705426":{"location":[44.8354799,34.4694616],"ct":"UA","tp":"CS","ts":"2023-05-02T22:54:32Z","tX":610,"tY":369,"tags":{"backcountry":"yes","name":"Восточный Суат","name:uk":"Східний Суат","operator":"ГП \"Симферопольское ЛОХ\""}},"1210707204":{"location":[44.82818,34.48613],"ct":"UA","tp":"CS","ts":"2023-05-02T22:54:32Z","tX":610,"tY":369,"tags":{"fee":"yes","name":"Ай-Алексий","name:uk":"Ай-Олексій"}},"1561580905":{"location":[44.8051023,34.4641869],"ct":"UA","tp":"CS","ts":"2023-05-02T22:54:32Z","tX":610,"tY":369,"tags":{"backcountry":"yes","fee":"yes","name":"Заячья поляна","name:uk":"Заяча галявина"}},"1561581087":{"location":[44.8288307,34.5304436],"ct":"UA","tp":"CS","ts":"2020-11-03T09:19:33Z","tX":610,"tY":369,"tags":{"capacity:tents":"15"}},"1841295045":{"location":[44.7382031,34.5278674],"ct":"UA","tp":"CS","ts":"2023-05-02T22:54:32Z","tX":610,"tY":369,"tags":{"email":"bisdreaming@gmail.com","name":"Затерянный мир","name:uk":"Загублений світ","phone":"+38 050 2822254","website":"http://www.thelostworld.com.ua/"}},"1847919051":{"location":[44.7888102,34.6509433],"ct":"UA","tp":"CS","ts":"2012-08-02T06:49:50Z","tX":610,"tY":369,"tags":{}},"1918956469":{"location":[44.7251701,34.4789886],"ct":"UA","tp":"CS","ts":"2023-05-02T22:54:32Z","tX":610,"tY":369,"tags":{"name":"Веселый домик","name:uk":"Веселий будиночок","phone":"+79787686558","source_ref":"http://www.poiplaza.com/"}},"4674534532":{"location":[44.7901891,34.6742892],"ct":"UA","tp":"CS","ts":"2020-05-09T17:11:03Z","tX":610,"tY":369,"tags":{"website":"https://youtu.be/AlxHWz1Dd4w"}},"4730627324":{"location":[44.7648653,34.5915572],"ct":"UA","tp":"CS","ts":"2023-05-02T22:54:32Z","tX":610,"tY":369,"tags":{"description":"В услуги кемпинга входят: стоянка, пользование водой, душ, туалет, мусорники. Автокемпинг разделён на 2 части: одна часть находится под деревьями у горы, другая на открытом пляже.","name":"Кемпинг в Рыбачьем","name:ru":"Кемпинг в Рыбачьем","name:uk":"Кемпінг у Рибальському","website":"https://youtu.be/snqQzDSwAHY"}},"4839642328":{"location":[44.8093476,34.7186067],"ct":"UA","tp":"CS","ts":"2023-04-03T13:37:46Z","tX":610,"tY":369,"tags":{"name":"Приветное","name:en":"Privetnoe","name:ru":"Приветное","name:uk":"Привітне"}},"5075856656":{"location":[44.8183383,34.7878768],"ct":"UA","tp":"CS","ts":"2018-06-28T21:42:35Z","tX":610,"tY":369,"tags":{}},"5693413621":{"location":[44.8361375,34.5869733],"ct":"UA","tp":"CS","ts":"2022-08-10T08:07:26Z","tX":610,"tY":369,"tags":{"description":"Вода внизу (на Чигенитре)"}},"5744517023":{"location":[44.74188,34.5370472],"ct":"UA","tp":"CS","ts":"2020-09-13T13:37:22Z","tX":610,"tY":369,"tags":{"impromptu":"yes"}},"5885206374":{"location":[44.8191822,34.7794588],"ct":"UA","tp":"CS","ts":"2022-09-07T07:37:16Z","tX":610,"tY":369,"tags":{"fee":"no"}},"6076136487":{"location":[44.8007535,34.4714673],"ct":"UA","tp":"CS","ts":"2019-02-15T10:16:32Z","tX":610,"tY":369,"tags":{}},"7020618257":{"location":[44.7539924,34.5554985],"ct":"UA","tp":"CS","ts":"2021-12-02T19:16:47Z","tX":610,"tY":369,"tags":{}},"7020618258":{"location":[44.752621,34.5510942],"ct":"UA","tp":"CS","ts":"2023-05-02T22:54:32Z","tX":610,"tY":369,"tags":{"name":"Кемпинг \"Солнечногорский\"","name:uk":"Кемпінг \"Сонячногірський\"","website":"https://www.youtube.com/watch?v=HPtlTBXgOTI"}},"7082259643":{"location":[44.7547499,34.5499495],"ct":"UA","tp":"CS","ts":"2023-05-02T22:54:32Z","tX":610,"tY":369,"tags":{"addr:housenumber":"9","addr:street":"улица Факидова","name":"Кемпинг в Алуште","name:uk":"Кемпінг в Алушті","phone":"+7 (978) 781-98-48","website":"https://vk.com/club118922405"}},"7438065086":{"location":[44.837389,34.571712],"ct":"UA","tp":"CS","ts":"2020-09-18T19:07:36Z","tX":610,"tY":369,"tags":{"description":"Стоянки у ручья"}},"7902712369":{"location":[44.7351814,34.5126545],"ct":"UA","tp":"CS","ts":"2020-09-13T13:39:31Z","tX":610,"tY":369,"tags":{}},"7902712370":{"location":[44.7364379,34.516299],"ct":"UA","tp":"CS","ts":"2020-09-13T13:39:31Z","tX":610,"tY":369,"tags":{}},"8077262043":{"location":[44.8176436,34.47738],"ct":"UA","tp":"CS","ts":"2020-11-03T09:19:33Z","tX":610,"tY":369,"tags":{}},"8077268417":{"location":[44.8279904,34.5324995],"ct":"UA","tp":"CS","ts":"2020-11-03T09:19:34Z","tX":610,"tY":369,"tags":{"capacity:tents":"7"}},"8704895331":{"location":[44.838489,34.463035],"ct":"UA","tp":"CS","ts":"2021-05-06T10:18:29Z","tX":610,"tY":369,"tags":{}},"8856539417":{"location":[44.819476,34.7940236],"ct":"UA","tp":"CS","ts":"2023-05-02T22:54:32Z","tX":610,"tY":369,"tags":{"name":"можно поставить на полянке","name:uk":"Можна поставити на галявині"}},"8953514618":{"location":[44.8123778,34.7494389],"ct":"UA","tp":"CS","ts":"2023-05-02T22:54:32Z","tX":610,"tY":369,"tags":{"impromptu":"yes","name":"\"Сосновая ливада\"","name:uk":"\"Соснова лівада\""}},"8956174317":{"location":[44.7815823,34.6362335],"ct":"UA","tp":"CS","ts":"2023-05-02T22:54:32Z","tX":610,"tY":369,"tags":{"name":"\"Капитанская рубка\"","name:uk":"\"Капітанська рубка\""}},"8962165017":{"location":[44.7361727,34.5141915],"ct":"UA","tp":"CS","ts":"2023-05-02T22:54:32Z","tX":610,"tY":369,"tags":{"name":"\"Мафусаил\"","name:uk":"\"Мафусаїл\""}},"12017131269":{"location":[44.7366334,34.5162146],"ct":"UA","tp":"CS","ts":"2024-06-28T10:15:29Z","tX":610,"tY":369,"tags":{"name":"МурашиКемп"}},"4670551089":{"location":[44.8115493,34.750142],"ct":"UA","tp":"CR","ts":"2023-05-02T22:54:32Z","tX":610,"tY":369,"tags":{"description":"работоспособность/услуги под вопросом.","name":"Чобан-Кале","name:ru":"Чобан-Кале","name:uk":"Чобан-Кале","opening_hours":"24/7"}},"5872927587":{"location":[44.8191822,34.779388],"ct":"UA","tp":"CR","ts":"2021-12-04T14:21:23Z","tX":610,"tY":369,"tags":{"fee":"no","impromptu":"yes"}},"6718900543":{"location":[44.8012838,34.6963309],"ct":"UA","tp":"CR","ts":"2023-05-02T22:54:32Z","tX":610,"tY":369,"tags":{"name":"Автокемпинг в Приветном","name:uk":"Автокемпінг у Привітному","operator":"Вероника","phone":"+7 (978) 027-98-93"}},"7314681893":{"location":[44.7988345,34.6918254],"ct":"UA","tp":"CR","ts":"2023-05-02T22:54:32Z","tX":610,"tY":369,"tags":{"impromptu":"yes","name":"Автокемпинг у реки \"Ускут\"","name:uk":"Автокемпінг біля річки \"Ускут\""}},"7314681894":{"location":[44.797945,34.6905625],"ct":"UA","tp":"CR","ts":"2023-05-02T22:54:32Z","tX":610,"tY":369,"tags":{"name":"Автокемпинг \"Катран\"","name:uk":"Автокемпінг \"Катран\""}},"8596162317":{"location":[44.740631,34.5353151],"ct":"UA","tp":"CR","ts":"2021-12-04T14:21:23Z","tX":610,"tY":369,"tags":{"impromptu":"yes"}},"12804083901":{"location":[44.8020926,34.4723974],"ct":"UA","tp":"CS","ts":"2025-05-02T13:10:42Z","tX":610,"tY":369,"tags":{"name":"Кемпинг Чили"}}}