{"296002578":{"location":[31.5419717,34.502089],"ct":"PS","tp":"CR","ts":"2024-07-24T15:38:12Z","tX":610,"tY":417,"tags":{"building":"yes","name":"بيت الأستاذ علاء لبد","name:ar":"بيت الأستاذ علاء لبد"}},"300475281":{"location":[31.55843,34.5096948],"ct":"PS","tp":"CR","ts":"2024-07-05T08:13:45Z","tX":610,"tY":417,"tags":{"building":"yes","name":"محمد مصطفى الحلوا99","name:ar":"محمد مصطفى الحلوا99"}},"301607666":{"location":[31.5550475,34.502049],"ct":"PS","tp":"CR","ts":"2024-07-12T13:42:45Z","tX":610,"tY":417,"tags":{"building":"yes","name":"ربحي ديب عليان28","name:ar":"ربحي ديب عليان28","source":"Pleiades 20140706, CNES, Airbus Defense and Space"}},"302191930":{"location":[31.5444313,34.4949661],"ct":"PS","tp":"CR","ts":"2024-07-26T14:24:22Z","tX":610,"tY":417,"tags":{"building":"yes","name":"خميس محمد طه 44","name:ar":"خميس محمد طه 44","source":"Pleiades 20140706, CNES, Airbus Defense and Space"}},"303360010":{"location":[31.5323219,34.5031257],"ct":"PS","tp":"CR","ts":"2024-07-23T13:43:39Z","tX":610,"tY":417,"tags":{"building":"yes","name":"منزل إيهاب جراد \"أبو محمد\"","name:ar":"منزل إيهاب جراد \"أبو محمد\"","phone":"0599769940"}},"303363122":{"location":[31.5341148,34.5023522],"ct":"PS","tp":"CR","ts":"2024-07-23T12:29:23Z","tX":610,"tY":417,"tags":{"building":"yes","name":"منزل عبد الرحمن","name:ar":"منزل عبد الرحمن"}},"1082086690":{"location":[31.5455609,34.4947435],"ct":"PS","tp":"CR","ts":"2024-07-26T14:35:47Z","tX":610,"tY":417,"tags":{"building":"yes","name":"منير طه 63","name:ar":"منير طه 63","source":"Pleiades 20140706, CNES, Airbus Defense and Space"}},"1082086692":{"location":[31.5453913,34.4949286],"ct":"PS","tp":"CR","ts":"2024-07-26T14:35:47Z","tX":610,"tY":417,"tags":{"building":"yes","name":"فتحي طه 74","name:ar":"فتحي طه 74","source":"Pleiades 20140706, CNES, Airbus Defense and Space"}},"9189348765":{"location":[31.3562878,34.5812532],"ct":"IL","tp":"CS","ts":"2025-02-20T17:22:05Z","tX":610,"tY":417,"tags":{"name":"חאן נעמ\"א","name:en":"Naama Khan","name:he":"חאן נעמ\"א","website":"https://channaama.com/"}},"9717136136":{"location":[31.6135572,34.5678446],"ct":"IL","tp":"CS","ts":"2022-06-25T08:46:03Z","tX":610,"tY":417,"tags":{"description":"Big picnic area with plenty of picnic tables surrounded by trees that greate shadow. Great for camping."}},"5454011421":{"location":[31.3986631,34.7604795],"ct":"IL","tp":"CR","ts":"2018-04-22T09:21:03Z","tX":610,"tY":417,"tags":{"addr:city":"رهط","addr:street":"مدخل مدرسة","name":"البيت","name:ar":"البيت","name:en":"Home"}},"4848427021":{"location":[31.5323827,34.4645152],"ct":"PS","tp":"CS","ts":"2024-02-28T19:57:38Z","tX":610,"tY":417,"tags":{"name":"Alssaied building","name:ar":"Alssaied building"}},"4848515321":{"location":[31.5144167,34.4637997],"ct":"PS","tp":"CS","ts":"2017-05-11T23:48:17Z","tX":610,"tY":417,"tags":{"name:en":"Rayyan building"}},"6952105185":{"location":[31.470956,34.4727991],"ct":"PS","tp":"CS","ts":"2022-10-13T12:59:11Z","tX":610,"tY":417,"tags":{}},"5374880821":{"location":[31.5018564,34.4545454],"ct":"PS","tp":"CR","ts":"2020-11-25T23:14:42Z","tX":610,"tY":417,"tags":{"name":"بيت خميس خميس خميس","name:ar":"بيت خميس خميس خميس"}},"5378317721":{"location":[31.5156813,34.4773054],"ct":"PS","tp":"CR","ts":"2020-11-25T23:14:42Z","tX":610,"tY":417,"tags":{"name":"منزل محمد نمر","name:ar":"منزل محمد نمر"}},"5378318421":{"location":[31.5180332,34.4786672],"ct":"PS","tp":"CR","ts":"2020-11-25T23:14:42Z","tX":610,"tY":417,"tags":{"name":"منزل مختار الشرفا","name:ar":"منزل مختار الشرفا"}},"5462046833":{"location":[31.5102405,34.4813335],"ct":"PS","tp":"CR","ts":"2020-11-25T23:14:42Z","tX":610,"tY":417,"tags":{"name":"بيت وليد سالم","name:ar":"بيت وليد سالم"}},"5907985186":{"location":[31.5382705,34.4972969],"ct":"PS","tp":"CR","ts":"2020-11-25T23:14:42Z","tX":610,"tY":417,"tags":{"name":"منزل الاستاذ عدنان رضوان","name:ar":"منزل الاستاذ عدنان رضوان"}},"5907985286":{"location":[31.5407449,34.474022],"ct":"PS","tp":"CR","ts":"2020-11-25T23:14:42Z","tX":610,"tY":417,"tags":{"name":"منزل آل جمعة","name:ar":"منزل آل جمعة"}},"5907992985":{"location":[31.5362024,34.4676796],"ct":"PS","tp":"CR","ts":"2020-11-25T23:14:42Z","tX":610,"tY":417,"tags":{"name":"منزل أبو رياض طموس","name:ar":"منزل أبو رياض طموس"}},"5948261986":{"location":[31.5353989,34.490813],"ct":"PS","tp":"CR","ts":"2020-11-25T23:14:42Z","tX":610,"tY":417,"tags":{"addr:street":"Al Falouja Street","name":"بيت إبراهيم جراد","name:ar":"بيت إبراهيم جراد","phone":"0599710534"}},"6166033986":{"location":[31.5555372,34.49599],"ct":"PS","tp":"CR","ts":"2020-11-25T23:14:42Z","tX":610,"tY":417,"tags":{"name":"كمال معروف46","name:ar":"كمال معروف46"}},"6166033987":{"location":[31.5570832,34.496951],"ct":"PS","tp":"CR","ts":"2020-11-25T23:14:42Z","tX":610,"tY":417,"tags":{"name":"انيس كمال 64","name:ar":"انيس كمال 64"}},"6166033989":{"location":[31.5541062,34.5020648],"ct":"PS","tp":"CR","ts":"2020-11-25T23:14:42Z","tX":610,"tY":417,"tags":{"name":"رامز عطايا الكيلاني 117","name:ar":"رامز عطايا الكيلاني 117"}},"6166033990":{"location":[31.5494928,34.5027143],"ct":"PS","tp":"CR","ts":"2020-11-25T23:14:42Z","tX":610,"tY":417,"tags":{"name":"حرب البراوي 43","name:ar":"حرب البراوي 43"}},"6166033992":{"location":[31.5444528,34.4956164],"ct":"PS","tp":"CR","ts":"2020-11-25T23:14:42Z","tX":610,"tY":417,"tags":{"name":"نعم طه 141","name:ar":"نعم طه 141"}},"6166033993":{"location":[31.5444422,34.4956184],"ct":"PS","tp":"CR","ts":"2020-11-25T23:14:42Z","tX":610,"tY":417,"tags":{"name":"نعيم محمد طه 141","name:ar":"نعيم محمد طه 141"}},"6166033994":{"location":[31.5408058,34.4821019],"ct":"PS","tp":"CR","ts":"2020-11-25T23:14:42Z","tX":610,"tY":417,"tags":{"name":"جمال جمعة 14","name:ar":"جمال جمعة 14"}},"6166033995":{"location":[31.5258259,34.4921975],"ct":"PS","tp":"CR","ts":"2020-11-25T23:14:42Z","tX":610,"tY":417,"tags":{"name":"توفيق شعبان 140","name:ar":"توفيق شعبان 140"}},"6166033996":{"location":[31.5172335,34.4909977],"ct":"PS","tp":"CR","ts":"2020-11-25T23:14:42Z","tX":610,"tY":417,"tags":{"name":"عبد الله دردونه 93","name:ar":"عبد الله دردونه 93"}},"6166033997":{"location":[31.5160175,34.5037971],"ct":"PS","tp":"CR","ts":"2020-11-25T23:14:42Z","tX":610,"tY":417,"tags":{"name":"عدنان جنيد 122","name:ar":"عدنان جنيد 122"}},"6166033998":{"location":[31.5244901,34.5100292],"ct":"PS","tp":"CR","ts":"2020-11-25T23:14:42Z","tX":610,"tY":417,"tags":{"name":"كفاية حكمت النجار 60","name:ar":"كفاية حكمت النجار 60"}},"6166038285":{"location":[31.560513,34.5011448],"ct":"PS","tp":"CR","ts":"2020-11-25T23:14:42Z","tX":610,"tY":417,"tags":{"man_made":"water_well","name":"حسن موسى الدعبلة 86","name:ar":"حسن موسى الدعبلة 86"}},"6166038286":{"location":[31.557235,34.5004598],"ct":"PS","tp":"CR","ts":"2020-11-25T23:14:42Z","tX":610,"tY":417,"tags":{"name":"صلاح رجب 38","name:ar":"صلاح رجب 38"}},"6166038288":{"location":[31.545268,34.5067682],"ct":"PS","tp":"CR","ts":"2020-11-25T23:14:42Z","tX":610,"tY":417,"tags":{"name":"امينة الرحل 101","name:ar":"امينة الرحل 101"}},"6166038289":{"location":[31.5171172,34.4980775],"ct":"PS","tp":"CR","ts":"2020-11-25T23:14:42Z","tX":610,"tY":417,"tags":{"name":"رفيق البطش 108","name:ar":"رفيق البطش 108"}},"6166038985":{"location":[31.5529928,34.5064573],"ct":"PS","tp":"CR","ts":"2020-11-25T23:14:42Z","tX":610,"tY":417,"tags":{"name":"على محمد ابو بنات 136","name:ar":"على محمد ابو بنات 136"}},"6166038987":{"location":[31.544435,34.510681],"ct":"PS","tp":"CR","ts":"2020-11-25T23:14:42Z","tX":610,"tY":417,"tags":{"name":"فادي ابو ستة 112","name:ar":"فادي ابو ستة 112"}},"6166038991":{"location":[31.5444512,34.4956329],"ct":"PS","tp":"CR","ts":"2020-11-25T23:14:42Z","tX":610,"tY":417,"tags":{"name":"نعيم محمد طه141","name:ar":"نعيم محمد طه141"}},"6166038992":{"location":[31.5218233,34.4803653],"ct":"PS","tp":"CR","ts":"2020-11-25T23:14:42Z","tX":610,"tY":417,"tags":{"name":"اسماعيل احمد دردونة 27","name:ar":"اسماعيل احمد دردونة 27"}},"6166038993":{"location":[31.5158189,34.4905488],"ct":"PS","tp":"CR","ts":"2020-11-25T23:14:42Z","tX":610,"tY":417,"tags":{"name":"نجوى حكمت النجار 89","name:ar":"نجوى حكمت النجار 89"}},"6166038994":{"location":[31.5150721,34.4929376],"ct":"PS","tp":"CR","ts":"2020-11-25T23:14:42Z","tX":610,"tY":417,"tags":{"name":"صالح محمد دردونه 36","name:ar":"صالح محمد دردونه 36"}},"6166038995":{"location":[31.5136993,34.4930823],"ct":"PS","tp":"CR","ts":"2020-11-25T23:14:42Z","tX":610,"tY":417,"tags":{"name":"سلطان محمد سلطان 11","name:ar":"سلطان محمد سلطان 11"}},"6166038996":{"location":[31.5144271,34.4945334],"ct":"PS","tp":"CR","ts":"2020-11-25T23:14:42Z","tX":610,"tY":417,"tags":{"name":"تيسر محمود خضر 111","name:ar":"تيسر محمود خضر 111"}},"6166038997":{"location":[31.5160738,34.4952479],"ct":"PS","tp":"CR","ts":"2020-11-25T23:14:42Z","tX":610,"tY":417,"tags":{"name":"محمد جمال دردونه 59","name:ar":"محمد جمال دردونه 59"}},"6166038998":{"location":[31.5226194,34.530003],"ct":"PS","tp":"CR","ts":"2020-11-25T23:14:42Z","tX":610,"tY":417,"tags":{"name":"محمد السواركة 107","name:ar":"محمد السواركة 107"}},"6166040685":{"location":[31.5163893,34.4978086],"ct":"PS","tp":"CR","ts":"2020-11-25T23:14:42Z","tX":610,"tY":417,"tags":{"name":"عبد الستار البطش 130","name:ar":"عبد الستار البطش 130"}},"6380902485":{"location":[31.5323087,34.4698879],"ct":"PS","tp":"CR","ts":"2020-11-25T23:14:42Z","tX":610,"tY":417,"tags":{"name":"منزل د.محمد عزيز","name:ar":"منزل د.محمد عزيز"}},"6453984985":{"location":[31.5107941,34.4570531],"ct":"PS","tp":"CR","ts":"2020-11-25T23:14:42Z","tX":610,"tY":417,"tags":{"addr:street":"شارع عمر المختار","internet_access":"wlan","name":"عمارة شراب","name:ar":"عمارة شراب","name:en":"Shurrab Home"}},"7618090586":{"location":[31.5562709,34.5033776],"ct":"PS","tp":"CR","ts":"2020-11-25T23:14:42Z","tX":610,"tY":417,"tags":{"name":"نسايبي","name:ar":"نسايبي"}},"8289633818":{"location":[31.5002428,34.4744067],"ct":"PS","tp":"CR","ts":"2021-01-04T13:30:22Z","tX":610,"tY":417,"tags":{"addr:street":"Al-Reyadh Street","name":"دار ابو السعيد"}},"10177183451":{"location":[31.5264527,34.4911051],"ct":"PS","tp":"CR","ts":"2022-11-11T21:33:17Z","tX":610,"tY":417,"tags":{"name":"منزل شامية"}},"10686719505":{"location":[31.5354091,34.4700726],"ct":"PS","tp":"CR","ts":"2023-02-22T19:30:06Z","tX":610,"tY":417,"tags":{"name":"البيت"}},"11117746006":{"location":[31.5329058,34.4686363],"ct":"PS","tp":"CR","ts":"2023-08-15T22:00:14Z","tX":610,"tY":417,"tags":{}},"9212342583":{"location":[31.3627886,34.5851402],"ct":"IL","tp":"CS","ts":"2025-02-20T17:22:05Z","tX":610,"tY":417,"tags":{"name":"חוות הדקלים","name:en":"HaDkalim Farm","name:he":"חוות הדקלים","website":"https://www.hadkalimfarm.co.il/"}}}