{"381243751":{"location":[31.0162539,34.7573364],"ct":"IL","tp":"CS","ts":"2023-02-14T09:08:08Z","tX":610,"tY":419,"tags":{"name":"Desert Ship","name:en":"Desert Ship","website":"https://www.weekend.co.il/negev/sfinatamidbar/"}},"1061646298":{"location":[30.7923915,34.4678459],"ct":"IL","tp":"CS","ts":"2018-05-06T09:15:19Z","tX":610,"tY":419,"tags":{"name":"חניון בארותיים","name:en":"Beerotayim camp site","name:he":"חניון בארותיים","phone":"1800-350550"}},"1095683927":{"location":[30.8283936,34.7510047],"ct":"IL","tp":"CS","ts":"2019-03-23T21:03:35Z","tX":610,"tY":419,"tags":{"name":"חאן השיירות","name:en":"Chan HaShayarot","name:he":"חאן השיירות","website":"https://www.shayarot.co.il/"}},"2720468088":{"location":[30.843422,34.7807568],"ct":"IL","tp":"CS","ts":"2024-02-19T21:16:03Z","tX":610,"tY":419,"tags":{"description":"חניון לא גדול, פופולרי ונגיש לרכב פרטי עם שני תאי שירותים אקולוגים אבל בלי ברז מים.","description:he":"חניון לא גדול, פופולרי ונגיש לרכב פרטי עם שני תאי שירותים אקולוגים אבל בלי ברז מים.","fee":"no","image":"https://upload.wikimedia.org/wikipedia/commons/a/a2/IHM_חניון_לילה_סרפנטינות.jpeg","image1":"https://upload.wikimedia.org/wikipedia/commons/5/51/IHM_חניון_לילה_סרפנטינות_1.jpeg","image2":"https://upload.wikimedia.org/wikipedia/commons/1/12/IHM_חניון_לילה_סרפנטינות_2.jpeg","name":"חניון לילה סרפנטינות","name:en":"Serpantinot Night Camping","name:he":"חניון לילה סרפנטינות"}},"3131924408":{"location":[30.9624391,34.7787906],"ct":"IL","tp":"CS","ts":"2022-10-19T22:25:55Z","tX":610,"tY":419,"tags":{"description":"חוות נאות הוקמה באוקטובר 2003 ברמת הנגב, על כביש 40, בואכה שדה בוקר. חלום ישן שלנו – לאה וגדי נחימוב. בחווה מגוון ביקתות ללינה למטיילי המדבר","description:he":"חוות נאות הוקמה באוקטובר 2003 ברמת הנגב, על כביש 40, בואכה שדה בוקר. חלום ישן שלנו – לאה וגדי נחימוב. בחווה מגוון ביקתות ללינה למטיילי המדבר","name":"חוות נאות","name:en":"Maot farm","name:he":"חוות נאות","place":"isolated_dwelling","website":"https://www.naotfarm.co.il/"}},"3406841273":{"location":[30.8297219,34.7497305],"ct":"IL","tp":"CS","ts":"2015-08-13T15:51:43Z","tX":610,"tY":419,"tags":{"name":"חוות נחל חווארים","name:en":"Nachal Chavarim ranch","name:he":"חוות נחל חווארים"}},"3799441057":{"location":[30.8755034,34.7859293],"ct":"IL","tp":"CS","ts":"2024-08-21T07:26:55Z","tX":610,"tY":419,"tags":{"image":"https://inature.info/w/images/2/26/Haroa_parking.jpg","name":"חניון הרועה","name:he":"חניון הרועה","ref:IL:inature":"חניון הרועה","website":"https://inature.info/wiki/%D7%97%D7%A0%D7%99%D7%95%D7%9F%20%D7%94%D7%A8%D7%95%D7%A2%D7%94"}},"5110958621":{"location":[30.8185993,34.7497129],"ct":"IL","tp":"CS","ts":"2017-09-17T12:35:39Z","tX":610,"tY":419,"tags":{"description":"אירוח בדואי וקמפינג אצל סלאם אל וואג', אפשר לישון בואהלי אירוח או לעשות קמפינג ולהשתמש בשרותי המקום","description:he":"אירוח בדואי וקמפינג אצל סלאם אל וואג', אפשר לישון בואהלי אירוח או לעשות קמפינג ולהשתמש בשרותי המקום","name":"יאללה קמפ","name:he":"יאללה קמפ"}},"6274187749":{"location":[30.8312603,34.7412101],"ct":"IL","tp":"CS","ts":"2021-07-21T20:54:54Z","tX":610,"tY":419,"tags":{"name":"חניון לילה נחל חווארים עליון","name:he":"חניון לילה נחל חווארים עליון"}},"6274187750":{"location":[30.80839,34.761899],"ct":"IL","tp":"CS","ts":"2021-04-07T21:35:27Z","tX":610,"tY":419,"tags":{"name":"חניון לילה המחצבה","name:he":"חניון לילה המחצבה"}},"7642076084":{"location":[30.8477507,34.7541031],"ct":"IL","tp":"CS","ts":"2021-08-04T13:54:59Z","tX":610,"tY":419,"tags":{"image":"https://upload.wikimedia.org/wikipedia/commons/c/cc/IHM_חניון_לילה_בור_חווארים.jpeg","name":"חניון לילה בור חווארים","name:he":"חניון לילה בור חווארים"}}}