{"501198604":{"location":[36.9154654,139.1972156],"ct":"JP","tp":"CS","ts":"2023-12-31T10:40:17Z","tX":907,"tY":398,"tags":{"addr:city":"片品村","addr:county":"利根郡","addr:neighbourhood":"戸倉","addr:postcode":"378-0411","addr:province":"群馬県","name":"山ノ鼻キャンプ場","name:en":"Yamanohana camp site","operator":"至仏山荘"}},"730236016":{"location":[37.0360879,138.9587632],"ct":"JP","tp":"CS","ts":"2019-10-01T15:19:23Z","tX":907,"tY":398,"tags":{"name":"五十沢キャンプ場"}},"1031896299":{"location":[37.1226146,138.959437],"ct":"JP","tp":"CS","ts":"2022-02-16T04:24:22Z","tX":907,"tY":398,"tags":{"name":"大崎キャンプ場"}},"1031897453":{"location":[37.0546985,138.9937294],"ct":"JP","tp":"CS","ts":"2022-02-16T04:36:36Z","tX":907,"tY":398,"tags":{"name":"わらびのオートキャンプ場"}},"1031899402":{"location":[36.9545023,138.9323573],"ct":"JP","tp":"CS","ts":"2022-02-16T04:57:47Z","tX":907,"tY":398,"tags":{"name":"巻機山麓キャンプ場"}},"6742317386":{"location":[36.9179207,138.8906201],"ct":"JP","tp":"CS","ts":"2019-08-24T14:52:17Z","tX":907,"tY":398,"tags":{"addr:housenumber":"3064-17","addr:postcode":"949-6103","addr:street":"新潟県南魚沼郡湯沢町大字土樽","name":"大源太キャニオンキャンプ場","name:en":"Daigenta Canyon Campsite","phone":"025-787-3536","website":"https://daigenta.net/"}}}