{"920124810":{"location":[35.8049656,139.2044743],"ct":"JP","tp":"CS","ts":"2021-03-21T13:36:01Z","tX":907,"tY":402,"tags":{"name":"煉瓦堂朱とんぼ"}},"973506689":{"location":[35.7596977,138.9738238],"ct":"JP","tp":"CS","ts":"2021-08-16T11:16:12Z","tX":907,"tY":402,"tags":{}},"1066853377":{"location":[35.9373146,139.2014376],"ct":"JP","tp":"CS","ts":"2022-06-05T06:49:52Z","tX":907,"tY":402,"tags":{"addr:block_number":"３１８−１","addr:city":"飯能市","addr:postcode":"357-0201","addr:province":"埼玉県","addr:quarter":"北川","name":"喜多川キャンピングベース"}},"1286982729":{"location":[35.8726608,139.182953],"ct":"JP","tp":"CS","ts":"2024-05-27T06:10:41Z","tX":907,"tY":402,"tags":{"name":"ノーラ名栗","name:en":"Nolla Naguri","website":"https://www.nolla-naguri.jp/"}},"1437450315":{"location":[35.9357634,139.1535504],"ct":"JP","tp":"CS","ts":"2014-05-04T12:46:06Z","tX":907,"tY":402,"tags":{"fax":"+81-42-979-1013","name":"名栗げんきプラザ","name:en":"Naguri Genki Plaza","name:ja":"名栗げんきプラザ","phone":"+81-42-979-1011","website":"http://www.naguri-genki.com/"}},"2267956607":{"location":[35.8502358,139.2021533],"ct":"JP","tp":"CS","ts":"2023-10-30T05:05:01Z","tX":907,"tY":402,"tags":{"name":"cazu","name:en":"cazu","website":"https://www.cazu.jp/"}},"2267956609":{"location":[35.8798639,139.1831861],"ct":"JP","tp":"CS","ts":"2023-10-30T19:44:39Z","tX":907,"tY":402,"tags":{"name":"ケーニーズ・ファミリー・ビレッジ","name:en":"Kenny's Family Vilage","name:ja":"ケーニーズ・ファミリー・ビレッジ","name:ja_kana":"ケーニーズ・ファミリー・ビレッジ","website":"https://www.kfv.co.jp/"}},"2433991017":{"location":[35.8069144,139.0995634],"ct":"JP","tp":"CS","ts":"2019-04-02T06:57:47Z","tX":907,"tY":402,"tags":{"addr:housenumber":"奥多摩町氷川７０２","fax":"+81-428-833538","name":"氷川キャンプ場","name:en":"Hikawa Campsite","name:ja":"氷川キャンプ場","name:ja_kana":"ひかわキャンプじょう","name:ja_rm":"Hikawa Kyanpujo","phone":"+81-428-832134","website":"http://www.okutamas.co.jp/hikawa/"}},"2435296807":{"location":[35.845646,139.1530378],"ct":"JP","tp":"CS","ts":"2019-04-02T06:58:09Z","tX":907,"tY":402,"tags":{"addr:housenumber":"奥多摩町大丹波５６１","name":"中茶屋キャンプ場","name:en":"NAKACHAYA","name:ja":"中茶屋キャンプ場","name:ja_kana":"ナカチャヤキャンプジョウ","website":"http://www7a.biglobe.ne.jp/~nakachaya/"}},"2435296808":{"location":[35.8467632,139.1540816],"ct":"JP","tp":"CS","ts":"2019-04-02T06:58:10Z","tX":907,"tY":402,"tags":{"addr:housenumber":"奥多摩町大丹波４８８","name":"百軒茶屋キャンプ場","phone":"0428-85-2532","website":"https://www.hyakkenjaya.com/"}},"2442344115":{"location":[35.8005281,139.1197828],"ct":"JP","tp":"CS","ts":"2019-04-02T06:57:48Z","tX":907,"tY":402,"tags":{"addr:housenumber":"奥多摩町海澤２３０","name":"アメリカキャンプ村","name:ja":"アメリカキャンプ村","website":"http://www.アメリカキャンプ村.com/"}},"2520778052":{"location":[35.8348888,138.9182465],"ct":"JP","tp":"CS","ts":"2024-03-10T19:00:35Z","tX":907,"tY":402,"tags":{"access":"yes","caravans":"no","fee":"yes","operator":"三条の湯","source":"survey,2013-11","static_caravans":"no","tents":"yes"}},"3730414580":{"location":[35.8003505,139.0814456],"ct":"JP","tp":"CS","ts":"2019-04-06T10:14:36Z","tX":907,"tY":402,"tags":{"addr:housenumber":"奥多摩町境１１８－イ","name":"境渓谷キャンプ場","name:de":"Campingplatz","name:ja":"境渓谷キャンプ場","phone":"0428-83-3410","website":"https://sakaikeikoku-c.jimdo.com/"}},"3878401663":{"location":[35.8115683,139.1649173],"ct":"JP","tp":"CS","ts":"2021-08-11T16:52:07Z","tX":907,"tY":402,"tags":{"addr:housenumber":"奥多摩町梅沢１８７","addr:street":"吉野街道","name":"川井キャンプ場","name:en":"Kawai Campsite","name:ja":"川井キャンプ場","phone":"0428-85-2206","website":"http://www.okutamas.co.jp/kawai/"}},"3878401664":{"location":[35.796109,139.0427575],"ct":"JP","tp":"CS","ts":"2019-04-02T06:57:43Z","tX":907,"tY":402,"tags":{"addr:housenumber":"奥多摩町境１２１８","addr:street":"青梅街道","name":"水根沢キャンプ場","name:de":"Mizunasawa Campingplatz"}},"3878401665":{"location":[35.8436285,139.1537614],"ct":"JP","tp":"CS","ts":"2019-04-02T06:58:08Z","tX":907,"tY":402,"tags":{"addr:housenumber":"奥多摩町大丹波５６２","name":"清東園キャンプ場"}},"3879515013":{"location":[35.8147579,139.1300498],"ct":"JP","tp":"CS","ts":"2019-04-02T06:57:53Z","tX":907,"tY":402,"tags":{"addr:housenumber":"奥多摩町棚沢１６１","addr:street":"青梅街道","name":"鳩ノ巣バンガロー","phone":"0428-85-2548","website":"http://www.hatonosu.com/"}},"4162269489":{"location":[35.7677639,139.0225429],"ct":"JP","tp":"CS","ts":"2019-04-02T06:57:41Z","tX":907,"tY":402,"tags":{"addr:housenumber":"奥多摩町川野１７４０","addr:street":"奥多摩周遊道路","name":"山のふるさと村","opening_hours":"Mo-Su 09:00-16:30","phone":"0428-86-2551"}},"4372055903":{"location":[35.814437,139.1469545],"ct":"JP","tp":"CS","ts":"2016-10-25T16:28:30Z","tX":907,"tY":402,"tags":{"addr:housenumber":"135","addr:postcode":"198-0105","addr:street":"青梅街道","name":"奥多摩福音の家","name:ja":"奥多摩福音の家","website":"http://www1.odn.ne.jp/ofi/"}},"4843760323":{"location":[35.9950311,139.142262],"ct":"JP","tp":"CS","ts":"2024-02-01T17:27:49Z","tX":907,"tY":402,"tags":{"name":"グリーンビュー丸山オートキャンプ場","name:ja":"グリーンビュー丸山オートキャンプ場"}},"5791880059":{"location":[35.7875581,138.931759],"ct":"JP","tp":"CS","ts":"2018-07-28T09:07:10Z","tX":907,"tY":402,"tags":{"name":"甲武キャンプ村","website":"https://tabayama-kobu.com/","wikipedia":"ja:甲武キャンプ村"}},"5792153289":{"location":[35.7581709,138.9805323],"ct":"JP","tp":"CS","ts":"2018-07-28T12:39:11Z","tX":907,"tY":402,"tags":{"name":"玉川キャンプ村","website":"http://www8.plala.or.jp/tamacamp/"}},"5792153292":{"location":[35.7595969,138.9736291],"ct":"JP","tp":"CS","ts":"2021-08-16T11:16:12Z","tX":907,"tY":402,"tags":{"name":"ほうれんぼうの森キャンプ場","website":"https://www.horenbo.com/"}},"5792153314":{"location":[35.7566212,138.9536297],"ct":"JP","tp":"CS","ts":"2018-07-28T12:39:12Z","tX":907,"tY":402,"tags":{"name":"平山キャンプ場","website":"http://www.hirayamacamp.com/"}},"6205022940":{"location":[36.0057699,139.1914933],"ct":"JP","tp":"CS","ts":"2019-01-13T08:58:21Z","tX":907,"tY":402,"tags":{"fee":"yes","name":"堂平天文台 星と緑の創造センター","website":"https://www.town.tokigawa.lg.jp/forms/info/info.aspx?info_id=11574"}},"6357639312":{"location":[35.9091874,139.1314702],"ct":"JP","tp":"CS","ts":"2020-10-23T00:09:00Z","tX":907,"tY":402,"tags":{"addr:city":"飯能市","addr:neighbourhood":"2305","addr:postcode":"357-0111","addr:province":"埼玉県","addr:quarter":"上名栗","description":"営業期間　3/中旬～11/末　くらいまで","fee":"yes","name":"白岩渓流園キャンプ場","phone":"+81 42-979-0755"}},"6358826387":{"location":[35.9433832,138.9275068],"ct":"JP","tp":"CS","ts":"2019-10-03T10:51:59Z","tX":907,"tY":402,"tags":{"addr:housenumber":"4011-1","addr:postcode":"365-1901","addr:street":"Otaki","name":"つちうちキャンプ場","name:fr":"Tsuchiuchi Camping Ground","name:ja":"つちうちキャンプ場","website":"http://www.chichibu.ne.jp"}},"6501360520":{"location":[35.9875211,139.2073164],"ct":"JP","tp":"CS","ts":"2019-05-26T03:10:17Z","tX":907,"tY":402,"tags":{"name":"木のむらキャンプ場"}},"6817255960":{"location":[35.9493522,138.9009423],"ct":"JP","tp":"CS","ts":"2019-09-23T11:33:22Z","tX":907,"tY":402,"tags":{"name":"大滝げんきプラザ"}},"7732610985":{"location":[35.9627514,139.0569126],"ct":"JP","tp":"CS","ts":"2022-12-21T14:39:15Z","tX":907,"tY":402,"tags":{"name":"橋立川キャンプ場","name:en":"hashitachikawa camping ground"}},"9333314881":{"location":[35.9877866,139.0483796],"ct":"JP","tp":"CS","ts":"2021-12-13T04:22:52Z","tX":907,"tY":402,"tags":{"name":"ピカ秩父","website":"https://www.pica-resort.jp/chichibu/about/index.html"}},"11906801459":{"location":[35.8943844,139.0989644],"ct":"JP","tp":"CS","ts":"2024-05-15T10:33:48Z","tX":907,"tY":402,"tags":{"name":"秩父彩の国キャンプ村"}}}