{"845260882":{"location":[35.5474753,139.1364914],"ct":"JP","tp":"CS","ts":"2023-11-05T23:22:40Z","tX":907,"tY":403,"tags":{"name":"青根キャンプ場","name:ja_kana":"あおねきゃんぷじょう","name:ja_rm":"aonekyanpujō","reservation":"recommended","website":"https://aonecamp.jp/"}},"1918393733":{"location":[35.5751276,139.0371842],"ct":"JP","tp":"CS","ts":"2014-05-25T10:12:53Z","tX":907,"tY":403,"tags":{"name":"アオゲラの森キャンプ場","name:ja":"アオゲラの森キャンプ場"}},"4311235489":{"location":[35.5289024,139.1081383],"ct":"JP","tp":"CS","ts":"2016-07-19T13:19:46Z","tX":907,"tY":403,"tags":{"name":"Kannogawa camping ground"}},"5031550351":{"location":[35.5268643,139.0957963],"ct":"JP","tp":"CS","ts":"2017-08-13T06:18:03Z","tX":907,"tY":403,"tags":{"name":"大渡キャンプ場"}},"5031609161":{"location":[35.4699862,138.9439941],"ct":"JP","tp":"CS","ts":"2017-08-13T06:59:59Z","tX":907,"tY":403,"tags":{"name":"奥道志キャンプ場"}},"5080832627":{"location":[35.5353992,139.0827473],"ct":"JP","tp":"CS","ts":"2023-11-05T23:22:42Z","tX":907,"tY":403,"tags":{"name":"久保キャンプ場","website":"https://kubocamp.com/"}},"5080953919":{"location":[35.4642135,138.9425177],"ct":"JP","tp":"CS","ts":"2017-09-05T08:11:23Z","tX":907,"tY":403,"tags":{"name":"山伏キャンプ"}},"5672349916":{"location":[35.6432765,139.1396841],"ct":"JP","tp":"CS","ts":"2018-06-07T11:32:02Z","tX":907,"tY":403,"tags":{"name":"桐花園キャンプ場"}},"5747639021":{"location":[35.5671609,139.2025004],"ct":"JP","tp":"CS","ts":"2022-12-22T03:33:14Z","tX":907,"tY":403,"tags":{"addr:block_number":"2362","addr:city":"相模原市","addr:postcode":"252-0188","addr:province":"神奈川県","addr:quarter":"寸沢嵐","addr:suburb":"緑区","name":"新戸キャンプ場","name:en":"shindo camp area","phone":"+81-42-787-0141","website":"https://shindocamp.com"}},"6905249859":{"location":[35.5755039,139.0702987],"ct":"JP","tp":"CS","ts":"2019-10-22T10:42:28Z","tX":907,"tY":403,"tags":{"fee":"yes","name":"さかざわキャンプ場"}},"7805627684":{"location":[35.5694332,139.1992778],"ct":"JP","tp":"CS","ts":"2023-11-05T23:22:42Z","tX":907,"tY":403,"tags":{"name":"青野原野呂ロッジキャンプ場","name:en":"Aonoharanoro Lodge Camping Ground","phone":"042-787-1360","website":"https://norolodge.com/"}},"7805648691":{"location":[35.5693204,139.2003742],"ct":"JP","tp":"CS","ts":"2022-12-22T03:33:14Z","tX":907,"tY":403,"tags":{"name":"青野原オートキャンプ場","phone":"042-787-0477"}},"7885964648":{"location":[35.5421244,139.1211873],"ct":"JP","tp":"CS","ts":"2022-12-22T03:33:14Z","tX":907,"tY":403,"tags":{"name":"このまさわキャンプ場","name:ja_kana":"このまさわきゃんぷじょう","name:ja_rm":"konomasawakyanpujō"}},"8280665595":{"location":[35.5181021,139.1635939],"ct":"JP","tp":"CS","ts":"2021-01-01T12:04:25Z","tX":907,"tY":403,"tags":{"name":"大平キャンプ場跡地"}},"11506425734":{"location":[35.4721183,139.0643902],"ct":"JP","tp":"CS","ts":"2024-01-10T18:03:51Z","tX":907,"tY":403,"tags":{"addr:block_number":"868","addr:city":"山北町","addr:county":"足柄上郡","addr:postcode":"258-0201","addr:province":"神奈川県","addr:quarter":"中川","name":"ウェルキャンプ西丹沢","name:ja":"ウェルキャンプ西丹沢","source":"survey","website":"https://well-camp.com/"}}}