{"440590206":{"location":[35.2617105,139.1230292],"ct":"JP","tp":"CS","ts":"2021-07-15T15:08:09Z","tX":907,"tY":404,"tags":{"name":"小田原市いこいの森","operator":"小田原市森林組合"}},"734298344":{"location":[35.2379191,138.9296739],"ct":"JP","tp":"CS","ts":"2025-03-07T13:11:38Z","tX":907,"tY":404,"tags":{"camp_site":"serviced","fee":"yes","name":"時之栖 OUTDOOR HILL VILLAGE キャンプサイト","static_caravans":"yes"}},"1062769881":{"location":[35.2013893,139.1394219],"ct":"JP","tp":"CS","ts":"2023-04-28T10:16:44Z","tX":907,"tY":404,"tags":{"name":"なみのこ村"}},"1089966488":{"location":[35.2378107,138.9288141],"ct":"JP","tp":"CS","ts":"2025-03-06T06:30:58Z","tX":907,"tY":404,"tags":{"fee":"yes","name":"Outdoor Hill Village","tents":"yes","website":"https://www.tokinosumika.com/outdoor/"}},"1301226688":{"location":[35.4162062,139.1897634],"ct":"JP","tp":"CS","ts":"2024-07-14T03:21:48Z","tX":907,"tY":404,"tags":{"addr:block_number":"2046","addr:city":"秦野市","addr:housenumber":"5","addr:neighbourhood":"菩提","addr:postcode":"259-1302","addr:province":"神奈川県","contact:phone":"+81 463 75 0725","contact:website":"https://yamamo-field.com/","fee":"yes","name":"表丹沢野外活動センター","name:ja-Hira":"おもてたんざわやがいかつどうせんたー"}},"1333680615":{"location":[35.3404632,139.0681638],"ct":"JP","tp":"CS","ts":"2024-11-14T08:52:25Z","tX":907,"tY":404,"tags":{"addr:block_number":"2586","addr:city":"南足柄市","addr:neighbourhood":"内山","addr:postcode":"250-0131","addr:province":"神奈川県","contact:phone":"+81 80 7658 3096","contact:website":"https://campiece.com/area/minamiashigara/","name":"CAMPiece南足柄","old_name":"北足柄中学校"}},"1952458958":{"location":[35.4420771,139.2117023],"ct":"JP","tp":"CR","ts":"2015-09-17T15:19:04Z","tX":907,"tY":404,"tags":{"name":"ボスコオートキャンプ場","name:en":"BOSCO Auto Camp"}},"2126031032":{"location":[35.400819,138.874838],"ct":"JP","tp":"CS","ts":"2013-01-24T09:30:39Z","tX":907,"tY":404,"tags":{"name":"ボーイスカウト日本連盟 山中野営場"}},"2207783502":{"location":[35.4163676,139.1616026],"ct":"JP","tp":"CS","ts":"2019-02-09T10:11:30Z","tX":907,"tY":404,"tags":{"fee":"yes","name":"大倉高原山の家キャンプ場","name:en":"Okurakogen camp site","operator":"大倉高原山の家","source":"gps;survey","tents":"yes"}},"2221525452":{"location":[35.4073329,139.1681747],"ct":"JP","tp":"CS","ts":"2013-03-25T07:55:42Z","tX":907,"tY":404,"tags":{"name":"滝沢園キャンプ場","source":"Bing,2011-02"}},"2473146558":{"location":[35.412796,138.89252],"ct":"JP","tp":"CS","ts":"2013-09-27T06:19:36Z","tX":907,"tY":404,"tags":{"name":"湖山荘キャンプ場"}},"2578307699":{"location":[35.4236184,138.895116],"ct":"JP","tp":"CS","ts":"2023-05-13T09:59:21Z","tX":907,"tY":404,"tags":{"caravans":"yes","fee":"yes","name:en":"sotosotodays CAMPGROUNDS Yamanaka Lake Misaki","name:ja":"sotosotodays CAMPGROUNDS 山中湖みさき","operator":"株式会社丸江","tents":"yes","website":"https://camp.sotosotodays.com/yamanakako-misaki/"}},"2623273559":{"location":[35.4043278,138.8690145],"ct":"JP","tp":"CS","ts":"2014-04-26T23:12:55Z","tX":907,"tY":404,"tags":{"name":"山中湖村営キャンプ場","name:ja":"山中湖村営キャンプ場","operator":"山中湖村"}},"4358899646":{"location":[35.3805973,139.0299217],"ct":"JP","tp":"CS","ts":"2016-08-20T11:58:40Z","tX":907,"tY":404,"tags":{"source":"survey"}},"4400667427":{"location":[35.2387311,138.9904309],"ct":"JP","tp":"CS","ts":"2017-11-18T12:34:21Z","tX":907,"tY":404,"tags":{"name":"キャンプ場","name:en":"Campingplatz"}},"4843783522":{"location":[35.4417497,139.2118332],"ct":"JP","tp":"CS","ts":"2021-06-28T12:04:25Z","tX":907,"tY":404,"tags":{"name":"BOSCOオートキャンプベース","name:ja":"BOSCOオートキャンプベース"}},"5547310922":{"location":[35.2068044,139.0566982],"ct":"JP","tp":"CS","ts":"2019-07-31T11:31:23Z","tX":907,"tY":404,"tags":{}},"6033228289":{"location":[35.4536533,139.0512885],"ct":"JP","tp":"CS","ts":"2018-11-03T02:49:19Z","tX":907,"tY":404,"tags":{"name":"Camp ground"}},"6694375486":{"location":[35.2898821,138.9678118],"ct":"JP","tp":"CS","ts":"2019-08-08T09:13:12Z","tX":907,"tY":404,"tags":{"name":"1st Campground (paid)"}},"9416797143":{"location":[35.3276814,139.1647643],"ct":"JP","tp":"CS","ts":"2022-12-22T03:33:14Z","tX":907,"tY":404,"tags":{"name":"ビオトピア　オートキャンプ"}}}