{"662867438":{"location":[-23.7754646,-45.6503558],"ct":"BR","tp":"CS","ts":"2022-12-03T21:47:15Z","tX":382,"tY":581,"tags":{"addr:city":"São Sebastião","addr:housenumber":"932","addr:postcode":"11619-434","addr:street":"Alameda Antônio José Marques","addr:suburb":"Camburi","air_conditioning":"yes","contact:mobile":"+55 11  94068 9685","fee":"yes","name":"Pousada Camping Camburi","phone":"+55 12 3865 2323","website":"https://www.campingcamburi.com.br/"}},"1116571585":{"location":[-23.7765799,-45.6101946],"ct":"BR","tp":"CS","ts":"2023-02-23T21:37:47Z","tX":382,"tY":581,"tags":{"access":"private","addr:housenumber":"1445","addr:street":"Estrada do Cascalho","backcountry":"yes","contact:mobile":"+55 13 97413 7126","email":"moradadoscolibris@Outlook.com","fee":"yes","name":"Morada dos Colibris","phone":"+55 12 3865 4552","website":"https://moradadoscolibris.com/"}},"1119489218":{"location":[-23.792884,-45.5545708],"ct":"BR","tp":"CS","ts":"2024-09-13T22:12:11Z","tX":382,"tY":581,"tags":{"addr:street":"Avenida Francisco Loup","fee":"yes","hostel":"yes","name":"Camping & Hostel da Malu","phone":"+55 12 99602 8171"}},"5171944585":{"location":[-23.8016741,-45.5524398],"ct":"BR","tp":"CS","ts":"2017-10-16T20:55:22Z","tX":382,"tY":581,"tags":{"caravans":"no","contact:website":"http://www.campingdomazinho.com.br/","fee":"yes","name":"Camping do Mazinho","tents":"yes"}},"5854450385":{"location":[-23.8723369,-45.4372789],"ct":"BR","tp":"CS","ts":"2018-08-24T18:50:48Z","tX":382,"tY":581,"tags":{"addr:housenumber":"8801","addr:postcode":"11630","addr:street":"Av. Governador Mário Covas Júnior","name":"Camping Veloso","name:en":"Veloso Camping","opening_hours":"24/7","phone":"(12) 3894-1762"}},"8494654122":{"location":[-23.7598412,-45.6369943],"ct":"BR","tp":"CS","ts":"2021-03-07T18:07:05Z","tX":382,"tY":581,"tags":{"access":"customers","addr:city":"São Sebastião","addr:country":"BR","addr:housenumber":"35","addr:postcode":"11619109","addr:street":"Caminho do Meio","addr:suburb":"Sertão do Cacau","capacity":"50","email":"hostelriodaspedras@gmail.com","name":"Rio das Pedras Hostel e Camping","operator":"Bruno","website":"https://hostelriodaspedras.com.br/"}}}