{"364573657":{"location":[60.1955982,19.6916486],"ct":"FI","tp":"CS","ts":"2024-07-15T00:36:58Z","tX":568,"tY":296,"tags":{"addr:housenumber":"285","addr:street":"Kattnäsvägen","fee":"yes","internet_access":"no","name":"Kattnäs Camping","payment:cash":"yes","payment:coins":"yes","payment:credit_cards":"no","phone":"+358 18 37687","power_supply":"yes","shower":"yes","source":"Mapbox","toilets":"yes","website":"https://www.kattnas.ax/"}},"1054417157":{"location":[60.0907185,19.9530008],"ct":"FI","tp":"CS","ts":"2024-08-06T18:56:42Z","tX":568,"tY":296,"tags":{"addr:city":"Mariehamn","addr:housenumber":"1","addr:postcode":"22100","addr:street":"Östernäsvägen","addr:unit":"A","bbq":"yes","cabins":"yes","caravans":"yes","drinking_water":"yes","internet_access":"wlan","kitchen":"yes","name":"Gröna uddens camping","power_supply":"yes","sanitary_dump_station":"yes","shower":"hot","tents":"yes","toilets":"yes","waste_disposal":"yes","website":"https://www.gronaudden.com"}},"1054848252":{"location":[60.0909327,19.9116673],"ct":"FI","tp":"CS","ts":"2022-04-25T19:00:07Z","tX":568,"tY":296,"tags":{"access":"private","caravans":"yes","name":"Ålands Caravan Club","website":"http://www.caravanclub.ax/"}},"1237219161":{"location":[60.2238858,19.6911116],"ct":"FI","tp":"CS","ts":"2024-01-05T09:39:00Z","tX":568,"tY":296,"tags":{"cabins":"yes","dog":"yes","internet_access":"yes","name":"Björklidens Stugby","shower":"yes","toilets":"yes"}},"1263868708":{"location":[60.0876648,19.9570718],"ct":"FI","tp":"CS","ts":"2024-03-27T16:16:34Z","tX":568,"tY":296,"tags":{"addr:city":"Mariehamn","addr:housenumber":"1","addr:postcode":"22100","addr:street":"Östernäsvägen","addr:unit":"B","name":"Övernäsgården"}},"6721299053":{"location":[60.2331176,19.8039937],"ct":"FI","tp":"CS","ts":"2019-08-18T17:24:41Z","tX":568,"tY":296,"tags":{"name":"Söderö Stugby","website":"http://www.sodero.ax"}},"4986684256":{"location":[60.0989019,19.9483208],"ct":"FI","tp":"SD","ts":"2022-05-01T06:56:00Z","tX":568,"tY":296,"tags":{"access":"yes","fee":"no","opening_hours":"24/7","sanitary_dump_station:accepted":"black_water","sanitary_dump_station:pump-out":"yes","seamark:small_craft_facility:category":"pump-out","seamark:type":"small_craft_facility","water_point":"yes","waterway":"sanitary_dump_station"}},"5787166121":{"location":[60.0979909,19.9472515],"ct":"FI","tp":"SD","ts":"2018-07-26T18:28:55Z","tX":568,"tY":296,"tags":{"access":"yes","fee":"no","name":"Latrintömning","opening_hours":"24/7","sanitary_dump_station:basin":"yes"}}}