{"26860273":{"location":[49.324167,19.985],"ct":"PL","tp":"CS","ts":"2023-04-07T22:03:54Z","tX":568,"tY":350,"tags":{"caravans":"yes","email":"harenda51b@gmail.com","fax":"18 20 147 00","name":"Harenda","phone":"+48 18 201 47 00; +48 500 896 251; +48 601 506 717","ref:pfcc":"160","stars":"2","tents":"yes","website":"http://www.harenda.tatrynet.pl/"}},"26860821":{"location":[49.298889,19.746389],"ct":"SK","tp":"CS","ts":"2023-08-10T18:52:08Z","tX":568,"tY":350,"tags":{"caravans":"yes","contact:website":"https://kemporavice.sk/","drinking_water":"yes","internet_access":"no","name":"Kemp ORAVICE","power_supply":"yes","shower":"yes","tents":"yes","toilets":"yes","wheelchair":"no"}},"250466347":{"location":[49.2831319,19.9674199],"ct":"PL","tp":"CS","ts":"2023-11-03T03:22:23Z","tX":568,"tY":350,"tags":{"caravans":"yes","drinking_water":"yes","email":"camp@podkrokwia.pl","fax":"+48 18 200 04 51","name":"Pod Krokwią","phone":"+48 18 201 22 56","power_supply":"yes","ref:pfcc":"97","shower":"yes","stars":"3","tents":"yes","toilets":"yes","toilets:wheelchair":"limited","website":"https://www.podkrokwia.pl/","wheelchair":"yes"}},"1034134013":{"location":[49.3239235,19.9845545],"ct":"PL","tp":"CR","ts":"2022-02-22T11:21:19Z","tX":568,"tY":350,"tags":{}},"1059872039":{"location":[49.2845446,19.9625586],"ct":"PL","tp":"CS","ts":"2024-10-10T12:00:56Z","tX":568,"tY":350,"tags":{"addr:city":"Zakopane","addr:housenumber":"28b","addr:postcode":"34-500","addr:street":"Józefa Piłsudskiego","email":"camperparkolimp@gmail.com","mobile":"+48 691 984 914","name":"Camper Park Olimp","parking":"surface","website":"https://camperparkolimp.pl/"}},"1066026121":{"location":[49.3081358,19.9689958],"ct":"PL","tp":"CS","ts":"2022-07-15T14:59:36Z","tX":568,"tY":350,"tags":{"barrier":"fence","name":"Tanie Domki Zakopane","website":"http://domkizakopane.com.pl/"}},"2330674883":{"location":[49.3223217,19.985725],"ct":"PL","tp":"CS","ts":"2023-07-09T07:24:01Z","tX":568,"tY":350,"tags":{"addr:city":"Zakopane","addr:housenumber":"5b","addr:postcode":"34-500","addr:street":"Ustup","description:en":"Gates open for cars 6-22, for pedestrians 6-23","email":"camping.ustup@gmail.com","name":"Family Camping","name:en":"Camping Ustup","name:pl":"Camping Ustup","opening_hours":"24/7","phone":"+48 667 477 791","source":"emuia.gugik.gov.pl","website":"https://www.camping-ustup.pl/en/"}},"4383672605":{"location":[49.3015956,19.9903412],"ct":"PL","tp":"CS","ts":"2016-09-04T13:24:43Z","tX":568,"tY":350,"tags":{"addr:housenumber":"17a","addr:street":"Mrowce","name":"Campingplatz Willa Zakopane"}},"10139897323":{"location":[49.3128438,19.9409124],"ct":"PL","tp":"CS","ts":"2022-10-30T12:33:01Z","tX":568,"tY":350,"tags":{}},"11234477218":{"location":[49.2826622,19.8621583],"ct":"PL","tp":"CS","ts":"2023-10-02T19:18:02Z","tX":568,"tY":350,"tags":{"name":"Polana Rogoźniczańska PZA","source":"https://www.openstreetmap.org/note/3886861"}}}