{"26860829":{"location":[49.068346,19.769443],"ct":"SK","tp":"CS","ts":"2024-03-06T07:21:46Z","tX":568,"tY":351,"tags":{"name":"Vavrisovo"}},"301588054":{"location":[49.1303695,19.7924464],"ct":"SK","tp":"CS","ts":"2024-04-15T09:11:25Z","tX":568,"tY":351,"tags":{"addr:city":"Pribylina","addr:housenumber":"1435","addr:postcode":"032 42","addr:street":"Račkova Dolina","barrier":"fence","fence_type":"wood","height":"1.5","name":"ATC Račkova dolina","phone":"+421 908 906 726","source":"survey;Ortofotomozaika SR, GPS","website":"http://www.pribylina.sk/sk/autocamp-rackova-dolina"}},"920270962":{"location":[49.0920167,19.8176661],"ct":"SK","tp":"CS","ts":"2023-10-11T19:28:45Z","tX":568,"tY":351,"tags":{"access":"permit","addr:city":"Liptovská Kokava","addr:housenumber":"226","addr:postcode":"03244","addr:street":"Hausnummer 226","capacity":"8","caravans":"yes","dog":"yes","drinking_water":"yes","email":"jana.jurcova@centrum.sk","fee":"yes","internet_access":"wlan","internet_access:fee":"customers","name":"Minicamp Jana","nudism":"no","openfire":"yes","operator":"Jana Jurcova","payment:cash":"yes","phone":"+421 44 529 74 95","power_supply":"yes","reservation":"recommended","sanitary_dump_station":"yes","shower":"yes","tents":"yes","toilets":"yes","website":"https://minicampingjana.com","wheelchair":"limited"}},"1258113842":{"location":[49.0693579,19.7655148],"ct":"SK","tp":"CS","ts":"2024-03-06T07:21:46Z","tX":568,"tY":351,"tags":{"barrier":"fence","landuse":"recreation_ground","name":"Autocamping Vavrišovo","source":"Ortofotomozaika SR, survey"}},"1258113847":{"location":[49.0682262,19.7692926],"ct":"SK","tp":"CS","ts":"2024-03-06T07:21:46Z","tX":568,"tY":351,"tags":{"barrier":"fence","landuse":"recreation_ground","name":"Vavrisovo","source":"Ortofotomozaika SR, survey"}},"1270795382":{"location":[49.1313856,19.7378357],"ct":"SK","tp":"CS","ts":"2024-04-08T06:17:16Z","tX":568,"tY":351,"tags":{"backcountry":"no","group_only":"yes","name":"Provida camp","operator":"Provida camp","reservation":"yes","website":"https://tabory.sk/katalog-organizacii/organizacie/nadodcia-provida-/todbor-jakubovany-id4278"}},"1282349950":{"location":[49.0127265,19.8473778],"ct":"SK","tp":"CS","ts":"2024-07-02T13:56:38Z","tX":568,"tY":351,"tags":{"contact:email":"ranc@ranckralovalehota.sk","contact:phone":"+421 44 522 14 70","name":"Ranč Kráľova Lehota","website":"https://www.ranckralovalehota.sk/"}},"1655568878":{"location":[49.0377046,19.7043081],"ct":"SK","tp":"CS","ts":"2024-04-22T20:54:29Z","tX":568,"tY":351,"tags":{}},"1655568880":{"location":[49.0377985,19.7032595],"ct":"SK","tp":"CR","ts":"2024-04-22T20:54:29Z","tX":568,"tY":351,"tags":{}},"6652748442":{"location":[49.0598776,19.8993382],"ct":"SK","tp":"CS","ts":"2019-07-27T10:06:43Z","tX":568,"tY":351,"tags":{"access":"private","name":"Stanové mestečko"}},"7803042913":{"location":[49.0692913,19.7660611],"ct":"SK","tp":"CS","ts":"2023-09-27T10:46:40Z","tX":568,"tY":351,"tags":{"caravans":"yes","contact:website":"http://www.autocampingvavrisovo.sk/uvod","drinking_water":"yes","name":"Autocamping Vavrišovo","power_supply":"yes","shower":"yes","tents":"yes","toilets":"yes"}},"9852818053":{"location":[48.9816385,19.7678201],"ct":"SK","tp":"CS","ts":"2022-06-28T09:17:06Z","tX":568,"tY":351,"tags":{"email":"speleocamping@gmail.com","name":"Speleocamping Malužiná","opening_hours":"Th-Su 10:00-16:00","phone":"+421 907 474 508","website":"https://www.facebook.com/speleocampingmaluzina/"}},"11292862073":{"location":[49.1216279,19.7044462],"ct":"SK","tp":"CS","ts":"2024-04-06T07:03:17Z","tX":568,"tY":351,"tags":{"contact:email":"glampingslovensko@gmail.com","contact:facebook":"https://www.facebook.com/glampingslovensko.sk","contact:instagram":"https://www.instagram.com/glampingslovensko/","contact:phone":"+421 903 034 555","group_only":"yes","internet_access:fee":"yes","name":"GLAMPING SLOVENSKO","operator":"GLAMPING SLOVENSKO","reservation":"required","source":"survey,GPS"}},"6652748413":{"location":[49.0595982,19.9012372],"ct":"SK","tp":"CR","ts":"2019-07-27T10:06:43Z","tX":568,"tY":351,"tags":{"access":"private","name":"Karavany"}}}