{"299378183":{"location":[46.2710921,20.0218972],"ct":"HU","tp":"CS","ts":"2023-04-15T16:39:28Z","tX":568,"tY":363,"tags":{"addr:city":"Szeged","addr:postcode":"6791","addr:street":"Széksósi út","addr:suburb":"Kiskundorozsma","capacity:persons":"700","caravans":"yes","contact:email":"szikiszallas@szegedifurdok.hu;szikiszallas@szegedsport.hu","contact:mobile":"+36 20 335 9180","contact:phone":"+36 62 551 920","contact:website":"http://www.szegedsport.hu/intezmenyek/sziksosfurdo-strand-es-kemping","description":"A fürdőegységben egy 75 x 75 méteres fürdőtó üzemel. Altalaja szikes-homokos, partfala három oldalon betonozott – 2 oldalon lépcsősorral – a délnyugati oldalon homokos, enyhe lejtésű, természetes jellegű. A strandfürdővel közös területen 700 fős kemping v","fee":"yes","name":"Sziksósfürdő kemping","operator":"Szegedi Sport és Fürdők Kft.","tents":"yes"}},"508280201":{"location":[46.1052507,19.7361149],"ct":"RS","tp":"CS","ts":"2022-10-02T20:02:21Z","tX":568,"tY":363,"tags":{"abandoned":"yes","disused":"yes","internet_access":"wlan","name":"De Tour","source":"survey"}},"3437116572":{"location":[46.2675675,20.0163742],"ct":"HU","tp":"CS","ts":"2023-11-16T17:57:24Z","tX":568,"tY":363,"tags":{"access":"private","addr:city":"Szeged","addr:housenumber":"1","addr:postcode":"6791","addr:street":"Vereshomok dűlő","contact:fax":"+36 62 463 988","email":"info@natours.hu","fee":"yes","fixme":"position","name":"Sziksósfürdői Naturista Kemping","nudism":"designated","opening_hours":"24/7","operator":"Sziki-Natours Kft. 6791 Szeged-Kiskundorozsma, Pf.: 26.","phone":"+36 62 463 988","source":"turistautak.hu","website":"https://natours.hu/hu/"}},"12441368875":{"location":[46.1924205,19.842757],"ct":"HU","tp":"CS","ts":"2024-12-22T11:46:03Z","tX":568,"tY":363,"tags":{"name":"Csodarét Kúria"}}}