{"432635318":{"location":[45.1747534,19.9300853],"ct":"RS","tp":"CS","ts":"2025-03-05T19:06:20Z","tX":568,"tY":367,"tags":{"barrier":"fence","fee":"yes","int_name":"Ekokamping Fruska gora","name":"Екокампинг Фрушка гора","name:sr":"Екокампинг Фрушка гора","name:sr-Latn":"Ecocamping Fruška gora","website":"http://campingfruskagora.com"}},"642768669":{"location":[45.1671847,20.0213239],"ct":"RS","tp":"CS","ts":"2018-11-10T02:04:36Z","tX":568,"tY":367,"tags":{"camp_site":"basic","tents":"yes"}},"5158297422":{"location":[45.2059601,19.940202],"ct":"RS","tp":"CS","ts":"2020-02-26T21:06:44Z","tX":568,"tY":367,"tags":{}},"5365677031":{"location":[45.1559771,19.9895398],"ct":"RS","tp":"CS","ts":"2024-12-06T14:48:20Z","tX":568,"tY":367,"tags":{"name":"Zuta kuca"}},"5782151095":{"location":[45.241221,20.0255093],"ct":"RS","tp":"CS","ts":"2023-11-04T00:54:31Z","tX":568,"tY":367,"tags":{"addr:city":"Kovilj","addr:housenumber":"60","addr:postcode":"21243","addr:street":"Бранка Бајића","internet_access":"wlan","name":"Coffeecamp-Kovilj","phone":"+381 65 2090807","ref:RS:kucni_broj":"5517277","website":"https://www.coffeecamp-kovilj.com/"}},"6366302685":{"location":[45.1441181,19.9626354],"ct":"RS","tp":"CS","ts":"2024-07-19T15:46:20Z","tX":568,"tY":367,"tags":{"internet_access":"wlan","name":"SunnySide Kamp","name:de":"SonnenSeite Camping","name:en":"SunnySide Camping","website":"https://sunnyside.rs/"}},"9922104918":{"location":[45.1727619,19.9291378],"ct":"RS","tp":"CS","ts":"2022-07-31T10:01:59Z","tX":568,"tY":367,"tags":{"addr:housenumber":"1","addr:postcode":"21205","addr:street":"Beleševo","email":"campingfruskagora@gmail.com","internet_access":"wlan","name":"Eko resort","phone":"+381602201234","website":"http://campingfruskagora.com"}},"9922104919":{"location":[45.1727615,19.9291837],"ct":"RS","tp":"CS","ts":"2022-07-31T10:01:59Z","tX":568,"tY":367,"tags":{"addr:postcode":"21205","addr:street":"Belesevo 1","email":"campingfruskagora@gmail.com","internet_access":"wlan","name":"Eko kamp Fruška Gora","name:en":"Eco camp Fruska Gora","opening_hours":"Mo-Su 07:00-21:00","phone":"+381602201234","website":"http://campingfruskagora.com"}},"10959674589":{"location":[45.1395621,19.8010935],"ct":"RS","tp":"CS","ts":"2024-11-08T23:52:50Z","tX":568,"tY":367,"tags":{"contact:instagram":"kampus.fruskagora","description":"Kamp naselje sa šatorima za iznajmljivanje i bioskopom pod otvorenim nebom","name":"Kamp-us Fruška gora","tents":"yes"}},"12536446105":{"location":[45.1512048,19.940815],"ct":"RS","tp":"CS","ts":"2025-01-27T15:33:32Z","tX":568,"tY":367,"tags":{"name:en":"Camp na Fruškoj Gori - Vidmar"}}}