{"168916937":{"location":[63.7924393,-18.0508593],"ct":"IS","tp":"CS","ts":"2024-08-21T00:47:40Z","tX":460,"tY":274,"tags":{"email":"kirkjubaer@simnet.is","fee":"yes","internet_access":"yes","internet_access:fee":"yes","name":"Kirkjubær II","phone":"+354 487 4612;+354 894 4495","website":"https://kirkjubaer.com/"}},"183039802":{"location":[63.8013244,-18.057609],"ct":"IS","tp":"CS","ts":"2024-10-29T16:42:14Z","tX":460,"tY":274,"tags":{"addr:city":"Kirkjubæjarklaustur","addr:postcode":"881","addr:street":"Geirlandsvegur","alt_name":"Kleifarmörk","caravans":"yes","description":"This camp site is part of the Icelandic Camping Card Project","drinking_water":"yes","email":"kleifar68@simnet.is","fee":"yes","internet_access":"no","motor_vehicle":"no","name":"Tjaldsvæðið Kleifar","openfire":"no","phone":"+354 487 4675;+354 861 7546;+354 863 7546","power_supply":"yes","sanitary_dump_station":"no","shower":"no","source":"http://www.campingkarte.is/kleifarmork/","tents":"yes","toilets":"yes"}},"485056196":{"location":[63.8426989,-17.9508377],"ct":"IS","tp":"CS","ts":"2024-04-22T20:48:10Z","tX":460,"tY":274,"tags":{"addr:city":"Skaftárhreppur","addr:housenumber":"1","addr:postcode":"881","addr:street":"Hörgsland","email":"postur@horgsland.is","fee":"yes","internet_access":"wlan","name":"Hörgsland","phone":"+354 487 6655","website":"http://www.horgsland.is"}},"3629503503":{"location":[63.7926373,-18.050214],"ct":"IS","tp":"SD","ts":"2024-08-21T00:47:40Z","tX":460,"tY":274,"tags":{}}}