{"481161589":{"location":[60.5353055,21.540753],"ct":"FI","tp":"CS","ts":"2021-10-31T12:57:56Z","tX":573,"tY":294,"tags":{"addr:housenumber":"356","addr:street":"Mussalontie","caravans":"yes","fee":"yes","name":"Camping Mussalo","operator":"SFC Mussalo","power_supply":"yes","tents":"yes"}},"700732057":{"location":[60.5226789,21.7840629],"ct":"FI","tp":"CS","ts":"2024-08-28T19:48:23Z","tX":573,"tY":294,"tags":{"addr:city":"Livonsaari","addr:housenumber":"250","addr:postcode":"21180","addr:street":"Pohjanpääntie","cabins":"yes","caravans":"yes","description":"Alueella on sähköistettyjä asuntovaunupaikkoja, telttapaikkoja ja yöpymismökkejä. Myös huoltorakennus, oleskelutila, uimaranta ja grillauspaikkoja.","drinking_water":"yes","name":"Livonsaari Caravan","power_supply":"yes","shower":"yes","tents":"yes","toilets":"yes","website":"https://www.livonsaarencaravan.fi/"}},"963758836":{"location":[60.5233765,21.7835359],"ct":"FI","tp":"CR","ts":"2024-08-28T19:48:23Z","tX":573,"tY":294,"tags":{"addr:housenumber":"250","addr:street":"Pohjanpääntie","building":"yes","description":"Livonsaari Caravanin matkailuautojen alue","fee":"yes","name":"Livonsaari Caravan RV Park","power_supply":"yes","tents":"yes","website":"https://www.livonsaarencaravan.fi/"}},"997932617":{"location":[60.5346425,21.5413423],"ct":"FI","tp":"CS","ts":"2021-10-31T12:57:56Z","tX":573,"tY":294,"tags":{}}}