{"26860262":{"location":[53.9675,21.776667],"ct":"PL","tp":"CS","ts":"2016-08-27T08:07:54Z","tX":573,"tY":328,"tags":{"capacity":"ca. 50","description":"Hervorragend geführter Platz. Sauber, ordentlich und gemütlich. Wenn man vor Mitternacht Ruhe braucht, sollte man Abstand zum Grillplatz halten, hier fließt regelmäßig Bier und Vodka in Strömen.  Kinderfreundlich.","fee":"yes","name":"Echo"}},"26860336":{"location":[54.1469792,21.7477806],"ct":"PL","tp":"CR","ts":"2015-12-20T14:20:17Z","tX":573,"tY":328,"tags":{"name":"Park Sonata"}},"239387018":{"location":[53.96358,21.7486902],"ct":"PL","tp":"CS","ts":"2013-09-26T19:26:52Z","tX":573,"tY":328,"tags":{}},"294996793":{"location":[54.0365664,21.6986396],"ct":"PL","tp":"CS","ts":"2017-04-27T11:28:54Z","tX":573,"tY":328,"tags":{"caravans":"yes","email":"office@elixirhotel.com","name":"Camping Elixir","phone":"+48 87 428 28 26","tents":"yes","website":"http://www.elixirhotel.com"}},"294996794":{"location":[53.9861985,21.7625047],"ct":"PL","tp":"CS","ts":"2023-04-29T07:24:26Z","tX":573,"tY":328,"tags":{"addr:city":"Strzelce","cabins":"yes","caravans":"yes","email":"szekla@e-gizycko.pl","internet_access":"wlan","internet_access:fee":"no","mobile":"+48 662 547 433","name":"Szekla","phone":"+48 792 603 195; +48 797 421 869","shower":"yes","tents":"yes","toilets":"yes","website":"https://campingszekla.pl/"}},"296460077":{"location":[54.1452912,21.7516994],"ct":"PL","tp":"CS","ts":"2017-08-28T21:27:46Z","tX":573,"tY":328,"tags":{"name":"Park Sonata"}},"426151766":{"location":[54.1135275,21.7761678],"ct":"PL","tp":"CS","ts":"2017-03-07T11:38:22Z","tX":573,"tY":328,"tags":{"name":"Sunny Camp"}},"516767486":{"location":[54.0797506,21.4950182],"ct":"PL","tp":"CS","ts":"2023-11-09T01:05:09Z","tX":573,"tY":328,"tags":{"addr:city":"Gierłoż","addr:postcode":"11-400","addr:street":"Wolfsschanze","capacity":"25","fee":"yes","name":"Camping Wolfsschanze","name:de":"Camping Wolfschanze","website":"https://wilczyszaniec.olsztyn.lasy.gov.pl/nocleg"}},"526999005":{"location":[54.0439107,21.7388933],"ct":"PL","tp":"CR","ts":"2021-09-22T09:33:48Z","tX":573,"tY":328,"tags":{}},"951333748":{"location":[53.9704601,21.7645206],"ct":"PL","tp":"CS","ts":"2022-11-07T22:48:58Z","tX":573,"tY":328,"tags":{"name":"pole biwakowe \"Bogaczewo\"","name:en":"Camping"}},"1000065470":{"location":[54.0636727,21.6716626],"ct":"PL","tp":"CS","ts":"2021-11-07T01:11:23Z","tX":573,"tY":328,"tags":{}},"1024609416":{"location":[54.0155247,21.7414321],"ct":"PL","tp":"CR","ts":"2023-03-08T18:36:03Z","tX":573,"tY":328,"tags":{"internet_access":"no","power_supply":"no","sanitary_dump_station":"no"}},"1201081870":{"location":[54.0879254,21.4606737],"ct":"PL","tp":"CS","ts":"2023-08-22T13:06:31Z","tX":573,"tY":328,"tags":{"access":"yes","fee":"yes","static_caravans":"yes","tents":"yes"}},"2623143570":{"location":[54.034678,21.7600993],"ct":"PL","tp":"CR","ts":"2023-07-24T19:12:06Z","tX":573,"tY":328,"tags":{"addr:city":"Giżycko","addr:postcode":"11-500","addr:street":"Świętego Brunona","cabins":"no","charge":"130","disused:tourism":"camp_site","fee":"yes","image":"https://i.imgur.com/vSwxlXy.jpg","image:0":"https://i.imgur.com/91qyPGL.jpg","image:1":"https://i.imgur.com/I3qy2CH.jpg","image:2":"https://i.imgur.com/xrOFrWf.jpg","internet_access":"yes","internet_access:fee":"no","name":"St. Bruno","permanent_camping":"no","power_supply":"yes","shower":"hot","tents":"no","toilets":"yes"}},"4344436290":{"location":[53.956926,21.738414],"ct":"PL","tp":"CS","ts":"2019-03-26T08:19:21Z","tX":573,"tY":328,"tags":{"addr:housenumber":"54","addr:place":"Bogaczewo","addr:postcode":"11-500","description":"pole namiotowe - przystań","name":"Bila","name:en":"Camping","opening_hours":"24/7","phone":"+48669484211","website":"https://bila.mazury.com/"}},"4996273859":{"location":[54.097109,21.7229668],"ct":"PL","tp":"CS","ts":"2021-02-02T17:32:57Z","tX":573,"tY":328,"tags":{"contact:website":"http://roganty.c0.pl/","fee":"yes","name":"Camping Roganty"}},"5045654322":{"location":[54.1555506,21.7241042],"ct":"PL","tp":"CS","ts":"2017-08-20T04:33:51Z","tX":573,"tY":328,"tags":{}},"6677928685":{"location":[54.120089,21.776513],"ct":"PL","tp":"CS","ts":"2019-08-02T21:45:14Z","tX":573,"tY":328,"tags":{}},"6703345670":{"location":[53.9742373,21.7956493],"ct":"PL","tp":"CS","ts":"2019-08-12T14:28:52Z","tX":573,"tY":328,"tags":{}},"7651429585":{"location":[54.1020626,21.5648615],"ct":"PL","tp":"CS","ts":"2020-06-25T06:41:56Z","tX":573,"tY":328,"tags":{"name":"Pilwa 17 camping"}},"7816719740":{"location":[54.0317448,21.7272831],"ct":"PL","tp":"CS","ts":"2020-08-16T09:11:30Z","tX":573,"tY":328,"tags":{"caravans":"yes","internet_access":"wlan","name":"Port Netta","tents":"yes"}},"4337292729":{"location":[53.9575774,21.7379055],"ct":"PL","tp":"CR","ts":"2023-07-02T11:59:38Z","tX":573,"tY":328,"tags":{"addr:housenumber":"54","addr:place":"Bogaczewo","addr:postcode":"11-500","name":"Bila","opening_hours":"24/7","phone":"+48 669 484 211","website":"https://bila.mazury.com/"}},"4799344724":{"location":[54.1027101,21.7710145],"ct":"PL","tp":"CR","ts":"2017-04-17T17:16:15Z","tX":573,"tY":328,"tags":{}},"5986563185":{"location":[54.1578123,21.657563],"ct":"PL","tp":"CR","ts":"2023-07-02T11:59:38Z","tX":573,"tY":328,"tags":{"addr:postcode":"11-600","name":"Stanica Wodna Kietlice nad Mamrami","name:pl":"Stanica Wodna Kietlice nad Mamrami","phone":"+48 87 427 51 30","website":"http://kietlice.pl"}},"12091476564":{"location":[54.0145384,21.7405556],"ct":"PL","tp":"CR","ts":"2024-08-04T08:02:08Z","tX":573,"tY":328,"tags":{"addr:housenumber":"1b","addr:street":"Olsztyńska","check_date":"2024-08-04","name":"Siedlisko u Tymka - camper plac","power_supply":"yes","reservation":"yes","sanitary_dump_station":"yes","website":"https://www.siedliskoutymka.pl/oferta/camper-plac/"}}}