{"158830625":{"location":[49.4548877,21.5384497],"ct":"PL","tp":"CS","ts":"2016-05-16T19:59:45Z","tX":573,"tY":349,"tags":{"name":"Pole namiotowe Hajstra"}},"285699972":{"location":[49.4147024,21.7355978],"ct":"PL","tp":"CS","ts":"2024-06-22T20:23:48Z","tX":573,"tY":349,"tags":{"name":"Pole namiotowe przy chatce w Zyndranowej","opening_hours":"Jul-Sep","operator":"Studenckie Koło Przewodników Beskidzkich w Rzeszowie","website":"https://www.skpb.rzeszow.pl/bazy/zyndranowa/","wikidata":"Q11687597","wikipedia":"pl:Chatka studencka i baza namiotowa w Zyndranowej"}},"504044022":{"location":[49.4652119,21.731383],"ct":"PL","tp":"CS","ts":"2021-05-31T10:53:50Z","tX":573,"tY":349,"tags":{"addr:place":"Tylawa","fee":"no","internet_access":"no","name":"Miejsce Biwakowania Stasiana"}},"504051247":{"location":[49.4727297,21.713177],"ct":"PL","tp":"CS","ts":"2018-03-01T18:36:17Z","tX":573,"tY":349,"tags":{"fee":"yes","name":"Drymak"}},"527503984":{"location":[49.507323,21.5120413],"ct":"PL","tp":"CS","ts":"2021-06-04T16:07:54Z","tX":573,"tY":349,"tags":{"addr:place":"Krempna","addr:postcode":"38-232","camp_site":"serviced","capacity":"50","caravans":"yes","description":"Miejsce na ognisko z zadaszeniem na ok. 40 osób, WC, woda pitna, prąd, huśtawki, boisko do gry w siatkówkę, nad rzeką Wisłoką, obok duże kąpielisko z plażą, blisko lasu, 1,5 km od zalewu, poza sezonem ogniska dla wycieczek szkolnych, w zimie kuligi.","drinking_water":"yes","email":"szymczykmirek@wp.pl","fee":"yes","landuse":"recreation_ground","name":"Grzybek","openfire":"yes","opening_hours":"Apr 15-Oct 15","operator":"Szymczyk Kazimierz","phone":"+48 13 441 40 36","sanitary_dump_station":"yes","short_name":"Grzybek","stars":"1","tents":"yes"}},"832275691":{"location":[49.4275254,21.7942963],"ct":"PL","tp":"CS","ts":"2020-07-30T15:08:49Z","tX":573,"tY":349,"tags":{"access":"yes","name":"Strażacka Polana","openfire":"yes","operator":"OSP Jaśliska"}},"986690280":{"location":[49.5545238,21.4885444],"ct":"PL","tp":"CS","ts":"2021-09-24T14:45:06Z","tX":573,"tY":349,"tags":{"name":"Ośrodek Jana Pawła II Katolickiego Stowarzyszenia Młodzieży"}}}