{"1009242969":{"location":[47.4487943,21.6893913],"ct":"HU","tp":"CS","ts":"2023-11-16T17:57:24Z","tX":573,"tY":358,"tags":{"addr:postcode":"4002","addr:street":"Vekeri tó","building":"yes","contact:fax":"+36 52 441 119","email":"dorcascenter@debrecen.com","name":"Dorcas Center & Camping","phone":"+36 52 441 119;+36 70 379 6762","source":"turistautak.hu","source:date":"2013-04-21","url":"http://turistautak.hu/poi.php?id=15075","website":"http://www.dorcas.hu"}},"3437027364":{"location":[47.508461,21.637834],"ct":"HU","tp":"CS","ts":"2017-12-25T17:35:24Z","tX":573,"tY":358,"tags":{"addr:city":"Debrecen","addr:housenumber":"2-4","addr:postcode":"4030","addr:street":"Lomnic utca","name":"Kerekes Telepi Kemping","phone":"+36 52 470 745","source":"turistautak.hu","source:date":"2012-07-23","url":"http://turistautak.hu/poi.php?id=17702"}},"9311919928":{"location":[47.4465379,21.6906263],"ct":"HU","tp":"CS","ts":"2021-12-05T09:09:26Z","tX":573,"tY":358,"tags":{"name":"Vekeri Tavi Ifjúsági Tábor és Kemping"}}}