{"127877378":{"location":[44.7610096,21.4750568],"ct":"RS","tp":"CS","ts":"2024-10-18T07:53:04Z","tX":573,"tY":369,"tags":{"int_name":"Srebrno jezero","name":"Сребрно језеро","name:sr":"Сребрно језеро","name:sr-Latn":"Srebrno jezero"}},"4764295921":{"location":[44.7265343,21.5542896],"ct":"RS","tp":"CS","ts":"2024-10-17T07:40:59Z","tX":573,"tY":369,"tags":{"int_name":"Peskovi (streliste)","name":"Пескови (стрелиште)","name:sr":"Пескови (стрелиште)","name:sr-Latn":"Peskovi (strelište)"}},"4987485221":{"location":[44.7181411,21.5353079],"ct":"RS","tp":"CS","ts":"2024-10-17T07:40:59Z","tX":573,"tY":369,"tags":{"int_name":"Peskovi Sas Streliste","name":"Пескови Сас Стрелиште","name:sr":"Пескови Сас Стрелиште","name:sr-Latn":"Peskovi Sas Strelište"}},"11407030382":{"location":[44.7610409,21.4758083],"ct":"RS","tp":"CR","ts":"2024-10-17T07:40:59Z","tX":573,"tY":369,"tags":{"addr:city":"Општина Велико Градиште","addr:postcode":"12220","int_name":"Kamp Srebrno jezero","internet_access":"wlan","internet_access:fee":"customers","name":"Камп Сребрно језеро","power_supply":"yes","sanitary_dump_station":"yes"}},"12598937620":{"location":[44.6769611,21.7127045],"ct":"RO","tp":"CS","ts":"2025-02-18T17:59:51Z","tX":573,"tY":369,"tags":{"access":"private","addr:city":"Sfânta Elena","addr:postcode":"327161","name":"Kemp - Terasa u Hánů","phone":"+40729731460"}}}