{"9863918719":{"location":[36.7427904,43.1103473],"ct":"IQ","tp":"CS","ts":"2022-07-03T13:39:55Z","tX":634,"tY":399,"tags":{"name":"الحديقه النباتية","opening_hours":"24/7"}},"6016571185":{"location":[36.7920455,42.9212059],"ct":"IQ","tp":"CR","ts":"2018-10-26T23:29:38Z","tX":634,"tY":399,"tags":{"name":"دوميز","name:en":"zead ahmad surchey","name:ku":"زياد احمد سورچى"}},"6041311785":{"location":[36.7920631,42.9213853],"ct":"IQ","tp":"CR","ts":"2018-11-06T10:05:17Z","tX":634,"tY":399,"tags":{"name":"زياد"}},"6763962692":{"location":[36.8527288,42.9662174],"ct":"IQ","tp":"CR","ts":"2023-04-07T20:23:09Z","tX":634,"tY":399,"tags":{"addr:city":"دهۆک","addr:street":"Daneil Meteran Road","internet_access":"wlan","name":"عبدالباري اغا","name:en":"Bary agha","name:ku":"Bary agha"}},"6943415685":{"location":[36.8410069,43.0222723],"ct":"IQ","tp":"CR","ts":"2019-11-03T18:03:41Z","tX":634,"tY":399,"tags":{"name":"ليزان","name:en":"Lezan","name:ku":"تاخئ لێزان"}},"8393562717":{"location":[36.6149157,42.9814179],"ct":"IQ","tp":"CR","ts":"2021-02-04T10:31:01Z","tX":634,"tY":399,"tags":{"addr:street":"Duhok-Mosul Road","email":"ew316.saad.moslih@gmail.com","name":"مهندس سعد مصلح","name:en":"Engineer Saad Moslih","opening_hours":"24/7","phone":"07511438251"}},"9152870617":{"location":[36.8681712,42.9323185],"ct":"IQ","tp":"CR","ts":"2021-10-06T18:24:48Z","tX":634,"tY":399,"tags":{"name":"محمد فندو ارتوشي"}},"10219148617":{"location":[36.8516908,43.0777794],"ct":"IQ","tp":"CR","ts":"2022-11-26T06:33:36Z","tX":634,"tY":399,"tags":{"phone":"07518565722"}},"10219249019":{"location":[36.858393,42.9457221],"ct":"IQ","tp":"CR","ts":"2022-11-26T08:13:41Z","tX":634,"tY":399,"tags":{"addr:housenumber":"A2 -Sh16 - T3","addr:postcode":"42001","addr:street":"Roj City","email":"Jvan.duhoki16@gmail.com","internet_access":"wlan","name":"روژ ستى دهوك","name:en":"Roj city duhok","name:ku":"Roj city duhok","phone":"07514102038"}},"10296702709":{"location":[36.6039892,43.1059027],"ct":"IQ","tp":"CR","ts":"2022-12-31T11:56:46Z","tX":634,"tY":399,"tags":{"addr:street":"شارع الضباط","name":"كريم الصباغ"}},"10304575409":{"location":[36.618279,42.9899227],"ct":"IQ","tp":"CR","ts":"2023-01-04T11:37:07Z","tX":634,"tY":399,"tags":{"addr:housenumber":"44","addr:street":"Duhok-Mosul Road","internet_access":"wlan","name":"قرية المنار","name:en":"almnar city"}}}