{"4610143893":{"location":[36.3851342,43.1178155],"ct":"IQ","tp":"CS","ts":"2018-02-24T04:32:40Z","tX":634,"tY":400,"tags":{"name":"المخيم الكشفي","name:ar":"المخيم الكشفي","name:en":"scout area"}},"5039661021":{"location":[36.3587906,43.1840464],"ct":"IQ","tp":"CS","ts":"2022-05-29T12:53:31Z","tX":634,"tY":400,"tags":{"name":"معتز ابو الاقفال","name:ar":"معتز للمفاتيح","name:en":"Key repair shop"}},"5903979589":{"location":[36.4978354,43.0397532],"ct":"IQ","tp":"CS","ts":"2020-04-18T14:33:54Z","tX":634,"tY":400,"tags":{"name":"ارض نادر الزراعي"}},"6564823485":{"location":[36.3235362,43.1789958],"ct":"IQ","tp":"CS","ts":"2019-06-22T16:32:08Z","tX":634,"tY":400,"tags":{"name":"المزارع الاولى"}},"7043862485":{"location":[36.4273168,43.0927854],"ct":"IQ","tp":"CS","ts":"2019-12-09T12:27:28Z","tX":634,"tY":400,"tags":{"name":"ارض ملائين اولى"}},"7044011485":{"location":[36.426446,43.0905876],"ct":"IQ","tp":"CS","ts":"2019-12-09T13:27:58Z","tX":634,"tY":400,"tags":{"name":"قطعة الجبلة"}},"8165121518":{"location":[36.4373408,43.0981626],"ct":"IQ","tp":"CS","ts":"2020-11-25T16:32:24Z","tX":634,"tY":400,"tags":{"name":"اسامه ابو زيد"}},"9818041017":{"location":[36.3576625,43.1475322],"ct":"IQ","tp":"CS","ts":"2022-06-14T20:19:11Z","tX":634,"tY":400,"tags":{"name":"حي الزراعي تقع وسط الموصل","name:ar":"حي الزراعي تقع وسط مدينة الموصل هي الاولى من الأحياء الموصل","name:en":"The agricultural neighborhood is located in the center of the city of Mosul. It is the first of the neighborhoods of Mosul","name:ku":"The agricultural neighborhood is located in the center of the city of Mosul. It is the first of the neighborhoods of Mosul"}},"9818051817":{"location":[36.3628026,43.1434037],"ct":"IQ","tp":"CS","ts":"2022-06-14T20:22:50Z","tX":634,"tY":400,"tags":{"name":"The Mohandessin neighborhood is the second of the Mosul neighborhoods","name:ar":"حي المهندسين هي الثانية من الاحياء الموصل"}},"9818057117":{"location":[36.3702325,43.1440912],"ct":"IQ","tp":"CS","ts":"2022-06-14T20:26:09Z","tX":634,"tY":400,"tags":{"name":"حي النركال هي الثالثة من الاحياء الموصل","name:en":"Al-Narkal neighborhood is the third of the Mosul neighborhoods","name:ku":"Al-Narkal neighborhood is the third of the Mosul neighborhoods"}},"9818077817":{"location":[36.3784058,43.1286951],"ct":"IQ","tp":"CS","ts":"2022-06-14T20:37:17Z","tX":634,"tY":400,"tags":{"name":"حي الأندلس هي الرابعة من الاحياء الموصل","name:en":"Al-Andalus neighborhood is the fourth of the Mosul neighborhoods","name:ku":"Al-Andalus neighborhood is the fourth of the Mosul neighborhoods"}},"9818081317":{"location":[36.3723301,43.1712483],"ct":"IQ","tp":"CS","ts":"2022-06-14T20:40:00Z","tX":634,"tY":400,"tags":{"name":"حي المثنى هي الخامس من الاحياء الموصل","name:en":"Al-Muthanna district is the fifth of the Mosul neighborhoods","name:ku":"Al-Muthanna district is the fifth of the Mosul neighborhoods"}},"9818092917":{"location":[36.3661777,43.1826045],"ct":"IQ","tp":"CS","ts":"2022-06-14T20:46:29Z","tX":634,"tY":400,"tags":{"name":"حي النور هي السادس من الاحياء الموصل","name:en":"Al-Noor neighborhood is the sixth of the Mosul neighborhoods","name:ku":"Al-Noor neighborhood is the sixth of the Mosul neighborhoods"}},"9818144117":{"location":[36.3895615,43.1488339],"ct":"IQ","tp":"CS","ts":"2022-06-14T20:52:33Z","tX":634,"tY":400,"tags":{"name":"حي الحدباء و حي الصديق هي السابعة من الاحياء الموصل","name:en":"Al-Hadba neighborhood and Al-Siddiq neighborhood are the seventh neighborhoods of Mosul","name:ku":"Al-Hadba neighborhood and Al-Siddiq neighborhood are the seventh neighborhoods of Mosul"}},"9818149517":{"location":[36.3324696,43.1714561],"ct":"IQ","tp":"CS","ts":"2022-06-14T20:56:26Z","tX":634,"tY":400,"tags":{"name":"حي الأطباء هي الثامنة من الاحياء الموصل","name:en":"Al-Dibaab neighborhood is the eighth of the Mosul neighborhoods","name:ku":"Al-Dibaab neighborhood is the eighth of the Mosul neighborhoods"}},"9818154817":{"location":[36.3276081,43.175777],"ct":"IQ","tp":"CS","ts":"2022-06-14T21:00:55Z","tX":634,"tY":400,"tags":{"name":"حي المزارع هي التاسعة من الاحياء الموصل","name:en":"Al-Mazare’ neighborhood is the ninth of the Mosul neighborhoods","name:ku":"Al-Mazare’ neighborhood is the ninth of the Mosul neighborhoods"}},"9818168717":{"location":[36.3409539,43.1570942],"ct":"IQ","tp":"CS","ts":"2022-06-14T21:07:02Z","tX":634,"tY":400,"tags":{"name":"حي المالية و حي الضباط هي العاشرة من الاحياء الموصل","name:en":"The financial district and the officer district are the tenth neighborhoods of Mosul","name:ku":"The financial district and the officer district are the tenth neighborhoods of Mosul"}},"4945350532":{"location":[36.3608863,43.1857729],"ct":"IQ","tp":"CR","ts":"2017-07-01T09:41:29Z","tX":634,"tY":400,"tags":{}},"5003661322":{"location":[36.5951724,43.1067234],"ct":"IQ","tp":"CR","ts":"2017-07-30T19:00:19Z","tX":634,"tY":400,"tags":{"name":"ابراهيم قاقوس","name:ar":"ابراهيم قاقوس","name:en":"Ibrahim Kakos"}},"5344430423":{"location":[36.4001939,43.1522049],"ct":"IQ","tp":"CR","ts":"2018-01-17T08:31:46Z","tX":634,"tY":400,"tags":{"name":"مولدة كهرباء","name:en":"Generator"}},"5692928021":{"location":[36.3677017,43.1385489],"ct":"IQ","tp":"CR","ts":"2018-06-15T13:08:23Z","tX":634,"tY":400,"tags":{"addr:housenumber":"8","addr:postcode":"763556","addr:street":"مقابل جامع وجيه الصيدلي","email":"mmss0770m@gmail.com","name":"مكتب المدينة للطباعة والاستنساخ","name:en":"ALMADEENA FOR NET","opening_hours":"24/7","operator":"مكتب المدينة للطباعه والاستنساخ","phone":"07701763556","website":"https://www.facebook.com/profile.php?id=100011271373329"}},"5777210353":{"location":[36.3659451,43.1909849],"ct":"IQ","tp":"CR","ts":"2018-07-22T15:18:11Z","tX":634,"tY":400,"tags":{"name":"مولدة الأقصى"}},"6647616085":{"location":[36.317522,43.1236612],"ct":"IQ","tp":"CR","ts":"2019-07-25T18:09:43Z","tX":634,"tY":400,"tags":{"name":"استاذ عامر"}},"6918234887":{"location":[36.4092025,43.1135711],"ct":"IQ","tp":"CR","ts":"2019-10-26T12:12:53Z","tX":634,"tY":400,"tags":{"name":"برج دجلة1-الرئيسي"}},"6982050803":{"location":[36.4425139,42.9555014],"ct":"IQ","tp":"CR","ts":"2019-11-16T06:32:19Z","tX":634,"tY":400,"tags":{"name":"مخيم سكني"}},"7867871185":{"location":[36.4205756,43.1104939],"ct":"IQ","tp":"CR","ts":"2020-09-02T10:03:17Z","tX":634,"tY":400,"tags":{"name":"بيع"}},"8789993117":{"location":[36.4295871,43.1610915],"ct":"IQ","tp":"CR","ts":"2021-06-01T17:47:19Z","tX":634,"tY":400,"tags":{"addr:street":"Qaryat Bawizah","name":"ريان فارس"}},"8809450817":{"location":[36.4419227,43.1191638],"ct":"IQ","tp":"CR","ts":"2021-06-06T17:47:15Z","tX":634,"tY":400,"tags":{"name":"٢٥٨١ منطقة","name:en":"2581 zone"}},"8851231217":{"location":[36.3895865,43.2212772],"ct":"IQ","tp":"CR","ts":"2021-06-20T19:31:58Z","tX":634,"tY":400,"tags":{"name":"نشوان","natural":"hot_spring"}},"9873507917":{"location":[36.357187,43.0908004],"ct":"IQ","tp":"CR","ts":"2022-07-08T02:12:35Z","tX":634,"tY":400,"tags":{}},"9894999717":{"location":[36.3717313,43.0821955],"ct":"IQ","tp":"CR","ts":"2022-07-18T10:49:17Z","tX":634,"tY":400,"tags":{}},"10222673717":{"location":[36.3445397,43.1077913],"ct":"IQ","tp":"CR","ts":"2022-11-28T01:22:28Z","tX":634,"tY":400,"tags":{"addr:street":"حبيبتي","internet_access":"wlan","name":"العربية","name:ar":"سجاد R","phone":"07735718501"}},"10248526509":{"location":[36.3948066,43.1611228],"ct":"IQ","tp":"CR","ts":"2022-12-09T09:52:45Z","tX":634,"tY":400,"tags":{"name":"مزارع زيونة"}},"10250483409":{"location":[36.3583394,43.1933716],"ct":"IQ","tp":"CR","ts":"2022-12-10T10:35:25Z","tX":634,"tY":400,"tags":{}},"11099776305":{"location":[36.4019908,43.0693706],"ct":"IQ","tp":"CR","ts":"2023-08-08T16:54:49Z","tX":634,"tY":400,"tags":{"addr:street":"شارع العام","name":"شريخان"}},"11118821205":{"location":[36.3643492,43.2010479],"ct":"IQ","tp":"CR","ts":"2023-08-16T11:22:01Z","tX":634,"tY":400,"tags":{"addr:street":"حي البكر"}},"11379389071":{"location":[36.3622536,43.1439286],"ct":"IQ","tp":"CR","ts":"2023-11-27T11:08:16Z","tX":634,"tY":400,"tags":{"name":"خالد ابو احمد"}},"11383186169":{"location":[36.3977992,43.1629519],"ct":"IQ","tp":"CR","ts":"2023-11-29T07:21:43Z","tX":634,"tY":400,"tags":{}},"11591714569":{"location":[36.3753199,43.1650199],"ct":"IQ","tp":"CR","ts":"2024-02-06T13:45:56Z","tX":634,"tY":400,"tags":{"internet_access":"wlan","name":"حيدر صالح الافندي"}},"11652330669":{"location":[36.4340671,43.1215133],"ct":"IQ","tp":"CR","ts":"2024-02-22T09:12:53Z","tX":634,"tY":400,"tags":{"addr:housenumber":"276","internet_access":"wlan","name:en":"abutariq"}},"12453656601":{"location":[36.4042591,43.1426189],"ct":"IQ","tp":"CR","ts":"2024-12-26T20:00:49Z","tX":634,"tY":400,"tags":{"name":"معتز الحيالي"}},"12480950201":{"location":[36.386024,43.1559729],"ct":"IQ","tp":"CR","ts":"2025-01-07T18:01:21Z","tX":634,"tY":400,"tags":{"name":"بسام عزام","name:en":"Bassam Azzam"}}}