{"651607414":{"location":[11.7726071,42.9340859],"ct":"DJ","tp":"CS","ts":"2020-06-11T09:45:34Z","tX":634,"tY":478,"tags":{"addr:city":"Rayssali","description":"Le seul camp à Djibouti où l'on peut manger une salade de poulpe !!\nCamp de plein-air composé d'abris très bien tenu par sa propriétaire","name":"Chez Fato","operator":"Fato","phone":"77 81 50 87"}},"810612048":{"location":[11.7728319,42.9356721],"ct":"DJ","tp":"CS","ts":"2020-06-11T09:45:34Z","tX":634,"tY":478,"tags":{"addr:city":"Rayssali","name":"Chez Hassan"}},"5794765253":{"location":[11.6030957,43.1526172],"ct":"DJ","tp":"CR","ts":"2023-06-13T09:09:04Z","tX":634,"tY":478,"tags":{"name":"طاهر سعيد سيف","name:ar":"طاهر سعيد سيف","name:fr":"Taher Saïd Seif"}},"5808941555":{"location":[11.5895159,43.1457128],"ct":"DJ","tp":"CR","ts":"2020-11-07T20:47:01Z","tX":634,"tY":478,"tags":{"addr:street":"Rue de Bender شارع بندر","name":"بيت عبدالكريم المريري","name:ar":"بيت عبدالكريم المريري","opening_hours":"Sa-Th 08:00-22:30"}},"8641882217":{"location":[11.5609436,43.0737803],"ct":"DJ","tp":"CR","ts":"2023-10-30T23:13:26Z","tX":634,"tY":478,"tags":{"name":"Maison Mahomet Hossein Haidar","name:ar":"منزل محمد حسين حيدر","name:fr":"Maison Mahomet Hossein Haidar"}},"9181477517":{"location":[11.590789,43.1485947],"ct":"DJ","tp":"CR","ts":"2021-10-18T23:44:31Z","tX":634,"tY":478,"tags":{"name":"بيت العمال"}},"9194538017":{"location":[11.5900421,43.1505096],"ct":"DJ","tp":"CR","ts":"2021-10-22T21:30:30Z","tX":634,"tY":478,"tags":{"addr:street":"Avenue 11 / جادة 11","name":"بيت العمال الحجر"}},"9217204317":{"location":[11.5904093,43.1450435],"ct":"DJ","tp":"CR","ts":"2021-11-01T22:18:18Z","tX":634,"tY":478,"tags":{"addr:street":"شارع جنييف","name":"حارث خالد"}}}