{"479352585":{"location":[64.0608603,-145.7352402],"ct":"US","tp":"CR","ts":"2020-06-12T10:54:42Z","tX":97,"tY":272,"tags":{"addr:city":"Delta Junction","addr:housenumber":"2296","addr:postcode":"99737","addr:state":"AK","addr:street":"Richardson Highway","name":"Camp Ground"}},"479375511":{"location":[64.065516,-145.7404474],"ct":"US","tp":"CR","ts":"2017-06-29T08:05:54Z","tX":97,"tY":272,"tags":{"addr:housenumber":"2434","addr:street":"Richardson Highway","name":"Green Acres Park & Campground"}},"503934294":{"location":[64.0314362,-145.6994176],"ct":"US","tp":"CR","ts":"2021-08-10T15:10:56Z","tX":97,"tY":272,"tags":{"addr:city":"Delta Junction","addr:country":"US","addr:street":"Alaska Highway","name":"Snowed Inn RV Park","note":"Previous mapper had Rercreational Vehicle spelled out but the sign says RV Park","permanent_camping":"yes","shower":"yes","source:name":"sign"}},"884953080":{"location":[64.0531274,-145.7334334],"ct":"US","tp":"CS","ts":"2020-12-15T01:36:59Z","tX":97,"tY":272,"tags":{"caravans":"yes","drinking_water":"no","sanitary_dump_station":"no","tents":"yes"}},"7610338483":{"location":[64.1543361,-145.8413177],"ct":"US","tp":"CS","ts":"2020-06-10T21:00:31Z","tX":97,"tY":272,"tags":{"capacity":"25","charge":"$20","fee":"yes","name":"Big Delta State Historical Park","reservation":"no"}},"7610483271":{"location":[64.0550106,-145.7343926],"ct":"US","tp":"CS","ts":"2020-06-10T22:23:06Z","tX":97,"tY":272,"tags":{"capacity":"24","charge":"15","fee":"yes","name":"Delta State Recreation Site"}}}