{"127691686":{"location":[36.5448484,-118.0460145],"ct":"US","tp":"CR","ts":"2023-11-18T14:15:30Z","tX":176,"tY":400,"tags":{"addr:city":"Lone Pine","addr:country":"US","addr:housenumber":"2550","addr:postcode":"93545","addr:state":"CA","addr:street":"South Highway 395","email":"bouldercreekrv@yahoo.com","fax":"+1 (760) 876 5253","fee":"yes","internet_access":"wlan","internet_access:fee":"no","name":"Boulder Creek RV Resort","phone":"(760) 876-4243; (800) 648-8965","power_supply":"yes","tents":"yes","toilets":"yes","website":"https://www.bouldercreekrvresort.com/"}},"152010880":{"location":[36.5623528,-118.0574473],"ct":"US","tp":"CS","ts":"2023-01-12T16:40:12Z","tX":176,"tY":400,"tags":{"access":"yes","caravans":"yes","charge":"14 USD","dog":"leashed","fee":"yes","internet_access":"no","name":"Diaz Lake Campground","operator":"Inyo County","payment:cash":"yes","payment:credit_cards":"yes","reservation":"yes","shower":"no","tents":"yes","toilets":"yes"}},"9099572405":{"location":[36.567042,-118.123374],"ct":"US","tp":"SD","ts":"2021-09-17T03:33:48Z","tX":176,"tY":400,"tags":{"access":"customers","charge":"5 USD","fee":"yes","operator":"BLM","payment:cash":"yes","water_point":"yes"}}}