{"15360388":{"location":[44.0654962,-103.5031451],"ct":"US","tp":"CS","ts":"2024-08-11T10:57:07Z","tX":217,"tY":372,"tags":{"addr:city":"Rapid City","addr:state":"SD","charge":"26 USD","drinking_water":"seasonal","fee":"yes","name":"Pactola Campground","operator":"USFS","toilets":"vault"}},"15360389":{"location":[43.9687713,-103.4734667],"ct":"US","tp":"CS","ts":"2024-08-11T10:57:07Z","tX":217,"tY":372,"tags":{"addr:city":"Hill City","addr:state":"SD","capacity":"129","charge":"26 USD","drinking_water":"seasonal","fee":"yes","name":"Sheridan Lake South Shore Campground","toilets":"vault"}},"15360390":{"location":[43.9244492,-103.5783607],"ct":"US","tp":"CR","ts":"2024-10-03T01:22:39Z","tX":217,"tY":372,"tags":{"addr:city":"Hill City","addr:housenumber":"24024","addr:state":"SD","addr:street":"Main Street","name":"Black Hills Trailside Park Resort","phone":"605-574-9079"}},"16778881":{"location":[43.8711511,-103.5850301],"ct":"US","tp":"CS","ts":"2023-12-02T19:13:17Z","tX":217,"tY":372,"tags":{"name":"Horse Thief Campground & Resort"}},"16778885":{"location":[43.9048904,-103.5351609],"ct":"US","tp":"CR","ts":"2023-12-02T19:21:54Z","tX":217,"tY":372,"tags":{"brand":"KOA","brand:wikidata":"Q16988635","name":"Mount Rushmore KOA Resort at Palmer Gulch Resort","short_name":"KOA"}},"505704896":{"location":[43.8958552,-103.5381309],"ct":"US","tp":"CS","ts":"2017-07-07T01:20:09Z","tX":217,"tY":372,"tags":{"name":"Willow Creek Horse Camp"}},"821999369":{"location":[43.9030263,-103.5928163],"ct":"US","tp":"CS","ts":"2020-07-02T01:33:34Z","tX":217,"tY":372,"tags":{"name":"Creekside Mountain Resort"}},"928731813":{"location":[43.9523246,-103.5137737],"ct":"US","tp":"CS","ts":"2021-04-10T03:10:45Z","tX":217,"tY":372,"tags":{"addr:city":"Hill City","addr:housenumber":"23821","addr:postcode":"57745","addr:state":"SD","addr:street":"Highway 385","name":"Three Forks Campground","owner":"Jesse Dejong","phone":"605-574-4546","website":"https://www.threeforkscampgroundsd.com/"}},"1134933890":{"location":[43.8779528,-103.6111703],"ct":"US","tp":"CS","ts":"2024-09-24T16:43:09Z","tX":217,"tY":372,"tags":{"addr:city":"Hill CXity","addr:state":"SD","capacity":"24","caravans":"yes","charge":"20 USD","fee":"yes","name":"Oreville Campground","operator":"USFS","reservation":"yes","tents":"yes","toilets":"vault"}},"1134933899":{"location":[43.8395934,-103.5565963],"ct":"US","tp":"CS","ts":"2023-01-24T18:16:42Z","tX":217,"tY":372,"tags":{"fee":"yes","fee:amount":"$21 per site, $25 per electric site","name":"Sylvan Lake Campground","opening_hours":"May 27-Sep 30 00:00-24:00","operator":"Custer State Park","phone:booking":"+1-800-710-2267","website":"https://www.gfp.sd.gov/state-parks/directory/custer/campgrounds/sylvan-lake/"}},"1134933908":{"location":[43.8955584,-103.483962],"ct":"US","tp":"CS","ts":"2024-09-24T16:43:09Z","tX":217,"tY":372,"tags":{"addr:city":"Keystone","addr:state":"SD","capacity":"36","caravans":"yes","charge":"26 USD","fee":"yes","name":"Horse Thief Lake Campground","operator":"USFS","reservation":"yes","seasonal":"spring/summer","tents":"yes"}},"3012506320":{"location":[43.8353098,-103.3772411],"ct":"US","tp":"CS","ts":"2024-07-22T17:58:10Z","tX":217,"tY":372,"tags":{"addr:country":"US","addr:housenumber":"24631","addr:postcode":"57751","addr:state":"SD","addr:street":"Iron Mountain Road","charge":"$25-$45","fee":"yes","name":"Spokane Creek Cabins & Campground","website":"https://www.spokanecreek.com/"}},"5894006486":{"location":[43.8914234,-103.5928042],"ct":"US","tp":"CS","ts":"2018-09-09T07:43:04Z","tX":217,"tY":372,"tags":{"addr:housenumber":"12325","addr:street":"Rafter J-Bar Road","name":"Rafter J Bar Ranch"}},"7636925880":{"location":[43.8766299,-103.4401686],"ct":"US","tp":"CS","ts":"2024-09-24T16:43:09Z","tX":217,"tY":372,"tags":{"addr:city":"Keystone","addr:state":"SD","capacity":"20","caravans":"yes","charge":"20 USD","drinking_water":"yes","fee":"yes","name":"Grizzly Creek - USFS","operator":"USFS","reservation":"yes","tents":"yes","toilets":"vault"}},"7636925881":{"location":[43.8877244,-103.4694548],"ct":"US","tp":"CS","ts":"2020-06-20T00:45:37Z","tX":217,"tY":372,"tags":{"addr:city":"Keystone","addr:state":"SD","backcountry":"yes","drinking_water":"yes","fee":"no","toilets":"vault"}}}