{"341814506":{"location":[43.0880289,40.7014191],"ct":"GE","tp":"CS","ts":"2015-04-30T15:09:30Z","tX":627,"tY":375,"tags":{}},"726533711":{"location":[43.1432474,40.5779669],"ct":"GE","tp":"CS","ts":"2019-09-19T19:29:51Z","tX":627,"tY":375,"tags":{}},"726533713":{"location":[43.1432345,40.5819782],"ct":"GE","tp":"CS","ts":"2019-09-19T19:29:51Z","tX":627,"tY":375,"tags":{}},"726533719":{"location":[43.1463078,40.5868921],"ct":"GE","tp":"CS","ts":"2019-09-19T19:29:51Z","tX":627,"tY":375,"tags":{}},"1105029434":{"location":[43.1109805,40.5588656],"ct":"GE","tp":"CS","ts":"2022-10-18T18:36:02Z","tX":627,"tY":375,"tags":{"name":"Ася"}},"4273397591":{"location":[43.0878867,40.7001253],"ct":"GE","tp":"CS","ts":"2017-08-05T06:26:18Z","tX":627,"tY":375,"tags":{"name":"Кемпинг","name:ru":"Кемпинг и море"}},"4575479189":{"location":[43.2350464,40.4966677],"ct":"GE","tp":"CS","ts":"2016-12-27T16:12:54Z","tX":627,"tY":375,"tags":{"name":"Форелевое хозяйство","name:ru":"Форелевое хозяйство"}},"9872758620":{"location":[43.1439406,40.4885648],"ct":"GE","tp":"CS","ts":"2022-07-07T16:49:20Z","tX":627,"tY":375,"tags":{"contact:instagram":"cucumba","name":"А - Кукумба","name:en":"A-Cucumba","opening_hours":"24/7"}},"12067431477":{"location":[43.1431172,40.4889333],"ct":"GE","tp":"CS","ts":"2024-07-22T04:42:12Z","tX":627,"tY":375,"tags":{"name":"Vantastic"}},"4315672790":{"location":[43.15265,40.4615602],"ct":"GE","tp":"CR","ts":"2023-10-20T18:57:33Z","tX":627,"tY":375,"tags":{"internet_access":"wlan","name":"Палаточный лагерь ЗОЖ-кемпинг","name:en":"Fitness Camp","opening_hours":"24/7","operator":"Клуб фитнес-путешественников","phone":"+7 940 7740718","website":"https://fitsochi.ru/"}},"5023490621":{"location":[43.1433792,40.4888804],"ct":"GE","tp":"CR","ts":"2022-07-26T20:52:04Z","tX":627,"tY":375,"tags":{"name":"Кемпинг","name:ru":"Кемпинг"}},"10313290109":{"location":[43.2300421,40.4944152],"ct":"GE","tp":"CR","ts":"2023-01-07T17:19:30Z","tX":627,"tY":375,"tags":{"name":"Мчишта Форелевое Хозяйство"}},"11203196738":{"location":[43.0865224,40.7766248],"ct":"GE","tp":"CR","ts":"2023-09-19T17:36:18Z","tX":627,"tY":375,"tags":{"internet_access":"wlan","phone":"+79407371212"}}}