{"965101365":{"location":[35.6418227,50.9583153],"ct":"IR","tp":"CS","ts":"2024-03-02T13:15:29Z","tX":656,"tY":403,"tags":{"access":"private","addr:city":"لم آباد","addr:place":"لم آباد","capacity:persons":"40","caravans":"yes","fee":"yes","group_only":"yes","name":"کمپ ترک اعتیاد کلبه سبز رهایی ملارد","operator":"09196222342","phone":"+989196222342","tents":"yes"}},"4540009990":{"location":[35.4749966,50.964174],"ct":"IR","tp":"CS","ts":"2016-12-05T17:51:56Z","tX":656,"tY":403,"tags":{"name:en":"mom's house"}},"6426491886":{"location":[35.6923306,50.858957],"ct":"IR","tp":"CS","ts":"2019-04-24T18:32:18Z","tX":656,"tY":403,"tags":{"name":"میدان شیرخانلو"}},"8570513710":{"location":[35.6278765,50.9185139],"ct":"IR","tp":"CS","ts":"2024-02-28T08:56:30Z","tX":656,"tY":403,"tags":{"group_only":"yes"}},"9233674210":{"location":[35.4893433,50.9632374],"ct":"IR","tp":"CS","ts":"2021-11-07T19:22:03Z","tX":656,"tY":403,"tags":{"addr:city":"پرند","addr:street":"بلوار انقلاب اسلامی","image":"https://bayanbox.ir/download/1172154027030194941/ALI8621.jpg","internet_access":"no","name":"کوی کبک","openfire":"yes","sanitary_dump_station":"yes"}}}