{"470919872":{"location":[32.7499702,50.6450372],"ct":"IR","tp":"CS","ts":"2019-01-27T16:48:17Z","tX":656,"tY":413,"tags":{}},"5022468723":{"location":[32.6778117,50.8174589],"ct":"IR","tp":"CS","ts":"2022-05-23T03:16:25Z","tX":656,"tY":413,"tags":{"name":"کمپ ارکیده","phone":"+989103128500","website":"https://telegram.me/orkidcamp"}},"5834904186":{"location":[32.6779654,50.8171007],"ct":"IR","tp":"CS","ts":"2023-03-28T03:33:33Z","tX":656,"tY":413,"tags":{"name":"کمپ ارکیده","name:en":"Orkid camping","opening_hours":"24/7","phone":"+98 913 381 3824","website":"https://telegram.me/orkidcamp"}},"7313769321":{"location":[32.7524119,50.6617518],"ct":"IR","tp":"CS","ts":"2020-03-20T20:38:46Z","tX":656,"tY":413,"tags":{"name:en":"mahmod"}},"7313769322":{"location":[32.7526653,50.6614505],"ct":"IR","tp":"CS","ts":"2020-03-20T20:38:47Z","tX":656,"tY":413,"tags":{"name:en":"mahmod 1"}},"7313774292":{"location":[32.7526834,50.6615871],"ct":"IR","tp":"CS","ts":"2020-03-20T20:38:46Z","tX":656,"tY":413,"tags":{"name:en":"chadgan"}},"7313915086":{"location":[32.8085342,50.928581],"ct":"IR","tp":"CS","ts":"2020-03-20T21:50:23Z","tX":656,"tY":413,"tags":{"name:en":"nagiha"}},"7622679685":{"location":[32.5735063,50.6386887],"ct":"IR","tp":"CR","ts":"2020-06-15T11:32:23Z","tX":656,"tY":413,"tags":{}}}