{"4350733290":{"location":[47.8956069,117.8380478],"ct":"MN","tp":"CS","ts":"2016-08-15T08:34:18Z","tX":847,"tY":356,"tags":{}},"4452690184":{"location":[47.8092683,117.8821377],"ct":"MN","tp":"CS","ts":"2022-05-14T17:51:26Z","tX":847,"tY":356,"tags":{"email":"buirlake@gmail.com","name":"Buir lake tourist camp","name:en":"Buir lake complex resort","name:mn":"Буйр Лэйк Комплекс Резорт","operator":"Altai Group","phone":"77051515","website":"https://www.altaitravel.mn/"}},"9878295417":{"location":[47.8768734,117.8850536],"ct":"MN","tp":"CS","ts":"2022-07-10T04:33:38Z","tX":847,"tY":356,"tags":{}},"9878295517":{"location":[47.8835499,117.8810473],"ct":"MN","tp":"CS","ts":"2022-07-10T04:33:38Z","tX":847,"tY":356,"tags":{"name":"Шилэн хийц амралт","name:en":"Shilen Khiits camping"}},"9878297917":{"location":[47.8639392,117.8897795],"ct":"MN","tp":"CS","ts":"2022-07-10T04:36:58Z","tX":847,"tY":356,"tags":{"name":"Буйрын Толио","name:en":"Buiriin Tolio","phone":"88010077"}},"9878297918":{"location":[47.8764319,117.8850342],"ct":"MN","tp":"CS","ts":"2022-07-10T04:36:59Z","tX":847,"tY":356,"tags":{"name":"Буйр Гэр Бүлийн Амралт","name:en":"Buir Family Resort"}},"9878313717":{"location":[47.8894731,117.8798955],"ct":"MN","tp":"CS","ts":"2022-07-10T04:47:35Z","tX":847,"tY":356,"tags":{"name":"Тэмүгэ Амралт","name:en":"Temuge Camp","phone":"99047997"}},"10011193217":{"location":[47.7853008,117.8373498],"ct":"MN","tp":"CS","ts":"2022-09-09T11:45:51Z","tX":847,"tY":356,"tags":{}}}