{"10038953817":{"location":[-8.2002979,117.8747259],"ct":"ID","tp":"CS","ts":"2022-09-20T09:21:58Z","tX":847,"tY":535,"tags":{"name:en":"Pos 1, 1088m"}},"10038953818":{"location":[-8.2375643,117.9492062],"ct":"ID","tp":"CS","ts":"2022-09-20T09:22:10Z","tX":847,"tY":535,"tags":{"name:en":"Pos Makam, 2300m"}},"10038953917":{"location":[-8.2097275,117.9013237],"ct":"ID","tp":"CS","ts":"2022-09-20T09:22:02Z","tX":847,"tY":535,"tags":{"name:en":"Pos 2, 1300m"}},"10038954017":{"location":[-8.2210913,117.92492],"ct":"ID","tp":"CS","ts":"2022-09-20T09:22:03Z","tX":847,"tY":535,"tags":{"name:en":"Pos 3, 1600m"}},"10038954018":{"location":[-8.2304442,117.9427487],"ct":"ID","tp":"CS","ts":"2022-09-20T09:22:09Z","tX":847,"tY":535,"tags":{"name:en":"Pos 5, 2065m"}},"10038954217":{"location":[-8.2282338,117.9331805],"ct":"ID","tp":"CS","ts":"2022-09-20T09:22:07Z","tX":847,"tY":535,"tags":{"name:en":"Pos 4, 1900m"}},"10038993417":{"location":[-8.2081031,117.8900804],"ct":"ID","tp":"CS","ts":"2022-09-20T09:41:38Z","tX":847,"tY":535,"tags":{"name:en":"Pos Rau, 1234m"}}}