{"127524161":{"location":[-35.0114473,117.8735668],"ct":"AU","tp":"CR","ts":"2014-12-09T08:36:05Z","tX":847,"tY":618,"tags":{"addr:city":"Albany","addr:country":"AU","addr:housenumber":"22","addr:state":"WA","addr:street":"Wellington Street","name":"Albany Gardens Holiday Resort"}},"172367241":{"location":[-35.0206558,117.9160357],"ct":"AU","tp":"CR","ts":"2016-07-30T09:29:10Z","tX":847,"tY":618,"tags":{"name":"Middleton Beach Caravan Park"}},"250488097":{"location":[-34.9987031,117.942626],"ct":"AU","tp":"CR","ts":"2023-03-17T13:39:40Z","tX":847,"tY":618,"tags":{"addr:housenumber":"45","addr:postcode":"6330","addr:state":"WA","addr:street":"Mermaid Avenue","addr:suburb":"Emu Point","name":"Rose Gardens Caravan Park"}},"250488121":{"location":[-35.0002482,117.9393632],"ct":"AU","tp":"CR","ts":"2023-03-17T13:39:40Z","tX":847,"tY":618,"tags":{}},"315156703":{"location":[-34.9353594,117.9016917],"ct":"AU","tp":"CS","ts":"2014-11-30T14:58:47Z","tX":847,"tY":618,"tags":{"name":"Happy Days"}},"1008033340":{"location":[-34.9418985,117.9062817],"ct":"AU","tp":"CS","ts":"2021-12-01T08:57:39Z","tX":847,"tY":618,"tags":{"area":"yes","name":"Seal"}},"1008033341":{"location":[-34.9420997,117.9060875],"ct":"AU","tp":"CS","ts":"2021-12-01T08:57:39Z","tX":847,"tY":618,"tags":{"area":"yes","name":"Green"}},"1008033342":{"location":[-34.9416381,117.906509],"ct":"AU","tp":"CS","ts":"2021-12-01T08:57:39Z","tX":847,"tY":618,"tags":{"area":"yes","name":"Mozzie Central"}},"1008033343":{"location":[-34.9416046,117.9061987],"ct":"AU","tp":"CS","ts":"2021-12-01T08:57:39Z","tX":847,"tY":618,"tags":{"area":"yes","name":"Crusoe"}},"1008033344":{"location":[-34.9413766,117.906047],"ct":"AU","tp":"CS","ts":"2021-12-02T01:34:46Z","tX":847,"tY":618,"tags":{"area":"yes","name":"Seagull"}},"1008035675":{"location":[-34.9408917,117.9054687],"ct":"AU","tp":"CS","ts":"2021-12-01T09:08:02Z","tX":847,"tY":618,"tags":{"area":"yes","name":"Saddle"}},"1008247096":{"location":[-34.9411396,117.9057809],"ct":"AU","tp":"CS","ts":"2021-12-02T01:47:53Z","tX":847,"tY":618,"tags":{"area":"yes"}},"1155435361":{"location":[-34.9416459,117.9761829],"ct":"AU","tp":"CR","ts":"2024-06-08T15:05:17Z","tX":847,"tY":618,"tags":{"name":"Kalgan River Caravan Park & Chalets"}},"1288890725":{"location":[-34.9385057,117.9030589],"ct":"AU","tp":"CS","ts":"2024-06-08T02:55:26Z","tX":847,"tY":618,"tags":{"addr:housenumber":"795","addr:postcode":"6330","addr:state":"WA","addr:street":"Chester Pass Road","addr:suburb":"Willyung","caravans":"yes","dog":"yes","email":"krpcpark@gmail.com","name":"King River Palms Caravan Park","phone":"+61 8 9844 3232","shower":"yes","static_caravans":"yes","tents":"yes"}},"1432727734":{"location":[-34.9358052,117.9025703],"ct":"AU","tp":"CR","ts":"2011-09-14T15:04:52Z","tX":847,"tY":618,"tags":{"name":"Happy Days"}},"1432727735":{"location":[-34.9393174,117.9024042],"ct":"AU","tp":"CR","ts":"2024-06-02T11:49:53Z","tX":847,"tY":618,"tags":{"name":"King River Palms"}},"1678504098":{"location":[-35.0113827,117.8736394],"ct":"AU","tp":"CR","ts":"2012-03-17T18:01:17Z","tX":847,"tY":618,"tags":{}},"1681124715":{"location":[-34.9974418,117.9422963],"ct":"AU","tp":"CR","ts":"2012-03-19T05:24:43Z","tX":847,"tY":618,"tags":{}},"1811180950":{"location":[-34.939162,117.9027714],"ct":"AU","tp":"CS","ts":"2024-06-02T11:53:41Z","tX":847,"tY":618,"tags":{"caravans":"yes","name":"King River Palms","tents":"yes"}},"4569929490":{"location":[-35.0783251,117.8864111],"ct":"AU","tp":"CS","ts":"2016-12-24T07:41:31Z","tX":847,"tY":618,"tags":{"addr:street":"Panorama Road","name":"Panorama Camping","name:de":"Panorama Camping"}},"4611699208":{"location":[-35.0738962,117.8188564],"ct":"AU","tp":"CS","ts":"2023-08-05T00:54:48Z","tX":847,"tY":618,"tags":{"backcountry":"yes","caravans":"no","fee":"no","name":"Sandpatch Campsite","operator":"Department of Parks & Wildlife","shower":"no","tents":"yes","toilets":"yes","water":"yes","website":"https://www.bibbulmuntrack.org.au"}},"9373561918":{"location":[-35.0532995,117.9129746],"ct":"AU","tp":"CS","ts":"2021-12-28T16:59:53Z","tX":847,"tY":618,"tags":{"addr:postcode":"6330","addr:state":"WA","addr:street":"Quaranup Road","addr:suburb":"Vancouver Peninsula","name":"Camp Quaranup"}},"10610797117":{"location":[-34.9911376,117.8562115],"ct":"AU","tp":"SD","ts":"2023-02-06T11:23:55Z","tX":847,"tY":618,"tags":{}}}