{"369375831":{"location":[46.2737421,-96.5982711],"ct":"US","tp":"CS","ts":"2021-10-07T20:52:29Z","tX":237,"tY":363,"tags":{"name":"Chahinkapa Zoo Campground","sanitary_dump_station":"yes"}},"369403768":{"location":[46.2886415,-96.5987392],"ct":"US","tp":"CS","ts":"2015-09-06T17:43:46Z","tX":237,"tY":363,"tags":{}},"7161366475":{"location":[46.2651932,-96.5967122],"ct":"US","tp":"CS","ts":"2023-11-29T13:08:45Z","tX":237,"tY":363,"tags":{"addr:city":"Breckenridge","addr:state":"MN","charge":"$10","drinking_water":"yes","fee":"yes","name":"Welles Memorial Park Campground","seasonal":"spring;summer;autumn","toilets":"yes"}},"7489465946":{"location":[46.2883596,-96.5979942],"ct":"US","tp":"CS","ts":"2025-03-08T04:44:55Z","tX":237,"tY":363,"tags":{"addr:city":"Wahpeton","addr:state":"ND","capacity":"8","charge":"$10-$25","name":"Kidder Rec Area","phone":"+1-701-642-2811","power_supply":"yes","reservation":"yes","toilets:type":"flush"}},"7489465947":{"location":[46.2737559,-96.5984384],"ct":"US","tp":"CS","ts":"2024-02-10T16:18:49Z","tX":237,"tY":363,"tags":{"addr:city":"Wahpeton","addr:state":"ND","capacity":"6","fee":"yes","name":"Chahinkapa Park Campground","phone":"+1-701-642-8709,","power_supply":"yes","reservation":"yes","shower":"yes","toilets:disposal":"flush"}}}