{"486006153":{"location":[44.5064682,-96.4347849],"ct":"US","tp":"CS","ts":"2024-12-01T06:45:16Z","tX":237,"tY":370,"tags":{"addr:city":"Hendricks","addr:postcode":"56136","addr:state":"MN","capacity":"27","charge":"25 USD","description":"$18-$25","fee":"yes","motor_vehicle":"yes","name":"Lake Hendricks Campground","note":"Currently undergoing construction to campground; area should likely encompass expansion.","tents":"yes","website":"http://www.hendricksmn.com/HendricksCampGrounds.asp"}},"646178507":{"location":[44.403676,-96.348394],"ct":"US","tp":"CS","ts":"2018-11-19T04:42:31Z","tX":237,"tY":370,"tags":{"leisure":"park","motor_vehicle":"yes","name":"Picnic Point County Park","website":"http://www.co.lincoln.mn.us/Departments/Parks.htm"}},"7633859595":{"location":[44.5066637,-96.4349671],"ct":"US","tp":"CS","ts":"2024-12-01T06:45:16Z","tX":237,"tY":370,"tags":{"addr:city":"Hendricks","addr:state":"MN","capacity":"27","charge":"24 USD","description":"$18-$24","fee":"yes","name":"Laek Hendricks City Park","phone":"+1-507-275-3192","power_supply":"yes","shower":"yes","toilets":"yes"}},"7633859596":{"location":[44.4802779,-96.4770966],"ct":"US","tp":"CS","ts":"2021-08-24T23:22:23Z","tX":237,"tY":370,"tags":{"addr:city":"White","addr:state":"SD","capacity":"15","drinking_water":"no","fee":"no","name":"Lake Hendricks LUA_GFP","phone":"+1-605-627-5441","toilets:type":"pit latrine"}}}