{"7635617701":{"location":[43.0585641,-96.4711653],"ct":"US","tp":"CS","ts":"2024-08-26T05:15:41Z","tX":237,"tY":376,"tags":{"addr:city":"Hawarden","addr:state":"IA","capacity":"49","charge":"23 USD","fee":"yes","name":"Oak Grove County Park - Deer Run","phone":"+1-712-552-1047","power_supply":"yes","reservation":"yes"}},"7635617702":{"location":[43.0614472,-96.4594304],"ct":"US","tp":"CS","ts":"2024-08-26T05:15:41Z","tX":237,"tY":376,"tags":{"addr:city":"Hawarden","addr:state":"IA","capacity":"18","charge":"23 USD","fee":"yes","name":"Oak Grove County Park - Turkey Ridge","phone":"+1-712-552-1047","shower":"fee"}},"10612879170":{"location":[42.991831,-96.5000131],"ct":"US","tp":"CS","ts":"2023-02-06T22:05:32Z","tX":237,"tY":376,"tags":{"capacity:caravans":"16","fee":"yes","internet_access":"no","name":"Eagle View Campground","operator":"Sioux County Conservation Board","shower":"yes","toilets":"yes"}},"10612889157":{"location":[42.9963197,-96.4986312],"ct":"US","tp":"CS","ts":"2023-05-11T18:07:05Z","tX":237,"tY":376,"tags":{"addr:housenumber":"84","addr:street":"W 10th Street","capacity:caravans":"19","fee":"yes","internet_access":"no","name":"Meadowlark Campground","operator":"Sioux County Conservation Board","shower":"yes","toilets":"yes"}}}