{"1082769532":{"location":[41.0372342,-96.3668633],"ct":"US","tp":"CS","ts":"2024-08-29T13:49:59Z","tX":237,"tY":383,"tags":{"addr:city":"Ashland","addr:housenumber":"1301","addr:postcode":"68003","addr:state":"NE","addr:street":"Ash Street","email":"ashlandrvcampground@gmail.com","internet_access":"wlan","internet_access:fee":"no","name":"Ashland RV Campground","phone":"+1-402-401-4231","shower":"yes","website":"https://ashlandrvcampground.com/"}},"1311594238":{"location":[41.0631757,-96.3318092],"ct":"US","tp":"CR","ts":"2024-08-27T18:34:06Z","tX":237,"tY":383,"tags":{}},"1311595964":{"location":[41.050056,-96.3378091],"ct":"US","tp":"CR","ts":"2024-08-27T18:37:49Z","tX":237,"tY":383,"tags":{"addr:city":"Ashland","addr:housenumber":"1215","addr:postcode":"68003","addr:street":"Highway 6","name":"Riverside RV Camp & Storage","phone":"+1 402 201 4888","website":"https://www.riversidervcamp.com/"}},"7524326404":{"location":[41.2027146,-96.6109977],"ct":"US","tp":"CS","ts":"2020-05-15T21:26:34Z","tX":237,"tY":383,"tags":{"addr:city":"Wahoo","addr:postcode":"68066","addr:state":"NE","name":"Saunders County Fairgrounds Campground"}},"7527789862":{"location":[41.039331,-96.3693805],"ct":"US","tp":"CS","ts":"2021-03-12T14:19:02Z","tX":237,"tY":383,"tags":{"addr:city":"Ashland","addr:housenumber":"1442","addr:postcode":"68003","addr:state":"NE","addr:street":"Silver Street","fee":"yes","name":"Linoma","phone":"+1-402-944-3383","stars":"1","website":"linomalighthouse.com"}},"5220912177":{"location":[41.2412234,-96.6177941],"ct":"US","tp":"CR","ts":"2017-11-11T21:19:07Z","tX":237,"tY":383,"tags":{}}}