{"202625600":{"location":[33.9570146,-96.4113783],"ct":"US","tp":"CR","ts":"2013-01-24T05:50:01Z","tX":237,"tY":409,"tags":{"name":"Durant Choctaw Casino KOA RV Park"}},"988160892":{"location":[33.8264772,-96.5278464],"ct":"US","tp":"CR","ts":"2021-09-30T01:30:06Z","tX":237,"tY":409,"tags":{"addr:city":"Colbert","addr:housenumber":"300","addr:postcode":"74733","addr:state":"OK","addr:street":"South Dickson Road","name":"Riverview RV & Recreation Park"}},"988166178":{"location":[33.8563696,-96.5139686],"ct":"US","tp":"CR","ts":"2021-09-30T02:12:29Z","tX":237,"tY":409,"tags":{"addr:city":"Colbert","addr:housenumber":"413","addr:postcode":"74733","addr:state":"OK","addr:street":"Sherrard Street","name":"RV Station Resort"}},"988168982":{"location":[33.8543227,-96.5106183],"ct":"US","tp":"CR","ts":"2021-09-30T02:32:37Z","tX":237,"tY":409,"tags":{"addr:city":"Colbert","addr:housenumber":"109","addr:postcode":"74733","addr:state":"OK","addr:street":"Timothy Drive","name":"Colbert RV Park"}},"1112158675":{"location":[33.9059258,-96.4669597],"ct":"US","tp":"CR","ts":"2022-11-11T00:34:05Z","tX":237,"tY":409,"tags":{"addr:city":"Calera","addr:housenumber":"7","addr:postcode":"74730","addr:state":"OK","addr:street":"Luke Brothers Drive","building":"no","name":"Oklahoma Trailer Sales","shop":"caravan"}},"1243108702":{"location":[33.8480711,-96.5785381],"ct":"US","tp":"CS","ts":"2024-01-26T07:46:17Z","tX":237,"tY":409,"tags":{"addr:city":"Cartwright","addr:housenumber":"525","addr:postcode":"74731","addr:state":"OK","addr:street":"East Burns Road","name":"Burns Run East Campground"}},"1288393350":{"location":[33.8769005,-96.6452322],"ct":"US","tp":"CS","ts":"2024-08-25T09:25:20Z","tX":237,"tY":409,"tags":{"ele":"190","gnis:feature_id":"1889618","name":"Preston Bend Recreation Area"}},"1303282487":{"location":[33.8168879,-96.607163],"ct":"US","tp":"CS","ts":"2024-07-23T13:50:59Z","tX":237,"tY":409,"tags":{}},"1303285355":{"location":[33.8515497,-96.5632997],"ct":"US","tp":"CR","ts":"2024-07-23T14:04:36Z","tX":237,"tY":409,"tags":{"access":"private"}},"1303295597":{"location":[33.9962752,-96.5423513],"ct":"US","tp":"CR","ts":"2024-07-23T14:54:09Z","tX":237,"tY":409,"tags":{}},"1303295866":{"location":[33.9987885,-96.5166913],"ct":"US","tp":"CR","ts":"2024-07-23T14:55:34Z","tX":237,"tY":409,"tags":{}},"1303295902":{"location":[33.997155,-96.5102055],"ct":"US","tp":"CR","ts":"2024-07-23T14:56:00Z","tX":237,"tY":409,"tags":{}},"2918199875":{"location":[33.8197294,-96.6133379],"ct":"US","tp":"CR","ts":"2014-06-16T04:53:29Z","tX":237,"tY":409,"tags":{"name":"Cedar Hollow Group Trailer Area"}},"2918203666":{"location":[33.8277971,-96.6207131],"ct":"US","tp":"CS","ts":"2022-10-10T04:28:05Z","tX":237,"tY":409,"tags":{"name":"Elm Point Camping Area","operator":"Eisenhower State Park"}},"2918203667":{"location":[33.8263041,-96.6195268],"ct":"US","tp":"CS","ts":"2014-06-16T05:05:18Z","tX":237,"tY":409,"tags":{"name":"Overflow Camping","operator":"Eisenhower State Park"}},"2918203688":{"location":[33.8248219,-96.6163729],"ct":"US","tp":"CS","ts":"2014-06-16T05:05:18Z","tX":237,"tY":409,"tags":{"name":"Fossil Ridge Camping area","operator":"Eisenhower State Park"}},"12054404696":{"location":[33.8173371,-96.6003683],"ct":"US","tp":"CS","ts":"2024-07-23T13:53:13Z","tX":237,"tY":409,"tags":{"camp_site":"serviced","name":"Armadillo Hill Camping Area"}},"12070015803":{"location":[33.8927957,-96.5771998],"ct":"US","tp":"CS","ts":"2024-07-23T14:19:27Z","tX":237,"tY":409,"tags":{"leisure":"summer_camp"}},"12070051429":{"location":[33.938492,-96.5561202],"ct":"US","tp":"CS","ts":"2024-07-23T14:40:29Z","tX":237,"tY":409,"tags":{}},"12070051430":{"location":[33.9397356,-96.5548033],"ct":"US","tp":"CS","ts":"2024-07-23T14:40:29Z","tX":237,"tY":409,"tags":{}},"12070053025":{"location":[33.9226358,-96.5453657],"ct":"US","tp":"CS","ts":"2024-07-23T14:37:06Z","tX":237,"tY":409,"tags":{}},"12070053920":{"location":[33.9347651,-96.5493474],"ct":"US","tp":"CS","ts":"2024-07-23T14:38:01Z","tX":237,"tY":409,"tags":{}},"8346196719":{"location":[33.8599385,-96.6610181],"ct":"US","tp":"CR","ts":"2024-05-31T15:00:59Z","tX":237,"tY":409,"tags":{"name":"Lighthouse Resort RV Sites"}},"12069959651":{"location":[33.8482316,-96.5822992],"ct":"US","tp":"CR","ts":"2024-07-23T13:57:53Z","tX":237,"tY":409,"tags":{}},"12069979985":{"location":[33.8543547,-96.5707867],"ct":"US","tp":"CR","ts":"2024-07-23T14:07:07Z","tX":237,"tY":409,"tags":{}},"12070084705":{"location":[34.0016305,-96.570721],"ct":"US","tp":"CR","ts":"2024-07-23T15:00:29Z","tX":237,"tY":409,"tags":{}},"12070099589":{"location":[33.9878797,-96.6227736],"ct":"US","tp":"CR","ts":"2024-07-23T15:09:58Z","tX":237,"tY":409,"tags":{}},"12070105089":{"location":[33.9983869,-96.659937],"ct":"US","tp":"CR","ts":"2024-07-23T15:16:03Z","tX":237,"tY":409,"tags":{}},"10088348889":{"location":[33.8146718,-96.6012777],"ct":"US","tp":"SD","ts":"2022-10-10T04:57:38Z","tX":237,"tY":409,"tags":{}}}