{"254753490":{"location":[33.5032485,-96.3999198],"ct":"US","tp":"CR","ts":"2014-01-02T03:47:50Z","tX":237,"tY":410,"tags":{"addr:city":"whitewright","addr:postcode":"75491","name":"OASIS DQ RV PARK"}},"851201412":{"location":[33.600461,-96.590488],"ct":"US","tp":"CR","ts":"2023-08-28T10:25:53Z","tX":237,"tY":410,"tags":{"addr:city":"Sherman","addr:housenumber":"1601","addr:postcode":"75090","addr:state":"TX","addr:street":"East FM 1417","name":"Shadow Mountain"}},"852267766":{"location":[33.7006726,-96.5749971],"ct":"US","tp":"CR","ts":"2020-09-28T05:40:07Z","tX":237,"tY":410,"tags":{"addr:city":"Sherman","addr:housenumber":"6404","addr:postcode":"75090","addr:state":"TX","addr:street":"Texoma Parkway","name":"The Forest at Sherman"}},"853517681":{"location":[33.5138293,-96.614031],"ct":"US","tp":"CR","ts":"2020-09-30T19:56:51Z","tX":237,"tY":410,"tags":{"addr:city":"Howe","addr:housenumber":"709","addr:postcode":"75459","addr:state":"TX","addr:street":"North Collins Freeway","name":"Pradera"}},"853577146":{"location":[33.6651611,-96.5992258],"ct":"US","tp":"CR","ts":"2020-10-01T03:08:30Z","tX":237,"tY":410,"tags":{"addr:city":"Sherman","addr:housenumber":"2424","addr:postcode":"75090","addr:state":"TX","addr:street":"Texoma Parkway","name":"Crossroads Mobile Home and RV Community"}},"987216805":{"location":[33.6133596,-96.6063485],"ct":"US","tp":"CR","ts":"2023-11-19T09:09:47Z","tX":237,"tY":410,"tags":{"addr:city":"Sherman","addr:housenumber":"310","addr:postcode":"75090","addr:state":"TX","addr:street":"West Wilson Avenue","name":"Lazy L RV Park"}},"1085231452":{"location":[33.6131056,-96.6029271],"ct":"US","tp":"CR","ts":"2022-08-10T02:17:03Z","tX":237,"tY":410,"tags":{"addr:city":"Sherman","addr:housenumber":"2215","addr:postcode":"75090","addr:state":"TX","addr:street":"South Crockett Street","name":"Meadowview Mobile Home & RV Park"}},"1085439992":{"location":[33.6938547,-96.5796285],"ct":"US","tp":"CR","ts":"2022-08-10T20:48:17Z","tX":237,"tY":410,"tags":{"addr:city":"Sherman","addr:housenumber":"5600","addr:postcode":"75090","addr:state":"TX","addr:street":"Texoma Parkway","name":"El Dorado"}}}