{"706831877":{"location":[32.6969872,-96.4995263],"ct":"US","tp":"CR","ts":"2020-11-19T11:38:40Z","tX":237,"tY":413,"tags":{"addr:city":"Forney","addr:housenumber":"10216","addr:postcode":"75126","addr:state":"TX","addr:street":"FM 2757","name":"Lakeside RV Park"}},"749606857":{"location":[32.709388,-96.578698],"ct":"US","tp":"CR","ts":"2024-05-16T18:23:28Z","tX":237,"tY":413,"tags":{"addr:city":"Mesquite","addr:housenumber":"4641","addr:postcode":"75181","addr:state":"TX","addr:street":"Lasater Road","name":"Rock Creek Mobile Home Park","zoning":"commercial"}},"859530107":{"location":[32.832712,-96.5671562],"ct":"US","tp":"CR","ts":"2020-10-16T05:15:39Z","tX":237,"tY":413,"tags":{"addr:city":"Sunnyvale","addr:housenumber":"345","addr:postcode":"75182","addr:state":"TX","addr:street":"Barnes Bridge Road","name":"Plantation Place"}},"874643099":{"location":[32.7478271,-96.4609686],"ct":"US","tp":"CR","ts":"2020-11-19T11:18:49Z","tX":237,"tY":413,"tags":{"addr:city":"Forney","addr:housenumber":"650","addr:postcode":"75126","addr:state":"TX","addr:street":"Summerhaven","name":"Summerhaven Mobile Home and RV Park"}},"1160715910":{"location":[32.6070755,-96.3856354],"ct":"US","tp":"CR","ts":"2023-04-08T17:02:09Z","tX":237,"tY":413,"tags":{"addr:city":"Kaufman","addr:housenumber":"1240","addr:postcode":"75142","addr:state":"TX","addr:street":"County Road 268","name":"Rusted Rail RV Park"}},"1302303408":{"location":[32.6805526,-96.6078689],"ct":"US","tp":"CR","ts":"2024-07-18T15:30:12Z","tX":237,"tY":413,"tags":{}}}