{"4709236710":{"location":[17.0448016,-96.640045],"ct":"MX","tp":"CS","ts":"2017-02-28T03:14:48Z","tX":237,"tY":462,"tags":{"addr:city":"Santa Maria del Tule","addr:postcode":"68297","addr:street":"Ninos Heroes","capacity":"5","email":"overlanderoasis@gmail.com","fee":"yes","internet_access":"yes","name":"Overlander Oasis"}},"4717039358":{"location":[17.0306419,-96.59832],"ct":"MX","tp":"CS","ts":"2018-06-08T22:10:06Z","tX":237,"tY":462,"tags":{"capacity":"50","fee":"yes","internet_access":"wlan","internet_access:fee":"yes","name":"Oaxaca Campground","name:en":"Oaxaca Campground(not for cyclists and backpacks)"}},"6132740889":{"location":[17.1529974,-96.4574979],"ct":"MX","tp":"CS","ts":"2018-12-12T14:08:14Z","tX":237,"tY":462,"tags":{"name":"For Tents and Campers"}},"7039592286":{"location":[17.0535408,-96.6422799],"ct":"MX","tp":"CS","ts":"2025-05-31T19:46:58Z","tX":237,"tY":462,"tags":{"name":"El Rancho RV Park"}},"7164816470":{"location":[17.2531855,-96.490596],"ct":"MX","tp":"CS","ts":"2020-01-27T20:44:44Z","tX":237,"tY":462,"tags":{}},"9254814492":{"location":[17.0015949,-96.5692152],"ct":"MX","tp":"CS","ts":"2021-11-16T01:47:09Z","tX":237,"tY":462,"tags":{"name":"Mongolian Yurt Adventure & Campsite","phone":"+1 951 130 9722","website":"https://www.facebook.com/Mongolian-Yurt-Adventure-in-Mexico-785385435162703"}},"12919847571":{"location":[17.0500557,-96.6108444],"ct":"MX","tp":"CS","ts":"2025-06-16T18:15:29Z","tX":237,"tY":462,"tags":{"addr:city":"Santo Domingo Tomaltepec","addr:housenumber":"101","addr:neighbourhood":"Santa Catalina de Sena","addr:state":"Oaxaca","addr:street":"Calle de la Cruz","camp_site":"serviced","email":"oaxacaview@gmail.com","fee":"yes","name":"Campground OaxacaView","phone":"+52 951 157 0866","website":"https://www.oaxacaview.mx/"}}}