{"232659510":{"location":[49.3384717,34.348183],"ct":"UA","tp":"CS","ts":"2023-03-03T23:09:43Z","tX":609,"tY":350,"tags":{"description":"Британський літній мовний табір","description:en":"British language Camp","description:ru":"Британский летний языковой лагерь","internet_access":"no","name":"Celyn ABC camp","name:uk":"Celyn ABC camp","scout":"yes","website":"https://celyn-abc-camp.com/"}},"232896516":{"location":[49.3383637,34.3437538],"ct":"UA","tp":"CS","ts":"2023-10-22T22:48:03Z","tX":609,"tY":350,"tags":{"description":"Дитячий оздоровчий заклад","internet_access":"no","name":"Орлятко","name:ru":"Орлёнок","name:uk":"Орлятко","official_name":"Приватне підприємство орендний дитячий оздоровчо-виховний заклад \"Орлятко\"","scout":"yes"}},"232896517":{"location":[49.337603,34.3389312],"ct":"UA","tp":"CS","ts":"2023-10-22T22:48:03Z","tX":609,"tY":350,"tags":{"description":"Оздоровчий табір","internet_access":"no","name":"Зміна","name:ru":"Смена","name:uk":"Зміна","scout":"yes"}},"232896518":{"location":[49.3384805,34.3418978],"ct":"UA","tp":"CS","ts":"2023-03-03T23:09:43Z","tX":609,"tY":350,"tags":{"internet_access":"no","name":"Фонтан","name:uk":"Фонтан","official_name":"Дитячий оздоровчий комплекс \"Фонтан\"","operator":"НАК \"Надра України\" ДП \"Полтаванафтагазгеологія\"","scout":"yes"}},"6684508452":{"location":[49.1548282,34.2479882],"ct":"UA","tp":"CS","ts":"2023-03-03T23:09:43Z","tX":609,"tY":350,"tags":{"name":"Self-organized camp site","name:uk":"Self-organized camp site"}},"6684636034":{"location":[49.2139702,34.261514],"ct":"UA","tp":"CS","ts":"2023-03-03T23:09:43Z","tX":609,"tY":350,"tags":{"name":"Non-organized camping","name:uk":"Non-organized camping"}},"11934523970":{"location":[49.2410046,34.1440375],"ct":"UA","tp":"CS","ts":"2024-05-26T08:33:42Z","tX":609,"tY":350,"tags":{"name":"Драбинівка"}}}