{"749729137":{"location":[44.5041504,34.2132529],"ct":"UA","tp":"CR","ts":"2021-12-04T14:21:23Z","tX":609,"tY":370,"tags":{"fixme":"resurvey","landuse":"garages"}},"1009818936":{"location":[44.545548,34.101721],"ct":"UA","tp":"CS","ts":"2011-03-01T21:29:48Z","tX":609,"tY":370,"tags":{}},"1174286111":{"location":[44.5768547,34.1395322],"ct":"UA","tp":"CS","ts":"2011-02-26T10:35:33Z","tX":609,"tY":370,"tags":{}},"1210703518":{"location":[44.5830798,34.1757292],"ct":"UA","tp":"CS","ts":"2023-05-02T22:54:32Z","tX":609,"tY":370,"tags":{"name":"Кемаль","name:uk":"Кемаль"}},"3943448911":{"location":[44.5325833,34.1999],"ct":"UA","tp":"CS","ts":"2016-01-13T11:31:40Z","tX":609,"tY":370,"tags":{}},"4674790872":{"location":[44.5743512,34.2942953],"ct":"UA","tp":"CS","ts":"2017-02-08T14:23:32Z","tX":609,"tY":370,"tags":{}},"5031498921":{"location":[44.5689071,34.2858494],"ct":"UA","tp":"CS","ts":"2023-03-15T10:51:08Z","tX":609,"tY":370,"tags":{"name":"Красный камень","name:en":"Red stone","name:ru":"Красный камень","name:uk":"Червоний Камінь"}},"6457499986":{"location":[44.5892485,34.1466605],"ct":"UA","tp":"CS","ts":"2023-05-02T22:54:32Z","tX":609,"tY":370,"tags":{"name":"Каспана","name:uk":"Каспана"}},"6586977385":{"location":[44.5743921,34.1293263],"ct":"UA","tp":"CS","ts":"2023-05-02T22:54:32Z","tX":609,"tY":370,"tags":{"name":"Эпсари","name:uk":"Епсарі"}},"6587111236":{"location":[44.57764,34.1401804],"ct":"UA","tp":"CS","ts":"2023-05-02T22:54:32Z","tX":609,"tY":370,"tags":{"name":"Яман-Таш","name:uk":"Яман-Таш"}},"6715062087":{"location":[44.5665091,34.3208874],"ct":"UA","tp":"CS","ts":"2020-09-18T19:07:36Z","tX":609,"tY":370,"tags":{"description":"Бесплатный. Рядом с заброшенной вертолетной площадкой.","fee":"no"}},"6717748785":{"location":[44.5742502,34.2992221],"ct":"UA","tp":"CS","ts":"2020-04-14T12:17:22Z","tX":609,"tY":370,"tags":{}},"7015933387":{"location":[44.5525126,34.1797514],"ct":"UA","tp":"CS","ts":"2024-06-02T05:17:55Z","tX":609,"tY":370,"tags":{"description":"Водопадик стекает по стене","description:en":"Waterfall flows down the wall","ele":"655 "}},"7973340585":{"location":[44.5581834,34.3291365],"ct":"UA","tp":"CS","ts":"2023-05-02T22:54:32Z","tX":609,"tY":370,"tags":{"name":"Кемпинг","name:uk":"Кемпінг"}},"7976023685":{"location":[44.5573375,34.3363275],"ct":"UA","tp":"CS","ts":"2023-05-02T22:54:32Z","tX":609,"tY":370,"tags":{"name":"Кемпинг","name:uk":"Кемпінг"}},"8856014019":{"location":[44.5731913,34.2987323],"ct":"UA","tp":"CS","ts":"2023-04-03T10:23:58Z","tX":609,"tY":370,"tags":{"name":"Кемпинг на холме","name:ru":"Кемпинг на холме","name:uk":"Кемпінг на пагорбі"}},"8971703918":{"location":[44.5690662,34.3273591],"ct":"UA","tp":"CS","ts":"2023-05-02T22:54:32Z","tX":609,"tY":370,"tags":{"name":"\"Пять сестёр\"","name:uk":"\"П'ять сестер\""}},"8971704221":{"location":[44.578511,34.3333652],"ct":"UA","tp":"CS","ts":"2023-05-02T22:54:32Z","tX":609,"tY":370,"tags":{"name":"На голове министра обороны","name:ru":"На голове министра обороны","name:uk":"На голові міністра оборони"}},"8982737118":{"location":[44.446328,34.1348292],"ct":"UA","tp":"CS","ts":"2023-05-02T22:54:32Z","tX":609,"tY":370,"tags":{"name":"\"Старое кафе\"","name:uk":"\"Старе кафе\""}},"9233569065":{"location":[44.5445662,34.2192417],"ct":"UA","tp":"CS","ts":"2021-12-02T19:16:47Z","tX":609,"tY":370,"tags":{}},"4996290139":{"location":[44.5662792,34.3200558],"ct":"UA","tp":"CR","ts":"2017-07-27T07:37:38Z","tX":609,"tY":370,"tags":{}},"8027554687":{"location":[44.5471015,34.261738],"ct":"UA","tp":"CR","ts":"2023-05-02T22:54:32Z","tX":609,"tY":370,"tags":{"fee":"yes","name":"Автокемпинг","name:en":"Minicamp","name:uk":"Автокемпінг","phone":"+7 (978) 861-54-03"}},"10156250917":{"location":[44.5719883,34.3417427],"ct":"UA","tp":"CR","ts":"2023-04-03T10:23:58Z","tX":609,"tY":370,"tags":{"name":"Парковка","name:en":"Парковка","name:ru":"Парковка","name:uk":"Парковка"}},"11064457505":{"location":[44.4924409,34.1044151],"ct":"UA","tp":"CR","ts":"2023-07-24T08:21:09Z","tX":609,"tY":370,"tags":{"internet_access":"wlan","name":"Автокемпинг","phone":"89789611744"}}}