{"41306445":{"location":[31.4235508,34.404674],"ct":"PS","tp":"CS","ts":"2024-04-14T12:08:17Z","tX":609,"tY":417,"tags":{"name":"(mqbola) abu talhha","name:ar":"موقع مقبولة الشهيد المهندس يحيى جير أبوطلحة"}},"505024831":{"location":[31.4232616,34.4049934],"ct":"PS","tp":"CS","ts":"2024-04-14T12:08:17Z","tX":609,"tY":417,"tags":{"name":"(mqbola) abu talhha","name:ar":"موقع مقبولة قلعة الشهيد المهندس يحيى جير أبوطلحة"}},"4761510332":{"location":[31.3727193,34.337765],"ct":"PS","tp":"CS","ts":"2017-03-29T09:36:30Z","tX":609,"tY":417,"tags":{"name":"حارة الحج احميد","name:ar":"حارة الحج احميد"}},"4777034521":{"location":[31.3775007,34.3615897],"ct":"PS","tp":"CS","ts":"2017-04-05T15:14:50Z","tX":609,"tY":417,"tags":{"name":"86","name:ar":"86"}},"4881899221":{"location":[31.376963,34.3066062],"ct":"PS","tp":"CS","ts":"2019-03-24T14:53:51Z","tX":609,"tY":417,"tags":{"name":"الإسراء 2","name:ar":"الإسراء 2","name:en":"Al-Israa 2"}},"5295632721":{"location":[31.4568068,34.3951038],"ct":"PS","tp":"CS","ts":"2017-12-20T12:55:17Z","tX":609,"tY":417,"tags":{"internet_access":"wlan","name":"منزل ابو خالد مطر","name:ar":"منزل ابو خالد مطر"}},"6822300985":{"location":[31.3910278,34.3270862],"ct":"PS","tp":"CS","ts":"2022-01-30T09:53:17Z","tX":609,"tY":417,"tags":{"name":"كشافة","name:ar":"كشافة"}},"8660698017":{"location":[31.4254442,34.3864209],"ct":"PS","tp":"CS","ts":"2021-04-24T00:05:16Z","tX":609,"tY":417,"tags":{"name":"أرض أكرم الشاعر أبو العبد"}},"8757733217":{"location":[31.413419,34.3696239],"ct":"PS","tp":"CS","ts":"2021-05-23T12:04:21Z","tX":609,"tY":417,"tags":{}},"11823804272":{"location":[31.4311783,34.3436567],"ct":"PS","tp":"CS","ts":"2024-04-17T04:11:06Z","tX":609,"tY":417,"tags":{"name":"حمزة الوصلاح"}},"5296423421":{"location":[31.3727864,34.3376828],"ct":"PS","tp":"CR","ts":"2020-11-25T23:14:42Z","tX":609,"tY":417,"tags":{"addr:street":"Abu ryad al'abadla St.","name":"منزل: عبد العظيم احميد العبادلة \"أبو همام\"","name:ar":"منزل: عبد العظيم احميد العبادلة \"أبو همام\""}},"5483012521":{"location":[31.4404066,34.4062541],"ct":"PS","tp":"CR","ts":"2020-11-25T23:14:42Z","tX":609,"tY":417,"tags":{"addr:housenumber":"6/37","addr:postcode":"00972","name":"منزل المرحوم خليل عاشور ابو وسام","name:ar":"منزل المرحوم خليل عاشور ابو وسام","name:en":"Khalil ashour"}},"6161028185":{"location":[31.5005848,34.4221664],"ct":"PS","tp":"CR","ts":"2020-11-25T23:14:42Z","tX":609,"tY":417,"tags":{"name":"بيت الدكتور عماد حمتو","name:ar":"بيت الدكتور عماد حمتو"}},"6256422007":{"location":[31.3809568,34.3415474],"ct":"PS","tp":"CR","ts":"2020-11-25T23:14:42Z","tX":609,"tY":417,"tags":{"name":"منزل الحاج محمود شهوان(ابو احمد)","name:ar":"منزل الحاج محمود شهوان(ابو احمد)"}},"6433145385":{"location":[31.3805039,34.3456054],"ct":"PS","tp":"CR","ts":"2020-11-25T23:14:42Z","tX":609,"tY":417,"tags":{"addr:street":"Abdeeb Street شارع ابو عابدين","internet_access":"wlan","name":"منزل السيد حيدر الفرا","name:ar":"منزل السيد حيدر الفرا"}},"6433145386":{"location":[31.3807686,34.3459209],"ct":"PS","tp":"CR","ts":"2020-11-25T23:14:42Z","tX":609,"tY":417,"tags":{"addr:street":"شارع العبادين","internet_access":"wlan","name":"منزل السيد شكري الفرا","name:ar":"منزل السيد شكري الفرا"}},"6472115185":{"location":[31.4887671,34.4437496],"ct":"PS","tp":"CR","ts":"2020-11-25T23:14:42Z","tX":609,"tY":417,"tags":{"name":"فلسطين الحبيبه","name:ar":"فلسطين الحبيبه"}},"6602764686":{"location":[31.5142605,34.4470456],"ct":"PS","tp":"CR","ts":"2020-11-25T23:14:42Z","tX":609,"tY":417,"tags":{"name":"بيت شنن","name:ar":"بيت شنن"}},"6944310085":{"location":[31.5340905,34.4486333],"ct":"PS","tp":"CR","ts":"2019-11-04T06:02:25Z","tX":609,"tY":417,"tags":{"addr:street":"Hawary Abo Medain Street","name":"عمازة","name:ar":"عمارة الحاج مروان مقداد \" ابو اياد\"","name:en":"meqdad home"}}}