{"160289109":{"location":[-21.1172909,149.1808989],"ct":"AU","tp":"CR","ts":"2012-08-23T12:07:20Z","tX":936,"tY":573,"tags":{"name":"Hilltop Caravan Park"}},"171353609":{"location":[-21.2135412,149.1467301],"ct":"AU","tp":"CR","ts":"2024-04-27T01:08:31Z","tX":936,"tY":573,"tags":{"addr:city":"Mackay","addr:housenumber":"106","addr:postcode":"4740","addr:state":"QLD","addr:street":"Main Street","capacity":"100","email":"enquiries@mycowaccommodation.com.au","fee":"yes","internet_access":"wlan","internet_access:fee":"no","internet_access:ssid":"Mycow Guest","name":"Mycow Accommodation","operator":"Mycow Pty Ltd","phone":"+61 7 4952 2806","power_supply":"yes","sanitary_dump_station":"yes","source":"local_knowledge;survey","website":"https://mycowaccommodation.com.au/","wheelchair":"limited"}},"173267106":{"location":[-21.0368352,149.1682913],"ct":"AU","tp":"CR","ts":"2012-07-28T10:18:17Z","tX":936,"tY":573,"tags":{"name":"Bucasia Beachfront Caravan Resort","source":"Yahoo"}},"175586458":{"location":[-21.107306,149.1758931],"ct":"AU","tp":"CR","ts":"2017-03-28T02:53:51Z","tX":936,"tY":573,"tags":{"name":"Andergrove Van Park"}},"177664619":{"location":[-21.1248216,149.1852007],"ct":"AU","tp":"CR","ts":"2024-06-16T05:24:44Z","tX":936,"tY":573,"tags":{"name":"Central Tourist Park","source":"Bing","tents":"yes","website":"https://www.centraltouristpark.com.au/"}},"177801182":{"location":[-21.1129188,149.2062172],"ct":"AU","tp":"CR","ts":"2023-03-24T01:46:45Z","tX":936,"tY":573,"tags":{"brand":"Big 4 Holiday Parks","brand:wikidata":"Q18636678","name":"Big 4 - Mackay Marine Tourist Park","short_name":"Big4","source":"Yahoo"}},"183415383":{"location":[-21.1541189,149.1646458],"ct":"AU","tp":"CR","ts":"2013-11-18T01:50:11Z","tX":936,"tY":573,"tags":{"name":"Premier Caravan Park","source":"Bing"}},"183425025":{"location":[-21.1839121,149.1525082],"ct":"AU","tp":"CR","ts":"2021-07-24T04:34:55Z","tX":936,"tY":573,"tags":{"name":"The Park Mackay"}},"184735806":{"location":[-21.052134,149.1907702],"ct":"AU","tp":"CR","ts":"2012-10-09T05:02:39Z","tX":936,"tY":573,"tags":{"name":"Seawinds Caravan Park"}},"537314403":{"location":[-21.2126419,149.1464547],"ct":"AU","tp":"CS","ts":"2024-04-27T01:08:31Z","tX":936,"tY":573,"tags":{"addr:city":"Mackay","addr:housenumber":"90","addr:postcode":"4740","addr:state":"QLD","addr:street":"Main Street","capacity":"250","description":"Low cost camping and RV park operated by Mycow Accommodation.","email":"enquiries@mycowaccommodation.com.au","fee":"yes","internet_access":"wlan","internet_access:fee":"no","internet_access:ssid":"Mycow Guest","name":"Mycow Freedom Campground","operator":"Mycow Pty Ltd","phone":"+61 7 4952 2806","website":"https://mycowaccommodation.com.au/"}},"9190140677":{"location":[-21.0522453,149.1905006],"ct":"AU","tp":"CR","ts":"2021-10-21T11:59:43Z","tX":936,"tY":573,"tags":{"brand":"Big 4 Holiday Parks","brand:wikidata":"Q18636678","brand:wikipedia":"en:BIG4 Holiday Parks","fixme":"Actual boundary of the park is not known, so mapped as a point","name":"BIG 4 Mackay Blacks Beach Holiday Park","short_name":"Big4","website":"https://www.big4.com.au/caravan-parks/qld/mackay/mackay-blacks-beach-holiday-park"}},"5203472361":{"location":[-21.213405,149.1465982],"ct":"AU","tp":"SD","ts":"2024-04-27T01:06:51Z","tX":936,"tY":573,"tags":{"addr:city":"Mackay","addr:housenumber":"106","addr:postcode":"4740","addr:state":"QLD","addr:street":"Main Street","fee":"unknown","note":"Dump Point is inside Mycow Pty Ltd property. Free public access not known."}},"9869305414":{"location":[-21.1655753,149.1541665],"ct":"AU","tp":"SD","ts":"2022-07-06T01:39:38Z","tX":936,"tY":573,"tags":{"access":"yes","fee":"no","opening_hours":"24/7","operator":"Mackay Regional Council","water_point":"yes"}}}