{"237180052":{"location":[-26.4001361,146.2539728],"ct":"AU","tp":"CR","ts":"2024-08-20T06:00:23Z","tX":928,"tY":589,"tags":{"addr:city":"Charleville","addr:country":"AU","addr:housenumber":"196","addr:postcode":"4470","addr:state":"QLD","addr:street":"King Street","internet_access":"wlan","name":"Bailey Bar Caravan Park","phone":"+61 7 4654 1744","power_supply":"yes","source":"survey"}},"1811165561":{"location":[-26.39556,146.25222],"ct":"AU","tp":"CS","ts":"2023-01-24T05:00:48Z","tX":928,"tY":589,"tags":{"caravans":"yes","drinking_water":"yes","name":"Cobb & Co Caravan Park","power_supply":"yes","shower":"yes","tents":"yes","toilets":"yes"}},"8562432703":{"location":[-26.4189855,146.3508091],"ct":"AU","tp":"CS","ts":"2023-09-17T10:30:34Z","tX":928,"tY":589,"tags":{"caravans":"yes","fee":"no","maxstay":"48 hours","name":"Rock Pool Camping and Recreation Reserve","note":"Dumping/depositing of human waste prohibited\n2 days maximum stay","operator":"Murweh Shire Council","static_caravans":"no","tents":"yes","toilets":"no"}},"9810286433":{"location":[-26.4158628,146.2523268],"ct":"AU","tp":"SD","ts":"2022-06-11T05:07:48Z","tX":928,"tY":589,"tags":{"fixme":"check posn"}}}