{"639500933":{"location":[-34.7543268,146.5656963],"ct":"AU","tp":"CR","ts":"2023-05-01T03:25:08Z","tX":928,"tY":617,"tags":{"addr:city":"Narrandera","addr:country":"AU","addr:housenumber":"1","addr:postcode":"2700","addr:state":"NSW","addr:street":"Gordon Street","email":"info@laketalbot.com.au","fee":"yes","internet_access":"wlan","name":"Lake Talbot Tourist Park","opening_hours":"Mo-Su 08:00-18:00","power_supply":"yes","sanitary_dump_station":"yes","tents":"yes","website":"http://www.laketalbot.com.au"}},"1153379407":{"location":[-34.7633271,146.5403659],"ct":"AU","tp":"CS","ts":"2023-03-11T00:43:58Z","tX":928,"tY":617,"tags":{"access":"customers","cabins":"yes","caravans":"yes","fee":"yes","internet_access":"wlan","internet_access:fee":"no","kitchen":"yes","laundry":"yes","name":"Narrandera Caravan Park","power_supply":"yes","sanitary_dump_station":"yes","shower":"yes","tents":"yes","toilets":"yes","website":"https://www.narranderacaravanpark.com.au/web/"}},"1811166347":{"location":[-34.63111,146.31694],"ct":"AU","tp":"CS","ts":"2012-07-03T11:47:34Z","tX":928,"tY":617,"tags":{"name":"Coleambally Water Ski Club"}},"1811173982":{"location":[-34.63806,146.37556],"ct":"AU","tp":"CS","ts":"2012-07-03T11:52:10Z","tX":928,"tY":617,"tags":{"name":"Euroley Bridge Reserve"}},"1811177197":{"location":[-34.6154355,146.2577273],"ct":"AU","tp":"CS","ts":"2023-11-09T10:57:27Z","tX":928,"tY":617,"tags":{"addr:housenumber":"1","addr:postcode":"2705","addr:state":"NSW","addr:street":"Gogeldrie Road","addr:suburb":"Gogeldrie","email":"grp@leeton.nsw.gov.au","fee":"yes","internet_access":"wlan","name":"Gogeldrie Riverside Park","operator":"Kui Parks","phone":"+61 408 125 751","shower":"yes","toilets":"yes","website":"https://gogeldrierp.com.au","wheelchair":"yes"}},"1811183694":{"location":[-34.65028,146.37889],"ct":"AU","tp":"CS","ts":"2012-07-03T12:02:43Z","tX":928,"tY":617,"tags":{"name":"Long Beach Camp"}},"1811185661":{"location":[-34.71639,146.44583],"ct":"AU","tp":"CS","ts":"2012-07-03T12:03:56Z","tX":928,"tY":617,"tags":{"name":"Markeys Beach Camp"}},"1811186714":{"location":[-34.63167,146.36139],"ct":"AU","tp":"CS","ts":"2012-07-03T12:04:58Z","tX":928,"tY":617,"tags":{"name":"Middle Beach Camp"}},"1811190047":{"location":[-34.7535573,146.5506061],"ct":"AU","tp":"CS","ts":"2023-05-01T06:32:31Z","tX":928,"tY":617,"tags":{"name":"Brewery Flat Reserve"}},"1811190061":{"location":[-34.74917,146.56444],"ct":"AU","tp":"CS","ts":"2012-07-03T12:07:34Z","tX":928,"tY":617,"tags":{"name":"Narrandera Showground"}},"1811194299":{"location":[-34.72111,146.46306],"ct":"AU","tp":"CS","ts":"2012-07-03T12:13:33Z","tX":928,"tY":617,"tags":{"name":"Sandy Beach Camp"}},"9934891192":{"location":[-34.6084821,146.2622742],"ct":"AU","tp":"CS","ts":"2022-08-06T04:30:06Z","tX":928,"tY":617,"tags":{"access":"yes"}},"10859522727":{"location":[-34.7575837,146.5976492],"ct":"AU","tp":"CS","ts":"2023-05-01T03:45:01Z","tX":928,"tY":617,"tags":{}}}