{"117807460":{"location":[-36.004722,146.3961805],"ct":"AU","tp":"CR","ts":"2025-03-03T09:59:20Z","tX":928,"tY":621,"tags":{"addr:country":"AU","addr:postcode":"2646","addr:street":"Bridge Road","addr:suburb":"Corowa","email":"ballpark@bigpond.net.au","fax":"+61 2 6033 4282","fee":"yes","name":"Ball Park Caravan Park","phone":"+61 2 6033 1426","power_supply":"yes","tents":"yes","website":"www.ballparkcaravanpark.com.au"}},"117892296":{"location":[-36.0076269,146.3818983],"ct":"AU","tp":"CR","ts":"2025-03-03T09:59:20Z","tX":928,"tY":621,"tags":{"addr:country":"AU","addr:housenumber":"84","addr:postcode":"2646","addr:street":"Federation Avenue","addr:suburb":"Corowa","email":"corowacaravanpark@bigpond.com","fax":"+61 2 6033 0075","fee":"yes","name":"Corowa Caravan Park","phone":"+61 2 6033 1944","power_supply":"yes","tents":"yes","website":"https://www.corowacaravanpark.com.au/"}},"117892646":{"location":[-35.9838808,146.4045292],"ct":"AU","tp":"CR","ts":"2025-03-03T10:04:50Z","tX":928,"tY":621,"tags":{"addr:country":"AU","addr:housenumber":"386","addr:postcode":"2646","addr:state":"NSW","addr:street":"Honour Avenue","addr:suburb":"Corowa","fee":"yes","name":"Rivergum Holiday Park","phone":"+61 2 6033 1990","power_supply":"yes","tents":"yes","website":"https://rivergumholidayretreat.com.au/"}},"293804536":{"location":[-35.9804776,146.407753],"ct":"AU","tp":"CR","ts":"2025-03-03T10:04:50Z","tX":928,"tY":621,"tags":{"addr:housenumber":"454","addr:postcode":"2646","addr:street":"Honour Avenue","addr:suburb":"Corowa","name":"Bindaree Motel & Caravan Park","website":"https://corowabindareeholidaypark.com.au/"}},"484342677":{"location":[-35.980165,146.4179484],"ct":"AU","tp":"CS","ts":"2017-04-02T11:39:24Z","tX":928,"tY":621,"tags":{"camp_site":"basic","name":"Granthams Bend Campground"}},"568675918":{"location":[-35.9709204,146.591673],"ct":"AU","tp":"CR","ts":"2018-03-11T11:13:09Z","tX":928,"tY":621,"tags":{"name":"Kismet Riverside Lodge"}},"1808392064":{"location":[-35.9802639,146.5040488],"ct":"AU","tp":"CS","ts":"2022-06-17T06:12:32Z","tX":928,"tY":621,"tags":{"name":"Police Paddocks"}},"5524156421":{"location":[-36.0075232,146.3908298],"ct":"AU","tp":"CS","ts":"2021-07-07T00:24:06Z","tX":928,"tY":621,"tags":{"name":"The Willows Public Recreation Reserve","source:name":"Site at entrance to reserve, seen in June 2021"}},"8172469054":{"location":[-36.0090304,146.2622094],"ct":"AU","tp":"CS","ts":"2020-11-28T03:11:44Z","tX":928,"tY":621,"tags":{"camp_site":"basic","toilets":"no"}},"8899490786":{"location":[-36.01198,146.40207],"ct":"AU","tp":"SD","ts":"2021-07-07T00:12:34Z","tX":928,"tY":621,"tags":{"access":"yes","source":"GPX point recorded in June 2021"}},"9890779264":{"location":[-36.0051834,146.3937852],"ct":"AU","tp":"SD","ts":"2022-07-16T00:26:50Z","tX":928,"tY":621,"tags":{}}}