{"270281484":{"location":[-38.813715,146.2669112],"ct":"AU","tp":"CR","ts":"2021-08-07T08:10:09Z","tX":928,"tY":631,"tags":{"area":"yes","name":"Yanakie Caravan Park"}},"316597148":{"location":[-38.6438679,146.4823755],"ct":"AU","tp":"CS","ts":"2024-07-06T18:07:32Z","tX":928,"tY":631,"tags":{"highway":"rest_area","name":"Nine Mile Creek Rest Area"}},"324617909":{"location":[-38.6615343,146.3269474],"ct":"AU","tp":"CR","ts":"2023-11-13T10:33:21Z","tX":928,"tY":631,"tags":{"name":"Toora Tourist Park","phone":"+61 3 5686 2257","website":"https://www.tooratouristpark.com.au/"}},"324638434":{"location":[-38.6982071,146.4516279],"ct":"AU","tp":"CR","ts":"2019-03-16T17:30:19Z","tX":928,"tY":631,"tags":{"addr:city":"Port Welshpool","addr:housenumber":"6","addr:postcode":"3962","addr:street":"Port Welshpool Road","name":"Long Jetty Caravan Park","website":"https://www.longjettycaravanpark.com.au/"}},"1808391662":{"location":[-38.67167,146.38639],"ct":"AU","tp":"CS","ts":"2024-07-06T18:07:32Z","tX":928,"tY":631,"tags":{"highway":"rest_area","name":"Agnes River Rest Area"}},"2707968028":{"location":[-38.8079141,146.424327],"ct":"AU","tp":"CS","ts":"2015-10-25T11:58:46Z","tX":928,"tY":631,"tags":{"name":"Tin Mine Cove Camping Area"}},"5247951841":{"location":[-38.7304433,146.5381971],"ct":"AU","tp":"CS","ts":"2017-11-25T23:22:49Z","tX":928,"tY":631,"tags":{"name":"Gulf Campsite"}},"5247966874":{"location":[-38.7225482,146.5039465],"ct":"AU","tp":"CS","ts":"2017-11-25T23:48:38Z","tX":928,"tY":631,"tags":{"name":"Swashway Campsite"}}}