{"307251579":{"location":[44.1389701,-90.0021768],"ct":"US","tp":"CS","ts":"2024-10-09T05:37:34Z","tX":255,"tY":371,"tags":{"addr:city":"necedah","addr:housenumber":"W4641","addr:state":"WI","addr:street":"9th Street E,","capacity":"39","charge":"25 USD","fee":"yes","name":"Moonlight Trails Campground"}},"780213601":{"location":[44.2933036,-90.1302316],"ct":"US","tp":"CS","ts":"2021-12-07T21:49:53Z","tX":255,"tY":371,"tags":{"access":"customers","addr:city":"Babcock","addr:housenumber":"1221","addr:postcode":"54413","addr:state":"WI","addr:street":"State Highway 173","addr:unit":"PO Box 88","fee":"yes","name":"Crane Berry Campground","operator":"Crane Berry Campgorund, LLC","payment:american_express":"yes","payment:cash":"yes","payment:credit_cards":"yes","payment:debit_cards":"yes","payment:discover_card":"yes","payment:mastercard":"yes","payment:visa":"yes"}},"11134623187":{"location":[44.1549905,-90.2684242],"ct":"US","tp":"CS","ts":"2024-09-10T22:23:41Z","tX":255,"tY":371,"tags":{"backcountry":"yes","name":"MVWA 6"}},"12168976657":{"location":[44.140447,-90.239046],"ct":"US","tp":"CS","ts":"2024-09-10T22:23:41Z","tX":255,"tY":371,"tags":{"backcountry":"yesbackcountry=yes","name":"Meadow Valley W"}},"12168976674":{"location":[44.1729779,-90.252334],"ct":"US","tp":"CS","ts":"2024-09-10T22:23:41Z","tX":255,"tY":371,"tags":{"backcountry":"yes","name":"MVWA 6"}},"12169339975":{"location":[44.1885898,-90.2913321],"ct":"US","tp":"CS","ts":"2024-09-11T05:33:16Z","tX":255,"tY":371,"tags":{"backcountry":"yes","name":"MVWA 9"}},"12169339976":{"location":[44.21233,-90.3123149],"ct":"US","tp":"CS","ts":"2024-09-11T05:33:16Z","tX":255,"tY":371,"tags":{"backcountry":"yes","name":"MVWA 10"}},"12169339978":{"location":[44.216652,-90.2214302],"ct":"US","tp":"CS","ts":"2024-09-11T05:33:16Z","tX":255,"tY":371,"tags":{"backcountry":"yes","name":"MVWA 3"}},"12169340828":{"location":[44.184036,-90.2245078],"ct":"US","tp":"CS","ts":"2024-09-11T05:33:16Z","tX":255,"tY":371,"tags":{"backcountry":"yes","name":"MVWA 4"}}}