{"279907462":{"location":[43.5963488,-90.225858],"ct":"US","tp":"CS","ts":"2024-01-01T18:26:36Z","tX":255,"tY":373,"tags":{}},"362607380":{"location":[43.657959,-90.2258526],"ct":"US","tp":"CS","ts":"2024-08-13T00:29:00Z","tX":255,"tY":373,"tags":{"caravans":"no","drinking_water":"no","fee":"no","internet_access":"no","name":"Baker's Field Bike Trail Camping","operator":"Village of Wonewoc","power_supply":"no","shower":"no","tents":"yes","toilets":"no","website":"https://www.wonewocwisc.com/camping/"}},"1191907419":{"location":[43.6343069,-90.175659],"ct":"US","tp":"CS","ts":"2023-12-30T19:39:02Z","tX":255,"tY":373,"tags":{"caravans":"yes","fee":"yes","name":"Chapparal Campground","static_caravans":"no","tents":"yes"}},"7124837543":{"location":[43.7296634,-90.2682126],"ct":"US","tp":"CS","ts":"2024-10-21T21:01:48Z","tX":255,"tY":373,"tags":{"addr:city":"Elroy","addr:housenumber":"301","addr:postcode":"53929","addr:state":"WI","addr:street":"South Main Street","fee":"yes","internet_access":"no","name":"E.O. Schultz City Park","phone":"608-462-2400","shower":"yes","toilets":"yes","website":"https://www.elroywi.com/index.asp?SEC=7FC6A0F3-678A-40E2-87E3-0A8381A7750E"}},"7125090226":{"location":[43.7591013,-90.3040684],"ct":"US","tp":"CS","ts":"2020-09-28T07:37:45Z","tX":255,"tY":373,"tags":{"addr:city":"Elroy","addr:state":"WI","camp_site":"basic","drinking_water":"yes","internet_access":"no","name":"ELROY CAMPGROUND","phone":"(608) 337-4775","toilets":"yes"}},"7156095580":{"location":[43.6580776,-90.2197848],"ct":"US","tp":"CS","ts":"2024-10-09T05:37:34Z","tX":255,"tY":373,"tags":{"addr:city":"wonewoc","addr:state":"WI","charge":"25 USD","drinking_water":"yes","fee":"yes","name":"Legion Park Camp Sites","phone":"(608) 464-3114","reservation":"yes","shelter_type":"picnic_shelter","toilets":"yes"}},"7156176780":{"location":[43.6575544,-90.2248495],"ct":"US","tp":"CS","ts":"2020-01-24T11:04:09Z","tX":255,"tY":373,"tags":{"addr:city":"Wonewoc","addr:state":"WI","drinking_water":"yes","fee":"no, for cyclists","name":"Baker's Field","toilets":"yes"}},"12277597791":{"location":[43.7457276,-90.2806467],"ct":"US","tp":"CS","ts":"2024-10-22T00:52:24Z","tX":255,"tY":373,"tags":{"addr:city":"Elroy","addr:state":"WI","addr:street":"Main Street","fee":"yes","name":"DNR Elroy-Sparta Walk-In Site","website":"https://dnr.wisconsin.gov/topic/parks/elroysparta/recreation/camping"}},"11069712324":{"location":[43.632084,-90.174226],"ct":"US","tp":"SD","ts":"2023-07-26T17:08:26Z","tX":255,"tY":373,"tags":{}},"11069712333":{"location":[43.6345231,-90.172889],"ct":"US","tp":"SD","ts":"2023-07-26T17:08:26Z","tX":255,"tY":373,"tags":{}}}