{"8330947":{"location":[50.9072096,-119.4407454],"ct":"CA","tp":"CS","ts":"2018-05-27T03:28:50Z","tX":172,"tY":343,"tags":{"name":"Shuswap Lake Provincial Campground"}},"8943882":{"location":[50.8729093,-119.2686053],"ct":"CA","tp":"CS","ts":"2018-11-15T05:34:39Z","tX":172,"tY":343,"tags":{"name":"Woodhaven Campground","website":"https://woodhavencampground.com/"}},"408867181":{"location":[50.7417704,-119.3176268],"ct":"CA","tp":"CR","ts":"2019-09-13T13:38:33Z","tX":172,"tY":343,"tags":{"addr:city":"Salmon Arm","addr:housenumber":"2569","addr:postcode":"V1E 3A2","addr:street":"Campground Road","capacity":"208","fee":"yes","internet_access":"yes","name":"Pierre's Point Campground","power_supply":"yes","sanitary_dump_station":"yes","website":"http://pierrespointcampground.com"}},"544047780":{"location":[50.7881129,-119.2048336],"ct":"CA","tp":"CS","ts":"2023-10-22T17:59:37Z","tX":172,"tY":343,"tags":{"capacity":"15","email":"parkinquiries@telus.net","fee":"yes","internet_access":"no","name":"Bastion Mountain Campground","operator":"Silvertip Park Services Ltd.","phone":"+1-250-320-9305","sanitary_dump_station":"yes","website":"https://www.env.gov.bc.ca/bcparks/explore/parkpgs/herald/"}},"544047781":{"location":[50.7879463,-119.201569],"ct":"CA","tp":"CS","ts":"2023-10-22T17:58:38Z","tX":172,"tY":343,"tags":{"capacity":"35","email":"parkinquiries@telus.net","fee":"yes","internet_access":"no","name":"Reinecker campground","operator":"Silvertip Park Services Ltd.","phone":"+1-250-320-9305","sanitary_dump_station":"yes","website":"https://www.env.gov.bc.ca/bcparks/explore/parkpgs/herald/"}},"544047782":{"location":[50.7900002,-119.2017369],"ct":"CA","tp":"CS","ts":"2023-10-22T17:59:30Z","tX":172,"tY":343,"tags":{"capacity":"67","email":"parkinquiries@telus.net","fee":"yes","internet_access":"no","name":"Homestead campground","operator":"Silvertip Park Services Ltd.","phone":"+1-250-320-9305","sanitary_dump_station":"yes","website":"https://www.env.gov.bc.ca/bcparks/explore/parkpgs/herald/"}},"545921039":{"location":[50.8764891,-119.3617397],"ct":"CA","tp":"CR","ts":"2017-12-10T21:04:52Z","tX":172,"tY":343,"tags":{}},"3391832199":{"location":[50.784093,-119.4409859],"ct":"CA","tp":"CS","ts":"2015-03-09T23:29:36Z","tX":172,"tY":343,"tags":{}},"4322050289":{"location":[50.7476991,-119.2252338],"ct":"CA","tp":"CS","ts":"2016-07-26T20:54:43Z","tX":172,"tY":343,"tags":{"addr:housenumber":"6670","addr:street":"Trans-Canada Highway","internet_access":"wlan","name":"Campground & RV Park"}},"5644980307":{"location":[50.9042668,-119.4419851],"ct":"CA","tp":"CS","ts":"2018-05-27T02:47:21Z","tX":172,"tY":343,"tags":{"name":"Group Camp"}},"5657271458":{"location":[50.8886486,-119.2573656],"ct":"CA","tp":"CS","ts":"2023-10-22T17:58:56Z","tX":172,"tY":343,"tags":{"capacity":"20","email":"parkinquiries@telus.net","fee":"yes","internet_access":"no","name":"White Lake Campground","operator":"Silvertip Park Services Ltd.","phone":"+1-250-320-9305","website":"https://www.env.gov.bc.ca/bcparks/explore/parkpgs/wht_lk/"}},"6415237186":{"location":[50.7499813,-119.3257457],"ct":"CA","tp":"CS","ts":"2019-04-18T22:12:23Z","tX":172,"tY":343,"tags":{"addr:housenumber":"6871","addr:street":"Trans-Canada Highway","name":"ViewPoint RV Park and Cottages"}}}