{"9820231":{"location":[46.2995432,-119.3833918],"ct":"US","tp":"CR","ts":"2019-07-21T15:21:15Z","tX":172,"tY":363,"tags":{"name":"Red Mountain RV Park"}},"10551988":{"location":[46.3093673,-119.2882136],"ct":"US","tp":"CR","ts":"2020-01-07T02:00:16Z","tX":172,"tY":363,"tags":{"addr:city":"Richland","addr:housenumber":"1963","addr:postcode":"99354","addr:state":"WA","addr:street":"Saint Street","name":"MoonRiver RV Resort"}},"612099134":{"location":[46.2714701,-119.2045176],"ct":"US","tp":"CR","ts":"2024-08-16T16:33:44Z","tX":172,"tY":363,"tags":{"alt_name":"KOA Campground","alt_name_1":"KOA Journey","brand":"KOA","brand:wikidata":"Q16988635","name":"KOA Kampground","short_name":"KOA"}},"684277819":{"location":[46.2314459,-119.2180217],"ct":"US","tp":"CR","ts":"2024-06-21T16:59:50Z","tX":172,"tY":363,"tags":{"addr:housenumber":"7322","addr:postcode":"99336","addr:state":"WA","addr:street":"West Bonnie Avenue","email":"info@tri-citiesrvpark.com","internet_access":"wlan","name":"Tri-Cities RV Park","phone":"+1-509-783-2513","website":"http://tri-citiesrvpark.com"}},"773844944":{"location":[46.2551804,-119.4766693],"ct":"US","tp":"CR","ts":"2024-10-03T19:49:30Z","tX":172,"tY":363,"tags":{}},"1059918327":{"location":[46.2391693,-119.2511556],"ct":"US","tp":"CR","ts":"2022-05-13T16:58:59Z","tX":172,"tY":363,"tags":{"name":"Wright's Desert Gold"}},"1320459421":{"location":[46.2536738,-119.4777423],"ct":"US","tp":"CR","ts":"2024-10-03T19:49:30Z","tX":172,"tY":363,"tags":{}},"1320459438":{"location":[46.2584715,-119.4773832],"ct":"US","tp":"CR","ts":"2024-10-03T19:49:30Z","tX":172,"tY":363,"tags":{}},"1320459442":{"location":[46.2607502,-119.481758],"ct":"US","tp":"CR","ts":"2024-10-03T19:49:30Z","tX":172,"tY":363,"tags":{"name":"Elm Grove RV Park"}},"10734994123":{"location":[46.2621009,-119.248119],"ct":"US","tp":"SD","ts":"2023-03-16T17:25:34Z","tX":172,"tY":363,"tags":{"note":"Water is not to be used for drinking or domestic purposes.","water_point":"no"}}}