{"1202669743":{"location":[40.7736214,-119.1933275],"ct":"US","tp":"CS","ts":"2024-08-13T21:55:39Z","tX":172,"tY":384,"tags":{"backcountry":"yes","caravans":"no","end_date":"2024-09-04","group_only":"no","name":"Walk-In Camping Area","operator":"Black Rock City","reservation":"required","sanitary_dump_station":"no","tents":"yes"}},"1301079242":{"location":[40.775733,-119.1993307],"ct":"US","tp":"CS","ts":"2024-09-30T16:51:20Z","tX":172,"tY":384,"tags":{"addr:street":"4:00 & E","area":"yes","capacity:persons":"400","contact:facebook":"https://facebook.com/groups/AlternativeEnergyZone","end_date":"2024-09-04","name":"Alternative Engergy Zone (AEZ)","website":"https://aezone.wixsite.com/ae-zone"}},"1301079243":{"location":[40.7756248,-119.199797],"ct":"US","tp":"CS","ts":"2024-07-30T08:20:17Z","tX":172,"tY":384,"tags":{"addr:street":"4:00 & E","area":"yes","end_date":"2024-09-04","name":"Bad Advice Wanted (BAW)"}},"1301079244":{"location":[40.7754407,-119.1997658],"ct":"US","tp":"CS","ts":"2024-07-13T13:00:50Z","tX":172,"tY":384,"tags":{"addr:street":"4:00 & F","area":"yes","end_date":"2024-09-04","name":"Sparkadia"}},"1301079245":{"location":[40.775465,-119.1995192],"ct":"US","tp":"CS","ts":"2024-07-13T23:16:17Z","tX":172,"tY":384,"tags":{"addr:street":"3:56 & F","area":"yes","end_date":"2024-09-04","name":"No Bad Ideas In Brainstorming"}},"1301079246":{"location":[40.7755593,-119.199553],"ct":"US","tp":"CS","ts":"2024-07-30T08:20:17Z","tX":172,"tY":384,"tags":{"addr:street":"3:56 & F","end_date":"2024-09-04","name":"Hazard Camp"}},"1301079247":{"location":[40.7752362,-119.198917],"ct":"US","tp":"CS","ts":"2024-08-06T09:42:21Z","tX":172,"tY":384,"tags":{"addr:street":"3:53 & F","end_date":"2024-09-04","name":"LZ Camp"}},"1301079248":{"location":[40.7750878,-119.1997312],"ct":"US","tp":"CS","ts":"2025-05-21T10:43:22Z","tX":172,"tY":384,"tags":{"addr:street":"4:00 & F","area":"yes","end_date":"2024-09-04"}},"1301079249":{"location":[40.7752111,-119.1998382],"ct":"US","tp":"CS","ts":"2024-07-13T13:00:50Z","tX":172,"tY":384,"tags":{"addr:street":"4:00 & F","area":"yes","end_date":"2024-09-04","name":"Serrano Dreams"}},"1301079250":{"location":[40.7752337,-119.1997363],"ct":"US","tp":"CS","ts":"2024-07-13T23:16:17Z","tX":172,"tY":384,"tags":{"addr:street":"3:58 & F","area":"yes","end_date":"2024-09-04","name":"Chromania"}},"1301079251":{"location":[40.7752754,-119.1995655],"ct":"US","tp":"CS","ts":"2024-07-13T23:16:17Z","tX":172,"tY":384,"tags":{"addr:street":"3:57 & F","area":"yes","end_date":"2024-09-04","name":"Burro Camp"}},"1301079252":{"location":[40.7751239,-119.1995682],"ct":"US","tp":"CS","ts":"2024-07-13T23:16:17Z","tX":172,"tY":384,"tags":{"addr:street":"3:58 & F","area":"yes","end_date":"2024-09-04","name":"Camp Conechella"}},"1301079253":{"location":[40.7751928,-119.1994811],"ct":"US","tp":"CS","ts":"2024-07-13T23:16:17Z","tX":172,"tY":384,"tags":{"addr:street":"3:57 & F","area":"yes","end_date":"2024-09-04","name":"Not at Your Age"}},"1301079254":{"location":[40.7751056,-119.1994642],"ct":"US","tp":"CS","ts":"2024-07-13T23:16:17Z","tX":172,"tY":384,"tags":{"addr:street":"3:57 & F","area":"yes","end_date":"2024-09-04","name":"Vets for Peace"}},"1301079255":{"location":[40.7751772,-119.1992674],"ct":"US","tp":"CS","ts":"2024-07-13T23:16:17Z","tX":172,"tY":384,"tags":{"addr:street":"3:55 & F","area":"yes","end_date":"2024-09-04","name":"Goetta Life"}},"1301079256":{"location":[40.775269,-119.1992745],"ct":"US","tp":"CS","ts":"2024-07-13T23:16:17Z","tX":172,"tY":384,"tags":{"addr:street":"3:55 & F","area":"yes","end_date":"2024-09-04","name":"Sensory Delights"}},"1301079257":{"location":[40.775341,-119.1992853],"ct":"US","tp":"CS","ts":"2024-07-13T23:16:17Z","tX":172,"tY":384,"tags":{"addr:street":"3:55 & F","end_date":"2024-09-04","name":"Camp EZ"}},"1301079258":{"location":[40.7752488,-119.1990651],"ct":"US","tp":"CS","ts":"2024-07-13T23:16:17Z","tX":172,"tY":384,"tags":{"addr:street":"3:54 & F","end_date":"2024-09-04","name":"Triple B Bar"}},"1301079259":{"location":[40.7752582,-119.1988318],"ct":"US","tp":"CS","ts":"2024-07-13T23:16:17Z","tX":172,"tY":384,"tags":{"addr:street":"3:52 & F","end_date":"2024-09-04","name":"Camp Dancin'"}},"1301079260":{"location":[40.7753167,-119.1989331],"ct":"US","tp":"CS","ts":"2024-07-13T23:16:17Z","tX":172,"tY":384,"tags":{"addr:street":"3:53 & F","end_date":"2024-09-04","name":"Camp Aum"}},"1301079261":{"location":[40.7753716,-119.198976],"ct":"US","tp":"CS","ts":"2024-07-13T23:16:17Z","tX":172,"tY":384,"tags":{"addr:street":"3:53 & F","end_date":"2024-09-04","name":"Stag-n-vixen"}},"1301079262":{"location":[40.7753911,-119.1991479],"ct":"US","tp":"CS","ts":"2024-07-13T13:00:50Z","tX":172,"tY":384,"tags":{"addr:street":"4:18 & F","end_date":"2024-09-04","name":"Camp Luxielicious"}},"1301079263":{"location":[40.7754278,-119.1990165],"ct":"US","tp":"CS","ts":"2024-07-13T23:16:17Z","tX":172,"tY":384,"tags":{"addr:street":"3:53 & F","end_date":"2024-09-04","name":"Nightlander"}},"1301079264":{"location":[40.7753873,-119.1986109],"ct":"US","tp":"CS","ts":"2024-07-30T08:20:17Z","tX":172,"tY":384,"tags":{"addr:street":"3:50 & F","end_date":"2024-09-04","name":"Asian Fetish Camp"}},"1301079265":{"location":[40.7754499,-119.1988041],"ct":"US","tp":"CS","ts":"2024-07-30T08:20:17Z","tX":172,"tY":384,"tags":{"addr:street":"3:52 & F","end_date":"2024-09-04","name":"The High Five"}},"1301079266":{"location":[40.7756246,-119.1988494],"ct":"US","tp":"CS","ts":"2024-07-13T23:16:17Z","tX":172,"tY":384,"tags":{"addr:street":"3:51 & F","end_date":"2024-09-04","name":"Hoppy Endings Social Club"}},"1301079267":{"location":[40.7756718,-119.1986763],"ct":"US","tp":"CS","ts":"2024-07-13T23:16:17Z","tX":172,"tY":384,"tags":{"addr:street":"3:50 & F","end_date":"2024-09-04","name":"ELECTRIC CARP AND BACON"}},"1301079268":{"location":[40.7756064,-119.1985969],"ct":"US","tp":"CS","ts":"2024-07-30T08:20:17Z","tX":172,"tY":384,"tags":{"addr:street":"3:50 & F","end_date":"2024-09-04","name":"Wüstling"}},"1301079269":{"location":[40.7758169,-119.1988444],"ct":"US","tp":"CS","ts":"2024-07-13T23:16:17Z","tX":172,"tY":384,"tags":{"addr:street":"3:51 & E","end_date":"2024-09-04","name":"Camp Grand Opening"}},"1301079270":{"location":[40.7755295,-119.1991997],"ct":"US","tp":"CS","ts":"2024-08-14T13:33:56Z","tX":172,"tY":384,"tags":{"addr:street":"3:54 & F","end_date":"2024-09-04","name":"Camp Swept Together"}},"1301079271":{"location":[40.7756916,-119.1993357],"ct":"US","tp":"CS","ts":"2024-08-14T13:33:56Z","tX":172,"tY":384,"tags":{"addr:street":"3:55 & E","end_date":"2024-09-04","name":"Diddly Squat Cafe"}},"1301079272":{"location":[40.7756735,-119.1991128],"ct":"US","tp":"CS","ts":"2024-08-14T13:33:56Z","tX":172,"tY":384,"tags":{"addr:street":"3:53 & F","end_date":"2024-09-04","name":"Garden of association cultivation"}},"1301079273":{"location":[40.7757528,-119.1991476],"ct":"US","tp":"CS","ts":"2024-08-14T13:33:56Z","tX":172,"tY":384,"tags":{"addr:street":"3:53 & E","end_date":"2024-09-04","name":"Desert Drifters"}},"1301079274":{"location":[40.7758192,-119.1991746],"ct":"US","tp":"CS","ts":"2024-08-14T13:33:56Z","tX":172,"tY":384,"tags":{"addr:street":"3:53 & E","end_date":"2024-09-04","name":"Ginitalia"}},"1301079275":{"location":[40.7761355,-119.2000532],"ct":"US","tp":"CS","ts":"2024-07-13T13:00:50Z","tX":172,"tY":384,"tags":{"access":"yes","addr:street":"4:00 & E","end_date":"2024-09-04","fee":"no","internet_access":"yes","name":"Alternative Energy Zone (AEZ) Tower and Town Hall","power_supply":"yes"}},"1301079276":{"location":[40.7759335,-119.1999891],"ct":"US","tp":"CS","ts":"2024-07-13T13:00:50Z","tX":172,"tY":384,"tags":{"addr:street":"4:00 & E","area":"yes","end_date":"2024-09-04","name":"Pickle Frontier"}},"1301079277":{"location":[40.7757725,-119.1999464],"ct":"US","tp":"CS","ts":"2024-07-13T13:00:50Z","tX":172,"tY":384,"tags":{"addr:street":"4:00 & E","area":"yes","end_date":"2024-09-04","name":"Desert Rats","nudism":"designated"}},"1301079278":{"location":[40.7758068,-119.1997783],"ct":"US","tp":"CS","ts":"2024-07-13T23:45:12Z","tX":172,"tY":384,"tags":{"addr:street":"3:57 & E","end_date":"2024-09-04","name":"Grateful Dust"}},"1301079279":{"location":[40.7758502,-119.1997118],"ct":"US","tp":"CS","ts":"2024-07-15T03:19:25Z","tX":172,"tY":384,"tags":{"addr:street":"3:57 & E","end_date":"2024-09-04","name":"Camp Circle J"}},"1301079280":{"location":[40.7759571,-119.1997969],"ct":"US","tp":"CS","ts":"2024-07-13T23:16:17Z","tX":172,"tY":384,"tags":{"addr:street":"3:57 & E","end_date":"2024-09-04","name":"Music Haul"}},"1301079281":{"location":[40.7760412,-119.1999012],"ct":"US","tp":"CS","ts":"2024-07-13T23:16:17Z","tX":172,"tY":384,"tags":{"addr:street":"3:57 & E","end_date":"2024-09-04","name":"The Mayor's Camp"}},"1301079282":{"location":[40.7761917,-119.1997679],"ct":"US","tp":"CS","ts":"2024-07-13T23:16:17Z","tX":172,"tY":384,"tags":{"addr:street":"3:56 & E","end_date":"2024-09-04","name":"Primal Oasis"}},"1301079283":{"location":[40.776083,-119.1996108],"ct":"US","tp":"CS","ts":"2024-07-13T23:16:17Z","tX":172,"tY":384,"tags":{"addr:street":"3:55 & E","end_date":"2024-09-04","name":"Tashi Delek"}},"1301079284":{"location":[40.7762225,-119.1995912],"ct":"US","tp":"CS","ts":"2024-07-13T23:16:17Z","tX":172,"tY":384,"tags":{"addr:street":"3:55 & E","end_date":"2024-09-04","name":"EGGO"}},"1301079285":{"location":[40.7762151,-119.1994557],"ct":"US","tp":"CS","ts":"2024-07-13T23:16:17Z","tX":172,"tY":384,"tags":{"addr:street":"3:54 & E","end_date":"2024-09-04","name":"The Wyld Stallyns of Decadence"}},"1301079286":{"location":[40.7762664,-119.1993129],"ct":"US","tp":"CS","ts":"2024-07-13T23:16:17Z","tX":172,"tY":384,"tags":{"addr:street":"3:52 & E","end_date":"2024-09-04","name":"SunTrakker"}},"1301079287":{"location":[40.7760083,-119.1992937],"ct":"US","tp":"CS","ts":"2024-07-13T23:16:17Z","tX":172,"tY":384,"tags":{"addr:street":"3:53 & E","end_date":"2024-09-04","name":"Noble Beasts"}},"1301079288":{"location":[40.7759964,-119.1995472],"ct":"US","tp":"CS","ts":"2024-07-13T23:16:17Z","tX":172,"tY":384,"tags":{"addr:street":"3:55 & E","end_date":"2024-09-04","name":"Camp Starstruck"}},"1301079289":{"location":[40.7758946,-119.1994861],"ct":"US","tp":"CS","ts":"2024-07-13T23:16:17Z","tX":172,"tY":384,"tags":{"addr:street":"3:55 & E","end_date":"2024-09-04","name":"Backup Camp"}},"1301079290":{"location":[40.7762402,-119.1989515],"ct":"US","tp":"CS","ts":"2024-07-13T23:16:17Z","tX":172,"tY":384,"tags":{"addr:street":"3:50 & E","end_date":"2024-09-04","name":"Buttercup"}},"1301079291":{"location":[40.7759846,-119.1990162],"ct":"US","tp":"CS","ts":"2024-07-13T23:16:17Z","tX":172,"tY":384,"tags":{"addr:street":"3:51 & E","end_date":"2024-09-04","name":"Camp Big SKY"}},"1301079292":{"location":[40.7760146,-119.1989128],"ct":"US","tp":"CS","ts":"2024-07-13T23:16:17Z","tX":172,"tY":384,"tags":{"addr:street":"3:51 & E","end_date":"2024-09-04","name":"MeatisGross"}},"1301079293":{"location":[40.7760169,-119.1988093],"ct":"US","tp":"CS","ts":"2024-07-13T23:16:17Z","tX":172,"tY":384,"tags":{"addr:street":"3:50 & E","area":"yes","end_date":"2024-09-04","name":"SUN'S UP"}},"1304601383":{"location":[40.7756203,-119.1995633],"ct":"US","tp":"CS","ts":"2024-07-30T08:20:17Z","tX":172,"tY":384,"tags":{"addr:street":"3:56 & F","end_date":"2024-09-04","name":"JimmyKat Camp"}},"1304601384":{"location":[40.7755052,-119.1987197],"ct":"US","tp":"CS","ts":"2024-07-30T08:20:17Z","tX":172,"tY":384,"tags":{"addr:street":"3:51 & F","end_date":"2024-09-04","name":"Sam and Rob"}},"1304601385":{"location":[40.7755371,-119.1986051],"ct":"US","tp":"CS","ts":"2024-07-30T08:20:17Z","tX":172,"tY":384,"tags":{"addr:street":"3:50 & F","end_date":"2024-09-04","name":"Luca Che'va"}},"12050937134":{"location":[40.7755712,-119.1999976],"ct":"US","tp":"CS","ts":"2024-08-13T10:35:21Z","tX":172,"tY":384,"tags":{"addr:street":"4:00 & E","end_date":"2024-09-04","name":"Bad Advice Wanted (BAW)"}},"12050937135":{"location":[40.7753942,-119.1999263],"ct":"US","tp":"CS","ts":"2024-08-13T10:35:21Z","tX":172,"tY":384,"tags":{"addr:street":"4:00 & F","coffee":"cold brew","cuisine":"coffee_shop","end_date":"2024-09-04","name":"Sparkadia","opening_hours":"Tu 14:00-15:00; Th 18:00-19:00","opening_hours:hairdresser":"Mo-Tu,Fi 14:00-16:00","shop":"hairdresser"}},"12050937136":{"location":[40.7757404,-119.2000586],"ct":"US","tp":"CS","ts":"2024-08-13T10:35:21Z","tX":172,"tY":384,"tags":{"addr:street":"4:00 & E","end_date":"2024-09-04","name":"Desert Rats","nudism":"designated","service:bicycle:clothing":"no","service:bicycle:diy":"yes","service:bicycle:pump":"yes","service:bicycle:repair":"yes","service:bicycle:service":"yes","service:bicycle:tools":"yes","shop":"bicycle"}},"12050937138":{"location":[40.7760644,-119.1998458],"ct":"US","tp":"CS","ts":"2024-08-13T10:35:21Z","tX":172,"tY":384,"tags":{"addr:street":"3:57 & E","end_date":"2024-09-04","name":"The Mayor's Camp"}},"12050937139":{"location":[40.7759749,-119.1997603],"ct":"US","tp":"CS","ts":"2024-08-13T10:35:21Z","tX":172,"tY":384,"tags":{"addr:street":"3:57 & E","end_date":"2024-09-04","name":"Music Haul"}},"12050937140":{"location":[40.7758628,-119.1996752],"ct":"US","tp":"CS","ts":"2024-08-13T10:35:21Z","tX":172,"tY":384,"tags":{"addr:street":"3:57 & E","end_date":"2024-09-04","name":"Camp Circle J"}},"12050937141":{"location":[40.7755664,-119.1995126],"ct":"US","tp":"CS","ts":"2024-08-13T10:35:21Z","tX":172,"tY":384,"tags":{"addr:street":"3:56 & F","end_date":"2024-09-04","name":"Hazard Camp"}},"12050937142":{"location":[40.7754703,-119.1994781],"ct":"US","tp":"CS","ts":"2024-08-13T10:35:21Z","tX":172,"tY":384,"tags":{"addr:street":"3:56 & F","end_date":"2024-09-04","name":"No Bad Ideas In Brainstorming"}},"12050937143":{"location":[40.7756488,-119.1994452],"ct":"US","tp":"CS","ts":"2024-08-13T10:35:21Z","tX":172,"tY":384,"tags":{"addr:street":"3:55 & E","coffee":"yes","cuisine":"coffee_shop","end_date":"2024-09-04","name":"Diddly Squat Cafe","opening_hours":"6:00-11:00"}},"12050937144":{"location":[40.7758676,-119.1995645],"ct":"US","tp":"CS","ts":"2024-08-13T10:35:21Z","tX":172,"tY":384,"tags":{"addr:street":"3:55 & E","end_date":"2024-09-04","name":"Backup Camp"}},"12050937145":{"location":[40.7759711,-119.1996349],"ct":"US","tp":"CS","ts":"2024-08-13T10:35:21Z","tX":172,"tY":384,"tags":{"addr:street":"3:55 & E","end_date":"2024-09-04","name":"Camp Starstruck"}},"12050937146":{"location":[40.776052,-119.1997087],"ct":"US","tp":"CS","ts":"2024-08-13T10:35:21Z","tX":172,"tY":384,"tags":{"addr:street":"3:55 & E","end_date":"2024-09-04","name":"Tashi Delek"}},"12050937147":{"location":[40.7760197,-119.1991831],"ct":"US","tp":"CS","ts":"2024-08-13T10:35:21Z","tX":172,"tY":384,"tags":{"addr:street":"3:53 & E","end_date":"2024-09-04","name":"Noble Beasts"}},"12050937149":{"location":[40.7763267,-119.1995118],"ct":"US","tp":"CS","ts":"2024-08-13T10:35:21Z","tX":172,"tY":384,"tags":{"addr:street":"3:54 & E","end_date":"2024-09-04","name":"The Wyld Stallyns of Decadence"}},"12050937150":{"location":[40.7762931,-119.1996347],"ct":"US","tp":"CS","ts":"2024-10-23T14:52:09Z","tX":172,"tY":384,"tags":{"addr:street":"3:55 & E","cuisine":"pancake","end_date":"2024-09-04","name":"EGGO","opening_hours":"Mo,We,Fr 09:00-11:00","shop":"restaurant"}},"12050937151":{"location":[40.776258,-119.1997868],"ct":"US","tp":"CS","ts":"2024-08-13T10:35:21Z","tX":172,"tY":384,"tags":{"addr:street":"3:56 & E","brewery":"no","end_date":"2024-09-04","name":"Primal Oasis","opening_hours":"Mo-Fr 20:00-21:00; We,Su 12:00-13:00"}},"12050937152":{"location":[40.77645,-119.1990508],"ct":"US","tp":"CS","ts":"2024-08-13T10:35:21Z","tX":172,"tY":384,"tags":{"addr:street":"3:50 & E","drink:tea":"served","end_date":"2024-09-04","food:soup":"served","name":"Buttercup","opening_hours":"We 10:00-12:00; Fr 15:00-16:00","shop":"tea"}},"12050937153":{"location":[40.7759792,-119.1988334],"ct":"US","tp":"CS","ts":"2024-08-13T10:35:21Z","tX":172,"tY":384,"tags":{"addr:street":"3:50 & E","area":"yes","end_date":"2024-09-04","name":"SUN'S UP"}},"12050937154":{"location":[40.7759961,-119.1989059],"ct":"US","tp":"CS","ts":"2024-08-13T10:35:21Z","tX":172,"tY":384,"tags":{"addr:street":"3:51 & E","end_date":"2024-09-04","name":"MeatisGross"}},"12050937155":{"location":[40.7759638,-119.1990639],"ct":"US","tp":"CS","ts":"2024-08-13T10:35:21Z","tX":172,"tY":384,"tags":{"addr:street":"3:51 & E","end_date":"2024-09-04","name":"Camp Big SKY"}},"12050937156":{"location":[40.7757628,-119.1990068],"ct":"US","tp":"CS","ts":"2024-08-13T10:35:21Z","tX":172,"tY":384,"tags":{"addr:street":"3:51 & E","end_date":"2024-09-04","name":"Camp Grand Opening"}},"12050937157":{"location":[40.7756009,-119.1989266],"ct":"US","tp":"CS","ts":"2024-08-13T10:35:21Z","tX":172,"tY":384,"tags":{"addr:street":"3:51 & F","end_date":"2024-09-04","name":"Hoppy Endings Social Club"}},"12050937158":{"location":[40.7754332,-119.1988306],"ct":"US","tp":"CS","ts":"2024-08-13T10:35:21Z","tX":172,"tY":384,"tags":{"addr:street":"3:52 & F","end_date":"2024-09-04","name":"The High Five"}},"12050937159":{"location":[40.7755966,-119.1986211],"ct":"US","tp":"CS","ts":"2024-08-13T10:35:21Z","tX":172,"tY":384,"tags":{"addr:street":"3:50 & F","end_date":"2024-09-04","name":"Wüstling"}},"12050937160":{"location":[40.7756161,-119.1986972],"ct":"US","tp":"CS","ts":"2024-08-13T10:35:21Z","tX":172,"tY":384,"tags":{"addr:street":"3:50 & F","end_date":"2024-09-04","name":"ELECTRIC CARP AND BACON"}},"12050937162":{"location":[40.7752296,-119.1988132],"ct":"US","tp":"CS","ts":"2024-08-13T10:35:21Z","tX":172,"tY":384,"tags":{"addr:street":"3:52 & F","end_date":"2024-09-04","name":"Camp Dancin'"}},"12050937163":{"location":[40.775208,-119.1989011],"ct":"US","tp":"CS","ts":"2024-08-13T10:35:21Z","tX":172,"tY":384,"tags":{"addr:street":"3:53 & F","end_date":"2024-09-04","name":"LZ Camp"}},"12050937164":{"location":[40.7751672,-119.199059],"ct":"US","tp":"CS","ts":"2024-08-13T10:35:21Z","tX":172,"tY":384,"tags":{"addr:street":"3:54 & F","alt_name":"BBB","cuisine":"bacon;beignet;bourbon","end_date":"2024-09-04","name":"Triple B Bar","official_name":"Bacon, Beignet & Bourbon","opening_hours":"Mo-Fr 10:00-12:00","shop":"restaurant"}},"12050937165":{"location":[40.7751178,-119.1992648],"ct":"US","tp":"CS","ts":"2024-08-13T10:35:21Z","tX":172,"tY":384,"tags":{"addr:street":"3:55 & F","amenity:restaurant":"yes","area":"yes","cuisine":"goetta patties","end_date":"2024-09-04","fast_food":"cafeteria","name":"Goetta Life","service:bicycle:chain_tool":"yes","service:bicycle:cleaning":"yes","service:bicycle:oil":"yes","service:bicycle:repair":"no","shop":"bicycle"}},"12050937166":{"location":[40.775072,-119.1994539],"ct":"US","tp":"CS","ts":"2024-08-13T10:35:21Z","tX":172,"tY":384,"tags":{"addr:street":"3:57 & F","end_date":"2024-09-04","name":"Vets for Peace"}},"12050937168":{"location":[40.7750456,-119.1998214],"ct":"US","tp":"CS","ts":"2025-05-21T10:43:22Z","tX":172,"tY":384,"tags":{"addr:street":"4:00 & F","end_date":"2024-09-04"}},"12050937169":{"location":[40.7751865,-119.1998654],"ct":"US","tp":"CS","ts":"2024-08-13T10:35:21Z","tX":172,"tY":384,"tags":{"addr:street":"4:00 & F","end_date":"2024-09-04","name":"Serrano Dreams"}},"12050937170":{"location":[40.7752576,-119.1997538],"ct":"US","tp":"CS","ts":"2024-08-13T10:35:21Z","tX":172,"tY":384,"tags":{"addr:street":"3:58 & F","end_date":"2024-09-04","name":"Chromania"}},"12050937171":{"location":[40.7752923,-119.1994462],"ct":"US","tp":"CS","ts":"2024-08-13T10:35:21Z","tX":172,"tY":384,"tags":{"addr:street":"3:57 & F","end_date":"2024-09-04","name":"Burro Camp"}},"12050937172":{"location":[40.7751881,-119.1994322],"ct":"US","tp":"CS","ts":"2024-08-13T10:35:21Z","tX":172,"tY":384,"tags":{"addr:street":"3:57 & F","end_date":"2024-09-04","name":"Not at Your Age"}},"12050937173":{"location":[40.7752537,-119.1993438],"ct":"US","tp":"CS","ts":"2024-08-13T10:35:21Z","tX":172,"tY":384,"tags":{"addr:street":"3:55 & F","area":"yes","end_date":"2024-09-04","name":"Sensory Delights"}},"12050937174":{"location":[40.7753133,-119.1993431],"ct":"US","tp":"CS","ts":"2024-08-13T10:35:21Z","tX":172,"tY":384,"tags":{"addr:street":"3:55 & F","end_date":"2024-09-04","name":"Camp EZ"}},"12050937175":{"location":[40.7754813,-119.1992068],"ct":"US","tp":"CS","ts":"2024-08-13T10:35:21Z","tX":172,"tY":384,"tags":{"addr:street":"3:54 & F","end_date":"2024-09-04","name":"Camp Swept Together"}},"12050937176":{"location":[40.7754063,-119.1991733],"ct":"US","tp":"CS","ts":"2024-08-13T10:35:21Z","tX":172,"tY":384,"tags":{"addr:street":"3:54 & F","end_date":"2024-09-04","name":"Camp Luxielicious"}},"12050937177":{"location":[40.7754375,-119.1989492],"ct":"US","tp":"CS","ts":"2024-08-13T10:35:21Z","tX":172,"tY":384,"tags":{"addr:street":"3:53 & F","end_date":"2024-09-04","name":"Nightlander"}},"12050937178":{"location":[40.7753823,-119.1989095],"ct":"US","tp":"CS","ts":"2024-08-13T10:35:21Z","tX":172,"tY":384,"tags":{"addr:street":"3:53 & F","end_date":"2024-09-04","name":"Stag-n-vixen"}},"12050937179":{"location":[40.7753202,-119.1988625],"ct":"US","tp":"CS","ts":"2024-08-13T10:35:21Z","tX":172,"tY":384,"tags":{"addr:street":"3:53 & F","end_date":"2024-09-04","name":"Camp Aum"}},"12050937180":{"location":[40.77568,-119.1990687],"ct":"US","tp":"CS","ts":"2024-08-13T10:35:21Z","tX":172,"tY":384,"tags":{"addr:street":"3:53 & F","end_date":"2024-09-04","name":"Garden of association cultivation"}},"12050937181":{"location":[40.7757604,-119.1991023],"ct":"US","tp":"CS","ts":"2024-08-13T10:35:21Z","tX":172,"tY":384,"tags":{"addr:street":"3:53 & E","end_date":"2024-09-04","name":"Desert Drifters"}},"12050937182":{"location":[40.775828,-119.1991264],"ct":"US","tp":"CS","ts":"2024-08-13T10:35:21Z","tX":172,"tY":384,"tags":{"addr:street":"3:53 & E","end_date":"2024-09-04","name":"Ginitalia"}},"12050937183":{"location":[40.7757756,-119.199773],"ct":"US","tp":"CS","ts":"2024-08-13T10:35:21Z","tX":172,"tY":384,"tags":{"addr:street":"3:57 & E","end_date":"2024-09-04","name":"Grateful Dust"}},"12050937184":{"location":[40.7761538,-119.2001941],"ct":"US","tp":"CS","ts":"2024-08-13T10:35:21Z","tX":172,"tY":384,"tags":{"addr:street":"4:00 & E","end_date":"2024-09-04","name":"Alternative Energy Zone (AEZ)"}},"12082505972":{"location":[40.7755228,-119.1987341],"ct":"US","tp":"CS","ts":"2024-08-13T10:35:21Z","tX":172,"tY":384,"tags":{"addr:street":"3:51 & F","end_date":"2024-09-04","name":"Sam and Rob"}},"12082505973":{"location":[40.7755436,-119.1986618],"ct":"US","tp":"CS","ts":"2024-08-13T10:35:21Z","tX":172,"tY":384,"tags":{"addr:street":"3:50 & F","end_date":"2024-09-04","name":"Luca Che'va"}},"12082505974":{"location":[40.7756228,-119.1995375],"ct":"US","tp":"CS","ts":"2024-08-13T10:35:21Z","tX":172,"tY":384,"tags":{"addr:street":"3:56 & F","end_date":"2024-09-04","name":"JimmyKat Camp"}},"12109309437":{"location":[40.7802815,-119.208498],"ct":"US","tp":"CS","ts":"2024-08-14T11:08:32Z","tX":172,"tY":384,"tags":{"addr:street":"5:25 & Esplanade","end_date":"2024-09-04","name":"HEaT (Heavy Equipment and Transpo)"}},"12109309460":{"location":[40.7776376,-119.2107667],"ct":"US","tp":"CS","ts":"2024-08-14T11:08:32Z","tX":172,"tY":384,"tags":{"addr:street":"5:30 & D","end_date":"2024-09-04","name":"Yellow Bike Project"}},"12109309464":{"location":[40.7830559,-119.2121785],"ct":"US","tp":"CS","ts":"2024-08-14T11:08:32Z","tX":172,"tY":384,"tags":{"end_date":"2024-09-04","name":"Media Mecca","office":"press","opening_hours":"10:00-17:00"}},"12109309470":{"location":[40.7799053,-119.1951911],"ct":"US","tp":"CS","ts":"2024-08-14T11:08:32Z","tX":172,"tY":384,"tags":{"addr:street":"3:03 & C","description":"Burning Man Camp for ESD and Black Rock City Volunteer Fire Department","end_date":"2024-09-04","name":"Fire Camp, Station 3"}},"12110312715":{"location":[40.7811476,-119.2184581],"ct":"US","tp":"CS","ts":"2024-08-14T12:32:20Z","tX":172,"tY":384,"tags":{"end_date":"2024-09-04","lgbtq":"welcome","name":"Banana Hammocks","source:lgbtq":"https://blog.queerburners.org/wp-content/uploads/2024/08/queerevents2024.pdf"}},"12110312716":{"location":[40.7818338,-119.218902],"ct":"US","tp":"CS","ts":"2024-08-14T12:32:20Z","tX":172,"tY":384,"tags":{"end_date":"2024-09-04","lgbtq":"welcome","name":"Mary's Little Lambs","source:lgbtq":"https://blog.queerburners.org/wp-content/uploads/2024/08/queerevents2024.pdf"}},"12110312717":{"location":[40.7828956,-119.2168725],"ct":"US","tp":"CS","ts":"2024-08-14T12:32:20Z","tX":172,"tY":384,"tags":{"end_date":"2024-09-04","lgbtq":"welcome","name":"Space Racers","source:lgbtq":"https://blog.queerburners.org/wp-content/uploads/2024/08/queerevents2024.pdf"}},"12110312718":{"location":[40.7832201,-119.2166359],"ct":"US","tp":"CS","ts":"2024-08-14T12:32:20Z","tX":172,"tY":384,"tags":{"end_date":"2024-09-04","lgbtq":"welcome","name":"Astral Social","source:lgbtq":"https://blog.queerburners.org/wp-content/uploads/2024/08/queerevents2024.pdf"}},"12110312719":{"location":[40.7841138,-119.2173369],"ct":"US","tp":"CS","ts":"2024-08-14T12:32:20Z","tX":172,"tY":384,"tags":{"end_date":"2024-09-04","lgbtq":"welcome","name":"Land of Monkey","source:lgbtq":"https://blog.queerburners.org/wp-content/uploads/2024/08/queerevents2024.pdf"}},"12110312720":{"location":[40.7836503,-119.2161102],"ct":"US","tp":"CS","ts":"2024-08-14T12:32:20Z","tX":172,"tY":384,"tags":{"end_date":"2024-09-04","lgbtq":"welcome","name":"Astro Cats","source:lgbtq":"https://blog.queerburners.org/wp-content/uploads/2024/08/queerevents2024.pdf"}},"12110312721":{"location":[40.7836818,-119.2150778],"ct":"US","tp":"CS","ts":"2024-08-14T12:32:20Z","tX":172,"tY":384,"tags":{"end_date":"2024-09-04","lgbtq":"welcome","name":"Fantastic Sams","source:lgbtq":"https://blog.queerburners.org/wp-content/uploads/2024/08/queerevents2024.pdf"}},"12110312722":{"location":[40.7852906,-119.2174027],"ct":"US","tp":"CS","ts":"2024-08-14T12:32:20Z","tX":172,"tY":384,"tags":{"end_date":"2024-09-04","lgbtq":"welcome","name":"Camp Be Bothered","source:lgbtq":"https://blog.queerburners.org/wp-content/uploads/2024/08/queerevents2024.pdf"}},"12110312723":{"location":[40.7853587,-119.2167404],"ct":"US","tp":"CS","ts":"2024-08-14T12:32:20Z","tX":172,"tY":384,"tags":{"end_date":"2024-09-04","lgbtq":"welcome","name":"fruitPOP","source:lgbtq":"https://blog.queerburners.org/wp-content/uploads/2024/08/queerevents2024.pdf"}},"12110312724":{"location":[40.7847909,-119.2154699],"ct":"US","tp":"CS","ts":"2024-08-14T12:32:20Z","tX":172,"tY":384,"tags":{"end_date":"2024-09-04","lgbtq":"welcome","name":"Suspended Animation","source:lgbtq":"https://blog.queerburners.org/wp-content/uploads/2024/08/queerevents2024.pdf"}},"12110312725":{"location":[40.7836519,-119.2207765],"ct":"US","tp":"CS","ts":"2024-08-14T12:32:20Z","tX":172,"tY":384,"tags":{"end_date":"2024-09-04","lgbtq":"welcome","name":"Gymnasium","source:lgbtq":"https://blog.queerburners.org/wp-content/uploads/2024/08/queerevents2024.pdf"}},"12110312726":{"location":[40.7837222,-119.220457],"ct":"US","tp":"CS","ts":"2024-08-14T12:32:20Z","tX":172,"tY":384,"tags":{"end_date":"2024-09-04","lgbtq":"welcome","name":"Queertirement","source:lgbtq":"https://blog.queerburners.org/wp-content/uploads/2024/08/queerevents2024.pdf"}},"12110312727":{"location":[40.783794,-119.2201376],"ct":"US","tp":"CS","ts":"2024-08-14T12:32:20Z","tX":172,"tY":384,"tags":{"end_date":"2024-09-04","lgbtq":"welcome","name":"Future Turtles","source:lgbtq":"https://blog.queerburners.org/wp-content/uploads/2024/08/queerevents2024.pdf"}},"12110312728":{"location":[40.7841824,-119.2202494],"ct":"US","tp":"CS","ts":"2024-08-14T12:32:20Z","tX":172,"tY":384,"tags":{"end_date":"2024-09-04","lgbtq":"welcome","name":"Gender Blender","source:lgbtq":"https://blog.queerburners.org/wp-content/uploads/2024/08/queerevents2024.pdf"}},"12110312729":{"location":[40.7839331,-119.2208753],"ct":"US","tp":"CS","ts":"2024-08-14T12:32:20Z","tX":172,"tY":384,"tags":{"end_date":"2024-09-04","lgbtq":"welcome","name":"Paradise Motel","source:lgbtq":"https://blog.queerburners.org/wp-content/uploads/2024/08/queerevents2024.pdf"}},"12110312730":{"location":[40.7843895,-119.220994],"ct":"US","tp":"CS","ts":"2024-08-14T12:32:20Z","tX":172,"tY":384,"tags":{"end_date":"2024-09-04","lgbtq":"welcome","name":"8-bit Bunny","source:lgbtq":"https://blog.queerburners.org/wp-content/uploads/2024/08/queerevents2024.pdf"}},"12110312731":{"location":[40.7845181,-119.2200494],"ct":"US","tp":"CS","ts":"2024-08-14T12:32:20Z","tX":172,"tY":384,"tags":{"end_date":"2024-09-04","lgbtq":"welcome","name":"Beavertom","source:lgbtq":"https://blog.queerburners.org/wp-content/uploads/2024/08/queerevents2024.pdf"}},"12110312732":{"location":[40.7823504,-119.2191649],"ct":"US","tp":"CS","ts":"2024-08-14T12:32:20Z","tX":172,"tY":384,"tags":{"end_date":"2024-09-04","lgbtq":"welcome","name":"Pink Ponies","source:lgbtq":"https://blog.queerburners.org/wp-content/uploads/2024/08/queerevents2024.pdf"}},"12110312733":{"location":[40.7851241,-119.2204842],"ct":"US","tp":"CS","ts":"2024-08-14T12:32:20Z","tX":172,"tY":384,"tags":{"end_date":"2024-09-04","lgbtq":"welcome","name":"CouchBurners","source:lgbtq":"https://blog.queerburners.org/wp-content/uploads/2024/08/queerevents2024.pdf"}},"12110312734":{"location":[40.7853332,-119.2201832],"ct":"US","tp":"CS","ts":"2024-08-14T12:32:20Z","tX":172,"tY":384,"tags":{"end_date":"2024-09-04","lgbtq":"welcome","name":"Sandy Taco","source:lgbtq":"https://blog.queerburners.org/wp-content/uploads/2024/08/queerevents2024.pdf"}},"12110312735":{"location":[40.7854298,-119.2206567],"ct":"US","tp":"CS","ts":"2024-08-14T12:32:20Z","tX":172,"tY":384,"tags":{"end_date":"2024-09-04","lgbtq":"welcome","name":"Yes Please","source:lgbtq":"https://blog.queerburners.org/wp-content/uploads/2024/08/queerevents2024.pdf"}},"12110312736":{"location":[40.7855101,-119.2212899],"ct":"US","tp":"CS","ts":"2024-08-14T12:32:20Z","tX":172,"tY":384,"tags":{"end_date":"2024-09-04","lgbtq":"welcome","name":"Womxn Sex-positive","source:lgbtq":"https://blog.queerburners.org/wp-content/uploads/2024/08/queerevents2024.pdf"}},"12110312737":{"location":[40.7859812,-119.2206317],"ct":"US","tp":"CS","ts":"2024-08-14T12:32:20Z","tX":172,"tY":384,"tags":{"end_date":"2024-09-04","lgbtq":"welcome","name":"Down Low Club","source:lgbtq":"https://blog.queerburners.org/wp-content/uploads/2024/08/queerevents2024.pdf"}},"12110312738":{"location":[40.7867865,-119.2206249],"ct":"US","tp":"CS","ts":"2024-08-14T12:32:20Z","tX":172,"tY":384,"tags":{"end_date":"2024-09-04","lgbtq":"welcome","name":"Pretty Pickle","source:lgbtq":"https://blog.queerburners.org/wp-content/uploads/2024/08/queerevents2024.pdf"}},"12110312739":{"location":[40.7866871,-119.2212402],"ct":"US","tp":"CS","ts":"2024-08-14T12:32:20Z","tX":172,"tY":384,"tags":{"end_date":"2024-09-04","lgbtq":"welcome","name":"No Holes Barred","source:lgbtq":"https://blog.queerburners.org/wp-content/uploads/2024/08/queerevents2024.pdf"}},"12110312740":{"location":[40.7866648,-119.2217949],"ct":"US","tp":"CS","ts":"2024-08-14T12:32:20Z","tX":172,"tY":384,"tags":{"end_date":"2024-09-04","lgbtq":"welcome","name":"Celestial Bodies","source:lgbtq":"https://blog.queerburners.org/wp-content/uploads/2024/08/queerevents2024.pdf"}},"12110312741":{"location":[40.7871258,-119.2191477],"ct":"US","tp":"CS","ts":"2024-08-14T12:32:20Z","tX":172,"tY":384,"tags":{"end_date":"2024-09-04","lgbtq":"primary","name":"GLAMCOCKS","source:lgbtq":"https://blog.queerburners.org/wp-content/uploads/2024/08/queerevents2024.pdf"}},"12110312742":{"location":[40.7875149,-119.2202734],"ct":"US","tp":"CS","ts":"2024-08-14T12:32:20Z","tX":172,"tY":384,"tags":{"end_date":"2024-09-04","lgbtq":"welcome","name":"Serpent Moon","source:lgbtq":"https://blog.queerburners.org/wp-content/uploads/2024/08/queerevents2024.pdf"}},"12110312743":{"location":[40.787089,-119.2186057],"ct":"US","tp":"CS","ts":"2024-08-14T12:32:20Z","tX":172,"tY":384,"tags":{"end_date":"2024-09-04","lgbtq":"welcome","name":"Fermented Reality","source:lgbtq":"https://blog.queerburners.org/wp-content/uploads/2024/08/queerevents2024.pdf"}},"12110312744":{"location":[40.7877847,-119.2185251],"ct":"US","tp":"CS","ts":"2024-08-14T12:32:20Z","tX":172,"tY":384,"tags":{"end_date":"2024-09-04","lgbtq":"welcome","name":"BRC Municipal Pool","source:lgbtq":"https://blog.queerburners.org/wp-content/uploads/2024/08/queerevents2024.pdf"}},"12110312745":{"location":[40.7881758,-119.2174319],"ct":"US","tp":"CS","ts":"2024-08-14T12:32:20Z","tX":172,"tY":384,"tags":{"end_date":"2024-09-04","lgbtq":"welcome","name":"qt pies","source:lgbtq":"https://blog.queerburners.org/wp-content/uploads/2024/08/queerevents2024.pdf"}},"12110312746":{"location":[40.7872493,-119.2160077],"ct":"US","tp":"CS","ts":"2024-08-14T12:32:20Z","tX":172,"tY":384,"tags":{"end_date":"2024-09-04","lgbtq":"welcome","name":"Patsy's Hangout","source:lgbtq":"https://blog.queerburners.org/wp-content/uploads/2024/08/queerevents2024.pdf"}},"12110312747":{"location":[40.789524,-119.2174753],"ct":"US","tp":"CS","ts":"2024-08-14T12:32:20Z","tX":172,"tY":384,"tags":{"end_date":"2024-09-04","lgbtq":"welcome","name":"Bubble Lounge","source:lgbtq":"https://blog.queerburners.org/wp-content/uploads/2024/08/queerevents2024.pdf"}},"12110312748":{"location":[40.7841635,-119.2184696],"ct":"US","tp":"CS","ts":"2024-08-14T12:32:20Z","tX":172,"tY":384,"tags":{"end_date":"2024-09-04","lgbtq":"welcome","name":"Orgy Dome","source:lgbtq":"https://blog.queerburners.org/wp-content/uploads/2024/08/queerevents2024.pdf"}},"12110312749":{"location":[40.7799715,-119.2135957],"ct":"US","tp":"CS","ts":"2024-08-14T12:32:20Z","tX":172,"tY":384,"tags":{"end_date":"2024-09-04","lgbtq":"welcome","name":"Xpat Alien","source:lgbtq":"https://blog.queerburners.org/wp-content/uploads/2024/08/queerevents2024.pdf"}},"12110312750":{"location":[40.7756857,-119.2067086],"ct":"US","tp":"CS","ts":"2024-08-14T12:32:20Z","tX":172,"tY":384,"tags":{"end_date":"2024-09-04","lgbtq":"welcome","name":"Home Sweet Dome","source:lgbtq":"https://blog.queerburners.org/wp-content/uploads/2024/08/queerevents2024.pdf"}},"12110312751":{"location":[40.7764527,-119.2060387],"ct":"US","tp":"CS","ts":"2024-08-14T12:32:20Z","tX":172,"tY":384,"tags":{"end_date":"2024-09-04","lgbtq":"welcome","name":"Glow Job","source:lgbtq":"https://blog.queerburners.org/wp-content/uploads/2024/08/queerevents2024.pdf"}},"12110312752":{"location":[40.7759556,-119.2052018],"ct":"US","tp":"CS","ts":"2024-08-14T12:32:20Z","tX":172,"tY":384,"tags":{"end_date":"2024-09-04","lgbtq":"welcome","name":"Astropup","source:lgbtq":"https://blog.queerburners.org/wp-content/uploads/2024/08/queerevents2024.pdf"}},"12110312753":{"location":[40.7746734,-119.2044693],"ct":"US","tp":"CS","ts":"2024-08-14T12:32:20Z","tX":172,"tY":384,"tags":{"end_date":"2024-09-04","lgbtq":"welcome","name":"Burner Buddies","source:lgbtq":"https://blog.queerburners.org/wp-content/uploads/2024/08/queerevents2024.pdf"}},"12110312754":{"location":[40.7762344,-119.2043264],"ct":"US","tp":"CS","ts":"2024-08-14T12:32:20Z","tX":172,"tY":384,"tags":{"end_date":"2024-09-04","lgbtq":"welcome","name":"BAAHS","source:lgbtq":"https://blog.queerburners.org/wp-content/uploads/2024/08/queerevents2024.pdf"}},"12110312755":{"location":[40.7783396,-119.2037797],"ct":"US","tp":"CS","ts":"2024-08-14T12:32:20Z","tX":172,"tY":384,"tags":{"end_date":"2024-09-04","lgbtq":"welcome","name":"Bad Astronauts","source:lgbtq":"https://blog.queerburners.org/wp-content/uploads/2024/08/queerevents2024.pdf"}},"12110312756":{"location":[40.7767762,-119.2050215],"ct":"US","tp":"CS","ts":"2024-08-14T12:32:20Z","tX":172,"tY":384,"tags":{"end_date":"2024-09-04","lgbtq":"welcome","name":"Burning My Crepe","source:lgbtq":"https://blog.queerburners.org/wp-content/uploads/2024/08/queerevents2024.pdf"}},"12110312757":{"location":[40.7788803,-119.2175984],"ct":"US","tp":"CS","ts":"2024-08-14T12:32:20Z","tX":172,"tY":384,"tags":{"end_date":"2024-09-04","lgbtq":"welcome","name":"Alice in Slumberland","source:lgbtq":"https://blog.queerburners.org/wp-content/uploads/2024/08/queerevents2024.pdf"}},"12110312758":{"location":[40.7797875,-119.2176815],"ct":"US","tp":"CS","ts":"2024-08-14T12:32:20Z","tX":172,"tY":384,"tags":{"end_date":"2024-09-04","lgbtq":"welcome","name":"Hobo Camp","source:lgbtq":"https://blog.queerburners.org/wp-content/uploads/2024/08/queerevents2024.pdf"}},"12110312759":{"location":[40.7921984,-119.2153125],"ct":"US","tp":"CS","ts":"2024-08-14T12:32:20Z","tX":172,"tY":384,"tags":{"end_date":"2024-09-04","lgbtq":"welcome","name":"Stardust Lounge","source:lgbtq":"https://blog.queerburners.org/wp-content/uploads/2024/08/queerevents2024.pdf"}},"12110312760":{"location":[40.7932254,-119.2150418],"ct":"US","tp":"CS","ts":"2024-08-14T12:32:20Z","tX":172,"tY":384,"tags":{"end_date":"2024-09-04","lgbtq":"welcome","name":"Burning Ship","source:lgbtq":"https://blog.queerburners.org/wp-content/uploads/2024/08/queerevents2024.pdf"}},"12110312761":{"location":[40.7963634,-119.2159271],"ct":"US","tp":"CS","ts":"2024-08-14T12:32:20Z","tX":172,"tY":384,"tags":{"end_date":"2024-09-04","lgbtq":"welcome","name":"Dolly Llamas","source:lgbtq":"https://blog.queerburners.org/wp-content/uploads/2024/08/queerevents2024.pdf"}},"12110312762":{"location":[40.7834716,-119.1931363],"ct":"US","tp":"CS","ts":"2024-08-14T12:32:20Z","tX":172,"tY":384,"tags":{"end_date":"2024-09-04","lgbtq":"welcome","name":"Pigmalions","source:lgbtq":"https://blog.queerburners.org/wp-content/uploads/2024/08/queerevents2024.pdf"}},"12110312763":{"location":[40.78046,-119.2007418],"ct":"US","tp":"CS","ts":"2024-08-14T12:32:20Z","tX":172,"tY":384,"tags":{"end_date":"2024-09-04","lgbtq":"welcome","name":"Olympus","source:lgbtq":"https://blog.queerburners.org/wp-content/uploads/2024/08/queerevents2024.pdf"}},"12120731556":{"location":[40.7830622,-119.2164789],"ct":"US","tp":"CS","ts":"2024-08-19T17:46:12Z","tX":172,"tY":384,"tags":{"name":"Snacklandia"}}}