{"1068339825":{"location":[38.5520992,-119.5033587],"ct":"US","tp":"CR","ts":"2022-09-13T18:38:43Z","tX":172,"tY":392,"tags":{"addr:city":"Coleville","addr:housenumber":"110437","addr:postcode":"96107","addr:state":"CA","addr:street":"US Highway 395","brand":"KOA","brand:wikidata":"Q16988635","internet_access":"wlan","internet_access:fee":"customers","name":"KOA Holiday","phone":"+1 (530) 495-2255","power_supply":"yes","sanitary_dump_station":"yes","short_name":"KOA","website":"https://koa.com/campgrounds/coleville/general-information/"}},"2333791778":{"location":[38.6210182,-119.3401874],"ct":"US","tp":"CS","ts":"2019-02-17T00:42:40Z","tX":172,"tY":392,"tags":{"name":"Desert Creek Campground","operator":"United States Forest Service","source":"www.fs.usda.gov","uuid":"sonora_20130605","website":"https://www.fs.usda.gov/recarea/htnf/recarea/?recid=65284"}},"4726985987":{"location":[38.6958371,-119.5193024],"ct":"US","tp":"CR","ts":"2017-03-10T01:47:50Z","tX":172,"tY":392,"tags":{"name":"Topaz Lake Park"}}}