{"24601835":{"location":[37.7329511,-119.5145267],"ct":"US","tp":"CS","ts":"2021-06-17T22:14:46Z","tX":172,"tY":395,"tags":{"backcountry":"yes","name":"Little Yosemite Valley Campground","reservation":"no","tents":"yes","wikidata":"Q63718034"}},"42486312":{"location":[37.9450942,-119.2020849],"ct":"US","tp":"CS","ts":"2021-10-12T13:38:00Z","tX":172,"tY":395,"tags":{"attribution":"Mono County GIS","capacity":"17","fee":"yes","name":"Big Bend Campground","reservation":"no","website":"https://www.fs.usda.gov/recarea/inyo/recarea/?recid=20608"}},"42486313":{"location":[37.9395358,-119.1880529],"ct":"US","tp":"CS","ts":"2021-10-12T13:38:00Z","tX":172,"tY":395,"tags":{"addr:street":"Poole Power Plant Road","attribution":"Mono County GIS","capacity":"45","fee":"yes","name":"Aspen Grove Campground","operator":"Inyo National Forest","reservation":"no","website":"https://www.fs.usda.gov/recarea/inyo/recarea/?recid=20636"}},"42486334":{"location":[37.9578399,-119.2704811],"ct":"US","tp":"CS","ts":"2018-09-24T03:54:46Z","tX":172,"tY":395,"tags":{"addr:street":"Saddlebag Lake","area":"yes","attribution":"Mono County GIS","name":"Sawmill Walk-in Campground","operator":"United States Forest Service","website":"https://www.fs.usda.gov/recarea/inyo/recarea/?recid=20610"}},"42486347":{"location":[37.9647088,-119.2707947],"ct":"US","tp":"CS","ts":"2020-08-04T07:19:40Z","tX":172,"tY":395,"tags":{"attribution":"Mono County GIS","name":"Saddlebag Lake Campground"}},"42486354":{"location":[37.9378463,-119.251155],"ct":"US","tp":"CS","ts":"2021-08-23T14:53:05Z","tX":172,"tY":395,"tags":{"capacity":"13","fee":"yes","name":"Junction Campground","reservation":"no","website":"https://www.fs.usda.gov/recarea/inyo/recarea/?recid=20616"}},"42486373":{"location":[37.9377052,-119.2443765],"ct":"US","tp":"CS","ts":"2024-06-30T20:58:28Z","tX":172,"tY":395,"tags":{"access":"yes","addr:street":"Tioga Pass Road","attribution":"Mono County GIS","backcountry":"no","capacity":"12","caravans":"yes","charge":"26 USD","drinking_water":"yes","ele":"2843","fee":"yes","internet_access":"no","name":"Ellery Campground","nudism":"no","operator":"Vista Recreation","power_supply":"no","reservation":"no","source":"collected by Volker Bartheld, converted and imported by malenki","static_caravans":"no","tents":"yes","toilets":"yes","website":"https://www.fs.usda.gov/recarea/inyo/recarea/?recid=20614"}},"42486403":{"location":[37.9643099,-119.2724375],"ct":"US","tp":"CS","ts":"2021-03-18T20:04:21Z","tX":172,"tY":395,"tags":{"addr:street":"Saddlebag Lake","attribution":"Mono County GIS","group_only":"yes","name":"Trailhead Group Campground"}},"209269626":{"location":[37.9275582,-119.2551265],"ct":"US","tp":"CS","ts":"2024-02-09T14:36:38Z","tX":172,"tY":395,"tags":{"addr:street":"CA 120","attribution":"Mono County GIS","capacity":"13","fee":"yes","name":"Tioga Lake Campground","reservation":"no"}},"227463321":{"location":[37.8721532,-119.3571582],"ct":"US","tp":"CS","ts":"2023-07-15T15:16:02Z","tX":172,"tY":395,"tags":{"access":"no","access:temporary":"yes","addr:city":"Yosemite Valley","addr:postcode":"95389","addr:state":"CA","addr:street":"Tioga Pass Road","description":"NPS campground, undergoing rehabilitation. Closed to all traffic, closed to the public. No camping, no through fare.","name":"Tuolumne Meadows Campground","note":"Closed for construction until 2024","operator":"National Park Service","wikidata":"Q63707340"}},"864674168":{"location":[37.7406208,-119.4070396],"ct":"US","tp":"CS","ts":"2020-10-28T15:27:28Z","tX":172,"tY":395,"tags":{"backcountry":"yes","drinking_water":"yes","name":"Merced Lake Backpacker Camp","reservation":"no","tents":"yes","toilets":"yes"}},"864674169":{"location":[37.7391212,-119.4068385],"ct":"US","tp":"CS","ts":"2023-07-15T15:16:05Z","tX":172,"tY":395,"tags":{"backcountry":"yes","drinking_water":"yes","gnis:feature_id":"1652845","name":"Merced Lake High Sierra Camp","operator":"DNC","reservation":"required","seasonal":"yes","smoking":"yes","toilets":"yes","toilets:disposal":"flush","website":"https://www.travelyosemite.com/lodging/high-sierra-camps/#merced-lake","wikidata":"Q63713972","wikipedia":"en:High Sierra Camps#Merced Lake High Sierra Camp"}},"864677031":{"location":[37.7952213,-119.3451812],"ct":"US","tp":"CS","ts":"2023-07-15T15:16:03Z","tX":172,"tY":395,"tags":{"backcountry":"yes","drinking_water":"yes","name":"Vogelsang High Sierra Camp","operator":"DNC","seasonal":"yes","source":"survey:2014-07-24","toilets":"yes","website":"http://www.yosemitepark.com/Vogelsang-High-Sierra-Camp.aspx","wikidata":"Q63709635","wikipedia":"en:High Sierra Camps#Vogelsang High Sierra Camp"}},"915665683":{"location":[37.7941414,-119.4332045],"ct":"US","tp":"CS","ts":"2023-07-15T15:16:04Z","tX":172,"tY":395,"tags":{"backcountry":"yes","drinking_water":"yes","name":"Sunrise High Sierra Camp","operator":"DNC","reservation":"required","seasonal":"yes","toilets":"yes","wikidata":"Q63710126"}},"955841319":{"location":[37.909722,-119.4184711],"ct":"US","tp":"CS","ts":"2023-07-15T15:15:53Z","tX":172,"tY":395,"tags":{"backcountry":"yes","name":"Glen Aulin High Sierra Camp","operator":"DNC","reservation":"required","seasonal":"yes","tents":"no","toilets":"yes","wikidata":"Q5567580"}},"1012657088":{"location":[37.8451937,-119.4908855],"ct":"US","tp":"CS","ts":"2023-07-15T15:16:05Z","tX":172,"tY":395,"tags":{"backcountry":"yes","drinking_water":"yes","name":"May Lake High Sierra Camp","operator":"DNC","reservation":"required","seasonal":"yes","toilets":"yes","wikidata":"Q63713824"}},"3755998537":{"location":[37.8720167,-119.3719841],"ct":"US","tp":"SD","ts":"2025-05-07T16:25:10Z","tX":172,"tY":395,"tags":{"name":"Dump Station"}},"5821805653":{"location":[37.797011,-119.3441668],"ct":"US","tp":"CS","ts":"2021-08-21T17:41:15Z","tX":172,"tY":395,"tags":{"backcountry":"yes","name":"Vogelsang Backpacker Camp"}},"7715407267":{"location":[37.8623463,-119.4561676],"ct":"US","tp":"CS","ts":"2021-08-21T17:41:15Z","tX":172,"tY":395,"tags":{"backcountry":"yes"}}}