{"422985981":{"location":[54.5680342,29.1292122],"ct":"BY","tp":"CS","ts":"2023-12-14T04:23:36Z","tX":594,"tY":326,"tags":{"name":"Зона адпачынку «Высла»","name:be":"Зона адпачынку «Высла»","name:ru":"Зона отдыха «Высла»","name:uk":"Зона відпочинку «Висла»","natural":"beach"}},"667620455":{"location":[54.5435876,29.1709355],"ct":"BY","tp":"CS","ts":"2024-06-30T02:05:47Z","tX":594,"tY":326,"tags":{"email":"camping@tut.by","name":"Кемпінг 1","name:be":"Кемпінг 1","name:ru":"Кемпинг 1","name:uk":"Кемпінг 1","phone":"+375255318860","website":"https://www.camping1.by/"}},"667637522":{"location":[54.4972419,29.1504551],"ct":"BY","tp":"CS","ts":"2023-05-21T19:31:38Z","tX":594,"tY":326,"tags":{"email":"medray331@mail.ru","name":"Сялява тур","name:be":"Сялява тур","name:ru":"Селява тур","name:uk":"Селява тур","phone":"+375 29 6 300 331","tents":"yes","website":"http://medray.by/uslugi_selyava"}},"1086787566":{"location":[54.5205615,29.1756111],"ct":"BY","tp":"CS","ts":"2023-12-14T06:31:09Z","tX":594,"tY":326,"tags":{"fee":"yes","name":"Шып","name:be":"Шып","name:ru":"Шип","name:uk":"Шип","operator":"ГЛХУ «Крупский лесхоз»","website":"https://mapswater.com/belarus/899-zona-otdyha-ship.html"}},"1086864195":{"location":[54.5135492,29.1388052],"ct":"BY","tp":"CS","ts":"2023-05-21T19:31:38Z","tX":594,"tY":326,"tags":{"name":"Стаянкі","name:be":"Стаянкі","name:ru":"Стоянки","name:uk":"Парковки"}},"9010039215":{"location":[54.5095188,29.1554066],"ct":"BY","tp":"CS","ts":"2023-12-14T04:23:22Z","tX":594,"tY":326,"tags":{"name":"Зона адпачынку «Залаты рог»","name:be":"Зона адпачынку «Залаты рог»","name:ru":"Зона отдыха «Золотой рог»","name:uk":"Зона відпочинку «Золотий ріг»"}},"9958562883":{"location":[54.5669709,29.1738564],"ct":"BY","tp":"CS","ts":"2022-08-17T06:52:07Z","tX":594,"tY":326,"tags":{}},"9958574871":{"location":[54.5100955,29.1641307],"ct":"BY","tp":"CS","ts":"2022-08-17T06:51:27Z","tX":594,"tY":326,"tags":{}},"9958574878":{"location":[54.5026889,29.1587341],"ct":"BY","tp":"CS","ts":"2022-08-17T06:51:27Z","tX":594,"tY":326,"tags":{}},"9958574879":{"location":[54.4992935,29.1466749],"ct":"BY","tp":"CS","ts":"2022-08-17T06:51:27Z","tX":594,"tY":326,"tags":{}},"9958574880":{"location":[54.5428144,29.177252],"ct":"BY","tp":"CS","ts":"2022-08-17T06:51:27Z","tX":594,"tY":326,"tags":{}},"9958574881":{"location":[54.5421609,29.175868],"ct":"BY","tp":"CS","ts":"2022-08-17T06:51:27Z","tX":594,"tY":326,"tags":{}},"9958574885":{"location":[54.5160653,29.1758466],"ct":"BY","tp":"CS","ts":"2022-08-17T06:51:27Z","tX":594,"tY":326,"tags":{}},"9958574888":{"location":[54.533596,29.1757339],"ct":"BY","tp":"CS","ts":"2022-08-17T06:51:27Z","tX":594,"tY":326,"tags":{}},"9958574889":{"location":[54.5341936,29.1748166],"ct":"BY","tp":"CS","ts":"2022-08-17T06:51:27Z","tX":594,"tY":326,"tags":{}},"9958574890":{"location":[54.5018852,29.1559768],"ct":"BY","tp":"CS","ts":"2022-08-17T06:51:27Z","tX":594,"tY":326,"tags":{}},"9958574891":{"location":[54.5111637,29.1733628],"ct":"BY","tp":"CS","ts":"2022-08-17T06:51:27Z","tX":594,"tY":326,"tags":{}},"9958574892":{"location":[54.5134028,29.1713136],"ct":"BY","tp":"CS","ts":"2022-08-17T06:51:27Z","tX":594,"tY":326,"tags":{}},"9958574893":{"location":[54.5171801,29.1631705],"ct":"BY","tp":"CS","ts":"2022-08-17T06:51:27Z","tX":594,"tY":326,"tags":{}},"9958574894":{"location":[54.5076288,29.1505212],"ct":"BY","tp":"CS","ts":"2022-08-17T06:51:27Z","tX":594,"tY":326,"tags":{}},"9958574895":{"location":[54.5156449,29.1617113],"ct":"BY","tp":"CS","ts":"2022-08-17T06:51:27Z","tX":594,"tY":326,"tags":{}},"9958574898":{"location":[54.5492803,29.1284466],"ct":"BY","tp":"CS","ts":"2022-08-17T06:51:27Z","tX":594,"tY":326,"tags":{}}}