{"15351562":{"location":[47.2970323,29.0901729],"ct":"MD","tp":"CS","ts":"2023-11-18T08:30:13Z","tX":594,"tY":358,"tags":{"addr:city":"Ustia","name":"„Pensiunea din Holercani” Î.S.","name:ru":"Санаторий Голерканы","name:uk":"Санаторій Голеркани","phone":"+37360575767","resort":"pension","website":"https://www.facebook.com/holercani/?locale=ro_RO"}},"58494707":{"location":[47.3254661,28.9740725],"ct":"MD","tp":"CS","ts":"2010-05-07T11:29:49Z","tX":594,"tY":358,"tags":{}},"68134137":{"location":[47.2974094,28.8449234],"ct":"MD","tp":"CS","ts":"2024-07-01T06:55:43Z","tX":594,"tY":358,"tags":{"capacity":"400","fee":"yes","leisure":"playground","name":"Centrul republican de reabilitare pentru copii Ivancea"}},"905987137":{"location":[47.2989853,28.9630216],"ct":"MD","tp":"CS","ts":"2021-02-10T23:16:06Z","tX":594,"tY":358,"tags":{"fee":"yes","name":"Camping Bacota"}},"990459567":{"location":[47.3652791,29.0872162],"ct":"MD","tp":"CS","ts":"2021-10-06T13:56:32Z","tX":594,"tY":358,"tags":{"access":"yes","backcountry":"yes","fee":"no"}},"1206828836":{"location":[47.3498745,29.1077972],"ct":"MD","tp":"CS","ts":"2023-09-11T09:36:49Z","tX":594,"tY":358,"tags":{}},"1289624786":{"location":[47.2979057,28.8419326],"ct":"MD","tp":"CS","ts":"2024-06-05T11:07:12Z","tX":594,"tY":358,"tags":{"addr:city":"Ivancea","name":"Tabăra de odihnă pentru copii „Miorița”"}},"2655748104":{"location":[47.3070176,28.9595164],"ct":"MD","tp":"CS","ts":"2023-03-21T01:53:00Z","tX":594,"tY":358,"tags":{"addr:city":"Butuceni"}},"3429982310":{"location":[47.309821,28.9851509],"ct":"MD","tp":"CS","ts":"2024-05-02T10:02:59Z","tX":594,"tY":358,"tags":{"check_date":"2024-04-30","name":"Vila Roz Camping","website":"https://vilaroz.com/en/"}}}