{"7923606":{"location":[47.0855735,29.1104213],"ct":"MD","tp":"CS","ts":"2025-06-02T18:39:30Z","tX":594,"tY":359,"tags":{"addr:city":"Vadul lui Vodă","addr:country":"MD","addr:street":"strada Plajei","name":"Baza de odihnă „Lilia”"}},"7923607":{"location":[47.0856093,29.1095933],"ct":"MD","tp":"CS","ts":"2025-06-02T18:39:30Z","tX":594,"tY":359,"tags":{"addr:city":"Vadul lui Vodă","addr:country":"MD","addr:street":"strada Plajei","name":"Baza de odihnă „Sirius”"}},"58662498":{"location":[47.0841912,29.0960721],"ct":"MD","tp":"CS","ts":"2025-06-02T17:17:51Z","tX":594,"tY":359,"tags":{"addr:city":"Vadul lui Vodă","addr:country":"MD","addr:housenumber":"2","addr:street":"strada Teilor","name":"Baza de odihnă „Franzeluța”"}},"83186618":{"location":[47.2069139,28.9470921],"ct":"MD","tp":"CS","ts":"2010-10-28T14:03:50Z","tX":594,"tY":359,"tags":{"name":"Satul Moldovenesc"}},"83187676":{"location":[47.1294697,28.9171667],"ct":"MD","tp":"CS","ts":"2025-06-02T17:17:56Z","tX":594,"tY":359,"tags":{"addr:city":"Hrușova","addr:country":"MD","addr:street":"Goian-Criuleni","barrier":"fence","name":"Sky Land Camping & Resort","phone":"+373685 00 808"}},"105063693":{"location":[47.0847798,29.0966099],"ct":"MD","tp":"CS","ts":"2025-06-02T17:18:09Z","tX":594,"tY":359,"tags":{"addr:city":"Vadul lui Vodă","addr:country":"MD","addr:housenumber":"4","addr:street":"strada Teilor","name":"Baza de odihnă „Cristina”"}},"105063748":{"location":[47.0857612,29.0949009],"ct":"MD","tp":"CS","ts":"2025-06-02T17:18:09Z","tX":594,"tY":359,"tags":{"addr:city":"Vadul lui Vodă","addr:country":"MD","addr:housenumber":"6","addr:street":"strada Plopilor","name":"Tabără de Odihnă pentru Copii „Zâmbet“"}},"105063755":{"location":[47.0770196,29.092982],"ct":"MD","tp":"CS","ts":"2025-06-02T17:18:09Z","tX":594,"tY":359,"tags":{"addr:city":"Vadul lui Vodă","addr:country":"MD","addr:housenumber":"10","addr:street":"strada Balneară","name":"Stațiunea balneară „Bucuria-Sind”"}},"105063804":{"location":[47.0845881,29.0972321],"ct":"MD","tp":"CS","ts":"2025-06-02T17:18:09Z","tX":594,"tY":359,"tags":{"addr:city":"Vadul lui Vodă","addr:country":"MD","addr:housenumber":"6","addr:street":"strada Teilor","name":"Baza de odihnă „Patria”"}},"105063806":{"location":[47.0862896,29.0926686],"ct":"MD","tp":"CS","ts":"2025-06-02T17:18:09Z","tX":594,"tY":359,"tags":{"addr:city":"Vadul lui Vodă","addr:country":"MD","addr:housenumber":"4","addr:street":"strada Plopilor","name":"Tabăra de Odihnă pentru Copii „Camping”"}},"105063816":{"location":[47.0857819,29.103322],"ct":"MD","tp":"CS","ts":"2025-06-02T17:18:09Z","tX":594,"tY":359,"tags":{"addr:city":"Vadul lui Vodă","addr:country":"MD","addr:housenumber":"22","addr:street":"strada Plopilor","name":"Baza de odihnă „IT Relax”"}},"105282077":{"location":[47.0857768,29.0992905],"ct":"MD","tp":"CS","ts":"2025-06-02T17:18:09Z","tX":594,"tY":359,"tags":{"addr:city":"Vadul lui Vodă","addr:country":"MD","addr:housenumber":"14","addr:street":"strada Plopilor","name":"Baza de odihnă „Răuleț”"}},"105282079":{"location":[47.0848627,29.098412],"ct":"MD","tp":"CS","ts":"2025-06-02T17:18:09Z","tX":594,"tY":359,"tags":{"addr:city":"Vadul lui Vodă","addr:country":"MD","addr:housenumber":"8","addr:street":"strada Teilor","name":"Baza de odihnă „Luminița Verde”"}},"105282086":{"location":[47.0857797,29.098067],"ct":"MD","tp":"CS","ts":"2025-06-02T17:18:09Z","tX":594,"tY":359,"tags":{"addr:city":"Vadul lui Vodă","addr:country":"MD","addr:housenumber":"12","addr:street":"strada Plopilor","name":"Baza de odihnă „Nord-Est”"}},"105282094":{"location":[47.0858756,29.0973638],"ct":"MD","tp":"CS","ts":"2025-06-02T17:18:09Z","tX":594,"tY":359,"tags":{"addr:city":"Vadul lui Vodă","addr:country":"MD","addr:housenumber":"10","addr:street":"strada Plopilor","name":"Baza de odihnă „Struguraș”"}},"105282100":{"location":[47.0842038,29.0986892],"ct":"MD","tp":"CS","ts":"2024-06-07T12:18:54Z","tX":594,"tY":359,"tags":{"addr:city":"Vadul lui Vodă","name":"Baza de odihnă „Rândunica”"}},"105282117":{"location":[47.0848168,29.0992801],"ct":"MD","tp":"CS","ts":"2025-06-02T17:18:09Z","tX":594,"tY":359,"tags":{"addr:city":"Vadul lui Vodă","addr:country":"MD","addr:housenumber":"10","addr:street":"strada Teilor","name":"Baza de odihnă „Alfa”"}},"105282121":{"location":[47.0833288,29.0988687],"ct":"MD","tp":"CS","ts":"2025-06-02T17:18:09Z","tX":594,"tY":359,"tags":{"addr:city":"Vadul lui Vodă","addr:country":"MD","addr:housenumber":"10/2","addr:street":"strada Teilor","name":"Baza de odihnă „Bujor”"}},"105282122":{"location":[47.0857543,29.1025666],"ct":"MD","tp":"CS","ts":"2025-06-02T17:18:09Z","tX":594,"tY":359,"tags":{"addr:city":"Vadul lui Vodă","addr:country":"MD","addr:housenumber":"20","addr:street":"strada Plopilor"}},"105282128":{"location":[47.0830304,29.0984056],"ct":"MD","tp":"CS","ts":"2025-06-02T17:18:09Z","tX":594,"tY":359,"tags":{"addr:city":"Vadul lui Vodă","addr:country":"MD","addr:housenumber":"10/3","addr:street":"strada Teilor","name":"Baza de odihnă „Saint-Tropez”"}},"105593961":{"location":[47.0886046,29.0876657],"ct":"MD","tp":"CS","ts":"2025-06-02T17:18:09Z","tX":594,"tY":359,"tags":{"addr:city":"Vadul lui Vodă","addr:country":"MD","addr:housenumber":"2/6","addr:street":"strada Pădurii","name":"Baza de odihnă „Constructorul”"}},"105737364":{"location":[47.085798,29.1060648],"ct":"MD","tp":"CS","ts":"2025-06-02T17:18:09Z","tX":594,"tY":359,"tags":{"addr:city":"Vadul lui Vodă","addr:country":"MD","addr:housenumber":"28","addr:street":"strada Plopilor","name":"Baza de odihnă „Povestea”"}},"105737365":{"location":[47.0857982,29.1067355],"ct":"MD","tp":"CS","ts":"2025-06-02T17:18:09Z","tX":594,"tY":359,"tags":{"addr:city":"Vadul lui Vodă","addr:country":"MD","addr:housenumber":"30","addr:street":"strada Plopilor","name":"Baza de odihnă „Vila Verde”"}},"105737367":{"location":[47.0857895,29.1052537],"ct":"MD","tp":"CS","ts":"2025-06-02T17:18:09Z","tX":594,"tY":359,"tags":{"addr:city":"Vadul lui Vodă","addr:country":"MD","addr:housenumber":"26","addr:street":"strada Plopilor","name":"Baza de odihnă „Locomotiv”"}},"105737368":{"location":[47.0857493,29.1004703],"ct":"MD","tp":"CS","ts":"2025-06-02T17:18:09Z","tX":594,"tY":359,"tags":{"addr:city":"Vadul lui Vodă","addr:country":"MD","addr:housenumber":"16","addr:street":"strada Plopilor","name":"Baza de odihnă „Spicul”"}},"105737369":{"location":[47.0856157,29.1042626],"ct":"MD","tp":"CS","ts":"2025-06-02T17:18:09Z","tX":594,"tY":359,"tags":{"addr:city":"Vadul lui Vodă","addr:country":"MD","addr:housenumber":"24/A","addr:street":"strada Plopilor","name":"Baza de odihnă a Ministerului Apărării RM"}},"105737370":{"location":[47.0860331,29.1042661],"ct":"MD","tp":"CS","ts":"2025-06-02T17:18:09Z","tX":594,"tY":359,"tags":{"addr:city":"Vadul lui Vodă","addr:country":"MD","addr:housenumber":"24","addr:street":"strada Plopilor","name":"Baza de odihnă „Romanița”"}},"105737371":{"location":[47.0857467,29.1017949],"ct":"MD","tp":"CS","ts":"2025-06-02T17:18:09Z","tX":594,"tY":359,"tags":{"addr:city":"Vadul lui Vodă","addr:country":"MD","addr:housenumber":"18","addr:street":"strada Plopilor","name":"Baza de odihnă „Impuls”"}},"105737374":{"location":[47.0857968,29.1075186],"ct":"MD","tp":"CS","ts":"2025-06-02T17:18:09Z","tX":594,"tY":359,"tags":{"addr:city":"Vadul lui Vodă","addr:country":"MD","addr:housenumber":"32","addr:street":"strada Plopilor","name":"Baza de odihnă „Bîtovic”"}},"105737375":{"location":[47.0857983,29.1083736],"ct":"MD","tp":"CS","ts":"2025-06-02T17:18:09Z","tX":594,"tY":359,"tags":{"addr:city":"Vadul lui Vodă","addr:country":"MD","addr:housenumber":"34","addr:street":"strada Plopilor","name":"Baza de odihnă „Relaxare”"}},"105934115":{"location":[47.0732225,29.1174981],"ct":"MD","tp":"CS","ts":"2025-06-02T17:18:11Z","tX":594,"tY":359,"tags":{"addr:city":"Vadul lui Vodă","addr:country":"MD","addr:housenumber":"34","addr:street":"strada Stejarilor","name":"Tabăra de Odihnă pentru Copii „Brăduleț”"}},"106651781":{"location":[47.0847824,29.1082958],"ct":"MD","tp":"CS","ts":"2025-06-02T17:18:11Z","tX":594,"tY":359,"tags":{"addr:city":"Vadul lui Vodă","addr:country":"MD","addr:housenumber":"28","addr:street":"strada Teilor","name":"Baza de odihnă „Lavanda”"}},"106651784":{"location":[47.0847822,29.1070431],"ct":"MD","tp":"CS","ts":"2025-06-02T17:18:11Z","tX":594,"tY":359,"tags":{"addr:city":"Vadul lui Vodă","addr:country":"MD","addr:housenumber":"26","addr:street":"strada Teilor","name":"Baza de odihnă „Poiana Verde”"}},"106651785":{"location":[47.0833119,29.1010652],"ct":"MD","tp":"CS","ts":"2025-06-02T17:18:11Z","tX":594,"tY":359,"tags":{"addr:city":"Vadul lui Vodă","addr:country":"MD","addr:housenumber":"14/1","addr:street":"strada Teilor","name":"Baza de odihnă „Green Park”"}},"106651787":{"location":[47.0837876,29.1066137],"ct":"MD","tp":"CS","ts":"2025-06-02T17:18:11Z","tX":594,"tY":359,"tags":{"addr:city":"Vadul lui Vodă","addr:country":"MD","addr:housenumber":"4","addr:street":"stradela Teilor","name":"Baza de odihnă „Mărțișor”"}},"106651788":{"location":[47.0842656,29.1032205],"ct":"MD","tp":"CS","ts":"2025-06-02T17:18:11Z","tX":594,"tY":359,"tags":{"addr:city":"Vadul lui Vodă","addr:country":"MD","addr:housenumber":"20","addr:street":"strada Teilor","name":"Baza de odihnă „Dumbrava”"}},"106651789":{"location":[47.0844436,29.1047685],"ct":"MD","tp":"CS","ts":"2025-06-02T17:18:11Z","tX":594,"tY":359,"tags":{"addr:city":"Vadul lui Vodă","addr:country":"MD","addr:housenumber":"22","addr:street":"stradela Teilor","name":"Baza de odihnă „Dumbrava Plopi”"}},"106651790":{"location":[47.0850648,29.1016097],"ct":"MD","tp":"CS","ts":"2025-06-02T17:18:11Z","tX":594,"tY":359,"tags":{"addr:city":"Vadul lui Vodă","addr:country":"MD","addr:housenumber":"16","addr:street":"strada Teilor","name":"Baza de odihnă „Sănătate”"}},"106651791":{"location":[47.0842477,29.1024606],"ct":"MD","tp":"CS","ts":"2025-06-02T17:18:11Z","tX":594,"tY":359,"tags":{"addr:city":"Vadul lui Vodă","addr:country":"MD","addr:housenumber":"18","addr:street":"strada Teilor","name":"Baza de odihnă „Vacanța della Nonna”"}},"106651792":{"location":[47.0844275,29.1002026],"ct":"MD","tp":"CS","ts":"2025-06-02T17:18:11Z","tX":594,"tY":359,"tags":{"addr:city":"Vadul lui Vodă","addr:country":"MD","addr:housenumber":"12","addr:street":"strada Teilor","name":"Baza de odihnă „Coroana”"}},"106651793":{"location":[47.0843162,29.1010692],"ct":"MD","tp":"CS","ts":"2025-06-02T17:18:11Z","tX":594,"tY":359,"tags":{"addr:city":"Vadul lui Vodă","addr:country":"MD","addr:housenumber":"14","addr:street":"strada Teilor","name":"Baza de odihnă „Vatra”"}},"106651796":{"location":[47.0833227,29.1001147],"ct":"MD","tp":"CS","ts":"2025-06-02T17:18:11Z","tX":594,"tY":359,"tags":{"addr:city":"Vadul lui Vodă","addr:country":"MD","addr:housenumber":"12/1","addr:street":"strada Teilor","name":"Baza de odihnă „Vacanța”"}},"106651797":{"location":[47.0847794,29.1059982],"ct":"MD","tp":"CS","ts":"2025-06-02T17:18:11Z","tX":594,"tY":359,"tags":{"addr:city":"Vadul lui Vodă","addr:country":"MD","addr:housenumber":"24","addr:street":"strada Teilor","name":"Baza de odihnă „Popasul Haiducului”"}},"109458138":{"location":[47.0795638,29.1063502],"ct":"MD","tp":"CS","ts":"2025-06-02T17:18:13Z","tX":594,"tY":359,"tags":{"addr:city":"Vadul lui Vodă","addr:country":"MD","addr:housenumber":"6","addr:street":"strada Stejarilor","name":"Baza de odihnă „Feroviarul”"}},"109458142":{"location":[47.0789535,29.1088154],"ct":"MD","tp":"CS","ts":"2025-06-02T17:18:13Z","tX":594,"tY":359,"tags":{"addr:city":"Vadul lui Vodă","addr:country":"MD","addr:housenumber":"15","addr:street":"strada Stejarilor","name":"Baza de odihnă „Arcadia”"}},"109458147":{"location":[47.0809361,29.1026905],"ct":"MD","tp":"CS","ts":"2025-06-02T17:18:13Z","tX":594,"tY":359,"tags":{"addr:city":"Vadul lui Vodă","addr:country":"MD","addr:housenumber":"2/1","addr:street":"strada Stejarilor","name":"Baza de odihnă „Trei Stejari”"}},"109458152":{"location":[47.0808227,29.1051164],"ct":"MD","tp":"CS","ts":"2025-06-02T17:18:13Z","tX":594,"tY":359,"tags":{"addr:city":"Vadul lui Vodă","addr:country":"MD","addr:housenumber":"4","addr:street":"strada Stejarilor","name":"Baza de odihnă „Pădurice”"}},"109458153":{"location":[47.0800196,29.1054376],"ct":"MD","tp":"CS","ts":"2025-06-02T17:18:13Z","tX":594,"tY":359,"tags":{"addr:city":"Vadul lui Vodă","addr:country":"MD","addr:housenumber":"4/4","addr:street":"strada Stejarilor","name":"Baza de odihnă „Orhideea”"}},"109458158":{"location":[47.0827821,29.105219],"ct":"MD","tp":"CS","ts":"2025-06-02T17:18:13Z","tX":594,"tY":359,"tags":{"addr:city":"Vadul lui Vodă","addr:country":"MD","addr:street":"strada Turistului","name":"Baza de odihnă „Astoria”"}},"109458160":{"location":[47.0824544,29.1061836],"ct":"MD","tp":"CS","ts":"2025-06-02T17:18:13Z","tX":594,"tY":359,"tags":{"addr:city":"Vadul lui Vodă","addr:country":"MD","addr:street":"strada Turistului","name":"Baza de odihnă „Diamant”"}},"109458166":{"location":[47.0805962,29.1042379],"ct":"MD","tp":"CS","ts":"2025-06-02T17:18:13Z","tX":594,"tY":359,"tags":{"addr:city":"Vadul lui Vodă","addr:country":"MD","addr:housenumber":"4/1","addr:street":"strada Stejarilor","name":"Baza de odihnă „Exotica”"}},"109458167":{"location":[47.0815208,29.1040361],"ct":"MD","tp":"CS","ts":"2025-06-02T17:18:13Z","tX":594,"tY":359,"tags":{"addr:city":"Vadul lui Vodă","addr:country":"MD","addr:housenumber":"2","addr:street":"strada Stejarilor","name":"Baza de odihnă „Automobilist”"}},"109458170":{"location":[47.0793157,29.1079242],"ct":"MD","tp":"CS","ts":"2025-06-02T17:18:13Z","tX":594,"tY":359,"tags":{"addr:city":"Vadul lui Vodă","addr:country":"MD","addr:housenumber":"13","addr:street":"strada Stejarilor","name":"Baza de odihnă „Călătorul”"}},"111823109":{"location":[47.0764338,29.1040422],"ct":"MD","tp":"CS","ts":"2025-06-02T17:18:13Z","tX":594,"tY":359,"tags":{"addr:city":"Vadul lui Vodă","addr:country":"MD","addr:housenumber":"11","addr:street":"strada Balneară","name":"Stațiunea balneară „Speranța”","name:ru":"Санаторий \"Сперанца\"","resort":"sanatorium"}},"111823475":{"location":[47.0747183,29.1049016],"ct":"MD","tp":"CS","ts":"2025-06-02T17:18:13Z","tX":594,"tY":359,"tags":{"addr:city":"Vadul lui Vodă","addr:country":"MD","addr:housenumber":"7","addr:street":"strada Balneară","name":"Complexul hotelier „Dacia”","name:ru":"Гостиничный комплекс \"Дачия\"","resort":"sanatorium"}},"115838083":{"location":[47.0562345,28.9444092],"ct":"MD","tp":"CS","ts":"2024-02-21T20:20:22Z","tX":594,"tY":359,"tags":{"name":"Popasul Domnesc"}},"207555913":{"location":[47.1061114,29.0622412],"ct":"MD","tp":"CS","ts":"2025-06-02T17:18:41Z","tX":594,"tY":359,"tags":{"addr:city":"Vadul lui Vodă","addr:country":"MD","addr:street":"strada Ștefan cel Mare și Sfânt","name":"Tabără de odihnă pentru copii „Cireșarii”"}},"211483774":{"location":[47.0835957,29.0886218],"ct":"MD","tp":"CS","ts":"2025-06-02T17:18:41Z","tX":594,"tY":359,"tags":{"addr:city":"Vadul lui Vodă","addr:country":"MD","addr:housenumber":"2","addr:street":"strada Balneară","barrier":"fence"}},"274857851":{"location":[47.0410619,28.9208215],"ct":"MD","tp":"CS","ts":"2022-06-18T19:27:18Z","tX":594,"tY":359,"tags":{"access":"private","camp_site":"serviced","fee":"yes","name":"Pădurea Veselă"}},"615094995":{"location":[47.0816421,29.1032415],"ct":"MD","tp":"CS","ts":"2025-06-02T18:36:51Z","tX":594,"tY":359,"tags":{"addr:city":"Vadul lui Vodă","addr:country":"MD","addr:housenumber":"2/2","addr:street":"strada Stejarilor","name":"Baza de odihnă „La Bunica”"}},"717472053":{"location":[47.0760971,29.1108756],"ct":"MD","tp":"CS","ts":"2025-06-02T18:37:15Z","tX":594,"tY":359,"tags":{"addr:city":"Vadul lui Vodă","addr:country":"MD","addr:housenumber":"18","addr:street":"strada Stejarilor","name":"Baza de odihnă „Lux”"}},"717473335":{"location":[47.0759663,29.1117671],"ct":"MD","tp":"CS","ts":"2025-06-02T18:37:15Z","tX":594,"tY":359,"tags":{"addr:city":"Vadul lui Vodă","addr:country":"MD","addr:housenumber":"20","addr:street":"strada Stejarilor","name":"Baza de odihnă „Aviator”"}},"717473336":{"location":[47.076641,29.110244],"ct":"MD","tp":"CS","ts":"2025-06-02T18:37:15Z","tX":594,"tY":359,"tags":{"addr:city":"Vadul lui Vodă","addr:country":"MD","addr:housenumber":"16","addr:street":"strada Stejarilor","name":"Baza de odihnă „Poienița Verde”"}},"1188621573":{"location":[47.0581642,29.0275078],"ct":"MD","tp":"CS","ts":"2024-08-16T14:56:11Z","tX":594,"tY":359,"tags":{"addr:city":"Bălțata","name":"Bază de odihnă"}},"1211488699":{"location":[47.1613361,29.1314472],"ct":"MD","tp":"CS","ts":"2023-09-28T03:44:42Z","tX":594,"tY":359,"tags":{"addr:city":"Slobozia-Dușca","name":"Tabăra pentru Copii „Cristiano”"}},"1253372258":{"location":[47.0472887,28.9238148],"ct":"MD","tp":"CS","ts":"2025-06-02T18:38:55Z","tX":594,"tY":359,"tags":{"addr:city":"Colonița","addr:country":"MD","addr:street":"Chișinău-Vadul lui Vodă","name":"Tree House Relax Park"}},"1253372288":{"location":[47.0494211,28.9262519],"ct":"MD","tp":"CS","ts":"2024-02-21T20:20:22Z","tX":594,"tY":359,"tags":{"addr:city":"IP \"Poiana Nucului\"","name":"Hanul lui Vasile"}},"1253373402":{"location":[47.0689658,28.9271623],"ct":"MD","tp":"CS","ts":"2025-02-17T14:34:25Z","tX":594,"tY":359,"tags":{"addr:city":"Cheltuitori","name":"Bază de odihnă"}},"1273809660":{"location":[47.1023122,29.0638947],"ct":"MD","tp":"CS","ts":"2025-06-02T18:39:00Z","tX":594,"tY":359,"tags":{"addr:city":"Vadul lui Vodă","addr:country":"MD","addr:street":"strada Ștefan cel Mare și Sfânt","name":"Zona de odihnă „Poiana Vadului”"}},"1279069035":{"location":[47.0696496,29.1043535],"ct":"MD","tp":"CS","ts":"2025-06-02T18:39:00Z","tX":594,"tY":359,"tags":{"addr:city":"Vadul lui Vodă","addr:country":"MD","addr:housenumber":"6","addr:street":"strada Taberei","name":"Tabăra de vară pentru copii „Energeticianului”"}},"1279077245":{"location":[47.0686304,29.1112986],"ct":"MD","tp":"CS","ts":"2025-06-02T18:39:00Z","tX":594,"tY":359,"tags":{"addr:city":"Vadul lui Vodă","addr:country":"MD","addr:housenumber":"2","addr:street":"strada Taberei","name":"Tabăra de vară pentru copii „Luceafărul”"}},"1279077271":{"location":[47.069091,29.1090121],"ct":"MD","tp":"CS","ts":"2025-06-02T18:39:00Z","tX":594,"tY":359,"tags":{"addr:city":"Vadul lui Vodă","addr:country":"MD","addr:housenumber":"4","addr:street":"strada Taberei","name":"Tabăra de vară pentru copii (abandonată)"}},"1279308429":{"location":[47.0751788,29.0995379],"ct":"MD","tp":"CS","ts":"2025-06-02T18:39:00Z","tX":594,"tY":359,"tags":{"addr:city":"Vadul lui Vodă","addr:country":"MD","addr:housenumber":"11","addr:street":"strada Balneară","name":"Stațiunea balneară „Perlele Nistrului”","resort":"sanatorium"}},"1284850498":{"location":[47.078412,29.0774111],"ct":"MD","tp":"CS","ts":"2024-06-07T12:18:54Z","tX":594,"tY":359,"tags":{"addr:city":"Vadul lui Vodă"}},"1284850535":{"location":[47.0798413,29.0901422],"ct":"MD","tp":"CS","ts":"2025-06-02T18:39:00Z","tX":594,"tY":359,"tags":{"addr:city":"Vadul lui Vodă","addr:country":"MD","addr:housenumber":"4","addr:street":"strada Balneară","name":"Tabăra de odihnă pentru copii „Perlele Nistrului”"}},"1284852418":{"location":[47.0753113,29.1027565],"ct":"MD","tp":"CS","ts":"2025-06-02T18:39:00Z","tX":594,"tY":359,"tags":{"addr:city":"Vadul lui Vodă","addr:country":"MD","addr:housenumber":"5","addr:street":"strada Balneară","name":"Baza de odihnă „Nik House”","resort":"resort"}},"1285096814":{"location":[47.0720963,29.1196924],"ct":"MD","tp":"CS","ts":"2025-06-02T18:39:00Z","tX":594,"tY":359,"tags":{"addr:city":"Vadul lui Vodă","addr:country":"MD","addr:housenumber":"40","addr:street":"strada Stejarilor","name":"Baza de odihnă „Odiseu”"}},"1285096823":{"location":[47.0721265,29.1217221],"ct":"MD","tp":"CS","ts":"2025-06-02T18:39:00Z","tX":594,"tY":359,"tags":{"addr:city":"Vadul lui Vodă","addr:country":"MD","addr:housenumber":"44","addr:street":"strada Stejarilor","name":"Baza de odihnă „Lăcrimioara”"}},"1285096827":{"location":[47.0719973,29.1206144],"ct":"MD","tp":"CS","ts":"2025-06-02T18:39:00Z","tX":594,"tY":359,"tags":{"addr:city":"Vadul lui Vodă","addr:country":"MD","addr:housenumber":"42","addr:street":"strada Stejarilor"}},"1285096833":{"location":[47.0728619,29.122376],"ct":"MD","tp":"CS","ts":"2025-06-02T18:39:00Z","tX":594,"tY":359,"tags":{"addr:city":"Vadul lui Vodă","addr:country":"MD","addr:housenumber":"35","addr:street":"strada Stejarilor"}},"1285096854":{"location":[47.0738248,29.1203071],"ct":"MD","tp":"CS","ts":"2025-06-02T18:39:00Z","tX":594,"tY":359,"tags":{"addr:city":"Vadul lui Vodă","addr:country":"MD","addr:housenumber":"27","addr:street":"strada Stejarilor"}},"1285124888":{"location":[47.0727653,29.1190141],"ct":"MD","tp":"CS","ts":"2025-06-02T18:39:02Z","tX":594,"tY":359,"tags":{"addr:city":"Vadul lui Vodă","addr:country":"MD","addr:housenumber":"38","addr:street":"strada Stejarilor","name":"Baza de odihnă „Expres”"}},"1285124901":{"location":[47.0739411,29.1165187],"ct":"MD","tp":"CS","ts":"2025-06-02T18:39:02Z","tX":594,"tY":359,"tags":{"addr:city":"Vadul lui Vodă","addr:country":"MD","addr:housenumber":"32","addr:street":"strada Stejarilor","name":"Baza de odihnă „Lucomorie”"}},"1285124903":{"location":[47.0744543,29.1152747],"ct":"MD","tp":"CS","ts":"2025-06-02T18:39:02Z","tX":594,"tY":359,"tags":{"addr:city":"Vadul lui Vodă","addr:country":"MD","addr:housenumber":"30","addr:street":"strada Stejarilor","name":"Baza de odihnă „Sălcioara”"}},"1285124905":{"location":[47.0747694,29.1145577],"ct":"MD","tp":"CS","ts":"2025-06-02T18:39:02Z","tX":594,"tY":359,"tags":{"addr:city":"Vadul lui Vodă","addr:country":"MD","addr:housenumber":"28","addr:street":"strada Stejarilor","name":"Baza de odihnă „Magistral”"}},"1285124908":{"location":[47.0749663,29.114098],"ct":"MD","tp":"CS","ts":"2025-06-02T18:39:02Z","tX":594,"tY":359,"tags":{"addr:city":"Vadul lui Vodă","addr:country":"MD","addr:housenumber":"26","addr:street":"strada Stejarilor","name":"Centrul de instruire şi agrement „Sfântul Arhanghel Mihail”"}},"1285124909":{"location":[47.0753184,29.113329],"ct":"MD","tp":"CS","ts":"2025-06-02T18:39:02Z","tX":594,"tY":359,"tags":{"addr:city":"Vadul lui Vodă","addr:country":"MD","addr:housenumber":"24","addr:street":"strada Stejarilor","name":"Baza de odihnă „Zorile Nistrene”"}},"1285124911":{"location":[47.0756991,29.1124201],"ct":"MD","tp":"CS","ts":"2025-06-02T18:39:02Z","tX":594,"tY":359,"tags":{"addr:city":"Vadul lui Vodă","addr:country":"MD","addr:housenumber":"22","addr:street":"strada Stejarilor","name":"Baza de odihnă „Mesteacăn”","resort":"recreation_center"}},"1285124913":{"location":[47.0769346,29.1094642],"ct":"MD","tp":"CS","ts":"2025-06-02T18:39:02Z","tX":594,"tY":359,"tags":{"addr:city":"Vadul lui Vodă","addr:country":"MD","addr:housenumber":"14","addr:street":"strada Stejarilor","name":"Baza de odihnă „Svetlana”"}},"1285124914":{"location":[47.0773137,29.1085153],"ct":"MD","tp":"CS","ts":"2025-06-02T18:39:02Z","tX":594,"tY":359,"tags":{"addr:city":"Vadul lui Vodă","addr:country":"MD","addr:housenumber":"12","addr:street":"strada Stejarilor","name":"Centrul de recreere și reabilitare al Ministerului de Interne (MAI)"}},"1285124949":{"location":[47.0801373,29.1020616],"ct":"MD","tp":"CS","ts":"2024-06-07T12:18:54Z","tX":594,"tY":359,"tags":{"addr:city":"Vadul lui Vodă","name":"Baza de odihnă „Balesanda”","resort":"recreation_center"}},"1285124952":{"location":[47.0797874,29.1017395],"ct":"MD","tp":"CS","ts":"2025-06-02T18:39:02Z","tX":594,"tY":359,"tags":{"addr:city":"Vadul lui Vodă","addr:country":"MD","addr:street":"strada Turistului","name":"Bază de odihnă (abandonată)","resort":"recreation_center"}},"1285124953":{"location":[47.0790121,29.1015567],"ct":"MD","tp":"CS","ts":"2025-06-02T18:39:02Z","tX":594,"tY":359,"tags":{"addr:city":"Vadul lui Vodă","addr:country":"MD","addr:street":"strada Turistului","name":"Bază de odihnă (abandonată)","resort":"recreation_center"}},"1285124954":{"location":[47.0790957,29.1036218],"ct":"MD","tp":"CS","ts":"2025-06-02T18:39:02Z","tX":594,"tY":359,"tags":{"addr:city":"Vadul lui Vodă","addr:country":"MD","addr:housenumber":"6/2","addr:street":"strada Stejarilor","name":"Baza de odihnă „Dumbrava”"}},"1285124955":{"location":[47.0784604,29.1061173],"ct":"MD","tp":"CS","ts":"2025-06-02T18:39:02Z","tX":594,"tY":359,"tags":{"addr:city":"Vadul lui Vodă","addr:country":"MD","addr:housenumber":"6/1","addr:street":"strada Stejarilor","name":"Baza de odihnă „Trandafir”"}},"1285124956":{"location":[47.0795614,29.1044999],"ct":"MD","tp":"CS","ts":"2025-06-02T18:39:02Z","tX":594,"tY":359,"tags":{"addr:city":"Vadul lui Vodă","addr:country":"MD","addr:housenumber":"4/3","addr:street":"strada Stejarilor","name":"Baza de odihnă „Nistru”"}},"1285124957":{"location":[47.0803132,29.1036785],"ct":"MD","tp":"CS","ts":"2025-06-02T18:39:02Z","tX":594,"tY":359,"tags":{"addr:city":"Vadul lui Vodă","addr:country":"MD","addr:housenumber":"4/2","addr:street":"strada Stejarilor","name":"Bază de odihnă"}},"1285124958":{"location":[47.0780969,29.1067709],"ct":"MD","tp":"CS","ts":"2025-06-02T18:39:02Z","tX":594,"tY":359,"tags":{"addr:city":"Vadul lui Vodă","addr:country":"MD","addr:housenumber":"8","addr:street":"strada Stejarilor","name":"Baza de odihnă „Trandafir”"}},"1285124959":{"location":[47.077736,29.1076447],"ct":"MD","tp":"CS","ts":"2025-06-02T18:39:02Z","tX":594,"tY":359,"tags":{"addr:city":"Vadul lui Vodă","addr:country":"MD","addr:housenumber":"10","addr:street":"strada Stejarilor","name":"Baza de odihnă „La Zăvoi”"}},"1285142590":{"location":[47.0741731,29.1192062],"ct":"MD","tp":"CS","ts":"2025-06-02T18:39:02Z","tX":594,"tY":359,"tags":{"addr:city":"Vadul lui Vodă","addr:country":"MD","addr:housenumber":"25","addr:street":"strada Stejarilor"}},"1285142591":{"location":[47.0743293,29.1187517],"ct":"MD","tp":"CS","ts":"2025-06-02T18:39:02Z","tX":594,"tY":359,"tags":{"addr:city":"Vadul lui Vodă","addr:country":"MD","addr:housenumber":"25","addr:street":"strada Stejarilor"}},"1285142592":{"location":[47.0744797,29.1181641],"ct":"MD","tp":"CS","ts":"2025-06-02T18:39:02Z","tX":594,"tY":359,"tags":{"addr:city":"Vadul lui Vodă","addr:country":"MD","addr:housenumber":"25","addr:street":"strada Stejarilor"}},"1285142620":{"location":[47.0754526,29.115803],"ct":"MD","tp":"CS","ts":"2025-06-02T18:39:02Z","tX":594,"tY":359,"tags":{"addr:city":"Vadul lui Vodă","addr:country":"MD","addr:housenumber":"23","addr:street":"strada Stejarilor","name":"Baza de odihnă „Briz” / „Speranța”"}},"1285158458":{"location":[47.0768021,29.1129746],"ct":"MD","tp":"CS","ts":"2025-06-02T18:39:02Z","tX":594,"tY":359,"tags":{"addr:city":"Vadul lui Vodă","addr:country":"MD","addr:housenumber":"21","addr:street":"strada Stejarilor"}},"1285158466":{"location":[47.077427,29.1115917],"ct":"MD","tp":"CS","ts":"2025-06-02T18:39:02Z","tX":594,"tY":359,"tags":{"addr:city":"Vadul lui Vodă","addr:country":"MD","addr:housenumber":"19","addr:street":"strada Stejarilor","name":"Baza de odihnă „Fauna”"}},"1285158467":{"location":[47.0781268,29.1099579],"ct":"MD","tp":"CS","ts":"2025-06-02T18:39:02Z","tX":594,"tY":359,"tags":{"addr:city":"Vadul lui Vodă","addr:country":"MD","addr:housenumber":"17","addr:street":"strada Stejarilor","name":"Baza de odihnă „Floricica”"}},"1285158514":{"location":[47.0827565,29.1066291],"ct":"MD","tp":"CS","ts":"2025-06-02T18:39:02Z","tX":594,"tY":359,"tags":{"addr:city":"Vadul lui Vodă","addr:country":"MD","addr:street":"strada Turistului"}},"1285158522":{"location":[47.0813358,29.1062097],"ct":"MD","tp":"CS","ts":"2024-06-07T12:18:54Z","tX":594,"tY":359,"tags":{"addr:city":"Vadul lui Vodă"}},"1285171004":{"location":[47.0828396,29.1037263],"ct":"MD","tp":"CS","ts":"2025-06-02T18:39:02Z","tX":594,"tY":359,"tags":{"addr:city":"Vadul lui Vodă","addr:country":"MD","addr:street":"strada Turistului"}},"1285171005":{"location":[47.08278,29.1045744],"ct":"MD","tp":"CS","ts":"2025-06-02T18:39:02Z","tX":594,"tY":359,"tags":{"addr:city":"Vadul lui Vodă","addr:country":"MD","addr:street":"strada Turistului"}},"1285926591":{"location":[47.0835841,29.0973504],"ct":"MD","tp":"CS","ts":"2025-06-02T18:39:02Z","tX":594,"tY":359,"tags":{"addr:city":"Vadul lui Vodă","addr:country":"MD","addr:housenumber":"6/1","addr:street":"strada Teilor","name":"Baza de odihnă „La Sarkis Village”"}},"1341526897":{"location":[47.2534233,28.8595002],"ct":"MD","tp":"CS","ts":"2025-06-02T18:39:10Z","tX":594,"tY":359,"tags":{"addr:city":"Râșcova","addr:country":"MD","addr:housenumber":"107","addr:street":"strada Ștefan cel Mare și Sfânt","name":"Eco Village"}},"1342931519":{"location":[47.2132161,29.1769486],"ct":"MD","tp":"CS","ts":"2024-12-17T14:45:22Z","tX":594,"tY":359,"tags":{"addr:city":"Criuleni","barrier":"fence","name":"Bază de odihnă"}},"1342931521":{"location":[47.2121439,29.177808],"ct":"MD","tp":"CS","ts":"2024-12-30T08:24:18Z","tX":594,"tY":359,"tags":{"addr:city":"Criuleni","name":"Bază de odihnă „Șapovalov”"}},"1364202306":{"location":[47.0612123,28.9602604],"ct":"MD","tp":"CS","ts":"2025-03-03T07:14:28Z","tX":594,"tY":359,"tags":{"addr:city":"Colonița","barrier":"fence"}},"1364202329":{"location":[47.0485273,28.9279148],"ct":"MD","tp":"CS","ts":"2025-03-03T07:14:28Z","tX":594,"tY":359,"tags":{}},"1364202330":{"location":[47.0484566,28.9285986],"ct":"MD","tp":"CS","ts":"2025-03-03T07:14:28Z","tX":594,"tY":359,"tags":{}},"4275391694":{"location":[47.0677923,29.111372],"ct":"MD","tp":"CS","ts":"2025-06-02T17:16:50Z","tX":594,"tY":359,"tags":{"addr:country":"MD","addr:street":"Vadul lui Vodă","name":"Tabăra de vară pentru copii \"Luceafărul\""}},"4278099299":{"location":[47.1600092,29.1427198],"ct":"MD","tp":"CS","ts":"2023-08-26T13:59:55Z","tX":594,"tY":359,"tags":{"name":"Plaja","name:ro":"Plaja","name:ru":"Пляж"}},"7994678090":{"location":[47.2530757,28.8596065],"ct":"MD","tp":"CS","ts":"2023-08-12T06:38:54Z","tX":594,"tY":359,"tags":{"addr:city":"Râșcova","check_date":"2023-08-11","name":"Eco Village"}},"5562531723":{"location":[47.1206543,28.8733269],"ct":"MD","tp":"CR","ts":"2025-06-02T17:16:56Z","tX":594,"tY":359,"tags":{"addr:city":"Stăuceni","addr:country":"MD","addr:housenumber":"1","addr:street":"strada Ciorescu","name":"Parcare TIR","name:en":"Parking TIR","name:ru":"Стоянка грузовиков","opening_hours":"24/7"}}}