{"1088784147":{"location":[46.948801,28.9185411],"ct":"MD","tp":"CS","ts":"2022-08-24T11:33:47Z","tX":594,"tY":360,"tags":{"access":"permissive","addr:city":"Comuna Băcioi","addr:street":"Bulevardul Dacia","name":"La Moșie"}},"1112991530":{"location":[47.0282339,29.1420935],"ct":"MD","tp":"CS","ts":"2022-11-14T12:21:28Z","tX":594,"tY":360,"tags":{"addr:city":"Cimișeni","name":"Tabara de odihnă „Neemia”","name:ru":"лагерь «Неемия»"}},"1300701296":{"location":[46.9422599,28.9103035],"ct":"MD","tp":"CS","ts":"2024-07-11T13:22:50Z","tX":594,"tY":360,"tags":{"addr:city":"IP \"Bacivet\"","name":"Baza de odihnă „George Park”"}},"1307943151":{"location":[46.9815445,29.0227351],"ct":"MD","tp":"CS","ts":"2024-08-15T11:25:22Z","tX":594,"tY":360,"tags":{"addr:city":"Mereni","name":"Bază de odihnă"}},"1351160389":{"location":[46.9294029,29.0503674],"ct":"MD","tp":"CS","ts":"2025-01-14T08:45:15Z","tX":594,"tY":360,"tags":{"addr:city":"Mereni","barrier":"fence","name":"Hârtopul Domnesc"}},"1351160415":{"location":[46.9277583,29.0482957],"ct":"MD","tp":"CS","ts":"2025-01-14T08:45:15Z","tX":594,"tY":360,"tags":{"addr:city":"Mereni","name":"White Park"}},"4524842096":{"location":[46.9292192,29.048966],"ct":"MD","tp":"CS","ts":"2022-09-12T09:11:52Z","tX":594,"tY":360,"tags":{"access":"private","name":"Hîrtopul Domnesc"}},"11224531908":{"location":[47.039595,29.1333115],"ct":"MD","tp":"CS","ts":"2023-09-28T08:47:04Z","tX":594,"tY":360,"tags":{"name":"Agropensiune „Bostaniada”","phone":"+37369945348"}}}