{"303527123":{"location":[45.0403647,29.1562015],"ct":"RO","tp":"CS","ts":"2022-05-20T11:05:27Z","tX":594,"tY":368,"tags":{"addr:city":"Murighiol","addr:housenumber":"17","addr:postcode":"827150","addr:postcode:source":"Date de la Poșta Română, publicate sub Licența pentru Guvernare Deschisă v1.0 la http://date.gov.ro/organization/posta-romana","addr:street":"Strada Mahmudiei","caravans":"yes","internet_access":"wlan","name":"Camping Dan Pescarul","phone":"+40749920668","tents":"yes","website":"https://camping-dan-pescarul.ro/"}},"755870990":{"location":[44.9436456,28.8576386],"ct":"RO","tp":"CS","ts":"2019-03-20T23:17:06Z","tX":594,"tY":368,"tags":{"name":"Zorile albe"}},"2384855910":{"location":[45.0413119,29.1565791],"ct":"RO","tp":"CS","ts":"2022-05-16T13:08:21Z","tX":594,"tY":368,"tags":{"addr:city":"Murighiol","addr:housenumber":"10","addr:postcode":"827150","addr:postcode:source":"Date de la Poșta Română, publicate sub Licența pentru Guvernare Deschisă v1.0 la http://date.gov.ro/organization/posta-romana","addr:street":"Strada Mahmudiei","dog":"leashed","name":"Camping Lac Murighiol","phone":"+40744175581","power_supply":"yes","website":"http://www.campinglacmurighiol.ro/"}},"2587593655":{"location":[45.0401093,29.1570641],"ct":"RO","tp":"CS","ts":"2015-07-22T09:24:07Z","tX":594,"tY":368,"tags":{"addr:city":"Murighiol","addr:postcode":"827150","addr:street":"Strada Mahmudiei","caravans":"yes","description":"Mini CAMPING ANDRA va ofera posibilitatea de amplasare de corturi ,rulote si cu 2 camere cu cate 3 locuri avand grupuri sanitare separat.","name":"Mini Camping Andra","opening_hours":"24/7","phone":"+40 744 845 139","source":"Survey","tents":"yes"}},"3078964792":{"location":[45.0362841,29.1663971],"ct":"RO","tp":"CS","ts":"2015-12-11T23:06:35Z","tX":594,"tY":368,"tags":{"addr:city":"Murighiol","addr:housenumber":"2","addr:postcode":"827150","addr:postcode:source":"Date de la Poșta Română, publicate sub Licența pentru Guvernare Deschisă v1.0 la http://date.gov.ro/organization/posta-romana","addr:street":"Strada Portului","name":"Camping La Doi Sturioni","phone":"+40752636714"}},"9937932717":{"location":[45.021893,29.1308192],"ct":"RO","tp":"CS","ts":"2022-08-11T02:55:53Z","tX":594,"tY":368,"tags":{"addr:housenumber":"6","addr:postcode":"827154","addr:street":"Strada Salcâmilor","name:en":"Camping La Serghei Delta Dunării","website":"https://campinglaserghei.ro/"}},"10161165017":{"location":[45.037707,29.1664408],"ct":"RO","tp":"CS","ts":"2023-05-19T07:05:09Z","tX":594,"tY":368,"tags":{"addr:housenumber":"27","addr:postcode":"827150","addr:street":"Strada Soarelui","email":"ivanov.ovidiu@gmail.com","internet_access":"wlan","name":"Camping Delta","opening_hours":"24/7","phone":"+40 723 743 828"}},"11132311705":{"location":[45.0339039,29.1708995],"ct":"RO","tp":"CS","ts":"2023-08-20T16:14:20Z","tX":594,"tY":368,"tags":{"internet_access":"wlan","name":"Rulotistii Muntelui"}},"12102326748":{"location":[45.0438333,29.1550577],"ct":"RO","tp":"CS","ts":"2024-08-10T11:31:44Z","tX":594,"tY":368,"tags":{"addr:city":"Murighiol","addr:street":"Strada Agricultorilor","caravans":"yes","charge":"8 EUR / Person","description":"2 Duschräume, 2 Toiletten. Einfachst aber sauber.","fee":"yes","name":"Camping Salcia","payment:cash":"yes","phone":"0721 314014","static_caravans":"no","tents":"yes"}}}