{"319018650":{"location":[41.2441676,29.0322237],"ct":"TR","tp":"CS","ts":"2015-04-17T05:58:44Z","tX":594,"tY":383,"tags":{"addr:city":"Kilyat","addr:country":"TR","internet_access":"no","name":"Kilyat Camping","payment:cash":"yes","power_supply":"yes"}},"1124390663":{"location":[41.2336132,29.1011906],"ct":"TR","tp":"CR","ts":"2023-01-25T05:55:09Z","tX":594,"tY":383,"tags":{}},"5141165023":{"location":[41.0734003,29.1167407],"ct":"TR","tp":"CS","ts":"2023-06-25T11:23:53Z","tX":594,"tY":383,"tags":{"internet_access":"wlan","name":"Elmalı İzci Kampı","name:en":"Elmalı Scout Camp","opening_hours":"24/7","website":"http://www.tif.org"}},"6699293985":{"location":[41.2330675,29.0990545],"ct":"TR","tp":"CS","ts":"2023-07-09T15:36:53Z","tX":594,"tY":383,"tags":{"name":"Giritli Çiftlik Kamp Alanı","phone":"+90 537 248 33 73"}},"7373512885":{"location":[41.1399262,29.0572],"ct":"TR","tp":"CS","ts":"2020-04-06T21:01:44Z","tX":594,"tY":383,"tags":{}},"10167527917":{"location":[41.1455632,29.0182551],"ct":"TR","tp":"CS","ts":"2024-04-09T12:02:49Z","tX":594,"tY":383,"tags":{"name:en":"Picnic","name:ru":"Оборудованные стоянки для пикника"}},"10264340675":{"location":[41.2432016,29.0905578],"ct":"TR","tp":"CS","ts":"2022-12-15T18:31:07Z","tX":594,"tY":383,"tags":{"designation":"holiday village","name":"Marmaracık Gençlik Kampı","operator":"T.C. Gençlik ve Spor Bakanlığı"}},"5494871122":{"location":[41.0522062,28.9851425],"ct":"TR","tp":"CR","ts":"2019-10-28T08:22:27Z","tX":594,"tY":383,"tags":{"name:ar":"سكن ايهاب جديد","name:en":"Giyilmeyen Gecelik"}},"5574205621":{"location":[41.0144496,28.9414471],"ct":"TR","tp":"CR","ts":"2018-04-23T17:53:09Z","tX":594,"tY":383,"tags":{"name:ar":"سكن ماهر جديد"}},"6010430185":{"location":[41.0086847,28.962667],"ct":"TR","tp":"CR","ts":"2018-10-24T15:56:39Z","tX":594,"tY":383,"tags":{"name:ar":"فندق اسطنبول"}},"7014721185":{"location":[41.0604464,28.9533268],"ct":"TR","tp":"CR","ts":"2023-04-14T06:19:15Z","tX":594,"tY":383,"tags":{"addr:city":"Istanbul","addr:housenumber":"9B","addr:postcode":"34400","addr:street":"Birlik Sokak","addr:street:en":"Birlik Street","internet_access":"wlan","name":"BiRL iK","note":"addr:street was set to Mehmet Akif Ersoy which is a nearby park","phone":"+90 536 482 27 29"}},"7629683586":{"location":[41.0580962,28.9940258],"ct":"TR","tp":"CR","ts":"2023-05-26T17:15:17Z","tX":594,"tY":383,"tags":{"internet_access":"wlan","name:ar":"بيت","name:en":"Home"}},"8666382917":{"location":[41.0134328,28.9423846],"ct":"TR","tp":"CR","ts":"2021-04-26T03:41:01Z","tX":594,"tY":383,"tags":{"name:ar":"الشقة الجديدة  ايهاب"}}}