{"2695550559":{"location":[5.3841129,-55.1076905],"ct":"SR","tp":"CS","ts":"2014-02-28T23:08:28Z","tX":355,"tY":496,"tags":{"name":"Wong Mast 49"}},"4462597507":{"location":[5.425102,-55.1921322],"ct":"SR","tp":"CS","ts":"2025-05-27T23:49:25Z","tX":355,"tY":496,"tags":{"addr:city":"Zanderij","addr:country":"SR","addr:housenumber":"11","addr:street":"Krakkaweg","bar":"no","big_rigs":"yes","camp_type":"established","caravans":"yes","description":"Reservations compulsory. Water is pumped from the creek, drinking water available at the reception. Wifi at the reception. Mains power at the reception. Meals to be preordered. Swimming in creek.","dish_washing":"no","dryer":"no","fee":"SRD 100 (2 adults, camper)","fireplace":"no","general_room":"yes","internet":"wifi","kitchen":"no","laundry":"no","name":"Palulu","phone":"+5978538676","picnic_benches":"no","power_supply":"yes","power_supply:voltage":"no","restaurant":"yes","sanitary_dumpstation":"no","shop":"no","source":"Survey","swimming_pool":"no","tents":"yes","toilets:disposal":"flush","toilets:position":"seated","water:location":"central","water:quality":"potable","website":"https://www.surinamecamping.com/"}},"5110210421":{"location":[5.272194,-54.9215061],"ct":"SR","tp":"CS","ts":"2017-09-17T00:16:20Z","tX":355,"tY":496,"tags":{"name":"Akinte soela"}},"5910017585":{"location":[5.4129103,-55.1435014],"ct":"SR","tp":"CS","ts":"2018-09-16T15:58:51Z","tX":355,"tY":496,"tags":{"name":"4x4AdventuresSuriname’s pineapple kreek","opening_hours":"24/7"}},"5910017785":{"location":[5.426795,-55.1244956],"ct":"SR","tp":"CS","ts":"2018-09-16T15:58:55Z","tX":355,"tY":496,"tags":{"name":"4x4AdventuresSuriname’s Tjoebloem kreek","opening_hours":"24/7"}},"7727086986":{"location":[5.3410074,-55.0250454],"ct":"SR","tp":"CS","ts":"2020-07-18T18:27:44Z","tX":355,"tY":496,"tags":{"name":"Sé Liba (Naast De Rivier)","name:en":"Beside the River"}},"8343094517":{"location":[5.3754321,-55.0887097],"ct":"SR","tp":"CS","ts":"2021-01-20T18:56:14Z","tX":355,"tY":496,"tags":{"addr:street":"Mast 43 snowhills","email":"info@traveltheguianas.com","name":"The Nature Spot - prive zwemmen en kamperen","name:en":"The Nature Spot - private swimming & camping","opening_hours":"24/7","phone":"+5978500724","website":"https://fb.watch/38d7KL24IK/"}},"9772573517":{"location":[5.4032751,-55.0849447],"ct":"SR","tp":"CS","ts":"2022-05-26T12:26:50Z","tX":355,"tY":496,"tags":{"addr:housenumber":"mast 43","addr:street":"JFK HighWay","email":"traveltheguianas@gmail.com","name":"Nature Spot","name:en":"Nature Spot Camping Ground","name:nl":"Nature Spot kampeer gelegenheid","opening_hours":"24/7","phone":"+5978500724","website":"https://m.facebook.com/thenaturespotAfobakka/"}},"10845888706":{"location":[5.3635817,-54.930507],"ct":"SR","tp":"CS","ts":"2023-04-27T10:16:06Z","tX":355,"tY":496,"tags":{"name":"Suikerdam"}},"12646538601":{"location":[5.3833376,-55.1566434],"ct":"SR","tp":"CS","ts":"2025-03-08T22:00:06Z","tX":355,"tY":496,"tags":{}},"12685878302":{"location":[5.3958809,-54.8536655],"ct":"SR","tp":"CS","ts":"2025-03-20T22:47:23Z","tX":355,"tY":496,"tags":{"name":"Sabana"}}}