{"286777082":{"location":[-26.9999152,-55.1793256],"ct":"AR","tp":"CS","ts":"2023-10-09T11:02:14Z","tX":355,"tY":591,"tags":{}},"403558108":{"location":[-26.9420179,-55.052394],"ct":"AR","tp":"CS","ts":"2017-07-02T01:13:10Z","tX":355,"tY":591,"tags":{}},"623955709":{"location":[-27.0385556,-55.037639],"ct":"AR","tp":"CS","ts":"2010-01-31T12:37:58Z","tX":355,"tY":591,"tags":{"name":"Camping Municipal Ruiz de Montoya"}},"623955710":{"location":[-27.0415366,-55.0311945],"ct":"AR","tp":"CS","ts":"2016-11-26T04:51:30Z","tX":355,"tY":591,"tags":{"name":"Camping La Pasarela"}},"623965581":{"location":[-27.0091701,-55.17569],"ct":"AR","tp":"CS","ts":"2023-12-11T11:29:39Z","tX":355,"tY":591,"tags":{"addr:city":"Puerto Leoni","caravans":"yes","fee":"yes","name":"Camping Paraíso Lodge","payment:debit_cards":"yes","payment:electronic_purses":"yes","phone":"+54 3743 4307029","static_caravans":"yes","tents":"yes"}},"623965599":{"location":[-27.0002498,-55.1790555],"ct":"AR","tp":"CS","ts":"2023-12-11T11:10:23Z","tX":355,"tY":591,"tags":{"access":"yes","addr:city":"Jardín América","caravans":"yes","name":"Camping Municipal Salto Tabay","phone":"+54 9 3743 1540021","tents":"yes"}},"623965610":{"location":[-26.9252791,-55.0620139],"ct":"AR","tp":"CS","ts":"2024-02-16T10:34:01Z","tX":355,"tY":591,"tags":{"access":"yes","addr:city":"Capioví","addr:postcode":"3332","name":"Camping Parque Natural Municipal Salto Capioví","phone":"+54 3755 688184","tents":"yes"}},"623965626":{"location":[-26.9415481,-55.0533255],"ct":"AR","tp":"CS","ts":"2024-02-16T10:40:41Z","tX":355,"tY":591,"tags":{"addr:city":"Capioví","addr:street":"Avenida Raúl Alfonsín","fee":"yes","name":"Camping JC","payment:electronic_purses":"yes","phone":"+54 3743 486317","tents":"yes"}},"623965647":{"location":[-26.7910761,-55.0142196],"ct":"AR","tp":"CS","ts":"2024-02-16T11:10:30Z","tX":355,"tY":591,"tags":{"addr:city":"Puerto Rico","addr:postcode":"3334","addr:street":"San Jorge","description":"Afectado por históricas inundaciones como la de los años: 1.936,1.963,1.983,1.993,1.998,2.013,2.015 y la reciente del 6 de marzo de 2.016.","fee":"yes","name":"Camping Club de Pesca","payment:debit_cards":"yes","payment:electronic_purses":"yes","tents":"yes"}},"623965706":{"location":[-26.75926,-54.92415],"ct":"AR","tp":"CS","ts":"2024-02-16T11:44:19Z","tX":355,"tY":591,"tags":{"access":"yes","addr:city":"Paraje Tres de Mayo","name":"Camping Gruta India","phone":"+54 3743 480357","tents":"yes"}},"623967864":{"location":[-26.8306243,-54.937314],"ct":"AR","tp":"CS","ts":"2024-02-19T10:41:38Z","tX":355,"tY":591,"tags":{"addr:city":"Garuhapé","name":"Camping Don Nino","phone":"+54 3743 515490","tents":"yes"}},"1614233093":{"location":[-26.8149534,-54.9459816],"ct":"AR","tp":"CS","ts":"2012-02-01T12:26:55Z","tX":355,"tY":591,"tags":{"name":"Camping Ani"}},"2712928916":{"location":[-26.8047096,-54.9366332],"ct":"AR","tp":"CS","ts":"2024-02-16T12:02:31Z","tX":355,"tY":591,"tags":{"addr:city":"garuhapé","addr:street":"Ruta Provincial 220","name":"Camping Tropical","phone":"+54 3743 560002","tents":"yes"}},"4052637249":{"location":[-26.8630427,-55.1353603],"ct":"AR","tp":"CS","ts":"2021-08-02T20:40:52Z","tX":355,"tY":591,"tags":{"name":"Club de Pesca Capi-Jhoby"}},"4060294876":{"location":[-26.9311911,-55.074716],"ct":"AR","tp":"CS","ts":"2024-02-16T10:44:43Z","tX":355,"tY":591,"tags":{"access":"yes","addr:city":"capiovi","addr:postcode":"3332","addr:street":"Los Lirios","fee":"yes","name":"Agrocamping Bajada Vieja","payment:electronic_purses":"yes","phone":"+54 3743 438218","tents":"yes"}},"8318814919":{"location":[-26.9248148,-55.0567907],"ct":"AR","tp":"CS","ts":"2024-02-16T10:35:55Z","tX":355,"tY":591,"tags":{"access":"yes","addr:city":"Capioví","addr:postcode":"3332","fee":"yes","name":"Camping El Recreo","payment:electronic_purses":"yes","phone":"+54 3743 611385","tents":"yes"}},"11630057404":{"location":[-26.8581403,-55.0443307],"ct":"AR","tp":"CS","ts":"2024-02-16T11:21:44Z","tX":355,"tY":591,"tags":{"addr:city":"Mbopicuá","addr:postcode":"3334","fee":"yes","name":"Complejo Turístico Mallorca","payment:debit_cards":"yes","payment:electronic_purses":"yes","tents":"yes"}},"11630093658":{"location":[-27.0014471,-55.0959921],"ct":"AR","tp":"CS","ts":"2024-02-16T10:55:46Z","tX":355,"tY":591,"tags":{"addr:city":"Ruiz de Montoya","addr:street":"Lote 61","name":"camping Don Cirilo","tents":"yes"}},"11630106660":{"location":[-26.855561,-55.061023],"ct":"AR","tp":"CS","ts":"2024-02-16T11:25:38Z","tX":355,"tY":591,"tags":{"addr:city":"Mbopicuá","addr:full":"Colonia mbopicua, ruta 12 km 1467","addr:postcode":"3334","contact:facebook":"https://www.facebook.com/complejoanto/","contact:instagram":"https://www.instagram.com/anto.complejo.turistico/?hl=es","contact:whatsapp":"+54 3743 508968","fee":"yes","name":"Complejo Anto","official_name":"Anto Complejo Turístico","payment:debit_cards":"yes","payment:electronic_purses":"yes","phone":"+54 3743 508968","tents":"yes"}},"11630130465":{"location":[-26.8124083,-54.993381],"ct":"AR","tp":"CS","ts":"2024-02-16T11:17:56Z","tX":355,"tY":591,"tags":{"access":"yes","addr:city":"San Alberto","addr:postcode":"3334","fee":"yes","name":"Complejo Turístico El Brasilero","payment:debit_cards":"yes","payment:electronic_purses":"yes","phone":"+54 3743 15431426","tents":"yes"}},"11630157618":{"location":[-26.8613541,-55.053313],"ct":"AR","tp":"CS","ts":"2024-02-16T11:28:27Z","tX":355,"tY":591,"tags":{"addr:city":"Mbopicuá","addr:postcode":"3334","fee":"yes","internet_access":"wlan","internet_access:fee":"yes","leisure":"resort","name":"Complejo Turístico Camping Don Raúl","payment:debit_cards":"yes","payment:electronic_purses":"yes","phone":"+54 3743 448156","tents":"yes"}},"11630336622":{"location":[-26.8147419,-54.9468232],"ct":"AR","tp":"CS","ts":"2024-02-16T12:43:58Z","tX":355,"tY":591,"tags":{"addr:city":"Garuhapé","addr:street":"Ruta Nacional 12","name":"Camping Parador 21","phone":"+54 3743 569487","tents":"yes"}},"11640631166":{"location":[-26.8072709,-54.9279027],"ct":"AR","tp":"CS","ts":"2024-02-19T10:32:37Z","tX":355,"tY":591,"tags":{"addr:city":"Garuhapé","addr:street":"Ruta Provincial 220","name":"Camping Don Armindo","phone":"+54 3743 593731","tents":"yes"}}}