{"623950928":{"location":[-27.3701668,-55.0458753],"ct":"AR","tp":"CS","ts":"2010-01-31T12:23:18Z","tX":355,"tY":592,"tags":{"name":"Camping Cachofre"}},"623955705":{"location":[-27.2417781,-55.0058275],"ct":"AR","tp":"CS","ts":"2017-06-17T14:29:31Z","tX":355,"tY":592,"tags":{"name":"Camping privado de EMSA"}},"623955706":{"location":[-27.2137028,-54.9966224],"ct":"AR","tp":"CS","ts":"2024-03-01T14:02:04Z","tX":355,"tY":592,"tags":{"addr:city":"Campo Grande","fee":"yes","name":"Camping Don Juan","payment:debit_cards":"yes","payment:electronic_purses":"yes","phone":"+5403755015691408","tents":"yes"}},"623955707":{"location":[-27.1950172,-54.9550272],"ct":"AR","tp":"CS","ts":"2017-03-04T23:41:14Z","tX":355,"tY":592,"tags":{"name":"Camping Los Primos"}},"623955708":{"location":[-27.08812,-54.95254],"ct":"AR","tp":"CS","ts":"2024-03-05T22:11:53Z","tX":355,"tY":592,"tags":{"access":"yes","addr:city":"Aristóbulo del Valle","caravans":"yes","name":"Parque Ecológico y Camping Municipal del Valle del Cuña Pirú","note":"bad condition","phone":"+54 9 3755 603064","static_caravans":"yes","tents":"yes"}},"623960690":{"location":[-27.0951466,-54.8635913],"ct":"AR","tp":"CS","ts":"2010-01-31T12:48:09Z","tX":355,"tY":592,"tags":{"name":"Complejo El Jagüel"}},"5612267385":{"location":[-27.2915327,-55.1290607],"ct":"AR","tp":"CS","ts":"2023-12-18T10:59:57Z","tX":355,"tY":592,"tags":{"access":"yes","addr:city":"Campo Viera","contact:facebook":"https://www.facebook.com/Camping-Don-Beno-1182093908493496/","fee":"yes","name":"Camping Don Beno","payment:debit_cards":"yes","payment:electronic_purses":"yes","phone":"+54 9 3755 559229","tents":"yes","website":"https://campoviera.gob.ar/"}},"10679715832":{"location":[-27.2785885,-55.050736],"ct":"AR","tp":"CS","ts":"2023-12-18T11:07:21Z","tX":355,"tY":592,"tags":{"addr:city":"Campo Viera","addr:street":"Ruta Provincial 14 - Km 33","contact:facebook":"https://www.facebook.com/profile.php?id=100064528729490&mibextid=ZbWKwL","contact:instagram":"https://www.instagram.com/camping_el_eden05/","fee":"yes","name":"Camping El Edén","operator":"Pedro y Maria","payment:debit_cards":"yes","payment:electronic_purses":"yes","phone":"+54 3755 342321"}},"11428622697":{"location":[-27.2993528,-55.1231667],"ct":"AR","tp":"CS","ts":"2023-12-18T10:46:04Z","tX":355,"tY":592,"tags":{"access":"yes","addr:city":"Campo Viera","caravans":"yes","fee":"yes","name":"Camping San Francisco","payment:electronic_purses":"yes","phone":"+54 9 3755 411998","static_caravans":"yes","tents":"yes"}},"11665357526":{"location":[-27.2952252,-55.1814891],"ct":"AR","tp":"CS","ts":"2024-02-26T14:19:56Z","tX":355,"tY":592,"tags":{"addr:city":"Alberdi","caravans":"yes","name":"Complejo Turístico Sierras del Chapá","phone":"+54 376 4272978","static_caravans":"yes","tents":"yes"}},"11681787534":{"location":[-27.2531643,-54.9411986],"ct":"AR","tp":"CS","ts":"2024-03-01T14:05:07Z","tX":355,"tY":592,"tags":{"addr:city":"Campo Grande","fee":"yes","name":"Camping Caitiano","payment:electronic_purses":"yes","phone":"+54 3755 15576588","tents":"yes"}}}