{"463222772":{"location":[-27.6809367,-54.9986069],"ct":"AR","tp":"CS","ts":"2020-08-10T15:17:36Z","tX":355,"tY":593,"tags":{"name":"El Colono"}},"623938305":{"location":[-27.4530502,-55.1756088],"ct":"AR","tp":"CS","ts":"2021-02-05T20:55:29Z","tX":355,"tY":593,"tags":{"name":"Camping Maksy麓s"}},"623950922":{"location":[-27.4680555,-55.0375001],"ct":"AR","tp":"CS","ts":"2024-03-01T13:02:26Z","tX":355,"tY":593,"tags":{"addr:city":"Campo Ram贸n","addr:street":"Ruta Provincial 103","contact:instagram":"https://www.instagram.com/camping.viejo.puente/?igshid=YmMyMTA2M2Y%3D","name":"Camping El Viejo Puente","phone":"+54 仇别 别拆答叼","tents":"yes"}},"623950926":{"location":[-27.4063876,-55.0148271],"ct":"AR","tp":"CS","ts":"2023-11-25T21:46:28Z","tX":355,"tY":593,"tags":{"addr:city":"Campo Ram贸n","name":"Complejo Tur铆stico Brisas del Salto","website":"https://misionesnatural.com/salto-teodoro-cuenca.html","website_1":"https://es.wikiloc.com/rutas-todo-terreno/salto-teodoro-cuenca-5248782"}},"623950932":{"location":[-27.4553133,-54.9297427],"ct":"AR","tp":"CS","ts":"2024-03-01T13:08:00Z","tX":355,"tY":593,"tags":{"addr:city":"Campo Ram贸n","name":"Camping El Bonito","phone":"+54 3755 503289","tents":"yes"}},"769904935":{"location":[-27.4983749,-54.8820261],"ct":"AR","tp":"CS","ts":"2020-11-14T22:03:56Z","tX":355,"tY":593,"tags":{}},"1340969115":{"location":[-27.4955512,-55.0303091],"ct":"AR","tp":"CS","ts":"2024-03-01T13:27:04Z","tX":355,"tY":593,"tags":{"addr:city":"Campo Ram贸n","name":"Camping La Cascada","phone":"+54 3755 623512","sport":"swimming","tents":"yes"}},"2878464283":{"location":[-27.5691614,-55.1615983],"ct":"AR","tp":"CS","ts":"2024-02-26T14:02:36Z","tX":355,"tY":593,"tags":{"addr:city":"Guaran铆","fee":"yes","name":"Camping Krisiuk","payment:debit_cards":"yes","payment:electronic_purses":"yes","phone":"+54 3755 215186","tents":"yes"}},"5605208940":{"location":[-27.5229779,-55.1824522],"ct":"AR","tp":"CS","ts":"2018-05-08T20:05:42Z","tX":355,"tY":593,"tags":{"addr:city":"Guaran铆","addr:postcode":"3361","addr:street":"Ruta Nacional 14","name":"Camping Elim"}},"6208484582":{"location":[-27.51202,-55.0374123],"ct":"AR","tp":"CS","ts":"2020-01-27T21:30:10Z","tX":355,"tY":593,"tags":{"name":"Camping Salto Itat铆"}},"8119500801":{"location":[-27.498333,-54.8815353],"ct":"AR","tp":"CS","ts":"2020-11-14T22:03:56Z","tX":355,"tY":593,"tags":{"alt_name":"La Qionta Agrocamping","name":"La 5ta Agrocamping"}},"8676371247":{"location":[-27.6150601,-54.8733221],"ct":"AR","tp":"CS","ts":"2024-03-01T12:53:43Z","tX":355,"tY":593,"tags":{"addr:city":"Campo Ram贸n","caravans":"yes","name":"Camping Lipowski","phone":"+54 3755 218269","static_caravans":"yes","tents":"yes"}},"11080871578":{"location":[-27.4705988,-55.0354592],"ct":"AR","tp":"CS","ts":"2024-03-01T12:48:36Z","tX":355,"tY":593,"tags":{"addr:city":"Campo Ram贸n","addr:street":"Ruta Provincial 103","contact:instagram":"https://www.instagram.com/camping_lospinos_/","name":"Camping Los Pinos","phone":"+54 3755 248438;3755 691481","tents":"yes"}},"11409761441":{"location":[-27.4861847,-55.0319814],"ct":"AR","tp":"CS","ts":"2024-03-01T13:31:04Z","tX":355,"tY":593,"tags":{"addr:city":"veinticinco de mayo","name":"Camping Los Hermanos","phone":"+54 3755 419821","tents":"yes"}},"11665293614":{"location":[-27.5518616,-55.0852718],"ct":"AR","tp":"CS","ts":"2024-02-26T14:11:27Z","tX":355,"tY":593,"tags":{"addr:city":"Los Helechos","fee":"yes","name":"Lagunas de la Selva","payment:debit_cards":"yes","payment:electronic_purses":"yes"}},"11681620238":{"location":[-27.4912422,-54.9512193],"ct":"AR","tp":"CS","ts":"2024-03-01T12:58:54Z","tX":355,"tY":593,"tags":{"name":"Agrocamping Los Nietos","phone":"+54 3755 583444","tents":"yes"}},"11681637990":{"location":[-27.40544,-55.0134849],"ct":"AR","tp":"CS","ts":"2024-03-01T13:17:40Z","tX":355,"tY":593,"tags":{"addr:city":"Campo Ram贸n","name":"Salto Teodoro Cuenca","phone":"+54 3755 690839;3755 261209","tents":"yes"}},"11681664529":{"location":[-27.4439208,-55.0603072],"ct":"AR","tp":"CS","ts":"2024-03-01T13:38:53Z","tX":355,"tY":593,"tags":{"addr:city":"Campo Ram贸n","name":"Camping Azcona","phone":"+54 3755 630492","tents":"yes"}},"11681711389":{"location":[-27.5593348,-55.1880069],"ct":"AR","tp":"CS","ts":"2024-03-01T13:35:30Z","tX":355,"tY":593,"tags":{"name":"Camping Oasis","phone":"+54 3755 630492","tents":"yes"}},"11681732677":{"location":[-27.5034715,-54.8823094],"ct":"AR","tp":"CS","ts":"2024-03-01T13:54:10Z","tX":355,"tY":593,"tags":{"addr:city":"Campo Ram贸n","name":"Barra El Ceibo","phone":"+54 3755 349488","tents":"yes"}},"11872724038":{"location":[-27.5334774,-55.1913859],"ct":"AR","tp":"CS","ts":"2024-05-01T22:16:15Z","tX":355,"tY":593,"tags":{"addr:city":"Guaran铆","addr:street":"Ruta Nacional 14","name":"Camping San Ger贸nimo"}}}