{"229405075":{"location":[-27.8690501,-55.156474],"ct":"AR","tp":"CS","ts":"2020-11-14T22:06:48Z","tX":355,"tY":594,"tags":{}},"463236220":{"location":[-27.7287728,-54.9118682],"ct":"AR","tp":"CS","ts":"2023-12-11T13:18:50Z","tX":355,"tY":594,"tags":{"addr:city":"Panambí","addr:street":"Santiago Solís","caravans":"yes","name":"Camping Municipal","operator":"Municipio Panambí","phone":"+54 3755 434506","tents":"yes"}},"8119551224":{"location":[-27.8692292,-55.1567203],"ct":"AR","tp":"CS","ts":"2023-12-11T13:05:31Z","tX":355,"tY":594,"tags":{"addr:city":"San Javier","addr:street":"Lote 19","caravans":"yes","facebook":"https://www.facebook.com/PuertoArenaOficial/","fee":"yes","name":"Camping Puerto Arena","payment:debit_cards":"yes","payment:electronic_purses":"yes","phone":"+54 9 3754 46-9635","tents":"yes"}},"11409631669":{"location":[-27.7222858,-55.0540755],"ct":"AR","tp":"CS","ts":"2023-12-11T13:10:37Z","tX":355,"tY":594,"tags":{"addr:city":"Mojón Grande","caravans":"yes","name":"Camping Salto Carpes","phone":"+54 3755 674019","static_caravans":"yes","tents":"yes"}},"11409647916":{"location":[-27.7256018,-54.9109037],"ct":"AR","tp":"CS","ts":"2023-12-11T13:22:50Z","tX":355,"tY":594,"tags":{"addr:city":"Panambí","caravans":"yes","name":"Camping Puerto Sánchez","phone":"+54 3755 651966","static_caravans":"yes","tents":"yes"}},"4948841023":{"location":[-27.7991181,-54.9962],"ct":"BR","tp":"CS","ts":"2017-07-05T00:07:42Z","tX":355,"tY":594,"tags":{"addr:housenumber":"000","addr:postcode":"98800-000","name":"Dede"}}}