{"4482447690":{"location":[24.6354478,54.7219371],"ct":"AE","tp":"CS","ts":"2016-11-04T17:53:31Z","tX":667,"tY":439,"tags":{}},"4608144489":{"location":[24.5288056,54.6756992],"ct":"AE","tp":"CR","ts":"2017-01-14T16:58:45Z","tX":667,"tY":439,"tags":{"name":"جمال","name:ar":"جمال"}},"4873245321":{"location":[24.6180188,54.710959],"ct":"AE","tp":"CR","ts":"2023-01-09T13:33:07Z","tX":667,"tY":439,"tags":{"addr:postcode":"78866","name":"الرحبة بيتنا","name:ar":"الرحبة بيتنا"}},"4873245323":{"location":[24.6237255,54.7158485],"ct":"AE","tp":"CR","ts":"2018-02-27T17:34:13Z","tX":667,"tY":439,"tags":{"addr:city":"الرحبة","addr:street":"شارع 14","name":"الرحبة بيتنا","name:ar":"الرحبة بيتنا","name:en":"alrahba hom"}},"4873252124":{"location":[24.6180532,54.7109871],"ct":"AE","tp":"CR","ts":"2018-03-06T19:03:12Z","tX":667,"tY":439,"tags":{"name":"منزلنا الرحبه","name:ar":"منزلنا الرحبه","name:en":"hom alrahba"}},"6039962385":{"location":[24.554241,54.6866894],"ct":"AE","tp":"CR","ts":"2018-11-05T18:40:22Z","tX":667,"tY":439,"tags":{"addr:housenumber":"8","addr:street":"شارع 23","email":"Alhameli1989@gmail.com","name":"منزل محمد ضحي الهاملي","website":"http://Alhameli1989@gmail.com"}}}