{"4160357489":{"location":[24.2538685,54.626785],"ct":"AE","tp":"CS","ts":"2020-11-19T20:51:05Z","tX":667,"tY":440,"tags":{"name":"قرية الراحة","name:ar":"قرية الراحة","name:en":"Al Raha village"}},"4237008289":{"location":[24.5019478,54.6543467],"ct":"AE","tp":"CS","ts":"2018-03-06T19:09:10Z","tX":667,"tY":440,"tags":{"addr:housenumber":"Villas 1-56","addr:street":"Al Shahama Rd., Al Bahia","internet_access":"wlan","name":"Falcon Aviation Compound","name:en":"Falcon Aviation Compound"}},"4408954389":{"location":[24.288206,54.5955826],"ct":"AE","tp":"CS","ts":"2019-02-17T12:38:25Z","tX":667,"tY":440,"tags":{"name":"Ramesh mafraq","name:en":"Ramesh mafraq"}},"4517345389":{"location":[24.2878405,54.5966377],"ct":"AE","tp":"CS","ts":"2016-11-23T16:28:03Z","tX":667,"tY":440,"tags":{}},"4569869991":{"location":[24.2812382,54.5763589],"ct":"AE","tp":"CS","ts":"2019-02-17T12:38:28Z","tX":667,"tY":440,"tags":{"name":"Amana company camp abu dhabi","name:en":"Amana company camp abu dhabi"}},"4569880589":{"location":[24.3476059,54.5116562],"ct":"AE","tp":"CS","ts":"2019-02-17T12:38:28Z","tX":667,"tY":440,"tags":{"name":"Al jimi worker village","name:en":"Al jimi worker village"}},"4584229491":{"location":[24.2810561,54.5763834],"ct":"AE","tp":"CS","ts":"2019-02-17T12:38:29Z","tX":667,"tY":440,"tags":{"name":"Amana camp","name:en":"Amana camp"}},"4584231889":{"location":[24.2529474,54.6274535],"ct":"AE","tp":"CS","ts":"2019-02-17T12:38:29Z","tX":667,"tY":440,"tags":{"name":"China camp","name:en":"China camp"}},"4685195995":{"location":[24.2594845,54.6271452],"ct":"AE","tp":"CS","ts":"2019-02-17T12:38:29Z","tX":667,"tY":440,"tags":{"name":"China camp gate 6","name:en":"China camp gate 6"}},"4759697130":{"location":[24.3642423,54.5094744],"ct":"AE","tp":"CS","ts":"2019-02-12T09:47:27Z","tX":667,"tY":440,"tags":{"name":"M11","name:en":"M11"}},"4971820221":{"location":[24.5087843,54.5718474],"ct":"AE","tp":"CS","ts":"2020-05-08T13:47:23Z","tX":667,"tY":440,"tags":{"access":"permissive"}},"5180628222":{"location":[24.4095377,54.5981042],"ct":"AE","tp":"CS","ts":"2017-10-21T19:34:32Z","tX":667,"tY":440,"tags":{"addr:street":"19th street","name":"ڤيلا / عبدالله باعمر- خليفة أ A"}},"5381002021":{"location":[24.2600671,54.6258763],"ct":"AE","tp":"CS","ts":"2019-02-12T11:33:24Z","tX":667,"tY":440,"tags":{"name":"aziz room","name:en":"aziz room"}},"5525464436":{"location":[24.2593592,54.6268154],"ct":"AE","tp":"CS","ts":"2018-04-03T13:49:07Z","tX":667,"tY":440,"tags":{"name":"F59 Nepali room"}},"6766273110":{"location":[24.3323795,54.8069518],"ct":"AE","tp":"CS","ts":"2019-09-02T12:59:46Z","tX":667,"tY":440,"tags":{"name":"سكن عمال- الشامخه (شركة غنتوت)","name:en":"Labour Camp- Shamkha (Ghantoot Company)"}},"6766273988":{"location":[24.332299,54.8068566],"ct":"AE","tp":"CS","ts":"2019-09-02T12:59:47Z","tX":667,"tY":440,"tags":{"name":"سكن عمال- الشامخه (شركة غنتوت)","name:en":"Labour Camp- Shamkha (Ghantoot Company)"}},"4446645393":{"location":[24.3124904,54.4981224],"ct":"AE","tp":"CR","ts":"2016-10-13T21:18:10Z","tX":667,"tY":440,"tags":{"name":"سكن الضفره","name:ar":"سكن الضفره"}},"4523228416":{"location":[24.3226145,54.531132],"ct":"AE","tp":"CR","ts":"2018-03-06T21:55:25Z","tX":667,"tY":440,"tags":{"name":"Balkies Res musaffah","name:en":"Balkies Res musaffah"}},"4659446391":{"location":[24.473453,54.6686],"ct":"AE","tp":"CR","ts":"2018-03-06T20:00:55Z","tX":667,"tY":440,"tags":{"name":"Fibrex Camp","name:en":"Fibrex Camp"}},"4843049522":{"location":[24.3732188,54.5371024],"ct":"AE","tp":"CR","ts":"2018-03-06T21:44:36Z","tX":667,"tY":440,"tags":{"addr:street":"المصفح ...مزيد مول ط3","fixme":"name, name:ar mismatch.","internet_access":"wlan","name":"موقع وزارة العمل مكتب علاقات العمل مزيد مول ط3","name:ar":"موقع وزارة الهمل مكتب علاقات العمل مزيد مول ط3"}},"4919386427":{"location":[24.3566,54.505845],"ct":"AE","tp":"CR","ts":"2019-02-12T11:32:41Z","tX":667,"tY":440,"tags":{"email":"kinsteel@emirates.net.ae","name":"Steel king engineering","name:en":"Steel king engineering","opening_hours":"Sa-Th 07:00-19:00","phone":"+97125550165","website":"http://www.kingsteelengg.com"}},"5000930721":{"location":[24.3358784,54.5043484],"ct":"AE","tp":"CR","ts":"2019-02-12T11:32:49Z","tX":667,"tY":440,"tags":{"name":"work","name:en":"work"}},"5042283421":{"location":[24.446685,54.7412371],"ct":"AE","tp":"CR","ts":"2017-08-18T06:08:40Z","tX":667,"tY":440,"tags":{"name":"الفلاح","name:ar":"الفلاح"}},"5357023122":{"location":[24.3837013,54.698658],"ct":"AE","tp":"CR","ts":"2018-03-06T21:38:11Z","tX":667,"tY":440,"tags":{"name":"أبوظبي","name:ar":"أبوظبي"}}}