{"409276223":{"location":[29.4464214,-10.1146231],"ct":"MA","tp":"CS","ts":"2016-04-10T14:44:29Z","tX":483,"tY":424,"tags":{"name":"Legzira Camping"}},"655085162":{"location":[29.3829072,-10.1754224],"ct":"MA","tp":"CS","ts":"2022-07-30T14:45:05Z","tX":483,"tY":424,"tags":{"addr:city":"Sidi Ifni","addr:city:es":"Sidi Ifni","name":"Camping El Barco","name:es":"Camping El Barco"}},"763073031":{"location":[29.3778975,-10.1789657],"ct":"MA","tp":"CS","ts":"2022-07-30T13:49:20Z","tX":483,"tY":424,"tags":{"name":"Camping Municipal","name:es":"Camping Municipal"}},"1138177396":{"location":[29.3960332,-10.1485529],"ct":"MA","tp":"CS","ts":"2023-02-06T01:32:07Z","tX":483,"tY":424,"tags":{"access":"customers","addr:city":"Sidi Ifni ⵙⵉⴷⵉ ⵉⴼⵏⵉ سيدي إفني","charge":"65 EUR","fee":"yes","name":"Camping Tamhrouchte مخيم تامحروسهت"}},"2074839358":{"location":[29.3843628,-10.171287],"ct":"MA","tp":"CS","ts":"2022-07-30T14:45:05Z","tX":483,"tY":424,"tags":{"name":"Camping Solymar","name:es":"Camping Solymar","source":"claude91 ...GPS .."}},"2074849695":{"location":[29.3850265,-10.173009],"ct":"MA","tp":"CS","ts":"2022-07-30T14:45:05Z","tX":483,"tY":424,"tags":{"caravans":"yes","name":"Camping Sidi Ifni","name:es":"Camping Sidi Ifni","source":"claude91","tents":"yes"}},"3273661683":{"location":[29.4463612,-10.1147864],"ct":"MA","tp":"CS","ts":"2015-01-06T19:58:36Z","tX":483,"tY":424,"tags":{"name":"Legzira camping"}},"3305531145":{"location":[29.5079855,-10.068763],"ct":"MA","tp":"CS","ts":"2015-01-23T09:54:28Z","tX":483,"tY":424,"tags":{"name":"Camp Erkounte Park"}},"5277827284":{"location":[29.3961785,-10.1497203],"ct":"MA","tp":"CS","ts":"2017-12-12T11:58:38Z","tX":483,"tY":424,"tags":{"caravans":"yes","name":"Camping Tamhrouchte مخيم تامحروسهت","name:ar":"مخيم تامحروسهت","name:fr":"Camping Tamhrouchte","tents":"yes"}},"5277827297":{"location":[29.3839116,-10.17187],"ct":"MA","tp":"CS","ts":"2022-07-30T13:49:20Z","tX":483,"tY":424,"tags":{"caravans":"yes","name":"Camping Gran Canaria","name:es":"Camping Gran Canaria","tents":"no"}},"10694483106":{"location":[29.4554182,-10.1080007],"ct":"MA","tp":"CR","ts":"2023-02-26T10:09:11Z","tX":483,"tY":424,"tags":{"name:de":"Parkplatz"}}}