{"190824960":{"location":[29.000965,-10.188435],"ct":"MA","tp":"CS","ts":"2020-07-05T23:23:21Z","tX":483,"tY":425,"tags":{"addr:city":"القصابي تاكوست","addr:city:ar":"القصابي تاكوست","name":"Camping Sabra تخييم صبرة","name:ar":"تخييم صبرة","name:fr":"Camping Sabra"}},"335351667":{"location":[28.9410827,-9.9332558],"ct":"MA","tp":"CS","ts":"2015-03-29T12:43:51Z","tX":483,"tY":425,"tags":{"cuisine":"regional","name":"Camping & Restaurant Aain Nakhla"}},"395577619":{"location":[28.9426942,-9.9495822],"ct":"MA","tp":"CS","ts":"2016-02-02T14:37:55Z","tX":483,"tY":425,"tags":{"capacity":"15","fee":"yes","name":"Camping Touareg","note":"Gebühr= 30 DH","operator":"Mohamed El Hauou","phone":"+212 623-876396","website":"http://www.kasteninblau.de/neu-camping-touareg/"}},"609954998":{"location":[28.9451383,-9.9449636],"ct":"MA","tp":"CS","ts":"2015-01-23T17:28:34Z","tX":483,"tY":425,"tags":{"name":"de L'Oasis"}},"1835596561":{"location":[28.9669997,-9.9504618],"ct":"MA","tp":"CS","ts":"2012-07-23T17:56:05Z","tX":483,"tY":425,"tags":{"name":"Domaine Khattab"}},"1878032670":{"location":[29.1134157,-10.0195748],"ct":"MA","tp":"CS","ts":"2016-02-16T15:08:16Z","tX":483,"tY":425,"tags":{"name":"Camp La Vallée Abaynou","website":"http://www.la-vallee-camping.fr/camping_045.htm"}},"1878032671":{"location":[29.0154331,-10.0235568],"ct":"MA","tp":"CS","ts":"2012-08-22T17:38:32Z","tX":483,"tY":425,"tags":{"FIXME":"correct position","name":"Camping International"}},"2935527750":{"location":[28.9665977,-9.9508402],"ct":"MA","tp":"CR","ts":"2014-06-27T13:47:32Z","tX":483,"tY":425,"tags":{}},"3307192773":{"location":[29.0956881,-10.0177715],"ct":"MA","tp":"CS","ts":"2015-01-24T09:35:13Z","tX":483,"tY":425,"tags":{}},"4052058296":{"location":[29.1138501,-10.0201097],"ct":"MA","tp":"CS","ts":"2025-03-18T12:24:31Z","tX":483,"tY":425,"tags":{"caravans":"yes","drinking_water":"yes","name":"Camping de la vallée","power_supply":"yes","sanitary_dump_station":"yes","shower":"yes","tents":"yes","toilets":"yes"}},"4915752023":{"location":[29.1089877,-9.892975],"ct":"MA","tp":"CS","ts":"2017-06-22T17:24:02Z","tX":483,"tY":425,"tags":{"name":"Toutline توتلين","name:ar":"توتلين","name:en":"Toutline","name:fr":"Toutline"}},"4915752224":{"location":[29.098107,-9.8967715],"ct":"MA","tp":"CS","ts":"2017-06-22T17:24:02Z","tX":483,"tY":425,"tags":{"name":"Ouaoutelt واوتلت","name:ar":"واوتلت","name:en":"Wawtelt","name:fr":"Ouaoutelt"}},"6090516787":{"location":[28.9452497,-9.9449085],"ct":"MA","tp":"CS","ts":"2018-11-25T17:47:39Z","tX":483,"tY":425,"tags":{"name":"Tighmert","name:fr":"Camping l'Oasis"}},"6503503086":{"location":[28.9427369,-9.9494952],"ct":"MA","tp":"CS","ts":"2019-05-27T09:40:31Z","tX":483,"tY":425,"tags":{"name":"Camping de Touarg"}},"6503503087":{"location":[28.9428541,-9.9494869],"ct":"MA","tp":"CS","ts":"2019-05-27T09:40:32Z","tX":483,"tY":425,"tags":{"name":"Camping de touarg"}}}