{"4455295593":{"location":[-21.768469,-57.7750202],"ct":"BR","tp":"CS","ts":"2016-10-19T17:41:51Z","tX":347,"tY":575,"tags":{"name:pt":"Fazenda Nossa Senhora Aparecida"}},"4455380091":{"location":[-21.7304212,-57.7881662],"ct":"BR","tp":"CS","ts":"2016-10-19T17:41:41Z","tX":347,"tY":575,"tags":{"name:pt":"Fazenda Eldorado"}},"4455388789":{"location":[-21.7055126,-57.7850965],"ct":"BR","tp":"CS","ts":"2016-10-19T17:41:24Z","tX":347,"tY":575,"tags":{"name:pt":"Ramal km 10"}},"4468871090":{"location":[-21.8517858,-57.8245031],"ct":"BR","tp":"CS","ts":"2016-10-28T19:35:37Z","tX":347,"tY":575,"tags":{"name:pt":"Fazenda Quebracho (Entrada)"}},"4468889091":{"location":[-21.9299515,-57.8552476],"ct":"BR","tp":"CS","ts":"2016-10-28T19:35:41Z","tX":347,"tY":575,"tags":{"name:pt":"Fazenda Londrina 1(Sede)"}},"4468925189":{"location":[-21.7983724,-57.8024088],"ct":"BR","tp":"CS","ts":"2016-10-28T19:35:35Z","tX":347,"tY":575,"tags":{"name:pt":"Fazenda Santa Carmen"}},"4521109594":{"location":[-21.7075734,-57.7432061],"ct":"BR","tp":"CS","ts":"2019-10-01T01:23:49Z","tX":347,"tY":575,"tags":{"name":"Fazenda Anahi","place":"farm"}},"4521110395":{"location":[-21.7096144,-57.7370459],"ct":"BR","tp":"CS","ts":"2016-11-25T17:26:10Z","tX":347,"tY":575,"tags":{"name":"FAZENDA ARizona","name:pt":"FAZENDA ARizona"}}}