{"438836539":{"location":[-30.8919804,-57.9602065],"ct":"AR","tp":"CS","ts":"2024-01-30T17:25:18Z","tX":347,"tY":604,"tags":{"bbq":"yes","caravans":"yes","fee":"yes","lit":"yes","name":"Camping Municipal Chajarí","operator":"Municipalidad de Chajarí","picnic_table":"yes","shower":"yes","static_caravans":"yes","surface":"grass","tents":"yes","toilets":"yes","waste_disposal":"yes"}},"836504671":{"location":[-30.9134595,-57.9264668],"ct":"AR","tp":"CS","ts":"2020-08-12T19:26:54Z","tX":347,"tY":604,"tags":{"addr:city":"Santa Ana","addr:postcode":"3208","camp_site":"standard","name":"Camping Municipal de Santa Ana","phone":"+54 3456 15414351","website":"http://www.santaana.tur.ar/camping-municipal-de-santa-ana-ad.html"}},"1004166795":{"location":[-30.9805108,-57.9156082],"ct":"AR","tp":"CS","ts":"2021-11-19T00:02:17Z","tX":347,"tY":604,"tags":{"access":"private","addr:city":"Federación","addr:postcode":"3206","addr:street":"Avenida Rio de los Pajaros","dog":"yes","group_only":"no","name":"Camping Las Palmeras","power_supply":"yes","shower":"yes"}},"5539089578":{"location":[-30.9047256,-57.9102145],"ct":"AR","tp":"CS","ts":"2020-03-23T21:57:25Z","tX":347,"tY":604,"tags":{"description":"Ubicado sobre Lago de Salto Grande a 1 Km. de planta urbana","name":"Camping 52"}},"5539089579":{"location":[-30.8972958,-57.9501281],"ct":"AR","tp":"CS","ts":"2019-09-04T18:38:48Z","tX":347,"tY":604,"tags":{"camp_site":"basic","name":"Camping Drewanz","phone":"+54 3456 15620874","website":"http://www.santaana.tur.ar/camping-drewanz-ad.html"}}}