{"13386724":{"location":[53.1826444,7.7726266],"ct":"DE","tp":"CS","ts":"2023-06-25T09:48:14Z","tX":534,"tY":332,"tags":{"addr:city":"Apen","addr:housenumber":"4","addr:postcode":"26689","addr:street":"Schanzenweg","caravans":"yes","name":"Campingplatz Nordloh","shower":"yes","static_caravans":"yes","tents":"yes","toilets":"yes","washing_machine":"yes"}},"24990660":{"location":[53.2513525,7.9345994],"ct":"DE","tp":"CS","ts":"2024-09-11T12:08:56Z","tX":534,"tY":332,"tags":{"email":"info@camping-westerstede.de","name":"Campingplatz Westerstede","operator":"Tim und Sylvia Nixdorf","phone":"+49 4488 78234","power_supply":"yes","tents":"yes","website":"https://www.camping-westerstede.de/"}},"24990662":{"location":[53.2500107,7.934697],"ct":"DE","tp":"CR","ts":"2024-09-11T12:08:56Z","tX":534,"tY":332,"tags":{"addr:city":"Westerstede","addr:country":"DE","addr:housenumber":"2","addr:postcode":"26655","addr:street":"Süderstraße","capacity":"45","caravans":"no","description":"Stellplatz vor der Schranke","dog":"yes","dryer":"yes","email":"info@camping-westerstede.de","fax":"+49 4488 526885","fee":"yes","internet_access":"wlan","internet_access:fee":"no","lit":"no","name":"Campingplatz Westerstede","operator":"Tim und Sylvia Nixdorf","phone":"+49 4488 78234","power_supply":"yes","sanitary_dump_station":"customers","sanitary_dump_station:chemical_toilet":"yes","sanitary_dump_station:grey_water":"yes","shower":"yes","tents":"no","toilets":"yes","washing_machine":"yes","water_point":"yes","website":"https://www.camping-westerstede.de"}},"25942705":{"location":[53.1286679,7.9811133],"ct":"DE","tp":"CR","ts":"2019-03-28T14:58:23Z","tX":534,"tY":332,"tags":{"capacity":"8","email":"gemeinde@edewecht.de","fee":"yes","name":"Reisemobilstellplatz Edewecht","operator":"Gemeinde Edewecht","phone":"+49 4405 916-222","power_supply":"yes","tents":"no","website":"https://www.edewecht.de/tourismus-freizeit/reisemobilstellplatz.php"}},"30154239":{"location":[53.2185589,7.7866921],"ct":"DE","tp":"CR","ts":"2018-07-09T16:03:22Z","tX":534,"tY":332,"tags":{"caravans":"yes","surface":"unpaved"}},"38416864":{"location":[53.2028394,8.0396725],"ct":"DE","tp":"CS","ts":"2024-04-27T12:42:25Z","tX":534,"tY":332,"tags":{"addr:housenumber":"62","addr:street":"Wiefelsteder Straße","name":"Camping am Meer - Oeltjen","phone":"+49 4403 8457","website":"https://www.bad-zwischenahn-touristik.de/freizeit/freizeitangebote/freizeitfuehrer/poi/campingplatz-oeltjen/"}},"39533615":{"location":[53.1870566,8.0005619],"ct":"DE","tp":"CR","ts":"2023-01-18T18:01:20Z","tX":534,"tY":332,"tags":{"capacity":"50","caravans":"no","dog":"yes","fee":"yes","internet_access":"yes","internet_access:fee":"no","motorcar":"no","name":"Wohnmobilstellplatz Am Badepark","power_supply":"yes","toilets:wheelchair":"yes","wheelchair":"limited"}},"69390150":{"location":[53.1893214,8.0415476],"ct":"DE","tp":"CS","ts":"2020-09-01T06:36:01Z","tX":534,"tY":332,"tags":{"name":"Campingplatz Löns-Krug","website":"https://camping-loenskrug.de/"}},"225922992":{"location":[53.3249778,8.0589228],"ct":"DE","tp":"CS","ts":"2024-07-03T09:38:43Z","tX":534,"tY":332,"tags":{"caravans":"no","email":"info@ferienpark-bernsteinsee.de","fax":"+49 4458 916-70","fee":"yes","internet_access":"yes","internet_access:fee":"no","name":"Ferienpark am Bernsteinsee","phone":"+49 4458 916-63","tents":"yes","website":"https://ferienpark-bernsteinsee.de/"}},"293956922":{"location":[53.3260346,8.0645026],"ct":"DE","tp":"CR","ts":"2024-03-24T00:17:20Z","tX":534,"tY":332,"tags":{"capacity":"30","caravan_site:type":"holiday_park","charge":"10 EUR","description":"includes entrance fee to holiday park","fee":"yes","name":"Ferienpark am Bernsteinsee","power_supply":"yes","shower":"yes","tents":"no","toilets":"yes","website":"https://ferienpark-bernsteinsee.de/camping/wohnmobilplatz/"}},"473764247":{"location":[53.3072555,7.7465956],"ct":"DE","tp":"CR","ts":"2024-04-01T22:46:07Z","tX":534,"tY":332,"tags":{"capacity":"10","charge":"7 EUR","fee":"yes","internet_access":"wlan","internet_access:fee":"no","name":"Am Schützenplatz Uplengen-Remels","sanitary_dump_station":"yes","water_point":"yes"}},"780442895":{"location":[53.1997407,7.9919079],"ct":"DE","tp":"CR","ts":"2024-03-19T18:27:10Z","tX":534,"tY":332,"tags":{"capacity":"10","caravans":"no","dog":"yes","fee":"yes","power_supply":"yes","sanitary_dump_station":"no","tents":"no","wheelchair":"yes"}},"1233811561":{"location":[53.1259538,7.8081552],"ct":"DE","tp":"CR","ts":"2024-08-20T13:01:53Z","tX":534,"tY":332,"tags":{"addr:city":"Barßel","addr:housenumber":"3","addr:postcode":"26676","addr:street":"Am Fuhrenkamp","contact:email":"kontakt@wohnmobilcamp-smaland.de","contact:facebook":"https://www.facebook.com/people/Wohnmobilcamp-Småland-am-Harkebrügger-See/100083207868265/","contact:mobile":"+491725254664","description:de":"Stellplatzgenaues Online-Buchungssystem auf der Webseite","dog":"yes","internet_access":"wlan","internet_access:fee":"customers","name":"Wohnmobilcamp Småland am Harkebrügger See","operator":"Hans-Jürgen Lampe","payment:cash":"yes","payment:credit_cards":"yes","payment:paypal":"yes","power_supply":"yes","reservation":"no","sanitary_dump_station":"yes","shower":"yes","toilets":"yes","website":"https://wohnmobilcamp-smaland.de"}},"1268247987":{"location":[53.3013007,7.7514519],"ct":"DE","tp":"CR","ts":"2024-04-01T22:46:07Z","tX":534,"tY":332,"tags":{"capacity":"5","charge":"7 EUR","fee":"yes","name":"An der Uferstraße Remels","power_supply":"yes","sanitary_dump_station":"yes","water_point":"yes","website":"https://uplengen.de/Freizeit-Sport-Tourismus/Tourismus/Wohnmobilstellpl%C3%A4tze/"}},"11273666369":{"location":[53.1832273,7.7736689],"ct":"DE","tp":"CR","ts":"2023-10-19T06:10:50Z","tX":534,"tY":332,"tags":{"name":"Nordloh"}},"11449310612":{"location":[53.1261494,7.8087143],"ct":"DE","tp":"CR","ts":"2023-12-24T12:50:01Z","tX":534,"tY":332,"tags":{"addr:city":"Barßel","addr:housenumber":"3","addr:postcode":"26676","addr:street":"Am Fuhrenkamp","internet_access":"wlan","name":"Hans-Jürgen Lampe","power_supply":"yes","sanitary_dump_station":"yes"}},"12074594877":{"location":[53.2151755,8.0194613],"ct":"DE","tp":"CR","ts":"2024-09-09T20:25:11Z","tX":534,"tY":332,"tags":{"check_date":"2024-09-09","fee":"yes","internet_access":"no","note":"15 €/Nacht bzw. 7 €/Tagesgäste","operator":"Das 53° Hotel","power_supply":"no","sanitary_dump_station":"no"}},"7284338814":{"location":[53.1867922,8.0004099],"ct":"DE","tp":"SD","ts":"2020-03-11T13:06:02Z","tX":534,"tY":332,"tags":{"sanitary_dump_station":"customers","sanitary_dump_station:chemical_toilet":"yes","sanitary_dump_station:fee":"yes","sanitary_dump_station:gravity":"yes","sanitary_dump_station:grey_water":"yes"}},"9743403948":{"location":[53.3226511,8.0603784],"ct":"DE","tp":"SD","ts":"2022-05-16T11:16:02Z","tX":534,"tY":332,"tags":{"fee":"no","water_point":"yes"}},"11449354427":{"location":[53.1262756,7.8087299],"ct":"DE","tp":"SD","ts":"2023-12-24T12:50:01Z","tX":534,"tY":332,"tags":{"operator":"Hans-Jürgen Lampe","website":"https://wohnmobilcamp-smaland.de"}},"12169879339":{"location":[53.2507882,7.9351035],"ct":"DE","tp":"SD","ts":"2024-09-11T12:08:56Z","tX":534,"tY":332,"tags":{}}}