{"89210839":{"location":[52.9183963,7.9471573],"ct":"DE","tp":"CS","ts":"2018-01-19T08:31:36Z","tX":534,"tY":333,"tags":{"addr:city":"Garrel","addr:country":"DE","addr:hamlet":"Petersfeld","addr:housenumber":"4","addr:postcode":"49681","addr:street":"Drei-Brücken-Weg","email":"wilhelm.einhaus@ewetel.net","fax":"+49 4495 1285","landuse":"recreation_ground","name":"Campingplatz Einhaus","phone":"+49 4495 282","website":"http://hotel-einhaus.de/camping/"}},"95159724":{"location":[52.9159746,7.9497617],"ct":"DE","tp":"CS","ts":"2019-06-23T07:40:45Z","tX":534,"tY":333,"tags":{"name":"Campingplatz Waldesruh","operator":"Alfred Dittrich"}},"106124848":{"location":[52.9357519,7.9298158],"ct":"DE","tp":"CS","ts":"2023-11-09T22:42:31Z","tX":534,"tY":333,"tags":{"name":"Campingplatz Wilken","website":"https://www.camping-wilken.de/"}},"189192987":{"location":[52.9213088,7.9483318],"ct":"DE","tp":"CS","ts":"2018-01-19T08:43:25Z","tX":534,"tY":333,"tags":{"addr:city":"Garrel","addr:housenumber":"5","addr:postcode":"49681","addr:street":"Zum Strand","name":"Campingplatz Deeken","operator":"Heiko Deeken","website":"http://www.campingplatz-deeken.de/"}},"189192989":{"location":[52.9251359,7.9440116],"ct":"DE","tp":"CS","ts":"2017-07-01T14:40:10Z","tX":534,"tY":333,"tags":{"name":"Campingplatz Dittrich"}},"189192990":{"location":[52.9368648,7.9342417],"ct":"DE","tp":"CS","ts":"2023-11-09T22:42:38Z","tX":534,"tY":333,"tags":{"addr:city":"Friesoythe","addr:country":"DE","addr:housenumber":"1A","addr:postcode":"26169","addr:street":"Seeblickstraße","addr:suburb":"Thülsfelde","capacity":"160","email":"info@camping-wilken.de","fee":"yes","name":"Campingplatz Wilken Touristenplatz","phone":"+49 4495 261","website":"https://www.camping-wilken.de/"}},"189192997":{"location":[52.9340079,7.9336771],"ct":"DE","tp":"CS","ts":"2021-07-23T20:43:49Z","tX":534,"tY":333,"tags":{"addr:city":"Friesoythe","addr:country":"DE","addr:housenumber":"1","addr:postcode":"26169","addr:street":"Thüsfelder Straße","addr:suburb":"Thülsfelde","name":"Campingplatz Seeblick"}},"360305617":{"location":[52.9778115,7.7360118],"ct":"DE","tp":"CR","ts":"2019-06-07T09:27:29Z","tX":534,"tY":333,"tags":{"name":"Heidehof Jansen-Olliges"}},"670997841":{"location":[52.9369254,7.9317538],"ct":"DE","tp":"CS","ts":"2021-07-23T20:43:49Z","tX":534,"tY":333,"tags":{"addr:city":"Friesoythe","addr:housenumber":"1","addr:postcode":"26169","addr:street":"Thülsfelder Straße","addr:suburb":"Thülsfelde","capacity":"5","email":"info@camping-goeken.de","fax":"+49 4495 699732","fee":"yes","name":"Campingplatz Göken","operator":"Christoph Göken","website":"https://www.camping-goeken.de"}},"972077606":{"location":[52.9420413,8.0072777],"ct":"DE","tp":"CS","ts":"2024-08-11T11:46:19Z","tX":534,"tY":333,"tags":{"caravans":"no","group_only":"yes","name":"Kolping Freizeit Zentrum \"Pastorenbusch\"","operator":"Kolpingsfamilie Garrel","tents":"yes"}},"2101973178":{"location":[52.9339144,7.9313374],"ct":"DE","tp":"CR","ts":"2013-01-08T19:30:14Z","tX":534,"tY":333,"tags":{"name":"Thülsfelder Talsperre"}}}