{"28720725":{"location":[52.8573492,7.9272314],"ct":"DE","tp":"PK","ts":"2023-04-16T13:10:16Z","tX":534,"tY":334,"tags":{"access":"yes","caravans":"yes","description":"Zusatzschild 1048-17 Wohnmobil","fee":"no","name":"Schützenplatz","parking":"surface","surface":"asphalt","traffic_sign":"DE:1048-17"}},"139309367":{"location":[52.7125877,7.9404363],"ct":"DE","tp":"CS","ts":"2021-12-14T21:29:30Z","tX":534,"tY":334,"tags":{"addr:city":"Essen (Oldenburg)","addr:country":"DE","addr:housenumber":"9","addr:postcode":"49632","addr:street":"Unlandweg","backcountry":"no","cabins":"yes","capacity:tents":"100","caravans":"yes","kitchen":"yes","name":"Zelt- und Campingplatz an der Hase","openfire":"no","operator":"Gemeine Essen/Oldb.","phone":"+49 5434 8812","reservation":"required","shower":"yes","source":"Gemeinde Essen/Oldb.","tents":"yes","toilets":"yes","website":"https://essen-oldb.de/kultur-freizeit/jugendzeltplatz/"}},"168069295":{"location":[52.8770994,7.760038],"ct":"DE","tp":"CS","ts":"2023-07-29T00:01:36Z","tX":534,"tY":334,"tags":{"addr:city":"Vrees","addr:postcode":"49757","bbq":"yes","caravans":"no","contact:website":"https://www.sgwerlte.de/","fee":"yes","group_only":"yes","kitchen":"yes","name":"Jugendzeltplatz Dosenweg -Vrees-","openfire":"yes","operator":"Gemeinde Vrees","picnic_table":"yes","reservation":"required","shower":"yes","tents":"yes","toilets":"yes"}},"300068445":{"location":[52.8829184,7.9803963],"ct":"DE","tp":"CS","ts":"2023-08-10T12:55:43Z","tX":534,"tY":334,"tags":{"caravans":"no","email":"katharina.lampe1@ewetel.net","group_only":"yes","image":"http://www.molbergen.de/images/stories/tourismus_freizeit/zeltplatz.jpg","name":"Jugendzeltplatz am Dorfgemeinschaftshaus Resthausen/Stalförden","operator":"Gemeinde Molbergen","phone":"+4917635349218","stars":"5","tents":"yes","website":"https://www.thuelsfelder-talsperre.de/Gastgeber/Unterkunft/?c=104&r=54"}},"396087925":{"location":[52.8464415,8.0468465],"ct":"DE","tp":"CR","ts":"2024-09-05T10:29:39Z","tX":534,"tY":334,"tags":{"capacity":"8","caravan_site":"motorhome_stopover","caravan_site:type":"town","caravans":"no","charge":"5 EUR","dog":"yes","drinking_water":"yes","fee":"yes","name":"Parkplatz am Stadtpark Cloppenburg","operator":"Stadt Cloppenburg","power_supply":"yes","sanitary_dump_station":"yes","surface":"paving_stones","tents":"no","toilets":"no","website":"https://www.cloppenburg.de/portal/seiten/wohnmobilstellplaetze-900000032-31040.html"}},"753023139":{"location":[52.7316319,7.7577194],"ct":"DE","tp":"CR","ts":"2023-07-03T07:05:01Z","tX":534,"tY":334,"tags":{"contact:phone":"+49 5432 80370","drinking_water":"yes","fee":"yes","name":"Wohnmobilstellplatz Löningen","operator":"Touristinformation Altes Amt Löningen","power_supply":"yes","toilets":"yes","toilets:wheelchair":"yes","wheelchair":"yes"}},"1297746313":{"location":[52.7303153,7.7562507],"ct":"DE","tp":"CR","ts":"2025-02-02T18:05:44Z","tX":534,"tY":334,"tags":{"addr:city":"Löningen","addr:postcode":"49624","addr:street":"Angelbecker Straße","cabins":"no","caravan_site":"motorhome_stopover","caravan_site:type":"river;swimming_pool;town","fee":"no","fixme":"Ob der alte (direkt gegenüber auf der nördlichen Haseseite) noch offiziell als Stellplatz gekennzeichnet ist weiß ich nicht - bitte ggf. korrigieren","name":"Wohnmobilstellplatz Löningen am Freibad","operator":"Stadt Löningen","power_supply":"yes","power_supply:charge":"0.50 EUR/kWh","power_supply:fee":"yes","seasonal":"no","socket:cee_blue":"yes","static_caravans":"no","surface":"grass","tents":"no","traffic_sign":"DE:314,1048-17","website":"https://www.loeningen.de/portal/seiten/wohnmobilstellplatz-900000083-31140.html"}},"2327034115":{"location":[52.8530166,8.0552666],"ct":"DE","tp":"CR","ts":"2024-05-31T13:02:36Z","tX":534,"tY":334,"tags":{"addr:city":"Cloppenburg","addr:postcode":"49661","addr:street":"Bether Straße","caravan_site":"motorhome_stopover","caravan_site:type":"town","caravans":"no","dog":"yes","fee":"no","maxstay":"24 hours","name":"Parkplatz am Museumsdorf Cloppenburg","power_supply":"yes","tents":"no","website":"https://www.cloppenburg.de/portal/seiten/wohnmobilstellplaetze-900000032-31040.html"}},"3988865082":{"location":[52.8465188,8.0466012],"ct":"DE","tp":"SD","ts":"2016-02-04T21:28:12Z","tX":534,"tY":334,"tags":{"fee":"yes","opening_hours":"24/7","sanitary_dump_station:basin":"yes","sanitary_dump_station:chemical_toilet":"yes","sanitary_dump_station:fee":"yes","sanitary_dump_station:gravity":"yes","sanitary_dump_station:grey_water":"yes","sanitary_dump_station:round_drain":"yes","sanitary_dump_station:suction":"no"}},"9241674536":{"location":[52.7184914,7.7707377],"ct":"DE","tp":"CS","ts":"2023-08-01T21:22:03Z","tX":534,"tY":334,"tags":{"access":"customers","addr:city":"Löningen","addr:housenumber":"22","addr:postcode":"49624","addr:street":"Gänhauk","addr:suburb":"Angelbeck","capacity:caravans":"5","capacity:tents":"3","caravans":"yes","contact:website":"https://www.hof-am-kolk.de/","fee":"yes","name":"Camping, Hof am Kolk","operator":"Hof am Kolk","tents":"yes"}},"9950128694":{"location":[52.729021,7.7551295],"ct":"DE","tp":"CS","ts":"2022-08-12T21:52:39Z","tX":534,"tY":334,"tags":{"addr:city":"Löningen","addr:postcode":"49624","addr:street":"Angelbecker Straße","contact:phone":"+49 5432 3430","group_only":"yes","name":"Zeltplatz am Wellenfreibad","operator":"Stadt Löningen","reservation":"required"}},"8951856028":{"location":[52.7261222,7.7908414],"ct":"DE","tp":"CR","ts":"2021-07-28T11:33:51Z","tX":534,"tY":334,"tags":{"addr:city":"Löningen","addr:housenumber":"5","addr:postcode":"49624","addr:street":"Menslager Straße","contact:facebook":"https://www.facebook.com/pages/category/Gastropub/Gasthof-L%C3%BCdeke-Dalinghaus-100286341644192/","contact:website":"https://www.luedekedalinghaus.de/","fee":"yes","name":"Gasthaus Lüdeke-Dalinghaus"}},"9429571948":{"location":[52.7731881,7.854167],"ct":"DE","tp":"CR","ts":"2023-01-21T17:19:14Z","tX":534,"tY":334,"tags":{"access":"customers","addr:city":"Lastrup","addr:housenumber":"4","addr:postcode":"49688","addr:street":"Zur Heide","brand":"Staybetter.farm","capacity":"2","contact:email":"marina.wilken@gmx.net","contact:phone":"+49 4472-689813","contact:website":"https://milchviehbetriebwilken.jimdofree.com/staybetter-camping-and-farm/","fee":"yes","name":"Milchviehbetrieb Wilken"}},"9573101108":{"location":[52.8508724,7.7842845],"ct":"DE","tp":"CR","ts":"2022-03-12T16:31:19Z","tX":534,"tY":334,"tags":{"capacity:caravans":"2","fee":"yes","name":"Sonnenschein"}}}