{"40931832":{"location":[52.2997552,7.937983],"ct":"DE","tp":"CS","ts":"2022-05-02T16:31:58Z","tX":534,"tY":336,"tags":{"addr:city":"Osnabrück","addr:housenumber":"50","addr:postcode":"49076","addr:street":"Zum Attersee","contact:website":"http://www.camping-attersee.de/","fax":"+49 541 1814822","lastcheck":"2016-08-21","name":"Camping- und Freizeitgelände Attersee","phone":"+49 541 124147"}},"102977484":{"location":[52.4754666,7.8464395],"ct":"DE","tp":"CS","ts":"2016-11-27T21:24:49Z","tX":534,"tY":336,"tags":{"addr:city":"Bramsche","addr:housenumber":"18","addr:postcode":"49565","addr:street":"Am Campingplatz","name":"Tho-Bo Garten","operator":"Monika Tonsk","phone":"+49 54667018","website":"http://www.tho-bo-garten.de/"}},"153483710":{"location":[52.3123181,7.7632564],"ct":"DE","tp":"CS","ts":"2024-07-30T16:27:24Z","tX":534,"tY":336,"tags":{"addr:city":"Mettingen","addr:country":"DE","addr:housenumber":"73","addr:postcode":"49497","addr:street":"Schwarze Straße","caravans":"yes","drinking_water":"yes","name":"Zur schönen Aussicht","shower":"yes","tents":"yes","toilets":"yes"}},"358342273":{"location":[52.3660257,7.8519947],"ct":"DE","tp":"CS","ts":"2023-11-06T00:10:44Z","tX":534,"tY":336,"tags":{"addr:city":"Westerkappeln","addr:housenumber":"16","addr:postcode":"49492","addr:street":"Schachselstraße","name":"Campingplatz Weißes Moor","operator":"Herbert & Ursula Köppel","website":"https://www.campingkoeppel.de/"}},"434763076":{"location":[52.3736463,7.9598452],"ct":"DE","tp":"CR","ts":"2024-12-27T21:29:42Z","tX":534,"tY":336,"tags":{"addr:city":"Bramsche","addr:housenumber":"20","addr:postcode":"49565","addr:street":"Schagen","name":"Sportpark Königstannen","operator":"FSG Osnabrück e.V."}},"657666650":{"location":[52.2710128,8.0400996],"ct":"DE","tp":"CR","ts":"2018-12-24T16:25:57Z","tX":534,"tY":336,"tags":{"capacity":"7","fee":"yes","name":"Schlosswallhalle","tents":"no"}},"657668668":{"location":[52.3023006,8.0494987],"ct":"DE","tp":"CR","ts":"2018-12-24T16:35:20Z","tX":534,"tY":336,"tags":{"capacity":"5","contact:phone":"+49 541 20022401","contact:website":"https://www.osnabrueck.de/wohnen/parken/wohnmobil-stellplaetze.html","fee":"yes","name":"Wohnmobilstellplätze Nettebad","operator":"Stadtwerke Osnabrück","power_supply":"yes","tents":"no","water_point":"yes","wheelchair":"yes"}},"3667389913":{"location":[52.4143182,7.9937838],"ct":"DE","tp":"CR","ts":"2015-07-26T16:29:24Z","tX":534,"tY":336,"tags":{"name":"Reisemobilstellplatz am Hasebad"}}}