{"70986485":{"location":[52.2308413,7.8897964],"ct":"DE","tp":"CS","ts":"2021-10-01T08:30:55Z","tX":534,"tY":337,"tags":{"alt_name":"Regenbogen AG","name":"Camp Tecklenburg","source":"Bing","url":"http://www.regenbogen-camp.de/camping_tecklenburg.html"}},"83165160":{"location":[52.164731,7.761527],"ct":"DE","tp":"CS","ts":"2023-04-15T13:19:29Z","tX":534,"tY":337,"tags":{"addr:city":"Ladbergen","addr:country":"DE","addr:housenumber":"1","addr:postcode":"49549","addr:street":"Buddenkuhle","caravans":"yes","email":"ladbergen@regenbogen.ag","fax":"+49 5485 963 55","motorhome":"yes","name":"Regenbogen Ladbergen","operator":"Regenbogen AG","phone":"+49 5485 963 53","shower":"yes","tents":"yes","toilets":"yes","website":"https://www.regenbogen.ag/ferienanlagen/ladbergen/anlage.html"}},"83165161":{"location":[52.1684895,7.7651467],"ct":"DE","tp":"CS","ts":"2021-09-24T09:11:00Z","tX":534,"tY":337,"tags":{}},"87096046":{"location":[52.2146199,7.8209663],"ct":"DE","tp":"CS","ts":"2020-07-06T20:54:17Z","tX":534,"tY":337,"tags":{"name":"Am Knoblauchsberg"}},"88708636":{"location":[52.168176,7.9818232],"ct":"DE","tp":"CS","ts":"2024-06-26T14:45:51Z","tX":534,"tY":337,"tags":{"addr:housenumber":"44","addr:postcode":"49536","addr:street":"Holperdorp","caravans":"yes","fee":"yes","name":"Eurocamp","phone":"+49 5483 290","shower":"yes","static_caravans":"yes","tents":"yes","toilets":"yes","website":"http://camping-lienen.de/"}},"90357994":{"location":[52.1919702,7.9130239],"ct":"DE","tp":"CS","ts":"2023-05-24T09:05:40Z","tX":534,"tY":337,"tags":{"addr:city":"Hagen am Teutoburger Wald","addr:housenumber":"12","addr:postcode":"49170","addr:street":"Am Höhneberg","caravans":"yes","email":"info@teutoburger-waldsee.de","name":"Campingplatz Teutoburger Waldsee","operator":"Pronobis GmbH","phone":"+49 5481 306298","tents":"no"}},"91562783":{"location":[52.2348405,7.7460068],"ct":"DE","tp":"CS","ts":"2022-01-15T22:38:33Z","tX":534,"tY":337,"tags":{"addr:city":"Tecklenburg","addr:housenumber":"12","addr:postcode":"49545","addr:street":"Im Bocketal","name":"Campingplatz Bocketal","operator":"Inh. Familie Visse","website":"https://bocketal.de/","wheelchair":"limited"}},"91568955":{"location":[52.1878428,7.8027745],"ct":"DE","tp":"CS","ts":"2024-08-20T13:01:53Z","tX":534,"tY":337,"tags":{"addr:city":"Lengerich","addr:housenumber":"40","addr:postcode":"49525","addr:street":"Zur Sandgrube","caravans":"yes","dog":"yes","email":"info@sonnenhuegel-camping.de","name":"Auf dem Sonnenhügel","phone":"+49 5481 - 6216","shower":"yes","tents":"yes","toilets":"yes","website":"https://sonnenhuegel-camping.de","wheelchair":"yes"}},"218243794":{"location":[52.2034394,7.9779042],"ct":"DE","tp":"CR","ts":"2023-07-02T18:39:26Z","tX":534,"tY":337,"tags":{"capacity":"16","contact:phone":"+49 5401 97727","fee":"no","name":"Am Schulten-Holz","sanitary_dump_station":"yes","surface":"paving_stones","water_point":"yes","website":"https://www.osnabruecker-land.de/hotel/wohnmobilstellplatz-hagen-atw"}},"226395339":{"location":[52.213538,7.8189748],"ct":"DE","tp":"CS","ts":"2023-10-21T20:12:15Z","tX":534,"tY":337,"tags":{}},"347321808":{"location":[52.136407,7.7386326],"ct":"DE","tp":"CR","ts":"2016-01-11T22:29:04Z","tX":534,"tY":337,"tags":{"contact:phone":"+49 5485 3635","fee":"no","name":"Stellplatz am Rathaus","power_supply":"no","sanitary_dump_station":"no","water_point":"no"}},"470781810":{"location":[52.2136042,7.8819304],"ct":"DE","tp":"CR","ts":"2023-05-07T15:40:27Z","tX":534,"tY":337,"tags":{}},"611282289":{"location":[52.1549697,7.9697754],"ct":"DE","tp":"CR","ts":"2016-09-01T20:02:24Z","tX":534,"tY":337,"tags":{"fee":"no","name":"Wohnmobilstellplatz Lienen"}},"1221119049":{"location":[52.2209043,7.8007222],"ct":"DE","tp":"CR","ts":"2024-07-02T11:13:56Z","tX":534,"tY":337,"tags":{"capacity:caravans":"5","charge":"4 EUR","dog":"yes","fee":"yes","name":"Bismarckturm Tecklenburg","power_supply":"no","sanitary_dump_station":"no","shower":"no","surface":"paved","website":"https://www.tecklenburg-touristik.de/unterkuenfte/camping/"}},"1229882225":{"location":[52.1544201,7.9667865],"ct":"DE","tp":"CS","ts":"2024-06-30T20:16:24Z","tX":534,"tY":337,"tags":{"operator":"Hallenfreibad Lienen"}},"1268133713":{"location":[52.1972967,8.0616608],"ct":"DE","tp":"CR","ts":"2024-08-01T09:49:10Z","tX":534,"tY":337,"tags":{"addr:city":"Georgsmarienhütte","addr:housenumber":"41","addr:street":"Südring","capacity":"4","caravans":"no","dog":"yes","fee":"no","name":"Wohnmobilstellplatz Georgsmarienhütte","operator":"Stadt Georgsmarienhütte","power_supply":"yes","tents":"no"}},"1297743954":{"location":[52.1546376,7.9667889],"ct":"DE","tp":"CS","ts":"2024-06-30T20:16:24Z","tX":534,"tY":337,"tags":{"operator":"Hallenfreibad Lienen"}},"1297743955":{"location":[52.1549342,7.966797],"ct":"DE","tp":"CS","ts":"2024-06-30T20:16:24Z","tX":534,"tY":337,"tags":{"operator":"Hallenfreibad Lienen"}},"1304712659":{"location":[52.2001768,8.0406535],"ct":"DE","tp":"CR","ts":"2024-07-30T19:49:16Z","tX":534,"tY":337,"tags":{"capacity":"2","fee":"no","power_supply":"no","sanitary_dump_station":"no","tents":"no"}},"1759441354":{"location":[52.2301776,7.8900153],"ct":"DE","tp":"CR","ts":"2012-05-20T09:11:21Z","tX":534,"tY":337,"tags":{}},"11824236207":{"location":[52.2481245,7.8595149],"ct":"DE","tp":"CR","ts":"2024-04-17T08:55:15Z","tX":534,"tY":337,"tags":{"name":"Reisemobilstellplätze"}},"11778154350":{"location":[52.1971994,8.0619465],"ct":"DE","tp":"SD","ts":"2024-04-03T06:45:16Z","tX":534,"tY":337,"tags":{"sanitary_dump_station:chemical_toilet":"yes","sanitary_dump_station:fee":"no","sanitary_dump_station:gravity":"yes","sanitary_dump_station:grey_water":"yes","sanitary_dump_station:suction":"no"}}}