{"34465739":{"location":[51.3069061,7.9404541],"ct":"DE","tp":"CS","ts":"2024-08-19T11:05:45Z","tX":534,"tY":341,"tags":{"capacity:pitches":"40","capacity:static_caravans":"285","caravans":"yes","dog":"yes","email":"camping-am-damm@sorpesee.de","name":"Campen am Damm","phone":"+49 171 8636584","shower":"yes","static_caravans":"yes","tents":"yes","toilets":"yes","website":"https://sorpesee.com/uebernachten-campen/camping-am-sorpesee/campen-am-damm/"}},"96459458":{"location":[51.2404351,8.0729125],"ct":"DE","tp":"CS","ts":"2024-10-01T07:38:28Z","tX":534,"tY":341,"tags":{"name":"Campingplatz Schliprüthener Mühle","operator":"Hans Schulte","phone":"+49 2724 207","website":"https://www.campingplatz-schlipruethen.de/"}},"126428542":{"location":[51.3354949,7.9377942],"ct":"DE","tp":"CS","ts":"2024-08-19T11:05:45Z","tX":534,"tY":341,"tags":{"caravans":"yes","dog":"yes","email":"info@sorpesee.de","name":"Zeltplatz 3a, Wohnmobil und Wohnwagenstellplätze","phone":"+49 175 4397062","shower":"yes","tents":"no","toilets":"yes","website":"https://www.sorpesee.de/camping-am-sorpesee/wohnmobil-und-wohnwagenstellplaetze.html"}},"126428545":{"location":[51.3376589,7.9376424],"ct":"DE","tp":"CS","ts":"2024-08-19T11:05:45Z","tX":534,"tY":341,"tags":{"caravans":"yes","dog":"yes","email":"info@sorpesee.de","name":"Zeltplatz 3, Nordic-Ferienpark Sorpesee","phone":"+49 2935 9699015","shower":"yes","tents":"yes","toilets":"yes","website":"https://www.sorpesee.de/camping-am-sorpesee/familiencamping.html"}},"126428546":{"location":[51.3401032,7.9435095],"ct":"DE","tp":"CS","ts":"2024-08-19T11:05:45Z","tX":534,"tY":341,"tags":{"addr:city":"Sundern (Sauerland)","addr:housenumber":"181","addr:postcode":"59846","addr:street":"Am Sorpesee","caravans":"yes","dog":"yes","email":"info@sorpesee.de","fee":"yes","name":"Zeltplatz 2, Familiencamping","operator":"Sorpesee GmbH","phone":"+49 177 6667476","shower":"yes","tents":"yes","toilets":"yes","website":"https://sorpesee.com/uebernachten-campen/camping-am-sorpesee/familiencamping/"}},"126428547":{"location":[51.331574,7.9368109],"ct":"DE","tp":"CS","ts":"2024-08-19T11:05:45Z","tX":534,"tY":341,"tags":{"caravans":"yes","dog":"yes","email":"info@sorpesee.de","name":"Zeltplatz 4, Naturcamping","phone":"+49 175 4397062","shower":"yes","tents":"yes","toilets":"yes","website":"https://www.sorpesee.de/camping-am-sorpesee/naturcamping.html"}},"126550203":{"location":[51.30854,7.9400119],"ct":"DE","tp":"CS","ts":"2024-08-19T11:05:45Z","tX":534,"tY":341,"tags":{"caravans":"yes","dog":"yes","email":"info@sorpesee.de","name":"Campingplatz 5a, Wohnmobil und Wohnwagenstellplätze","phone":"+49 171 8636584","shower":"yes","tents":"no","toilets":"yes","website":"https://www.sorpesee.de/camping-am-sorpesee/wohnmobil-und-wohnwagenstellplaetze.html"}},"132216436":{"location":[51.3546024,7.965069],"ct":"DE","tp":"CR","ts":"2025-05-27T09:15:34Z","tX":534,"tY":341,"tags":{"capacity":"21","caravan_site":"motorhome_stopover","caravan_site:type":"lake","caravans":"no","charge":"13 EUR","fee":"yes","name":"Wohnmobilstellplatz am Sorpedamm","opening_hours":"24/7","operator":"Sorpesee GmbH","power_supply":"yes","power_supply:charge":"0.70 EUR/kWh","power_supply:fee":"yes","reservation":"no","sanitary_dump_station":"yes","website":"https://sorpesee.com/uebernachten-campen/camping-am-sorpesee/wohnmobilstellplatz-am-sorpedamm/"}},"146404681":{"location":[51.2565532,7.7975118],"ct":"DE","tp":"CS","ts":"2023-09-05T09:02:31Z","tX":534,"tY":341,"tags":{"charge":"3.000 EUR/day;50.00 EUR/deposit","email":"info@biwakplatz-kettling.de","fee":"yes","name":"Biwakplatz Kettling","operator":"DPSG-Pfadfinder St. Michael Werdohl","website":"https://www.biwakplatz-kettling.de/"}},"165843143":{"location":[51.378991,7.771464],"ct":"DE","tp":"CR","ts":"2024-12-13T12:59:33Z","tX":534,"tY":341,"tags":{"access":"yes","addr:city":"Hemer","addr:postcode":"58675","addr:street":"Hönnetalstraße","capacity":"20","caravan_site":"motorhome_stopover","caravan_site:type":"town","charge":"5 EUR","fee":"yes","internet_access":"wlan","internet_access:fee":"no","name":"Wohnmobilstellplatz Sauerlandpark Hemer","opening_hours":"24/7","park_ride":"no","parking":"surface","power_supply":"yes","power_supply:charge":"0.50 EUR/0.9 KWh","power_supply:fee":"yes","reservation":"no","sanitary_dump_station":"yes","sanitary_dump_station:chemical_toilet":"yes","sanitary_dump_station:chemical_toilet:charge":"1 EUR","sanitary_dump_station:chemical_toilet:fee":"yes","sanitary_dump_station:grey_water":"yes","seasonal":"no","surface":"grass","toilets":"no","water_point":"yes","water_point:charge":"1 EUR/80 liter","website":"http://www.womoplatz-hemer.de/","wheelchair":"yes","wheelchair:description":"kein Rollstuhl WC vorhanden","wikimedia_commons":"Category:Wohnmobilstellplatz Hemer"}},"314257450":{"location":[51.2936767,8.0512158],"ct":"DE","tp":"PK","ts":"2024-12-05T15:28:01Z","tX":534,"tY":341,"tags":{"capacity":"10","fee":"no","motorhome":"yes","name":"Wanderparkplatz Rammstall","parking":"surface","surface":"gravel"}},"679500608":{"location":[51.3824264,8.0658267],"ct":"DE","tp":"CR","ts":"2024-07-03T23:38:37Z","tX":534,"tY":341,"tags":{"capacity":"7","caravan_site":"motorhome_stopover","caravan_site:type":"town","caravans":"no","fee":"no","internet_access":"no","name":"Wohnmobilstellplatz Arnsberg","power_supply":"no","sanitary_dump_station":"no","surface":"asphalt","tents":"no","website":"https://arnsberg-info.de/sonstiges-wissenswertes/wohnmobilstellplaetze/"}},"837563870":{"location":[51.322555,7.8395364],"ct":"DE","tp":"CS","ts":"2022-11-03T19:45:07Z","tX":534,"tY":341,"tags":{"access":"permissive","caravans":"no","fee":"yes","motorhome":"no","name":"Jugendgästehaus und Zeltplatz Bahnhof Garbeck","permanent_camping":"no","tents":"yes","website":"https://www.bahnhof-garbeck.de/"}},"868251451":{"location":[51.3704842,7.8602511],"ct":"DE","tp":"CR","ts":"2024-07-15T01:20:47Z","tX":534,"tY":341,"tags":{"addr:city":"Balve","addr:country":"DE","addr:housenumber":"1","addr:postcode":"58802","addr:street":"Binolen","capacity":"2","caravan_site":"motorhome_stopover","caravan_site:type":"restaurant","charge":"10 EUR","email":"info@haus-recke.de","fee":"yes","name":"Wohnmobilstellplatz Haus Recke im Hönnetal","opening_hours":"24/7","operator":"Hotel-Restaurant Gasthof Haus Recke","phone":"+49 2379 209","website":"https://www.haus-recke.de/"}},"1050738049":{"location":[51.2544222,7.7550126],"ct":"DE","tp":"CR","ts":"2024-08-04T21:32:29Z","tX":534,"tY":341,"tags":{"capacity":"4","caravan_site":"motorhome_stopover","caravan_site:type":"town","fee":"no","name":"Wohnmobilstellplatz am Westpark Werdohl","power_supply":"yes","sanitary_dump_station":"yes","water_point":"yes","website":"https://www.werdohl.de/freizeit-lebensqualitaet/tourismus/wohnmobilstellplaetze"}},"1305636544":{"location":[51.2324168,7.8517753],"ct":"DE","tp":"CR","ts":"2024-08-04T21:49:37Z","tX":534,"tY":341,"tags":{"bbq":"yes","capacity":"16","caravan_site":"motorhome_stopover","caravan_site:type":"swimming_pool","charge":"30 EUR","fee":"yes","internet_access":"wlan","internet_access:fee":"no","name":"Wohnmobilstellplatz PREMIUM AquaMagis","power_supply":"yes","power_supply:fee":"no","sanitary_dump_station":"yes","shower":"yes","toilets":"yes","water_point":"yes","website":"https://www.aquamagis.de/wohnmobile"}},"3688385800":{"location":[51.2535589,7.7634302],"ct":"DE","tp":"CR","ts":"2024-08-04T21:32:29Z","tX":534,"tY":341,"tags":{"capacity":"2","caravan_site":"motorhome_stopover","caravan_site:type":"parking_lot","fee":"no","name":"Wohnmobilstellplatz Lennepromenade","sanitary_dump_station":"no","website":"https://www.werdohl.de/freizeit-lebensqualitaet/tourismus/wohnmobilstellplaetze"}},"4560073518":{"location":[51.2222719,8.0289688],"ct":"DE","tp":"CR","ts":"2024-12-18T17:45:24Z","tX":534,"tY":341,"tags":{"capacity":"4","caravan_site":"motorhome_stopover","caravan_site:type":"farm_shop","contact:website":"http://www.landgasthof-rademacher.de","email":"info@landgasthof-rademacher.de","fee":"no","name":"Landgasthof Rademacher Caravanstellplätze","network":"Landvergnuegen","operator":"Landgasthof Rademacher","phone":"+49 2724 215","power_supply":"no","sanitary_dump_station":"no","water_point":"no","website":"https://landgasthof-rademacher.de/caravanstellplaetze.html"}},"7614687481":{"location":[51.2936335,8.0510961],"ct":"DE","tp":"CR","ts":"2020-12-20T11:25:34Z","tX":534,"tY":341,"tags":{"capacity":"2","internet_access":"no","power_supply":"no","sanitary_dump_station":"no"}},"7614687483":{"location":[51.2557313,8.0273762],"ct":"DE","tp":"CR","ts":"2024-04-01T10:39:40Z","tX":534,"tY":341,"tags":{"capacity":"2","internet_access":"no","name":"Wanderparkplatz Waldbach","power_supply":"no","sanitary_dump_station":"no"}},"7619761614":{"location":[51.2506504,8.0512279],"ct":"DE","tp":"CR","ts":"2020-06-14T13:21:37Z","tX":534,"tY":341,"tags":{"capacity":"3","internet_access":"no","power_supply":"no","sanitary_dump_station":"no"}},"10155329714":{"location":[51.3272077,7.8687637],"ct":"DE","tp":"CR","ts":"2024-12-13T17:38:47Z","tX":534,"tY":341,"tags":{"addr:city":"Balve","addr:country":"DE","addr:housenumber":"9","addr:postcode":"58802","addr:street":"In der Murmke","cabins":"no","capacity":"3","caravan_site":"motorhome_stopover","caravan_site:type":"village","caravans":"yes","email":"innenstadtbuero@balve.de","fee":"no","internet_access":"no","name":"Wohnmobilstellplatz am Hallenbad Balve","opening_hours":"24/7","operator":"Stadt Balve","permanent_camping":"no","phone":"+49 2375 926190","power_supply":"yes","reservation":"no","sanitary_dump_station":"yes","smoking":"yes","surface":"paving_stones","toilets":"no","water_point":"yes","website":"https://www.sauerland.com/de/neusta-hotel/wohnmobilstellplatz-balve-stadtzentrum","wheelchair":"yes"}},"8764590753":{"location":[51.3543305,7.9651069],"ct":"DE","tp":"SD","ts":"2021-05-25T12:06:28Z","tX":534,"tY":341,"tags":{"access":"yes","fee":"no","opening_hours":"24/7","operator":"Sorpesee GmbH","sanitary_dump_station:round_drain":"yes"}}}