{"1656096":{"location":[50.5978346,7.814993],"ct":"DE","tp":"CS","ts":"2022-09-12T17:59:06Z","tX":534,"tY":344,"tags":{"caravans":"yes","fee":"yes","name":"Campingplatz Haus am See","tents":"yes","website":"https://hausamsee-dreifelderweiher.com/campingpark/"}},"3131161":{"location":[50.5634246,7.814459],"ct":"DE","tp":"CS","ts":"2021-09-06T21:02:05Z","tX":534,"tY":344,"tags":{"addr:city":"Steinen","addr:housenumber":"2","addr:place":"Hofgut Schönerlen","addr:postcode":"56244","name":"Campingpark Hofgut Schönerlen","website":"https://www.camping-westerwald.de/"}},"8491796":{"location":[50.5646253,7.8265111],"ct":"DE","tp":"CS","ts":"2023-11-08T05:30:16Z","tX":534,"tY":344,"tags":{"name":"Campingplatz Freilingen am Postweiher","website":"https://www.campingplatz-freilingen.de/"}},"60167340":{"location":[50.6991882,7.7524375],"ct":"DE","tp":"CS","ts":"2024-10-03T08:51:25Z","tX":534,"tY":344,"tags":{"addr:city":"Heuzert","addr:housenumber":"1","addr:postcode":"57627","addr:street":"Wilhelmsteg","backcountry":"no","group_only":"yes","name":"Zeltplatz Wilhelmsteg","openfire":"yes","scout":"yes","tents":"yes","website":"https://wilhelmsteg.de"}},"90371180":{"location":[50.583483,7.7391391],"ct":"DE","tp":"CS","ts":"2023-08-19T04:16:03Z","tX":534,"tY":344,"tags":{"access":"private","addr:city":"Herschbach","addr:postcode":"56249","addr:street":"Schwimmbadweg","caravans":"no","name":"Dauercampingplatz Herschbach","operator":"Gemeinde Herschbach","phone":"+49 2666 9120666","static_caravans":"only","tents":"no","website":"https://www.kvv-herschbach.de/bereiche/campingplatz/"}},"92971902":{"location":[50.5483339,7.760583],"ct":"DE","tp":"CS","ts":"2019-06-17T17:23:37Z","tX":534,"tY":344,"tags":{"caravans":"yes","name":"Freibad & Campingplatz \"Klingelwiese\"","phone":"+49 2626 5043","tents":"yes","website":"http://klingelwiese.de/"}},"109457855":{"location":[50.5247645,7.9056349],"ct":"DE","tp":"CS","ts":"2024-06-23T18:58:06Z","tX":534,"tY":344,"tags":{"addr:city":"Elbingen","addr:housenumber":"1","addr:postcode":"56459","addr:street":"Seeblick","name":"Haus Seeblick","website":"https://www.seeblick1.de/"}},"141219396":{"location":[50.6428867,7.9355028],"ct":"DE","tp":"CR","ts":"2019-03-25T09:04:27Z","tX":534,"tY":344,"tags":{"fee":"yes","name":"Wohnmobilpark Bad Marienberg","power_supply":"yes","sanitary_dump_station":"yes","water_point":"yes","website":"https://www.marienbad-info.de/cms/wohnmobilpark/index.html"}},"149637569":{"location":[50.5878535,8.0357434],"ct":"DE","tp":"CS","ts":"2024-12-20T09:34:35Z","tX":534,"tY":344,"tags":{"caravans":"yes","drinking_water":"yes","name":"Campingplatz Weiherhof","power_supply":"yes","sanitary_dump_station":"yes","shower":"yes","tents":"yes","toilets":"yes","website":"https://www.camping-park-weiherhof.de/"}},"149637570":{"location":[50.5846221,8.032533],"ct":"DE","tp":"CS","ts":"2017-08-12T14:19:53Z","tX":534,"tY":344,"tags":{"name":"Campingplatz Weiherhof","place":"locality","source":"Bing"}},"313455495":{"location":[50.5943438,7.9998246],"ct":"DE","tp":"CR","ts":"2014-11-18T19:30:56Z","tX":534,"tY":344,"tags":{"name":"Stellplatz Wiesensee"}},"407511944":{"location":[50.7209421,7.7360367],"ct":"DE","tp":"CS","ts":"2024-10-09T13:36:28Z","tX":534,"tY":344,"tags":{"addr:city":"Stein-Wingert","addr:housenumber":"35","addr:postcode":"57629","addr:street":"Ringweg","caravans":"yes","fee":"yes","name":"Campingplatz Funk","operator":"J. Funk","phone":"+4926888778","shower":"yes","tents":"yes","toilets":"yes","website":"http://www.fewo-camping-funk.de/"}},"484387538":{"location":[50.5821627,7.9857702],"ct":"DE","tp":"CS","ts":"2023-11-08T05:30:20Z","tX":534,"tY":344,"tags":{"name":"Camping am Wiesensee","website":"https://wiesensee-camping.de/"}},"507399166":{"location":[50.6496977,7.8089779],"ct":"DE","tp":"CS","ts":"2021-01-30T00:53:44Z","tX":534,"tY":344,"tags":{"access":"yes","addr:city":"Hachenburg","addr:country":"DE","addr:postcode":"57627","addr:street":"Vor der Heck","caravans":"no","fee":"yes","group_only":"yes","internet_access":"no","name":"Jugendzeltplatz Hachenburg","openfire":"yes","operator":"Verband Christlicher Pfadfinderinnen und Pfadfinder","reservation":"required","tents":"yes"}},"653711332":{"location":[50.7162573,7.7508492],"ct":"DE","tp":"CS","ts":"2024-09-29T09:45:03Z","tX":534,"tY":344,"tags":{"addr:city":"Heimborn","addr:housenumber":"1","addr:postcode":"57629","addr:street":"Vor der Hardt","addr:suburb":"Erlich","dog":"yes","mobile":"+491733438852","name":"Campingplatz zum Nisterstrand","phone":"+492688757","shower":"yes","static_caravans":"yes","toilets":"yes","website":"http://www.nisterstrand.de/index.php"}},"671052631":{"location":[50.6944374,7.7750741],"ct":"DE","tp":"CS","ts":"2024-10-25T14:02:47Z","tX":534,"tY":344,"tags":{"access":"yes","caravans":"no","fee":"yes","group_only":"yes","name":"Zeltplatz Astert","note":"Lt. Campingplatzordnung keine Fahrzeuge erlaubt.","operator":"Gemeinde Astert","surface":"grass","tents":"yes","toilets":"yes","website":"http://www.astert.de/zeltplatz.htm"}},"713773094":{"location":[50.5871151,8.035634],"ct":"DE","tp":"CR","ts":"2024-07-16T20:44:00Z","tX":534,"tY":344,"tags":{"fee":"yes"}},"982149073":{"location":[50.5806505,8.0330936],"ct":"DE","tp":"CS","ts":"2012-04-28T07:22:47Z","tX":534,"tY":344,"tags":{"name":"Altes Kurhaus"}},"1086732650":{"location":[50.5634769,7.8235305],"ct":"DE","tp":"CR","ts":"2024-12-08T07:06:32Z","tX":534,"tY":344,"tags":{"contact:mobile":"+49 152 33977619","contact:phone":"+49 2666 242526","description":"Strom nur im hinteren, kleinen Platzteil. VE auf dem Campingplatz. Dort acu Anmeldung.","fee":"yes","name":"Wohnmobilstellplatz Westerwälder-Seenplatte","power_supply":"yes","sanitary_dump_station":"yes","water_point":"yes","website":"https://www.campingplatz-freilingen.de/campingplatz/zusaetzliche-stellplaetze/"}},"1260055114":{"location":[50.5608565,7.9987302],"ct":"DE","tp":"CS","ts":"2019-10-21T14:12:50Z","tX":534,"tY":344,"tags":{"name":"Zum Katzenstein"}},"1298064563":{"location":[50.6626752,7.827293],"ct":"DE","tp":"CR","ts":"2025-01-28T13:37:28Z","tX":534,"tY":344,"tags":{"capacity:caravans":"8","caravan_site":"motorhome_stopover","caravan_site:type":"town","dog":"yes","fee":"no","name":"Wohnmobilstellplatz Hachenburger Westerwald","phone":"+49 2662958339","power_supply":"yes","power_supply:capacity":"8","power_supply:charge":"0.25 EUR/ 1kWh","power_supply:fee":"yes","power_supply:maxcurrent":"16","reservation":"no","sanitary_dump_station":"yes","seasonal":"no","socket:schuko":"yes","surface":"grass_paver","toilets":"yes","water_point":"yes","website":"https://www.hachenburger-westerwald.de/uebernachten/campingwohnmobilstellplatz.html"}},"1308150253":{"location":[50.6823458,7.9453718],"ct":"DE","tp":"CR","ts":"2024-08-16T12:06:46Z","tX":534,"tY":344,"tags":{"addr:city":"Lautzenbrücken","addr:housenumber":"2","addr:place":"Hohensayn","addr:postcode":"56472","capacity:caravans":"7","caravans":"no","charge":"20.00 EUR","contact:email":"mail@straussenhof-hohensayn.de","contact:phone":"+49 170 2425547","contact:website":"https://straussenhof-hohensayn.de/","dog":"yes","fee":"yes","internet_access":"wlan","internet_access:fee":"no","kitchen":"no","motorhome":"yes","name":"Straußenhof Hohensayn","nudism":"no","operator":"Ulrich Wengenroth","permanent_camping":"no","picnic_table":"yes","power_supply":"yes","reservation":"yes","sanitary_dump_station":"yes","shower":"yes","static_caravans":"no","tents":"no","toilets":"yes","washing_machine":"no","waste_disposal":"no"}},"9067993452":{"location":[50.5640067,7.8125272],"ct":"DE","tp":"SD","ts":"2021-09-06T21:02:05Z","tX":534,"tY":344,"tags":{"sanitary_dump_station:round_drain":"yes"}},"9987822302":{"location":[50.5984414,7.8151067],"ct":"DE","tp":"SD","ts":"2022-08-30T08:53:00Z","tX":534,"tY":344,"tags":{"access":"customers"}},"10703060103":{"location":[50.6628318,7.8268301],"ct":"DE","tp":"SD","ts":"2023-03-01T23:45:33Z","tX":534,"tY":344,"tags":{"access":"yes","description":"Holiday Clean \nEntsorgung gegen Gefälle","fee":"no","opening_hours":"24/7","operator":"Tourist-Information Hachenburger Westerwald","water_point":"yes","website":"https://www.hachenburger-westerwald.de/uebernachten/campingwohnmobilstellplatz.html"}},"12114610807":{"location":[50.6823634,7.945381],"ct":"DE","tp":"SD","ts":"2024-08-17T15:54:03Z","tX":534,"tY":344,"tags":{"access":"customers","check_date":"2024-08-09","fee":"no","operator":"Straußenhof Hohensayn","sanitary_dump_station:chemical_toilet":"yes","sanitary_dump_station:gravity":"yes","sanitary_dump_station:grey_water":"yes","sanitary_dump_station:restrictions":"yes","water_point":"yes"}}}