{"4548481":{"location":[50.3397698,7.8582773],"ct":"DE","tp":"CS","ts":"2023-04-08T12:20:04Z","tX":534,"tY":345,"tags":{"name":"Campingplatz Seifried","phone":"+49 6439 7580"}},"32853325":{"location":[50.4362528,7.904852],"ct":"DE","tp":"CS","ts":"2024-03-06T09:12:27Z","tX":534,"tY":345,"tags":{"addr:city":"Girod","addr:housenumber":"1","addr:postcode":"56412","addr:street":"Campingplatz Eisenbachtal","capacity:caravans":"30","caravans":"yes","dog":"leashed","facebook":"https://www.facebook.com/campingeisenbachtal/","fee":"yes","name":"Campingplatz Eisenbachtal","phone":"+49 648 5766","power_supply":"yes","sanitary_dump_station":"yes","shower":"yes","static_caravans":"yes","tents":"yes","toilets":"yes","washing_machine":"yes"}},"68350111":{"location":[50.384373,7.7559053],"ct":"DE","tp":"CS","ts":"2023-11-05T07:58:02Z","tX":534,"tY":345,"tags":{"access":"customers","addr:city":"Arzbach","addr:postcode":"56337","addr:street":"Am Schwimmbad","caravans":"yes","description":"Campingplatz bei einem Restaurant. Freibad.","name":"Glücksgefühl","operator":"GlücksGefühl GbR","phone":"+49 2603 5075905","tents":"yes","website":"https://www.gluecks-gefuehl.com/"}},"95127393":{"location":[50.3111346,7.8415938],"ct":"DE","tp":"CS","ts":"2024-05-15T12:29:23Z","tX":534,"tY":345,"tags":{"contact:phone":"+49 15206815737","email":"roesleras@web.de","fax":"+49 2604 4666","name":"Campingplatz Schloß Langenau","website":"http://www.campingplatz-schloss-langenau.eu"}},"95149167":{"location":[50.3186809,7.7354658],"ct":"DE","tp":"CS","ts":"2023-10-11T23:49:20Z","tX":534,"tY":345,"tags":{"addr:city":"Bad Ems","addr:housenumber":"99","addr:postcode":"56130","addr:street":"Lahnstraße","fax":"+49 2603 4487","name":"Campingplatz Bad Ems","operator":"Schmidt-Henning","phone":"+49 2603 4679"}},"126508194":{"location":[50.3827431,8.002258],"ct":"DE","tp":"CS","ts":"2022-04-29T18:48:28Z","tX":534,"tY":345,"tags":{"addr:city":"Diez","addr:housenumber":"1a","addr:postcode":"65582","addr:street":"Strandbadweg","cabins":"yes","capacity:permanent_camping":"125","capacity:touristic":"125","caravans":"yes","dog":"yes","drinking_water":"yes","email":"info@camping-diez.de","fax":"+49 6432 924193","fee":"yes","motor_vehicle":"yes","name":"Campingplatz Oranienstein","operator":"Werner Mohr-Ulrich Herschel GbR","permanent_camping":"yes","phone":"+49 6432 2122","power_supply":"yes","sanitary_dump_station":"yes","shower":"yes","surface":"grass","tents":"yes","toilets":"yes","washing_machine":"yes","website":"https://www.camping-diez.de/"}},"127724656":{"location":[50.3620076,7.9022198],"ct":"DE","tp":"CR","ts":"2024-08-04T10:19:49Z","tX":534,"tY":345,"tags":{"capacity":"12","caravan_site":"motorhome_stopover","caravan_site:type":"lake","charge":"7 EUR","fee":"yes","name":"Wohnmobilstellplatz Herthasee","power_supply":"yes","reservation":"no","sanitary_dump_station":"yes","water_point":"yes","website":"http://www.holzappel-herthasee.de/herthasee.html","wheelchair":"yes"}},"127727008":{"location":[50.3622546,7.9029432],"ct":"DE","tp":"CS","ts":"2012-04-12T19:08:41Z","tX":534,"tY":345,"tags":{"name":"Gruppenzeltplatz","wheelchair":"limited"}},"147467168":{"location":[50.3270359,7.7537534],"ct":"DE","tp":"CS","ts":"2024-05-17T02:07:38Z","tX":534,"tY":345,"tags":{"caravans":"yes","drinking_water":"yes","name":"Campingplatz Dausenau","power_supply":"yes","shower":"yes","tents":"yes","toilets":"yes","website":"https://www.campingplatz-dausenau.de/"}},"186111421":{"location":[50.3144629,7.8505373],"ct":"DE","tp":"CS","ts":"2024-07-04T08:34:46Z","tX":534,"tY":345,"tags":{"name":"Campingplatz Obernhof-Arnstein","website":"https://www.campingplatz-obernhof.de/"}},"188306458":{"location":[50.3338851,7.8540304],"ct":"DE","tp":"CS","ts":"2016-01-20T18:46:57Z","tX":534,"tY":345,"tags":{"description":"Zeltplatz"}},"229502049":{"location":[50.3889461,8.073005],"ct":"DE","tp":"CR","ts":"2025-02-12T15:21:37Z","tX":534,"tY":345,"tags":{"caravan_site":"motorhome_stopover","caravan_site:type":"camp_site","charge":"17 EUR/24 hours","check_date:charge":"2022-09","contact:email":"info@camping-resort-limburg.de","contact:mobile":"+49 160 91996659","description":"Stellplatz vor der Schranke","fee":"yes","name":"Camping Resort Limburg","operator":"Camping Resort Limburg GmbH","power_supply":"yes","sanitary_dump_station":"yes","water_point":"yes","website":"https://www.camping-resort-limburg.de/wohnmobil-stellplatz/"}},"231573238":{"location":[50.3250706,7.8992724],"ct":"DE","tp":"CS","ts":"2024-07-17T22:44:28Z","tX":534,"tY":345,"tags":{"name":"Campingplatz Gutenacker (2)"}},"315151264":{"location":[50.4549121,7.994433],"ct":"DE","tp":"CS","ts":"2020-05-04T14:15:40Z","tX":534,"tY":345,"tags":{"name":"Campingplatz Hundsangen"}},"319912927":{"location":[50.3844012,8.0079561],"ct":"DE","tp":"CS","ts":"2024-05-19T17:24:44Z","tX":534,"tY":345,"tags":{"addr:city":"Diez","addr:housenumber":"47","addr:postcode":"65582","addr:street":"Zum Mühlchen","name":"Zum neuen Mühlchen","website":"https://www.camping-in-diez.de"}},"325510248":{"location":[50.3115556,7.7977178],"ct":"DE","tp":"CR","ts":"2024-08-04T10:59:45Z","tX":534,"tY":345,"tags":{"addr:city":"Nassau (Lahn)","addr:postcode":"56377","addr:street":"Leifheitstraße","capacity":"6","caravan_site":"motorhome_stopover","caravan_site:type":"town","caravans":"no","fee":"no","maxlength":"7.5","name":"Wohnmobilstellplatz Nassau","power_supply":"no","sanitary_dump_station":"yes","seasonal":"yes","water_point":"yes","water_point:fee":"yes","website":"https://www.badems-nassau.info/poi/wohnmobilstellplatz-nassau"}},"481116692":{"location":[50.3087213,7.800059],"ct":"DE","tp":"CS","ts":"2024-05-19T13:23:10Z","tX":534,"tY":345,"tags":{"contact:email":"campingplatz-aufderau@t-online.de","contact:phone":"+49 2604 4442","name":"Auf der Au","website":"http://www.camping-nassau.de/"}},"524774481":{"location":[50.3692703,7.8770055],"ct":"DE","tp":"CS","ts":"2022-06-05T09:32:42Z","tX":534,"tY":345,"tags":{"access":"customers","fee":"yes","name":"Zeltplatz Karlsheim","openfire":"yes","website":"https://www.karlsheim.de/uebernachten/zeltplatz/"}},"575542126":{"location":[50.4853933,8.0511257],"ct":"DE","tp":"CS","ts":"2021-08-27T04:45:35Z","tX":534,"tY":345,"tags":{"name":"Camping Lochmühle","website":"https://hotel-lochmuehle-westerwald.de/"}},"600273209":{"location":[50.3888048,8.0759923],"ct":"DE","tp":"CS","ts":"2025-02-13T15:39:10Z","tX":534,"tY":345,"tags":{"caravans":"yes","contact:email":"info@camping-resort-limburg.de","contact:mobile":"+49 160 91996659","fee":"yes","motorhome":"yes","name":"Camping Resort","operator":"Camping Resort Limburg GmbH","power_supply":"yes","sanitary_dump_station":"yes","water_point":"yes","website":"https://www.camping-resort-limburg.de/"}},"841725711":{"location":[50.3288998,7.9305819],"ct":"DE","tp":"CS","ts":"2024-07-19T04:29:07Z","tX":534,"tY":345,"tags":{"name":"Campingplatz Rupbachtal","toilets:wheelchair":"no","wheelchair":"no"}},"1833578130":{"location":[50.2913098,8.0326266],"ct":"DE","tp":"CS","ts":"2012-07-21T21:14:54Z","tX":534,"tY":345,"tags":{}},"9967755568":{"location":[50.3300144,7.913361],"ct":"DE","tp":"CS","ts":"2024-07-21T07:46:33Z","tX":534,"tY":345,"tags":{"name":"Gasthof zum Lahntal","website":"https://www.gasthofzumlahntal.de/camping/"}},"9972811453":{"location":[50.3971841,7.8291226],"ct":"DE","tp":"CS","ts":"2022-08-24T03:42:20Z","tX":534,"tY":345,"tags":{"access":"customers","cabins":"yes","description":"Die Personenkapazität von Zeltplatz 1 und 2 beträgt 150 Personen.","drinking_water":"yes","fee":"yes","group_only":"yes","hot_water":"yes","kitchen":"yes","name":"Zeltplatz 1","operator":"Verbandsgemeindeverwaltung Montabaur","reservation":"required","tents":"yes","toilets":"yes","waste_disposal":"yes","website":"https://www.feriendorf-untershausen.de/"}},"9973493959":{"location":[50.3974595,7.8308307],"ct":"DE","tp":"CS","ts":"2022-08-24T03:42:20Z","tX":534,"tY":345,"tags":{"access":"customers","cabins":"yes","description":"Die Personenkapazität von Zeltplatz 1 und 2 beträgt 150 Personen.","drinking_water":"yes","fee":"yes","group_only":"yes","hot_water":"yes","kitchen":"yes","name":"Zeltplatz 2","operator":"Verbandsgemeindeverwaltung Montabaur","reservation":"required","tents":"yes","toilets":"yes","waste_disposal":"yes","website":"https://www.feriendorf-untershausen.de/"}},"11572541876":{"location":[50.4630573,7.830388],"ct":"DE","tp":"CS","ts":"2024-01-31T11:17:01Z","tX":534,"tY":345,"tags":{"capacity:caravans":"2","caravans":"yes","static_caravans":"no","tents":"no"}},"4471922704":{"location":[50.4030865,8.0714702],"ct":"DE","tp":"CR","ts":"2024-07-02T09:24:35Z","tX":534,"tY":345,"tags":{"capacity":"3","caravan_site":"motorhome_stopover","caravan_site:type":"caravan_shop","fee":"no","name":"Freizeitfahrzeuge Singhof Stellplatz","power_supply":"yes","power_supply:fee":"yes"}},"9988673470":{"location":[50.3665534,7.9812506],"ct":"DE","tp":"CR","ts":"2022-08-30T14:51:49Z","tX":534,"tY":345,"tags":{}},"12091664679":{"location":[50.3015315,8.0660006],"ct":"DE","tp":"CR","ts":"2024-08-04T10:25:44Z","tX":534,"tY":345,"tags":{"caravan_site":"motorhome_stopover","caravan_site:type":"village","fee":"no","name":"Wohnmobilstellplatz Hahnstätten","opening_hours":"Su-Mo; Sep Sa[1],Su[1],Sa[2],Su[2] off","power_supply":"no","sanitary_dump_station":"no","water_point":"no","website":"https://www.daslahntal.de/planen-und-buchen/unterkuenfte/wohnmobilstellplaetze/pois/RPT/040eadd2-3c0c-4bd4-95d7-070cf974489f/wohnmobilstellplatz-hahnstaetten"}},"12104502475":{"location":[50.3887836,8.0758014],"ct":"DE","tp":"SD","ts":"2024-08-11T16:13:52Z","tX":534,"tY":345,"tags":{"sanitary_dump_station:chemical_toilet":"yes","sanitary_dump_station:fee":"no","sanitary_dump_station:gravity":"yes","sanitary_dump_station:grey_water":"yes","sanitary_dump_station:suction":"no"}}}