{"1337353":{"location":[49.8828767,7.8558097],"ct":"DE","tp":"CS","ts":"2024-08-16T07:17:00Z","tX":534,"tY":347,"tags":{"addr:city":"Guldental","addr:housenumber":"1","addr:postcode":"55452","addr:street":"Im Lindelgrund","caravans":"yes","drinking_water":"yes","email":"info@lindelgrund.de","fee":"yes","name":"Campingpark Lindelgrund","operator":"Wolfdieter Faust","phone":"+49 6707 633","power_supply":"yes","sanitary_dump_station":"yes","shower":"yes","source":"Bing","static_caravans":"yes","tents":"yes","toilets":"yes","website":"https://www.lindelgrund.de/"}},"34009590":{"location":[49.9698732,7.9402596],"ct":"DE","tp":"CS","ts":"2023-11-06T00:01:07Z","tX":534,"tY":347,"tags":{"name":"Campingplatz Hindenburgbrücke","website":"https://www.bauer-schorsch.de/"}},"50922029":{"location":[49.8973141,8.0244547],"ct":"DE","tp":"CR","ts":"2022-11-23T11:21:30Z","tX":534,"tY":347,"tags":{"capacity":"50","description":"4 CEE Steckdosen - Platz Ganzjährig geöffnet außer bei Veranstaltungen und Weihnachtsmarkt am 2 Advent im Dezember.","fee":"yes","maxstay":"4 days","name":"Reisemobilstellplatz Napoleonshöhe Ober-Hilbersheim","power_supply":"yes","sanitary_dump_station":"yes","water_point":"yes","website":"http://www.altes-pfarrhaus.de/11Wohnmobilplatz/index.html"}},"89944504":{"location":[50.0183442,7.8543908],"ct":"DE","tp":"CS","ts":"2021-08-07T21:42:12Z","tX":534,"tY":347,"tags":{"addr:city":"Lorch","addr:country":"DE","addr:postcode":"65391","addr:street":"Im Bodenthal","fax":"+49-6726-9440","name":"Naturpark-Camping Suleika","phone":"+49-6726-9464","source":"Bing","toilets:wheelchair":"no","website":"https://www.suleika-camping.de/","wheelchair":"yes"}},"117747450":{"location":[49.9630631,8.0121886],"ct":"DE","tp":"CR","ts":"2021-06-07T12:46:43Z","tX":534,"tY":347,"tags":{"capacity":"38","fee":"yes","internet_access":"yes","internet_access:fee":"yes","name":"Reimoplatz Gau-Algesheim","power_supply":"yes","sanitary_dump_station":"yes","website":"https://www.reimoplatz.de/"}},"124969087":{"location":[50.0057717,7.8558648],"ct":"DE","tp":"CS","ts":"2021-05-17T08:29:10Z","tX":534,"tY":347,"tags":{"addr:city":"Trechtingshausen","addr:housenumber":"1","addr:postcode":"55413","addr:street":"Am Morgenbach","name":"Campingplatz Marienort","website":"https://www.campingplatz-marienort.de/"}},"142685328":{"location":[49.9779827,7.9398045],"ct":"DE","tp":"CS","ts":"2022-07-21T09:35:19Z","tX":534,"tY":347,"tags":{"email":"info@campingplatz-ruedesheim.de","name":"Campingplatz am Rhein","operator":"Campingplatz am Rhein GmbH","phone":"+49 6722 2528","website":"https://www.campingplatz-ruedesheim.de/","wheelchair":"yes"}},"149403885":{"location":[50.0032807,7.9091516],"ct":"DE","tp":"CS","ts":"2023-11-06T00:00:51Z","tX":534,"tY":347,"tags":{"caravans":"yes","name":"Ebentaler Hof","tents":"yes","website":"https://www.ebental.de/","wheelchair":"limited"}},"166002115":{"location":[50.0277724,7.9878741],"ct":"DE","tp":"CS","ts":"2019-08-25T10:10:56Z","tX":534,"tY":347,"tags":{"caravans":"no","drinking_water":"no","fireplace":"yes","group_only":"yes","name":"Jugendzeltplatz Pfingstbachwiesen","power_supply":"no","shower":"no","tents":"yes","toilets":"yes","website":"https://www.oestrich-winkel.de/tourismus-freizeit/sport-und-freizeitanlagen/freizeitanlagen-pfingstbachwiesen/"}},"184156831":{"location":[49.9688531,7.9446272],"ct":"DE","tp":"CR","ts":"2024-04-02T00:12:15Z","tX":534,"tY":347,"tags":{"maxlength":"9.5","maxweight":"7.5","name":"Wohnmobilpark Bingen","power_supply":"yes","sanitary_dump_station":"yes","shower":"no","toilets":"no","website":"https://www.wohnmobilpark-bingen.de/"}},"186106352":{"location":[50.0128741,8.0656772],"ct":"DE","tp":"CS","ts":"2023-01-09T15:39:49Z","tX":534,"tY":347,"tags":{"addr:city":"Eltville am Rhein","addr:country":"DE","addr:housenumber":"6","addr:postcode":"65347","addr:street":"Auweg","name":"Rheingau Campingplatz","website":"www.rheingau-campingplatz.de"}},"188036103":{"location":[49.9793517,7.9582966],"ct":"DE","tp":"CS","ts":"2023-10-11T13:07:15Z","tX":534,"tY":347,"tags":{"caravans":"yes","contact:website":"www.rheingaucamping.de","drinking_water":"yes","name":"Campingplatz Geisenheim","power_supply":"yes","shower":"yes","tents":"yes","toilets":"yes","wheelchair":"limited"}},"192046713":{"location":[49.9466675,7.9714204],"ct":"DE","tp":"CR","ts":"2024-05-22T09:11:46Z","tX":534,"tY":347,"tags":{"addr:city":"Ockenheim","addr:postcode":"55437","addr:street":"Sporkenheimer Weg","capacity":"30","check_date":"2024-05-22","drinking_water":"no","fee":"yes","internet_access":"wlan","internet_access:fee":"no","name":"Metzis Panoramablick","operator":"Andreas & Bernadette Metzroth","phone":"+49 170 3040249","power_supply":"yes","reservation":"recommended","sanitary_dump_station":"yes","toilets":"yes","website":"http://www.metzis-panoramablick.de","wheelchair":"limited","wheelchair:description":"Der Platz ist grob geschottert und zumindest für Leute mit eingeschränkten Gehfähigkeiten kann das zum Problem werden."}},"279843691":{"location":[49.9337936,7.7914986],"ct":"DE","tp":"CS","ts":"2023-07-15T10:11:41Z","tX":534,"tY":347,"tags":{"addr:city":"Schweppenhausen","addr:housenumber":"65","addr:postcode":"55444","addr:street":"Naheweinstraße","capacity:caravans":"35","capacity:tents":"15","caravans":"yes","dog":"yes","drinking_water":"yes","email":"info@camping-aumuehle.de","fee":"yes","name":"Campingplatz Aumühle","phone":"+49 6724 7090476","power_supply":"yes","sanitary_dump_station":"yes","shower":"yes","static_caravans":"yes","tents":"yes","toilets":"yes","website":"https://campingaumuehle.de/"}},"415215126":{"location":[50.0534197,7.7731043],"ct":"DE","tp":"CS","ts":"2023-11-27T20:39:00Z","tX":534,"tY":347,"tags":{"caravans":"yes","drinking_water":"yes","fee":"yes","name":"Camping Sonnenstrand","shower":"yes","tents":"yes","toilets":"yes","website":"http://www.camping-sonnenstrand.de/","wheelchair":"no"}},"680712597":{"location":[50.054915,7.7717996],"ct":"DE","tp":"CR","ts":"2023-11-27T20:39:09Z","tX":534,"tY":347,"tags":{"charge":"5€","description":"Strom pauschal 2,50€","fee":"yes","name":"Reisemobil Sonnenstrand","power_supply":"yes","sanitary_dump_station":"yes","toilets":"yes","wheelchair":"no"}},"696642936":{"location":[49.981217,8.059442],"ct":"DE","tp":"CR","ts":"2024-05-06T11:20:01Z","tX":534,"tY":347,"tags":{"addr:city":"Ingelheim am Rhein","addr:postcode":"55218","addr:street":"Im Blumengarten","capacity:caravans":"8","drinking_water":"yes","internet_access":"no","name":"Wohnmobilstellplatz \"Im Blumengarten\"","operator":"Stadt Ingelheim","power_supply":"yes","sanitary_dump_station":"yes","website":"https://www.ingelheim-erleben.de/wohnmobilstellplatz-im-blumengarten-1"}},"720921573":{"location":[49.9612355,7.8377998],"ct":"DE","tp":"CS","ts":"2019-12-02T13:31:34Z","tX":534,"tY":347,"tags":{"access":"private","capacity":"90","caravans":"no","fee":"yes","group_only":"yes","internet_access":"no","name":"DRK Begegnunsstätte Waldalgesheim","operator":"DRK","power_supply":"yes","shower":"warm","start_date":"1977","tents":"yes","toilets":"yes","website":"http://ovmainz2.drkcms.de/angebote/drk-begegnungsstaette-waldalgesheim.html"}},"967035448":{"location":[49.9472207,7.7880356],"ct":"DE","tp":"CR","ts":"2024-06-14T09:56:01Z","tX":534,"tY":347,"tags":{"addr:city":"Stromberg","addr:housenumber":"4","addr:postcode":"55442","addr:street":"Königsberger Straße","cabins":"no","capacity:caravans":"12","charge":"6 EUR/night","drinking_water":"yes","fee":"yes","internet_access":"no","lit":"yes","name":"Michels Land","operator":"Stadt Stromberg","payment:cash":"yes","permanent_camping":"no","phone":"+49 171 9253028","power_supply":"yes","sanitary_dump_station":"yes","shower":"no","static_caravans":"no","surface":"grass","toilets":"no","website":"https://www.langenlonsheim-stromberg.de/tourismus/gastgeber/campen/stromberg-michels-land/"}},"1216036953":{"location":[49.8545728,7.9852779],"ct":"DE","tp":"CR","ts":"2024-01-25T14:12:15Z","tX":534,"tY":347,"tags":{"addr:city":"Sprendlingen","addr:postcode":"55576","addr:street":"Bachgasse","capacity:caravans":"24","description":"Anmeldung in der angrenzenden Tennishalle\n\"Joker-Tennis\"","fee":"yes","name":"Reisemobilplatz Wiesbach","power_supply":"yes","reservation":"no","sanitary_dump_station":"yes","shower":"no","tents":"no","toilets":"no","website":"https://www.sprendlingen.info/tourismus/reisemobilplatz/"}},"1216038762":{"location":[49.8389351,8.022837],"ct":"DE","tp":"CR","ts":"2023-10-16T14:54:17Z","tX":534,"tY":347,"tags":{"name":"Winzerhof Schnabel Wohnmobilstellplatz","power_supply":"yes","sanitary_dump_station":"yes","website":"https://www.winzerhof-schnabel.de/wohnmobilstellplaetze/"}},"9121280552":{"location":[50.0005709,7.9305263],"ct":"DE","tp":"CS","ts":"2021-09-24T22:14:45Z","tX":534,"tY":347,"tags":{"camp_site":"basic","group_only":"yes","name":"Jugendzeltplatz Nothgottes","operator":"Naturpark Rhein-Taunus","phone":"+49 6722 3483","reservation":"required"}},"9549322700":{"location":[49.9949203,7.7692337],"ct":"DE","tp":"CS","ts":"2023-05-31T12:36:32Z","tX":534,"tY":347,"tags":{"access":"customers","addr:city":"Daxweiler","addr:postcode":"55442","addr:street":"Forsthaus Lauschhütte","backcountry":"yes","caravans":"no","email":"info@lauschhuette.de","fee":"yes","name":"Trekkingcamp Lauschhütte","opening_hours":"Apr-Oct","operator":"Lauschhütte","phone":"+49 67246038013","shower":"yes","static_caravans":"no","tents":"yes","toilets":"yes","website":"https://www.lauschhuette.de/uebernachten"}},"6321868727":{"location":[49.9815097,7.9452985],"ct":"DE","tp":"CR","ts":"2024-04-01T22:03:15Z","tX":534,"tY":347,"tags":{"addr:city":"Geisenheim","addr:housenumber":"1","addr:postcode":"65366","addr:street":"Rüdesheimer Straße","capacity":"14","caravans":"no","charge":"8.50 EUR","fee":"yes","maxstay":"3 days","name":"Reisemobilstellplatz Rheingau-Bad","phone":"+49 6722 910158","tents":"no","toilets":"yes","website":"https://www.rheingau-bad.de/wohnmobil/"}},"6321937584":{"location":[50.0063164,7.9609736],"ct":"DE","tp":"CR","ts":"2022-01-06T16:27:17Z","tX":534,"tY":347,"tags":{"capacity":"4","fee":"yes","name":"Wohnmobilstellplatz Weingut Ostermühle","object:city":"Geisenheim","object:housenumber":"1","object:place":"Ostermühle","object:postcode":"65366","phone":"+49 6722 8923","power_supply":"yes","sanitary_dump_station":"no","url":"https://www.rheinsteig.de/a-wohnmobil-stellplatz-weingut-ostermuehle","water_point":"yes","website":"https://www.weingut-ostermuehle.de/"}},"8431741009":{"location":[50.0047656,7.9989913],"ct":"DE","tp":"CR","ts":"2021-10-25T14:23:34Z","tX":534,"tY":347,"tags":{"capacity":"20","fee":"no","maxstay":"48 hours","name":"Wohnmobilstellplatz Oestrich-Winkel","object:city":"Oestrich-Winkel","object:housenumber":"118","object:postcode":"65375","object:street":"Kirchstraße","power_supply":"yes","sanitary_dump_station":"no","water_point":"no","website":"https://www.oestrich-winkel.de/tourismus-freizeit/uebernachten/wohnmobilstellplatz-in-winkel/"}},"9221843154":{"location":[49.9704629,7.930579],"ct":"DE","tp":"CR","ts":"2024-04-02T00:12:15Z","tX":534,"tY":347,"tags":{"wheelchair":"limited"}},"9642794875":{"location":[49.8431697,7.9230249],"ct":"DE","tp":"CR","ts":"2022-10-20T11:33:14Z","tX":534,"tY":347,"tags":{"addr:city":"Bad Kreuznach","addr:housenumber":"20","addr:postcode":"55545","addr:street":"Mönchstraße","capacity:caravans":"4","name":"Weingut Espenschied","power_supply":"yes","website":"https://www.hinterland.camp/unterkuenfte/239/"}},"9985487616":{"location":[49.8692908,7.8588433],"ct":"DE","tp":"CR","ts":"2022-08-29T09:25:14Z","tX":534,"tY":347,"tags":{"addr:city":"Bad Kreuznach","addr:postcode":"55545","addr:street":"Zum Neuhof","capacity:caravans":"4","name":"Wohnmobilplatz","operator":"Gut Neuhof","phone":"+49 671 41119","website":"https://www.gut-neuhof.de/reisemobilplatz/"}},"10073307773":{"location":[49.8756875,7.888944],"ct":"DE","tp":"CR","ts":"2024-09-05T08:31:26Z","tX":534,"tY":347,"tags":{"addr:city":"Bretzenheim","addr:postcode":"55559","addr:street":"Winzenheimer Straße","description":"gebührenfrei, ohne Strom, ohne Ver-und Entsorgung. Auch für Wohnwagen.","name":"Wohnmobilstellplatz Kronenberghalle","operator":"Ortsgemeinde Bretzenheim","shower":"no","toilets":"no","website":"https://www.bretzenheim.de/project/tourist-informationen/#Uebernachtung"}},"10073315044":{"location":[49.8934046,7.9273495],"ct":"DE","tp":"CR","ts":"2024-01-25T14:12:15Z","tX":534,"tY":347,"tags":{"addr:city":"Gensingen","addr:housenumber":"21","addr:postcode":"55457","addr:street":"Alzeyer Straße","capacity:caravans":"4","description":"Gebühr 10 €","drinking_water":"yes","fee":"yes","name":"Gensingen","phone":"+49 170 5784792","power_supply":"yes","sanitary_dump_station":"yes","shower":"no","tents":"no","toilets":"no","website":"https://gensingen.jimdo.com/leben-und-freizeit/wohnmobilstellplatz/"}},"10237817437":{"location":[49.8396527,7.7708728],"ct":"DE","tp":"CR","ts":"2022-12-04T12:47:02Z","tX":534,"tY":347,"tags":{"addr:city":"Weinsheim","addr:postcode":"55595","capacity:caravans":"2","drinking_water":"yes","name":"AlpacaCamping Weinsheim","power_supply":"yes","sanitary_dump_station":"no","website":"https://www.alpacacamping.de/properties/1860"}},"10237817484":{"location":[49.9303128,7.8651324],"ct":"DE","tp":"CR","ts":"2022-12-04T12:47:02Z","tX":534,"tY":347,"tags":{"addr:city":"Rümmelsheim","drinking_water":"yes","internet_access":"wlan","name":"AlpacaCamping Rümmelsheim","power_supply":"yes","sanitary_dump_station":"no","toilets":"yes","website":"https://www.alpacacamping.de/properties/5072"}},"10562285408":{"location":[49.8967378,7.8945067],"ct":"DE","tp":"CR","ts":"2024-05-29T13:47:52Z","tX":534,"tY":347,"tags":{"addr:city":"Langenlonsheim","addr:housenumber":"14","addr:postcode":"55450","addr:street":"Schützenstraße","caravan_site:type":"winery","drinking_water":"yes","fee":"yes","name":"Wohnmobilstellplatz Weingut im Zwölberich","power_supply":"yes","sanitary_dump_station":"no","toilets":"no"}},"10562358156":{"location":[49.8859569,7.7807996],"ct":"DE","tp":"CR","ts":"2023-07-31T01:18:37Z","tX":534,"tY":347,"tags":{"addr:city":"Wallhausen","addr:housenumber":"2","addr:postcode":"55595","addr:street":"In der Au","capacity:caravans":"3","caravan_site:type":"winery","fee":"yes","name":"Wohnmobilstellplatz Weingut Keber","power_supply":"yes","website":"https://www.weingut-keber.de/index.php?id=service"}},"6363190990":{"location":[49.8977378,8.0241549],"ct":"DE","tp":"SD","ts":"2020-09-18T18:00:19Z","tX":534,"tY":347,"tags":{"access":"customers","description":"Frischwasser 1€ ca 90 Ltr.","fee":"no","operator":"Ober Hilbersheim","water_point":"yes"}},"8946718264":{"location":[49.9473576,7.7881536],"ct":"DE","tp":"SD","ts":"2021-07-24T15:03:39Z","tX":534,"tY":347,"tags":{"access":"yes","fee":"no","sanitary_dump_station:gravity":"yes"}},"10073268668":{"location":[49.8932824,7.9274346],"ct":"DE","tp":"SD","ts":"2022-10-03T16:21:12Z","tX":534,"tY":347,"tags":{}}}