{"34948683":{"location":[49.7328382,8.0667871],"ct":"DE","tp":"CS","ts":"2019-12-30T16:17:24Z","tX":534,"tY":348,"tags":{"caravans":"yes","name":"Camping Gutenbornerhof","power_supply":"yes","shower":"yes","tents":"yes","toilets":"yes","website":"https://www.weingut-gutenbornerhof.de/index.php/campingplatz/%C3%BCberblick.html","wheelchair":"limited"}},"54533129":{"location":[49.8277807,7.8501623],"ct":"DE","tp":"CR","ts":"2023-03-12T07:30:50Z","tX":534,"tY":348,"tags":{"addr:city":"Bad Kreuznach","addr:postcode":"55543","addr:street":"Karlshalle","capacity":"30","fee":"yes","name":"Salinental","operator":"Braun & Röth OHG","phone":"+49 671 29843330","power_supply":"yes","reservation":"no","sanitary_dump_station":"yes","toilets":"yes","water_point":"yes","website":"https://www.braunundroethgastronomie.com/braun-roeth/urlaub-bei-uns/reisemobilstellplatz/","wheelchair":"limited"}},"121375930":{"location":[49.7957802,7.7530729],"ct":"DE","tp":"CS","ts":"2024-02-14T08:17:28Z","tX":534,"tY":348,"tags":{"addr:city":"Oberhausen an der Nahe","addr:housenumber":"34","addr:postcode":"55585","addr:street":"Bahnhofstraße","caravans":"yes","drinking_water":"yes","email":"contact@camping-nahetal.de","fee":"yes","mobile":"+49 171 2853252","name":"Camping Nahetal","operator":"Bouma GmbH","phone":"+49 6755 96001","power_supply":"yes","sanitary_dump_station":"yes","shower":"yes","tents":"yes","toilets":"yes","website":"https://www.camping-nahetal.de/de/"}},"146872741":{"location":[49.6685891,7.8865049],"ct":"DE","tp":"CS","ts":"2024-05-16T21:39:00Z","tX":534,"tY":348,"tags":{"addr:city":"Gerbach","addr:housenumber":"1","addr:postcode":"67813","addr:street":"Kahlenbergweiher","caravans":"yes","internet_access":"wlan","name":"Camping Donnersberg","note":"dogs allowed","operator":"Camping Donnersberg Pfalz GmbH","phone":"+49 6361 8287","static_caravans":"yes","tents":"yes","website":"https://www.campingdonnersberg.com/de/"}},"370740920":{"location":[49.6213504,7.8217095],"ct":"DE","tp":"CR","ts":"2023-01-17T14:11:29Z","tX":534,"tY":348,"tags":{"addr:city":"Rockenhausen","addr:postcode":"67806","addr:street":"Obermühle","capacity":"5","capacity:caravans":"5","drinking_water":"yes","name":"Wohnmobilplatz am Naturerlebnisbad","phone":"+49 6361 451-121","power_supply":"yes","sanitary_dump_station":"yes","website":"http://www.rockenhausen.de/vg_rockenhausen/Kultur,%20Tourismus%20&%20Freizeit/%C3%9Cbernachten/Camping-%20und%20Zeltpl%C3%A4tze/"}},"399088516":{"location":[49.6925232,7.7689272],"ct":"DE","tp":"CR","ts":"2023-12-30T15:45:31Z","tX":534,"tY":348,"tags":{"addr:city":"Schiersfeld","addr:postcode":"67823","capacity:caravans":"8","drinking_water":"yes","name":"Wohnmobilstellplatz Schiersfeld","operator":"Ortsgemeinde Schiersfeld","power_supply":"yes","sanitary_dump_station":"yes"}},"519149934":{"location":[49.666293,8.0136828],"ct":"DE","tp":"CR","ts":"2023-03-07T14:42:47Z","tX":534,"tY":348,"tags":{"addr:city":"Kirchheimbolanden","addr:postcode":"67292","addr:street":"Hitzfeldstraße","capacity":"7","description":"Wohnmobilübernachtungsplatz","drinking_water":"yes","fee":"no","internet_access":"wlan","internet_access:fee":"no","name":"Herrngarten","operator":"Stadt Kirchheimbolanden","power_supply":"yes","sanitary_dump_station":"yes","website":"https://www.kirchheimbolanden.de/de/stetten-tourismus-und-kultur-tourismusinformation/wohnmobiluebernachtungsplatz-kirchheimbolanden.html"}},"528121934":{"location":[49.8059464,7.8422286],"ct":"DE","tp":"CS","ts":"2023-07-16T07:17:15Z","tX":534,"tY":348,"tags":{"addr:city":"Bad Kreuznach","addr:housenumber":"1a","addr:postcode":"55583","addr:street":"Speckerbrücke","capacity":"100","capacity:caravans":"100","caravans":"yes","drinking_water":"yes","email":"mail@cnaeck.de","fee":"yes","internet_access":"wlan","name":"Nahe-Alsenz-Eck","phone":"+49 6708 2453","power_supply":"yes","sanitary_dump_station":"yes","shower":"yes","tents":"yes","toilets":"yes","website":"https://campingplatz-nahe-alsenz-eck.de/"}},"691938419":{"location":[49.6653185,7.738083],"ct":"DE","tp":"CR","ts":"2023-01-17T13:37:47Z","tX":534,"tY":348,"tags":{"addr:city":"Waldgrehweiler","addr:postcode":"67822","addr:street":"An der L 385","capacity:caravans":"8","drinking_water":"yes","internet_access":"no","name":"Altes Wasserhaus","power_supply":"yes","sanitary_dump_station":"yes","shower":"yes","toilets":"yes","website":"https://waldgrehweiler.de/tourismus/wohnmobilstellplatz/"}},"1017105378":{"location":[49.6118716,7.9718374],"ct":"DE","tp":"CS","ts":"2021-12-31T10:08:00Z","tX":534,"tY":348,"tags":{"name":"Campingplatz am Donnersberg","phone":"+49 6357 5565","website":"http://www.campingplatz-donnersberg.de/"}},"1659200069":{"location":[49.799377,7.9523642],"ct":"DE","tp":"CR","ts":"2024-01-19T09:45:02Z","tX":534,"tY":348,"tags":{"addr:city":"Siefersheim","addr:housenumber":"19","addr:postcode":"55599","addr:street":"Mühlweg","caravan_site:type":"winery","email":"info@weingut-sommer.com","name":"Wohnmobil-Stellplatz Weingut Sommer","opening_hours":"mar-oct","phone":"+49 67033977","power_supply":"yes","toilets":"yes","water_point":"yes","website":"https://weingut-sommer.com/wohnmobilstellplatz/"}},"3124346169":{"location":[49.8281646,7.8496225],"ct":"DE","tp":"SD","ts":"2021-09-15T09:50:11Z","tX":534,"tY":348,"tags":{"fee":"no","sanitary_dump_station:accepted":"black_water;tank_chemicals","sanitary_dump_station:grey_water":"yes"}},"8934864284":{"location":[49.8073089,7.8288325],"ct":"DE","tp":"CR","ts":"2023-07-31T01:18:37Z","tX":534,"tY":348,"tags":{"addr:city":"Bad Kreuznach","addr:housenumber":"74","addr:postcode":"55583","addr:street":"Schloßgartenstraße","caravan_site:type":"winery","drinking_water":"yes","fee":"yes","internet_access":"yes","internet_access:fee":"no","name":"Wohnmobilstellplatz Weingut Rapp","operator":"Weingut & Land-Gästehaus Rapp","phone":"+49 6708 2312","power_supply":"yes","website":"https://www.weingut-rapp.de/land-gaestehaus/reisemobil-stellplatz/"}},"9373979593":{"location":[49.7269418,8.0350446],"ct":"DE","tp":"CR","ts":"2021-12-28T20:18:14Z","tX":534,"tY":348,"tags":{"capacity":"2","fee":"yes","power_supply":"yes","water_point":"yes"}},"9642794871":{"location":[49.8287112,7.8895699],"ct":"DE","tp":"CR","ts":"2023-07-31T01:18:37Z","tX":534,"tY":348,"tags":{"addr:city":"Bad Kreuznach","addr:postcode":"55543","addr:street":"Darmstädter Hof","capacity:caravans":"3","caravan_site:type":"winery","drinking_water":"yes","name":"Wohnmobilstellplatz Weingut Desoi","phone":"+49 671 63660","power_supply":"yes","website":"https://www.desoi-wein.de/"}},"9642794873":{"location":[49.8295513,7.9093025],"ct":"DE","tp":"CR","ts":"2023-10-27T08:54:42Z","tX":534,"tY":348,"tags":{"addr:city":"Hackenheim","addr:postcode":"55546","addr:street":"Binger Weg","caravan_site:type":"restaurant","drinking_water":"yes","fee":"yes","internet_access":"wlan","internet_access:fee":"no","name":"Wohnmobilstellplatz Bonnheimer Hof","phone":"+49 671 79615270","power_supply":"yes","sanitary_dump_station":"yes","shower":"yes","tents":"no","toilets":"yes","website":"https://www.bonnheimerhof.de/wohnmobilstellplaetze"}},"10240164026":{"location":[49.8165969,7.8132695],"ct":"DE","tp":"CR","ts":"2023-05-31T13:11:15Z","tX":534,"tY":348,"tags":{"addr:city":"Norheim","addr:housenumber":"1","addr:postcode":"55585","addr:street":"Buchenländerhof","capacity:caravans":"3","drinking_water":"yes","email":"mail@buchenlaenderhof.de","fee":"yes","name":"Wohnmobilstellplatz Weingut Buchenländer Hof","phone":"+49 671 31219","power_supply":"yes","website":"https://www.buchenlaenderhof.de/"}},"11292719571":{"location":[49.8042405,7.8982245],"ct":"DE","tp":"CR","ts":"2023-10-27T08:54:42Z","tX":534,"tY":348,"tags":{"addr:city":"Frei-Laubersheim","addr:postcode":"55546","addr:street":"Rheingrafenhof","drinking_water":"no","email":"rheingrafenhof@t-online.de","fee":"yes","internet_access":"no","name":"Wohnmobilstellplatz Rheingrafenhof","phone":"+49 6709 6204","power_supply":"no","sanitary_dump_station":"no","shower":"no","tents":"no","toilets":"no","website":"https://www.weingut-rheingrafenhof.com/"}},"11530278609":{"location":[49.7828774,7.9560582],"ct":"DE","tp":"CR","ts":"2024-01-19T09:45:02Z","tX":534,"tY":348,"tags":{"addr:city":"Wonsheim","addr:postcode":"55599","addr:street":"Fürfelder Straße","capacity:caravans":"3","caravans":"yes","fee":"yes","internet_access":"wlan","internet_access:fee":"customers","name":"Wohnmobilstellplatz Wingertsknorze","operator":"Ortsgemeinde Wonsheim","phone":"+49 67031219","power_supply":"yes","sanitary_dump_station":"no","shower":"no","tents":"no","toilets":"no","water_point":"yes","website":"https://womo-wonsheim.de/"}},"11912255936":{"location":[49.8012273,7.8102721],"ct":"DE","tp":"CR","ts":"2024-08-17T02:32:54Z","tX":534,"tY":348,"tags":{"addr:city":"Bad Kreuznach","addr:housenumber":"8","addr:postcode":"55583","addr:street":"Birkenhof","capacity":"2","description":"kostenfrei für Gäste der Bauernstube","fee":"no","name":"Wohnmobilstellplatz Birkerhof","phone":"+49 6708 617657","power_supply":"no","sanitary_dump_station":"no","toilets":"no","water_point":"no","website":"https://www.linn-birkerhof.de/aktuelles/"}}}