{"1758160":{"location":[49.1635275,7.7547923],"ct":"DE","tp":"CS","ts":"2024-03-15T07:41:18Z","tX":534,"tY":350,"tags":{"addr:city":"Dahn","addr:country":"DE","addr:housenumber":"3-5","addr:postcode":"66994","addr:street":"Neudahner Weiher","email":"kontakt@neudahner-weiher.de","name":"Campingplatz Neudahner Weiher","phone":"+49-6391-1326","tents":"yes","website":"https://www.neudahner-weiher.de/"}},"13013613":{"location":[49.3147874,8.0821964],"ct":"DE","tp":"CS","ts":"2022-09-25T13:51:09Z","tX":534,"tY":350,"tags":{"FIXME":"Feuerstelle fehlt","name":"Trekking Pfalz: Kalmit"}},"13013614":{"location":[49.2940349,8.0209154],"ct":"DE","tp":"CS","ts":"2022-09-25T13:51:09Z","tX":534,"tY":350,"tags":{"name":"Trekking Pfalz: Heldenstein"}},"13013615":{"location":[49.2544085,7.9499537],"ct":"DE","tp":"CS","ts":"2022-09-25T13:51:09Z","tX":534,"tY":350,"tags":{"name":"Trekking Pfalz: Eußerthal"}},"13629180":{"location":[49.3502826,7.7804227],"ct":"DE","tp":"CS","ts":"2023-11-07T22:28:56Z","tX":534,"tY":350,"tags":{"addr:city":"Trippstadt","addr:housenumber":"1","addr:postcode":"67705","addr:street":"Sägmühle","caravans":"yes","email":"info@saegmuehle.de","fax":"+49 6306 2000","name":"Camping-Freizeitzentrum Sägmühle","operator":"Camping-Freizeitzentrum Sägmühle","phone":"+49 6306 92130","power_supply":"yes","website":"https://www.saegmuehle.de/"}},"100905610":{"location":[49.1559481,7.8495137],"ct":"DE","tp":"CS","ts":"2024-03-19T12:16:50Z","tX":534,"tY":350,"tags":{"access":"customers","backcountry":"yes","caravans":"no","contact:phone":"+49 6391 5744","name":"Bärenbrunnerhof","owner":"Bio-Gasthof Bärenbrunnerhof","tents":"yes","wheelchair":"no"}},"244335747":{"location":[49.3511039,7.779085],"ct":"DE","tp":"CS","ts":"2023-10-01T07:49:39Z","tX":534,"tY":350,"tags":{"name":"Camping Haidenkopf"}},"286938688":{"location":[49.354501,7.7982712],"ct":"DE","tp":"CS","ts":"2024-03-15T09:18:38Z","tX":534,"tY":350,"tags":{"addr:city":"Trippstadt","addr:housenumber":"25","addr:postcode":"67705","addr:street":"Neuhof","name":"Campingplatz Dengel","phone":"+49 6306 1695","tents":"yes"}},"293556442":{"location":[49.1609066,7.9352613],"ct":"DE","tp":"CR","ts":"2023-09-05T12:59:03Z","tX":534,"tY":350,"tags":{"traffic_sign":"DE:314,1048-17"}},"296952638":{"location":[49.2012535,7.9725305],"ct":"DE","tp":"CS","ts":"2024-08-07T20:07:13Z","tX":534,"tY":350,"tags":{"addr:housenumber":"18","addr:street":"Viktor-von-Scheffel-Straße","caravans":"yes","contact:email":"campingplatz@naturfreunde-annweiler.de","contact:facebook":"https://www.facebook.com/Naturfreundehaus.Annweiler","contact:fax":"+49 6346 302945","contact:phone":"+49 6346 3870","contact:website":"http://www.naturfreunde-annweiler.de/","fee":"yes","internet_access":"wlan","internet_access:fee":"no","name":"Naturfreunde Annweiler","shower":"yes","source":"http://www.naturfreunde-annweiler.de/","source:date":"2019-09-14","static_caravans":"yes","tents":"yes","toilets":"yes"}},"336670098":{"location":[49.1841385,7.862491],"ct":"DE","tp":"CS","ts":"2023-05-07T05:03:52Z","tX":534,"tY":350,"tags":{"capacity":"800","caravans":"no","group_only":"yes","name":"Jugendzeltplatz Hauenstein","operator":"Gemeinde Hauenstein","shower":"yes","tents":"yes","toilets":"yes","website":"https://www.jugendzeltplatz-hauenstein.de/"}},"347168360":{"location":[49.1962216,7.9700185],"ct":"DE","tp":"CR","ts":"2024-11-06T17:59:37Z","tX":534,"tY":350,"tags":{"capacity":"10","charge":"5 €","fee":"yes","name":"Reisemobilstellplätze Markwardanlage (am Kurpark)","operator":"Stadt Annweiler","phone":"+49 6346 9659715","power_supply":"no","sanitary_dump_station":"yes","water_point":"yes"}},"371372177":{"location":[49.1594628,7.9863013],"ct":"DE","tp":"CS","ts":"2024-08-08T20:27:13Z","tX":534,"tY":350,"tags":{"addr:city":"Waldhambach","addr:housenumber":"14","addr:postcode":"76857","addr:street":"Am Sportplatz","bbq":"yes","capacity:persons":"200","caravans":"no","drinking_water":"yes","fee":"yes","group_only":"yes","hot_water":"yes","internet_access":"no","kitchen":"yes","name":"Jugendzeltplatz Kaiserbachtal","openfire":"yes","operator":"DPSG Speyer","permanent_camping":"no","picnic_table":"yes","scout":"yes","shower":"yes","static_caravans":"no","swimming_pool":"no","tents":"yes","toilets":"yes","waste_disposal":"yes","website":"https://www.dpsg-speyer.org/index.php/zeltplatz-waldhambach"}},"482171157":{"location":[49.1900462,7.8568751],"ct":"DE","tp":"CR","ts":"2023-11-14T16:48:04Z","tX":534,"tY":350,"tags":{"capacity":"15","description:de":"Mobilstellplatz","dog":"yes","fee":"yes","power_supply":"yes","tents":"no"}},"500033172":{"location":[49.1619307,7.7513159],"ct":"DE","tp":"CS","ts":"2024-03-15T07:38:54Z","tX":534,"tY":350,"tags":{"addr:city":"Dahn","addr:country":"DE","addr:housenumber":"12","addr:postcode":"66994","addr:street":"Neudahner Weiher","email":"info@campingplatz-moosbachtal.de","name":"Campingplatz Moosbachtal","phone":"+49-6391-1697","sanitary_dump_station":"customers","tents":"yes","website":"http://www.campingplatz-moosbachtal.net"}},"508028407":{"location":[49.2024865,7.9249567],"ct":"DE","tp":"CS","ts":"2023-07-09T09:59:06Z","tX":534,"tY":350,"tags":{"access":"customers","backcountry":"yes","camp_site":"basic","capacity:persons":"12","capacity:tents":"4","caravans":"no","charge":"15 EUR","drinking_water":"no","fee":"yes","hammock":"unsafe","motor_vehicle":"no","name":"Trekking Pfalz: Annweiler / Wernersberg","openfire":"yes","opening_hours":"Apr 1-Oct 31: \"needs reservation by phone or web\"","ref":"4","reservation":"required","shower":"no","tents":"yes","website":"https://www.trekking-pfalz.de/plaetze/annweiler"}},"547503702":{"location":[49.1987641,7.9942429],"ct":"DE","tp":"CS","ts":"2023-07-09T10:00:16Z","tX":534,"tY":350,"tags":{"access":"customers","backcountry":"yes","camp_site":"basic","capacity:persons":"12","capacity:tents":"4","caravans":"no","drinking_water":"no","fee":"yes","hammock":"safe","motor_vehicle":"no","name":"Trekking Pfalz: Leinsweiler","openfire":"yes","opening_hours":"Apr 1-Oct 31: \"needs reservation by phone or web\"","ref":"3","reservation":"required","short_name":"Leinsweiler","shower":"no","tents":"yes","toilets":"yes","website":"https://www.trekking-pfalz.de/plaetze/leinsweiler"}},"720248240":{"location":[49.1767505,8.0219862],"ct":"DE","tp":"CR","ts":"2024-12-04T21:28:57Z","tX":534,"tY":350,"tags":{"capacity":"6","caravan_site":"motorhome_stopover","caravan_site:type":"winery","charge":"15 EUR","dog":"yes","email":"mail@weingut-ehrhart.de","fee":"yes","name":"Weingut Ehrhart","phone":"+49 6345 7474","power_supply":"yes","power_supply:fee":"no","sanitary_dump_station:chemical_toilet":"yes","sanitary_dump_station:grey_water":"no","seasonal":"no","toilets":"yes","water_point":"yes","water_point:fee":"no","website":"https://weingut-ehrhart.de/gaestezimmer/"}},"749752228":{"location":[49.2514268,8.0776619],"ct":"DE","tp":"CR","ts":"2018-09-14T11:37:55Z","tX":534,"tY":350,"tags":{"addr:housenumber":"3","addr:street":"Am Schloßberg","contact:email":"info@weingut-eberle.de","contact:fax":"+49 6345 919247","contact:phone":"+49 6345 919245","contact:website":"http://www.weingut-eberle.de/","name":"Weingut Eberle","source":"http://www.weingut-eberle.de/","source:date":"2018-09-06"}},"791113038":{"location":[49.1878753,7.8225554],"ct":"DE","tp":"CS","ts":"2022-03-09T18:12:14Z","tX":534,"tY":350,"tags":{"access":"customers","backcountry":"yes","camp_site":"basic","capacity:persons":"18","capacity:tents":"6","caravans":"no","drinking_water":"no","fee":"yes","motor_vehicle":"no","name":"Trekking Pfalz: Hauenstein","openfire":"yes","opening_hours":"Apr 1-Oct 31: \"needs reservation by phone or web\"","ref":"15","reservation":"required","shower":"no","tents":"yes","toilets":"yes","website":"https://www.trekking-pfalz.de/plaetze/hauenstein"}},"1150014250":{"location":[49.1875042,8.0335503],"ct":"DE","tp":"CR","ts":"2024-12-05T13:47:23Z","tX":534,"tY":350,"tags":{"capacity":"6","caravan_site":"motorhome_stopover","caravan_site:type":"winery","caravans":"no","check_in":"-18:00","check_out":"12:00","dog":"leashed","fee":"yes","name":"Wohnmobilstellplatz Weingut Erlenwein","opening_hours":"Mar-Oct","power_supply":"yes","reservation":"required","sanitary_dump_station":"yes","sanitary_dump_station:chemical_toilet":"yes","sanitary_dump_station:grey_water":"yes","seasonal":"yes","tents":"no","toilets":"no","water_point":"yes","website":"https://www.weingut-erlenwein.de/wohnmobilstellplatz.html"}},"1178578115":{"location":[49.2387318,7.9759001],"ct":"DE","tp":"CR","ts":"2023-06-03T14:40:23Z","tX":534,"tY":350,"tags":{"name":"Wohnmobilstellplatz Eußerthal"}},"1264652314":{"location":[49.1789747,7.7430982],"ct":"DE","tp":"CS","ts":"2023-09-18T19:44:46Z","tX":534,"tY":350,"tags":{"group_only":"yes","internet_access":"no","name":"Waldjugendzeltplatz Am Schafberg","operator":"Forstamt Hinterweidenthal","tents":"yes","website":"http://www.hinterweidenthal.de/og_hinterweidenthal/Tourismus/Waldjugendzeltplatz/","wheelchair":"no"}},"1339950125":{"location":[49.2382373,8.0668955],"ct":"DE","tp":"CR","ts":"2024-12-03T22:38:08Z","tX":534,"tY":350,"tags":{"capacity":"3","caravan_site":"motorhome_stopover","caravan_site:type":"winery","email":"info@weingut-f-g-kost.de","fee":"yes","name":"Weingut F.G. Kost","phone":"+49 63453000","power_supply":"yes","website":"https://www.kostwein.de/weingut"}},"1340040171":{"location":[49.2376556,8.0636435],"ct":"DE","tp":"CR","ts":"2024-12-04T10:28:52Z","tX":534,"tY":350,"tags":{"bbq":"yes","camping:furniture":"yes","caravan_site":"motorhome_stopover","caravan_site:type":"winery","charge":"8.50 EUR","dog":"yes","email":"info@winzerhof-am-teufelsberg.de","fee":"yes","name":"Winzerhof Am Teufelsberg Wohn­mobil­stell­platz","phone":"+49 6345 21 18","power_supply":"yes","power_supply:charge":"2.50 EUR","power_supply:fee":"yes","power_supply:maxcurrent":"yes","reservation":"required","socket:cee_blue":"yes","water_point":"yes","water_point:fee":"yes","website":"https://www.winzerhof-am-teufelsberg.de/wohnmobilstellplatz.php"}},"1340163072":{"location":[49.2225411,8.0402704],"ct":"DE","tp":"CR","ts":"2024-12-04T21:40:32Z","tX":534,"tY":350,"tags":{"caravan_site":"motorhome_stopover","caravan_site:type":"winery","email":"info@hahn-hof.de","name":"Wohnmobilstellplatz Weingut Hahn-Hof","phone":"+49 6345 1323","website":"https://www.weingut-hahn-hof.de/gastlichkeit/"}},"1490650503":{"location":[49.3181362,7.9201424],"ct":"DE","tp":"CS","ts":"2020-08-26T18:00:18Z","tX":534,"tY":350,"tags":{"alt_name":"Jugendzeltplatz Geiswiese","email":"hdn@wald-rlp.de","fee":"yes","group_only":"yes","name":"Biosphärenerlebniscamp Geiswiese","operator":"Haus der Nachhaltigkeit","website":"https://www.hdn-pfalz.de/angebote/biosphaerenerlebniscamp-geiswiese/"}},"2082330043":{"location":[49.254413,7.9500938],"ct":"DE","tp":"CS","ts":"2023-06-18T17:03:23Z","tX":534,"tY":350,"tags":{"access":"customers","backcountry":"yes","camp_site":"basic","capacity:persons":"12","capacity:tents":"4","caravans":"no","charge":"15 EUR","drinking_water":"no","fee":"yes","motor_vehicle":"no","name":"Trekking Pfalz: Eußerthal","openfire":"yes","opening_hours":"Apr 1-Oct 31: \"needs reservation by phone or web\"","ref":"5","reservation":"required","shower":"no","tents":"yes","toilets":"yes","website":"https://www.trekking-pfalz.de/plaetze/eusserthal"}},"2273605600":{"location":[49.3150057,8.0821462],"ct":"DE","tp":"CS","ts":"2022-06-19T08:12:02Z","tX":534,"tY":350,"tags":{"FIXME":"Feuerstelle fehlt","access":"customers","backcountry":"yes","camp_site":"basic","capacity:persons":"12","capacity:tents":"4","caravans":"no","charge":"15 EUR / tent","drinking_water":"no","fee":"yes","motor_vehicle":"no","name":"Trekking Pfalz: Kalmit","openfire":"yes","opening_hours":"Apr 1-Oct 31: \"needs reservation by phone or web\"","operator":"Südliche Weinstrasse e.V.","ref":"7","reservation":"required","shower":"no","source":"https://www.trekking-pfalz.de/de/trekking-plaetze/","tents":"yes","toilets":"yes","website":"https://www.trekking-pfalz.de/plaetze/kalmit"}},"2384482228":{"location":[49.3700435,8.0739291],"ct":"DE","tp":"CR","ts":"2018-11-01T15:15:00Z","tX":534,"tY":350,"tags":{"capacity":"7","fee":"no","name":"Wohnmobilstellplatz Lambrecht","power_supply":"yes","sanitary_dump_station":"yes","water_point":"yes","website":"https://www.lambrecht-pfalz.de/tourismus/wohnmobilstellplatz"}},"2472148219":{"location":[49.1650427,7.7544253],"ct":"DE","tp":"SD","ts":"2023-06-24T11:04:56Z","tX":534,"tY":350,"tags":{}},"2938769883":{"location":[49.1942612,7.8813488],"ct":"DE","tp":"CR","ts":"2023-01-21T17:32:35Z","tX":534,"tY":350,"tags":{"capacity":"5","fee":"yes","name":"Reisemobilstellplatz am Grillplatz","operator":"Gemeinde Spirkelbach","phone":"+49 157 74475423","power_supply":"yes","wheelchair":"limited"}},"3917496798":{"location":[49.1965492,7.9695248],"ct":"DE","tp":"SD","ts":"2021-05-30T16:56:29Z","tX":534,"tY":350,"tags":{"name":"Reisemobilstellplätze Markwardanlage (am Kurpark)","sanitary_dump_station:chemical_toilet":"yes","sanitary_dump_station:grey_water":"yes"}},"5554063599":{"location":[49.2940542,8.0207652],"ct":"DE","tp":"CS","ts":"2022-03-09T18:12:14Z","tX":534,"tY":350,"tags":{"access":"customers","backcountry":"yes","camp_site":"basic","capacity:persons":"12","capacity:tents":"4","caravans":"no","drinking_water":"no","fee":"yes","motor_vehicle":"no","name":"Trekking Pfalz: Heldenstein","note":"kein Name vor Ort ausgeschildert","openfire":"yes","opening_hours":"Apr 1-Oct 31: \"needs reservation by phone or web\"","ref":"6","reservation":"required","shower":"no","source":"https://www.trekking-pfalz.de/de/trekking-plaetze/","tents":"yes","toilets":"yes","website":"https://www.trekking-pfalz.de/plaetze/heldenstein"}},"5906157556":{"location":[49.249014,8.075999],"ct":"DE","tp":"CR","ts":"2018-09-14T11:37:52Z","tX":534,"tY":350,"tags":{"addr:city":"Burrweiler","addr:country":"DE","addr:housenumber":"2","addr:postcode":"76835","addr:street":"Raiffeisenstraße","craft":"winery","email":"info@weingut-hertel.de","fax":"+49 6345 8843","fixme":"position estimated","name":"Weingut Hertel","phone":"+49 6345 8643","source":"http://www.weingut-hertel.de/","source:date":"2018-09-14","website":"http://www.weingut-hertel.de/"}},"6284615728":{"location":[49.1866657,8.0335794],"ct":"DE","tp":"CR","ts":"2019-02-17T16:53:00Z","tX":534,"tY":350,"tags":{"capacity":"6","power_supply":"yes","sanitary_dump_station":"yes"}},"8782992130":{"location":[49.2110002,7.87768],"ct":"DE","tp":"CR","ts":"2021-05-30T18:19:41Z","tX":534,"tY":350,"tags":{"capacity":"7","charge":"10 € (incl Wellness =20€)","fee":"yes","name":"Hotel Am Hirschhorn","power_supply":"yes"}},"8783002044":{"location":[49.2038322,7.9541693],"ct":"DE","tp":"CR","ts":"2021-06-04T11:30:27Z","tX":534,"tY":350,"tags":{"capacity":">20","charge":"5 €","fee":"yes","name":"Trifelsbad (Am Holzplatz)","operator":"Stadt Annweiler","sanitary_dump_station":"no"}},"10081261987":{"location":[49.3480906,7.9434478],"ct":"DE","tp":"CR","ts":"2024-06-25T09:46:52Z","tX":534,"tY":350,"tags":{"drinking_water":"no","fee":"no","internet_access":"no","name:signed":"no","power_supply":"yes","sanitary_dump_station":"no","toilets":"no","wheelchair":"yes"}},"10097892263":{"location":[49.3480595,7.9434924],"ct":"DE","tp":"CR","ts":"2024-06-25T09:46:49Z","tX":534,"tY":350,"tags":{"drinking_water":"no","fee":"no","internet_access":"no","name":"Elmstein","power_supply":"yes","sanitary_dump_station":"no","toilets":"no","wheelchair":"yes"}},"4750257859":{"location":[49.1899385,7.8564935],"ct":"DE","tp":"SD","ts":"2024-03-27T17:15:30Z","tX":534,"tY":350,"tags":{"description":"Grauwasserentsorgung nicht möglich, da kein extra Ablauf. Zumindest Vans unmöglich","sanitary_dump_station:chemical_toilet":"yes","sanitary_dump_station:fee":"yes","sanitary_dump_station:gravity":"yes","sanitary_dump_station:grey_water":"yes","sanitary_dump_station:suction":"no"}},"12394795106":{"location":[49.2468064,8.0807099],"ct":"DE","tp":"CR","ts":"2024-12-03T22:52:31Z","tX":534,"tY":350,"tags":{"charge":"9 EUR","email":"eberle.weingut@t-online.de","fee":"yes","name":"Stellplatz Weingut Eberle","phone":"+49 6345 919245","power_supply":"yes","reservation":"yes","sanitary_dump_station:chemical_toilet":"no","sanitary_dump_station:grey_water":"yes","seasonal":"no","water_point":"yes","website":"https://weingut-eberle.de/stellplatz/"}},"12394886658":{"location":[49.1670764,8.0744952],"ct":"DE","tp":"CR","ts":"2024-12-04T01:05:16Z","tX":534,"tY":350,"tags":{"capacity":"2","caravan_site":"motorhome_stopover","caravan_site:type":"winery","caravans":"no","email":"achim.silbernagel@gmx.de","maxlength":"6","name":"Wohnmobilstellplatz Weingut Silbernagel","opening_hours":"Apr-Sep","phone":"+49 6341 32329","surface":"paved","website":"http://www.weingut-achim-silbernagel.de/"}},"12394997575":{"location":[49.1736697,8.0210743],"ct":"DE","tp":"CR","ts":"2024-12-04T01:36:31Z","tX":534,"tY":350,"tags":{"caravan_site":"motorhome_stopover","caravan_site:type":"winery","email":"weingut@schmitzer-julier.de","name":"Wohnmobilstellplatz Weingut Schmitzer-Julier","phone":"+49 63 45 28 01","sanitary_dump_station":"yes","seasonal":"no","water_point":"yes","website":"https://www.schmitzer-julier.de/"}},"12396069634":{"location":[49.2020615,8.0339509],"ct":"DE","tp":"CR","ts":"2024-12-04T14:23:09Z","tX":534,"tY":350,"tags":{"capacity":"2","charge":"15 EUR","dog":"yes","email":"herrenbergerhof@gmx.de","fee":"yes","name":"Wohnmobilstellplatz Weingut Herrenbergerhof","opening_hours":"Apr-Oct","phone":"+49 6345 2757","power_supply":"yes","website":"https://www.herrenbergerhof.de/","website:tourism":"https://www.rlp-tourismus.com/en/infosystem/infosystem/Wohnmobilstellplatz-Weingut-Herrenbergerhof_Birk/infosystem.html"}},"12396575042":{"location":[49.1809087,8.0554555],"ct":"DE","tp":"CR","ts":"2024-12-04T18:56:52Z","tX":534,"tY":350,"tags":{"capacity":"2","charge":"8 EUR","dog":"yes","email":"nfo@weingut-seebach.de","fee":"yes","name":"Wohnmobilstellplatz Weingut Seebach","opening_hours":"Mar-Oct","phone":"+49 6341 31449","website":"https://www.suedlicheweinstrasse.de/gastgeber/reisemobil/stellplaetze/wohnmobilstellplatz-weingut-seebach/poi.html"}},"12396856608":{"location":[49.2086796,8.0512163],"ct":"DE","tp":"CR","ts":"2024-12-04T23:02:07Z","tX":534,"tY":350,"tags":{"capacity":"3","email":"kontor@wilhelmshof.de","fee":"yes","name":"Wohnmobilstellplatz Sekt- und Weingut Wilhelmshof","network":"Landvergnügen","phone":"+49 6345 919147","power_supply":"yes","seasonal":"no","water_point":"yes"}}}