{"28451576":{"location":[48.5618992,7.8097338],"ct":"DE","tp":"CS","ts":"2024-03-25T05:34:48Z","tX":534,"tY":353,"tags":{"caravans":"yes","name":"Campingpark Kehl","tents":"yes","website":"http://www.campingplatz-kehl.de/"}},"51050313":{"location":[48.6243414,8.0735181],"ct":"DE","tp":"CR","ts":"2022-04-06T17:39:26Z","tX":534,"tY":353,"tags":{"addr:city":"Achern","addr:postcode":"77855","capacity":"12","fee":"yes","internet_access":"no","maxstay":"7 days","power_supply":"yes","sanitary_dump_station":"yes","water_point":"yes","website":"https://www.achern.de/de/Freizeit-Tourismus/Camping-Wohnmobil/Wohnmobilstellplatz"}},"61492661":{"location":[48.619163,7.8865765],"ct":"DE","tp":"CR","ts":"2020-09-24T16:03:13Z","tX":534,"tY":353,"tags":{"access":"yes","fee":"no","parking":"surface"}},"103452762":{"location":[48.5633848,7.8139636],"ct":"DE","tp":"CR","ts":"2024-04-11T14:16:36Z","tX":534,"tY":353,"tags":{"addr:city":"Kehl","addr:country":"DE","addr:housenumber":"1","addr:postcode":"77694","addr:street":"Schwimmbadstraße","capacity":"40","drinking_water":"yes","fee":"yes","internet_access":"no","name":"Wohnmobilstellplatz Am Wasserturm","power_supply":"yes","sanitary_dump_station":"yes","tents":"no","toilets":"no","website":"https://www.kehl.de/tdk/leistungen_service/womostellplatz.php"}},"211554090":{"location":[48.6461729,8.0340869],"ct":"DE","tp":"CS","ts":"2024-07-07T19:25:23Z","tX":534,"tY":353,"tags":{"addr:city":"Achern","addr:country":"DE","addr:housenumber":"8","addr:postcode":"77855","addr:street":"Am Achernsee","area":"yes","capacity":"200","caravans":"yes","drinking_water":"yes","dryer":"yes","fax":"+49 7841 508835","internet_access":"wlan","name":"Camping am Achernsee","permanent_camping":"yes","phone":"+49 7841 25253","power_supply":"yes","sanitary_dump_station":"yes","shower":"yes","tents":"yes","toilets":"yes","washing_machine":"yes","website":"https://www.campingplatz-achernsee.de/","wheelchair":"yes"}},"381452009":{"location":[48.6825027,7.8765241],"ct":"FR","tp":"CS","ts":"2023-07-31T19:41:02Z","tX":534,"tY":353,"tags":{"caravans":"yes","contact:phone":"+33 3 88 96 42 59","contact:website":"https://mairie-gambsheim.fr/tourisme/zone-de-loisirs/","email":"zonedeloisirs@gambsheim.fr","name":"Camping municipal de Gambsheim","tents":"yes","toilets":"yes"}},"429517823":{"location":[48.543186,7.9361868],"ct":"DE","tp":"CS","ts":"2023-10-22T00:14:35Z","tX":534,"tY":353,"tags":{"caravans":"yes","name":"Europa Camping","opening_hours":"Mar 1-Oct 31","shower":"yes","tents":"yes","toilets":"yes","website":"http://europa-camping-sand.de/"}},"431250127":{"location":[48.5813648,8.0450994],"ct":"DE","tp":"CR","ts":"2024-03-19T15:30:37Z","tX":534,"tY":353,"tags":{"capacity":"12","caravans":"no","dog":"yes","fee":"yes","name":"Wohnmobilstellpatz Renchen","operator":"Stadt Renchen","power_supply":"yes","tents":"no","website":"https://www.renchen.de/tourismus/freizeit/wohnmobilstellplatz/"}},"692753333":{"location":[48.5290202,8.0728564],"ct":"DE","tp":"CR","ts":"2019-05-27T12:20:15Z","tX":534,"tY":353,"tags":{"addr:city":"Oberkirch","addr:housenumber":"48","addr:postcode":"77704","addr:street":"Renchallee","capacity":"37","fee":"yes","name":"Wohnmobilstellplatz Oberkirch","power_supply":"yes","sanitary_dump_station":"yes","water_point":"yes","website":"https://www.renchtal-tourismus.de/de/wohnmobilstellplaetze.html"}},"727806663":{"location":[48.4937533,8.01036],"ct":"DE","tp":"CR","ts":"2022-06-03T12:23:21Z","tX":534,"tY":353,"tags":{"addr:city":"Durbach","addr:postcode":"77770","addr:street":"Festplatz","capacity":"15","capacity:caravans":"15","charge":"8 EUR","fee":"yes","internet_access":"wlan","internet_access:fee":"no","internet_access:ssid":"Festplatz-Durbach","name":"Wohnmobilstellplatz Durbach","operator":"Gemeinde Durbach","power_supply":"yes","sanitary_dump_station":"yes","website":"https://www.durbach.de/Media/Attraktionen/Wohnmobilstellplatz-Durbach-Festplatz"}},"826196812":{"location":[48.5012562,7.989411],"ct":"DE","tp":"CR","ts":"2022-06-03T12:23:21Z","tX":534,"tY":353,"tags":{"addr:city":"Durbach","addr:housenumber":"33","addr:postcode":"77770","addr:street":"Wiesenstraße","capacity":"6","capacity:caravans":"6","charge":"8 EUR","fee":"yes","internet_access":"no","name":"Wohnmobilstellplatz Ebersweier","operator":"Gemeinde Durbach","power_supply":"yes","sanitary_dump_station":"yes","website":"https://www.durbach.de/Media/Attraktionen/Wohnmobilstellplatz-Durbach-Festplatz"}},"1102705617":{"location":[48.48191,8.027691],"ct":"DE","tp":"CR","ts":"2022-10-10T20:12:33Z","tX":534,"tY":353,"tags":{"addr:city":"Durbach","addr:housenumber":"2","addr:postcode":"77770","addr:street":"Lautenbach","capacity:caravans":"3","charge":"20 EUR","fee":"yes","name":"Wohnmobilstellplatz Weingut Huber","operator":"Weingut Alfred Huber","power_supply":"yes","reservation":"required","sanitary_dump_station":"no","website":"https://www.winzerhof-huber.de/de/wohnmobil-stellplaetze"}},"1170553812":{"location":[48.6803864,7.9241274],"ct":"DE","tp":"CR","ts":"2024-10-18T13:40:00Z","tX":534,"tY":353,"tags":{"area":"yes","capacity":"24","caravan_site":"motorhome_stopover","caravan_site:type":"lake","caravans":"no","charge":"10 EUR","drinking_water":"no","fee":"yes","name":"Aire de camping car Badesee Rheinau Freistett","power_supply":"yes","power_supply:capacity":"24","sanitary_dump_station":"yes","sanitary_dump_station:chemical_toilet":"yes","sanitary_dump_station:grey_water":"yes","tents":"no","toilets":"no","website":"https://www.visitpaysrhenan.alsace/toutes-les-experiences-a-vivre/experience/aires-de-services-stationnement-pour-camping-car-rheinau-freistett-aire-de-camping-car-badesee-rheinau-freistett","wheelchair":"yes"}},"1199677092":{"location":[48.4603721,8.0463389],"ct":"DE","tp":"CR","ts":"2023-08-19T05:20:22Z","tX":534,"tY":353,"tags":{"access":"customers","addr:city":"Durbach","addr:housenumber":"1","addr:place":"Ritterberg","addr:postcode":"77770","capacity:caravans":"4","caravans":"yes","charge":"15 EUR","email":"info@ritterhof-durbach.de","fee":"yes","name":"Campingplatz Ritterhof","operator":"Familie Kuderer","phone":"+49 781 41586","power_supply":"no","sanitary_dump_station":"no","website":"https://www.park4night.com/de/place/419869"}},"1204576913":{"location":[48.4885706,8.0026805],"ct":"DE","tp":"CR","ts":"2024-03-24T13:40:06Z","tX":534,"tY":353,"tags":{"addr:city":"Durbach","addr:housenumber":"2","addr:postcode":"77770","addr:street":"Vollmersbach","bakery_service":"yes","bbq":"yes","camping_behaviour":"yes","capacity:caravans":"3","charge":"30 EUR","dog":"yes","email":"info@wiesencamp.de","fee":"yes","internet_access":"wlan","internet_access:fee":"customers","laundry":"yes","mobile":"+49 151 40145210","name":"Wiesencamp Wörner","operator":"Natalie Wörner","power_supply":"yes","power_supply:charge":"0.50 EUR/kWh","reservation":"required","sanitary_dump_station":"yes","shower":"no","toilets":"no","water_point":"yes","website":"https://www.wiesencamp.de/"}},"1290390175":{"location":[48.4877951,8.0190574],"ct":"DE","tp":"CR","ts":"2024-06-08T06:34:02Z","tX":534,"tY":353,"tags":{"addr:city":"Durbach","addr:housenumber":"17","addr:place":"Sendelbach","addr:postcode":"77770","charge":"19 EUR","fee":"yes","name":"Stellplatz am Winzerhof","power_supply":"yes","website":"https://nomady.camp/de-DE/l/stellplatz-am-winzerhof/6582bef3-95d9-49b8-a98f-128e59501a04"}},"1290390176":{"location":[48.4643197,8.054932],"ct":"DE","tp":"CR","ts":"2024-06-08T06:34:02Z","tX":534,"tY":353,"tags":{"addr:city":"Durbach","addr:housenumber":"12","addr:postcode":"77770","addr:street":"Hohenberg","charge":"13 EUR","fee":"yes","internet_access":"wlan","name":"Serrerhof im Schwarzwald","power_supply":"yes","website":"https://nomady.camp/de-DE/l/serrerhof-im-schwarzwald/65b01de3-26b9-45d8-b6bb-0608a64d9aef"}},"12065025238":{"location":[48.5999595,7.7967788],"ct":"FR","tp":"CS","ts":"2024-07-21T06:02:26Z","tX":534,"tY":353,"tags":{"access":"customers","addr:housenumber":"27","addr:street":"Rue de l'Afrique","cabins":"no","camp_site":"basic","caravans":"yes","drinking_water":"yes","fee":"yes","hot_water":"yes","kitchen":"no","motorhome":"yes","name":"Camping à la ferme","phone":"+33614012302","picnic_table":"yes","power_supply":"yes","reservation":"recommended","shower":"cold","tents":"yes"}},"6513402095":{"location":[48.6750991,7.8567458],"ct":"FR","tp":"CR","ts":"2024-10-30T15:57:02Z","tX":534,"tY":353,"tags":{"addr:city":"Kilstett","capacity":"2","caravan_site":"motorhome_stopover","caravan_site:type":"village","caravans":"no","description":"2 small places reserved, more can be used if available. Quiet village with  a restaurant and a bakery","fee":"no","internet_access":"no","name":"Accueil camping car Kilstett","opening_hours:toilets":"Mo-Fr 08:00-16:30","operator":"Mairie de Kilstett","power_supply":"yes","power_supply:capacity":"4","power_supply:fee":"no","sanitary_dump_station":"no","socket:cee_blue":"yes","surface":"asphalt","tents":"no","toilets":"yes","water_point":"no","wikimedia_commons":"Category:Aire camping cars-Kilstett"}},"4721779618":{"location":[48.6796429,7.8408174],"ct":"FR","tp":"SD","ts":"2017-03-07T10:06:25Z","tX":534,"tY":353,"tags":{"email":"mairie@killstett.fr","name":"Aire de Services Killstett","phone":"+33 388 962109","source":"tourisme-alsace.com","website":"www.killstett.fr"}},"6513375432":{"location":[48.679,7.84171],"ct":"FR","tp":"SD","ts":"2024-08-11T23:12:40Z","tX":534,"tY":353,"tags":{"brand":"euro-relais","fee":"no","power_supply":"yes","toilets:disposal":"yes","water_point":"yes"}},"4423474376":{"location":[48.4802912,7.9278499],"ct":"DE","tp":"CR","ts":"2020-03-11T16:17:04Z","tX":534,"tY":353,"tags":{"addr:city":"Offenburg","capacity":"5","fee":"no","lastcheck":"2018-11-14","name":"Wohnwagenabstellplatz Kuhn","operator":"Camping Kuhn","power_supply":"cee_7_4","sanitary_dump_station":"yes","waste_basket":"yes"}},"7796026775":{"location":[48.4671007,8.083029],"ct":"DE","tp":"CR","ts":"2022-08-24T06:34:58Z","tX":534,"tY":353,"tags":{"addr:city":"Oberkirch","addr:housenumber":"38","addr:postcode":"77704","addr:street":"Wäldenstraße","capacity:caravans":"2","name":"Camperland Bergbauernhof im Schwarzwald","website":"https://camperland.de/stellplatz/bergbauernhof-im-schwarzwald-nr1/60efe735-3d74-42d3-925b-879628f50911"}},"12184169443":{"location":[48.6022073,8.0650357],"ct":"DE","tp":"CR","ts":"2024-09-18T14:03:17Z","tX":534,"tY":353,"tags":{"capacity":"3","internet_access":"no","name":"Hofcamping","operator":"Webers Hofglück","phone":"+49 170 2715091","reservation":"no","sanitary_dump_station":"no"}},"4304902405":{"location":[48.5810672,8.0450887],"ct":"DE","tp":"SD","ts":"2016-07-15T18:40:05Z","tX":534,"tY":353,"tags":{"sanitary_dump_station:chemical_toilet":"yes","sanitary_dump_station:fee":"yes","sanitary_dump_station:gravity":"yes","sanitary_dump_station:grey_water":"yes","sanitary_dump_station:suction":"no"}},"6065812183":{"location":[48.6246783,8.0734927],"ct":"DE","tp":"SD","ts":"2019-10-02T12:53:39Z","tX":534,"tY":353,"tags":{"fee":"no","sanitary_dump_station:chemical_toilet":"yes","sanitary_dump_station:grey_water":"yes"}},"6070649235":{"location":[48.4806222,7.9283118],"ct":"DE","tp":"SD","ts":"2018-11-18T13:31:09Z","tX":534,"tY":353,"tags":{"water_point":"yes"}},"6139448595":{"location":[48.4939648,8.0096534],"ct":"DE","tp":"SD","ts":"2022-06-03T12:23:21Z","tX":534,"tY":353,"tags":{"access":"permit","operator":"Gemeinde Durbach","water_point":"yes"}},"6139448602":{"location":[48.5018456,7.9897405],"ct":"DE","tp":"SD","ts":"2022-05-26T08:40:12Z","tX":534,"tY":353,"tags":{"water_point":"yes"}},"6503817804":{"location":[48.5297772,8.0729462],"ct":"DE","tp":"SD","ts":"2019-05-27T12:20:14Z","tX":534,"tY":353,"tags":{"access":"yes","fee":"no","sanitary_dump_station:chemical_toilet":"yes","sanitary_dump_station:gravity":"yes","sanitary_dump_station:grey_water":"yes"}},"10880828646":{"location":[48.6804416,7.9244767],"ct":"DE","tp":"SD","ts":"2024-10-18T13:41:07Z","tX":534,"tY":353,"tags":{"access":"yes","fee":"no","sanitary_dump_station:chemical_toilet":"yes","sanitary_dump_station:grey_water":"yes"}}}