{"26418352":{"location":[48.246467,7.8290265],"ct":"DE","tp":"CS","ts":"2023-10-27T20:08:41Z","tX":534,"tY":354,"tags":{"addr:city":"Ettenheim","addr:country":"DE","addr:housenumber":"34","addr:postcode":"77955","addr:street":"Mühlenweg","caravans":"yes","dog":"yes","email":"info@campingpark-oase.de","fax":"+49 7822 445919","name":"Campingpark Oase","phone":"+49 7822 445918","power_supply":"yes","tents":"yes","website":"https://www.campingpark-oase.de/","wheelchair":"limited","wikidata":"Q123212617"}},"32644838":{"location":[48.3512037,8.0588405],"ct":"DE","tp":"CR","ts":"2021-09-01T09:07:17Z","tX":534,"tY":354,"tags":{"capacity":"8","charge":"8.00 EUR/1 night;1.50 EUR/tourist_tax pppn","contact:email":"tourist-info@zell.de","contact:fax":"+49 7835 636950","contact:phone":"+49 7835 636947","fee":"yes","lastcheck":"2017-08-16","name":"Reisemobilstellplatz Sportpark Zell","operator":"Stadt Zell am Harmersbach","power_supply":"yes","sanitary_dump_station":"yes","water_point":"yes","website":"https://www.zell.de/3221646.html"}},"38619032":{"location":[48.3395847,7.8990267],"ct":"DE","tp":"CR","ts":"2023-10-27T19:58:57Z","tX":534,"tY":354,"tags":{"capacity":"12","fee":"yes","name":"Wohnmobilstellplatz Stadt Lahr","power_supply":"yes","toilets":"no","wheelchair":"yes","wikidata":"Q123212018"}},"314090338":{"location":[48.2957876,8.0479601],"ct":"DE","tp":"CS","ts":"2023-09-08T15:39:34Z","tX":534,"tY":354,"tags":{"addr:city":"Steinach","addr:housenumber":"34","addr:postcode":"77790","addr:street":"Welschensteinacher Straße","caravans":"yes","name":"Campingplatz Kinzigtal","operator":"Thomas Tillmanns","payment:cash":"yes","payment:credit_cards":"no","payment:debit_cards":"no","phone":"+49 7832 8122","sanitary_dump_station":"customers","tents":"yes","website":"http://www.campingplatz-kinzigtal.de/"}},"387909736":{"location":[48.2744859,7.7815281],"ct":"DE","tp":"CR","ts":"2016-02-27T09:37:23Z","tX":534,"tY":354,"tags":{"capacity":"25","contact:phone":"+49 7822 89380","fee":"no","name":"Ernst Caravan","power_supply":"yes","sanitary_dump_station":"yes","surface":"paved","water_point":"yes"}},"397805517":{"location":[48.4003742,7.8609786],"ct":"DE","tp":"CS","ts":"2024-05-20T19:10:58Z","tX":534,"tY":354,"tags":{"addr:city":"Friesenheim","addr:housenumber":"100","addr:postcode":"77948","addr:street":"In der Kruttenau","caravans":"yes","drinking_water":"yes","email":"campingplatzschuttern@friesenheim.de","fax":"+49 7808 912724","fee":"yes","name":"Campingplatz Schuttern","operator":"Gemeinde Friesenheim","permanent_camping":"yes","phone":"+49 7821 6337-460","power_supply":"yes","stars":"4","static_caravans":"yes","tents":"yes","toilets:wheelchair":"yes","website":"https://www.friesenheim.de/startseite/freizeit_+kultur+_+tourismus/baggersee.html","wheelchair":"yes","wikidata":"Q123211745"}},"420219521":{"location":[48.401695,8.0078711],"ct":"DE","tp":"CR","ts":"2024-03-24T13:49:28Z","tX":534,"tY":354,"tags":{"addr:city":"Gengenbach","addr:housenumber":"29","addr:postcode":"77723","addr:street":"Berghauptener Straße","capacity":"35","charge":"14.60 EUR","contact:phone":"+49 7824 6649670","ele":"171","fee":"yes","internet_access":"no","name":"Wohnmobilstellplatz Gengenbach","power_supply":"yes","sanitary_dump_station":"yes","sanitary_dump_station:grey_water":"yes","tents":"no","water_point":"yes"}},"444857879":{"location":[48.3000769,7.9428551],"ct":"DE","tp":"CS","ts":"2024-05-25T10:01:13Z","tX":534,"tY":354,"tags":{"addr:city":"Seelbach","addr:housenumber":"76","addr:postcode":"77960","addr:street":"Tretenhofstraße","cabins":"yes","caravans":"yes","drinking_water":"yes","email":"info@spacamping.de","name":"Ferienparadies Schwarzwälder Hof","phone":"+49 7823 960950","power_supply":"yes","sanitary_dump_station":"yes","shower":"yes","stars":"5","tents":"yes","toilets":"yes","website":"https://spacamping.de/"}},"455677689":{"location":[48.4163657,7.7771426],"ct":"DE","tp":"CR","ts":"2016-11-25T09:16:29Z","tX":534,"tY":354,"tags":{"name":"Wohnmobilpark Ortenau"}},"573293959":{"location":[48.4575024,7.9380236],"ct":"DE","tp":"CR","ts":"2022-06-24T21:51:20Z","tX":534,"tY":354,"tags":{"access":"customers","fee":"yes","motorhome":"designated","surface":"unpaved"}},"576480906":{"location":[48.3876784,8.0194721],"ct":"DE","tp":"CR","ts":"2022-03-09T11:22:31Z","tX":534,"tY":354,"tags":{"charge":"10€ + Kurtaxe 2,30€/P, (+Elektr. 3€)","fee":"yes","internet_access":"no","motorhome":"yes","note":"water_point, power_supply under construction as of March 2018; grey water disposal?","operator":"Brennerei WILD","sanitary_dump_station":"no"}},"577440717":{"location":[48.4489188,7.9431797],"ct":"DE","tp":"CS","ts":"2022-06-25T07:07:40Z","tX":534,"tY":354,"tags":{"access":"customers","caravans":"no","description":"Grillplatz: Für Familien und Gruppen bis zu 50 Personen Jugendzeltplatz: Für Jugendgruppen und Schulklassen","fee":"yes","group_only":"yes","internet_access":"no","landcover":"grass","motor_vehicle":"no","name":"Grill-/Jugendzeltplatz","operator":"Stadtteil- und Familienzentrum Uffhofen (SFZU)","shower":"no","tents":"yes","website":"https://sfz-offenburg.de/html/grill_jugendzeltplatz.html"}},"696364079":{"location":[48.2757013,8.0853928],"ct":"DE","tp":"CR","ts":"2020-08-20T09:44:40Z","tX":534,"tY":354,"tags":{"addr:city":"Haslach im Kinzigtal","addr:housenumber":"1","addr:postcode":"77716","addr:street":"Klosterstraße","capacity":"10","description":"Auf dem Klosterparkplatz dürfen ganzjährig auch Wohnmobile übernächtigen, auch mehrere Tage. Ver- und Entsorgung ist leider auf dem Platz nicht vorhanden. Dafür ist ein Toilettenhaus, das tagsüber offen ist, vorhanden. Die Tourist Information ist am Platz","fee":"no","internet_access":"no","name":"Klosterparkplatz","operator":"Stadt Haslach, Tourist Information","phone":"+49 7832 706-172","power_supply":"no","sanitary_dump_station":"no","website":"https://www.haslach.de/startseite/tourismus/Wohnmobile.html"}},"978635522":{"location":[48.4557278,7.939096],"ct":"DE","tp":"CS","ts":"2022-06-24T21:51:20Z","tX":534,"tY":354,"tags":{"caravans":"no","fee":"yes","group_only":"yes","motor_vehicle":"no","reservation":"required","tents":"yes"}},"1085548571":{"location":[48.2877812,7.7430158],"ct":"DE","tp":"CS","ts":"2023-04-02T12:42:59Z","tX":534,"tY":354,"tags":{"addr:city":"Kappel-Grafenhausen","addr:housenumber":"51 A","addr:postcode":"77966","addr:street":"Mühlenstraße","name":"Mandala Mini Camping","phone":"+49 176 20125371"}},"1210497025":{"location":[48.4506617,8.0806584],"ct":"DE","tp":"CS","ts":"2023-10-09T13:10:24Z","tX":534,"tY":354,"tags":{"backcountry":"yes","capacity:persons":"9","capacity:tents":"3","caravans":"no","drinking_water":"no","email":"info@trekking-schwarzwald.de","fee":"yes","name":"Trekking-Camp Späneplatz","openfire":"yes","opening_hours":"May 1-Oct 31: \"needs booking confirmation\"","operator":"Naturpark Schwarzwald Mitte/Nord e.V.","phone":"+49 7676 9336-78","reservation":"required","shower":"no","static_caravans":"no","tents":"yes","toilets":"yes","website":"https://www.trekking-schwarzwald.de/regionen/nordschwarzwald/camps/camp_spaeneplatz"}},"1213675149":{"location":[48.4239858,8.0841448],"ct":"DE","tp":"CS","ts":"2023-10-09T13:11:02Z","tX":534,"tY":354,"tags":{"addr:city":"Nordrach","addr:postcode":"77787","addr:street":"Langgrabenweg","backcountry":"yes","capacity:persons":"9","capacity:tents":"3","caravans":"no","drinking_water":"no","email":"info@trekking-schwarzwald.de","fee":"yes","name":"Trekking-Camp Schnaitberg Eck","openfire":"yes","opening_hours":"May 1-Oct 31: \"needs booking confirmation\"","operator":"Naturpark Schwarzwald Mitte/Nord e.V","operator:type":"government","phone":"+49 7676 9336-78","reservation":"required","shower":"no","static_caravans":"no","tents":"yes","toilets":"yes","website":"https://www.trekking-schwarzwald.de/regionen/nordschwarzwald/camps/camp_schnaitberg_eck"}},"1227373831":{"location":[48.4428988,7.908613],"ct":"DE","tp":"CS","ts":"2023-11-28T14:56:50Z","tX":534,"tY":354,"tags":{"access":"private","operator":"CVJM-Landesverband Baden e.V."}},"1265809708":{"location":[48.2537626,7.8169675],"ct":"DE","tp":"CR","ts":"2024-03-24T13:40:06Z","tX":534,"tY":354,"tags":{"camping_behaviour":"no","capacity":"6","caravan_site":"motorhome_stopover","caravan_site:type":"parking_lot","fee":"no","name":"Auf den Espen","power_supply":"no","sanitary_dump_station":"no","tents":"no","website":"https://www.schwarzwald-tourismus.info/attraktionen/wohnmobil-21cd3dbd01"}},"1459259265":{"location":[48.3528172,8.0594759],"ct":"DE","tp":"SD","ts":"2024-09-04T19:22:28Z","tX":534,"tY":354,"tags":{"fee":"no","name":"Reisemobilstellplatz Sportpark Zell","sanitary_dump_station:accepted":"black_water;grey_water;tank_chemicals"}},"10921022094":{"location":[48.2768803,7.8587343],"ct":"DE","tp":"CR","ts":"2023-05-23T06:44:50Z","tX":534,"tY":354,"tags":{"capacity":"10","fee":"no","internet_access":"no","opening_hours":"24/7","traffic_sign":"DE:314,1048-17"}},"4730148489":{"location":[48.2274248,7.753534],"ct":"DE","tp":"SD","ts":"2024-07-13T19:00:12Z","tX":534,"tY":354,"tags":{"comment":"Für Busse","water_point":"yes","website":"https://www.roadpump.de"}},"6422537531":{"location":[48.3983518,8.0778797],"ct":"DE","tp":"SD","ts":"2019-04-23T06:49:20Z","tX":534,"tY":354,"tags":{}},"6547349735":{"location":[48.2961151,8.0477348],"ct":"DE","tp":"SD","ts":"2019-06-14T11:14:23Z","tX":534,"tY":354,"tags":{"access":"customers","sanitary_dump_station:chemical_toilet":"yes"}},"6547349759":{"location":[48.295975,8.0478843],"ct":"DE","tp":"SD","ts":"2019-06-14T11:14:23Z","tX":534,"tY":354,"tags":{"access":"customers","sanitary_dump_station:chemical_toilet":"no","sanitary_dump_station:grey_water":"yes"}},"6547428388":{"location":[48.295735,8.047535],"ct":"DE","tp":"SD","ts":"2019-06-14T11:14:23Z","tX":534,"tY":354,"tags":{"access":"customers","sanitary_dump_station:chemical_toilet":"no","sanitary_dump_station:grey_water":"yes"}},"11132739238":{"location":[48.4020225,8.0072696],"ct":"DE","tp":"SD","ts":"2023-08-20T20:20:29Z","tX":534,"tY":354,"tags":{"sanitary_dump_station:basin":"yes","sanitary_dump_station:round_drain":"yes"}}}