{"2297457":{"location":[48.165228,7.7413808],"ct":"DE","tp":"CS","ts":"2020-08-13T19:34:44Z","tX":534,"tY":355,"tags":{"addr:city":"Riegel","addr:housenumber":"3","addr:postcode":"79359","addr:street":"Gehrpfadhöfe","caravans":"yes","contact:phone":"+49 7642 3694","contact:website":"http://www.muellersee.de/","name":"Müller-See Camping und Freizeit GmbH","tents":"yes"}},"3705296":{"location":[48.066142,7.8162228],"ct":"DE","tp":"CS","ts":"2022-08-29T22:07:05Z","tX":534,"tY":355,"tags":{"addr:housenumber":"30","addr:street":"Seestraße","cabins":"yes","caravans":"yes","name":"Campingplatz Tunisee","permanent_camping":"yes","phone":"+49 7665 22 49","tents":"yes","website":"https://www.tunisee.de/","wheelchair":"limited"}},"3705297":{"location":[48.0622682,7.8194425],"ct":"DE","tp":"CS","ts":"2020-08-13T19:34:44Z","tX":534,"tY":355,"tags":{"FIXME":"recheck dimension","caravans":"yes","email":"info@camping-freiburg.net","fax":"+49 7665 23 46","internet_access":"wlan","name":"Breisgau Camping am Silbersee","phone":"+49 7665 23 46","shower":"yes","tents":"yes","toilets":"yes","washing_machine":"yes","website":"http://camping-freiburg.net/"}},"13676558":{"location":[48.0171617,7.8341113],"ct":"DE","tp":"CR","ts":"2025-01-27T21:43:43Z","tX":534,"tY":355,"tags":{"addr:city":"Freiburg im Breisgau","addr:housenumber":"1","addr:street":"Suwonallee.","area:highway":"service","caravan_site":"motorhome_stopover","caravan_site:type":"airport","fee":"yes","highway":"service","name":"Wohnmobilstellplatz-Freiburg","opening_hours":"\"Geschlossen an Spieltagen des SC-Freiburgs\"","operator":"Wohnmobilstellplatz-Freiburg","power_supply":"yes","service":"parking_aisle","surface":"asphalt"}},"13686726":{"location":[48.0153411,7.8356598],"ct":"DE","tp":"CR","ts":"2024-04-05T09:54:10Z","tX":534,"tY":355,"tags":{"access":"private","description":"Wohnmobilstellplatz-Freiburg","fee":"yes","name":"P9-Wohnmobilstellplatz-Freiburg","note":"Parking lots are used as caravan sites year round with the exception of soccer game days.","operator":"Stellplatz-Freiburg","parking":"surface","power_supply":"yes","sanitary_dump_station":"no"}},"13994366":{"location":[48.016335,7.8348828],"ct":"DE","tp":"CR","ts":"2024-03-19T15:29:53Z","tX":534,"tY":355,"tags":{"addr:city":"Freiburg im Breisgau","addr:housenumber":"1","addr:postcode":"79108","addr:street":"Suwonallee","cabins":"no","capacity":"100","caravan_site":"motorhome_stopover","caravans":"no","charge":"13 EUR","contact:phone":"+49 761 2025139","contact:website":"https://www.stellplatz-freiburg.de","description:en":"Vehicles must be removed for soccer games. Check operator website https://www.stellplatz-freiburg.de","email":"kontakt@stellplatz-freiburg.de","fee":"yes","maxlength":"8","name":"Wohnmobil Stellplatz Freiburg","opening_hours":"24/7; \"vehicles must be removed from on soccer game days by 10:00 AM until 10:00 AM the next day\"","operator":"E. Tigges","permanent_camping":"no","power_supply":"yes","reservation":"yes","reservation:charge":"5 EUR","reservation:fee":"yes","reservation:website":"https://www.stellplatz-freiburg.de/#reservierung","sanitary_dump_station":"yes","seasonal":"no","static_caravans":"no","tents":"no","toilets":"no","water_point":"yes","wikimedia_commons":"Category:Motorhome stopover in Freiburg im Breisgau"}},"71185464":{"location":[48.0255632,7.8365261],"ct":"DE","tp":"CS","ts":"2022-11-10T15:33:44Z","tX":534,"tY":355,"tags":{"access":"private","addr:city":"Freiburg im Breisgau","addr:housenumber":"21b","addr:postcode":"79108","addr:street":"Hermann-Mitsch-Straße","name":"Eselswinkel","note:de":"Wagenplatz","permanent_camping":"only"}},"108387819":{"location":[48.1019358,7.9913089],"ct":"DE","tp":"CS","ts":"2024-08-16T20:51:45Z","tX":534,"tY":355,"tags":{"caravans":"yes","drinking_water":"yes","name":"Campingplatz Elztalblick","operator":"Familie Hoch","phone":"+49 7681 4212","power_supply":"yes","sanitary_dump_station":"yes","shower":"yes","tents":"yes","toilets":"yes","website":"https://www.camping-elztalblick.de/"}},"112400031":{"location":[48.1005667,8.0507284],"ct":"DE","tp":"CS","ts":"2020-08-13T19:34:44Z","tX":534,"tY":355,"tags":{"cabins":"yes","caravans":"yes","fixme":"Positionen der amenities erfassen","internet_access":"wlan","name":"Camping Schwarzwaldhorn","phone":"+497683477","shower":"yes","stars":"4","static_caravans":"yes","tents":"yes","toilets":"yes","washing_machine":"yes","website":"https://www.schwarzwald-camping.de/"}},"116453781":{"location":[47.9925058,7.8737495],"ct":"DE","tp":"CS","ts":"2024-07-26T22:18:16Z","tX":534,"tY":355,"tags":{"addr:city":"Freiburg im Breisgau","addr:housenumber":"99","addr:postcode":"79104","addr:street":"Kartäuserstraße","caravans":"yes","contact:fax":"+49 761 289212","contact:phone":"+49 761 35054","contact:website":"https://www.freiburg-camping.de/","drinking_water":"yes","name":"Hirzberg Camping","power_supply":"yes","sanitary_dump_station":"yes","shower":"yes","tents":"yes","toilets":"yes"}},"123937453":{"location":[48.0051769,7.8092232],"ct":"DE","tp":"CS","ts":"2021-06-28T01:18:40Z","tX":534,"tY":355,"tags":{"addr:city":"Freiburg","addr:housenumber":"7","addr:postcode":"79114","addr:street":"Fischermatte","name":"Sportbund Sonnland e.V.","nudism":"designated","phone":"+49 761 82159","website":"https://www.sonnland-freiburg.de/"}},"125131150":{"location":[48.0231345,8.0324873],"ct":"DE","tp":"CS","ts":"2019-03-25T00:53:29Z","tX":534,"tY":355,"tags":{"email":"info@camping-steingrubenhof.de","name":"Camping-Steingrubenhof","phone":"+49 7660 210","website":"https://www.camping-steingrubenhof.de/","wheelchair":"yes"}},"155014828":{"location":[48.1180346,7.8411463],"ct":"DE","tp":"CR","ts":"2025-04-02T18:48:57Z","tX":534,"tY":355,"tags":{"capacity":"20","caravan_site":"motorhome_stopover","caravan_site:type":"sports_centre","caravans":"no","charge":"10 EUR","contact:phone":"+49 7641 19433","fee":"yes","internet_access":"wlan","internet_access:fee":"no","maxstay":"3 days","name":"Wohnmobilstellplatz Am Sportfeld Emmendingen","operator":"Stadt Emmendingen","power_supply":"yes","reservation":"no","sanitary_dump_station":"yes","sanitary_dump_station:charge":"0.50 EUR","sanitary_dump_station:fee":"yes","surface":"asphalt","water_point":"yes","water_point:charge":"1 EUR/100 liter","water_point:fee":"yes","website":"https://tourismus.emmendingen.de/planen-buchen/uebernachten/wohnmobilstellplatz"}},"198387018":{"location":[48.217205,7.7884928],"ct":"DE","tp":"CS","ts":"2023-10-30T11:01:31Z","tX":534,"tY":355,"tags":{"addr:city":"Herbolzheim","addr:country":"DE","addr:housenumber":"1","addr:postcode":"79336","addr:street":"Im Laue","caravans":"yes","email":"s.hugoschmidt@t-online.de","fax":"+49 7643 913382","name":"Terrassencampingplatz Herbolzheim","phone":"+49 7643 1460","power_supply":"yes","tents":"yes","website":"https://www.laue-camp.de/"}},"220407027":{"location":[48.1185881,7.8410795],"ct":"DE","tp":"SD","ts":"2019-11-01T11:48:42Z","tX":534,"tY":355,"tags":{"fee":"yes","water_point":"yes"}},"333387702":{"location":[48.09689,7.8593309],"ct":"DE","tp":"CS","ts":"2023-04-02T13:31:47Z","tX":534,"tY":355,"tags":{"addr:city":"Emmendingen","addr:housenumber":"2","addr:postcode":"79312","addr:street":"Grünweg","name":"Campingplatz Weinmann","phone":"+49 7641 7642"}},"420082868":{"location":[48.1626919,7.7419006],"ct":"DE","tp":"CR","ts":"2023-01-18T18:08:54Z","tX":534,"tY":355,"tags":{"dog":"yes","fee":"yes","name":"Stellplatz Müller-See","operator":"Müller-See Camping und Freizeit GmbH","power_supply":"yes","sanitary_dump_station":"customers"}},"444295606":{"location":[48.1104643,7.9803214],"ct":"DE","tp":"CR","ts":"2024-12-25T11:08:53Z","tX":534,"tY":355,"tags":{"capacity":"6","caravan_site":"motorhome_stopover","caravan_site:type":"river;swimming_pool","drinking_water":"no","fee":"no","maxstay":"2 nights","name":"Stellplatz Schwimmbad ´s Bad Kollnau-Waldkirch","name:signed":"no","power_supply":"no","sanitary_dump_station":"no","surface":"gravel","tents":"no","toilets":"no","water_point":"no","website":"https://www.stadt-waldkirch.de/start/stadtinformation+und+tourismus/camping.html"}},"490175358":{"location":[48.1039184,7.90548],"ct":"DE","tp":"CR","ts":"2023-09-02T18:00:37Z","tX":534,"tY":355,"tags":{"addr:street":"Wassergäßle","capacity":"2","fee":"no","internet_access":"yes","internet_access:fee":"no","maxstay":"24 hours","name":"Wohnmobilstellplatz Hochburghalle","power_supply":"no","sanitary_dump_station":"no","surface":"asphalt","tents":"no","toilets":"no","wheelchair":"yes"}},"866123923":{"location":[48.0163449,7.8345101],"ct":"DE","tp":"CR","ts":"2025-03-05T14:57:20Z","tX":534,"tY":355,"tags":{"caravan_site":"motorhome_stopover","caravan_site:type":"sports_centre","charge":"13 EUR","description":"Wohnmobilstellplatz-Freiburg","fee":"yes","name":"P8-Wohnmobilstellplatz-Freiburg","note":"Parking lots are used as caravan sites year round with the exception of soccer game days.","opening_hours":"\"Geschlossen an Spieltagen des SC-Freiburgs\"","power_supply":"yes","website":"https://stellplatz-freiburg.de/"}},"1112059324":{"location":[48.0245478,7.8370175],"ct":"DE","tp":"CS","ts":"2023-05-16T19:53:20Z","tX":534,"tY":355,"tags":{"access":"private","addr:city":"Freiburg im Breisgau","addr:housenumber":"7","addr:postcode":"79108","addr:street":"Am Eselwinkel","contact:website":"https://schattenpark.blackblogs.org/","name":"Schattenparker","note:de":"Wagenplatz","permanent_camping":"only"}},"1160451540":{"location":[48.1952567,7.7612508],"ct":"DE","tp":"CR","ts":"2025-01-15T23:39:13Z","tX":534,"tY":355,"tags":{"access":"customers","addr:city":"Kenzingen","addr:housenumber":"34","addr:postcode":"79341","addr:street":"Tullastraße","capacity":"59","caravan_site":"motorhome_stopover","caravan_site:type":"town","caravans":"yes","charge":"19 EUR","contact:email":"info@wopake.de","contact:phone":"+49 1714906059","contact:website":"https://www.wopake.de/","dog":"yes","fee":"yes","internet_access":"wlan","internet_access:fee":"no","name":"Wohnmobilpark Kenzingen","operator":"Bernd Lange","payment:credit_cards":"yes","payment:debit_cards":"yes","power_supply:charge":"0.85 EUR/kWh","shower":"yes","surface":"fine_gravel","water_point:charge":"1 EUR/80 liter","water_point:fee":"yes"}},"1481315893":{"location":[48.0901009,7.9580296],"ct":"DE","tp":"CR","ts":"2020-10-19T11:14:10Z","tX":534,"tY":355,"tags":{"fee":"no","maxstay":"2 days","name":"Reisemobilstellplatz \"Am Stadtpark\"","sanitary_dump_station":"yes","water_point":"yes","wheelchair":"no"}},"4012370389":{"location":[48.1875056,7.7837769],"ct":"DE","tp":"CR","ts":"2025-01-15T23:39:13Z","tX":534,"tY":355,"tags":{"caravan_site":"motorhome_stopover","caravan_site:type":"winery","charge":"15 EUR","email":"info@ritters-weingut.de","fee":"yes","name":"Ritters Weinstube","phone":"+49 7644 931784","seasonal":"no","website":"https://www.ritter-weingut.de/wohnmobilstellplatz"}},"4146214389":{"location":[48.0409352,7.8171873],"ct":"DE","tp":"SD","ts":"2024-05-14T21:38:29Z","tX":534,"tY":355,"tags":{"access":"yes","description":"Reinigungsautomat (NUR Thedford-Casetten)","fee":"yes","operator":"WVD Südcaravan, Wohnmobile (Verkauf,Vermietung)","sanitary_dump_station:basin":"yes"}},"4146214390":{"location":[48.0417404,7.8159034],"ct":"DE","tp":"SD","ts":"2024-05-14T21:40:26Z","tX":534,"tY":355,"tags":{"access":"yes","description:payment":"1€ Wasser, Entsorgung frei","fee":"yes","operator":"WVD Südcaravan, Wohnmobile (Werkstatt)","water_point":"yes","water_point:charge":"1 EUR","water_point:fee":"yes"}},"9064273050":{"location":[48.0644547,8.0155979],"ct":"DE","tp":"CR","ts":"2025-01-28T14:00:32Z","tX":534,"tY":355,"tags":{"capacity":"8","caravan_site":"motorhome_stopover","caravan_site:type":"restaurant","charge":"15 EUR","fee":"yes","name":"Wohnmobilstellplatz Bergwelt Kandel","power_supply":"yes","power_supply:charge":"5 EUR","power_supply:fee":"yes","sanitary_dump_station":"no","surface":"asphalt"}},"5285504223":{"location":[48.0903206,7.9584497],"ct":"DE","tp":"SD","ts":"2020-04-26T09:51:08Z","tX":534,"tY":355,"tags":{"opening_hours":"24/7","water_point":"yes"}},"8305974963":{"location":[48.0175943,7.8338386],"ct":"DE","tp":"SD","ts":"2024-04-05T10:01:12Z","tX":534,"tY":355,"tags":{"access":"customers","fee":"yes","operator":"Wohnmobil Stellplatz Freiburg","payment:cash":"yes"}},"9076651204":{"location":[47.9917571,7.7898525],"ct":"DE","tp":"SD","ts":"2021-09-09T12:56:58Z","tX":534,"tY":355,"tags":{"access":"yes","operator":"extrol","sanitary_dump_station:basin":"yes"}},"9987053849":{"location":[48.0649648,7.8174287],"ct":"DE","tp":"SD","ts":"2022-08-29T22:07:05Z","tX":534,"tY":355,"tags":{}},"10792856327":{"location":[48.1953277,7.7620182],"ct":"DE","tp":"SD","ts":"2023-04-07T13:52:51Z","tX":534,"tY":355,"tags":{}}}