{"37078738":{"location":[47.9816178,7.8823785],"ct":"DE","tp":"CS","ts":"2019-03-30T17:22:31Z","tX":534,"tY":356,"tags":{"addr:city":"Freiburg im Breisgau","addr:housenumber":"77","addr:postcode":"79117","addr:street":"Waldseestraße","cabins":"yes","caravans":"yes","dog":"yes","dryer":"yes","email":"information@camping-freiburg.com","fax":"+49 761 76 79 336","internet_access":"wlan","internet_access:fee":"no","kitchen":"yes","name":"Campingplatz am Möslepark","payment:cash":"yes","payment:girocard":"yes","payment:mastercard":"yes","payment:visa":"yes","phone":"+49 761 76 79 333","power_supply":"yes","sauna":"yes","tents":"yes","washing_machine":"yes","website":"https://www.camping-freiburg.com/","wheelchair":"yes"}},"42222008":{"location":[47.859941,7.764378],"ct":"DE","tp":"CS","ts":"2020-08-13T19:34:44Z","tX":534,"tY":356,"tags":{"addr:city":"Münstertal","addr:housenumber":"6","addr:postcode":"79244","addr:street":"Dietzelbachstraße","camp_site":"deluxe","caravans":"yes","name":"Feriencamping Münstertal","permanent_camping":"yes","phone":"+49 7636 7080","power_supply":"yes","sanitary_dump_station":"yes","shower":"yes","tents":"yes","toilets":"yes","washing_machine":"yes","website":"https://www.camping-muenstertal.de","wheelchair":"yes"}},"44525808":{"location":[47.8619797,7.7413108],"ct":"DE","tp":"CS","ts":"2024-06-25T15:24:48Z","tX":534,"tY":356,"tags":{"caravans":"no","email":"platzwart@dpsg-staufen.de","group_only":"yes","internet_access":"no","name":"Zeltplatz DPSG Staufen","operator":"DPSG Stamm St. Martin","scout":"yes","shower":"no","tents":"yes","toilets":"yes","website":"https://www.staufen-pfadfinder.de/index.php/zeltplatz"}},"81094585":{"location":[47.9589526,7.951672],"ct":"DE","tp":"CS","ts":"2024-10-27T04:48:26Z","tX":534,"tY":356,"tags":{"cabins":"yes","caravans":"yes","drinking_water":"yes","internet_access":"wlan","name":"Camping Kirchzarten","permanent_camping":"yes","phone":"+4976619040910","power_supply":"yes","sanitary_dump_station":"yes","shower":"yes","stars":"5","static_caravans":"yes","tents":"yes","toilets":"yes","toilets:wheelchair":"yes","website":"https://www.camping-kirchzarten.de/","wheelchair":"yes"}},"130051670":{"location":[47.8713609,7.7372598],"ct":"DE","tp":"CS","ts":"2018-07-11T21:43:48Z","tX":534,"tY":356,"tags":{"email":"info@camping-belchenblick.de","name":"Campingplatz Belchenblick","phone":"+49 7633 7045","website":"https://www.camping-belchenblick.de"}},"132914202":{"location":[47.9182784,7.9366661],"ct":"DE","tp":"CS","ts":"2020-08-13T19:34:44Z","tX":534,"tY":356,"tags":{"caravans":"no","group_only":"yes","name":"Jugendzeltplatz Stübledobel","phone":"+49 7661 9305 0","tents":"yes","website":"https://www.jugendzeltplatz-oberried.de/"}},"137724241":{"location":[47.8282161,7.8591226],"ct":"DE","tp":"CS","ts":"2023-04-10T17:37:35Z","tX":534,"tY":356,"tags":{"cabins":"yes","caravans":"no","email":"hans.pausch@loerrach-landkreis.de","fax":"+49 7673 889164","group_only":"yes","mobile":"+49 172 7241219","name":"Waldjugendzeltplatz Hohtann - Bödemle","openfire":"yes","phone":"+49 7673 889289","power_supply":"yes","scout":"yes","tents":"yes","website":"https://www.loerrach-landkreis.de/servlet/PB/menu/1518604/index.html"}},"152350852":{"location":[47.8648481,7.915768],"ct":"DE","tp":"CS","ts":"2024-06-25T15:26:05Z","tX":534,"tY":356,"tags":{"addr:city":"Todtnau","addr:housenumber":"6","addr:postcode":"79674","addr:street":"Oberhäuserstraße","addr:suburb":"Muggenbrunn","cabins":"no","caravans":"yes","dog":"yes","drinking_water":"yes","email":"info@camping-hochschwarzwald.de","fee":"yes","group_only":"no","internet_access":"wlan","internet_access:fee":"yes","lit":"yes","motor_vehicle":"yes","name":"Camping Hochschwarzwald","permanent_camping":"yes","phone":"+49 7671 1288","power_supply":"yes","reservation":"recommended","sanitary_dump_station":"yes","shower":"yes","tents":"yes","toilets":"yes","website":"https://www.camping-hochschwarzwald.de/","wheelchair":"yes"}},"172275728":{"location":[47.9307335,7.9593742],"ct":"DE","tp":"CS","ts":"2023-08-20T08:51:01Z","tX":534,"tY":356,"tags":{"caravans":"yes","check_date":"2023-08-20","contact:website":"http://www.kirnermartes.de/","dog":"yes","drinking_water":"yes","email":"info@kirnermartes.de","fax":"+49 7661 980002","internet_access":"wlan","name":"Camping Kirnermartes","phone":"+49 7661 4727","power_supply":"yes","shower":"yes","static_caravans":"yes","tents":"yes","toilets":"yes","website":"http://www.kirnermartes.de/"}},"224163552":{"location":[47.7910938,7.9010799],"ct":"DE","tp":"CS","ts":"2022-08-01T15:38:26Z","tX":534,"tY":356,"tags":{"caravans":"yes","name":"Camping Schönenbuchen","phone":"+49 7673 7610","tents":"yes","website":"http://www.camping-schoenau.de/","wheelchair":"no"}},"230554892":{"location":[47.9563641,7.7767095],"ct":"DE","tp":"CR","ts":"2017-09-15T09:09:37Z","tX":534,"tY":356,"tags":{"addr:city":"Ebringen","addr:housenumber":"8","addr:postcode":"79285","addr:street":"Schulstraße","capacity":"4","fee":"no","name":"Wohnmobilstellplatz Ebringen","power_supply":"no","sanitary_dump_station":"no","tents":"no"}},"282950247":{"location":[47.8389196,7.8761714],"ct":"DE","tp":"CS","ts":"2021-01-04T13:53:34Z","tX":534,"tY":356,"tags":{"area":"yes","cabins":"yes","caravans":"no","email":"wieden@bergwelt-suedschwarzwald.de","fax":"+49 7673 8533","group_only":"yes","name":"Jugend- und Familienzeltplatz Sonnenrain","openfire":"yes","operator":"Gemeinde Wieden","phone":"+49 7673 303","scout":"yes","tents":"yes","website":"https://www.schwarzwaldregion-belchen.de/de/unterkunft/huetten.php"}},"308098101":{"location":[47.8132101,8.0689971],"ct":"DE","tp":"CR","ts":"2023-01-07T18:49:31Z","tX":534,"tY":356,"tags":{"capacity:caravans":"20","fee":"yes","name":"Wohnmobilstellplatz Rehbach","parking":"surface","power_supply":"yes","sanitary_dump_station":"yes","shower":"no"}},"326328122":{"location":[47.8058715,8.028701],"ct":"DE","tp":"CR","ts":"2022-03-18T10:11:35Z","tX":534,"tY":356,"tags":{"addr:city":"Bernau im Schwarzwald","addr:housenumber":"18","addr:postcode":"79872","addr:street":"Rathausstraße","capacity":"15","fee":"yes","motorhome":"yes","name":"Wohnmobil-Stellplatz Spitzenberg","website":"https://www.bernau-schwarzwald.de/de/unterkunft/view.php?type=camping"}},"393875150":{"location":[47.8026973,8.0088722],"ct":"DE","tp":"CS","ts":"2019-08-25T10:10:56Z","tX":534,"tY":356,"tags":{"addr:city":"Bernau im Schwarzwald","addr:postcode":"79872","capacity":"125","caravans":"no","fee":"yes","group_only":"yes","name":"Jugendzeltplatz Wacht","operator":"Tourist-Information Bernau im Schwarzwald","tents":"yes"}},"771476746":{"location":[47.9677222,7.9927764],"ct":"DE","tp":"CR","ts":"2021-08-24T08:52:26Z","tX":534,"tY":356,"tags":{"capacity":"10","contact:phone":"+49 7661 1204","fee":"yes","name":"Wohnmobilstellplatz Wanglerhof","power_supply":"yes","sanitary_dump_station":"yes","water_point":"yes"}},"1053066340":{"location":[47.9286086,7.8908744],"ct":"DE","tp":"CS","ts":"2024-07-14T16:27:29Z","tX":534,"tY":356,"tags":{"access":"permit","backcountry":"yes","camp_site":"basic","capacity:persons":"9","capacity:tents":"3","caravans":"no","drinking_water":"no","fee":"yes","motor_vehicle":"no","name":"Trekking-Camp Kohlerhau","operator":"Naturpark Südschwarzwald","power_supply":"no","reservation":"required","shower":"no","surface":"fine_gravel","tents":"yes","toilets":"yes","website":"https://www.trekking-schwarzwald.de/regionen/suedschwarzwald/camps/camp_kohlerhau"}},"4107292400":{"location":[47.7834046,7.8961404],"ct":"DE","tp":"CR","ts":"2020-08-24T17:25:03Z","tX":534,"tY":356,"tags":{"contact:phone":"+49 7671 1863","fee":"yes","power_supply":"yes","sanitary_dump_station":"yes","water_point":"yes","website":"http://www.wohnmobil-stellplatz-schönau.de/leistungen/"}},"10106248157":{"location":[47.8198844,8.065263],"ct":"DE","tp":"CS","ts":"2024-02-27T16:39:10Z","tX":534,"tY":356,"tags":{"access":"customers","backcountry":"yes","camp_site":"basic","capacity:persons":"9","capacity:tents":"3","caravans":"no","charge":"10","fee":"yes","group_only":"no","internet_access":"no","material":"stone","motor_vehicle":"no","name":"Trekking-Camp Steinbruch","operator":"Naturpark Südschwarzwald","payment:cards":"yes","reservation":"required","shower":"no","static_caravans":"no","tents":"yes","website":"https://www.trekking-schwarzwald.de/regionen/suedschwarzwald/camps/camp_menzenschwand"}},"5044648225":{"location":[47.8322469,7.9557509],"ct":"DE","tp":"CR","ts":"2024-08-21T19:20:35Z","tX":534,"tY":356,"tags":{"charge":"10 EUR + 3EUR (power) + 5 EUR Kurtaxe 2 Pers","fee":"yes"}},"12160428502":{"location":[47.9181516,7.7450929],"ct":"DE","tp":"CR","ts":"2024-09-06T16:12:49Z","tX":534,"tY":356,"tags":{"addr:postcode":"79238","addr:street":"Prälat-Stiefvater-Weg","outdoor_seating":"no"}},"5044647805":{"location":[47.8323473,7.9553325],"ct":"DE","tp":"SD","ts":"2024-08-21T19:20:45Z","tX":534,"tY":356,"tags":{"charge":"5 EUR","fee":"yes"}},"9765203145":{"location":[47.865282,7.9161637],"ct":"DE","tp":"SD","ts":"2022-05-23T19:20:04Z","tX":534,"tY":356,"tags":{}},"10041215433":{"location":[47.8602977,7.7632886],"ct":"DE","tp":"SD","ts":"2022-09-21T06:26:45Z","tX":534,"tY":356,"tags":{}},"11134971268":{"location":[47.9294972,7.9592447],"ct":"DE","tp":"SD","ts":"2023-08-21T20:45:49Z","tX":534,"tY":356,"tags":{}}}