{"161576491":{"location":[47.500654,8.0190325],"ct":"CH","tp":"CS","ts":"2013-08-02T08:38:15Z","tX":534,"tY":358,"tags":{"caravans":"yes","name":"Camping Frick","tents":"yes","website":"http://www.campingfrick.ch/"}},"249344092":{"location":[47.450877,7.7490543],"ct":"CH","tp":"CS","ts":"2023-11-09T05:13:38Z","tX":534,"tY":358,"tags":{"fee":"yes","name":"Campingplatz Talhaus","operator":"Talhaus AG","phone":"+41 76 438 20 43","website":"https://talhaus.ch/"}},"317228830":{"location":[47.3155665,7.8949867],"ct":"CH","tp":"CS","ts":"2023-11-09T05:14:42Z","tX":534,"tY":358,"tags":{"email":"info@camping-aarburg.ch","name":"Wiggerspitz","opening_hours":"May-Sep","phone":"+41 62 791 58 10","stars":"3","website":"https://www.camping-aarburg.ch/"}},"725374298":{"location":[47.4715479,7.7433661],"ct":"CH","tp":"CR","ts":"2023-03-13T11:57:04Z","tX":534,"tY":358,"tags":{}},"1302365159":{"location":[47.3431664,7.8938512],"ct":"CH","tp":"CR","ts":"2024-08-17T20:39:33Z","tX":534,"tY":358,"tags":{"access":"yes","bbq":"no","capacity":"3","caravan_site:type":"village","caravans":"no","contact:phone":"+41622131616","dog":"yes","fee":"no","internet_access":"no","maxheight":"default","maxstay":"48 hours","motorhome":"yes","name":"Wohnmobilstellplatz Sportstrasse","operator":"Stadt Olten","parking":"surface","permanent_camping":"no","power_supply":"no","sanitary_dump_station":"no","seasonal":"no","tents":"no","toilets":"no","water_point":"no"}},"2909554085":{"location":[47.4035778,7.8485802],"ct":"CH","tp":"CS","ts":"2014-06-10T18:34:13Z","tX":534,"tY":358,"tags":{"name":"camping"}},"5204782957":{"location":[47.4005741,7.9825813],"ct":"CH","tp":"CS","ts":"2024-04-04T07:28:35Z","tX":534,"tY":358,"tags":{"addr:city":"Stüsslingen","addr:housenumber":"1","addr:place":"Gugenhof","addr:postcode":"4655","capacity:tents":"10","caravans":"no","charge":"10 CHF","fee":"yes","name":"Gugenhof","phone":"+41 62 298 11 34","sanitary_dump_station":"no","static_caravans":"no","tents":"yes","website":"https://www.gugenhof.ch/"}},"9042004090":{"location":[47.3911088,8.0344423],"ct":"CH","tp":"CR","ts":"2021-08-27T22:52:38Z","tX":534,"tY":358,"tags":{"name":"Stellplatz Im Schachen, Aarau"}},"9042296972":{"location":[47.4695091,7.875062],"ct":"CH","tp":"CR","ts":"2021-08-28T06:25:21Z","tX":534,"tY":358,"tags":{"capacity":"2","description":"Die Dauer des Aufenthalts ist auf 48 Stunden beschränkt. CHF 5.-","email":"info@ormalingen.ch","fee":"yes","name":"Stellplatz Ormalingen","operator":"Gemeinde","payment:cash":"yes","payment:coins":"yes","sanitary_dump_station":"no"}}}