{"157935585":{"location":[46.8730299,7.908098],"ct":"CH","tp":"CS","ts":"2022-03-25T08:31:30Z","tX":534,"tY":360,"tags":{"name":"Camping Sternen","phone":"+41 34 493 33 11","stars":"3","website":"https://www.camping-sternen.ch/"}},"164577477":{"location":[46.8767596,8.0131901],"ct":"CH","tp":"CS","ts":"2023-11-17T06:24:54Z","tX":534,"tY":360,"tags":{"addr:city":"Flühli LU","addr:housenumber":"12","addr:postcode":"6173","addr:street":"Thorbachstrasse","email":"info@touristik-ag.ch","name":"Campingplatz Thorbach","name:en":"Thorbach","phone":"+41 79 742 11 04","website":"https://touristik-ag.ch/"}},"164577483":{"location":[46.8267551,8.0237398],"ct":"CH","tp":"CS","ts":"2022-03-28T08:32:18Z","tX":534,"tY":360,"tags":{"name":"Campingplatz Rischli","phone":"+41 41 488 15 77"}},"248010209":{"location":[46.8137742,7.8905264],"ct":"CH","tp":"CS","ts":"2024-08-25T13:14:47Z","tX":534,"tY":360,"tags":{"caravans":"yes","email":"sandro-reber@bluewin.ch","fee":"yes","name":"Camping Bumbach","phone":"+41 79 257 63 52","static_caravans":"yes","tents":"yes","website":"https://www.campingplatz-bumbach.ch"}},"799422903":{"location":[46.9610013,7.8095905],"ct":"CH","tp":"CS","ts":"2021-03-22T15:19:23Z","tX":534,"tY":360,"tags":{"name":"Mettlen","stars":"3"}},"890974238":{"location":[46.8173057,8.0416624],"ct":"CH","tp":"PK","ts":"2022-07-20T11:35:14Z","tX":534,"tY":360,"tags":{"access":"yes","caravans":"yes","fee":"no","parking":"surface","supervised":"no","surface":"asphalt"}},"1108975129":{"location":[46.9966186,7.991107],"ct":"CH","tp":"CS","ts":"2022-11-01T10:40:24Z","tX":534,"tY":360,"tags":{"cabins":"yes","website":"https://www.schwesteregg.ch/camping-pod/"}},"1174959529":{"location":[47.0045068,7.7419447],"ct":"CH","tp":"CR","ts":"2023-05-22T08:48:55Z","tX":534,"tY":360,"tags":{"addr:city":"Grünenmatt","addr:housenumber":"1212","addr:postcode":"3452","addr:street":"Dürr","charge":"25 CHF","fee":"yes","internet_access":"wlan","internet_access:fee":"no","phone":"+41 79 258 36 90","power_supply":"yes","sanitary_dump_station":"yes","tents":"yes","website":"http://www.klaesihof.ch/"}},"1774470641":{"location":[46.9395739,8.0073427],"ct":"CH","tp":"CS","ts":"2022-01-22T04:07:09Z","tX":534,"tY":360,"tags":{"addr:city":"Schüpfheim","addr:housenumber":"9","addr:postcode":"6170","addr:street":"Flühlistrasse","email":"bad@eol.ch","internet_access":"no","name":"Campingplatz Gasthaus Bad","phone":"+41 41 484 11 63","stars":"3","website":"http://eol.ch/bad/camping.htm"}},"8648714501":{"location":[46.953643,8.0480044],"ct":"CH","tp":"CS","ts":"2021-04-20T20:10:00Z","tX":534,"tY":360,"tags":{"caravans":"no","internet_access":"no","sanitary_dump_station":"no"}},"9438529664":{"location":[46.9372353,8.0008071],"ct":"CH","tp":"CS","ts":"2022-03-09T11:10:34Z","tX":534,"tY":360,"tags":{"description":"Bauernhofcamping","name":"Campingplatz Chnubel","phone":"+41 41 484 23 50"}},"9957576217":{"location":[46.8077316,7.7468779],"ct":"CH","tp":"CS","ts":"2024-08-25T13:24:14Z","tX":534,"tY":360,"tags":{"addr:city":"Schwarzenegg","addr:housenumber":"145B","addr:postcode":"3616","addr:street":"Kreuzweg","caravans":"yes","email":"kontakt@dreamvalley.ch","fee":"yes","name":"Dream Valley","operator":"Dream Valley Saloon","static_caravans":"no","tents":"yes","toilets":"yes","website":"https://www.dreamvalley.ch"}},"11520132418":{"location":[46.9856641,8.0674959],"ct":"CH","tp":"CS","ts":"2024-01-15T22:45:03Z","tX":534,"tY":360,"tags":{"access":"customers","caravans":"yes","dog":"yes","drinking_water":"yes","fee":"yes","name":"Bio-Hof Rüeben","note":"Needs to be booked on nomady.camp","reservation":"required","shower":"no","static_caravans":"yes","tents":"yes","toilets":"yes"}},"8280898266":{"location":[46.8172627,8.0414883],"ct":"CH","tp":"CR","ts":"2024-12-30T09:21:22Z","tX":534,"tY":360,"tags":{"addr:postcode":"6174","contact:website":"https://www.soerenberg.ch/de/hotel/stellplatz-soerenberg","fee":"yes","name":"Sörenberg Platz","payment:cash":"yes","payment:twint":"yes","power_supply":"yes","sanitary_dump_station":"yes","toilets":"yes"}},"8997808930":{"location":[46.9853299,8.0584912],"ct":"CH","tp":"CR","ts":"2023-11-15T20:08:24Z","tX":534,"tY":360,"tags":{"capacity":"18","fee":"yes","internet_access":"wlan","internet_access:fee":"customers","name":"Stellplatz Hasle-Entlebuch","operator":"Portmsnn","payment:american_express":"yes","payment:coins":"no","payment:credit_cards":"yes","payment:debit_cards":"yes","payment:maestro":"yes","payment:mastercard":"yes","payment:notes":"no","payment:telephone_cards":"no","payment:visa":"yes","power_supply":"yes","sanitary_dump_station":"yes","website":"https://stellplatz-camping.ch"}},"9026292422":{"location":[46.9855939,8.0583846],"ct":"CH","tp":"SD","ts":"2021-08-22T12:40:16Z","tX":534,"tY":360,"tags":{}}}