{"9609613":{"location":[46.680317,7.8184371],"ct":"CH","tp":"CS","ts":"2025-02-16T17:47:39Z","tX":534,"tY":361,"tags":{"name":"Camping Alpenblick","operator":"Susan Knecht und Georges Zehntner","phone":"+41 33 822 77 57","website":"https://camping-alpenblick.ch/"}},"13034512":{"location":[46.692707,7.86953],"ct":"CH","tp":"CS","ts":"2022-09-14T16:36:33Z","tX":534,"tY":361,"tags":{"fee":"yes","group_only":"no","name":"TCS Camping Interlaken","website":"https://www.tcs.ch/fr/camping-voyages/camping-insider/campings/tcs-campings/camping-interlaken.php?begin=&end=&person=1&type=camping"}},"26860731":{"location":[46.5908494,7.9117326],"ct":"CH","tp":"CS","ts":"2014-11-30T23:15:43Z","tX":534,"tY":361,"tags":{"name":"Schützenbach","wheelchair":"limited"}},"35081148":{"location":[46.6860809,7.8301989],"ct":"CH","tp":"CS","ts":"2024-08-16T10:39:46Z","tX":534,"tY":361,"tags":{"addr:city":"Unterseen BE","addr:housenumber":"6","addr:postcode":"3800","addr:street":"Lehnweg","area":"yes","caravans":"yes","drinking_water":"yes","email":"info@lazyrancho.ch","name":"Lazy Rancho","phone":"+41 33 822 87 16","shower":"yes","tents":"yes","website":"https://www.lazyrancho.ch/"}},"35081150":{"location":[46.6811515,7.8153428],"ct":"CH","tp":"CS","ts":"2023-11-03T04:44:17Z","tX":534,"tY":361,"tags":{"area":"yes","name":"Manor Farm","phone":"+41 33 822 22 64","stars":"5","website":"https://www.manorfarm.ch/"}},"178774674":{"location":[46.748192,8.0485479],"ct":"CH","tp":"CS","ts":"2023-05-26T14:10:27Z","tX":534,"tY":361,"tags":{"caravans":"yes","drinking_water":"yes","name":"Aaregg","shower":"yes","tents":"yes","toilets":"yes","website":"https://www.aaregg.ch/"}},"179999696":{"location":[46.6913258,7.8940209],"ct":"CH","tp":"CS","ts":"2023-05-19T15:03:28Z","tX":534,"tY":361,"tags":{"caravans":"yes","drinking_water":"yes","name":"TCS Camping Bönigen-Interlaken","power_supply":"yes","shower":"yes","tents":"yes","toilets":"yes","website":"https://www.tcs.ch/fr/camping-voyages/camping-insider/campings/tcs-campings/camping-boenigen-interlaken.php?begin=&end=&person=1&type=camping"}},"187793792":{"location":[46.7505838,8.0485347],"ct":"CH","tp":"CS","ts":"2021-07-21T16:05:29Z","tX":534,"tY":361,"tags":{"name":"Seegärtli","source":"survey"}},"218655452":{"location":[46.7074482,7.9074765],"ct":"CH","tp":"CS","ts":"2021-08-31T09:06:30Z","tX":534,"tY":361,"tags":{"addr:city":"Ringgenberg","addr:country":"CH","addr:housenumber":"482B","addr:postcode":"3852","addr:street":"Talacher","email":"camping@talacker.ch","fax":"+41 33 822 98 38","internet_access":"wlan","internet_access:fee":"no","name":"Talacker","phone":"+41 33 822 11 28","tents":"yes","website":"https://www.talacker.ch/"}},"223063310":{"location":[46.7076448,7.9133022],"ct":"CH","tp":"CS","ts":"2023-08-22T08:39:32Z","tX":534,"tY":361,"tags":{"cabins":"no","caravans":"yes","dog":"leashed","drinking_water":"yes","dryer":"yes","hot_water":"yes","internet_access":"wlan","internet_access:fee":"no","kitchen":"yes","name":"Camping au lac, Ringgenberg","nudism":"no","permanent_camping":"yes","phone":"+41 33 822 26 16","picnic_table":"yes","power_supply":"yes","reservation":"recommended","sanitary_dump_station":"yes","scout":"no","shower":"hot","tents":"yes","toilets":"yes","washing_machine":"yes","website":"https://www.au-lac.ch/fr/home","wheelchair":"no"}},"229998536":{"location":[46.6614699,7.8647319],"ct":"CH","tp":"CS","ts":"2023-08-26T22:05:52Z","tX":534,"tY":361,"tags":{"email":"info@campingwilderswil.ch","fax":"+41 33 822 13 35","name":"Oberei","phone":"+41 33 822 13 35","website":"https://www.campingwilderswil.ch/"}},"230551178":{"location":[46.5683351,7.9086029],"ct":"CH","tp":"CS","ts":"2023-10-01T08:27:20Z","tX":534,"tY":361,"tags":{"cabins":"yes","caravans":"yes","email":"info@campingbreithorn.ch","name":"Breithorn","phone":"+41 33 855 12 25","shower":"yes","tents":"yes","toilets":"yes","website":"https://campingbreithorn.ch/","wheelchair":"limited"}},"235976226":{"location":[46.6914438,7.9247144],"ct":"CH","tp":"CS","ts":"2013-08-31T15:54:40Z","tX":534,"tY":361,"tags":{}},"306709601":{"location":[46.5877557,7.9099832],"ct":"CH","tp":"CS","ts":"2023-10-01T08:27:20Z","tX":534,"tY":361,"tags":{"caravans":"yes","email":"info@camping-jungfrau.ch","fee":"yes","internet_access":"wlan","internet_access:fee":"no","name":"Jungfrau","operator":"Camping Jungfrau AG","phone":"+41 33 856 20 10","static_caravans":"yes","tents":"yes","website":"http://www.camping-jungfrau.ch","wheelchair":"yes"}},"320651619":{"location":[46.6207721,8.0445819],"ct":"CH","tp":"CS","ts":"2023-07-06T11:55:33Z","tX":534,"tY":361,"tags":{"access":"customers","addr:city":"Grindelwald","addr:housenumber":"29","addr:postcode":"3818","addr:street":"Locherbodenstrasse","capacity:caravans":"60","capacity:persons":"90","capacity:tents":"20","caravans":"yes","check_date":"2023-07-06","drinking_water":"yes","email":"info@gletscherdorf.ch","fee":"yes","internet_access":"wlan","name":"Camping Gletscherdorf","note":"Kurtaxe:  ab 16 Jahren     4.70CHF / Tag\n               12 bis 16 Jahre  3.70CHF / Tag","operator":"Daniel Jäggi","payment:cash":"yes","picnic_table":"yes","power_supply":"yes","reservation":"recommended","sanitary_dump_station":"yes","shower":"yes","start_date":"2023-05-01","static_caravans":"yes","tents":"yes","toilets":"yes","website":"https://gletscherdorf.ch/de/","wheelchair":"yes"}},"322963267":{"location":[46.6225138,8.0161022],"ct":"CH","tp":"CS","ts":"2015-01-18T23:14:45Z","tX":534,"tY":361,"tags":{"addr:city":"Grindelwald","addr:housenumber":"4","addr:postcode":"3818","addr:street":"Bodenstrasse","name":"Eigernordwand","website":"http://eigernordwand.ch/"}},"345171476":{"location":[46.6903001,7.7849475],"ct":"CH","tp":"CS","ts":"2024-03-24T10:25:11Z","tX":534,"tY":361,"tags":{"addr:city":"Beatenberg","addr:housenumber":"5","addr:postcode":"3803","addr:street":"Mattestrasse","caravans":"yes","name":"Camping Wang","shower":"yes","stars":"2","tents":"yes","toilets":"yes","website":"https://camping-wang.ch/"}},"355832829":{"location":[46.6373005,7.9314997],"ct":"CH","tp":"CS","ts":"2020-11-05T18:28:56Z","tX":534,"tY":361,"tags":{"email":"info@danys-camping.ch","name":"Dany's Camping","website":"https://danys-camping.ch"}},"591219244":{"location":[46.6196824,8.0071745],"ct":"CH","tp":"CS","ts":"2024-01-02T19:32:10Z","tX":534,"tY":361,"tags":{"name":"Camping Holdrio","website":"https://www.camping-grindelwald.ch/"}},"598616133":{"location":[46.6192028,8.0281782],"ct":"CH","tp":"CS","ts":"2018-06-17T19:08:40Z","tX":534,"tY":361,"tags":{"addr:city":"Grindelwald","addr:postcode":"3818","name":"Camping Sand Grindelwald"}},"695831729":{"location":[46.6875355,7.8342941],"ct":"CH","tp":"CS","ts":"2024-08-16T10:39:45Z","tX":534,"tY":361,"tags":{"addr:city":"Unterseen","addr:housenumber":"60","addr:postcode":"3800","addr:street":"Steindlerstrasse","area":"yes","caravans":"yes","drinking_water":"yes","name":"JungfrauCamp","opening_hours":"Jun-Oct: 24/7","phone":"+41 76 295 05 11","power_supply":"yes","sanitary_dump_station":"yes","shower":"yes","tents":"yes","toilets":"yes","website":"https://www.jungfraucamp.ch/"}},"695947457":{"location":[46.6844344,7.8295041],"ct":"CH","tp":"CS","ts":"2024-08-16T10:39:47Z","tX":534,"tY":361,"tags":{"addr:city":"Unterseen BE","addr:housenumber":"16","addr:postcode":"3800","addr:street":"Lehnweg","area":"yes","caravans":"yes","drinking_water":"yes","email":"info@campinghobby.ch","name":"Camping Hobby 3","operator":"Camping Hobby AG","phone":"+41 33 822 96 52","shower":"yes","tents":"yes","website":"https://www.campinghobby.ch"}},"799418804":{"location":[46.6875714,7.9002916],"ct":"CH","tp":"CS","ts":"2020-05-03T16:58:32Z","tX":534,"tY":361,"tags":{"name":"Terrasse","stars":"2"}},"799470029":{"location":[46.7111318,7.9691639],"ct":"CH","tp":"CS","ts":"2021-06-10T07:00:15Z","tX":534,"tY":361,"tags":{"name":"Camping du Lac","website":"https://www.campingdulac.ch/"}},"839146481":{"location":[46.7501905,8.049303],"ct":"CH","tp":"CS","ts":"2023-08-26T11:47:31Z","tX":534,"tY":361,"tags":{"addr:city":"Brienz","addr:housenumber":"12","addr:postcode":"3855","addr:street":"Seestrasse","capacity":"50","caravans":"yes","description":"Einzigartig, individuell, an einmalig schöner Lage direkt am Wasser des sauberen Brienzersees gelegen, heisst Sie der kleine und pittoreske Campingplatz Seebucht herzlichst willkommen! Ob Aktivurlaub oder pure Erholung - bei uns sind Sie goldrichtig. Ber","dog":"no","fee":"yes","internet_access":"no","name":"Seebucht","operator":"Agnes Streich","payment:cash":"yes","phone":"+41339510129","sanitary_dump_station":"no","shower":"yes","stars":"2","tents":"yes","toilets":"yes","website":"https://www.seebucht-brienz.ch/"}},"4124479949":{"location":[46.6778996,7.8498588],"ct":"CH","tp":"SD","ts":"2018-01-21T14:20:20Z","tX":534,"tY":361,"tags":{"access":"yes","fee":"yes","opening_hours":"24/7","operator":"Top Camp AG","sanitary_dump_station:chemical_toilet":"yes","sanitary_dump_station:gravity":"yes","sanitary_dump_station:grey_water":"yes","sanitary_dump_station:pump-out":"no","water_point":"yes"}},"12135719307":{"location":[46.7320777,7.8614785],"ct":"CH","tp":"CS","ts":"2024-08-25T12:58:18Z","tX":534,"tY":361,"tags":{"capacity:pitches":"2","fee":"yes","name":"Stellplätze Skilift Habkern","operator":"Gem. Habkern","static_caravans":"no","toilets":"yes"}},"12135745833":{"location":[46.7292082,7.8640261],"ct":"CH","tp":"CS","ts":"2024-08-25T13:05:11Z","tX":534,"tY":361,"tags":{"capacity:pitches":"3","email":"info@sporthotel-habkern.ch","fee":"yes","name":"Sporthotel Habkern","operator":"Sporthotel Habkern","static_caravans":"no","toilets":"yes","website":"https://www.sporthotel-habkern.ch"}},"5595851322":{"location":[46.7821778,7.826953],"ct":"CH","tp":"CR","ts":"2018-05-04T07:34:48Z","tX":534,"tY":361,"tags":{}},"7629697524":{"location":[46.6921813,7.8685823],"ct":"CH","tp":"CR","ts":"2023-11-10T07:50:57Z","tX":534,"tY":361,"tags":{"name":"TCS Camping Sackgut","power_supply":"yes","sanitary_dump_station":"yes"}},"9042287030":{"location":[46.6495151,7.8721301],"ct":"CH","tp":"CR","ts":"2021-08-28T06:25:21Z","tX":534,"tY":361,"tags":{"addr:city":"Wilderswil","addr:postcode":"3812","capacity":"3","description":"Nur für autarke Wohnmobile! Maximum 1 Nacht Preis Fr 10.-, Öffnungszeiten:13.4. - 31.10.","email":"heneloosli@gmail.com","fee":"yes","name":"Stellplatz Bir Sagi","phone":"+41 79 334 62 02"}},"7629697528":{"location":[46.692389,7.8688546],"ct":"CH","tp":"SD","ts":"2024-08-16T17:10:14Z","tX":534,"tY":361,"tags":{"access":"customers","fee":"yes","operator":"TCS Camping Sackut","water_point":"yes"}},"9925310871":{"location":[46.7078674,7.9140902],"ct":"CH","tp":"SD","ts":"2022-08-01T18:24:58Z","tX":534,"tY":361,"tags":{"access":"customers","sanitary_dump_station:gravity":"yes"}},"10991551545":{"location":[46.6210379,8.0446731],"ct":"CH","tp":"SD","ts":"2023-06-27T08:39:49Z","tX":534,"tY":361,"tags":{}}}