{"8928294":{"location":[46.3022191,7.933778],"ct":"CH","tp":"CS","ts":"2021-02-06T21:14:52Z","tX":534,"tY":363,"tags":{"addr:city":"Brigerbad","addr:housenumber":"1","addr:postcode":"3900","addr:street":"Thermalbadstrasse","name":"Camping Brigerbad","phone":"+41 27 948 48 37"}},"10562109":{"location":[46.1136835,7.9397753],"ct":"CH","tp":"CS","ts":"2020-01-09T17:04:18Z","tX":534,"tY":363,"tags":{"addr:city":"Saas-Grund","fee":"yes","name":"Mischabel"}},"10562110":{"location":[46.11603,7.9379542],"ct":"CH","tp":"CS","ts":"2020-01-09T17:04:18Z","tX":534,"tY":363,"tags":{"name":"Am Kapellenweg"}},"225927333":{"location":[46.3029813,7.7953485],"ct":"CH","tp":"CS","ts":"2023-05-15T00:10:29Z","tX":534,"tY":363,"tags":{"name":"Simplonblick"}},"274171059":{"location":[46.3088018,7.9937286],"ct":"CH","tp":"CS","ts":"2024-08-29T09:37:24Z","tX":534,"tY":363,"tags":{"addr:city":"Brig","addr:housenumber":"41","addr:postcode":"3900","addr:street":"Geschinaweg","capacity:persons":"100","caravans":"yes","dog":"yes","drinking_water":"yes","email":"info@geschina.ch","internet_access":"wlan","name":"Camping Geschina","operator":"Fam. Eyer & Schmid","phone":"+41 (0)27 923 0688","power_supply":"yes","reservation":"yes","shower":"hot","stars":"4","static_caravans":"yes","tents":"yes","toilets":"yes","website":"https://www.geschina.ch/"}},"281362008":{"location":[46.2990654,7.8723244],"ct":"CH","tp":"CS","ts":"2024-08-25T09:31:30Z","tX":534,"tY":363,"tags":{"addr:city":"Visp","addr:housenumber":"7","addr:postcode":"3930","addr:street":"Mühleye","caravans":"yes","drinking_water":"yes","email":"info@camping-visp.ch","fee":"yes","name":"Camping & Schwimmbad Mühleye","opening_hours":"Mar 25-Oct 31","phone":"+41 27 946 20 84","power_supply":"yes","sanitary_dump_station":"yes","shower":"yes","tents":"yes","toilets":"yes","website":"https://www.camping-visp.ch/"}},"298982796":{"location":[46.3021178,7.8037905],"ct":"CH","tp":"CS","ts":"2024-01-05T20:46:16Z","tX":534,"tY":363,"tags":{"name":"Santa Monica"}},"403575074":{"location":[46.1108324,7.9336115],"ct":"CH","tp":"CR","ts":"2021-07-24T10:07:10Z","tX":534,"tY":363,"tags":{"fee":"yes","name":"Stellplatz Saas-Fee","power_supply":"yes","website":"https://www.saas-fee.ch/de/unterkuenfte/camping/abstellplatz-fuer-camper"}},"487190671":{"location":[46.0857072,7.7822985],"ct":"CH","tp":"CS","ts":"2024-06-23T07:27:11Z","tX":534,"tY":363,"tags":{"caravans":"yes","name":"Attermenzen","power_supply":"yes","stars":"3","tents":"yes","website":"https://www.camping-randa.ch/"}},"799407326":{"location":[46.1111482,7.9426763],"ct":"CH","tp":"CS","ts":"2023-06-27T18:31:26Z","tX":534,"tY":363,"tags":{"caravans":"yes","name":"Schönblick","stars":"2","tents":"yes"}},"799408881":{"location":[46.1276304,7.9359813],"ct":"CH","tp":"CS","ts":"2020-05-03T16:22:01Z","tX":534,"tY":363,"tags":{"name":"Bergheimat","stars":"2"}},"1189941372":{"location":[46.3073005,7.7420796],"ct":"CH","tp":"CS","ts":"2024-09-09T09:16:37Z","tX":534,"tY":363,"tags":{"access":"yes","capacity":"100","caravans":"yes","drinking_water":"yes","email":"info@park4campers.ch","fee":"yes","name":"Stellplatz Lampertji 6","openfire":"no","opening_hours":"24/7","phone":"+41 78 820 23 52","power_supply":"yes","sanitary_dump_station":"yes","shower":"yes","static_caravans":"no","tents":"yes","toilets":"yes","website":"https://www.lampertji6.ch/stellplatz"}},"1300597462":{"location":[46.2770667,7.8241883],"ct":"CH","tp":"CR","ts":"2024-07-10T19:28:15Z","tX":534,"tY":363,"tags":{"internet_access":"wlan","name":"Stellplatz Camp Bietschhorn","power_supply":"yes","website":"https://nomady.camp/de-DE/l/camp-bietschhorn-hia-chusch-ambri/611111e2-9e07-4659-bff3-e7e457365ffc"}},"1308278140":{"location":[46.2886594,7.8014452],"ct":"CH","tp":"CR","ts":"2024-08-16T15:15:53Z","tX":534,"tY":363,"tags":{"description":"Dusche vorhanden, Ver- und Entsorgung vorhanden","internet_access":"wlan","name":"Stellplatz Seepark Augstbord","operator":"Unterbäch Tourismus","power_supply":"yes","sanitary_dump_station":"yes","website":"https://www.parknsleep.app/ps/27264132"}},"3067123015":{"location":[46.2491918,8.0302902],"ct":"CH","tp":"CR","ts":"2021-04-27T19:51:00Z","tX":534,"tY":363,"tags":{"addr:city":"Simplon Passhöhe","addr:postcode":"3907","capacity":"15","description":"Grauwasserentsorgung, Ruhige Stellplätze hinter Hotel","name":"Stellplatz Simplonpass"}},"8674197883":{"location":[46.2977393,7.8736291],"ct":"CH","tp":"CR","ts":"2024-08-25T09:31:30Z","tX":534,"tY":363,"tags":{"addr:city":"Visp","addr:housenumber":"7","addr:postcode":"3930","addr:street":"Mühleye","capacity":"10","charge":"20 CHF","description":"3 Nächte, Onlineanmeldung im Voraus notwendig! Nur im Winterhalbjahr","email":"info@camping-visp.ch","fee":"yes","name":"Winter-Stellplatz Mühleye","operator":"Camping & Schwimmbad Mühleye","phone":"+41 27 946 20 84","power_supply":"yes","sanitary_dump_station":"yes","website":"https://camping-visp.ch/"}},"8674197884":{"location":[46.27731,7.81501],"ct":"CH","tp":"CR","ts":"2023-11-08T00:33:07Z","tX":534,"tY":363,"tags":{"addr:city":"Bürchen","addr:postcode":"3935","addr:street":"Zengerbernstrasse","capacity":"4","description":"3 Nächte, direkt beim Sportplatz, Sommerhalbjahr 01.05. - 31.10.","fee":"CHF 16.-","name":"Stellplatz Zumoberhaus","sanitary_dump_station":"yes","website":"https://www.moosalpregion.ch/"}},"8674197885":{"location":[46.0932,7.78],"ct":"CH","tp":"CR","ts":"2023-11-10T10:42:42Z","tX":534,"tY":363,"tags":{"addr:city":"Randa","addr:place":"Obere Wildi","addr:postcode":"3928","capacity":"15","description":"Beim Hotel CHF 10.-- in das gelbe Sparschwein legen, Ticket hinter Windschutzscheibe","fee":"CHF 10.-","name":"Stellplatz Wildi","sanitary_dump_station":"no","tents":"no","website":"https://www.matterhornparking.ch/"}},"9053862657":{"location":[46.2885825,7.801427],"ct":"CH","tp":"CR","ts":"2024-08-16T15:15:53Z","tX":534,"tY":363,"tags":{"capacity":"6","description":"CHF 30.-, ganzjährig","email":"info@unterbaech.ch","fee":"yes","name":"Stellplatz Seepark Augstbord","phone":"+41 27 934 56 56","power_supply":"yes","website":"https://unterbaech.ch/"}},"8850402426":{"location":[46.249276,8.030395],"ct":"CH","tp":"SD","ts":"2021-06-20T13:19:04Z","tX":534,"tY":363,"tags":{"description":"hinter dem Toilettenhaus gibt es eine Ver- und Entsorgungsstelle. Sie ist allerdings in der kalten Jahreszeit geschlossen","name":"Simplonpass, Simplon","note":"WML CH"}},"12135439385":{"location":[46.2976464,7.8729666],"ct":"CH","tp":"SD","ts":"2024-08-25T09:31:30Z","tX":534,"tY":363,"tags":{"access":"customers","fee":"yes"}}}