{"84867027":{"location":[45.8563476,7.8134669],"ct":"IT","tp":"CR","ts":"2025-01-13T15:19:46Z","tX":534,"tY":364,"tags":{"internet_access":"wlan","internet_access:fee":"no","name":"Tschaval","power_supply":"yes","sanitary_dump_station":"yes","source":"PCN Orthophoto","website":"http://sostatschaval.altervista.org"}},"208545198":{"location":[45.8472818,7.9405076],"ct":"IT","tp":"CS","ts":"2024-09-04T22:05:39Z","tX":534,"tY":364,"tags":{"addr:housenumber":"3","addr:place":"Località Miniere","addr:postcode":"13020","caravans":"yes","contact:email":"info@campeggioalagna.it","contact:fax":"+39 0163 922975","contact:phone":"+39 0163 922947","contact:website":"http://www.campeggioalagna.it/","fee":"yes","name":"Campeggio Alagna","power_supply":"yes","shower":"yes","socket:cee_blue":"yes","tents":"yes","toilets":"yes"}},"208732039":{"location":[45.8343108,7.956144],"ct":"IT","tp":"CR","ts":"2014-04-15T14:57:28Z","tX":534,"tY":364,"tags":{}},"216998258":{"location":[45.9057929,8.0523988],"ct":"IT","tp":"CS","ts":"2024-09-04T21:07:54Z","tX":534,"tY":364,"tags":{"access":"yes","caravans":"yes","contact:website":"http://www.comunecarcoforo.it/campeggio.htm","fee":"yes","motorhome":"yes","name":"Area Attrezzata Le Giare","operator":"Comune di Carcoforo - Pro Loco Carcoforo","power_supply":"yes","shower":"yes","socket:cee_blue":"yes","source":"pcn 2006"}},"217187005":{"location":[45.8601294,8.0651825],"ct":"IT","tp":"CS","ts":"2024-09-04T21:01:31Z","tX":534,"tY":364,"tags":{"addr:city":"Rimasco","addr:housenumber":"1","addr:postcode":"13026","addr:street":"Loc. Sponda Lago","caravans":"yes","contact:phone":"+39 0163 954228","fee":"yes","motorhome":"yes","name":"Il laghetto","power_supply":"yes","socket:cee_blue":"yes","tents":"yes","toilets":"yes","website":"https://www.alpecamporimasco.it/esperienze/strutture-ricettive/73-il-laghetto---campeggio-e-ristorante"}},"227997487":{"location":[45.9655325,7.9789407],"ct":"IT","tp":"CS","ts":"2024-09-04T21:12:54Z","tX":534,"tY":364,"tags":{"addr:city":"Macugnaga","addr:housenumber":"142","addr:postcode":"28876","addr:street":"Via Monte Rosa","caravans":"yes","motorhome":"yes","name":"Natural Camping","parking":"surface","power_supply":"yes","power_supply:maxcurrent":"6","socket:cee_blue":"yes","tents":"yes","website":"https://naturalcamping.ossolacollection.com/"}},"440492081":{"location":[46.0646285,7.7745304],"ct":"CH","tp":"CS","ts":"2023-11-28T15:53:21Z","tX":534,"tY":364,"tags":{"addr:city":"Täsch","alt_name":"Camping Täsch","area":"yes","cabins":"yes","caravans":"yes","fee":"yes","internet_access":"wlan","name":"Alphubel","tents":"yes","website":"https://www.campingtaesch.ch"}},"569323858":{"location":[46.0261504,7.7501124],"ct":"CH","tp":"CS","ts":"2023-06-23T12:10:22Z","tX":534,"tY":364,"tags":{"addr:city":"Zermatt","addr:housenumber":"17","addr:postcode":"3920","addr:street":"Spisstrasse","caravans":"no","charge":"19 CHF/person","email":"info@campingzermatt.ch","fee":"yes","internet_access":"wlan","internet_access:fee":"no","mobile":"+41 79 536 46 30","motorhome":"no","name":"Camping Zermatt","opening_hours":"May 25 - Sep 30","payment:cash":"yes","payment:credit_cards":"yes","payment:debit_cards":"yes","payment:twint":"yes","tents":"yes","website":"https://www.campingzermatt.ch"}},"7728561836":{"location":[45.88431,7.9277408],"ct":"IT","tp":"CS","ts":"2024-09-04T21:58:54Z","tX":534,"tY":364,"tags":{"capacity":"10","capacity:tents":"10","caravans":"no","email":"info@rifugimonterosa.it","nudism":"no","opening_hours":"24/7","reservation":"yes","tents":"yes","website":"http://www.rifugimonterosa.it/it/web/rifugio-pastore-12","wheelchair":"no"}},"9890599128":{"location":[45.9701333,7.9537026],"ct":"IT","tp":"CR","ts":"2022-07-15T20:57:18Z","tX":534,"tY":364,"tags":{}},"12135463340":{"location":[46.0686804,7.7767617],"ct":"CH","tp":"PK","ts":"2024-08-25T09:50:05Z","tX":534,"tY":364,"tags":{"charge":"30 CHF","contact:phone":"+41279673535","fee":"yes","motorhome":"yes","name":"Parking Christophe","operator":"Taxi Christophe","parking":"multi-storey","website":"https://www.3535.ch"}},"12498331429":{"location":[45.8565742,7.8136197],"ct":"IT","tp":"SD","ts":"2025-01-13T15:19:46Z","tX":534,"tY":364,"tags":{"charge":"3 Euro","fee":"yes","payment:cash":"yes","water_point":"yes"}}}