{"80368318":{"location":[44.4487894,7.893031],"ct":"IT","tp":"CS","ts":"2015-01-14T13:57:32Z","tX":534,"tY":370,"tags":{"name":"La Cascina","phone":"+39 0174 60181"}},"306904349":{"location":[44.4526599,7.9790174],"ct":"IT","tp":"CS","ts":"2022-04-10T11:13:45Z","tX":534,"tY":370,"tags":{"addr:postcode":"12060","addr:street":"Via Stazione","name":"Camping Caravan Le Terrazze","operator":"La Pineta"}},"2449315046":{"location":[44.4424553,8.0741485],"ct":"IT","tp":"CS","ts":"2023-11-10T09:55:02Z","tX":534,"tY":370,"tags":{"addr:city":"Paroldo","addr:housename":"Ciacec","addr:housenumber":"17","addr:postcode":"12070","addr:street":"Via Viora","ele":"620","internet_access":"wlan","name":"Camping Viora","phone":"+39 0174 789017","website":"https://www.campingviora.com/","wheelchair":"no"}},"6638964831":{"location":[44.3716332,8.0755484],"ct":"IT","tp":"SD","ts":"2019-07-22T22:39:30Z","tX":534,"tY":370,"tags":{"access":"customers","fee":"yes","sanitary_dump_station:basin":"yes","sanitary_dump_station:round_drain":"yes"}},"12447450734":{"location":[44.434758,7.8508445],"ct":"IT","tp":"SD","ts":"2024-12-24T10:50:33Z","tX":534,"tY":370,"tags":{}},"12486185272":{"location":[44.3784034,8.0785336],"ct":"IT","tp":"CS","ts":"2025-01-09T10:04:44Z","tX":534,"tY":370,"tags":{"addr:city":"Localit√† Priero, Ceva","addr:housenumber":"1","addr:postcode":"12070","addr:street":"Via Ceretto","caravans":"yes","name":"Camping Horse","tents":"yes","website":"https://www.campeggioconcavalli.com"}}}