{"12587778":{"location":[43.9066059,8.0708069],"ct":"IT","tp":"CS","ts":"2024-09-03T13:10:00Z","tX":534,"tY":372,"tags":{"addr:city":"Diano Marina","addr:housenumber":"5","addr:postcode":"18013","addr:street":"Strada ai Gorleri","cabins":"yes","capacity":"100","caravans":"yes","contact:whatsapp":"+39 347 1345756","dog":"yes","dryer":"yes","fee":"yes","internet_access":"yes","internet_access:fee":"no","name":"Oasi Park","payment:cash":"yes","payment:credit_cards":"yes","payment:debit_cards":"yes","payment:maestro":"yes","payment:mastercard":"yes","payment:visa":"yes","payment:visa_electron":"yes","phone":"+39 0183 497062","power_supply":"yes","shower":"hot","socket:cee_blue":"yes","tents":"yes","toilets":"yes","washing_machine":"yes","website":"https://www.oasi-diano.it/"}},"26859891":{"location":[43.869167,7.9975],"ct":"IT","tp":"CS","ts":"2024-02-03T15:56:57Z","tX":534,"tY":372,"tags":{"addr:city":"Imperia","addr:housenumber":"2","addr:postcode":"18100","addr:street":"Strada Comunale Poggi","caravans":"yes","email":"info@campingdewijnstok.com","fee":"yes","name":"Camping De Wijnstok","phone":"+39 0183 64986","static_caravans":"yes","website":"https://www.campingdewijnstok.com/"}},"89153197":{"location":[43.8549734,7.960306],"ct":"IT","tp":"CR","ts":"2024-05-12T11:42:52Z","tX":534,"tY":372,"tags":{"capacity":"19","caravan_site":"motorhome_stopover","caravan_site:type":"village","charge":"35 EUR","charge:conditional":"20 EUR @ (Oct-Mar); 28 EUR @ (Apr-Jun,Sep)","fee":"yes","laundry":"yes","name":"Il Pozzo","power_supply":"yes","sanitary_dump_station":"yes","sanitary_dump_station:chemical_toilet":"yes","sanitary_dump_station:grey_water":"yes","shower":"yes","surface":"gravel","water_point":"yes","website":"http://www.campeggioilpozzo.it/"}},"107102943":{"location":[43.8371281,7.9060937],"ct":"IT","tp":"CR","ts":"2024-03-27T15:25:22Z","tX":534,"tY":372,"tags":{"addr:street":"Lungomare D'Albertis","caravans":"no","charge":"17 EUR","fee":"yes","surface":"asphalt","tents":"no"}},"160064008":{"location":[43.9085546,8.0701694],"ct":"IT","tp":"CS","ts":"2024-09-18T08:52:10Z","tX":534,"tY":372,"tags":{"addr:city":"Diano Marina","addr:postcode":"18013","addr:street":"Via Diano Calderina","caravans":"yes","dog":"yes","dryer":"yes","fee":"yes","internet_access":"wlan","motorhome":"yes","name":"Camping Edy","phone":"+39 0183 497040","phone:mobile":"+39 0183 497040","power_supply":"yes","power_supply:maxcurrent":"6","shower":"yes","socket:cee_blue":"yes","tents":"yes","toilets":"yes","washing_machine":"yes","website":"https://www.campingedy.it/"}},"160064009":{"location":[43.9062791,8.0751347],"ct":"IT","tp":"CS","ts":"2024-09-03T07:21:57Z","tX":534,"tY":372,"tags":{"access":"yes","addr:city":"Diano Marina","addr:housenumber":"15","addr:postcode":"18013","addr:street":"Via Angiolo Silvio Novaro","dryer":"yes","name":"Camping Marino","power_supply":"yes","power_supply:maxcurrent":"6","shower":"yes","socket:cee_blue":"yes","toilets":"yes","washing_machine":"yes","website":"https://www.campingmarino.it/"}},"374882378":{"location":[43.91918,8.0807892],"ct":"IT","tp":"CR","ts":"2025-02-22T17:49:44Z","tX":534,"tY":372,"tags":{"addr:city":"Diano Marina","addr:postcode":"18013","addr:street":"Via San Siro","internet_access":"yes","name":"Agricampeggio Al Roseto","phone":"+39 338 8747313","power_supply":"yes","shower":"yes","socket:cee_blue":"yes","toilets":"yes","washing_machine":"yes","website":"https://www.facebook.com/roseto.patrucco/"}},"430057795":{"location":[43.8969985,8.0798409],"ct":"IT","tp":"CS","ts":"2024-09-03T13:16:52Z","tX":534,"tY":372,"tags":{"addr:city":"Diano Marina","addr:postcode":"18013","addr:street":"Viale Torino","caravans":"yes","fee":"yes","internet_access":"yes","internet_access:fee":"customers","name":"Angolo di Sogno","phone":"+39 0183 752885","phone:mobile":"+39 351 7292200","power_supply":"yes","power_supply:maxcurrent":"8","shower":"yes","socket:cee_blue":"yes","tents":"yes","toilets":"yes","website":"https://www.angolodisogno.com/"}},"488738781":{"location":[43.8715876,8.0032778],"ct":"IT","tp":"CS","ts":"2024-08-23T14:04:15Z","tX":534,"tY":372,"tags":{"addr:city":"Imperia","addr:housenumber":"32","addr:postcode":"18100","addr:street":"Via Gabriele D'Annunzio","caravans":"yes","drinking_water":"yes","name":"Eucalyptus","power_supply":"yes","sanitary_dump_station":"yes","shower":"yes","tents":"yes","toilets":"yes"}},"619575592":{"location":[44.0875339,7.8732425],"ct":"IT","tp":"CR","ts":"2018-08-24T22:23:25Z","tX":534,"tY":372,"tags":{"area":"yes"}},"713362799":{"location":[43.8848039,7.9225137],"ct":"IT","tp":"CS","ts":"2019-08-13T11:35:51Z","tX":534,"tY":372,"tags":{"fee":"yes","internet_access":"no","name":"Le Sorbe"}},"1034150680":{"location":[43.8546939,7.9603505],"ct":"IT","tp":"SD","ts":"2024-05-12T12:04:37Z","tX":534,"tY":372,"tags":{"access":"customers","sanitary_dump_station:accepted":"grey_water;black_water;tank_chemicals","sanitary_dump_station:chemical_toilet":"yes","sanitary_dump_station:grey_water":"yes"}},"1245854484":{"location":[43.8777665,7.9865082],"ct":"IT","tp":"CS","ts":"2024-02-03T15:56:57Z","tX":534,"tY":372,"tags":{"fee":"yes","name":"Piani"}},"1245854485":{"location":[43.8728972,7.9961206],"ct":"IT","tp":"CR","ts":"2024-12-14T08:55:50Z","tX":534,"tY":372,"tags":{"addr:city":"Imperia","addr:housenumber":"5","addr:postcode":"18100","addr:street":"Via Caprile","drinking_water":"yes","email":"info@areacamperlacurva.it","fee":"yes","mobile":"+39 333 8977178","name":"La Curva","power_supply":"yes","sanitary_dump_station":"yes","surface":"gravel","website":"https://www.areacamperlacurva.it"}},"1245885347":{"location":[43.8741292,7.9955104],"ct":"IT","tp":"CR","ts":"2024-12-28T18:52:08Z","tX":534,"tY":372,"tags":{"addr:city":"Imperia","addr:housenumber":"2","addr:postcode":"18100","addr:street":"Via Maurizio Caprile","contact:facebook":"https://www.facebook.com/people/Girasole-Imperia/pfbid026wZMiqA1sJauGCLiU1T9Ct9v1nHiTNgPayNaK3MoS4wcyJYj7dLtRaoEvi5LYWgil/","disused:landuse":"caravan_site","disused:name":"Il Girasole","internet_access":"wlan","mobile":"+39 349 7559905","name":"Area Camper Il Girasole","power_supply":"yes","sanitary_dump_station":"yes","website":"https://www.ilgirasoleimperia.com/"}},"1246113610":{"location":[43.8726923,8.0006555],"ct":"IT","tp":"CS","ts":"2024-12-13T21:44:06Z","tX":534,"tY":372,"tags":{"addr:city":"Imperia","addr:housenumber":"68","addr:postcode":"18100","addr:street":"Via Littardi","animal":"yes","caravans":"yes","drinking_water":"yes","fee":"yes","name":"La Pineta","phone":"+39 0183 61498","tents":"yes"}},"1266811909":{"location":[43.8440302,7.9082935],"ct":"IT","tp":"CR","ts":"2024-03-27T15:25:22Z","tX":534,"tY":372,"tags":{"fee":"yes","name":"Camper Village Santa Stefano al Mare","power_supply":"yes","sanitary_dump_station":"yes","water_point":"yes","website":"https://www.campervillage.it/camper"}},"1382276593":{"location":[43.8658233,7.9641908],"ct":"IT","tp":"CS","ts":"2021-07-21T12:39:04Z","tX":534,"tY":372,"tags":{"addr:city":"San Lorenzo al Mare","addr:country":"IT","addr:housenumber":"135","addr:postcode":"18017","addr:street":"Via Provinciale Civezza","cabins":"yes","caravans":"yes","contact:facebook":"https://www.facebook.com/campingilpersiano","email":"info@campingilpersiano.com","internet_access":"wlan","internet_access:fee":"no","name":"Il Persiano","nudism":"no","operator":"Camping Il Persiano M.W.","phone":"+39 0183 91994","power_supply":"yes","tents":"yes","washing_machine":"yes","website":"https://campingilpersiano.com"}},"1751157515":{"location":[43.9153986,8.0777738],"ct":"IT","tp":"CR","ts":"2012-05-13T15:44:56Z","tX":534,"tY":372,"tags":{}},"4714145389":{"location":[43.8964352,8.0768999],"ct":"IT","tp":"CS","ts":"2017-03-02T21:41:56Z","tX":534,"tY":372,"tags":{"name":"Wild camping spot"}},"8097477392":{"location":[43.8580582,7.9668747],"ct":"IT","tp":"CS","ts":"2020-11-09T15:50:50Z","tX":534,"tY":372,"tags":{"internet_access":"yes","name":"Camping Baia dei Gabbiani","reservation":"yes"}},"8454013679":{"location":[43.9183134,8.0843463],"ct":"IT","tp":"CS","ts":"2024-09-03T07:14:14Z","tX":534,"tY":372,"tags":{"addr:city":"Diano Marina","addr:housenumber":"5","addr:postcode":"18013","addr:street":"Via Gombi di San Siro","caravans":"yes","motorhome":"yes","name":"Agricampeggio Solo Blu","operator":"Martino Enzo","power_supply":"yes","shower":"yes","socket:cee_blue":"yes","toilets":"yes"}}}