{"144204654":{"location":[-45.4146195,167.7189751],"ct":"NZ","tp":"CS","ts":"2024-10-13T06:49:02Z","tX":989,"tY":657,"tags":{"addr:city":"Te Anau","addr:housenumber":"15","addr:street":"Luxmore Drive","cabins":"yes","capacity:powered":"50","caravans":"yes","dryer":"yes","email":"info@greatlakes.co.nz","fax":"+64 3 249 8539","fee":"yes","internet_access":"yes","internet_access:fee":"yes","kitchen":"yes","name":"Te Anau Top 10 Holiday Park","operator":"TOP 10 Holiday Parks","operator:wikidata":"Q115566046","phone":"+64 3 249 8538","phone:NZ":"0800 249 555","power_supply":"yes","sanitary_dump_station":"yes","tents":"yes","washing_machine":"yes","website":"https://teanautop10.co.nz/","wikidata":"Q111408216","womo":"camping","womo:capacity":"80","womo:fee":"18","womo:name":"Te Anau Great Lakes HP","womo:nz:nr":"120"}},"153503566":{"location":[-45.4259838,167.7195798],"ct":"NZ","tp":"CS","ts":"2024-10-08T10:39:44Z","tX":989,"tY":657,"tags":{"addr:city":"Te Anau","addr:country":"NZ","addr:housenumber":"77","addr:postcode":"9679","addr:street":"Manapouri Te Anau Highway","capacity:powered":"125","caravans":"yes","designation":"handy for car and luggage storage","drinking_water":"yes","email":"res@teanau.info","internet_access":"yes","internet_access:fee":"no","name":"Te Anau Lakeview Holiday Park & Motels","opening_hours":"07:30-21:00","phone":"+64 3 249 7457","power_supply":"yes","sanitary_dump_station":"yes","shower":"yes","tents":"yes","toilets":"yes","website":"https://www.teanauholidaypark.co.nz/","wheelchair":"yes","wikidata":"Q111121500","womo":"camping","womo:capacity":"125","womo:fee":"18","womo:name":"Te Anau Lakeview HP","womo:nz:nr":"119"}},"242350220":{"location":[-45.4143886,167.7094556],"ct":"NZ","tp":"CS","ts":"2024-04-29T06:11:22Z","tX":989,"tY":657,"tags":{"addr:city":"Te Anau","addr:country":"NZ","addr:housenumber":"128","addr:street":"Te Anau Terrace","caravans":"yes","drinking_water":"yes","internet_access":"wlan","name":"Tasman Holiday Parks - Te Anau","power_supply":"yes","sanitary_dump_station":"yes","shower":"yes","tents":"yes","toilets":"yes","toilets:wheelchair":"yes","wheelchair":"yes","wikidata":"Q112010304"}},"361640793":{"location":[-45.4082395,167.7434753],"ct":"NZ","tp":"CS","ts":"2024-04-28T23:00:35Z","tX":989,"tY":657,"tags":{"addr:city":"Te Anau","addr:housenumber":"129","addr:street":"Te Anau Milford Highway","addr:suburb":"Te Anau","cabins":"yes","caravans":"yes","contact:website":"http://www.fiordlandgreatviewsholidaypark.co.nz/","dryer":"yes","email":"stayfiordland@xtra.co.nz","fee":"yes","kitchen":"yes","name":"Fiordland Great Views Holiday Park","payment:cash":"yes","payment:mastercard":"yes","payment:visa":"yes","phone":"+64 3 249 7059","power_supply":"yes","ref:linz:address_id":"78299","sanitary_dump_station":"yes","tents":"yes","washing_machine":"yes","wikidata":"Q111870160"}},"1320826342":{"location":[-45.4214104,167.7334333],"ct":"NZ","tp":"CR","ts":"2024-10-04T22:53:36Z","tX":989,"tY":657,"tags":{"access":"members","addr:housenumber":"15","addr:street":"Alpine Drive","addr:suburb":"Te Anau","area":"yes","caravan_site":"motorhome_stopover","name":"Alpine NZMCA Park","operator":"NZMCA","power_supply":"no","sanitary_dump_station":"no"}},"4003562437":{"location":[-45.4106019,167.7068789],"ct":"NZ","tp":"SD","ts":"2023-12-22T05:35:21Z","tX":989,"tY":657,"tags":{}},"6134512774":{"location":[-45.5204769,167.7571888],"ct":"NZ","tp":"CS","ts":"2018-12-13T08:07:47Z","tX":989,"tY":657,"tags":{"name":"Freedom Camping for Self Contained Vehicles"}},"6134512960":{"location":[-45.5267333,167.7550661],"ct":"NZ","tp":"CS","ts":"2018-12-13T08:07:43Z","tX":989,"tY":657,"tags":{"name":"Freedom Camping for Self Contained Vehicles"}},"6270715788":{"location":[-45.4371131,167.772391],"ct":"NZ","tp":"CS","ts":"2019-02-11T03:58:52Z","tX":989,"tY":657,"tags":{"internet_access":"wlan","name":"Andyâ€™s Place"}},"5485841921":{"location":[-45.4149326,167.7193443],"ct":"NZ","tp":"CR","ts":"2018-03-18T07:37:33Z","tX":989,"tY":657,"tags":{"name":"Te Anau Kiwi Holiday Park"}},"4847302293":{"location":[-45.4250407,167.7197954],"ct":"NZ","tp":"SD","ts":"2020-07-22T12:46:27Z","tX":989,"tY":657,"tags":{"access":"customers","caravans":"yes","fee":"yes","motorhome":"yes","sanitary_dump_station:basin":"no","sanitary_dump_station:chemical_toilet":"restrictions","sanitary_dump_station:gravity":"yes","sanitary_dump_station:grey_water":"yes","sanitary_dump_station:suction":"no"}}}