{"215815179":{"location":[-46.3625624,168.0077985],"ct":"NZ","tp":"CS","ts":"2023-05-17T00:26:42Z","tX":989,"tY":661,"tags":{"addr:city":"Riverton/Aparima","addr:country":"NZ","addr:housenumber":"43","addr:postcode":"9822","addr:street":"Richard Street","addr:suburb":"Riverton/Aparima","cabins":"yes","caravans":"yes","dryer":"yes","internet_access":"no","kitchen":"yes","name":"Riverton Holiday Park and Camping Ground","payment:cash":"yes","phone":"+64 3 234 8132","power_supply":"yes","ref:linz:address_id":"80490","tents":"yes","washing_machine":"yes","website":"https://rivertonholidaypark.co.nz/"}},"786476428":{"location":[-46.3612198,167.8794186],"ct":"NZ","tp":"CR","ts":"2023-12-18T03:44:33Z","tX":989,"tY":661,"tags":{"addr:city":"Orepuki","addr:hamlet":"Colac Bay/ÅŒraka","addr:housenumber":"15","addr:street":"Colac Bay Road","camp_site":"standard","caravans":"yes","drinking_water":"yes","name":"Colac Bay Tavern & Holiday Park","ref:linz:address_id":"78842","sanitary_dump_station":"yes","shower":"yes","tents":"yes","toilets":"yes","website":"https://www.facebook.com/pages/Colac-Bay-Tavern-and-Hoilday-Park/211034475677491"}},"2777072440":{"location":[-46.3790499,167.8844429],"ct":"NZ","tp":"CS","ts":"2014-04-08T12:23:52Z","tX":989,"tY":661,"tags":{}},"12375897822":{"location":[-46.3472404,168.0185242],"ct":"NZ","tp":"SD","ts":"2024-11-26T09:35:09Z","tX":989,"tY":661,"tags":{"addr:street":"Bath Road","name":"Bath Road Riverton Public Dump Station (PDS)","website":"https://www.nzmca.org.nz/travel/directory/view/bath-road-riverton-pds"}}}