{"1260770605":{"location":[-23.2194669,-45.2981961],"ct":"BR","tp":"CS","ts":"2024-03-12T00:44:16Z","tX":383,"tY":579,"tags":{"name":"Camping Bicho D'Água"}},"2073262884":{"location":[-22.9470279,-45.1022183],"ct":"BR","tp":"CS","ts":"2025-01-28T03:40:51Z","tX":383,"tY":579,"tags":{"access":"customers","addr:city":"Guaratinguetá","addr:postcode":"12500-000","addr:street":"Estrada da Rocinha","addr:suburb":"Rocinha","bonfire":"yes","camera":"no","club":"nudism","contact:instagram":"naturismorincao","contact:whatsapp":"(21) 99705-7181","contact:youtube":"rincaonaturista2261","couples":"only","drone":"no","fee":"yes","filming":"no","name":"Rincão Clube Naturista","nudism":"designated","opening_hours":"Fr 08:00-17:00; Sa 08:00-19:00; Su 08:00-17:00","photography":"no","reservation":"required","shower":"yes","shower:capacity":"3","shower:unisex":"yes","singles":"no","swimwear":"no","toilets":"yes","toilets:unisex":"no","underwear":"no","was:contact:mobile":"(12) 99668-2226","was:email":"cluberincao@gmail.com","was:website":"http://www.rincao.com.br/;http://www.rincaonaturista.com.br/","website":"http://www.rincaonaturista.com/","wheelchair":"yes"}}}