{"230883384":{"location":[43.4818009,-6.7023683],"ct":"ES","tp":"CS","ts":"2024-05-26T17:53:52Z","tX":492,"tY":374,"tags":{"access":"customers","addr:city":"Arbón","addr:postcode":"33718","addr:street":"Carretera de Navia a Villayón","caravans":"yes","fee":"yes","name":"Camping La Cascada","tents":"yes"}},"376904110":{"location":[43.5638343,-6.9531487],"ct":"ES","tp":"CS","ts":"2023-11-01T11:18:37Z","tX":492,"tY":374,"tags":{"addr:postcode":"33740","addr:street":"Reburdia","bbq":"yes","cabins":"yes","capacity":"92","caravans":"yes","dog":"yes","email":"reservas@campigplayadetapia.com","fee":"yes","hot_water":"yes","internet_access":"wlan","name":"Camping Playa de Tapia","opening_hours":"Mo-Su 09:00-23:00","phone":"+34617332815","shower":"hot","static_caravans":"yes","tents":"yes","toilets":"yes","website":"https://www.campingplayadetapia.com/"}},"383473217":{"location":[43.5396017,-6.9934249],"ct":"ES","tp":"CS","ts":"2023-03-16T18:57:39Z","tX":492,"tY":374,"tags":{"addr:city":"Barres","addr:postcode":"33794","addr:street":"Carretera Vegadeo-Vilagarcía de Arousa","cabins":"yes","capacity":"80","capacity:pitches":"36","caravans":"yes","ele":"42","email":"informacion@campinglavina.com","fee":"yes","internet_access":"wlan","internet_access:fee":"no","name":"La Viña","phone":"+34 649 812 686","power_supply":"yes","shower":"yes","start_date":"1979","tents":"yes","toilets":"yes"}},"678895598":{"location":[43.5457991,-6.994664],"ct":"ES","tp":"CS","ts":"2023-03-16T19:43:08Z","tX":492,"tY":374,"tags":{"access":"customers","addr:city":"Castropol","addr:place":"Bares","addr:postcode":"33794","addr:province":"Principado de Asturias","addr:street":"Carretera Pya Penarronda S/N Rubiera","backcountry":"no","cabins":"yes","camp_site":"deluxe","caravans":"yes","dog":"yes","email":"campingvegamar@gmail.com","fee":"yes","internet_access":"yes","internet_access:fee":"no","name":"Camping Vegamar","phone":"+34 985 623 948;+34 626 709 654","power_supply":"yes","sanitary_dump_station":"customers","shower":"yes","tents":"yes","toilets":"yes","website":"https://www.campingvegamar.com","wheelchair":"yes"}},"756378979":{"location":[43.5661125,-6.9459636],"ct":"ES","tp":"CR","ts":"2024-03-23T13:22:47Z","tX":492,"tY":374,"tags":{"addr:city":"Tapia de Casariego","addr:housenumber":"17","addr:postcode":"33470","addr:street":"Avenida San Esteban","capacity":"55","caravan_site":"motorhome_stopover","caravan_site:type":"village","caravans":"no","charge":"4 EUR","fee":"yes","maxstay":"48 hours","name":"Área autocaravanas de Tapia de Casariego","sanitary_dump_station":"yes","surface":"grass_paver","tents":"no","website":"https://www.turismoasturias.es/organiza-tu-viaje/como-llegar-y-moverse/autocaravanas/area-de-playa-grande"}},"756948267":{"location":[43.5609199,-6.7339215],"ct":"ES","tp":"CR","ts":"2019-12-19T14:19:40Z","tX":492,"tY":374,"tags":{"addr:city":"Ortigueira","addr:postcode":"33716","name":"Área de autocaravanas de Ortigueira (Faro de San Agustín))","sanitary_dump_station":"yes"}},"827461530":{"location":[43.551117,-6.9968927],"ct":"ES","tp":"CS","ts":"2023-03-16T20:21:21Z","tX":492,"tY":374,"tags":{"addr:city":"Castropol","bbq":"yes","cabins":"yes","capacity:cabins":"16","caravans":"yes","email":"campingpenarrondacb@gmail.com","fee":"yes","internet_access":"wlan","internet_access:fee":"no","name":"Camping Playa Penarronda","phone":"+34 616 602 496","shower":"hot","tents":"yes","toilets":"yes","toilets:wheelchair":"yes","washing_machine":"yes","website":"https://campingplayapenarronda.com"}},"922804180":{"location":[43.3432495,-6.8510162],"ct":"ES","tp":"CR","ts":"2024-09-27T10:26:50Z","tX":492,"tY":374,"tags":{"access":"yes","addr:city":"Illano","addr:postcode":"33731","addr:street":"Carretera Navia - Grandas de Salime","capacity":"30","covered":"no","fee":"no","name":"Área de Autocaravanas de Illano","name:gl":"Área de Autocaravanas de Eilao","opening_hours":"24/7","operator":"ciudad de Llaviada","picnic_area":"yes","playground":"yes","power_supply":"no","sanitary_dump_station":"yes","sanitary_dump_station:chemical_toilet":"yes","sanitary_dump_station:grey_water":"yes","sanitary_dump_station:round_drain":"yes","supervised":"no","surface":"unpaved","water_point":"yes","website":"https://www.parquehistorico.org/autocaravanas/areaillano.php"}},"1265307544":{"location":[43.5452875,-6.7198586],"ct":"ES","tp":"CR","ts":"2024-03-22T22:30:43Z","tX":492,"tY":374,"tags":{"access":"yes","addr:city":"Navia","addr:postcode":"33710","addr:street":"Calle Los Campitos","capacity:caravans":"12","covered":"no","fee":"no","maxstay":"72 hours","name":"Área de Autocaravanas de Navia","opening_hours":"24/7","operator":"ciudad de Navia","power_supply":"no","sanitary_dump_station":"yes","sanitary_dump_station:chemical_toilet":"yes","sanitary_dump_station:grey_water":"yes","sanitary_dump_station:round_drain":"yes","supervised":"no","surface":"asphalt","water_point":"yes"}},"1265329049":{"location":[43.4207712,-6.8143569],"ct":"ES","tp":"CR","ts":"2024-04-24T11:14:16Z","tX":492,"tY":374,"tags":{"access":"yes","addr:city":"Llaviada","addr:postcode":"33720","addr:street":"Caserio Llaviada","capacity":"4","capacity:caravans":"4","caravan_site":"motorhome_stopover","caravan_site:type":"sports_centre","covered":"no","fee":"no","maxstay":"72 hours","name":"Área de autocaravanas Llaviada Caserio Llaviada","opening_hours":"24/7","operator":"ciudad de Llaviada","power_supply":"no","sanitary_dump_station":"yes","sanitary_dump_station:chemical_toilet":"yes","sanitary_dump_station:grey_water":"yes","sanitary_dump_station:round_drain":"yes","supervised":"no","surface":"asphalt","water_point":"yes","website":"https://www.parquehistorico.org/autocaravanas/areaboal.php"}},"1265513253":{"location":[43.5462746,-6.7457896],"ct":"ES","tp":"CR","ts":"2024-03-23T13:39:44Z","tX":492,"tY":374,"tags":{"capacity":"10","caravan_site":"motorhome_stopover","caravan_site:type":"parking_lot","caravans":"no","fee":"no","internet_access":"wlan","maxstay":"48 hours","name":"Área autocaravanas de Jarrio (Coaña)","sanitary_dump_station:chemical_toilet":"yes","sanitary_dump_station:grey_water":"yes","surface":"asphalt","tents":"no","website":"https://www.turismoasturias.es/organiza-tu-viaje/como-llegar-y-moverse/autocaravanas/area-de-ortiguera"}},"8564203743":{"location":[43.545341,-6.7199232],"ct":"ES","tp":"SD","ts":"2024-03-22T22:30:43Z","tX":492,"tY":374,"tags":{"access":"yes","fee":"no","motorhome":"designated","operator":"ciudad de Navia","sanitary_dump_station":"public","sanitary_dump_station:chemical_toilet":"yes","sanitary_dump_station:grey_water":"yes","sanitary_dump_station:round_drain":"yes","water_point":"yes"}},"8566475202":{"location":[43.4208343,-6.8127179],"ct":"ES","tp":"SD","ts":"2024-04-24T11:14:16Z","tX":492,"tY":374,"tags":{"access":"yes","fee":"no","operator":"ciudad de Llaviada","sanitary_dump_station":"public","sanitary_dump_station:chemical_toilet":"yes","sanitary_dump_station:grey_water":"yes","sanitary_dump_station:round_drain":"yes","water_point":"yes"}},"8566485981":{"location":[43.343301,-6.8507333],"ct":"ES","tp":"SD","ts":"2024-03-23T11:47:09Z","tX":492,"tY":374,"tags":{"access":"yes","fee":"no","motorhome":"designated","operator":"ciudad de Illano","sanitary_dump_station":"public","sanitary_dump_station:chemical_toilet":"yes","sanitary_dump_station:grey_water":"yes","sanitary_dump_station:round_drain":"yes","water_point":"yes"}},"11755427623":{"location":[43.546188,-6.7455921],"ct":"ES","tp":"SD","ts":"2024-03-23T13:39:44Z","tX":492,"tY":374,"tags":{"access":"yes","fee":"no","motorhome":"designated","sanitary_dump_station:chemical_toilet":"yes","sanitary_dump_station:grey_water":"yes"}},"12641695601":{"location":[43.5562011,-6.8624771],"ct":"ES","tp":"CS","ts":"2025-03-18T08:45:13Z","tX":492,"tY":374,"tags":{"name":"A Grandella","website":"https://campingagrandella.com/"}}}