{"922804857":{"location":[43.2154131,-6.8759846],"ct":"ES","tp":"CR","ts":"2024-03-23T11:38:59Z","tX":492,"tY":375,"tags":{"access":"yes","addr:city":"Grandas de Salime","addr:postcode":"33730","addr:street":"Calle Pedro de Pedre","capacity":"2","caravan_site":"motorhome_stopover","caravan_site:type":"sports_centre","covered":"no","description":"The city can allow extra motorhome overnights on the parking lot","fee":"no","maxstay":"48 hours","name":"Área de autocaravanas Grandas de Salime","opening_hours":"24/7","operator":"ciudad de Llaviada","power_supply":"no","sanitary_dump_station":"yes","sanitary_dump_station:chemical_toilet":"yes","sanitary_dump_station:grey_water":"yes","sanitary_dump_station:round_drain":"yes","supervised":"no","surface":"asphalt","water_point":"yes","website":"https://www.grandasdesalime.es/index.php?M1=3&M2=77"}},"922805988":{"location":[43.2715415,-6.9579265],"ct":"ES","tp":"CR","ts":"2024-03-23T11:52:03Z","tX":492,"tY":375,"tags":{"access":"yes","addr:city":"Asturias","addr:postcode":"33777","addr:street":"Parque San Martin de Oscos","capacity":"8","caravan_site":"motorhome_stopover","caravan_site:type":"nature","covered":"no","fee":"no","maxstay":"72 hours","name":"Área autocaravanas de San Martín de Oscos","opening_hours":"24/7","operator":"ciudad de Asturias","picnic_area":"yes","power_supply":"no","sanitary_dump_station":"yes","sanitary_dump_station:chemical_toilet":"yes","sanitary_dump_station:grey_water":"yes","sanitary_dump_station:round_drain":"yes","supervised":"no","surface":"asphalt","tents":"no","water_point":"yes","website":"https://www.turismoasturias.es/organiza-tu-viaje/como-llegar-y-moverse/autocaravanas/area-autocaravanas-san-martin-de-oscos"}},"922806735":{"location":[43.2574579,-7.0183694],"ct":"ES","tp":"CR","ts":"2024-05-18T11:16:04Z","tX":492,"tY":375,"tags":{"access":"yes","addr:city":"Santa Eulalia de Oscos","addr:postcode":"33776","addr:street":"Lugar Santa Eulalia de Oscos","capacity":"15","caravan_site":"motorhome_stopover","caravan_site:type":"village","caravans":"no","covered":"no","fee":"no","maxstay":"48 hours","name":"Área de Autocaravanas de Santa Eulalia de Oscos","name:es":"Área de Autocaravanas de Santa Eulalia de Oscos","name:gl":"Área de Autocaravanas de Santalla de Ozcos","opening_hours":"24/7","operator":"ciudad de Santa Eulalia de Oscos","power_supply":"no","sanitary_dump_station":"yes","sanitary_dump_station:chemical_toilet":"yes","sanitary_dump_station:grey_water":"yes","sanitary_dump_station:round_drain":"yes","supervised":"no","surface":"asphalt","tents":"no","water_point":"yes"}},"922807730":{"location":[43.3108154,-6.9860789],"ct":"ES","tp":"CR","ts":"2024-04-24T13:03:59Z","tX":492,"tY":375,"tags":{"addr:city":"Villanueva de Oscos","addr:postcode":"33776","addr:street":"AS-13","capacity":"2","caravan_site":"motorhome_stopover","caravans":"no","covered":"no","fee":"no","maxstay":"no","name":"Área de autocaravanas Villanueva de Oscos","opening_hours":"24/7","operator":"ciudad de Villanueva de Oscos","power_supply":"no","sanitary_dump_station":"yes","sanitary_dump_station:chemical_toilet":"yes","sanitary_dump_station:grey_water":"yes","sanitary_dump_station:round_drain":"yes","supervised":"no","surface":"asphalt","tents":"no","water_point":"yes"}},"1265500348":{"location":[43.2547888,-6.878626],"ct":"ES","tp":"CR","ts":"2024-03-23T12:27:18Z","tX":492,"tY":375,"tags":{"capacity":"4","caravan_site":"motorhome_stopover","caravan_site:type":"parking_lot;village","dog":"yes","fee":"no","name":"Parking de autocaravanas de Pesoz","picnic_area":"yes","power_supply":"no","sanitary_dump_station":"no","surface":"asphalt","website":"https://www.turismoasturias.es/organiza-tu-viaje/como-llegar-y-moverse/autocaravanas/area-pesoz"}},"11203264837":{"location":[43.0875103,-7.0264906],"ct":"ES","tp":"CS","ts":"2023-09-19T18:11:49Z","tX":492,"tY":375,"tags":{}},"8566471228":{"location":[43.2153793,-6.8760459],"ct":"ES","tp":"SD","ts":"2024-09-02T16:47:19Z","tX":492,"tY":375,"tags":{"access":"yes","fee":"no","motorhome":"designated","operator":"Ayuntamiento de Grandas de Salime","sanitary_dump_station":"public","sanitary_dump_station:chemical_toilet":"yes","sanitary_dump_station:grey_water":"yes","sanitary_dump_station:round_drain":"yes","water_point":"yes"}},"8566492692":{"location":[43.3106519,-6.9862241],"ct":"ES","tp":"SD","ts":"2024-03-23T00:11:31Z","tX":492,"tY":375,"tags":{"access":"yes","fee":"no","motorhome":"designated","operator":"ciudad de Villanueva de Oscos","sanitary_dump_station":"public","sanitary_dump_station:chemical_toilet":"yes","sanitary_dump_station:grey_water":"yes","sanitary_dump_station:round_drain":"yes","water_point":"yes"}},"8566494695":{"location":[43.2716235,-6.9580488],"ct":"ES","tp":"SD","ts":"2024-03-23T11:52:03Z","tX":492,"tY":375,"tags":{"access":"yes","fee":"no","motorhome":"designated","operator":"ciudad de Asturias","sanitary_dump_station":"public","sanitary_dump_station:chemical_toilet":"yes","sanitary_dump_station:grey_water":"yes","sanitary_dump_station:round_drain":"yes","water_point":"yes"}},"8566509628":{"location":[43.2575875,-7.0184354],"ct":"ES","tp":"SD","ts":"2024-05-18T11:16:04Z","tX":492,"tY":375,"tags":{"access":"yes","fee":"no","motorhome":"designated","operator":"Concello de Santalla de Ozcos","sanitary_dump_station":"public","sanitary_dump_station:chemical_toilet":"yes","sanitary_dump_station:grey_water":"yes","sanitary_dump_station:round_drain":"yes","water_point":"yes"}}}