{"73919627":{"location":[32.0051195,-6.7202306],"ct":"MA","tp":"CS","ts":"2013-11-20T20:14:49Z","tX":492,"tY":415,"tags":{"name":"Zebra Camping"}},"1833031978":{"location":[32.0139049,-6.7172919],"ct":"MA","tp":"CS","ts":"2020-09-11T22:33:53Z","tX":492,"tY":415,"tags":{"name":"Camping de la Nature تخييم الطبيعة","name:ar":"تخييم الطبيعة","name:fr":"Camping de la Nature"}},"4643942262":{"location":[32.0164729,-6.7219653],"ct":"MA","tp":"CS","ts":"2020-09-11T13:12:27Z","tX":492,"tY":415,"tags":{"name":"Imouzzer إيموزار","name:ar":"إيموزار","name:fr":"Imouzzer"}},"4855239923":{"location":[32.0299355,-6.6971753],"ct":"MA","tp":"CS","ts":"2017-05-21T11:30:45Z","tX":492,"tY":415,"tags":{"name":"Place for camping (wild)"}},"6244280185":{"location":[31.9949471,-6.7295666],"ct":"MA","tp":"CS","ts":"2024-12-28T20:50:37Z","tX":492,"tY":415,"tags":{"addr:city":"Tazrout","capacity:caravans":"10","caravans":"yes","email":"walhalla@ferien-in-marokko.de","internet_access":"wlan","name":"Camping \"Traumschiff Walhalla\"","opening_hours":"24/7","operator":"Jane Schmidt","phone":"+212767017649","tents":"yes","website":"https://ferien-in-marokko.de/"}},"11510669569":{"location":[32.0059845,-6.7195422],"ct":"MA","tp":"CS","ts":"2024-01-12T11:15:30Z","tX":492,"tY":415,"tags":{"name":"Camping  Zebra"}},"12469427280":{"location":[32.0172467,-6.7224556],"ct":"MA","tp":"CS","ts":"2025-01-02T18:36:50Z","tX":492,"tY":415,"tags":{"name":"Le Panard"}}}