{"942750954":{"location":[42.7459168,141.0403938],"ct":"JP","tp":"CS","ts":"2021-05-14T01:09:25Z","tX":913,"tY":377,"tags":{"name":"雪月花廊キャンプ場"}},"3704130670":{"location":[42.7315098,141.2639554],"ct":"JP","tp":"CS","ts":"2019-09-18T11:16:18Z","tX":913,"tY":377,"tags":{"capacity":"600","fee":"yes","name":"美笛キャンプ場","name:en":"Bifue camp site","name:ja":"美笛キャンプ場","website":"https://www.shikotuko.jp/"}},"7725972285":{"location":[42.6580295,141.0911369],"ct":"JP","tp":"CS","ts":"2022-12-22T08:51:45Z","tX":913,"tY":377,"tags":{"name":"徳舜瞥山麓キャンプ場"}},"9088122843":{"location":[42.5571777,140.9854317],"ct":"JP","tp":"CS","ts":"2021-09-13T14:20:01Z","tX":913,"tY":377,"tags":{"name":"オロフレキャンプ場","name:ja":"オロフレキャンプ場"}},"10585575641":{"location":[42.6648502,141.096418],"ct":"JP","tp":"CS","ts":"2024-07-08T08:42:17Z","tX":913,"tY":377,"tags":{"name":"杜のリゾート 丘の星ぞらGlamping Villa"}},"10586005554":{"location":[42.7376886,141.0020414],"ct":"JP","tp":"CS","ts":"2023-01-27T06:27:18Z","tX":913,"tY":377,"tags":{"name":"Dplus+Misono Camping Field"}},"10841586790":{"location":[42.7138132,141.0189267],"ct":"JP","tp":"CS","ts":"2023-04-26T08:50:52Z","tX":913,"tY":377,"tags":{"name":"オロウエン大滝キャンプ場"}},"10898916536":{"location":[42.7330736,141.0845589],"ct":"JP","tp":"CS","ts":"2023-05-15T09:36:41Z","tX":913,"tY":377,"tags":{"name":"松本ＢＡＳＥ"}},"12415792061":{"location":[42.6352371,141.245368],"ct":"JP","tp":"CS","ts":"2024-12-12T11:56:42Z","tX":913,"tY":377,"tags":{"addr:block_number":"1","addr:city":"白老町","addr:county":"白老","addr:neighbourhood":"98","addr:postcode":"059-0911","addr:province":"北海道","addr:suburb":"森野","name":"白老キャンプフィールドASOBUBA","operator":"白老キャンプフィールド ASOBUBA"}}}