{"3398685815":{"location":[58.9438529,25.0997586],"ct":"EE","tp":"CS","ts":"2023-05-13T10:26:00Z","tX":583,"tY":303,"tags":{"access":"yes","backcountry":"yes","bbq":"yes","caravans":"no","fee":"no","internet_access":"no","name":"Loosalu lõkkekoht","openfire":"yes","operator":"RMK","shower":"no","tents":"yes","toilets":"yes","website":"https://loodusegakoos.ee/kuhuminna/puhkealad/tallinna-umbruse-puhkeala/loosalu-lokkekoht"}},"3503208325":{"location":[58.9942387,25.274228],"ct":"EE","tp":"CS","ts":"2023-05-10T19:46:53Z","tX":583,"tY":303,"tags":{"access":"yes","backcountry":"yes","fee":"no","internet_access":"no","name":"Hirvelaane lõkkekoht","openfire":"yes","operator":"RMK","shower":"no","tents":"yes","toilets":"yes","website":"https://loodusegakoos.ee/kuhuminna/puhkealad/tallinna-umbruse-puhkeala/hirvelaane-lokkekoht"}},"6779447385":{"location":[58.9772785,24.9757024],"ct":"EE","tp":"CS","ts":"2023-08-22T03:53:36Z","tX":583,"tY":303,"tags":{"addr:postcode":"79008","addr:street":"Luhavälja tee","internet_access":"wlan","name":"Laukataguse puhkeküla","name:en":"Laukataguse Campsite","name:et":"Laukataguse puhkeküla","name:ru":"Зона отдыха Лаукатагузе","phone":"+372 56567918","website":"https://laukataguse.ee"}}}