{"760473435":{"location":[42.0585544,25.2643468],"ct":"BG","tp":"CR","ts":"2020-01-03T09:50:20Z","tX":583,"tY":379,"tags":{}},"760473437":{"location":[42.0587886,25.2738317],"ct":"BG","tp":"CR","ts":"2020-01-03T09:50:20Z","tX":583,"tY":379,"tags":{}},"760721471":{"location":[42.0592419,25.2636548],"ct":"BG","tp":"CR","ts":"2021-12-10T17:17:12Z","tX":583,"tY":379,"tags":{"addr:city":"Бяла река","addr:postcode":"4285","addr:street":"ул. 5-та","capacity":"10","internet_access":"no","power_supply":"no","sanitary_dump_station":"no"}},"760722239":{"location":[42.0583712,25.2615234],"ct":"BG","tp":"CR","ts":"2021-12-10T17:17:12Z","tX":583,"tY":379,"tags":{"addr:city":"Бяла река","addr:postcode":"4285","addr:street":"улица Христо Смирненски","capacity":"7","sanitary_dump_station":"yes"}},"760726873":{"location":[42.058878,25.2620164],"ct":"BG","tp":"CR","ts":"2021-12-10T17:17:12Z","tX":583,"tY":379,"tags":{"addr:city":"Бяла река","addr:postcode":"4285","addr:street":"Цариградсксо шосе","capacity":"4"}},"1006175890":{"location":[42.052734,25.2506196],"ct":"BG","tp":"CR","ts":"2021-11-25T14:22:09Z","tX":583,"tY":379,"tags":{}}}