{"411049399":{"location":[-30.7301485,25.0891452],"ct":"ZA","tp":"CR","ts":"2020-03-16T13:25:21Z","tX":583,"tY":603,"tags":{"addr:city":"Colesberg","addr:housenumber":"18","addr:postcode":"9795","addr:street":"Earl Haig Street","capacity":"45","contact:email":"prvj1@xsinet.co.za","contact:fax":"+27517530249","contact:phone":"+27517530249","contact:website":"http://www.onzerustghandcaravanpark.co.za/","fee":"yes","internet_access":"yes","name":"Onze Rust","operator":"Rina & Laurette van Jaarsveld","power_supply":"yes","sanitary_dump_station":"yes"}},"5438411233":{"location":[-30.7305621,25.0886509],"ct":"ZA","tp":"CS","ts":"2025-05-31T16:34:39Z","tX":583,"tY":603,"tags":{"addr:city":"Colesburg","addr:country":"ZA","bar":"no","big_rigs":"yes","camp_type":"established","caravans":"yes","description":"Small caravan site on pebbles between chalets close to town.","dish_washing":"yes","dryer":"no","fee":"ZAR:200 (2 adults, camper)","general_room":"no","guarded":"no","impromptu":"no","internet":"no","kitchen":"yes","laundry":"yes","name":"Mijn Rust","opening_hours":"8:00-18:00","payment:credit_card":"yes","pets":"yes","picnic_benches":"no","power_supply":"yes","power_supply:voltage":"220","restaurant":"no","sanitary_dumpstation":"no","shop":"no","source":"Survey","swimming_pool":"no","tents":"no","toilets:disposal":"flush","toilets:position":"seated","washing_machine":"no","water:location":"central","water:quality":"potable"}}}