{"8518429":{"location":[62.3849153,26.4250493],"ct":"FI","tp":"CS","ts":"2024-07-15T21:02:55Z","tX":587,"tY":283,"tags":{"addr:city":"Hankasalmi","addr:housenumber":"4","addr:postcode":"41520","addr:street":"Ruokoniementie","email":"ruokoniemenleirinta@gmail.com","name":"Ruokoniemi Camping","phone":"+358 40 418 894","website":"https://ruokoniemenleirinta.net/"}},"613145222":{"location":[62.3846835,26.4240765],"ct":"FI","tp":"SD","ts":"2018-08-01T21:29:19Z","tX":587,"tY":283,"tags":{"amenity_1":"toilets"}},"613145229":{"location":[62.3856572,26.4249111],"ct":"FI","tp":"SD","ts":"2018-08-01T21:29:19Z","tX":587,"tY":283,"tags":{"amenity_1":"toilets"}},"11664550462":{"location":[62.3841694,26.4252915],"ct":"FI","tp":"CS","ts":"2024-02-26T07:01:11Z","tX":587,"tY":283,"tags":{"addr:city":"Hankasalmi","addr:housenumber":"4","addr:postcode":"41520","addr:street":"Ruokoniementie","name":"Ruokoniemi Canping","operator":"Ruokoniemi Canping"}},"12404891864":{"location":[62.3846797,26.424073],"ct":"FI","tp":"SD","ts":"2024-12-08T14:50:25Z","tX":587,"tY":283,"tags":{"access":"customers"}},"12404891865":{"location":[62.385636,26.4248083],"ct":"FI","tp":"SD","ts":"2024-12-08T14:50:25Z","tX":587,"tY":283,"tags":{"access":"customers"}}}