{"2165025841":{"location":[58.4059683,26.6122001],"ct":"EE","tp":"CS","ts":"2023-11-17T01:07:04Z","tX":587,"tY":306,"tags":{"addr:city":"Rahinge küla","addr:country":"EE","addr:housenumber":"4","addr:postcode":"61408","addr:street":"Kure tee","email":"kuretalu@kuretalu.ee","name":"Kure Turismitalu","phone":"+372 7494705","website":"https://www.kuretalu.ee/"}},"6681177836":{"location":[58.3964753,26.6630441],"ct":"EE","tp":"CS","ts":"2023-05-18T09:32:36Z","tX":587,"tY":306,"tags":{"access":"yes","backcountry":"yes","bbq":"yes","capacity:persons":"8","capacity:tents":"2","contact:email":"info.kiidjarve@rmk.ee","contact:phone":"+372 676 7122","contact:website":"https://loodusegakoos.ee/kuhuminna/puhkealad/tartu-jogeva-puhkeala/1656","fee":"no","internet_access":"no","name":"Tiksoja lõkkekoht","openfire":"yes","operator":"RMK","shower":"no","tents":"yes","toilets":"yes"}},"10891272548":{"location":[58.41296,26.528039],"ct":"EE","tp":"CS","ts":"2023-05-12T16:17:09Z","tX":587,"tY":306,"tags":{"backcountry":"yes","bbq":"yes","capacity:persons":"8","capacity:tents":"2","name":"Kotka lõkkekoht","openfire":"yes","operator":"RMK","shower":"no","tents":"yes","toilets":"yes","website":"https://loodusegakoos.ee/kuhuminna/puhkealad/tartu-jogeva-puhkeala/kotka-lokkekoht"}},"10891398656":{"location":[58.407827,26.517507],"ct":"EE","tp":"CS","ts":"2023-05-12T16:52:22Z","tX":587,"tY":306,"tags":{"backcountry":"yes","bbq":"yes","capacity:persons":"12","capacity:tents":"3","name":"Lagle lõkkekoht","openfire":"yes","operator":"RMK","shower":"no","tents":"yes","toilets":"yes","website":"https://loodusegakoos.ee/kuhuminna/puhkealad/tartu-jogeva-puhkeala/1654"}},"10891961702":{"location":[58.398119,26.534887],"ct":"EE","tp":"CS","ts":"2023-05-12T21:37:12Z","tX":587,"tY":306,"tags":{"backcountry":"yes","bbq":"yes","capacity:persons":"8","capacity:tents":"2","name":"Laululuige lõkkekoht","openfire":"yes","operator":"RMK","shower":"no","tents":"yes","toilets":"yes","website":"https://loodusegakoos.ee/kuhuminna/puhkealad/tartu-jogeva-puhkeala/laululuige-lokkekoht"}},"10907606795":{"location":[58.4049025,26.5565413],"ct":"EE","tp":"CS","ts":"2023-05-18T09:22:14Z","tX":587,"tY":306,"tags":{"backcountry":"yes","bbq":"yes","capacity:persons":"12","capacity:tents":"3","name":"Tenno lõkkekoht","openfire":"yes","operator":"RMK","shower":"no","tents":"yes","toilets":"yes","website":"https://loodusegakoos.ee/kuhuminna/puhkealad/tartu-jogeva-puhkeala/1649"}}}