{"1345538956":{"location":[57.7527615,26.4654191],"ct":"EE","tp":"CS","ts":"2023-08-03T11:19:54Z","tX":587,"tY":309,"tags":{"backcountry":"yes","bbq":"yes","capacity:persons":"16","capacity:tents":"4","name":"Õdri lõkkekoht II","openfire":"yes","operator":"RMK","shower":"no","tents":"yes","toilets":"yes","website":"https://loodusegakoos.ee/kuhuminna/rahvuspargid/karula-rahvuspark/1296"}},"1345539176":{"location":[57.7176296,26.4927607],"ct":"EE","tp":"CS","ts":"2023-08-22T03:53:36Z","tX":587,"tY":309,"tags":{"backcountry":"yes","bbq":"yes","capacity:persons":"24","capacity:tents":"6","name":"Alakonnu lõkkekoht","name:en":"Alakonnu campfire site","name:ru":"Алаконнуское место для костра","openfire":"yes","operator":"RMK","shower":"no","tents":"yes","toilets":"yes","website":"https://loodusegakoos.ee/kuhuminna/rahvuspargid/karula-rahvuspark/1293"}},"1682369424":{"location":[57.7511865,26.4642044],"ct":"EE","tp":"CS","ts":"2023-05-14T11:01:08Z","tX":587,"tY":309,"tags":{"backcountry":"yes","bbq":"yes","capacity:persons":"16","capacity:tents":"4","name":"Õdri lõkkekoht I","openfire":"yes","operator":"RMK","shower":"no","tents":"yes","toilets":"yes","website":"https://loodusegakoos.ee/kuhuminna/rahvuspargid/karula-rahvuspark/1295"}},"3052144455":{"location":[57.7193066,26.4998939],"ct":"EE","tp":"CS","ts":"2023-08-22T03:53:36Z","tX":587,"tY":309,"tags":{"access":"yes","backcountry":"yes","bbq":"yes","caravans":"no","covered":"yes","drinking_water":"no","fee":"no","fireplace":"yes","name":"Veski lõkkekoht","name:en":"Veski campfire site","name:ru":"Вескиское место для костра","openfire":"yes","opening_hours":"24/7","operator":"RMK","power_supply":"no","reservation":"no","shower":"no","source":"maaamet","static_caravans":"no","tents":"yes","toilets":"yes","website":"https://loodusegakoos.ee/kuhuminna/rahvuspargid/karula-rahvuspark/1292","wheelchair":"yes"}},"3556846779":{"location":[57.7114824,26.5024674],"ct":"EE","tp":"CS","ts":"2023-08-22T03:53:36Z","tX":587,"tY":309,"tags":{"access":"yes","backcountry":"yes","caravans":"no","covered":"yes","description":"RMK lõkkeplats","fee":"no","name":"Ähijärve lõkkekoht","name:en":"Lake Ähijärv campfire site","name:ru":"Эхиярвеское место для костра","operator":"RMK","static_caravans":"no","tents":"no","website":"https://loodusegakoos.ee/kuhuminna/rahvuspargid/karula-rahvuspark/1290"}},"5021674622":{"location":[57.7454637,26.7124476],"ct":"EE","tp":"CS","ts":"2023-11-17T01:07:08Z","tX":587,"tY":309,"tags":{"access":"customers","addr:city":"Roosiku küla","addr:postcode":"66306","addr:street":"Hedo","capacity":"10","email":"post@hedo.de","internet_access":"wlan","name":"Hedo Talu","name:de":"Hedo Talu","opening_hours":"24/7","operator":"Kay Nicolaus","phone":"+37253285575","website":"https://hedo.ee/"}},"9074026605":{"location":[57.711831,26.5035985],"ct":"EE","tp":"CS","ts":"2023-08-22T03:53:36Z","tX":587,"tY":309,"tags":{"backcountry":"yes","bbq":"yes","capacity:tents":"50","drinking_water":"yes","name":"Suuremäe telkimisala","name:en":"Suuremäe campsite","name:ru":"Сууремяэское место для установки палаток","openfire":"yes","operator":"RMK","power_supply":"yes","shower":"no","tents":"yes","toilets":"yes","website":"https://loodusegakoos.ee/kuhuminna/rahvuspargid/karula-rahvuspark/1291","wheelchair":"yes"}},"10887849430":{"location":[57.780595,26.423707],"ct":"EE","tp":"CS","ts":"2023-05-11T21:28:32Z","tX":587,"tY":309,"tags":{"backcountry":"yes","bbq":"yes","name":"Kogrejärve lõkkekoht","openfire":"yes","operator":"RMK","shower":"no","tents":"yes","toilets":"yes","website":"https://loodusegakoos.ee/kuhuminna/puhkealad/haanja-karula-puhkeala/1448"}},"10892946683":{"location":[57.73335,26.48853],"ct":"EE","tp":"CS","ts":"2023-05-13T10:19:50Z","tX":587,"tY":309,"tags":{"backcountry":"yes","bbq":"yes","name":"Mäekonnu lõkkekoht","openfire":"yes","operator":"RMK","shower":"no","tents":"yes","toilets":"yes","website":"https://loodusegakoos.ee/kuhuminna/rahvuspargid/karula-rahvuspark/1298"}},"10903505121":{"location":[57.74401,26.41709],"ct":"EE","tp":"CS","ts":"2023-05-16T21:03:50Z","tX":587,"tY":309,"tags":{"backcountry":"yes","bbq":"yes","capacity:persons":"40","capacity:tents":"10","name":"Rebasemõisa lõkkekoht","openfire":"yes","operator":"RMK","shower":"no","tents":"yes","toilets":"yes","website":"https://loodusegakoos.ee/kuhuminna/rahvuspargid/karula-rahvuspark/5121"}},"11189668298":{"location":[57.712916,26.5042067],"ct":"EE","tp":"CS","ts":"2023-09-14T05:14:35Z","tX":587,"tY":309,"tags":{"access":"permissive","operator":"RMK"}}}