{"4317256693":{"location":[55.5949498,26.4222969],"ct":"LT","tp":"CS","ts":"2023-03-24T10:00:05Z","tX":587,"tY":320,"tags":{"addr:city":"Visaginas","addr:housenumber":"14A","addr:street":"Parko g.","name":"Visagino parkas"}},"7512247388":{"location":[55.5784396,26.3848669],"ct":"LT","tp":"CS","ts":"2022-08-01T05:12:51Z","tX":587,"tY":320,"tags":{"bin":"yes","fireplace":"yes","name":"Karačiunkos poilsiavietė","operator":"Valstybinė miškų urėdija","phone":"+370 386 52246"}},"7731330781":{"location":[55.6773308,26.7099757],"ct":"BY","tp":"CS","ts":"2023-08-05T01:39:06Z","tX":587,"tY":320,"tags":{"addr:postcode":"211970","name":"Стаянка №5","name:be":"Стаянка №5","name:ru":"Стоянка №4","name:uk":"Парковка №4"}},"7731330782":{"location":[55.678043,26.7106328],"ct":"BY","tp":"CS","ts":"2023-08-05T01:39:06Z","tX":587,"tY":320,"tags":{"addr:postcode":"211970","name":"Стаянка №3","name:be":"Стаянка №3","name:ru":"Стоянка №5","name:uk":"Парковка №5"}},"7731330783":{"location":[55.6762372,26.7092357],"ct":"BY","tp":"CS","ts":"2023-08-05T01:39:06Z","tX":587,"tY":320,"tags":{"addr:postcode":"211970","name":"Стаянка №4","name:be":"Стаянка №4","name:ru":"Стоянка №3","name:uk":"Парковка №3"}},"7731330784":{"location":[55.6838264,26.7103969],"ct":"BY","tp":"CS","ts":"2023-05-21T19:31:38Z","tX":587,"tY":320,"tags":{"name":"Стаянка №2","name:be":"Стаянка №2","name:ru":"Стоянка №2","name:uk":"Парковка №2"}},"11019615405":{"location":[55.686458,26.7076636],"ct":"BY","tp":"CS","ts":"2023-08-05T01:39:06Z","tX":587,"tY":320,"tags":{"name":"Стаянка №1","name:be":"Стаянка №1","name:en":"Stoyanka №1","name:ru":"Стоянка №1","name:uk":"Парковка №1"}}}