{"948164245":{"location":[54.8081416,26.4594957],"ct":"BY","tp":"CS","ts":"2023-05-21T19:31:38Z","tX":587,"tY":324,"tags":{"name":"Кемпінг з альтанкамі","name:be":"Кемпінг з альтанкамі","name:ru":"Кемпинг с беседками","name:uk":"Кемпінг з альтанками"}},"948175807":{"location":[54.976044,26.4093572],"ct":"BY","tp":"CS","ts":"2023-05-21T19:31:38Z","tX":587,"tY":324,"tags":{"name":"Кемпінг Балдук (яловы і цёмны)","name:be":"Кемпінг Балдук (яловы і цёмны)","name:ru":"Кемпинг Болдук (еловый и тёмный)","name:uk":"Кемпінг Болдук (ялиновий та темний)"}},"1060041694":{"location":[54.9519779,26.4419899],"ct":"BY","tp":"CS","ts":"2023-05-21T19:31:38Z","tX":587,"tY":324,"tags":{"access":"yes","backcountry":"yes","fee":"yes","name":"Млын","name:be":"Млын","name:ru":"Мельница","name:uk":"Млин","payment:cash":"yes"}},"1544242699":{"location":[54.9494577,26.5862377],"ct":"BY","tp":"CS","ts":"2023-05-21T19:31:38Z","tX":587,"tY":324,"tags":{"fireplace":"yes","leisure":"picnic_table","name":"Глыбокі Ручай","name:be":"Глыбокі Ручай","name:ru":"Глубокий ручей","name:uk":"Глибокий струмок"}},"1544242709":{"location":[54.9726187,26.607356],"ct":"BY","tp":"CS","ts":"2023-12-14T04:23:19Z","tX":587,"tY":324,"tags":{"fee":"yes","name":"Турыстычная стаянка «Цюкшы-2»","name:be":"Турыстычная стаянка «Цюкшы-2»","name:ru":"Туристическая стоянка «Тюкши-2»","name:uk":"Туристична стоянка «Тюкші-2»"}},"1544242717":{"location":[54.9686706,26.6163748],"ct":"BY","tp":"CS","ts":"2023-12-14T04:23:19Z","tX":587,"tY":324,"tags":{"fee":"yes","name":"Турыстычная стаянка «Цюкшы-3»","name:be":"Турыстычная стаянка «Цюкшы-3»","name:ru":"Туристическая стоянка «Тюкши-3»","name:uk":"Туристична стоянка «Тюкші-3»"}},"3688491447":{"location":[54.9746946,26.4097861],"ct":"BY","tp":"CS","ts":"2023-12-14T04:23:19Z","tX":587,"tY":324,"tags":{"int_name":"Turystyčnaja stajanka \"Bałduk\"","name":"Турыстычная стаянка «Балдук»","name:be":"Турыстычная стаянка «Балдук»","name:ru":"Туристическая стоянка «Болдук»","name:uk":"Туристична стоянка «Болдук»"}},"4427456892":{"location":[54.8474343,26.7095082],"ct":"BY","tp":"CS","ts":"2016-10-02T10:32:45Z","tX":587,"tY":324,"tags":{}},"7733295986":{"location":[54.8083184,26.4613309],"ct":"BY","tp":"CS","ts":"2023-05-21T19:31:38Z","tX":587,"tY":324,"tags":{"name":"Залатая горка","name:be":"Залатая горка","name:ru":"Золотая горка","name:uk":"Золота гірка","phone":"+375179749807"}},"8776639868":{"location":[54.7823782,26.4894426],"ct":"BY","tp":"CS","ts":"2021-05-28T13:10:58Z","tX":587,"tY":324,"tags":{}},"8776639869":{"location":[54.7821183,26.4895767],"ct":"BY","tp":"CS","ts":"2021-05-28T13:10:58Z","tX":587,"tY":324,"tags":{}},"8776639870":{"location":[54.7818538,26.4896437],"ct":"BY","tp":"CS","ts":"2021-05-28T13:10:58Z","tX":587,"tY":324,"tags":{}},"8776644207":{"location":[54.7930094,26.4777213],"ct":"BY","tp":"CS","ts":"2021-05-28T13:12:03Z","tX":587,"tY":324,"tags":{}},"4714029492":{"location":[54.9400239,26.4044444],"ct":"BY","tp":"CR","ts":"2023-12-14T04:23:21Z","tX":587,"tY":324,"tags":{"addr:housenumber":"28","addr:place":"Грумбіненты","email":"evgeny.shpat@gmail.com","internet_access":"wlan","name":"Агратурбаза «Блакітныя Азёры»","name:be":"Агратурбаза «Блакітныя Азёры»","name:ru":"Агротурбаза «Голубые Озёра»","name:uk":"Агротурбаза «Блакитні Озери»","opening_hours":"24/7","operator":"Евгений","website":"https://www.bluelakes.by/"}}}