{"1060036521":{"location":[54.6406248,26.4017904],"ct":"BY","tp":"CS","ts":"2022-05-14T09:16:18Z","tX":587,"tY":325,"tags":{"backcountry":"yes"}},"3688489222":{"location":[54.7080076,26.5536541],"ct":"BY","tp":"CS","ts":"2023-05-21T19:31:38Z","tX":587,"tY":325,"tags":{"name":"Канькова","name:be":"Канькова","name:ru":"Коньково","name:uk":"Коньково"}},"3688496584":{"location":[54.7118611,26.5849813],"ct":"BY","tp":"CS","ts":"2023-05-21T19:31:38Z","tX":587,"tY":325,"tags":{"name":"т/с Шырокі Роў","name:be":"т/с Шырокі Роў","name:ru":"т/с Широкий Ров","name:uk":"т/с Широкий Рів"}},"4240922989":{"location":[54.7670003,26.5075434],"ct":"BY","tp":"CS","ts":"2016-06-13T07:52:34Z","tX":587,"tY":325,"tags":{}},"6437880885":{"location":[54.634511,26.4118471],"ct":"BY","tp":"CS","ts":"2019-08-09T19:44:35Z","tX":587,"tY":325,"tags":{}},"7683709685":{"location":[54.5723234,26.7129288],"ct":"BY","tp":"CS","ts":"2020-07-04T20:42:38Z","tX":587,"tY":325,"tags":{"name":"LAAKy camp","opening_hours":"24/7","operator":"Good people","phone":"+375447896921"}},"9043949063":{"location":[54.6560973,26.4134359],"ct":"BY","tp":"CS","ts":"2022-05-14T09:16:18Z","tX":587,"tY":325,"tags":{"access":"yes","backcountry":"yes","capacity":"20","fee":"no"}},"12196258850":{"location":[54.5769938,26.4315446],"ct":"BY","tp":"CS","ts":"2024-09-24T03:52:57Z","tX":587,"tY":325,"tags":{}},"12196258876":{"location":[54.5964663,26.437066],"ct":"BY","tp":"CS","ts":"2024-09-24T03:52:57Z","tX":587,"tY":325,"tags":{}},"12196258895":{"location":[54.6273421,26.4349791],"ct":"BY","tp":"CS","ts":"2024-09-24T03:52:57Z","tX":587,"tY":325,"tags":{}},"12196275704":{"location":[54.6326789,26.415487],"ct":"BY","tp":"CS","ts":"2024-09-24T03:52:57Z","tX":587,"tY":325,"tags":{}}}