{"1060033205":{"location":[54.1304619,26.4758633],"ct":"BY","tp":"CS","ts":"2022-05-14T08:53:06Z","tX":587,"tY":328,"tags":{"backcountry":"yes"}},"4349743266":{"location":[53.9640884,26.7067805],"ct":"BY","tp":"CS","ts":"2024-11-08T15:48:30Z","tX":587,"tY":328,"tags":{"name":"Турыстычная паляна","name:be":"Турыстычная паляна","name:ru":"Туристическая поляна"}},"4913630622":{"location":[54.1244832,26.4045615],"ct":"BY","tp":"CS","ts":"2024-11-08T15:48:30Z","tX":587,"tY":328,"tags":{"name":"Чэрап","name:be":"Чэрап","name:ru":"Череп"}},"5164700932":{"location":[54.1247494,26.4055916],"ct":"BY","tp":"CS","ts":"2022-05-09T19:05:19Z","tX":587,"tY":328,"tags":{}},"5698586635":{"location":[53.9639081,26.7041159],"ct":"BY","tp":"CS","ts":"2024-11-08T15:48:30Z","tX":587,"tY":328,"tags":{"name":"Турыстычная паляна","name:be":"Турыстычная паляна","name:ru":"Туристическая поляна"}},"5698586636":{"location":[53.9666238,26.70302],"ct":"BY","tp":"CS","ts":"2024-11-08T15:48:30Z","tX":587,"tY":328,"tags":{"name":"Турыстычная паляна","name:be":"Турыстычная паляна","name:ru":"Туристическая поляна"}},"6503305650":{"location":[53.9609178,26.7103279],"ct":"BY","tp":"CS","ts":"2019-05-27T07:20:56Z","tX":587,"tY":328,"tags":{}},"6615915204":{"location":[54.0129851,26.4142965],"ct":"BY","tp":"CS","ts":"2024-11-08T15:48:30Z","tX":587,"tY":328,"tags":{"email":"zakaznik_naliboki@tut.by","fax":"+375 29 615 68 05","fee":"yes","fireplace":"yes","name":"Урочище Марчеха","name:ru":"Урочище Марчеха","phone":"+375 1772 610 10","shelter_type":"picnic_shelter","tents":"yes","website":"https://volozhin.gov.by/ru/ekonomika/pridorozhnyj-servis"}},"7470071785":{"location":[53.9610193,26.7021129],"ct":"BY","tp":"CS","ts":"2020-05-01T08:58:56Z","tX":587,"tY":328,"tags":{}},"7642014086":{"location":[53.9573501,26.715376],"ct":"BY","tp":"CS","ts":"2024-11-08T15:48:30Z","tX":587,"tY":328,"tags":{"name":"Лагер «Сплаў НХ»","name:be":"Лагер «Сплаў НХ»","name:en":"Camp «Rafting NH»","name:ru":"Лагерь «Сплав НХ»","name:uk":"Табір «Сплав НХ»"}},"7685317186":{"location":[54.0096625,26.6426876],"ct":"BY","tp":"CS","ts":"2022-05-31T21:08:02Z","tX":587,"tY":328,"tags":{}},"8900656041":{"location":[53.967032,26.7024052],"ct":"BY","tp":"CS","ts":"2024-11-08T15:48:30Z","tX":587,"tY":328,"tags":{"name":"Турыстычная паляна","name:be":"Турыстычная паляна","name:ru":"Туристическая поляна","operator":"Республиканский ландшафтный заказник \"Налибокский\""}}}