{"1154778116":{"location":[39.4855736,26.367396],"ct":"TR","tp":"CS","ts":"2023-03-16T15:27:22Z","tX":587,"tY":389,"tags":{}},"1154778118":{"location":[39.4885237,26.3672477],"ct":"TR","tp":"CS","ts":"2024-04-23T07:32:42Z","tX":587,"tY":389,"tags":{"internet_access":"wlan","name":"Kamp At","opening_hours":"24/7","operator":"Erdem Kaplan","phone":"+905438721884"}},"3114340426":{"location":[39.4854182,26.3677186],"ct":"TR","tp":"CS","ts":"2014-10-06T07:18:37Z","tX":587,"tY":389,"tags":{"name":"Derya Kamping"}},"5747465206":{"location":[39.509117,26.4264994],"ct":"TR","tp":"CS","ts":"2018-07-08T16:17:36Z","tX":587,"tY":389,"tags":{"name":"Keçi Camping","name:en":"Goat Camping"}},"6037731368":{"location":[39.5329492,26.5518482],"ct":"TR","tp":"CS","ts":"2023-10-19T02:46:04Z","tX":587,"tY":389,"tags":{"name":"Özgür Plaj Kamp","name:en":"Özgür Beachcamp","website":"https://ozgurplajkamp.com/"}},"9034971517":{"location":[39.5377697,26.5700723],"ct":"TR","tp":"CS","ts":"2021-08-25T12:46:02Z","tX":587,"tY":389,"tags":{"name":"yörük Yaşar’ın yeri"}},"10855566543":{"location":[39.5355884,26.5567437],"ct":"TR","tp":"CS","ts":"2023-07-09T15:36:53Z","tX":587,"tY":389,"tags":{"name":"Helen camping","phone":"+90 501 286 78 17"}},"11054991473":{"location":[39.5326607,26.5226748],"ct":"TR","tp":"CS","ts":"2023-07-19T15:02:20Z","tX":587,"tY":389,"tags":{"name":"Mavi Zeytin"}},"11055011406":{"location":[39.5356042,26.5556972],"ct":"TR","tp":"CS","ts":"2023-07-19T15:06:13Z","tX":587,"tY":389,"tags":{"name":"Serenity Kamp"}},"11055046606":{"location":[39.533785,26.5403938],"ct":"TR","tp":"CS","ts":"2023-07-19T15:04:38Z","tX":587,"tY":389,"tags":{"name":"Zeus Beach"}},"11055046815":{"location":[39.5335281,26.5351945],"ct":"TR","tp":"CS","ts":"2023-07-19T15:03:53Z","tX":587,"tY":389,"tags":{"name":"Zaytun Bongalow"}},"12081839743":{"location":[39.4947716,26.3713203],"ct":"TR","tp":"CS","ts":"2024-07-29T22:26:10Z","tX":587,"tY":389,"tags":{"addr:city":"çanakkale","addr:district":"ayvacık","addr:housenumber":"no:73","addr:neighbourhood":"Kadırga Köyü","addr:postcode":"17860","addr:street":"Kadırga Mevkii","caravans":"yes","name":"Assuva Camping"}}}