{"3928754783":{"location":[19.3553265,98.4445266],"ct":"TH","tp":"CS","ts":"2019-12-17T03:51:05Z","tX":792,"tY":455,"tags":{"name:ru":"100 бат с человека. Горячий душ. Чисто. Комаров нет. Декабрь 2019"}},"4033064330":{"location":[19.3615764,98.4624573],"ct":"TH","tp":"CS","ts":"2016-02-29T14:48:46Z","tX":792,"tY":455,"tags":{}},"4582144993":{"location":[19.3216643,98.4771457],"ct":"TH","tp":"CS","ts":"2016-12-31T02:02:16Z","tX":792,"tY":455,"tags":{}},"4644014989":{"location":[19.318354,98.5976192],"ct":"TH","tp":"CS","ts":"2017-01-30T11:12:16Z","tX":792,"tY":455,"tags":{"opening_hours":"24/7"}},"6202752985":{"location":[19.3216753,98.5935447],"ct":"TH","tp":"CS","ts":"2019-01-12T06:57:33Z","tX":792,"tY":455,"tags":{"name:en":"cow pen"}},"9379309242":{"location":[19.3987048,98.5888685],"ct":"TH","tp":"CS","ts":"2021-12-30T13:49:43Z","tX":792,"tY":455,"tags":{}},"11405549801":{"location":[19.3421141,98.4392376],"ct":"TH","tp":"CS","ts":"2023-12-09T15:26:49Z","tX":792,"tY":455,"tags":{"addr:city":"Pai","addr:housenumber":"8CRQ+XJ3","addr:postcode":"58130","addr:street":"Thung Yao","name":"Tube Camp 1","operator":"Jungle Tubing"}}}