{"7644889266":{"location":[46.8677636,-101.2643141],"ct":"US","tp":"CS","ts":"2023-05-24T23:00:51Z","tX":223,"tY":360,"tags":{"addr:city":"Salem","addr:state":"ND","backcountry":"yes","drinking_water":"no","name":"Sweetbriar Lake - Southeast Ramp - ND GFD","phone":"701-667-3363","power_supply":"no","shower":"no","toilets":"vault"}},"7644889268":{"location":[46.873182,-101.2745601],"ct":"US","tp":"CS","ts":"2023-05-24T23:00:24Z","tX":223,"tY":360,"tags":{"backcountry":"yes","drinking_water":"yes","name":"Sweet Briar Lake","power_supply":"no","reservation":"no","shower":"no","toilets":"vault"}},"7644889269":{"location":[46.8737718,-101.2779037],"ct":"US","tp":"CS","ts":"2023-08-24T05:41:11Z","tX":223,"tY":360,"tags":{"addr:city":"New Salem","addr:state":"ND","backcountry":"yes","drinking_water":"no","name":"Sweetbriar Lake-Northwest Ramp - ND GFD","phone":"701-667-3363","power_supply":"no","shower":"no","toilets":"vault"}},"7644889284":{"location":[46.8490372,-101.4178002],"ct":"US","tp":"CS","ts":"2024-08-07T05:03:54Z","tX":223,"tY":360,"tags":{"addr:city":"New Salem","addr:state":"ND","capacity":"6","charge":"10 USD","description":"$10-$20","fee":"yes","name":"North City Park"}}}