{"909626322":{"location":[32.2737494,-101.3692871],"ct":"US","tp":"CR","ts":"2021-02-22T13:08:24Z","tX":223,"tY":414,"tags":{"addr:city":"Big Spring","addr:housenumber":"7000","addr:postcode":"79720","addr:state":"TX","addr:street":"South Service Road","name":"Whip In RV Park"}},"909626344":{"location":[32.2769366,-101.3631529],"ct":"US","tp":"CR","ts":"2021-02-22T13:08:24Z","tX":223,"tY":414,"tags":{"addr:city":"Big Spring","addr:housenumber":"7400","addr:postcode":"79720","addr:state":"TX","addr:street":"South Service Road","name":"Happy Trails RV Park"}},"911715991":{"location":[32.2633095,-101.5127157],"ct":"US","tp":"CR","ts":"2021-02-28T08:07:20Z","tX":223,"tY":414,"tags":{"addr:city":"Big Spring","addr:housenumber":"1314","addr:postcode":"79720","addr:state":"TX","addr:street":"State Highway 176","name":"West Texas Friendly RV Park North"}},"911715993":{"location":[32.2692684,-101.4442806],"ct":"US","tp":"CR","ts":"2021-02-28T08:07:20Z","tX":223,"tY":414,"tags":{"addr:city":"Big Spring","addr:housenumber":"1203","addr:postcode":"79720","addr:state":"TX","addr:street":"North FM 700","name":"Desert Hills Mobile Home Park"}},"911715994":{"location":[32.2668521,-101.4310794],"ct":"US","tp":"CR","ts":"2021-02-28T08:07:20Z","tX":223,"tY":414,"tags":{"addr:city":"Big Spring","addr:housenumber":"3429","addr:postcode":"79720","addr:state":"TX","addr:street":"East Interstate 20","name":"HillSide RV park"}},"913710260":{"location":[32.2711299,-101.4692432],"ct":"US","tp":"CR","ts":"2021-03-05T03:40:51Z","tX":223,"tY":414,"tags":{"addr:city":"Big Spring","addr:housenumber":"907","addr:postcode":"79720","addr:state":"TX","addr:street":"East Interstate 20","name":"Southridge RV Park"}},"1180319123":{"location":[32.2851544,-101.3486675],"ct":"US","tp":"CR","ts":"2023-06-07T22:02:07Z","tX":223,"tY":414,"tags":{}}}