{"910662269":{"location":[32.2077244,-101.4770121],"ct":"US","tp":"CR","ts":"2024-02-28T05:00:20Z","tX":223,"tY":415,"tags":{"addr:city":"Big Spring","addr:housenumber":"1001","addr:postcode":"79720","addr:state":"TX","addr:street":"Hearn Street","name":"Texas RV Park of Big Spring","website":"http://www.txrvparkbigspring.com/"}},"913678798":{"location":[32.1773671,-101.4753789],"ct":"US","tp":"CR","ts":"2021-03-04T23:17:09Z","tX":223,"tY":415,"tags":{"addr:city":"Big Spring","addr:housenumber":"5515","addr:postcode":"79720","addr:state":"TX","addr:street":"Wasson Road","name":"South Haven RV Park"}},"913678799":{"location":[32.1798637,-101.4762424],"ct":"US","tp":"CR","ts":"2021-03-04T23:17:09Z","tX":223,"tY":415,"tags":{"addr:city":"Big Spring","addr:housenumber":"5327","addr:postcode":"79720","addr:state":"TX","addr:street":"Wasson Road","name":"West Texas Friendly RV Park"}},"913678810":{"location":[32.2131129,-101.4747542],"ct":"US","tp":"CS","ts":"2021-03-04T23:17:09Z","tX":223,"tY":415,"tags":{"addr:city":"Big Spring","addr:housenumber":"3202","addr:postcode":"79720","addr:state":"TX","addr:street":"South US Highway 87","name":"Comanche Trail Park Campground"}}}